{"type":"FeatureCollection","features":[
{"type":"Feature","properties":{"entityId":"abkhazia","from":1993,"to":null,"certainty":"estimated","source":"유럽 쪽은 Natural Earth 1:10m admin-1(v5.1.2) 현대 행정구역 조각을 그 시기 국경에 맞춰 묶고, 조각이 역사 경계와 다른 곳은 선을 그어 나눈 근사. 유럽 밖(시베리아·중앙아시아·극동)은 대략적인 추정. 운영자 검수 필요"},"geometry":{"type":"Polygon","coordinates":[[[39.986,43.389],[39.9913,43.4063],[40.0592,43.5352],[40.0967,43.5626],[40.1643,43.5758],[40.2331,43.5758],[40.4798,43.5087],[40.5508,43.5112],[40.6155,43.5358],[40.6519,43.539],[40.69,43.5231],[40.7402,43.4953],[40.8427,43.4694],[40.875,43.4556],[41.0118,43.3754],[41.0425,43.3698],[41.1467,43.3799],[41.1808,43.3747],[41.2788,43.3332],[41.3503,43.3434],[41.3807,43.3348],[41.4276,43.2832],[41.5061,43.2598],[41.5506,43.2263],[41.6141,43.213],[41.6874,43.2202],[41.8203,43.2012],[41.89,43.207],[41.9483,43.2001],[42.0113,43.1819],[42.0753,43.1853],[42.1543,43.2175],[42.1293,43.1679],[42.1335,43.1114],[42.1194,43.0832],[42.0573,43.0169],[42.0051,43.0005],[41.908,42.9872],[41.8845,42.9646],[41.9022,42.9479],[41.9309,42.8606],[41.8923,42.8308],[41.9095,42.7649],[41.9122,42.7146],[41.9404,42.679],[41.9471,42.6358],[41.9384,42.618],[41.8037,42.5222],[41.7143,42.4838],[41.6649,42.4714],[41.6292,42.4384],[41.5512,42.4065],[41.548,42.4213],[41.5348,42.4213],[41.5065,42.4979],[41.4524,42.6444],[41.2031,42.8041],[41.1502,42.7956],[41.1047,42.8466],[41.0947,42.8735],[40.8764,43.0134],[40.322,43.1285],[40.0176,43.3825],[39.986,43.389]]]}}
]}
