{"type":"FeatureCollection","features":[
{"type":"Feature","properties":{"entityId":"achaea","from":1400,"to":1430,"certainty":"estimated","source":"유럽 쪽은 Natural Earth 1:10m admin-1(v5.1.2) 현대 행정구역 조각을 그 시기 국경에 맞춰 묶고, 조각이 역사 경계와 다른 곳은 선을 그어 나눈 근사. 유럽 밖(시베리아·중앙아시아·극동)은 대략적인 추정. 운영자 검수 필요"},"geometry":{"type":"Polygon","coordinates":[[[21.1062,37.8781],[21.1221,37.8374],[21.2273,37.8119],[21.2365,37.808],[21.2558,37.7955],[21.2958,37.6446],[21.3339,37.5634],[21.3912,37.4411],[21.4198,37.38],[21.4341,37.3494],[21.6049,37.3494],[21.6049,37.38],[21.6816,37.38],[21.682,37.379],[21.6976,37.3849],[21.7646,37.3736],[21.8006,37.38],[21.8336,37.3731],[21.8528,37.3815],[21.8882,37.4179],[21.8871,37.4454],[21.9293,37.4809],[21.9507,37.4672],[21.9788,37.4855],[21.9502,37.5137],[21.8584,37.5718],[21.7907,37.5803],[21.7895,37.6896],[21.7686,37.7387],[21.7736,37.779],[21.8314,37.8536],[21.8675,37.8599],[21.8755,37.8316],[22.0106,37.7789],[22.0281,37.7794],[22.0542,37.8033],[22.1074,37.8074],[22.1113,37.7932],[22.1464,37.7942],[22.1725,37.8181],[22.2286,37.8354],[22.2355,37.8508],[22.2136,37.8783],[22.2323,37.9633],[22.3278,38],[22.3722,38.0898],[22.348,38.1231],[22.3573,38.163],[22.3573,38.1774],[22.3906,38.1774],[22.3906,38.2168],[22.4239,38.2168],[22.4239,38.2562],[22.2907,38.2562],[22.2907,38.2662],[22.224,38.2662],[22.224,38.2685],[22.1907,38.2685],[22.1907,38.2957],[22.1574,38.2957],[22.1574,38.3098],[22.0908,38.3098],[22.0908,38.32],[21.87,38.32],[21.84,38.34],[21.8,38.34],[21.78,38.32],[21.6,38.3],[21.35,38.24],[21.1441,38.2165],[21.211,37.9644],[21.1611,37.9314],[21.1336,37.9464],[21.1062,37.8781]]]}}
]}
