{"type":"FeatureCollection","features":[
{"type":"Feature","properties":{"entityId":"alans-hispania","from":411,"to":418,"certainty":"estimated","source":"유럽 쪽은 Natural Earth 1:10m admin-1(v5.1.2) 현대 행정구역 조각을 그 시기 국경에 맞춰 묶고, 조각이 역사 경계와 다른 곳은 선을 그어 나눈 근사. 유럽 밖(시베리아·중앙아시아·극동)은 대략적인 추정. 운영자 검수 필요"},"geometry":{"type":"Polygon","coordinates":[[[-9.5277,38.738],[-9.5061,38.704],[-9.4247,38.5761],[-9.4122,38.5564],[-9.3953,38.5298],[-9.3443,38.4497],[-9.2865,38.3588],[-9.2108,38.343],[-9.0095,38.301],[-8.8401,38.2657],[-8.8203,38.1359],[-8.8771,37.9661],[-8.8948,37.9525],[-8.8668,37.9387],[-8.8221,37.8713],[-8.8214,37.868],[-8.8141,37.8326],[-8.8067,37.7972],[-8.817,37.7403],[-8.8087,37.7229],[-8.7946,37.7258],[-8.8002,37.6944],[-8.8265,37.6006],[-8.8184,37.5873],[-8.8157,37.4671],[-8.815,37.4371],[-8.8149,37.4308],[-8.825,37.407],[-8.8503,37.347],[-8.8828,37.3099],[-8.8739,37.2912],[-8.9075,37.2117],[-8.9227,37.1997],[-8.9185,37.1859],[-8.9265,37.1669],[-8.9752,37.0765],[-8.9856,37.0634],[-8.9896,37.0499],[-8.9985,37.0333],[-8.9983,37.0332],[-8.9985,37.0329],[-8.9949,37.0319],[-8.9979,37.0215],[-8.9829,37.0266],[-8.946,37.0079],[-8.8789,37.0472],[-8.8643,37.0424],[-8.8977,36.8698],[-8.8976,36.8698],[-8.8977,36.8694],[-8.8973,36.8695],[-8.8973,36.8694],[-8.3827,36.9794],[-7.8573,36.8389],[-7.8572,36.839],[-7.8569,36.8389],[-7.5462,37.0385],[-7.4617,37.0928],[-7.4538,37.0978],[-7.3772,37.0851],[-7.3349,37.078],[-7.3349,37.1366],[-7.3772,37.1366],[-7.3772,37.1659],[-7.4078,37.1659],[-7.4144,37.1928],[-7.4342,37.2593],[-7.445,37.3868],[-7.4623,37.4179],[-7.4629,37.4511],[-7.4759,37.4943],[-7.5146,37.5283],[-7.5297,37.5672],[-7.5143,37.6014],[-7.4716,37.6369],[-7.4575,37.7001],[-7.4263,37.7506],[-7.3344,37.8119],[-7.3069,37.8508],[-7.2686,37.9492],[-7.2727,37.977],[-7.2233,37.9938],[-7.1853,37.9887],[-7.1522,38.0007],[-7.1233,38.04],[-7.0494,38.0202],[-7.024,38.0226],[-6.9976,38.0896],[-6.9576,38.1682],[-6.9506,38.1984],[-6.9338,38.2093],[-6.7979,38.1729],[-6.7955,38.1514],[-6.8104,38.113],[-6.7488,38.0936],[-6.6446,38.0937],[-6.6173,38.0868],[-6.5844,38.0568],[-6.5717,38.0239],[-6.4848,38.0164],[-6.4496,38.0514],[-6.4131,38.0537],[-6.3724,38.0312],[-6.3563,38],[-6.2003,37.952],[-6.1833,37.939],[-6.1141,37.9786],[-5.976,37.9986],[-5.9411,38.0183],[-5.9107,38.0735],[-5.9228,38.0928],[-5.9154,38.1141],[-5.8745,38.1401],[-5.8371,38.1743],[-5.8072,38.183],[-5.7275,38.1883],[-5.698,38.1659],[-5.696,38.1485],[-5.7341,38.1297],[-5.7282,38.0954],[-5.6936,38.0913],[-5.6234,38.1369],[-5.581,38.1351],[-5.5382,38.1624],[-5.5197,38.2089],[-5.5213,38.2668],[-5.5503,38.3208],[-5.5671,38.3363],[-5.561,38.3773],[-5.5758,38.3943],[-5.5694,38.4253],[-5.5493,38.4408],[-5.4808,38.4692],[-5.4649,38.4891],[-5.4196,38.5158],[-5.4003,38.5491],[-5.3624,38.5839],[-5.3068,38.5855],[-5.2881,38.6125],[-5.2101,38.659],[-5.1808,38.666],[-5.1594,38.7179],[-5.0799,38.7194],[-5.0366,38.7284],[-4.9792,38.6944],[-4.946,38.6837],[-4.883,38.6852],[-4.8697,38.6739],[-4.8659,38.635],[-4.8285,38.6041],[-4.769,38.5944],[-4.728,38.5798],[-4.704,38.5594],[-4.6327,38.5235],[-4.6105,38.497],[-4.5704,38.4867],[-4.5171,38.4555],[-4.4497,38.396],[-4.3018,38.3501],[-4.2755,38.3509],[-4.265,38.4014],[-4.2155,38.4012],[-4.1776,38.3906],[-3.8937,38.3816],[-3.8397,38.3926],[-3.8231,38.4152],[-3.7942,38.4261],[-3.6199,38.4014],[-3.5887,38.4077],[-3.5768,38.4435],[-3.5438,38.4488],[-3.5264,38.4171],[-3.4696,38.4045],[-3.3959,38.4264],[-3.3619,38.4733],[-3.3074,38.4819],[-3.2403,38.4637],[-3.1135,38.4576],[-3.0697,38.4827],[-3.0463,38.4729],[-3.0009,38.4301],[-2.9927,38.452],[-2.9508,38.4745],[-2.9235,38.4763],[-2.879,38.4606],[-2.8449,38.4834],[-2.7909,38.5071],[-2.756,38.5331],[-2.6752,38.5002],[-2.6428,38.5093],[-2.5738,38.502],[-2.574,38.4346],[-2.5572,38.4145],[-2.4887,38.3987],[-2.4711,38.2982],[-2.4401,38.2828],[-2.4303,38.2588],[-2.4489,38.2223],[-2.4448,38.1882],[-2.5474,38.0806],[-2.4658,38.0494],[-2.3612,38.0243],[-2.3385,38.0265],[-2.2962,38.0006],[-2.2614,37.9535],[-2.2097,37.9157],[-2.2716,37.8817],[-2.2859,37.8648],[-2.2905,37.8206],[-2.2824,37.7641],[-2.3215,37.6977],[-2.3159,37.6221],[-2.376,37.6121],[-2.3585,37.5222],[-2.4902,37.4894],[-2.6421,37.3832],[-2.6526,37.3123],[-2.6656,37.2844],[-2.6601,37.212],[-2.7104,37.2296],[-2.7569,37.2324],[-2.8044,37.2685],[-2.8465,37.2716],[-2.8599,37.2609],[-2.8847,37.1794],[-2.9279,37.1574],[-2.9439,37.1131],[-2.9625,37.0967],[-2.9977,37.0955],[-3.0154,37.0697],[-2.9926,36.9993],[-2.9969,36.9706],[-3.0677,36.9147],[-3.0727,36.9023],[-3.0434,36.8791],[-3.029,36.8445],[-3.1402,36.7878],[-3.1282,36.7464],[-3.1265,36.7465],[-3.1265,36.6626],[-3.0709,36.6632],[-2.9597,36.6643],[-2.7373,36.6667],[-2.1472,36.673],[-1.8477,36.9983],[-1.6098,37.2566],[-1.5817,37.2871],[-1.5293,37.3441],[-1.4768,37.4011],[-1.438,37.4432],[-1.4029,37.4525],[-0.9582,37.5699],[-0.9252,37.5559],[-0.8757,37.5757],[-0.8661,37.5764],[-0.8364,37.5764],[-0.8272,37.5793],[-0.8224,37.5797],[-0.772,37.5953],[-0.7673,37.5985],[-0.764,37.5996],[-0.7279,37.6034],[-0.7053,37.6195],[-0.7072,37.6362],[-0.682,37.6429],[-0.6471,37.7478],[-0.6286,37.8036],[-0.61,37.8594],[-0.5359,38.0825],[-0.466,38.2928],[-0.1606,38.5289],[-0.1317,38.5353],[-0.0902,38.5353],[-0.06,38.5527],[-0.0563,38.5828],[-0.052,38.5848],[0.0237,38.6297],[0.0604,38.6348],[0.083,38.661],[0.1257,38.6855],[0.145,38.6863],[0.1626,38.7135],[0.1921,38.7304],[0.2277,38.7346],[0.2179,38.7681],[0.1786,38.7915],[0.1744,38.7979],[0.1853,38.8035],[0.154,38.831],[0.111,38.8499],[0.06,38.8583],[0.023,38.871],[0.0188,38.8725],[0.0052,38.8925],[-0.014,38.9208],[-0.0298,38.944],[-0.088,39.0296],[-0.1695,39.1495],[-0.2787,39.3102],[-0.2169,39.4408],[-0.148,39.5865],[-0.1136,39.6593],[-0.0963,39.6957],[-0.2,39.6957],[-0.1945,39.7154],[-0.272,39.7511],[-0.3092,39.7874],[-0.3454,39.7975],[-0.3793,39.7829],[-0.4096,39.7453],[-0.4559,39.7229],[-0.4782,39.7281],[-0.5331,39.7962],[-0.57,39.7802],[-0.5861,39.7607],[-0.6189,39.7459],[-0.6466,39.7579],[-0.6447,39.7916],[-0.656,39.8359],[-0.691,39.8523],[-0.7127,39.817],[-0.737,39.8208],[-0.7737,39.8698],[-0.7913,39.8775],[-0.847,39.8553],[-0.8781,39.8522],[-0.9024,39.8654],[-0.9121,39.9064],[-0.9048,39.9346],[-0.9231,39.956],[-1.0003,39.9792],[-1.0535,39.9788],[-1.1294,39.964],[-1.1455,39.9723],[-1.1627,40.0115],[-1.0917,40.0346],[-1.08,40.0658],[-1.1511,40.1101],[-1.2347,40.123],[-1.2715,40.1627],[-1.2946,40.2016],[-1.3142,40.1953],[-1.3245,40.1493],[-1.3641,40.1396],[-1.4485,40.1498],[-1.4444,40.1967],[-1.5551,40.2054],[-1.6601,40.283],[-1.7,40.2948],[-1.7136,40.2877],[-1.7206,40.3354],[-1.7793,40.3922],[-1.8083,40.402],[-1.75,40.4592],[-1.6998,40.4933],[-1.6986,40.5424],[-1.6711,40.5893],[-1.5867,40.5706],[-1.5512,40.5951],[-1.5552,40.6142],[-1.5374,40.663],[-1.5397,40.6944],[-1.557,40.7252],[-1.5388,40.7768],[-1.5446,40.8174],[-1.601,40.8587],[-1.6141,40.8867],[-1.6102,40.9277],[-1.6219,40.9468],[-1.7328,41.026],[-1.7673,41.065],[-1.8169,41.097],[-1.9449,41.1644],[-1.9719,41.1699],[-2.0532,41.1504],[-2.0573,41.085],[-2.0729,41.0789],[-2.129,41.1165],[-2.1776,41.0907],[-2.237,41.089],[-2.2884,41.0675],[-2.3269,41.0652],[-2.3645,41.0807],[-2.4092,41.065],[-2.4676,41.0861],[-2.4814,41.1138],[-2.5056,41.1247],[-2.5321,41.1572],[-2.5863,41.1496],[-2.5848,41.1794],[-2.61,41.1917],[-2.586,41.2155],[-2.6395,41.2349],[-2.7092,41.2525],[-2.7281,41.2728],[-2.7813,41.261],[-2.8441,41.2679],[-2.8639,41.2787],[-2.8796,41.3146],[-2.9097,41.3221],[-2.944,41.2991],[-2.9823,41.2872],[-3.0838,41.2808],[-3.1988,41.3012],[-3.3326,41.3771],[-3.3456,41.405],[-3.3369,41.448],[-3.3485,41.4611],[-3.4147,41.4796],[-3.4244,41.5122],[-3.4565,41.5304],[-3.4828,41.5228],[-3.5235,41.5407],[-3.5417,41.5778],[-3.5729,41.5654],[-3.6233,41.5736],[-3.6728,41.5592],[-3.7296,41.505],[-3.7291,41.4577],[-3.7699,41.4601],[-3.786,41.5021],[-3.8358,41.4999],[-3.889,41.5471],[-3.9806,41.5832],[-3.9915,41.5402],[-4.0149,41.5139],[-4.1338,41.48],[-4.1663,41.4775],[-4.2524,41.452],[-4.3242,41.451],[-4.365,41.4388],[-4.4075,41.4419],[-4.4865,41.4089],[-4.5149,41.4096],[-4.4961,41.364],[-4.4956,41.3411],[-4.4714,41.2916],[-4.5342,41.3194],[-4.5575,41.3025],[-4.597,41.3207],[-4.607,41.298],[-4.5791,41.2788],[-4.6508,41.2216],[-4.6505,41.1999],[-4.7015,41.155],[-4.7941,41.136],[-4.8367,41.104],[-4.8853,41.106],[-4.9747,41.1553],[-5.0187,41.1584],[-5.0599,41.1385],[-5.0937,41.1439],[-5.1251,41.132],[-5.1745,41.1654],[-5.2228,41.1703],[-5.2621,41.1959],[-5.2888,41.1821],[-5.3011,41.1199],[-5.3372,41.1221],[-5.3626,41.1439],[-5.4017,41.1478],[-5.4075,41.1855],[-5.4967,41.1773],[-5.5491,41.2067],[-5.6112,41.2087],[-5.6605,41.2441],[-5.7119,41.2285],[-5.8113,41.2166],[-5.8892,41.2353],[-5.9081,41.233],[-5.9208,41.2052],[-5.9147,41.1627],[-5.9468,41.1411],[-5.9697,41.1631],[-5.992,41.1504],[-6.0276,41.165],[-6.0226,41.19],[-6.0564,41.2084],[-6.1093,41.2126],[-6.1287,41.1972],[-6.3219,41.2805],[-6.4821,41.303],[-6.5635,41.2707],[-6.6466,41.2676],[-6.6938,41.2174],[-6.7069,41.1943],[-6.759,41.1518],[-6.7648,41.1089],[-6.818,41.0541],[-6.9068,41.0561],[-6.9274,41.0481],[-6.9871,41.0527],[-7.0753,41.0867],[-7.099,41.124],[-7.0927,41.1491],[-7.1263,41.1643],[-7.1126,41.1922],[-7.1701,41.1576],[-7.2225,41.1643],[-7.3007,41.1593],[-7.3597,41.1661],[-7.4022,41.2075],[-7.4323,41.216],[-7.5502,41.1828],[-7.5968,41.1778],[-7.6586,41.1801],[-7.7021,41.1594],[-7.7379,41.1526],[-7.774,41.1571],[-7.8097,41.1819],[-7.8433,41.1844],[-7.896,41.1591],[-7.9402,41.138],[-8.0621,41.1059],[-8.1902,41.1091],[-8.2902,41.0834],[-8.2978,41.0696],[-8.3462,41.044],[-8.3923,41.0397],[-8.3863,41.0162],[-8.4157,41.0226],[-8.4481,41.0555],[-8.4768,41.0212],[-8.4946,41.0166],[-8.5261,41.0322],[-8.5855,41.0151],[-8.6019,41.0231],[-8.6552,41.0167],[-8.6569,41.0283],[-8.7818,41.0283],[-8.7761,40.9176],[-8.7681,40.7609],[-8.8162,40.6225],[-8.8419,40.5487],[-8.8675,40.4749],[-8.9188,40.3273],[-8.9701,40.1798],[-8.9769,40.1601],[-8.9865,40.106],[-8.9997,40.0322],[-9.0489,39.7556],[-9.0693,39.737],[-9.3934,39.4419],[-9.4485,39.3917],[-9.4603,39.2943],[-9.4693,39.2205],[-9.4782,39.1467],[-9.514,38.8516],[-9.5277,38.7384],[-9.5277,38.738]]]}}
]}
