{"type":"FeatureCollection","features":[
{"type":"Feature","properties":{"entityId":"albanian-principalities","from":1400,"to":1415,"certainty":"estimated","source":"유럽 쪽은 Natural Earth 1:10m admin-1(v5.1.2) 현대 행정구역 조각을 그 시기 국경에 맞춰 묶고, 조각이 역사 경계와 다른 곳은 선을 그어 나눈 근사. 유럽 밖(시베리아·중앙아시아·극동)은 대략적인 추정. 운영자 검수 필요"},"geometry":{"type":"Polygon","coordinates":[[[18.5068,42.5985],[18.5571,42.5484],[18.6112,42.5219],[18.6327,42.4959],[18.6541,42.4518],[18.6568,42.4543],[18.6568,42.4154],[18.6565,42.4155],[18.6449,42.4184],[18.6531,42.4012],[18.66,42.3867],[18.6585,42.3866],[18.6535,42.3674],[18.7141,42.3377],[18.7145,42.3253],[18.7295,42.3116],[18.7625,42.2912],[18.7786,42.2715],[18.7887,42.276],[18.8136,42.2891],[18.8256,42.2832],[18.8314,42.2775],[18.8332,42.2795],[18.8946,42.2495],[18.9001,42.2449],[18.9017,42.2375],[18.9133,42.2222],[18.9465,42.2038],[18.9811,42.1637],[19.0157,42.1237],[19.0539,42.0795],[19.0976,42.0289],[19.1075,42.0174],[19.161,41.9555],[19.1616,41.9553],[19.1623,41.9479],[19.1703,41.938],[19.2202,41.9189],[19.2679,41.9071],[19.3394,41.8702],[19.3469,41.864],[19.3651,41.8524],[19.3649,41.889],[19.3453,41.9103],[19.3529,41.9385],[19.3464,41.9615],[19.3658,41.9697],[19.371,41.9866],[19.3542,42.0087],[19.3506,42.0278],[19.3566,42.0648],[19.3749,42.0947],[19.37,42.1065],[19.355,42.12],[19.2978,42.1517],[19.272,42.1807],[19.2781,42.19],[19.2834,42.198],[19.3046,42.2151],[19.4004,42.3259],[19.4172,42.3741],[19.4817,42.4345],[19.5178,42.458],[19.5315,42.48],[19.5493,42.5086],[19.5937,42.5448],[19.605,42.5848],[19.658,42.6346],[19.676,42.6467],[19.6993,42.6548],[19.7221,42.6461],[19.7375,42.6244],[19.7469,42.5889],[19.7339,42.5626],[19.7343,42.5244],[19.7516,42.4934],[19.8014,42.4681],[19.8291,42.4687],[19.7892,42.4141],[19.8099,42.385],[19.8102,42.3398],[19.8306,42.2764],[19.8239,42.2345],[19.87,42.223],[19.9241,42.2517],[19.9834,42.2497],[20.0004,42.262],[20.0369,42.2565],[20.1505,42.2156],[20.1816,42.2156],[20.2356,42.1924],[20.2325,42.1604],[20.1934,42.1388],[20.1593,42.1043],[20.163,42.0818],[20.1428,42.0533],[20.1741,42.0581],[20.2126,42.0282],[20.1723,41.9999],[20.0882,41.9631],[20.0703,41.9326],[20.0236,41.9035],[20.005,41.88],[19.9532,41.8762],[19.9349,41.8866],[19.9433,41.9116],[19.9017,41.9689],[19.8731,41.9617],[19.8415,41.9371],[19.7955,41.9465],[19.7393,41.9378],[19.751,41.9116],[19.7229,41.8953],[19.6754,41.9144],[19.6309,41.9104],[19.6254,41.9337],[19.5913,41.9436],[19.5601,41.9387],[19.5732,41.9028],[19.5474,41.8899],[19.4732,41.9139],[19.4662,41.8826],[19.5266,41.8469],[19.5295,41.8357],[19.5223,41.8382],[19.5223,41.7848],[19.4964,41.7848],[19.4964,41.7877],[19.468,41.7877],[19.4964,41.7608],[19.5038,41.7537],[19.5366,41.7226],[19.5389,41.7204],[19.5078,41.6496],[19.4917,41.6131],[19.4779,41.5817],[19.4409,41.5854],[19.4666,41.5559],[19.4022,41.4092],[19.4013,41.4019],[19.396,41.402],[19.4007,41.397],[19.3898,41.3067],[19.3788,41.2163],[19.3568,41.0356],[19.3514,40.9905],[19.3349,40.8549],[19.3194,40.7271],[19.3194,40.7267],[19.329,40.6741],[19.3047,40.6526],[19.3404,40.6112],[19.3784,40.4017],[19.3325,40.4389],[19.2896,40.4272],[19.3408,40.3776],[19.3466,40.3679],[19.3651,40.3174],[19.3811,40.2952],[19.4009,40.2782],[19.4058,40.2511],[19.9199,39.9387],[19.9265,39.9285],[19.9064,39.9127],[19.9412,39.899],[19.9541,39.8862],[19.9637,39.8714],[19.9753,39.7302],[19.9776,39.7021],[19.9782,39.6943],[20.003,39.6843],[20.003,39.6928],[19.9998,39.6935],[20.0161,39.7014],[20.0893,39.6828],[20.1638,39.6443],[20.1999,39.6401],[20.2042,39.6603],[20.246,39.6629],[20.249,39.6848],[20.2827,39.7044],[20.2995,39.7282],[20.2757,39.7601],[20.273,39.7965],[20.2996,39.8051],[20.3716,39.7843],[20.389,39.7981],[20.393,39.8355],[20.3469,39.8943],[20.318,39.9184],[20.303,39.9791],[20.31,39.9899],[20.3765,39.9937],[20.4004,40.0453],[20.4328,40.0638],[20.466,40.0608],[20.4999,40.0715],[20.5778,40.0673],[20.6154,40.081],[20.6476,40.094],[20.6682,40.1381],[20.6599,40.1727],[20.6853,40.1912],[20.6964,40.2151],[20.6946,40.2556],[20.707,40.2881],[20.7396,40.3092],[20.7739,40.3749],[20.769,40.4126],[20.7795,40.429],[20.8092,40.4366],[20.8267,40.4648],[20.8668,40.4721],[20.9119,40.4595],[20.9368,40.4725],[20.9579,40.5149],[20.9815,40.5233],[21.0188,40.559],[21.0367,40.6397],[21.0186,40.6909],[20.9635,40.7361],[20.9437,40.7653],[20.967,40.802],[20.9653,40.8494],[20.9567,40.8948],[20.9399,40.9071],[20.8902,40.9183],[20.8365,40.9239],[20.817,40.9202],[20.7661,40.8937],[20.7409,40.898],[20.7172,40.9132],[20.7027,40.9363],[20.6641,41.0591],[20.6539,41.0753],[20.643,41.0816],[20.5974,41.0863],[20.577,41.0935],[20.5655,41.1474],[20.5497,41.1706],[20.5127,41.2101],[20.5001,41.2355],[20.4954,41.2503],[20.4781,41.3216],[20.4817,41.3412],[20.5104,41.3444],[20.5329,41.3704],[20.539,41.4029],[20.5222,41.4257],[20.498,41.4315],[20.4909,41.436],[20.4868,41.4578],[20.4816,41.4683],[20.4708,41.4838],[20.452,41.4936],[20.445,41.5085],[20.4479,41.5355],[20.4442,41.5497],[20.4929,41.5577],[20.5208,41.5684],[20.5293,41.5749],[20.5347,41.5873],[20.5083,41.6617],[20.5004,41.7341],[20.5113,41.7579],[20.5444,41.7848],[20.5501,41.8001],[20.5408,41.8449],[20.5417,41.8616],[20.5671,41.8732],[20.5625,41.9001],[20.5993,41.9479],[20.5897,41.9936],[20.5583,42.0551],[20.5522,42.0738],[20.5494,42.1235],[20.5386,42.1501],[20.5008,42.2112],[20.4737,42.2371],[20.457,42.2505],[20.3334,42.3179],[20.2496,42.3186],[20.2296,42.3267],[20.2212,42.3637],[20.1975,42.3874],[20.1997,42.4278],[20.1808,42.4431],[20.1527,42.4934],[20.1355,42.5096],[20.0856,42.53],[20.065,42.5468],[20.077,42.5599],[20.0757,42.6031],[20.1039,42.6531],[20.0942,42.667],[20.037,42.7074],[20.0248,42.7234],[20.0265,42.7432],[20.0556,42.7639],[20.0763,42.7734],[20.1121,42.7665],[20.1495,42.7499],[20.1834,42.7425],[20.2084,42.7633],[20.2092,42.7917],[20.2261,42.8068],[20.2644,42.8173],[20.3192,42.8241],[20.3454,42.8274],[20.3552,42.8662],[20.3536,42.891],[20.3371,42.907],[20.2756,42.9299],[20.2232,42.9577],[20.1946,42.9668],[20.1295,42.9736],[20.1169,42.9767],[20.0563,43.0208],[20.0544,43.0222],[20.0199,43.0473],[19.9597,43.0786],[19.9292,43.1139],[19.9071,43.1133],[19.8722,43.0904],[19.8051,43.09],[19.7818,43.0965],[19.7428,43.1265],[19.7136,43.1656],[19.6846,43.1567],[19.6187,43.1682],[19.5809,43.1878],[19.5478,43.2188],[19.5284,43.1426],[19.4998,43.1095],[19.4725,43.0971],[19.4595,43.0496],[19.4256,43.0514],[19.4111,43.0452],[19.3809,43.0276],[19.3494,43.0216],[19.3352,43.0114],[19.3317,42.9901],[19.3417,42.9536],[19.3723,42.9345],[19.343,42.9009],[19.2925,42.9022],[19.2278,42.9105],[19.1999,42.8876],[19.2086,42.8589],[19.2187,42.8397],[19.2057,42.792],[19.2107,42.7595],[19.2131,42.7082],[19.1779,42.695],[19.1255,42.6988],[19.0723,42.7088],[19.0144,42.6873],[18.9971,42.6641],[18.9952,42.6349],[18.9817,42.6222],[18.9372,42.6202],[18.9143,42.6575],[18.8599,42.6908],[18.7971,42.6953],[18.7274,42.7181],[18.696,42.6851],[18.6838,42.6419],[18.6483,42.6293],[18.6013,42.6244],[18.5428,42.6264],[18.5384,42.6183],[18.5068,42.5985]]]}},
{"type":"Feature","properties":{"entityId":"albanian-principalities","from":1415,"to":1417,"certainty":"estimated","source":"유럽 쪽은 Natural Earth 1:10m admin-1(v5.1.2) 현대 행정구역 조각을 그 시기 국경에 맞춰 묶고, 조각이 역사 경계와 다른 곳은 선을 그어 나눈 근사. 유럽 밖(시베리아·중앙아시아·극동)은 대략적인 추정. 운영자 검수 필요"},"geometry":{"type":"Polygon","coordinates":[[[18.5068,42.5985],[18.5571,42.5484],[18.6112,42.5219],[18.6327,42.4959],[18.6541,42.4518],[18.6568,42.4543],[18.6568,42.4154],[18.6565,42.4155],[18.6449,42.4184],[18.6531,42.4012],[18.66,42.3867],[18.6585,42.3866],[18.6535,42.3674],[18.7141,42.3377],[18.7145,42.3253],[18.7295,42.3116],[18.7625,42.2912],[18.7786,42.2715],[18.7887,42.276],[18.8136,42.2891],[18.8256,42.2832],[18.8314,42.2775],[18.8332,42.2795],[18.8946,42.2495],[18.9001,42.2449],[18.9017,42.2375],[18.9133,42.2222],[18.9465,42.2038],[18.9811,42.1637],[19.0157,42.1237],[19.0539,42.0795],[19.0976,42.0289],[19.1075,42.0174],[19.161,41.9555],[19.1616,41.9553],[19.1623,41.9479],[19.1703,41.938],[19.2202,41.9189],[19.2679,41.9071],[19.3394,41.8702],[19.3469,41.864],[19.3651,41.8524],[19.3649,41.889],[19.3453,41.9103],[19.3529,41.9385],[19.3464,41.9615],[19.3658,41.9697],[19.371,41.9866],[19.3542,42.0087],[19.3506,42.0278],[19.3566,42.0648],[19.3749,42.0947],[19.37,42.1065],[19.355,42.12],[19.2978,42.1517],[19.272,42.1807],[19.2781,42.19],[19.2834,42.198],[19.3046,42.2151],[19.4004,42.3259],[19.4172,42.3741],[19.4817,42.4345],[19.5178,42.458],[19.5315,42.48],[19.5493,42.5086],[19.5937,42.5448],[19.605,42.5848],[19.658,42.6346],[19.676,42.6467],[19.6993,42.6548],[19.7221,42.6461],[19.7375,42.6244],[19.7469,42.5889],[19.7339,42.5626],[19.7343,42.5244],[19.7516,42.4934],[19.8014,42.4681],[19.8291,42.4687],[19.7892,42.4141],[19.8099,42.385],[19.8102,42.3398],[19.8306,42.2764],[19.8239,42.2345],[19.87,42.223],[19.9241,42.2517],[19.9834,42.2497],[20.0004,42.262],[20.0369,42.2565],[20.1505,42.2156],[20.1816,42.2156],[20.2356,42.1924],[20.2325,42.1604],[20.1934,42.1388],[20.1593,42.1043],[20.163,42.0818],[20.1428,42.0533],[20.1741,42.0581],[20.2126,42.0282],[20.1723,41.9999],[20.0882,41.9631],[20.0703,41.9326],[20.0236,41.9035],[20.005,41.88],[19.9532,41.8762],[19.9349,41.8866],[19.9433,41.9116],[19.9017,41.9689],[19.8731,41.9617],[19.8415,41.9371],[19.7955,41.9465],[19.7393,41.9378],[19.751,41.9116],[19.7229,41.8953],[19.6754,41.9144],[19.6309,41.9104],[19.6254,41.9337],[19.5913,41.9436],[19.5601,41.9387],[19.5732,41.9028],[19.5474,41.8899],[19.4732,41.9139],[19.4662,41.8826],[19.5266,41.8469],[19.5295,41.8357],[19.5223,41.8382],[19.5223,41.7848],[19.4964,41.7848],[19.4964,41.7877],[19.468,41.7877],[19.4964,41.7608],[19.5038,41.7537],[19.5366,41.7226],[19.5389,41.7204],[19.5078,41.6496],[19.4917,41.6131],[19.5455,41.6131],[19.5455,41.5806],[19.5564,41.5831],[19.591,41.5683],[19.6375,41.5852],[19.6858,41.5581],[19.7452,41.5659],[19.7738,41.59],[19.8099,41.5681],[19.8362,41.5667],[19.8717,41.5333],[19.9111,41.5098],[19.9622,41.4821],[20.0001,41.4271],[20.0641,41.3893],[20.1084,41.4031],[20.16,41.3645],[20.2357,41.3444],[20.2226,41.3265],[20.1689,41.3153],[20.1366,41.2972],[20.1201,41.2732],[20.0692,41.252],[20.0356,41.2543],[19.9712,41.1948],[19.8577,41.159],[19.8337,41.1433],[19.8415,41.1285],[19.809,41.1216],[19.7462,41.1218],[19.7345,41.1022],[19.7029,41.0873],[19.692,41.0537],[19.6709,41.0566],[19.5971,41.0693],[19.5542,41.0477],[19.5106,41.0464],[19.5013,41.0361],[19.4678,41.0467],[19.448,41.0093],[19.4749,40.9958],[19.4748,40.9951],[19.4301,40.9951],[19.4301,40.9905],[19.3514,40.9905],[19.3349,40.8549],[19.3194,40.7271],[19.3194,40.7267],[19.329,40.6741],[19.3047,40.6526],[19.3404,40.6112],[19.3784,40.4017],[19.3325,40.4389],[19.2896,40.4272],[19.3408,40.3776],[19.3466,40.3679],[19.3651,40.3174],[19.3811,40.2952],[19.4009,40.2782],[19.4058,40.2511],[19.9199,39.9387],[19.9265,39.9285],[19.9064,39.9127],[19.9412,39.899],[19.9541,39.8862],[19.9637,39.8714],[19.9753,39.7302],[19.9776,39.7021],[19.9782,39.6943],[20.003,39.6843],[20.003,39.6928],[19.9998,39.6935],[20.0161,39.7014],[20.0893,39.6828],[20.1638,39.6443],[20.1999,39.6401],[20.2042,39.6603],[20.246,39.6629],[20.249,39.6848],[20.2827,39.7044],[20.2995,39.7282],[20.2757,39.7601],[20.273,39.7965],[20.2996,39.8051],[20.3716,39.7843],[20.389,39.7981],[20.393,39.8355],[20.3469,39.8943],[20.318,39.9184],[20.303,39.9791],[20.31,39.9899],[20.3765,39.9937],[20.4004,40.0453],[20.4328,40.0638],[20.466,40.0608],[20.4999,40.0715],[20.5778,40.0673],[20.6154,40.081],[20.6476,40.094],[20.6682,40.1381],[20.6599,40.1727],[20.6853,40.1912],[20.6964,40.2151],[20.6946,40.2556],[20.707,40.2881],[20.7396,40.3092],[20.7739,40.3749],[20.769,40.4126],[20.7795,40.429],[20.8092,40.4366],[20.8267,40.4648],[20.8668,40.4721],[20.9119,40.4595],[20.9368,40.4725],[20.9579,40.5149],[20.9815,40.5233],[21.0188,40.559],[21.0367,40.6397],[21.0186,40.6909],[20.9635,40.7361],[20.9437,40.7653],[20.967,40.802],[20.9653,40.8494],[20.9567,40.8948],[20.9399,40.9071],[20.8902,40.9183],[20.8365,40.9239],[20.817,40.9202],[20.7661,40.8937],[20.7409,40.898],[20.7172,40.9132],[20.7027,40.9363],[20.6641,41.0591],[20.6539,41.0753],[20.643,41.0816],[20.5974,41.0863],[20.577,41.0935],[20.5655,41.1474],[20.5497,41.1706],[20.5127,41.2101],[20.5001,41.2355],[20.4954,41.2503],[20.4781,41.3216],[20.4817,41.3412],[20.5104,41.3444],[20.5329,41.3704],[20.539,41.4029],[20.5222,41.4257],[20.498,41.4315],[20.4909,41.436],[20.4868,41.4578],[20.4816,41.4683],[20.4708,41.4838],[20.452,41.4936],[20.445,41.5085],[20.4479,41.5355],[20.4442,41.5497],[20.4929,41.5577],[20.5208,41.5684],[20.5293,41.5749],[20.5347,41.5873],[20.5083,41.6617],[20.5004,41.7341],[20.5113,41.7579],[20.5444,41.7848],[20.5501,41.8001],[20.5408,41.8449],[20.5417,41.8616],[20.5671,41.8732],[20.5625,41.9001],[20.5993,41.9479],[20.5897,41.9936],[20.5583,42.0551],[20.5522,42.0738],[20.5494,42.1235],[20.5386,42.1501],[20.5008,42.2112],[20.4737,42.2371],[20.457,42.2505],[20.3334,42.3179],[20.2496,42.3186],[20.2296,42.3267],[20.2212,42.3637],[20.1975,42.3874],[20.1997,42.4278],[20.1808,42.4431],[20.1527,42.4934],[20.1355,42.5096],[20.0856,42.53],[20.065,42.5468],[20.077,42.5599],[20.0757,42.6031],[20.1039,42.6531],[20.0942,42.667],[20.037,42.7074],[20.0248,42.7234],[20.0265,42.7432],[20.0556,42.7639],[20.0763,42.7734],[20.1121,42.7665],[20.1495,42.7499],[20.1834,42.7425],[20.2084,42.7633],[20.2092,42.7917],[20.2261,42.8068],[20.2644,42.8173],[20.3192,42.8241],[20.3454,42.8274],[20.3552,42.8662],[20.3536,42.891],[20.3371,42.907],[20.2756,42.9299],[20.2232,42.9577],[20.1946,42.9668],[20.1295,42.9736],[20.1169,42.9767],[20.0563,43.0208],[20.0544,43.0222],[20.0199,43.0473],[19.9597,43.0786],[19.9292,43.1139],[19.9071,43.1133],[19.8722,43.0904],[19.8051,43.09],[19.7818,43.0965],[19.7428,43.1265],[19.7136,43.1656],[19.6846,43.1567],[19.6187,43.1682],[19.5809,43.1878],[19.5478,43.2188],[19.5284,43.1426],[19.4998,43.1095],[19.4725,43.0971],[19.4595,43.0496],[19.4256,43.0514],[19.4111,43.0452],[19.3809,43.0276],[19.3494,43.0216],[19.3352,43.0114],[19.3317,42.9901],[19.3417,42.9536],[19.3723,42.9345],[19.343,42.9009],[19.2925,42.9022],[19.2278,42.9105],[19.1999,42.8876],[19.2086,42.8589],[19.2187,42.8397],[19.2057,42.792],[19.2107,42.7595],[19.2131,42.7082],[19.1779,42.695],[19.1255,42.6988],[19.0723,42.7088],[19.0144,42.6873],[18.9971,42.6641],[18.9952,42.6349],[18.9817,42.6222],[18.9372,42.6202],[18.9143,42.6575],[18.8599,42.6908],[18.7971,42.6953],[18.7274,42.7181],[18.696,42.6851],[18.6838,42.6419],[18.6483,42.6293],[18.6013,42.6244],[18.5428,42.6264],[18.5384,42.6183],[18.5068,42.5985]]]}},
{"type":"Feature","properties":{"entityId":"albanian-principalities","from":1417,"to":1420,"certainty":"estimated","source":"유럽 쪽은 Natural Earth 1:10m admin-1(v5.1.2) 현대 행정구역 조각을 그 시기 국경에 맞춰 묶고, 조각이 역사 경계와 다른 곳은 선을 그어 나눈 근사. 유럽 밖(시베리아·중앙아시아·극동)은 대략적인 추정. 운영자 검수 필요"},"geometry":{"type":"Polygon","coordinates":[[[18.5068,42.5985],[18.5571,42.5484],[18.6112,42.5219],[18.6327,42.4959],[18.6541,42.4518],[18.6568,42.4543],[18.6568,42.4154],[18.6565,42.4155],[18.6449,42.4184],[18.6531,42.4012],[18.66,42.3867],[18.6585,42.3866],[18.6535,42.3674],[18.7141,42.3377],[18.7145,42.3253],[18.7295,42.3116],[18.7625,42.2912],[18.7786,42.2715],[18.7887,42.276],[18.8136,42.2891],[18.8256,42.2832],[18.8314,42.2775],[18.8332,42.2795],[18.8946,42.2495],[18.9001,42.2449],[18.9017,42.2375],[18.9133,42.2222],[18.9465,42.2038],[18.9811,42.1637],[19.0157,42.1237],[19.0539,42.0795],[19.0976,42.0289],[19.1075,42.0174],[19.161,41.9555],[19.1616,41.9553],[19.1623,41.9479],[19.1703,41.938],[19.2202,41.9189],[19.2679,41.9071],[19.3394,41.8702],[19.3469,41.864],[19.3651,41.8524],[19.3649,41.889],[19.3453,41.9103],[19.3529,41.9385],[19.3464,41.9615],[19.3658,41.9697],[19.371,41.9866],[19.3542,42.0087],[19.3506,42.0278],[19.3566,42.0648],[19.3749,42.0947],[19.37,42.1065],[19.355,42.12],[19.2978,42.1517],[19.272,42.1807],[19.2781,42.19],[19.2834,42.198],[19.3046,42.2151],[19.4004,42.3259],[19.4172,42.3741],[19.4817,42.4345],[19.5178,42.458],[19.5315,42.48],[19.5493,42.5086],[19.5937,42.5448],[19.605,42.5848],[19.658,42.6346],[19.676,42.6467],[19.6993,42.6548],[19.7221,42.6461],[19.7375,42.6244],[19.7469,42.5889],[19.7339,42.5626],[19.7343,42.5244],[19.7516,42.4934],[19.8014,42.4681],[19.8291,42.4687],[19.7892,42.4141],[19.8099,42.385],[19.8102,42.3398],[19.8306,42.2764],[19.8239,42.2345],[19.87,42.223],[19.9241,42.2517],[19.9834,42.2497],[20.0004,42.262],[20.0369,42.2565],[20.1505,42.2156],[20.1816,42.2156],[20.2356,42.1924],[20.2325,42.1604],[20.1934,42.1388],[20.1593,42.1043],[20.163,42.0818],[20.1428,42.0533],[20.1741,42.0581],[20.2126,42.0282],[20.1723,41.9999],[20.0882,41.9631],[20.0703,41.9326],[20.0236,41.9035],[20.005,41.88],[19.9532,41.8762],[19.9349,41.8866],[19.9433,41.9116],[19.9017,41.9689],[19.8731,41.9617],[19.8415,41.9371],[19.7955,41.9465],[19.7393,41.9378],[19.751,41.9116],[19.7229,41.8953],[19.6754,41.9144],[19.6309,41.9104],[19.6254,41.9337],[19.5913,41.9436],[19.5601,41.9387],[19.5732,41.9028],[19.5474,41.8899],[19.4732,41.9139],[19.4662,41.8826],[19.5266,41.8469],[19.5295,41.8357],[19.5223,41.8382],[19.5223,41.7848],[19.4964,41.7848],[19.4964,41.7877],[19.468,41.7877],[19.4964,41.7608],[19.5038,41.7537],[19.5366,41.7226],[19.5389,41.7204],[19.5078,41.6496],[19.4917,41.6131],[19.5455,41.6131],[19.5455,41.5806],[19.5564,41.5831],[19.591,41.5683],[19.6375,41.5852],[19.6858,41.5581],[19.7452,41.5659],[19.7738,41.59],[19.8099,41.5681],[19.8362,41.5667],[19.8717,41.5333],[19.9111,41.5098],[19.9622,41.4821],[20.0001,41.4271],[20.0641,41.3893],[20.1084,41.4031],[20.16,41.3645],[20.2357,41.3444],[20.2226,41.3265],[20.1689,41.3153],[20.1366,41.2972],[20.1201,41.2732],[20.0692,41.252],[20.0356,41.2543],[19.9712,41.1948],[19.8577,41.159],[19.8337,41.1433],[19.8415,41.1285],[19.809,41.1216],[19.7462,41.1218],[19.7345,41.1022],[19.7029,41.0873],[19.692,41.0537],[19.6709,41.0566],[19.6762,41.031],[19.7234,41.0111],[19.7593,41.0132],[19.8119,40.9995],[19.8022,40.9651],[19.8031,40.9013],[19.8269,40.8772],[19.8672,40.8684],[19.8889,40.8743],[19.969,40.8671],[20.0021,40.8817],[20.0166,40.8737],[20.0131,40.8285],[20.0686,40.8112],[20.093,40.7801],[20.1543,40.7549],[20.145,40.7433],[20.2003,40.7323],[20.2219,40.7157],[20.2932,40.726],[20.3397,40.7453],[20.4157,40.7523],[20.4448,40.7658],[20.4685,40.7997],[20.4415,40.8441],[20.3985,40.8889],[20.3813,40.9247],[20.406,40.9342],[20.4229,40.9881],[20.5428,41.0296],[20.5901,41.0185],[20.6024,41.0458],[20.5974,41.0863],[20.577,41.0935],[20.5655,41.1474],[20.5497,41.1706],[20.5127,41.2101],[20.5001,41.2355],[20.4954,41.2503],[20.4781,41.3216],[20.4817,41.3412],[20.5104,41.3444],[20.5329,41.3704],[20.539,41.4029],[20.5222,41.4257],[20.498,41.4315],[20.4909,41.436],[20.4868,41.4578],[20.4816,41.4683],[20.4708,41.4838],[20.452,41.4936],[20.445,41.5085],[20.4479,41.5355],[20.4442,41.5497],[20.4929,41.5577],[20.5208,41.5684],[20.5293,41.5749],[20.5347,41.5873],[20.5083,41.6617],[20.5004,41.7341],[20.5113,41.7579],[20.5444,41.7848],[20.5501,41.8001],[20.5408,41.8449],[20.5417,41.8616],[20.5671,41.8732],[20.5625,41.9001],[20.5993,41.9479],[20.5897,41.9936],[20.5583,42.0551],[20.5522,42.0738],[20.5494,42.1235],[20.5386,42.1501],[20.5008,42.2112],[20.4737,42.2371],[20.457,42.2505],[20.3334,42.3179],[20.2496,42.3186],[20.2296,42.3267],[20.2212,42.3637],[20.1975,42.3874],[20.1997,42.4278],[20.1808,42.4431],[20.1527,42.4934],[20.1355,42.5096],[20.0856,42.53],[20.065,42.5468],[20.077,42.5599],[20.0757,42.6031],[20.1039,42.6531],[20.0942,42.667],[20.037,42.7074],[20.0248,42.7234],[20.0265,42.7432],[20.0556,42.7639],[20.0763,42.7734],[20.1121,42.7665],[20.1495,42.7499],[20.1834,42.7425],[20.2084,42.7633],[20.2092,42.7917],[20.2261,42.8068],[20.2644,42.8173],[20.3192,42.8241],[20.3454,42.8274],[20.3552,42.8662],[20.3536,42.891],[20.3371,42.907],[20.2756,42.9299],[20.2232,42.9577],[20.1946,42.9668],[20.1295,42.9736],[20.1169,42.9767],[20.0563,43.0208],[20.0544,43.0222],[20.0199,43.0473],[19.9597,43.0786],[19.9292,43.1139],[19.9071,43.1133],[19.8722,43.0904],[19.8051,43.09],[19.7818,43.0965],[19.7428,43.1265],[19.7136,43.1656],[19.6846,43.1567],[19.6187,43.1682],[19.5809,43.1878],[19.5478,43.2188],[19.5284,43.1426],[19.4998,43.1095],[19.4725,43.0971],[19.4595,43.0496],[19.4256,43.0514],[19.4111,43.0452],[19.3809,43.0276],[19.3494,43.0216],[19.3352,43.0114],[19.3317,42.9901],[19.3417,42.9536],[19.3723,42.9345],[19.343,42.9009],[19.2925,42.9022],[19.2278,42.9105],[19.1999,42.8876],[19.2086,42.8589],[19.2187,42.8397],[19.2057,42.792],[19.2107,42.7595],[19.2131,42.7082],[19.1779,42.695],[19.1255,42.6988],[19.0723,42.7088],[19.0144,42.6873],[18.9971,42.6641],[18.9952,42.6349],[18.9817,42.6222],[18.9372,42.6202],[18.9143,42.6575],[18.8599,42.6908],[18.7971,42.6953],[18.7274,42.7181],[18.696,42.6851],[18.6838,42.6419],[18.6483,42.6293],[18.6013,42.6244],[18.5428,42.6264],[18.5384,42.6183],[18.5068,42.5985]]]}},
{"type":"Feature","properties":{"entityId":"albanian-principalities","from":1420,"to":1423,"certainty":"estimated","source":"유럽 쪽은 Natural Earth 1:10m admin-1(v5.1.2) 현대 행정구역 조각을 그 시기 국경에 맞춰 묶고, 조각이 역사 경계와 다른 곳은 선을 그어 나눈 근사. 유럽 밖(시베리아·중앙아시아·극동)은 대략적인 추정. 운영자 검수 필요"},"geometry":{"type":"Polygon","coordinates":[[[18.6483,42.6293],[18.6663,42.5936],[18.684,42.5765],[18.698,42.5405],[18.7605,42.5074],[18.7721,42.4767],[18.7705,42.45],[18.785,42.45],[18.785,42.38],[18.7788,42.38],[18.7791,42.3793],[18.7936,42.3542],[18.7971,42.36],[18.8296,42.3518],[18.8529,42.3442],[18.8846,42.3395],[18.9142,42.3201],[18.9225,42.3021],[18.9286,42.2892],[18.9457,42.2653],[18.9959,42.2216],[19.0009,42.2085],[18.9792,42.19],[19.2781,42.19],[19.2834,42.198],[19.3046,42.2151],[19.4004,42.3259],[19.4172,42.3741],[19.4817,42.4345],[19.5178,42.458],[19.5315,42.48],[19.5493,42.5086],[19.5937,42.5448],[19.605,42.5848],[19.658,42.6346],[19.676,42.6467],[19.6993,42.6548],[19.7221,42.6461],[19.7375,42.6244],[19.7469,42.5889],[19.7339,42.5626],[19.7343,42.5244],[19.7516,42.4934],[19.8014,42.4681],[19.8291,42.4687],[19.7892,42.4141],[19.8099,42.385],[19.8102,42.3398],[19.8306,42.2764],[19.8239,42.2345],[19.87,42.223],[19.9241,42.2517],[19.9834,42.2497],[20.0004,42.262],[20.0369,42.2565],[20.1505,42.2156],[20.1816,42.2156],[20.2356,42.1924],[20.2325,42.1604],[20.1934,42.1388],[20.1593,42.1043],[20.163,42.0818],[20.1428,42.0533],[20.1741,42.0581],[20.2126,42.0282],[20.1723,41.9999],[20.0882,41.9631],[20.0703,41.9326],[20.0236,41.9035],[20.005,41.88],[19.9532,41.8762],[19.9349,41.8866],[19.9433,41.9116],[19.9017,41.9689],[19.8731,41.9617],[19.8415,41.9371],[19.7955,41.9465],[19.7393,41.9378],[19.751,41.9116],[19.7229,41.8953],[19.6754,41.9144],[19.6309,41.9104],[19.6254,41.9337],[19.5913,41.9436],[19.5601,41.9387],[19.5732,41.9028],[19.5474,41.8899],[19.4732,41.9139],[19.4662,41.8826],[19.5266,41.8469],[19.5295,41.8357],[19.5223,41.8382],[19.5223,41.7848],[19.4964,41.7848],[19.4964,41.7877],[19.468,41.7877],[19.4964,41.7608],[19.5038,41.7537],[19.5366,41.7226],[19.5389,41.7204],[19.5078,41.6496],[19.4917,41.6131],[19.5455,41.6131],[19.5455,41.5806],[19.5564,41.5831],[19.591,41.5683],[19.6375,41.5852],[19.6858,41.5581],[19.7452,41.5659],[19.7738,41.59],[19.8099,41.5681],[19.8362,41.5667],[19.8717,41.5333],[19.9111,41.5098],[19.9622,41.4821],[20.0001,41.4271],[20.0641,41.3893],[20.1084,41.4031],[20.16,41.3645],[20.2357,41.3444],[20.2226,41.3265],[20.1689,41.3153],[20.1366,41.2972],[20.1201,41.2732],[20.0692,41.252],[20.0356,41.2543],[19.9712,41.1948],[19.8577,41.159],[19.8337,41.1433],[19.8415,41.1285],[19.809,41.1216],[19.7462,41.1218],[19.7345,41.1022],[19.7029,41.0873],[19.692,41.0537],[19.6709,41.0566],[19.6762,41.031],[19.7234,41.0111],[19.7593,41.0132],[19.8119,40.9995],[19.8022,40.9651],[19.8031,40.9013],[19.8269,40.8772],[19.8672,40.8684],[19.8889,40.8743],[19.969,40.8671],[20.0021,40.8817],[20.0166,40.8737],[20.0131,40.8285],[20.0686,40.8112],[20.093,40.7801],[20.1543,40.7549],[20.145,40.7433],[20.2003,40.7323],[20.2219,40.7157],[20.2932,40.726],[20.3397,40.7453],[20.4157,40.7523],[20.4448,40.7658],[20.4685,40.7997],[20.4415,40.8441],[20.3985,40.8889],[20.3813,40.9247],[20.406,40.9342],[20.4229,40.9881],[20.5428,41.0296],[20.5901,41.0185],[20.6024,41.0458],[20.5974,41.0863],[20.577,41.0935],[20.5655,41.1474],[20.5497,41.1706],[20.5127,41.2101],[20.5001,41.2355],[20.4954,41.2503],[20.4781,41.3216],[20.4817,41.3412],[20.5104,41.3444],[20.5329,41.3704],[20.539,41.4029],[20.5222,41.4257],[20.498,41.4315],[20.4909,41.436],[20.4868,41.4578],[20.4816,41.4683],[20.4708,41.4838],[20.452,41.4936],[20.445,41.5085],[20.4479,41.5355],[20.4442,41.5497],[20.4929,41.5577],[20.5208,41.5684],[20.5293,41.5749],[20.5347,41.5873],[20.5083,41.6617],[20.5004,41.7341],[20.5113,41.7579],[20.5444,41.7848],[20.5501,41.8001],[20.5408,41.8449],[20.5417,41.8616],[20.5671,41.8732],[20.5625,41.9001],[20.5993,41.9479],[20.5897,41.9936],[20.5583,42.0551],[20.5522,42.0738],[20.5494,42.1235],[20.5386,42.1501],[20.5008,42.2112],[20.4737,42.2371],[20.457,42.2505],[20.3334,42.3179],[20.2496,42.3186],[20.2296,42.3267],[20.2212,42.3637],[20.1975,42.3874],[20.1997,42.4278],[20.1808,42.4431],[20.1527,42.4934],[20.1355,42.5096],[20.0856,42.53],[20.065,42.5468],[20.077,42.5599],[20.0757,42.6031],[20.1039,42.6531],[20.0942,42.667],[20.037,42.7074],[20.0248,42.7234],[20.0265,42.7432],[20.0556,42.7639],[20.0763,42.7734],[20.1121,42.7665],[20.1495,42.7499],[20.1834,42.7425],[20.2084,42.7633],[20.2092,42.7917],[20.2261,42.8068],[20.2644,42.8173],[20.3192,42.8241],[20.3454,42.8274],[20.3552,42.8662],[20.3536,42.891],[20.3371,42.907],[20.2756,42.9299],[20.2232,42.9577],[20.1946,42.9668],[20.1295,42.9736],[20.1169,42.9767],[20.0563,43.0208],[20.0544,43.0222],[20.0199,43.0473],[19.9597,43.0786],[19.9292,43.1139],[19.9071,43.1133],[19.8722,43.0904],[19.8051,43.09],[19.7818,43.0965],[19.7428,43.1265],[19.7136,43.1656],[19.6846,43.1567],[19.6187,43.1682],[19.5809,43.1878],[19.5478,43.2188],[19.5284,43.1426],[19.4998,43.1095],[19.4725,43.0971],[19.4595,43.0496],[19.4256,43.0514],[19.4111,43.0452],[19.3809,43.0276],[19.3494,43.0216],[19.3352,43.0114],[19.3317,42.9901],[19.3417,42.9536],[19.3723,42.9345],[19.343,42.9009],[19.2925,42.9022],[19.2278,42.9105],[19.1999,42.8876],[19.2086,42.8589],[19.2187,42.8397],[19.2057,42.792],[19.2107,42.7595],[19.2131,42.7082],[19.1779,42.695],[19.1255,42.6988],[19.0723,42.7088],[19.0144,42.6873],[18.9971,42.6641],[18.9952,42.6349],[18.9817,42.6222],[18.9372,42.6202],[18.9143,42.6575],[18.8599,42.6908],[18.7971,42.6953],[18.7274,42.7181],[18.696,42.6851],[18.6838,42.6419],[18.6483,42.6293]]]}},
{"type":"Feature","properties":{"entityId":"albanian-principalities","from":1423,"to":1444,"certainty":"estimated","source":"유럽 쪽은 Natural Earth 1:10m admin-1(v5.1.2) 현대 행정구역 조각을 그 시기 국경에 맞춰 묶고, 조각이 역사 경계와 다른 곳은 선을 그어 나눈 근사. 유럽 밖(시베리아·중앙아시아·극동)은 대략적인 추정. 운영자 검수 필요"},"geometry":{"type":"Polygon","coordinates":[[[19.4917,41.6131],[19.5078,41.6496],[19.5389,41.7204],[19.5366,41.7226],[19.5038,41.7537],[19.4964,41.7608],[19.468,41.7877],[19.4964,41.7877],[19.4964,41.7848],[19.5223,41.7848],[19.5223,41.8159],[19.5223,41.8382],[19.5295,41.8357],[19.5266,41.8469],[19.4662,41.8826],[19.4732,41.9139],[19.5474,41.8899],[19.5732,41.9028],[19.5601,41.9387],[19.5913,41.9436],[19.6254,41.9337],[19.6309,41.9104],[19.6754,41.9144],[19.7229,41.8953],[19.751,41.9116],[19.7393,41.9378],[19.7955,41.9465],[19.8415,41.9371],[19.8731,41.9617],[19.9017,41.9689],[19.9433,41.9116],[19.9349,41.8866],[19.9532,41.8762],[20.005,41.88],[20.0236,41.9035],[20.0703,41.9326],[20.0882,41.9631],[20.1723,41.9999],[20.2126,42.0282],[20.1741,42.0581],[20.1428,42.0533],[20.163,42.0818],[20.1593,42.1043],[20.1934,42.1388],[20.2325,42.1604],[20.2356,42.1924],[20.1816,42.2156],[20.1505,42.2156],[20.0369,42.2565],[20.0004,42.262],[19.9834,42.2497],[19.9241,42.2517],[19.87,42.223],[19.8239,42.2345],[19.8306,42.2764],[19.8102,42.3398],[19.8099,42.385],[19.7892,42.4141],[19.8291,42.4687],[19.8733,42.4868],[19.9075,42.5064],[19.9563,42.5053],[19.9818,42.5108],[20.0177,42.5462],[20.0392,42.5578],[20.065,42.5468],[20.0856,42.53],[20.1355,42.5096],[20.1527,42.4934],[20.1808,42.4431],[20.1997,42.4278],[20.1975,42.3874],[20.2212,42.3637],[20.2296,42.3267],[20.2496,42.3186],[20.3334,42.3179],[20.457,42.2505],[20.4737,42.2371],[20.5008,42.2112],[20.5386,42.1501],[20.5494,42.1235],[20.5522,42.0738],[20.5583,42.0551],[20.5897,41.9936],[20.5993,41.9479],[20.5625,41.9001],[20.5671,41.8732],[20.5417,41.8616],[20.5408,41.8449],[20.5501,41.8001],[20.5444,41.7848],[20.5113,41.7579],[20.5004,41.7341],[20.5083,41.6617],[20.5347,41.5873],[20.5293,41.5749],[20.5208,41.5684],[20.4929,41.5577],[20.4442,41.5497],[20.4479,41.5355],[20.445,41.5085],[20.452,41.4936],[20.4708,41.4838],[20.4816,41.4683],[20.4868,41.4578],[20.4909,41.436],[20.498,41.4315],[20.5222,41.4257],[20.539,41.4029],[20.5329,41.3704],[20.5104,41.3444],[20.4817,41.3412],[20.4781,41.3216],[20.4954,41.2503],[20.5001,41.2355],[20.5127,41.2101],[20.5497,41.1706],[20.5655,41.1474],[20.577,41.0935],[20.5974,41.0863],[20.6024,41.0458],[20.5901,41.0185],[20.5428,41.0296],[20.4229,40.9881],[20.406,40.9342],[20.3813,40.9247],[20.3985,40.8889],[20.4415,40.8441],[20.4685,40.7997],[20.4448,40.7658],[20.4157,40.7523],[20.3397,40.7453],[20.2932,40.726],[20.2219,40.7157],[20.2003,40.7323],[20.145,40.7433],[20.1543,40.7549],[20.093,40.7801],[20.0686,40.8112],[20.0131,40.8285],[20.0166,40.8737],[20.0021,40.8817],[19.969,40.8671],[19.8889,40.8743],[19.8672,40.8684],[19.8269,40.8772],[19.8031,40.9013],[19.8022,40.9651],[19.8119,40.9995],[19.7593,41.0132],[19.7234,41.0111],[19.6762,41.031],[19.6709,41.0566],[19.692,41.0537],[19.7029,41.0873],[19.7345,41.1022],[19.7462,41.1218],[19.809,41.1216],[19.8415,41.1285],[19.8337,41.1433],[19.8577,41.159],[19.9712,41.1948],[20.0356,41.2543],[20.0692,41.252],[20.1201,41.2732],[20.1366,41.2972],[20.1689,41.3153],[20.2226,41.3265],[20.2357,41.3444],[20.16,41.3645],[20.1084,41.4031],[20.0641,41.3893],[20.0001,41.4271],[19.9622,41.4821],[19.9111,41.5098],[19.8717,41.5333],[19.8362,41.5667],[19.8099,41.5681],[19.7738,41.59],[19.7452,41.5659],[19.6858,41.5581],[19.6375,41.5852],[19.591,41.5683],[19.5564,41.5831],[19.5455,41.5806],[19.5455,41.6131],[19.5186,41.6131],[19.5117,41.6131],[19.4917,41.6131]]]}}
]}
