{"type":"FeatureCollection","features":[
{"type":"Feature","properties":{"entityId":"albania","from":1913,"to":1921,"certainty":"estimated","source":"유럽 쪽은 Natural Earth 1:10m admin-1(v5.1.2) 현대 행정구역 조각을 그 시기 국경에 맞춰 묶고, 조각이 역사 경계와 다른 곳은 선을 그어 나눈 근사. 유럽 밖(시베리아·중앙아시아·극동)은 대략적인 추정. 운영자 검수 필요"},"geometry":{"type":"Polygon","coordinates":[[[20.6154,40.081],[20.5778,40.0673],[20.4999,40.0715],[20.466,40.0608],[20.4328,40.0638],[20.4004,40.0453],[20.3765,39.9937],[20.31,39.9899],[20.303,39.9791],[20.318,39.9184],[20.3469,39.8943],[20.393,39.8355],[20.389,39.7981],[20.3716,39.7843],[20.2996,39.8051],[20.273,39.7965],[20.2757,39.7601],[20.2995,39.7282],[20.2827,39.7044],[20.249,39.6848],[20.246,39.6629],[20.2042,39.6603],[20.1999,39.6401],[20.1638,39.6443],[20.0893,39.6828],[20.0161,39.7014],[19.9998,39.6935],[20.003,39.6928],[20.003,39.6843],[19.9782,39.6943],[19.9776,39.7021],[19.9753,39.7302],[19.9637,39.8714],[19.9541,39.8862],[19.9412,39.899],[19.9064,39.9127],[19.9265,39.9285],[19.9199,39.9387],[19.4058,40.2511],[19.4009,40.2782],[19.3811,40.2952],[19.3651,40.3174],[19.3466,40.3679],[19.3408,40.3776],[19.2896,40.4272],[19.3325,40.4389],[19.3784,40.4017],[19.3404,40.6112],[19.3047,40.6526],[19.329,40.6741],[19.3194,40.7267],[19.3194,40.7269],[19.3194,40.7271],[19.3349,40.8549],[19.3459,40.9453],[19.3514,40.9905],[19.3568,41.0356],[19.3788,41.2163],[19.3843,41.2615],[19.3898,41.3067],[19.4007,41.397],[19.396,41.402],[19.4013,41.4019],[19.4022,41.4092],[19.4666,41.5559],[19.4409,41.5854],[19.4779,41.5817],[19.4917,41.6131],[19.5078,41.6496],[19.5389,41.7204],[19.5366,41.7226],[19.5038,41.7537],[19.4964,41.7608],[19.468,41.7877],[19.4396,41.8147],[19.3929,41.859],[19.3651,41.8524],[19.3649,41.889],[19.3453,41.9103],[19.3529,41.9385],[19.3464,41.9615],[19.3658,41.9697],[19.371,41.9866],[19.3542,42.0087],[19.3506,42.0278],[19.3566,42.0648],[19.3749,42.0947],[19.37,42.1065],[19.355,42.12],[19.2978,42.1517],[19.272,42.1807],[19.2834,42.198],[19.3046,42.2151],[19.4004,42.3259],[19.4172,42.3741],[19.4817,42.4345],[19.5178,42.458],[19.5493,42.5086],[19.5937,42.5448],[19.605,42.5848],[19.658,42.6346],[19.676,42.6467],[19.6993,42.6548],[19.7221,42.6461],[19.7375,42.6244],[19.7469,42.5889],[19.7339,42.5626],[19.7343,42.5244],[19.7516,42.4934],[19.8014,42.4681],[19.8291,42.4687],[19.8733,42.4868],[19.9075,42.5064],[19.9563,42.5053],[19.9818,42.5108],[20.0177,42.5462],[20.0392,42.5578],[20.065,42.5468],[20.0856,42.53],[20.1355,42.5096],[20.1527,42.4934],[20.1808,42.4431],[20.1997,42.4278],[20.1975,42.3874],[20.2212,42.3637],[20.2296,42.3267],[20.2496,42.3186],[20.3334,42.3179],[20.457,42.2505],[20.4737,42.2371],[20.5008,42.2112],[20.5386,42.1501],[20.5494,42.1235],[20.5522,42.0738],[20.5583,42.0551],[20.5897,41.9936],[20.5993,41.9479],[20.5625,41.9001],[20.5671,41.8732],[20.5417,41.8616],[20.5408,41.8449],[20.5501,41.8001],[20.5444,41.7848],[20.5113,41.7579],[20.5004,41.7341],[20.5083,41.6617],[20.5347,41.5873],[20.5293,41.5749],[20.5208,41.5684],[20.4929,41.5577],[20.4442,41.5497],[20.4479,41.5355],[20.445,41.5085],[20.452,41.4936],[20.4708,41.4838],[20.4816,41.4683],[20.4868,41.4578],[20.4909,41.436],[20.498,41.4315],[20.5222,41.4257],[20.539,41.4029],[20.5329,41.3704],[20.5104,41.3444],[20.4817,41.3412],[20.4781,41.3216],[20.4954,41.2503],[20.5001,41.2355],[20.5127,41.2101],[20.5497,41.1706],[20.5655,41.1474],[20.577,41.0935],[20.5974,41.0863],[20.643,41.0816],[20.6539,41.0753],[20.6641,41.0591],[20.7027,40.9363],[20.7172,40.9132],[20.7409,40.898],[20.7661,40.8937],[20.817,40.9202],[20.8365,40.9239],[20.8902,40.9183],[20.9399,40.9071],[20.9567,40.8948],[20.9653,40.8494],[20.967,40.802],[20.9437,40.7653],[20.9635,40.7361],[21.0186,40.6909],[21.0367,40.6397],[21.0188,40.559],[20.9815,40.5233],[20.9579,40.5149],[20.9368,40.4725],[20.9119,40.4595],[20.8668,40.4721],[20.8267,40.4648],[20.8092,40.4366],[20.7795,40.429],[20.769,40.4126],[20.7739,40.3749],[20.7396,40.3092],[20.707,40.2881],[20.6946,40.2556],[20.6964,40.2151],[20.6853,40.1912],[20.6599,40.1727],[20.6682,40.1381],[20.6476,40.094],[20.6154,40.081]]]}}
]}
