{"type":"FeatureCollection","features":[
{"type":"Feature","properties":{"entityId":"anatolian-beyliks","from":1277,"to":1282,"certainty":"estimated","source":"유럽 쪽은 Natural Earth 1:10m admin-1(v5.1.2) 현대 행정구역 조각을 그 시기 국경에 맞춰 묶고, 조각이 역사 경계와 다른 곳은 선을 그어 나눈 근사. 유럽 밖(시베리아·중앙아시아·극동)은 대략적인 추정. 운영자 검수 필요"},"geometry":{"type":"MultiPolygon","coordinates":[[[[29.6777,39.9063],[29.6617,39.8211],[29.6658,39.7788],[29.7163,39.7093],[29.7911,39.6771],[29.902,39.6166],[29.9455,39.6076],[30.0241,39.6242],[30.1361,39.6388],[30.174,39.5905],[30.2845,39.5097],[30.312,39.4495],[30.3238,39.372],[30.4242,39.2695],[30.4418,39.2063],[30.4772,39.1996],[30.5049,39.1784],[30.5437,39.1241],[30.6212,39.0869],[30.668,39.093],[30.7698,39.1412],[30.8685,39.2109],[30.9186,39.1926],[30.9622,39.1546],[31.035,39.1791],[31.1072,39.2226],[31.1462,39.23],[31.2165,39.2725],[31.2577,39.2819],[31.3281,39.2239],[31.3783,39.1357],[31.4528,39.0912],[31.5819,39.1019],[31.6596,39.1003],[31.6978,39.0926],[31.6747,39.0005],[31.7236,38.9675],[31.7149,38.9277],[31.6383,38.8291],[31.608,38.7821],[31.5922,38.7288],[31.5948,38.6664],[31.5072,38.5771],[31.4308,38.5141],[31.2544,38.423],[31.2833,38.3501],[31.3614,38.3],[31.4219,38.2381],[31.4914,38.1926],[31.5253,38.1809],[31.5483,38.1548],[31.6207,38.1047],[31.6136,38.072],[31.5496,38.0397],[31.4795,38.0187],[31.4471,38.0028],[31.4252,37.9376],[31.4482,37.8592],[31.4507,37.7807],[31.4093,37.7291],[31.4051,37.6815],[31.3727,37.6492],[31.3292,37.6389],[31.3293,37.6039],[31.3538,37.5738],[31.3677,37.5376],[31.3585,37.4776],[31.3319,37.4222],[31.3764,37.3799],[31.4155,37.3549],[31.459,37.3413],[31.5587,37.3407],[31.8154,37.2985],[31.8987,37.2552],[31.963,37.2076],[32.0331,37.1686],[32.0832,37.1266],[32.1279,37.0762],[32.2531,36.9869],[32.3235,36.9582],[32.3272,36.9276],[32.3016,36.9116],[32.2903,36.8814],[32.3053,36.8542],[32.3487,36.8412],[32.4264,36.8321],[32.4475,36.8083],[32.4632,36.7416],[32.4562,36.6734],[32.4906,36.6016],[32.5316,36.5338],[32.5587,36.5062],[32.632,36.4703],[32.6517,36.438],[32.6426,36.3794],[32.6472,36.2693],[32.6313,36.2213],[32.602,36.1693],[32.5903,36.1199],[32.5718,36.094],[32.5826,36.0888],[32.5452,36.0981],[32.5134,36.103],[32.4373,36.1387],[32.4196,36.1595],[32.3655,36.178],[32.3187,36.2286],[32.283,36.2506],[32.2814,36.2591],[31.6999,36.6443],[30.6203,36.6781],[30.5724,36.5919],[30.5811,36.5752],[30.5698,36.528],[30.5487,36.5115],[30.5101,36.4583],[30.5088,36.4543],[30.5046,36.4478],[30.4927,36.3708],[30.5016,36.3636],[30.4942,36.3493],[30.5199,36.3419],[30.4838,36.3127],[30.4835,36.3107],[30.473,36.2985],[30.4668,36.2878],[30.488,36.2878],[30.4517,36.2618],[30.4408,36.2393],[30.3986,36.206],[30.4004,36.2481],[30.4,36.2488],[30.3863,36.243],[30.3861,36.2431],[30.3859,36.243],[30.3566,36.2576],[29.823,36.1649],[29.7953,36.1452],[29.7617,36.137],[29.7457,36.1515],[29.6987,36.1433],[29.6986,36.1434],[29.6983,36.1433],[29.6944,36.1455],[29.6724,36.1234],[29.6682,36.1438],[29.634,36.1571],[29.6342,36.1723],[29.5887,36.1861],[29.5835,36.1855],[29.585,36.1872],[29.5229,36.206],[29.5215,36.206],[29.4945,36.211],[29.4725,36.2213],[29.4262,36.2353],[29.4204,36.2306],[29.4187,36.2375],[29.3702,36.2522],[29.3571,36.2357],[29.3223,36.2469],[29.2612,36.2936],[29.3071,36.325],[29.3133,36.3763],[29.362,36.4631],[29.4244,36.4835],[29.4549,36.4733],[29.4773,36.4824],[29.4811,36.5371],[29.5755,36.599],[29.5938,36.6543],[29.5802,36.7161],[29.6889,36.9143],[29.604,37.0086],[29.4834,36.9959],[29.435,36.9474],[29.3967,36.9597],[29.4134,37.0176],[29.3904,37.0686],[29.3426,37.038],[29.3357,36.973],[29.3044,36.9258],[29.2704,36.9116],[29.1699,36.9549],[29.1151,36.9581],[29.0902,36.9779],[29.0754,37.0655],[29.0618,37.1029],[29.0019,37.1497],[28.9283,37.1766],[28.8861,37.2249],[28.8115,37.2335],[28.7779,37.2721],[28.765,37.3185],[28.7353,37.3599],[28.688,37.3747],[28.6273,37.3825],[28.6174,37.4112],[28.6208,37.4605],[28.6089,37.4775],[28.5956,37.5061],[28.5754,37.5146],[28.5628,37.553],[28.5832,37.5897],[28.6531,37.6063],[28.7303,37.5984],[28.7833,37.6385],[28.8302,37.6911],[28.869,37.6925],[28.8996,37.7097],[28.8929,37.7603],[28.8292,37.7705],[28.7706,37.8452],[28.7734,37.8711],[28.8043,37.9051],[28.7884,37.9652],[28.7905,37.9994],[28.7777,38.0288],[28.7222,38.0591],[28.698,38.1038],[28.743,38.1043],[28.7844,38.1199],[28.7984,38.1436],[28.7936,38.1705],[28.8381,38.2388],[28.931,38.2551],[28.8938,38.2874],[28.8638,38.288],[28.8385,38.3034],[28.8949,38.3632],[28.9082,38.3932],[28.9155,38.4407],[28.9029,38.5354],[28.8804,38.5571],[28.8519,38.5647],[28.8484,38.6001],[28.8767,38.6084],[28.9179,38.6537],[28.9955,38.701],[29.0323,38.7301],[29.0363,38.7933],[29.0153,38.84],[28.982,38.8867],[28.9909,38.948],[28.9743,38.9816],[28.9099,39.0596],[28.881,39.0753],[28.7304,39.1008],[28.6595,39.1566],[28.6578,39.204],[28.6667,39.238],[28.7787,39.2722],[28.8114,39.2906],[28.8497,39.3479],[28.896,39.3997],[28.9088,39.4707],[28.9408,39.5211],[28.947,39.5599],[28.9672,39.5891],[29.0048,39.5661],[29.1193,39.5516],[29.1908,39.5521],[29.2461,39.5793],[29.2525,39.6458],[29.2742,39.6909],[29.3202,39.7172],[29.3478,39.7969],[29.3682,39.8133],[29.3995,39.8959],[29.4502,39.9235],[29.5544,39.8919],[29.6183,39.8924],[29.6777,39.9063]]],[[[34.1995,42.0276],[34.2471,42.0283],[34.3424,42.0295],[34.533,42.0321],[34.9142,42.0371],[34.9419,42.0693],[34.9481,42.0988],[35.0239,42.0925],[35.0488,42.0651],[35.0453,42.0545],[35.1066,42.0397],[35.1588,42.0404],[35.1604,42.0415],[35.1862,42.0425],[35.2076,42.0242],[35.3048,41.985],[35.5166,41.8996],[35.5696,41.8782],[35.5961,41.8675],[35.6225,41.8569],[35.7284,41.8142],[35.9403,41.7287],[35.9568,41.7363],[35.9466,41.7262],[35.9627,41.7197],[35.9779,41.7297],[36.033,41.6914],[36.0387,41.689],[36.0449,41.7015],[36.071,41.676],[36.8731,41.3526],[36.9132,41.3364],[37.0736,41.2931],[37.1238,41.2796],[37.1489,41.2728],[37.1739,41.2661],[37.1989,41.2593],[37.224,41.2525],[37.2741,41.239],[37.6751,41.1308],[37.6898,41.1404],[37.6983,41.1246],[37.7346,41.1148],[37.7839,41.1226],[37.7843,41.1013],[38.0589,41.0272],[38.1276,41.0087],[38.1276,40.9914],[38.1276,40.9789],[38.1276,40.9556],[38.1142,40.9582],[38.1153,40.9194],[38.1011,40.8891],[38.0629,40.8463],[38.0627,40.8145],[38.0797,40.786],[38.085,40.7523],[38.0792,40.6511],[38.0633,40.6052],[38.1583,40.5235],[38.0952,40.4922],[38.0084,40.481],[37.998,40.4688],[38.0016,40.4116],[37.9802,40.4013],[37.8977,40.4041],[37.8614,40.3839],[37.8019,40.3357],[37.7669,40.3319],[37.6901,40.3794],[37.6349,40.4612],[37.617,40.5212],[37.5841,40.5694],[37.4488,40.5759],[37.2197,40.6977],[37.1525,40.7019],[37.0846,40.6943],[37.0134,40.6989],[36.9468,40.7203],[36.8954,40.7447],[36.8118,40.7661],[36.7565,40.792],[36.6989,40.8068],[36.6875,40.836],[36.7052,40.8625],[36.6872,40.8866],[36.6529,40.9056],[36.6,40.9068],[36.5526,40.8902],[36.4431,40.8704],[36.3355,40.9292],[36.3071,40.9738],[36.2792,40.9969],[36.2429,41.007],[36.2031,40.9878],[36.1855,40.9422],[36.1548,40.9014],[36.0735,40.8548],[36.0314,40.8474],[35.9532,40.8759],[35.8208,40.8772],[35.7823,40.8831],[35.7061,40.8788],[35.673,40.886],[35.6388,40.931],[35.4941,41.015],[35.4611,41.0294],[35.4,41.0207],[35.0893,41.0869],[35.0516,41.0942],[34.9748,41.0874],[34.959,41.1248],[34.9395,41.2003],[34.888,41.2698],[34.8761,41.233],[34.8373,41.2016],[34.7239,41.2293],[34.6704,41.2661],[34.641,41.2721],[34.5741,41.2705],[34.5575,41.2846],[34.4985,41.2859],[34.4719,41.3108],[34.4798,41.4416],[34.4629,41.4798],[34.472,41.5185],[34.4918,41.5523],[34.5533,41.5912],[34.5879,41.6575],[34.5325,41.7132],[34.4661,41.7275],[34.3443,41.7325],[34.2842,41.7453],[34.2051,41.7478],[34.1404,41.7671],[34.1422,41.8002],[34.1926,41.8451],[34.2209,41.9035],[34.2161,41.9601],[34.1995,41.9619],[34.1995,41.9925],[34.1995,42.0276]]]]}},
{"type":"Feature","properties":{"entityId":"anatolian-beyliks","from":1282,"to":1295,"certainty":"estimated","source":"유럽 쪽은 Natural Earth 1:10m admin-1(v5.1.2) 현대 행정구역 조각을 그 시기 국경에 맞춰 묶고, 조각이 역사 경계와 다른 곳은 선을 그어 나눈 근사. 유럽 밖(시베리아·중앙아시아·극동)은 대략적인 추정. 운영자 검수 필요"},"geometry":{"type":"MultiPolygon","coordinates":[[[[29.6777,39.9063],[29.6617,39.8211],[29.6658,39.7788],[29.7163,39.7093],[29.7911,39.6771],[29.902,39.6166],[29.9455,39.6076],[30.0241,39.6242],[30.1361,39.6388],[30.174,39.5905],[30.2845,39.5097],[30.312,39.4495],[30.3238,39.372],[30.4242,39.2695],[30.4418,39.2063],[30.4772,39.1996],[30.5049,39.1784],[30.5437,39.1241],[30.6212,39.0869],[30.668,39.093],[30.7698,39.1412],[30.8685,39.2109],[30.9186,39.1926],[30.9622,39.1546],[31.035,39.1791],[31.1072,39.2226],[31.1462,39.23],[31.2165,39.2725],[31.2577,39.2819],[31.3281,39.2239],[31.3783,39.1357],[31.4528,39.0912],[31.5819,39.1019],[31.6596,39.1003],[31.6978,39.0926],[31.6747,39.0005],[31.7236,38.9675],[31.7149,38.9277],[31.6383,38.8291],[31.608,38.7821],[31.5922,38.7288],[31.5948,38.6664],[31.5072,38.5771],[31.4308,38.5141],[31.2544,38.423],[31.2833,38.3501],[31.3614,38.3],[31.4219,38.2381],[31.4914,38.1926],[31.5253,38.1809],[31.5483,38.1548],[31.6207,38.1047],[31.6136,38.072],[31.5496,38.0397],[31.4795,38.0187],[31.4471,38.0028],[31.4252,37.9376],[31.4482,37.8592],[31.4507,37.7807],[31.4093,37.7291],[31.4051,37.6815],[31.3727,37.6492],[31.3292,37.6389],[31.3293,37.6039],[31.3538,37.5738],[31.3677,37.5376],[31.3585,37.4776],[31.3319,37.4222],[31.3764,37.3799],[31.4155,37.3549],[31.459,37.3413],[31.5587,37.3407],[31.8154,37.2985],[31.8987,37.2552],[31.963,37.2076],[32.0331,37.1686],[32.0832,37.1266],[32.1279,37.0762],[32.2531,36.9869],[32.3235,36.9582],[32.3272,36.9276],[32.3016,36.9116],[32.2903,36.8814],[32.3053,36.8542],[32.3487,36.8412],[32.4264,36.8321],[32.4475,36.8083],[32.4632,36.7416],[32.4562,36.6734],[32.4906,36.6016],[32.5316,36.5338],[32.5587,36.5062],[32.632,36.4703],[32.6517,36.438],[32.6426,36.3794],[32.6472,36.2693],[32.6313,36.2213],[32.602,36.1693],[32.5903,36.1199],[32.5718,36.094],[32.5826,36.0888],[32.5452,36.0981],[32.5134,36.103],[32.4373,36.1387],[32.4196,36.1595],[32.3655,36.178],[32.3187,36.2286],[32.283,36.2506],[32.2814,36.2591],[31.6999,36.6443],[30.6203,36.6781],[30.5724,36.5919],[30.5811,36.5752],[30.5698,36.528],[30.5487,36.5115],[30.5101,36.4583],[30.5088,36.4543],[30.5046,36.4478],[30.4927,36.3708],[30.5016,36.3636],[30.4942,36.3493],[30.5199,36.3419],[30.4838,36.3127],[30.4835,36.3107],[30.473,36.2985],[30.4668,36.2878],[30.488,36.2878],[30.4517,36.2618],[30.4408,36.2393],[30.3986,36.206],[30.4004,36.2481],[30.4,36.2488],[30.3863,36.243],[30.3861,36.2431],[30.3859,36.243],[30.3566,36.2576],[29.823,36.1649],[29.7953,36.1452],[29.7617,36.137],[29.7457,36.1515],[29.6987,36.1433],[29.6986,36.1434],[29.6983,36.1433],[29.6944,36.1455],[29.6724,36.1234],[29.6682,36.1438],[29.634,36.1571],[29.6342,36.1723],[29.5887,36.1861],[29.5835,36.1855],[29.585,36.1872],[29.5229,36.206],[29.5215,36.206],[29.4945,36.211],[29.4725,36.2213],[29.4262,36.2353],[29.4204,36.2306],[29.4187,36.2375],[29.3702,36.2522],[29.3571,36.2357],[29.3223,36.2469],[29.2612,36.2936],[29.2437,36.3138],[29.2231,36.3246],[29.2186,36.3288],[29.1447,36.3493],[29.1447,36.3772],[29.0964,36.3909],[29.1304,36.4114],[29.1242,36.4536],[29.106,36.4706],[28.8614,36.6057],[28.8587,36.6013],[28.8186,36.6117],[28.8293,36.6235],[28.7335,36.6764],[28.1584,36.6675],[28.1115,36.6042],[28.0881,36.5891],[28.0617,36.5963],[28.048,36.569],[28.0138,36.5759],[27.9909,36.5598],[27.9661,36.5759],[27.9592,36.6025],[28.0344,36.6025],[28.054,36.6096],[28.0881,36.6426],[28.0211,36.6336],[28.0211,36.6337],[28.0207,36.6336],[28.0144,36.6653],[27.6716,36.6599],[27.6712,36.6578],[27.6646,36.6598],[27.6431,36.6595],[27.6427,36.6595],[27.6374,36.6682],[27.603,36.6789],[27.5597,36.6746],[27.5556,36.6829],[27.5486,36.6834],[27.4863,36.6652],[27.4727,36.6509],[27.4557,36.6629],[27.3628,36.6851],[27.3558,36.7124],[27.4143,36.7093],[27.4273,36.7357],[27.4588,36.7557],[27.4832,36.754],[27.5614,36.7609],[27.5784,36.7671],[27.4296,37.0158],[27.4059,37.0167],[27.3436,37.0146],[27.3314,37.0023],[27.3327,36.9971],[27.3006,36.9731],[27.3081,36.9594],[27.2632,36.9634],[27.2527,36.9783],[27.2288,37.0618],[27.2391,37.083],[27.2696,37.0981],[27.2828,37.1103],[27.2604,37.1103],[27.2717,37.1289],[27.2998,37.1262],[27.3007,37.127],[27.3011,37.127],[27.3218,37.1254],[27.3218,37.1587],[27.349,37.1301],[27.3579,37.1358],[27.3239,37.1927],[27.302,37.2293],[27.2801,37.266],[27.2813,37.266],[27.3162,37.266],[27.3291,37.266],[27.3291,37.3027],[27.3291,37.3088],[27.3291,37.3393],[27.3769,37.3393],[27.3769,37.3729],[27.3769,37.376],[27.3769,37.4066],[27.4035,37.4126],[27.4811,37.5392],[27.5125,37.5531],[27.5458,37.5545],[27.6196,37.5244],[27.7,37.5149],[27.7704,37.4766],[27.8161,37.4708],[27.8613,37.4798],[27.9073,37.4799],[27.9497,37.4624],[28.0198,37.4598],[28.1414,37.4668],[28.1807,37.4924],[28.2161,37.5473],[28.2699,37.5774],[28.3426,37.5654],[28.4048,37.523],[28.4782,37.4917],[28.6089,37.4775],[28.5956,37.5061],[28.5754,37.5146],[28.5628,37.553],[28.5832,37.5897],[28.6531,37.6063],[28.7303,37.5984],[28.7833,37.6385],[28.8302,37.6911],[28.869,37.6925],[28.8996,37.7097],[28.8929,37.7603],[28.8292,37.7705],[28.7706,37.8452],[28.7734,37.8711],[28.8043,37.9051],[28.7884,37.9652],[28.7905,37.9994],[28.7777,38.0288],[28.7222,38.0591],[28.698,38.1038],[28.743,38.1043],[28.7844,38.1199],[28.7984,38.1436],[28.7936,38.1705],[28.8381,38.2388],[28.931,38.2551],[28.8938,38.2874],[28.8638,38.288],[28.8385,38.3034],[28.8949,38.3632],[28.9082,38.3932],[28.9155,38.4407],[28.9029,38.5354],[28.8804,38.5571],[28.8519,38.5647],[28.8484,38.6001],[28.8767,38.6084],[28.9179,38.6537],[28.9955,38.701],[29.0323,38.7301],[29.0363,38.7933],[29.0153,38.84],[28.982,38.8867],[28.9909,38.948],[28.9743,38.9816],[28.9099,39.0596],[28.881,39.0753],[28.7304,39.1008],[28.6595,39.1566],[28.6578,39.204],[28.6667,39.238],[28.7787,39.2722],[28.8114,39.2906],[28.8497,39.3479],[28.896,39.3997],[28.9088,39.4707],[28.9408,39.5211],[28.947,39.5599],[28.9672,39.5891],[29.0048,39.5661],[29.1193,39.5516],[29.1908,39.5521],[29.2461,39.5793],[29.2525,39.6458],[29.2742,39.6909],[29.3202,39.7172],[29.3478,39.7969],[29.3682,39.8133],[29.3995,39.8959],[29.4502,39.9235],[29.5544,39.8919],[29.6183,39.8924],[29.6777,39.9063]]],[[[34.1995,42.0276],[34.2471,42.0283],[34.3424,42.0295],[34.533,42.0321],[34.9142,42.0371],[34.9419,42.0693],[34.9481,42.0988],[35.0239,42.0925],[35.0488,42.0651],[35.0453,42.0545],[35.1066,42.0397],[35.1588,42.0404],[35.1604,42.0415],[35.1862,42.0425],[35.2076,42.0242],[35.3048,41.985],[35.5166,41.8996],[35.5696,41.8782],[35.5961,41.8675],[35.6225,41.8569],[35.7284,41.8142],[35.9403,41.7287],[35.9568,41.7363],[35.9466,41.7262],[35.9627,41.7197],[35.9779,41.7297],[36.033,41.6914],[36.0387,41.689],[36.0449,41.7015],[36.071,41.676],[36.8731,41.3526],[36.9132,41.3364],[37.0736,41.2931],[37.1238,41.2796],[37.1489,41.2728],[37.1739,41.2661],[37.1989,41.2593],[37.224,41.2525],[37.2741,41.239],[37.6751,41.1308],[37.6898,41.1404],[37.6983,41.1246],[37.7346,41.1148],[37.7839,41.1226],[37.7843,41.1013],[38.0589,41.0272],[38.1276,41.0087],[38.1276,40.9914],[38.1276,40.9789],[38.1276,40.9556],[38.1142,40.9582],[38.1153,40.9194],[38.1011,40.8891],[38.0629,40.8463],[38.0627,40.8145],[38.0797,40.786],[38.085,40.7523],[38.0792,40.6511],[38.0633,40.6052],[38.1583,40.5235],[38.0952,40.4922],[38.0084,40.481],[37.998,40.4688],[38.0016,40.4116],[37.9802,40.4013],[37.8977,40.4041],[37.8614,40.3839],[37.8019,40.3357],[37.7669,40.3319],[37.6901,40.3794],[37.6349,40.4612],[37.617,40.5212],[37.5841,40.5694],[37.4488,40.5759],[37.2197,40.6977],[37.1525,40.7019],[37.0846,40.6943],[37.0134,40.6989],[36.9468,40.7203],[36.8954,40.7447],[36.8118,40.7661],[36.7565,40.792],[36.6989,40.8068],[36.6875,40.836],[36.7052,40.8625],[36.6872,40.8866],[36.6529,40.9056],[36.6,40.9068],[36.5526,40.8902],[36.4431,40.8704],[36.3355,40.9292],[36.3071,40.9738],[36.2792,40.9969],[36.2429,41.007],[36.2031,40.9878],[36.1855,40.9422],[36.1548,40.9014],[36.0735,40.8548],[36.0314,40.8474],[35.9532,40.8759],[35.8208,40.8772],[35.7823,40.8831],[35.7061,40.8788],[35.673,40.886],[35.6388,40.931],[35.4941,41.015],[35.4611,41.0294],[35.4,41.0207],[35.0893,41.0869],[35.0516,41.0942],[34.9748,41.0874],[34.959,41.1248],[34.9395,41.2003],[34.888,41.2698],[34.8761,41.233],[34.8373,41.2016],[34.7239,41.2293],[34.6704,41.2661],[34.641,41.2721],[34.5741,41.2705],[34.5575,41.2846],[34.4985,41.2859],[34.4719,41.3108],[34.4798,41.4416],[34.4629,41.4798],[34.472,41.5185],[34.4918,41.5523],[34.5533,41.5912],[34.5879,41.6575],[34.5325,41.7132],[34.4661,41.7275],[34.3443,41.7325],[34.2842,41.7453],[34.2051,41.7478],[34.1404,41.7671],[34.1422,41.8002],[34.1926,41.8451],[34.2209,41.9035],[34.2161,41.9601],[34.1995,41.9619],[34.1995,41.9925],[34.1995,42.0276]]]]}},
{"type":"Feature","properties":{"entityId":"anatolian-beyliks","from":1295,"to":1299,"certainty":"estimated","source":"유럽 쪽은 Natural Earth 1:10m admin-1(v5.1.2) 현대 행정구역 조각을 그 시기 국경에 맞춰 묶고, 조각이 역사 경계와 다른 곳은 선을 그어 나눈 근사. 유럽 밖(시베리아·중앙아시아·극동)은 대략적인 추정. 운영자 검수 필요"},"geometry":{"type":"MultiPolygon","coordinates":[[[[29.6777,39.9063],[29.6617,39.8211],[29.6658,39.7788],[29.7163,39.7093],[29.7911,39.6771],[29.902,39.6166],[29.9455,39.6076],[30.0241,39.6242],[30.1361,39.6388],[30.174,39.5905],[30.2845,39.5097],[30.312,39.4495],[30.3238,39.372],[30.4242,39.2695],[30.4418,39.2063],[30.4772,39.1996],[30.5049,39.1784],[30.5437,39.1241],[30.6212,39.0869],[30.668,39.093],[30.7698,39.1412],[30.8685,39.2109],[30.9186,39.1926],[30.9622,39.1546],[31.035,39.1791],[31.1072,39.2226],[31.1462,39.23],[31.2165,39.2725],[31.2577,39.2819],[31.3281,39.2239],[31.3783,39.1357],[31.4528,39.0912],[31.5819,39.1019],[31.6596,39.1003],[31.6978,39.0926],[31.6747,39.0005],[31.7236,38.9675],[31.7149,38.9277],[31.6383,38.8291],[31.608,38.7821],[31.5922,38.7288],[31.5948,38.6664],[31.5072,38.5771],[31.4308,38.5141],[31.2544,38.423],[31.2833,38.3501],[31.3614,38.3],[31.4219,38.2381],[31.4914,38.1926],[31.5253,38.1809],[31.5483,38.1548],[31.6207,38.1047],[31.6136,38.072],[31.5496,38.0397],[31.4795,38.0187],[31.4471,38.0028],[31.4252,37.9376],[31.4482,37.8592],[31.4507,37.7807],[31.4093,37.7291],[31.4051,37.6815],[31.3727,37.6492],[31.3292,37.6389],[31.3293,37.6039],[31.3538,37.5738],[31.3677,37.5376],[31.3585,37.4776],[31.3319,37.4222],[31.3764,37.3799],[31.4155,37.3549],[31.459,37.3413],[31.5587,37.3407],[31.8154,37.2985],[31.8987,37.2552],[31.963,37.2076],[32.0331,37.1686],[32.0832,37.1266],[32.1279,37.0762],[32.2531,36.9869],[32.3235,36.9582],[32.3272,36.9276],[32.3016,36.9116],[32.2903,36.8814],[32.3053,36.8542],[32.3487,36.8412],[32.4264,36.8321],[32.4475,36.8083],[32.4632,36.7416],[32.4562,36.6734],[32.4906,36.6016],[32.5316,36.5338],[32.5587,36.5062],[32.632,36.4703],[32.6517,36.438],[32.6426,36.3794],[32.6472,36.2693],[32.6313,36.2213],[32.602,36.1693],[32.5903,36.1199],[32.5718,36.094],[32.5826,36.0888],[32.5452,36.0981],[32.5134,36.103],[32.4373,36.1387],[32.4196,36.1595],[32.3655,36.178],[32.3187,36.2286],[32.283,36.2506],[32.2814,36.2591],[31.6999,36.6443],[30.6203,36.6781],[30.5724,36.5919],[30.5811,36.5752],[30.5698,36.528],[30.5487,36.5115],[30.5101,36.4583],[30.5088,36.4543],[30.5046,36.4478],[30.4927,36.3708],[30.5016,36.3636],[30.4942,36.3493],[30.5199,36.3419],[30.4838,36.3127],[30.4835,36.3107],[30.473,36.2985],[30.4668,36.2878],[30.488,36.2878],[30.4517,36.2618],[30.4408,36.2393],[30.3986,36.206],[30.4004,36.2481],[30.4,36.2488],[30.3863,36.243],[30.3861,36.2431],[30.3859,36.243],[30.3566,36.2576],[29.823,36.1649],[29.7953,36.1452],[29.7617,36.137],[29.7457,36.1515],[29.6987,36.1433],[29.6986,36.1434],[29.6983,36.1433],[29.6944,36.1455],[29.6724,36.1234],[29.6682,36.1438],[29.634,36.1571],[29.6342,36.1723],[29.5887,36.1861],[29.5835,36.1855],[29.585,36.1872],[29.5229,36.206],[29.5215,36.206],[29.4945,36.211],[29.4725,36.2213],[29.4262,36.2353],[29.4204,36.2306],[29.4187,36.2375],[29.3702,36.2522],[29.3571,36.2357],[29.3223,36.2469],[29.2612,36.2936],[29.2437,36.3138],[29.2231,36.3246],[29.2186,36.3288],[29.1447,36.3493],[29.1447,36.3772],[29.0964,36.3909],[29.1304,36.4114],[29.1242,36.4536],[29.106,36.4706],[28.8614,36.6057],[28.8587,36.6013],[28.8186,36.6117],[28.8293,36.6235],[28.7335,36.6764],[28.1584,36.6675],[28.1115,36.6042],[28.0881,36.5891],[28.0617,36.5963],[28.048,36.569],[28.0138,36.5759],[27.9909,36.5598],[27.9661,36.5759],[27.9592,36.6025],[28.0344,36.6025],[28.054,36.6096],[28.0881,36.6426],[28.0211,36.6336],[28.0211,36.6337],[28.0207,36.6336],[28.0144,36.6653],[27.6716,36.6599],[27.6712,36.6578],[27.6646,36.6598],[27.6431,36.6595],[27.6427,36.6595],[27.6374,36.6682],[27.603,36.6789],[27.5597,36.6746],[27.5556,36.6829],[27.5486,36.6834],[27.4863,36.6652],[27.4727,36.6509],[27.4557,36.6629],[27.3628,36.6851],[27.3558,36.7124],[27.4143,36.7093],[27.4273,36.7357],[27.4588,36.7557],[27.4832,36.754],[27.5614,36.7609],[27.5784,36.7671],[27.4296,37.0158],[27.4059,37.0167],[27.3436,37.0146],[27.3314,37.0023],[27.3327,36.9971],[27.3006,36.9731],[27.3081,36.9594],[27.2632,36.9634],[27.2527,36.9783],[27.2288,37.0618],[27.2391,37.083],[27.2696,37.0981],[27.2828,37.1103],[27.2604,37.1103],[27.2717,37.1289],[27.2998,37.1262],[27.3007,37.127],[27.3011,37.127],[27.3218,37.1254],[27.3218,37.1587],[27.349,37.1301],[27.3579,37.1358],[27.3239,37.1927],[27.302,37.2293],[27.2801,37.266],[27.2334,37.344],[27.2119,37.3573],[27.1908,37.3573],[27.2075,37.3764],[27.206,37.3898],[27.0507,37.6497],[27.0488,37.6501],[27.0115,37.6657],[27.0208,37.6742],[27.0048,37.6863],[27.0048,37.7066],[27.0306,37.7066],[27.0591,37.7067],[27.0591,37.6897],[27.0876,37.6892],[27.0876,37.7129],[27.0876,37.7157],[27.1161,37.7157],[27.1161,37.7428],[27.1445,37.7428],[27.1445,37.748],[27.1445,37.7727],[27.1445,37.7753],[27.173,37.7753],[27.173,37.8025],[27.1477,37.8025],[27.1477,37.8324],[27.1185,37.8324],[27.1185,37.8623],[27.1185,37.8922],[27.0892,37.8922],[27.0599,37.8922],[27.0306,37.8922],[27.0306,37.922],[27.0014,37.922],[26.9721,37.922],[26.9428,37.922],[26.916,37.922],[26.9135,37.922],[26.8861,37.922],[26.8843,37.922],[26.8562,37.922],[26.855,37.922],[26.8263,37.922],[26.7964,37.922],[26.7964,37.9377],[26.7665,37.9377],[26.7366,37.9377],[26.7067,37.9377],[26.6768,37.9377],[26.6768,37.9356],[26.6469,37.9583],[26.617,37.981],[26.5572,38.0264],[26.3179,38.2082],[26.3181,38.2085],[26.3179,38.2086],[26.3344,38.2351],[26.3286,38.2351],[26.2866,38.2611],[26.2346,38.2738],[26.2388,38.2958],[26.2654,38.2867],[26.2859,38.3187],[26.3076,38.3231],[26.2889,38.3406],[26.2941,38.3699],[26.3076,38.3579],[26.3211,38.3777],[26.3143,38.3367],[26.3219,38.3339],[26.3431,38.37],[26.3435,38.37],[26.4151,38.3682],[26.4294,38.4409],[26.4181,38.4649],[26.3879,38.4543],[26.4038,38.4875],[26.3758,38.5286],[26.3486,38.6213],[26.3563,38.6617],[26.4141,38.6794],[26.4656,38.6727],[26.5056,38.6527],[26.5558,38.6054],[26.561,38.5972],[26.8017,38.982],[26.8009,38.9874],[26.7208,39.0479],[26.7208,39.0777],[26.7208,39.1074],[26.6815,39.1074],[26.6815,39.1372],[26.7208,39.1372],[26.7208,39.1552],[26.7526,39.1552],[26.7844,39.1552],[26.7844,39.1674],[26.7787,39.17],[26.9936,39.2908],[27.05,39.3512],[27.1097,39.374],[27.291,39.4645],[27.3475,39.4558],[27.3907,39.4247],[27.4201,39.3803],[27.4966,39.4113],[27.5431,39.3948],[27.586,39.367],[27.6559,39.3517],[27.7264,39.3593],[27.7679,39.3566],[27.823,39.3396],[27.8712,39.3448],[27.8962,39.3134],[27.8659,39.2716],[27.8542,39.2364],[27.8933,39.2219],[27.968,39.2433],[28.0737,39.1527],[28.125,39.063],[28.171,39.0502],[28.2562,39.0711],[28.2936,39.0883],[28.3208,39.1163],[28.4047,39.1194],[28.4799,39.1306],[28.5721,39.1675],[28.6595,39.1566],[28.6578,39.204],[28.6667,39.238],[28.7787,39.2722],[28.8114,39.2906],[28.8497,39.3479],[28.896,39.3997],[28.9088,39.4707],[28.9408,39.5211],[28.947,39.5599],[28.9672,39.5891],[29.0048,39.5661],[29.1193,39.5516],[29.1908,39.5521],[29.2461,39.5793],[29.2525,39.6458],[29.2742,39.6909],[29.3202,39.7172],[29.3478,39.7969],[29.3682,39.8133],[29.3995,39.8959],[29.4502,39.9235],[29.5544,39.8919],[29.6183,39.8924],[29.6777,39.9063]]],[[[34.1995,42.0276],[34.2471,42.0283],[34.3424,42.0295],[34.533,42.0321],[34.9142,42.0371],[34.9419,42.0693],[34.9481,42.0988],[35.0239,42.0925],[35.0488,42.0651],[35.0453,42.0545],[35.1066,42.0397],[35.1588,42.0404],[35.1604,42.0415],[35.1862,42.0425],[35.2076,42.0242],[35.3048,41.985],[35.5166,41.8996],[35.5696,41.8782],[35.5961,41.8675],[35.6225,41.8569],[35.7284,41.8142],[35.9403,41.7287],[35.9568,41.7363],[35.9466,41.7262],[35.9627,41.7197],[35.9779,41.7297],[36.033,41.6914],[36.0387,41.689],[36.0449,41.7015],[36.071,41.676],[36.8731,41.3526],[36.9132,41.3364],[37.0736,41.2931],[37.1238,41.2796],[37.1489,41.2728],[37.1739,41.2661],[37.1989,41.2593],[37.224,41.2525],[37.2741,41.239],[37.6751,41.1308],[37.6898,41.1404],[37.6983,41.1246],[37.7346,41.1148],[37.7839,41.1226],[37.7843,41.1013],[38.0589,41.0272],[38.1276,41.0087],[38.1276,40.9914],[38.1276,40.9789],[38.1276,40.9556],[38.1142,40.9582],[38.1153,40.9194],[38.1011,40.8891],[38.0629,40.8463],[38.0627,40.8145],[38.0797,40.786],[38.085,40.7523],[38.0792,40.6511],[38.0633,40.6052],[38.1583,40.5235],[38.0952,40.4922],[38.0084,40.481],[37.998,40.4688],[38.0016,40.4116],[37.9802,40.4013],[37.8977,40.4041],[37.8614,40.3839],[37.8019,40.3357],[37.7669,40.3319],[37.6901,40.3794],[37.6349,40.4612],[37.617,40.5212],[37.5841,40.5694],[37.4488,40.5759],[37.2197,40.6977],[37.1525,40.7019],[37.0846,40.6943],[37.0134,40.6989],[36.9468,40.7203],[36.8954,40.7447],[36.8118,40.7661],[36.7565,40.792],[36.6989,40.8068],[36.6875,40.836],[36.7052,40.8625],[36.6872,40.8866],[36.6529,40.9056],[36.6,40.9068],[36.5526,40.8902],[36.4431,40.8704],[36.3355,40.9292],[36.3071,40.9738],[36.2792,40.9969],[36.2429,41.007],[36.2031,40.9878],[36.1855,40.9422],[36.1548,40.9014],[36.0735,40.8548],[36.0314,40.8474],[35.9532,40.8759],[35.8208,40.8772],[35.7823,40.8831],[35.7061,40.8788],[35.673,40.886],[35.6388,40.931],[35.4941,41.015],[35.4611,41.0294],[35.4,41.0207],[35.0893,41.0869],[35.0516,41.0942],[34.9748,41.0874],[34.959,41.1248],[34.9395,41.2003],[34.888,41.2698],[34.8761,41.233],[34.8373,41.2016],[34.7239,41.2293],[34.6704,41.2661],[34.641,41.2721],[34.5741,41.2705],[34.5575,41.2846],[34.4985,41.2859],[34.4719,41.3108],[34.4798,41.4416],[34.4629,41.4798],[34.472,41.5185],[34.4918,41.5523],[34.5533,41.5912],[34.5879,41.6575],[34.5325,41.7132],[34.4661,41.7275],[34.3443,41.7325],[34.2842,41.7453],[34.2051,41.7478],[34.1404,41.7671],[34.1422,41.8002],[34.1926,41.8451],[34.2209,41.9035],[34.2161,41.9601],[34.1995,41.9619],[34.1995,41.9925],[34.1995,42.0276]]]]}},
{"type":"Feature","properties":{"entityId":"anatolian-beyliks","from":1299,"to":1324,"certainty":"estimated","source":"유럽 쪽은 Natural Earth 1:10m admin-1(v5.1.2) 현대 행정구역 조각을 그 시기 국경에 맞춰 묶고, 조각이 역사 경계와 다른 곳은 선을 그어 나눈 근사. 유럽 밖(시베리아·중앙아시아·극동)은 대략적인 추정. 운영자 검수 필요"},"geometry":{"type":"MultiPolygon","coordinates":[[[[26.07,39.4963],[26.0742,39.4745],[26.113,39.4592],[26.1528,39.4592],[26.1717,39.4631],[26.22,39.4265],[26.22,39.4364],[26.2683,39.4364],[26.2683,39.4205],[26.365,39.4205],[26.365,39.4375],[26.4617,39.4375],[26.4617,39.3987],[26.5101,39.3987],[26.5101,39.2619],[26.5584,39.2619],[26.5584,39.2264],[26.599,39.2264],[26.599,39.1967],[26.6396,39.1967],[26.6396,39.1669],[26.6421,39.1669],[26.6421,39.1372],[26.6815,39.1372],[26.6815,39.1074],[26.7208,39.1074],[26.7208,39.0479],[26.8009,38.9874],[26.8017,38.982],[26.561,38.5972],[26.5558,38.6054],[26.5056,38.6527],[26.4656,38.6727],[26.4141,38.6794],[26.3563,38.6617],[26.3486,38.6213],[26.3758,38.5286],[26.4038,38.4875],[26.3879,38.4543],[26.4181,38.4649],[26.4294,38.4409],[26.4151,38.3682],[26.3435,38.37],[26.3431,38.37],[26.3219,38.3339],[26.3143,38.3367],[26.3211,38.3777],[26.3076,38.3579],[26.2941,38.3699],[26.2889,38.3406],[26.3076,38.3231],[26.2859,38.3187],[26.2654,38.2867],[26.2388,38.2958],[26.2346,38.2738],[26.2866,38.2611],[26.3286,38.2351],[26.3344,38.2351],[26.3179,38.2086],[26.3181,38.2085],[26.3179,38.2082],[26.5572,38.0264],[26.6768,37.9356],[26.6768,37.9377],[26.7964,37.9377],[26.7964,37.922],[27.0306,37.922],[27.0306,37.8922],[27.1185,37.8922],[27.1185,37.8324],[27.1477,37.8324],[27.1477,37.8025],[27.173,37.8025],[27.173,37.7753],[27.1445,37.7753],[27.1445,37.7428],[27.1161,37.7428],[27.1161,37.7157],[27.0876,37.7157],[27.0876,37.6892],[27.0591,37.6897],[27.0591,37.7067],[27.0306,37.7066],[27.0048,37.7066],[27.0048,37.6863],[27.0208,37.6742],[27.0115,37.6657],[27.0488,37.6501],[27.0507,37.6497],[27.206,37.3898],[27.2075,37.3764],[27.1908,37.3573],[27.2119,37.3573],[27.2334,37.344],[27.2801,37.266],[27.302,37.2293],[27.3239,37.1927],[27.3579,37.1358],[27.349,37.1301],[27.3218,37.1587],[27.3218,37.1254],[27.3011,37.127],[27.3007,37.127],[27.2998,37.1262],[27.2717,37.1289],[27.2604,37.1103],[27.2828,37.1103],[27.2696,37.0981],[27.2391,37.083],[27.2288,37.0618],[27.2527,36.9783],[27.2632,36.9634],[27.3081,36.9594],[27.3006,36.9731],[27.3327,36.9971],[27.3314,37.0023],[27.3436,37.0146],[27.4059,37.0167],[27.4296,37.0158],[27.5784,36.7671],[27.5614,36.7609],[27.4832,36.754],[27.4588,36.7557],[27.4273,36.7357],[27.4143,36.7093],[27.3558,36.7124],[27.3628,36.6851],[27.4557,36.6629],[27.4727,36.6509],[27.4863,36.6652],[27.5486,36.6834],[27.5556,36.6829],[27.5597,36.6746],[27.603,36.6789],[27.6374,36.6682],[27.6427,36.6595],[27.6431,36.6595],[27.6646,36.6598],[27.6712,36.6578],[27.6716,36.6599],[28.0144,36.6653],[28.0207,36.6336],[28.0211,36.6337],[28.0211,36.6336],[28.0881,36.6426],[28.054,36.6096],[28.0344,36.6025],[27.9592,36.6025],[27.9661,36.5759],[27.9909,36.5598],[28.0138,36.5759],[28.048,36.569],[28.0617,36.5963],[28.0881,36.5891],[28.1115,36.6042],[28.1584,36.6675],[28.7335,36.6764],[28.8293,36.6235],[28.8186,36.6117],[28.8587,36.6013],[28.8614,36.6057],[29.106,36.4706],[29.1242,36.4536],[29.1304,36.4114],[29.0964,36.3909],[29.1447,36.3772],[29.1447,36.3493],[29.2186,36.3288],[29.2231,36.3246],[29.2437,36.3138],[29.2612,36.2936],[29.3223,36.2469],[29.3571,36.2357],[29.3702,36.2522],[29.4187,36.2375],[29.4204,36.2306],[29.4262,36.2353],[29.4725,36.2213],[29.4945,36.211],[29.5215,36.206],[29.5229,36.206],[29.585,36.1872],[29.5835,36.1855],[29.5887,36.1861],[29.6342,36.1723],[29.634,36.1571],[29.6682,36.1438],[29.6724,36.1234],[29.6944,36.1455],[29.6983,36.1433],[29.6986,36.1434],[29.6987,36.1433],[29.7457,36.1515],[29.7617,36.137],[29.7953,36.1452],[29.823,36.1649],[30.3566,36.2576],[30.3859,36.243],[30.3861,36.2431],[30.3863,36.243],[30.4,36.2488],[30.4004,36.2481],[30.3986,36.206],[30.4408,36.2393],[30.4517,36.2618],[30.488,36.2878],[30.4668,36.2878],[30.473,36.2985],[30.4835,36.3107],[30.4838,36.3127],[30.5199,36.3419],[30.4942,36.3493],[30.5016,36.3636],[30.4927,36.3708],[30.5046,36.4478],[30.5088,36.4543],[30.5101,36.4583],[30.5487,36.5115],[30.5698,36.528],[30.5811,36.5752],[30.5724,36.5919],[30.6203,36.6781],[31.6999,36.6443],[32.2814,36.2591],[32.283,36.2506],[32.3187,36.2286],[32.3655,36.178],[32.4196,36.1595],[32.4373,36.1387],[32.5134,36.103],[32.5452,36.0981],[32.5826,36.0888],[32.5718,36.094],[32.5903,36.1199],[32.602,36.1693],[32.6313,36.2213],[32.6472,36.2693],[32.6426,36.3794],[32.6517,36.438],[32.632,36.4703],[32.5587,36.5062],[32.5316,36.5338],[32.4906,36.6016],[32.4562,36.6734],[32.4632,36.7416],[32.4475,36.8083],[32.4264,36.8321],[32.3487,36.8412],[32.3053,36.8542],[32.2903,36.8814],[32.3016,36.9116],[32.3272,36.9276],[32.3235,36.9582],[32.2531,36.9869],[32.1279,37.0762],[32.0832,37.1266],[32.0331,37.1686],[31.963,37.2076],[31.8987,37.2552],[31.8154,37.2985],[31.5587,37.3407],[31.459,37.3413],[31.4155,37.3549],[31.3764,37.3799],[31.3319,37.4222],[31.3585,37.4776],[31.3677,37.5376],[31.3538,37.5738],[31.3293,37.6039],[31.3292,37.6389],[31.3727,37.6492],[31.4051,37.6815],[31.4093,37.7291],[31.4507,37.7807],[31.4482,37.8592],[31.4252,37.9376],[31.4471,38.0028],[31.4795,38.0187],[31.5496,38.0397],[31.6136,38.072],[31.6207,38.1047],[31.5483,38.1548],[31.5253,38.1809],[31.4914,38.1926],[31.4219,38.2381],[31.3614,38.3],[31.2833,38.3501],[31.2544,38.423],[31.4308,38.5141],[31.5072,38.5771],[31.5948,38.6664],[31.5922,38.7288],[31.608,38.7821],[31.6383,38.8291],[31.7149,38.9277],[31.7236,38.9675],[31.6747,39.0005],[31.6978,39.0926],[31.6596,39.1003],[31.5819,39.1019],[31.4528,39.0912],[31.3783,39.1357],[31.3281,39.2239],[31.2577,39.2819],[31.2165,39.2725],[31.1462,39.23],[31.1072,39.2226],[31.035,39.1791],[30.9622,39.1546],[30.9186,39.1926],[30.8685,39.2109],[30.7698,39.1412],[30.668,39.093],[30.6212,39.0869],[30.5437,39.1241],[30.5049,39.1784],[30.4772,39.1996],[30.4418,39.2063],[30.4242,39.2695],[30.3238,39.372],[30.312,39.4495],[30.2845,39.5097],[30.174,39.5905],[30.1361,39.6388],[30.0241,39.6242],[29.9455,39.6076],[29.902,39.6166],[29.7911,39.6771],[29.7163,39.7093],[29.6658,39.7788],[29.6617,39.8211],[29.6777,39.9063],[29.6183,39.8924],[29.5544,39.8919],[29.4502,39.9235],[29.3995,39.8959],[29.3682,39.8133],[29.3478,39.7969],[29.3202,39.7172],[29.2742,39.6909],[29.2525,39.6458],[29.2461,39.5793],[29.1908,39.5521],[29.1193,39.5516],[29.0048,39.5661],[28.9672,39.5891],[28.9122,39.6199],[28.8198,39.6145],[28.7803,39.6188],[28.7556,39.6483],[28.7116,39.6631],[28.6864,39.6995],[28.6891,39.7473],[28.6738,39.7641],[28.6258,39.7376],[28.5459,39.7452],[28.2814,39.8958],[28.2637,39.927],[28.246,39.9964],[28.227,40.0217],[28.1731,40.0509],[28.1358,40.0963],[28.1128,40.1533],[28.1253,40.1912],[28.149,40.2258],[28.1294,40.2581],[28.1064,40.263],[28.0989,40.2972],[28.1558,40.3364],[28.2081,40.3993],[28.2159,40.3996],[28.2159,40.4444],[28.177,40.4434],[28.138,40.4425],[28.06,40.4405],[27.985,40.4386],[28.0168,40.4511],[28.0344,40.4744],[28.0142,40.4912],[27.9699,40.503],[27.8047,40.5228],[27.7894,40.5142],[27.76,40.5371],[27.7332,40.5306],[27.6843,40.5023],[27.7258,40.4614],[27.7502,40.4576],[27.7563,40.4328],[27.589,40.4286],[27.5522,40.4276],[27.5154,40.4267],[27.4417,40.4248],[27.324,40.4219],[27.3034,40.4584],[27.2715,40.4678],[27.2377,40.4557],[27.1451,40.4537],[27.1431,40.4539],[27.126,40.4533],[27.1207,40.4532],[27.1206,40.4531],[27.0964,40.4523],[27.0333,40.4068],[27.0127,40.3959],[26.9204,40.3977],[26.8972,40.4062],[26.863,40.3999],[26.7534,40.403],[26.69,40.38],[26.62,40.33],[26.52,40.27],[26.44,40.21],[26.3982,40.164],[26.4035,40.139],[26.3936,40.1094],[26.3923,40.108],[26.3694,40.1029],[26.365,40.0787],[26.3143,40.0244],[26.2262,40.0015],[26.1978,40.0089],[26.1815,39.9898],[26.1811,39.9897],[26.1809,39.9891],[26.1677,39.9736],[26.1526,39.9426],[26.1565,39.9013],[26.1512,39.8823],[26.1364,39.8376],[26.1502,39.8292],[26.151,39.8031],[26.1406,39.7427],[26.1538,39.7207],[26.1556,39.6638],[26.1534,39.6524],[26.1272,39.6103],[26.1107,39.5979],[26.095,39.5486],[26.07,39.4963]]],[[[34.1404,41.7671],[34.2051,41.7478],[34.2842,41.7453],[34.3443,41.7325],[34.4661,41.7275],[34.5325,41.7132],[34.5879,41.6575],[34.5533,41.5912],[34.4918,41.5523],[34.472,41.5185],[34.4629,41.4798],[34.4798,41.4416],[34.4719,41.3108],[34.4985,41.2859],[34.5575,41.2846],[34.5741,41.2705],[34.641,41.2721],[34.6704,41.2661],[34.7239,41.2293],[34.8373,41.2016],[34.8761,41.233],[34.888,41.2698],[34.9395,41.2003],[34.959,41.1248],[34.9748,41.0874],[35.0516,41.0942],[35.0893,41.0869],[35.4,41.0207],[35.4611,41.0294],[35.4941,41.015],[35.6388,40.931],[35.673,40.886],[35.7061,40.8788],[35.7823,40.8831],[35.8208,40.8772],[35.9532,40.8759],[36.0314,40.8474],[36.0735,40.8548],[36.1548,40.9014],[36.1855,40.9422],[36.2031,40.9878],[36.2429,41.007],[36.2792,40.9969],[36.3071,40.9738],[36.3355,40.9292],[36.4431,40.8704],[36.5526,40.8902],[36.6,40.9068],[36.6529,40.9056],[36.6872,40.8866],[36.7052,40.8625],[36.6875,40.836],[36.6989,40.8068],[36.7565,40.792],[36.8118,40.7661],[36.8954,40.7447],[36.9468,40.7203],[37.0134,40.6989],[37.0846,40.6943],[37.1525,40.7019],[37.2197,40.6977],[37.4488,40.5759],[37.5841,40.5694],[37.617,40.5212],[37.6349,40.4612],[37.6901,40.3794],[37.7669,40.3319],[37.8019,40.3357],[37.8614,40.3839],[37.8977,40.4041],[37.9802,40.4013],[38.0016,40.4116],[37.998,40.4688],[38.0084,40.481],[38.0952,40.4922],[38.1583,40.5235],[38.0633,40.6052],[38.0792,40.6511],[38.085,40.7523],[38.0797,40.786],[38.0627,40.8145],[38.0629,40.8463],[38.1011,40.8891],[38.1153,40.9194],[38.1142,40.9582],[38.1276,40.9556],[38.1276,41.0087],[38.0589,41.0272],[37.7843,41.1013],[37.7839,41.1226],[37.7346,41.1148],[37.6983,41.1246],[37.6898,41.1404],[37.6751,41.1308],[37.2741,41.239],[37.224,41.2525],[37.1989,41.2593],[37.1739,41.2661],[37.1489,41.2728],[37.1238,41.2796],[37.0736,41.2931],[36.9132,41.3364],[36.8731,41.3526],[36.071,41.676],[36.0449,41.7015],[36.0387,41.689],[36.033,41.6914],[35.9779,41.7297],[35.9627,41.7197],[35.9466,41.7262],[35.9568,41.7363],[35.9403,41.7287],[35.7284,41.8142],[35.6225,41.8569],[35.5961,41.8675],[35.5166,41.8996],[35.3048,41.985],[35.2076,42.0242],[35.1862,42.0425],[35.1604,42.0415],[35.1588,42.0404],[35.1066,42.0397],[35.0453,42.0545],[35.0488,42.0651],[35.0239,42.0925],[34.9481,42.0988],[34.9419,42.0693],[34.9142,42.0371],[34.533,42.0321],[34.3424,42.0295],[34.2471,42.0283],[34.1995,42.0276],[34.1995,41.9619],[34.2161,41.9601],[34.2209,41.9035],[34.1926,41.8451],[34.1422,41.8002],[34.1404,41.7671]]]]}},
{"type":"Feature","properties":{"entityId":"anatolian-beyliks","from":1324,"to":1345,"certainty":"estimated","source":"유럽 쪽은 Natural Earth 1:10m admin-1(v5.1.2) 현대 행정구역 조각을 그 시기 국경에 맞춰 묶고, 조각이 역사 경계와 다른 곳은 선을 그어 나눈 근사. 유럽 밖(시베리아·중앙아시아·극동)은 대략적인 추정. 운영자 검수 필요"},"geometry":{"type":"MultiPolygon","coordinates":[[[[26.07,39.4963],[26.0742,39.4745],[26.113,39.4592],[26.1528,39.4592],[26.1717,39.4631],[26.22,39.4265],[26.22,39.4364],[26.2683,39.4364],[26.2683,39.4205],[26.365,39.4205],[26.365,39.4375],[26.4617,39.4375],[26.4617,39.3987],[26.5101,39.3987],[26.5101,39.2619],[26.5584,39.2619],[26.5584,39.2264],[26.599,39.2264],[26.599,39.1967],[26.6396,39.1967],[26.6396,39.1669],[26.6421,39.1669],[26.6421,39.1372],[26.6815,39.1372],[26.6815,39.1074],[26.7208,39.1074],[26.7208,39.0479],[26.8009,38.9874],[26.8017,38.982],[26.561,38.5972],[26.5558,38.6054],[26.5056,38.6527],[26.4656,38.6727],[26.4141,38.6794],[26.3563,38.6617],[26.3486,38.6213],[26.3758,38.5286],[26.4038,38.4875],[26.3879,38.4543],[26.4181,38.4649],[26.4294,38.4409],[26.4151,38.3682],[26.3435,38.37],[26.3431,38.37],[26.3219,38.3339],[26.3143,38.3367],[26.3211,38.3777],[26.3076,38.3579],[26.2941,38.3699],[26.2889,38.3406],[26.3076,38.3231],[26.2859,38.3187],[26.2654,38.2867],[26.2388,38.2958],[26.2346,38.2738],[26.2866,38.2611],[26.3286,38.2351],[26.3344,38.2351],[26.3179,38.2086],[26.3181,38.2085],[26.3179,38.2082],[26.5572,38.0264],[26.6768,37.9356],[26.6768,37.9377],[26.7964,37.9377],[26.7964,37.922],[27.0306,37.922],[27.0306,37.8922],[27.1185,37.8922],[27.1185,37.8324],[27.1477,37.8324],[27.1477,37.8025],[27.173,37.8025],[27.173,37.7753],[27.1445,37.7753],[27.1445,37.7428],[27.1161,37.7428],[27.1161,37.7157],[27.0876,37.7157],[27.0876,37.6892],[27.0591,37.6897],[27.0591,37.7067],[27.0306,37.7066],[27.0048,37.7066],[27.0048,37.6863],[27.0208,37.6742],[27.0115,37.6657],[27.0488,37.6501],[27.0507,37.6497],[27.206,37.3898],[27.2075,37.3764],[27.1908,37.3573],[27.2119,37.3573],[27.2334,37.344],[27.2801,37.266],[27.302,37.2293],[27.3239,37.1927],[27.3579,37.1358],[27.349,37.1301],[27.3218,37.1587],[27.3218,37.1254],[27.3011,37.127],[27.3007,37.127],[27.2998,37.1262],[27.2717,37.1289],[27.2604,37.1103],[27.2828,37.1103],[27.2696,37.0981],[27.2391,37.083],[27.2288,37.0618],[27.2527,36.9783],[27.2632,36.9634],[27.3081,36.9594],[27.3006,36.9731],[27.3327,36.9971],[27.3314,37.0023],[27.3436,37.0146],[27.4059,37.0167],[27.4296,37.0158],[27.5784,36.7671],[27.5614,36.7609],[27.4832,36.754],[27.4588,36.7557],[27.4273,36.7357],[27.4143,36.7093],[27.3558,36.7124],[27.3628,36.6851],[27.4557,36.6629],[27.4727,36.6509],[27.4863,36.6652],[27.5486,36.6834],[27.5556,36.6829],[27.5597,36.6746],[27.603,36.6789],[27.6374,36.6682],[27.6427,36.6595],[27.6431,36.6595],[27.6646,36.6598],[27.6712,36.6578],[27.6716,36.6599],[28.0144,36.6653],[28.0207,36.6336],[28.0211,36.6337],[28.0211,36.6336],[28.0881,36.6426],[28.054,36.6096],[28.0344,36.6025],[27.9592,36.6025],[27.9661,36.5759],[27.9909,36.5598],[28.0138,36.5759],[28.048,36.569],[28.0617,36.5963],[28.0881,36.5891],[28.1115,36.6042],[28.1584,36.6675],[28.7335,36.6764],[28.8293,36.6235],[28.8186,36.6117],[28.8587,36.6013],[28.8614,36.6057],[29.106,36.4706],[29.1242,36.4536],[29.1304,36.4114],[29.0964,36.3909],[29.1447,36.3772],[29.1447,36.3493],[29.2186,36.3288],[29.2231,36.3246],[29.2437,36.3138],[29.2612,36.2936],[29.3223,36.2469],[29.3571,36.2357],[29.3702,36.2522],[29.4187,36.2375],[29.4204,36.2306],[29.4262,36.2353],[29.4725,36.2213],[29.4945,36.211],[29.5215,36.206],[29.5229,36.206],[29.585,36.1872],[29.5835,36.1855],[29.5887,36.1861],[29.6342,36.1723],[29.634,36.1571],[29.6682,36.1438],[29.6724,36.1234],[29.6944,36.1455],[29.6983,36.1433],[29.6986,36.1434],[29.6987,36.1433],[29.7457,36.1515],[29.7617,36.137],[29.7953,36.1452],[29.823,36.1649],[30.3566,36.2576],[30.3859,36.243],[30.3861,36.2431],[30.3863,36.243],[30.4,36.2488],[30.4004,36.2481],[30.3986,36.206],[30.4408,36.2393],[30.4517,36.2618],[30.488,36.2878],[30.4668,36.2878],[30.473,36.2985],[30.4835,36.3107],[30.4838,36.3127],[30.5199,36.3419],[30.4942,36.3493],[30.5016,36.3636],[30.4927,36.3708],[30.5046,36.4478],[30.5088,36.4543],[30.5101,36.4583],[30.5487,36.5115],[30.5698,36.528],[30.5811,36.5752],[30.5724,36.5919],[30.6203,36.6781],[31.6999,36.6443],[32.2814,36.2591],[32.283,36.2506],[32.3187,36.2286],[32.3655,36.178],[32.4196,36.1595],[32.4373,36.1387],[32.5134,36.103],[32.5452,36.0981],[32.5826,36.0888],[32.5718,36.094],[32.5903,36.1199],[32.602,36.1693],[32.6313,36.2213],[32.6472,36.2693],[32.6426,36.3794],[32.6517,36.438],[32.632,36.4703],[32.5587,36.5062],[32.5316,36.5338],[32.4906,36.6016],[32.4562,36.6734],[32.4632,36.7416],[32.4475,36.8083],[32.4264,36.8321],[32.3487,36.8412],[32.3053,36.8542],[32.2903,36.8814],[32.3016,36.9116],[32.3272,36.9276],[32.3235,36.9582],[32.2531,36.9869],[32.1279,37.0762],[32.0832,37.1266],[32.0331,37.1686],[31.963,37.2076],[31.8987,37.2552],[31.8154,37.2985],[31.5587,37.3407],[31.459,37.3413],[31.4155,37.3549],[31.3764,37.3799],[31.3319,37.4222],[31.3585,37.4776],[31.3677,37.5376],[31.3538,37.5738],[31.3293,37.6039],[31.3292,37.6389],[31.3727,37.6492],[31.4051,37.6815],[31.4093,37.7291],[31.4507,37.7807],[31.4482,37.8592],[31.4252,37.9376],[31.4471,38.0028],[31.4795,38.0187],[31.5496,38.0397],[31.6136,38.072],[31.6207,38.1047],[31.5483,38.1548],[31.5253,38.1809],[31.4914,38.1926],[31.4219,38.2381],[31.3614,38.3],[31.2833,38.3501],[31.2544,38.423],[31.4308,38.5141],[31.5072,38.5771],[31.5948,38.6664],[31.5922,38.7288],[31.608,38.7821],[31.6383,38.8291],[31.7149,38.9277],[31.7236,38.9675],[31.6747,39.0005],[31.6978,39.0926],[31.6596,39.1003],[31.5819,39.1019],[31.4528,39.0912],[31.3783,39.1357],[31.3281,39.2239],[31.2577,39.2819],[31.2165,39.2725],[31.1462,39.23],[31.1072,39.2226],[31.035,39.1791],[30.9622,39.1546],[30.9186,39.1926],[30.8685,39.2109],[30.7698,39.1412],[30.668,39.093],[30.6212,39.0869],[30.5437,39.1241],[30.5049,39.1784],[30.4772,39.1996],[30.4418,39.2063],[30.4242,39.2695],[30.3238,39.372],[30.312,39.4495],[30.2845,39.5097],[30.174,39.5905],[30.1361,39.6388],[30.0241,39.6242],[29.9455,39.6076],[29.902,39.6166],[29.7911,39.6771],[29.7163,39.7093],[29.6658,39.7788],[29.6617,39.8211],[29.6777,39.9063],[29.6183,39.8924],[29.5544,39.8919],[29.4502,39.9235],[29.3995,39.8959],[29.3682,39.8133],[29.3478,39.7969],[29.3202,39.7172],[29.2742,39.6909],[29.2525,39.6458],[29.2461,39.5793],[29.1908,39.5521],[29.1193,39.5516],[29.0048,39.5661],[28.9672,39.5891],[28.9122,39.6199],[28.8198,39.6145],[28.7803,39.6188],[28.7556,39.6483],[28.7116,39.6631],[28.6864,39.6995],[28.6891,39.7473],[28.6738,39.7641],[28.6258,39.7376],[28.5459,39.7452],[28.2814,39.8958],[28.2637,39.927],[28.246,39.9964],[28.227,40.0217],[28.1731,40.0509],[28.1358,40.0963],[28.1128,40.1533],[28.1253,40.1912],[28.149,40.2258],[28.1294,40.2581],[28.1064,40.263],[28.0989,40.2972],[28.1558,40.3364],[28.2081,40.3993],[28.2159,40.3996],[28.2159,40.4444],[28.177,40.4434],[28.138,40.4425],[28.06,40.4405],[27.985,40.4386],[28.0168,40.4511],[28.0344,40.4744],[28.0142,40.4912],[27.9699,40.503],[27.8047,40.5228],[27.7894,40.5142],[27.76,40.5371],[27.7332,40.5306],[27.6843,40.5023],[27.7258,40.4614],[27.7502,40.4576],[27.7563,40.4328],[27.589,40.4286],[27.5522,40.4276],[27.5154,40.4267],[27.4417,40.4248],[27.324,40.4219],[27.3034,40.4584],[27.2715,40.4678],[27.2377,40.4557],[27.1451,40.4537],[27.1431,40.4539],[27.126,40.4533],[27.1207,40.4532],[27.1206,40.4531],[27.0964,40.4523],[27.0333,40.4068],[27.0127,40.3959],[26.9204,40.3977],[26.8972,40.4062],[26.863,40.3999],[26.7534,40.403],[26.69,40.38],[26.62,40.33],[26.52,40.27],[26.44,40.21],[26.3982,40.164],[26.4035,40.139],[26.3936,40.1094],[26.3923,40.108],[26.3694,40.1029],[26.365,40.0787],[26.3143,40.0244],[26.2262,40.0015],[26.1978,40.0089],[26.1815,39.9898],[26.1811,39.9897],[26.1809,39.9891],[26.1677,39.9736],[26.1526,39.9426],[26.1565,39.9013],[26.1512,39.8823],[26.1364,39.8376],[26.1502,39.8292],[26.151,39.8031],[26.1406,39.7427],[26.1538,39.7207],[26.1556,39.6638],[26.1534,39.6524],[26.1272,39.6103],[26.1107,39.5979],[26.095,39.5486],[26.07,39.4963]]],[[[34.888,41.2698],[34.9395,41.2003],[34.959,41.1248],[34.9748,41.0874],[35.0516,41.0942],[35.0893,41.0869],[35.4,41.0207],[35.4611,41.0294],[35.4941,41.015],[35.6388,40.931],[35.673,40.886],[35.7061,40.8788],[35.7823,40.8831],[35.8208,40.8772],[35.9532,40.8759],[36.0314,40.8474],[36.0735,40.8548],[36.1548,40.9014],[36.1855,40.9422],[36.2031,40.9878],[36.2429,41.007],[36.2792,40.9969],[36.3071,40.9738],[36.3355,40.9292],[36.4431,40.8704],[36.5526,40.8902],[36.6,40.9068],[36.6529,40.9056],[36.6872,40.8866],[36.7052,40.8625],[36.6875,40.836],[36.6989,40.8068],[36.7565,40.792],[36.8118,40.7661],[36.8954,40.7447],[36.9468,40.7203],[37.0134,40.6989],[37.0846,40.6943],[37.1525,40.7019],[37.2197,40.6977],[37.4488,40.5759],[37.5841,40.5694],[37.617,40.5212],[37.6349,40.4612],[37.6901,40.3794],[37.7669,40.3319],[37.8019,40.3357],[37.8614,40.3839],[37.8977,40.4041],[37.9802,40.4013],[38.0016,40.4116],[37.998,40.4688],[38.0084,40.481],[38.0952,40.4922],[38.1583,40.5235],[38.0633,40.6052],[38.0792,40.6511],[38.085,40.7523],[38.0797,40.786],[38.0627,40.8145],[38.0629,40.8463],[38.1011,40.8891],[38.1153,40.9194],[38.1142,40.9582],[38.1276,40.9556],[38.1276,41.0087],[38.0589,41.0272],[37.7843,41.1013],[37.7839,41.1226],[37.7346,41.1148],[37.6983,41.1246],[37.6898,41.1404],[37.6751,41.1308],[37.2741,41.239],[37.224,41.2525],[37.1989,41.2593],[37.1739,41.2661],[37.1489,41.2728],[37.1238,41.2796],[37.0736,41.2931],[36.9132,41.3364],[36.8731,41.3526],[36.071,41.676],[36.0449,41.7015],[36.0387,41.689],[36.033,41.6914],[35.9779,41.7297],[35.9627,41.7197],[35.9466,41.7262],[35.9568,41.7363],[35.9403,41.7287],[35.7284,41.8142],[35.6225,41.8569],[35.5961,41.8675],[35.5696,41.8782],[35.5696,41.7646],[35.5431,41.7646],[35.5431,41.7309],[35.5166,41.7309],[35.5166,41.639],[35.5001,41.6416],[35.4608,41.5742],[35.456,41.5236],[35.4723,41.4755],[35.4709,41.4171],[35.4895,41.3735],[35.5048,41.2845],[35.4851,41.2728],[35.4338,41.2833],[35.3831,41.2602],[35.3399,41.2545],[35.2963,41.2583],[35.2397,41.2892],[35.1944,41.2934],[35.1958,41.311],[35.1406,41.3415],[35.1328,41.3771],[35.1133,41.3998],[35.1024,41.3853],[35.0239,41.3588],[34.9913,41.3348],[34.9345,41.3179],[34.9418,41.2999],[34.888,41.2698]]]]}},
{"type":"Feature","properties":{"entityId":"anatolian-beyliks","from":1345,"to":1390,"certainty":"estimated","source":"유럽 쪽은 Natural Earth 1:10m admin-1(v5.1.2) 현대 행정구역 조각을 그 시기 국경에 맞춰 묶고, 조각이 역사 경계와 다른 곳은 선을 그어 나눈 근사. 유럽 밖(시베리아·중앙아시아·극동)은 대략적인 추정. 운영자 검수 필요"},"geometry":{"type":"MultiPolygon","coordinates":[[[[29.6777,39.9063],[29.6617,39.8211],[29.6658,39.7788],[29.7163,39.7093],[29.7911,39.6771],[29.902,39.6166],[29.9455,39.6076],[30.0241,39.6242],[30.1361,39.6388],[30.174,39.5905],[30.2845,39.5097],[30.312,39.4495],[30.3238,39.372],[30.4242,39.2695],[30.4418,39.2063],[30.4772,39.1996],[30.5049,39.1784],[30.5437,39.1241],[30.6212,39.0869],[30.668,39.093],[30.7698,39.1412],[30.8685,39.2109],[30.9186,39.1926],[30.9622,39.1546],[31.035,39.1791],[31.1072,39.2226],[31.1462,39.23],[31.2165,39.2725],[31.2577,39.2819],[31.3281,39.2239],[31.3783,39.1357],[31.4528,39.0912],[31.5819,39.1019],[31.6596,39.1003],[31.6978,39.0926],[31.6747,39.0005],[31.7236,38.9675],[31.7149,38.9277],[31.6383,38.8291],[31.608,38.7821],[31.5922,38.7288],[31.5948,38.6664],[31.5072,38.5771],[31.4308,38.5141],[31.2544,38.423],[31.2833,38.3501],[31.3614,38.3],[31.4219,38.2381],[31.4914,38.1926],[31.5253,38.1809],[31.5483,38.1548],[31.6207,38.1047],[31.6136,38.072],[31.5496,38.0397],[31.4795,38.0187],[31.4471,38.0028],[31.4252,37.9376],[31.4482,37.8592],[31.4507,37.7807],[31.4093,37.7291],[31.4051,37.6815],[31.3727,37.6492],[31.3292,37.6389],[31.3293,37.6039],[31.3538,37.5738],[31.3677,37.5376],[31.3585,37.4776],[31.3319,37.4222],[31.3764,37.3799],[31.4155,37.3549],[31.459,37.3413],[31.5587,37.3407],[31.8154,37.2985],[31.8987,37.2552],[31.963,37.2076],[32.0331,37.1686],[32.0832,37.1266],[32.1279,37.0762],[32.2531,36.9869],[32.3235,36.9582],[32.3272,36.9276],[32.3016,36.9116],[32.2903,36.8814],[32.3053,36.8542],[32.3487,36.8412],[32.4264,36.8321],[32.4475,36.8083],[32.4632,36.7416],[32.4562,36.6734],[32.4906,36.6016],[32.5316,36.5338],[32.5587,36.5062],[32.632,36.4703],[32.6517,36.438],[32.6426,36.3794],[32.6472,36.2693],[32.6313,36.2213],[32.602,36.1693],[32.5903,36.1199],[32.5718,36.094],[32.5826,36.0888],[32.5452,36.0981],[32.5134,36.103],[32.4373,36.1387],[32.4196,36.1595],[32.3655,36.178],[32.3187,36.2286],[32.283,36.2506],[32.2814,36.2591],[31.6999,36.6443],[30.6203,36.6781],[30.5724,36.5919],[30.5811,36.5752],[30.5698,36.528],[30.5487,36.5115],[30.5101,36.4583],[30.5088,36.4543],[30.5046,36.4478],[30.4927,36.3708],[30.5016,36.3636],[30.4942,36.3493],[30.5199,36.3419],[30.4838,36.3127],[30.4835,36.3107],[30.473,36.2985],[30.4668,36.2878],[30.488,36.2878],[30.4517,36.2618],[30.4408,36.2393],[30.3986,36.206],[30.4004,36.2481],[30.4,36.2488],[30.3863,36.243],[30.3861,36.2431],[30.3859,36.243],[30.3566,36.2576],[29.823,36.1649],[29.7953,36.1452],[29.7617,36.137],[29.7457,36.1515],[29.6987,36.1433],[29.6986,36.1434],[29.6983,36.1433],[29.6944,36.1455],[29.6724,36.1234],[29.6682,36.1438],[29.634,36.1571],[29.6342,36.1723],[29.5887,36.1861],[29.5835,36.1855],[29.585,36.1872],[29.5229,36.206],[29.5215,36.206],[29.4945,36.211],[29.4725,36.2213],[29.4262,36.2353],[29.4204,36.2306],[29.4187,36.2375],[29.3702,36.2522],[29.3571,36.2357],[29.3223,36.2469],[29.2612,36.2936],[29.2437,36.3138],[29.2231,36.3246],[29.2186,36.3288],[29.1447,36.3493],[29.1447,36.3772],[29.0964,36.3909],[29.1304,36.4114],[29.1242,36.4536],[29.106,36.4706],[28.8614,36.6057],[28.8587,36.6013],[28.8186,36.6117],[28.8293,36.6235],[28.7335,36.6764],[28.1584,36.6675],[28.1115,36.6042],[28.0881,36.5891],[28.0617,36.5963],[28.048,36.569],[28.0138,36.5759],[27.9909,36.5598],[27.9661,36.5759],[27.9592,36.6025],[28.0344,36.6025],[28.054,36.6096],[28.0881,36.6426],[28.0211,36.6336],[28.0211,36.6337],[28.0207,36.6336],[28.0144,36.6653],[27.6716,36.6599],[27.6712,36.6578],[27.6646,36.6598],[27.6431,36.6595],[27.6427,36.6595],[27.6374,36.6682],[27.603,36.6789],[27.5597,36.6746],[27.5556,36.6829],[27.5486,36.6834],[27.4863,36.6652],[27.4727,36.6509],[27.4557,36.6629],[27.3628,36.6851],[27.3558,36.7124],[27.4143,36.7093],[27.4273,36.7357],[27.4588,36.7557],[27.4832,36.754],[27.5614,36.7609],[27.5784,36.7671],[27.4296,37.0158],[27.4059,37.0167],[27.3436,37.0146],[27.3314,37.0023],[27.3327,36.9971],[27.3006,36.9731],[27.3081,36.9594],[27.2632,36.9634],[27.2527,36.9783],[27.2288,37.0618],[27.2391,37.083],[27.2696,37.0981],[27.2828,37.1103],[27.2604,37.1103],[27.2717,37.1289],[27.2998,37.1262],[27.3007,37.127],[27.3011,37.127],[27.3218,37.1254],[27.3218,37.1587],[27.349,37.1301],[27.3579,37.1358],[27.3239,37.1927],[27.302,37.2293],[27.2801,37.266],[27.2334,37.344],[27.2119,37.3573],[27.1908,37.3573],[27.2075,37.3764],[27.206,37.3898],[27.0507,37.6497],[27.0488,37.6501],[27.0115,37.6657],[27.0208,37.6742],[27.0048,37.6863],[27.0048,37.7066],[27.0306,37.7066],[27.0591,37.7067],[27.0591,37.6897],[27.0876,37.6892],[27.0876,37.7129],[27.0876,37.7157],[27.1161,37.7157],[27.1161,37.7428],[27.1445,37.7428],[27.1445,37.748],[27.1445,37.7727],[27.1445,37.7753],[27.173,37.7753],[27.173,37.8025],[27.1477,37.8025],[27.1477,37.8324],[27.1185,37.8324],[27.1185,37.8623],[27.1185,37.8922],[27.0892,37.8922],[27.0599,37.8922],[27.0306,37.8922],[27.0306,37.922],[27.0014,37.922],[26.9721,37.922],[26.9428,37.922],[26.916,37.922],[26.9135,37.922],[26.8861,37.922],[26.8843,37.922],[26.8562,37.922],[26.855,37.922],[26.8263,37.922],[26.7964,37.922],[26.7964,37.9377],[26.7665,37.9377],[26.7366,37.9377],[26.7067,37.9377],[26.6768,37.9377],[26.6768,37.9356],[26.6469,37.9583],[26.617,37.981],[26.5572,38.0264],[26.3179,38.2082],[26.3181,38.2085],[26.3179,38.2086],[26.3344,38.2351],[26.3286,38.2351],[26.2866,38.2611],[26.2346,38.2738],[26.2388,38.2958],[26.2654,38.2867],[26.2859,38.3187],[26.3076,38.3231],[26.2889,38.3406],[26.2941,38.3699],[26.3076,38.3579],[26.3211,38.3777],[26.3143,38.3367],[26.3219,38.3339],[26.3431,38.37],[26.3435,38.37],[26.4151,38.3682],[26.4294,38.4409],[26.4181,38.4649],[26.3879,38.4543],[26.4038,38.4875],[26.3758,38.5286],[26.3486,38.6213],[26.3563,38.6617],[26.4141,38.6794],[26.4656,38.6727],[26.5056,38.6527],[26.5558,38.6054],[26.561,38.5972],[26.8017,38.982],[26.8009,38.9874],[26.7208,39.0479],[26.7208,39.0777],[26.7208,39.1074],[26.6815,39.1074],[26.6815,39.1372],[26.7208,39.1372],[26.7208,39.1552],[26.7526,39.1552],[26.7844,39.1552],[26.7844,39.1674],[26.7787,39.17],[26.9936,39.2908],[27.05,39.3512],[27.1097,39.374],[27.291,39.4645],[27.3475,39.4558],[27.3907,39.4247],[27.4201,39.3803],[27.4966,39.4113],[27.5431,39.3948],[27.586,39.367],[27.6559,39.3517],[27.7264,39.3593],[27.7679,39.3566],[27.823,39.3396],[27.8712,39.3448],[27.8962,39.3134],[27.8659,39.2716],[27.8542,39.2364],[27.8933,39.2219],[27.968,39.2433],[28.0737,39.1527],[28.125,39.063],[28.171,39.0502],[28.2562,39.0711],[28.2936,39.0883],[28.3208,39.1163],[28.4047,39.1194],[28.4799,39.1306],[28.5721,39.1675],[28.6595,39.1566],[28.6578,39.204],[28.6667,39.238],[28.7787,39.2722],[28.8114,39.2906],[28.8497,39.3479],[28.896,39.3997],[28.9088,39.4707],[28.9408,39.5211],[28.947,39.5599],[28.9672,39.5891],[29.0048,39.5661],[29.1193,39.5516],[29.1908,39.5521],[29.2461,39.5793],[29.2525,39.6458],[29.2742,39.6909],[29.3202,39.7172],[29.3478,39.7969],[29.3682,39.8133],[29.3995,39.8959],[29.4502,39.9235],[29.5544,39.8919],[29.6183,39.8924],[29.6777,39.9063]]],[[[35.5696,41.8782],[35.5961,41.8675],[35.6225,41.8569],[35.7284,41.8142],[35.9403,41.7287],[35.9568,41.7363],[35.9466,41.7262],[35.9627,41.7197],[35.9779,41.7297],[36.033,41.6914],[36.0387,41.689],[36.0449,41.7015],[36.071,41.676],[36.8731,41.3526],[36.9132,41.3364],[37.0736,41.2931],[37.1238,41.2796],[37.1489,41.2728],[37.1739,41.2661],[37.1989,41.2593],[37.224,41.2525],[37.2741,41.239],[37.6751,41.1308],[37.6898,41.1404],[37.6983,41.1246],[37.7346,41.1148],[37.7839,41.1226],[37.7843,41.1013],[38.0589,41.0272],[38.1276,41.0087],[38.1276,40.9914],[38.1276,40.9789],[38.1276,40.9556],[38.1142,40.9582],[38.1153,40.9194],[38.1011,40.8891],[38.0629,40.8463],[38.0627,40.8145],[38.0797,40.786],[38.085,40.7523],[38.0792,40.6511],[38.0633,40.6052],[38.1583,40.5235],[38.0952,40.4922],[38.0084,40.481],[37.998,40.4688],[38.0016,40.4116],[37.9802,40.4013],[37.8977,40.4041],[37.8614,40.3839],[37.8019,40.3357],[37.7669,40.3319],[37.6901,40.3794],[37.6349,40.4612],[37.617,40.5212],[37.5841,40.5694],[37.4488,40.5759],[37.2197,40.6977],[37.1525,40.7019],[37.0846,40.6943],[37.0134,40.6989],[36.9468,40.7203],[36.8954,40.7447],[36.8118,40.7661],[36.7565,40.792],[36.6989,40.8068],[36.6875,40.836],[36.7052,40.8625],[36.6872,40.8866],[36.6529,40.9056],[36.6,40.9068],[36.5526,40.8902],[36.4431,40.8704],[36.3355,40.9292],[36.3071,40.9738],[36.2792,40.9969],[36.2429,41.007],[36.2031,40.9878],[36.1855,40.9422],[36.1548,40.9014],[36.0735,40.8548],[36.0314,40.8474],[35.9532,40.8759],[35.8208,40.8772],[35.7823,40.8831],[35.7061,40.8788],[35.673,40.886],[35.6388,40.931],[35.4941,41.015],[35.4611,41.0294],[35.4,41.0207],[35.0893,41.0869],[35.0516,41.0942],[34.9748,41.0874],[34.959,41.1248],[34.9395,41.2003],[34.888,41.2698],[34.9418,41.2999],[34.9345,41.3179],[34.9913,41.3348],[35.0239,41.3588],[35.1024,41.3853],[35.1133,41.3998],[35.1328,41.3771],[35.1406,41.3415],[35.1958,41.311],[35.1944,41.2934],[35.2397,41.2892],[35.2963,41.2583],[35.3399,41.2545],[35.3831,41.2602],[35.4338,41.2833],[35.4851,41.2728],[35.5048,41.2845],[35.4895,41.3735],[35.4709,41.4171],[35.4723,41.4755],[35.456,41.5236],[35.4608,41.5742],[35.5001,41.6416],[35.5166,41.639],[35.5166,41.664],[35.5166,41.6823],[35.5166,41.6972],[35.5166,41.7255],[35.5166,41.7309],[35.5431,41.7309],[35.5431,41.7646],[35.5696,41.7646],[35.5696,41.7984],[35.5696,41.8321],[35.5696,41.8782]]]]}},
{"type":"Feature","properties":{"entityId":"anatolian-beyliks","from":1390,"to":1398,"certainty":"estimated","source":"유럽 쪽은 Natural Earth 1:10m admin-1(v5.1.2) 현대 행정구역 조각을 그 시기 국경에 맞춰 묶고, 조각이 역사 경계와 다른 곳은 선을 그어 나눈 근사. 유럽 밖(시베리아·중앙아시아·극동)은 대략적인 추정. 운영자 검수 필요"},"geometry":{"type":"Polygon","coordinates":[[[35.5696,41.8782],[35.5961,41.8675],[35.6225,41.8569],[35.7284,41.8142],[35.9403,41.7287],[35.9568,41.7363],[35.9466,41.7262],[35.9627,41.7197],[35.9779,41.7297],[36.033,41.6914],[36.0387,41.689],[36.0449,41.7015],[36.071,41.676],[36.8731,41.3526],[36.9132,41.3364],[37.0736,41.2931],[37.1238,41.2796],[37.1489,41.2728],[37.1739,41.2661],[37.1989,41.2593],[37.224,41.2525],[37.2741,41.239],[37.6751,41.1308],[37.6898,41.1404],[37.6983,41.1246],[37.7346,41.1148],[37.7839,41.1226],[37.7843,41.1013],[38.0589,41.0272],[38.1276,41.0087],[38.1276,40.9914],[38.1276,40.9789],[38.1276,40.9556],[38.1142,40.9582],[38.1153,40.9194],[38.1011,40.8891],[38.0629,40.8463],[38.0627,40.8145],[38.0797,40.786],[38.085,40.7523],[38.0792,40.6511],[38.0633,40.6052],[38.1583,40.5235],[38.0952,40.4922],[38.0084,40.481],[37.998,40.4688],[38.0016,40.4116],[37.9802,40.4013],[37.8977,40.4041],[37.8614,40.3839],[37.8019,40.3357],[37.7669,40.3319],[37.6901,40.3794],[37.6349,40.4612],[37.617,40.5212],[37.5841,40.5694],[37.4488,40.5759],[37.2197,40.6977],[37.1525,40.7019],[37.0846,40.6943],[37.0134,40.6989],[36.9468,40.7203],[36.8954,40.7447],[36.8118,40.7661],[36.7565,40.792],[36.6989,40.8068],[36.6875,40.836],[36.7052,40.8625],[36.6872,40.8866],[36.6529,40.9056],[36.6,40.9068],[36.5526,40.8902],[36.4431,40.8704],[36.3355,40.9292],[36.3071,40.9738],[36.2792,40.9969],[36.2429,41.007],[36.2031,40.9878],[36.1855,40.9422],[36.1548,40.9014],[36.0735,40.8548],[36.0314,40.8474],[35.9532,40.8759],[35.8208,40.8772],[35.7823,40.8831],[35.7061,40.8788],[35.673,40.886],[35.6388,40.931],[35.4941,41.015],[35.4611,41.0294],[35.4,41.0207],[35.0893,41.0869],[35.0516,41.0942],[34.9748,41.0874],[34.959,41.1248],[34.9395,41.2003],[34.888,41.2698],[34.9418,41.2999],[34.9345,41.3179],[34.9913,41.3348],[35.0239,41.3588],[35.1024,41.3853],[35.1133,41.3998],[35.1328,41.3771],[35.1406,41.3415],[35.1958,41.311],[35.1944,41.2934],[35.2397,41.2892],[35.2963,41.2583],[35.3399,41.2545],[35.3831,41.2602],[35.4338,41.2833],[35.4851,41.2728],[35.5048,41.2845],[35.4895,41.3735],[35.4709,41.4171],[35.4723,41.4755],[35.456,41.5236],[35.4608,41.5742],[35.5001,41.6416],[35.5166,41.639],[35.5166,41.664],[35.5166,41.6823],[35.5166,41.6972],[35.5166,41.7255],[35.5166,41.7309],[35.5431,41.7309],[35.5431,41.7646],[35.5696,41.7646],[35.5696,41.7984],[35.5696,41.8321],[35.5696,41.8782]]]}},
{"type":"Feature","properties":{"entityId":"anatolian-beyliks","from":1402,"to":1410,"certainty":"estimated","source":"유럽 쪽은 Natural Earth 1:10m admin-1(v5.1.2) 현대 행정구역 조각을 그 시기 국경에 맞춰 묶고, 조각이 역사 경계와 다른 곳은 선을 그어 나눈 근사. 유럽 밖(시베리아·중앙아시아·극동)은 대략적인 추정. 운영자 검수 필요"},"geometry":{"type":"Polygon","coordinates":[[[29.6777,39.9063],[29.6617,39.8211],[29.6658,39.7788],[29.7163,39.7093],[29.7911,39.6771],[29.902,39.6166],[29.9455,39.6076],[30.0241,39.6242],[30.1361,39.6388],[30.174,39.5905],[30.2845,39.5097],[30.312,39.4495],[30.3238,39.372],[30.4242,39.2695],[30.4418,39.2063],[30.4772,39.1996],[30.5049,39.1784],[30.5437,39.1241],[30.6212,39.0869],[30.668,39.093],[30.7698,39.1412],[30.8685,39.2109],[30.9186,39.1926],[30.9622,39.1546],[31.035,39.1791],[31.1072,39.2226],[31.1462,39.23],[31.2165,39.2725],[31.2577,39.2819],[31.3281,39.2239],[31.3783,39.1357],[31.4528,39.0912],[31.5819,39.1019],[31.6596,39.1003],[31.6978,39.0926],[31.6747,39.0005],[31.7236,38.9675],[31.7149,38.9277],[31.6383,38.8291],[31.608,38.7821],[31.5922,38.7288],[31.5948,38.6664],[31.5072,38.5771],[31.4308,38.5141],[31.2544,38.423],[31.2833,38.3501],[31.3614,38.3],[31.4219,38.2381],[31.4914,38.1926],[31.5253,38.1809],[31.5483,38.1548],[31.6207,38.1047],[31.6136,38.072],[31.5496,38.0397],[31.4795,38.0187],[31.4471,38.0028],[31.4252,37.9376],[31.4482,37.8592],[31.4507,37.7807],[31.4093,37.7291],[31.4051,37.6815],[31.3727,37.6492],[31.3292,37.6389],[31.3293,37.6039],[31.3538,37.5738],[31.3677,37.5376],[31.3585,37.4776],[31.3319,37.4222],[31.3764,37.3799],[31.4155,37.3549],[31.459,37.3413],[31.5587,37.3407],[31.8154,37.2985],[31.8987,37.2552],[31.963,37.2076],[32.0331,37.1686],[32.0832,37.1266],[32.1279,37.0762],[32.2531,36.9869],[32.3235,36.9582],[32.3272,36.9276],[32.3016,36.9116],[32.2903,36.8814],[32.3053,36.8542],[32.3487,36.8412],[32.4264,36.8321],[32.4475,36.8083],[32.4632,36.7416],[32.4562,36.6734],[32.4906,36.6016],[32.5316,36.5338],[32.5587,36.5062],[32.632,36.4703],[32.6517,36.438],[32.6426,36.3794],[32.6472,36.2693],[32.6313,36.2213],[32.602,36.1693],[32.5903,36.1199],[32.5718,36.094],[32.5826,36.0888],[32.5452,36.0981],[32.5134,36.103],[32.4373,36.1387],[32.4196,36.1595],[32.3655,36.178],[32.3187,36.2286],[32.283,36.2506],[32.2814,36.2591],[31.6999,36.6443],[30.6203,36.6781],[30.5724,36.5919],[30.5811,36.5752],[30.5698,36.528],[30.5487,36.5115],[30.5101,36.4583],[30.5088,36.4543],[30.5046,36.4478],[30.4927,36.3708],[30.5016,36.3636],[30.4942,36.3493],[30.5199,36.3419],[30.4838,36.3127],[30.4835,36.3107],[30.473,36.2985],[30.4668,36.2878],[30.488,36.2878],[30.4517,36.2618],[30.4408,36.2393],[30.3986,36.206],[30.4004,36.2481],[30.4,36.2488],[30.3863,36.243],[30.3861,36.2431],[30.3859,36.243],[30.3566,36.2576],[29.823,36.1649],[29.7953,36.1452],[29.7617,36.137],[29.7457,36.1515],[29.6987,36.1433],[29.6986,36.1434],[29.6983,36.1433],[29.6944,36.1455],[29.6724,36.1234],[29.6682,36.1438],[29.634,36.1571],[29.6342,36.1723],[29.5887,36.1861],[29.5835,36.1855],[29.585,36.1872],[29.5229,36.206],[29.5215,36.206],[29.4945,36.211],[29.4725,36.2213],[29.4262,36.2353],[29.4204,36.2306],[29.4187,36.2375],[29.3702,36.2522],[29.3571,36.2357],[29.3223,36.2469],[29.2612,36.2936],[29.2437,36.3138],[29.2231,36.3246],[29.2186,36.3288],[29.1447,36.3493],[29.1447,36.3772],[29.0964,36.3909],[29.1304,36.4114],[29.1242,36.4536],[29.106,36.4706],[28.8614,36.6057],[28.8587,36.6013],[28.8186,36.6117],[28.8293,36.6235],[28.7335,36.6764],[28.1584,36.6675],[28.1115,36.6042],[28.0881,36.5891],[28.0617,36.5963],[28.048,36.569],[28.0138,36.5759],[27.9909,36.5598],[27.9661,36.5759],[27.9592,36.6025],[28.0344,36.6025],[28.054,36.6096],[28.0881,36.6426],[28.0211,36.6336],[28.0211,36.6337],[28.0207,36.6336],[28.0144,36.6653],[27.6716,36.6599],[27.6712,36.6578],[27.6646,36.6598],[27.6431,36.6595],[27.6427,36.6595],[27.6374,36.6682],[27.603,36.6789],[27.5597,36.6746],[27.5556,36.6829],[27.5486,36.6834],[27.4863,36.6652],[27.4727,36.6509],[27.4557,36.6629],[27.3628,36.6851],[27.3558,36.7124],[27.4143,36.7093],[27.4273,36.7357],[27.4588,36.7557],[27.4832,36.754],[27.5614,36.7609],[27.5784,36.7671],[27.4296,37.0158],[27.4059,37.0167],[27.3436,37.0146],[27.3314,37.0023],[27.3327,36.9971],[27.3006,36.9731],[27.3081,36.9594],[27.2632,36.9634],[27.2527,36.9783],[27.2288,37.0618],[27.2391,37.083],[27.2696,37.0981],[27.2828,37.1103],[27.2604,37.1103],[27.2717,37.1289],[27.2998,37.1262],[27.3007,37.127],[27.3011,37.127],[27.3218,37.1254],[27.3218,37.1587],[27.349,37.1301],[27.3579,37.1358],[27.3239,37.1927],[27.302,37.2293],[27.2801,37.266],[27.2334,37.344],[27.2119,37.3573],[27.1908,37.3573],[27.2075,37.3764],[27.206,37.3898],[27.0507,37.6497],[27.0488,37.6501],[27.0115,37.6657],[27.0208,37.6742],[27.0048,37.6863],[27.0048,37.7066],[27.0306,37.7066],[27.0591,37.7067],[27.0591,37.6897],[27.0876,37.6892],[27.0876,37.7129],[27.0876,37.7157],[27.1161,37.7157],[27.1161,37.7428],[27.1445,37.7428],[27.1445,37.748],[27.1445,37.7727],[27.1445,37.7753],[27.173,37.7753],[27.173,37.8025],[27.1477,37.8025],[27.1477,37.8324],[27.1185,37.8324],[27.1185,37.8623],[27.1185,37.8922],[27.0892,37.8922],[27.0599,37.8922],[27.0306,37.8922],[27.0306,37.922],[27.0014,37.922],[26.9721,37.922],[26.9428,37.922],[26.916,37.922],[26.9135,37.922],[26.8861,37.922],[26.8843,37.922],[26.8562,37.922],[26.855,37.922],[26.8263,37.922],[26.7964,37.922],[26.7964,37.9377],[26.7665,37.9377],[26.7366,37.9377],[26.7067,37.9377],[26.6768,37.9377],[26.6768,37.9356],[26.6469,37.9583],[26.617,37.981],[26.5572,38.0264],[26.3179,38.2082],[26.3181,38.2085],[26.3179,38.2086],[26.3344,38.2351],[26.3286,38.2351],[26.2866,38.2611],[26.2346,38.2738],[26.2388,38.2958],[26.2654,38.2867],[26.2859,38.3187],[26.3076,38.3231],[26.2889,38.3406],[26.2941,38.3699],[26.3076,38.3579],[26.3211,38.3777],[26.3143,38.3367],[26.3219,38.3339],[26.3431,38.37],[26.3435,38.37],[26.4151,38.3682],[26.4294,38.4409],[26.4181,38.4649],[26.3879,38.4543],[26.4038,38.4875],[26.3758,38.5286],[26.3486,38.6213],[26.3563,38.6617],[26.4141,38.6794],[26.4656,38.6727],[26.5056,38.6527],[26.5558,38.6054],[26.561,38.5972],[26.8017,38.982],[26.8009,38.9874],[26.7208,39.0479],[26.7208,39.0777],[26.7208,39.1074],[26.6815,39.1074],[26.6815,39.1372],[26.7208,39.1372],[26.7208,39.1552],[26.7526,39.1552],[26.7844,39.1552],[26.7844,39.1674],[26.7787,39.17],[26.9936,39.2908],[27.05,39.3512],[27.1097,39.374],[27.291,39.4645],[27.3475,39.4558],[27.3907,39.4247],[27.4201,39.3803],[27.4966,39.4113],[27.5431,39.3948],[27.586,39.367],[27.6559,39.3517],[27.7264,39.3593],[27.7679,39.3566],[27.823,39.3396],[27.8712,39.3448],[27.8962,39.3134],[27.8659,39.2716],[27.8542,39.2364],[27.8933,39.2219],[27.968,39.2433],[28.0737,39.1527],[28.125,39.063],[28.171,39.0502],[28.2562,39.0711],[28.2936,39.0883],[28.3208,39.1163],[28.4047,39.1194],[28.4799,39.1306],[28.5721,39.1675],[28.6595,39.1566],[28.6578,39.204],[28.6667,39.238],[28.7787,39.2722],[28.8114,39.2906],[28.8497,39.3479],[28.896,39.3997],[28.9088,39.4707],[28.9408,39.5211],[28.947,39.5599],[28.9672,39.5891],[29.0048,39.5661],[29.1193,39.5516],[29.1908,39.5521],[29.2461,39.5793],[29.2525,39.6458],[29.2742,39.6909],[29.3202,39.7172],[29.3478,39.7969],[29.3682,39.8133],[29.3995,39.8959],[29.4502,39.9235],[29.5544,39.8919],[29.6183,39.8924],[29.6777,39.9063]]]}},
{"type":"Feature","properties":{"entityId":"anatolian-beyliks","from":1410,"to":1423,"certainty":"estimated","source":"유럽 쪽은 Natural Earth 1:10m admin-1(v5.1.2) 현대 행정구역 조각을 그 시기 국경에 맞춰 묶고, 조각이 역사 경계와 다른 곳은 선을 그어 나눈 근사. 유럽 밖(시베리아·중앙아시아·극동)은 대략적인 추정. 운영자 검수 필요"},"geometry":{"type":"Polygon","coordinates":[[[29.6777,39.9063],[29.6617,39.8211],[29.6658,39.7788],[29.7163,39.7093],[29.7911,39.6771],[29.902,39.6166],[29.9455,39.6076],[30.0241,39.6242],[30.1361,39.6388],[30.174,39.5905],[30.2845,39.5097],[30.312,39.4495],[30.3238,39.372],[30.4242,39.2695],[30.4418,39.2063],[30.4772,39.1996],[30.5049,39.1784],[30.5437,39.1241],[30.6212,39.0869],[30.668,39.093],[30.7698,39.1412],[30.8685,39.2109],[30.9186,39.1926],[30.9622,39.1546],[31.035,39.1791],[31.1072,39.2226],[31.1462,39.23],[31.2165,39.2725],[31.2577,39.2819],[31.3281,39.2239],[31.3783,39.1357],[31.4528,39.0912],[31.5819,39.1019],[31.6596,39.1003],[31.6978,39.0926],[31.6747,39.0005],[31.7236,38.9675],[31.7149,38.9277],[31.6383,38.8291],[31.608,38.7821],[31.5922,38.7288],[31.5948,38.6664],[31.5072,38.5771],[31.4308,38.5141],[31.2544,38.423],[31.2833,38.3501],[31.3614,38.3],[31.4219,38.2381],[31.4914,38.1926],[31.5253,38.1809],[31.5483,38.1548],[31.6207,38.1047],[31.6136,38.072],[31.5496,38.0397],[31.4795,38.0187],[31.4471,38.0028],[31.4252,37.9376],[31.4482,37.8592],[31.4507,37.7807],[31.4093,37.7291],[31.4051,37.6815],[31.3727,37.6492],[31.3292,37.6389],[31.3293,37.6039],[31.3538,37.5738],[31.3677,37.5376],[31.3585,37.4776],[31.3319,37.4222],[31.3764,37.3799],[31.4155,37.3549],[31.459,37.3413],[31.5587,37.3407],[31.8154,37.2985],[31.8987,37.2552],[31.963,37.2076],[32.0331,37.1686],[32.0832,37.1266],[32.1279,37.0762],[32.2531,36.9869],[32.3235,36.9582],[32.3272,36.9276],[32.3016,36.9116],[32.2903,36.8814],[32.3053,36.8542],[32.3487,36.8412],[32.4264,36.8321],[32.4475,36.8083],[32.4632,36.7416],[32.4562,36.6734],[32.4906,36.6016],[32.5316,36.5338],[32.5587,36.5062],[32.632,36.4703],[32.6517,36.438],[32.6426,36.3794],[32.6472,36.2693],[32.6313,36.2213],[32.602,36.1693],[32.5903,36.1199],[32.5718,36.094],[32.5826,36.0888],[32.5452,36.0981],[32.5134,36.103],[32.4373,36.1387],[32.4196,36.1595],[32.3655,36.178],[32.3187,36.2286],[32.283,36.2506],[32.2814,36.2591],[31.6999,36.6443],[30.6203,36.6781],[30.5724,36.5919],[30.5811,36.5752],[30.5698,36.528],[30.5487,36.5115],[30.5101,36.4583],[30.5088,36.4543],[30.5046,36.4478],[30.4927,36.3708],[30.5016,36.3636],[30.4942,36.3493],[30.5199,36.3419],[30.4838,36.3127],[30.4835,36.3107],[30.473,36.2985],[30.4668,36.2878],[30.488,36.2878],[30.4517,36.2618],[30.4408,36.2393],[30.3986,36.206],[30.4004,36.2481],[30.4,36.2488],[30.3863,36.243],[30.3861,36.2431],[30.3859,36.243],[30.3566,36.2576],[29.823,36.1649],[29.7953,36.1452],[29.7617,36.137],[29.7457,36.1515],[29.6987,36.1433],[29.6986,36.1434],[29.6983,36.1433],[29.6944,36.1455],[29.6724,36.1234],[29.6682,36.1438],[29.634,36.1571],[29.6342,36.1723],[29.5887,36.1861],[29.5835,36.1855],[29.585,36.1872],[29.5229,36.206],[29.5215,36.206],[29.4945,36.211],[29.4725,36.2213],[29.4262,36.2353],[29.4204,36.2306],[29.4187,36.2375],[29.3702,36.2522],[29.3571,36.2357],[29.3223,36.2469],[29.2612,36.2936],[29.2437,36.3138],[29.2231,36.3246],[29.2186,36.3288],[29.1447,36.3493],[29.1447,36.3772],[29.0964,36.3909],[29.1304,36.4114],[29.1242,36.4536],[29.106,36.4706],[28.8614,36.6057],[28.8587,36.6013],[28.8186,36.6117],[28.8293,36.6235],[28.7335,36.6764],[28.1584,36.6675],[28.1115,36.6042],[28.0881,36.5891],[28.0617,36.5963],[28.048,36.569],[28.0138,36.5759],[27.9909,36.5598],[27.9661,36.5759],[27.9592,36.6025],[28.0344,36.6025],[28.054,36.6096],[28.0881,36.6426],[28.0211,36.6336],[28.0211,36.6337],[28.0207,36.6336],[28.0144,36.6653],[27.6716,36.6599],[27.6712,36.6578],[27.6646,36.6598],[27.6431,36.6595],[27.6427,36.6595],[27.6374,36.6682],[27.603,36.6789],[27.5597,36.6746],[27.5556,36.6829],[27.5486,36.6834],[27.4863,36.6652],[27.4727,36.6509],[27.4557,36.6629],[27.3628,36.6851],[27.3558,36.7124],[27.4143,36.7093],[27.4273,36.7357],[27.4588,36.7557],[27.4832,36.754],[27.5614,36.7609],[27.5784,36.7671],[27.4296,37.0158],[27.4059,37.0167],[27.3436,37.0146],[27.3314,37.0023],[27.3327,36.9971],[27.3006,36.9731],[27.3081,36.9594],[27.2632,36.9634],[27.2527,36.9783],[27.2288,37.0618],[27.2391,37.083],[27.2696,37.0981],[27.2828,37.1103],[27.2604,37.1103],[27.2717,37.1289],[27.2998,37.1262],[27.3007,37.127],[27.3011,37.127],[27.3218,37.1254],[27.3218,37.1587],[27.349,37.1301],[27.3579,37.1358],[27.3239,37.1927],[27.302,37.2293],[27.2801,37.266],[27.2334,37.344],[27.2119,37.3573],[27.1908,37.3573],[27.2075,37.3764],[27.206,37.3898],[27.0507,37.6497],[27.0488,37.6501],[27.0115,37.6657],[27.0208,37.6742],[27.0048,37.6863],[27.0048,37.7066],[27.0306,37.7066],[27.0591,37.7067],[27.0591,37.6897],[27.0876,37.6892],[27.0876,37.7129],[27.0876,37.7157],[27.1161,37.7157],[27.1161,37.7428],[27.1445,37.7428],[27.1445,37.748],[27.1445,37.7727],[27.1445,37.7753],[27.173,37.7753],[27.173,37.8025],[27.1477,37.8025],[27.1477,37.8324],[27.1185,37.8324],[27.1185,37.8623],[27.1185,37.8922],[27.0892,37.8922],[27.0599,37.8922],[27.0306,37.8922],[27.0306,37.922],[27.0014,37.922],[26.9721,37.922],[26.9428,37.922],[26.916,37.922],[26.9135,37.922],[26.8861,37.922],[26.8843,37.922],[26.8562,37.922],[26.855,37.922],[26.8263,37.922],[26.7964,37.922],[26.7964,37.9377],[26.7665,37.9377],[26.7366,37.9377],[26.7067,37.9377],[26.6768,37.9377],[26.6768,37.9356],[26.6469,37.9583],[26.617,37.981],[26.5572,38.0264],[26.3179,38.2082],[26.3181,38.2085],[26.3179,38.2086],[26.3344,38.2351],[26.3286,38.2351],[26.2866,38.2611],[26.2346,38.2738],[26.2388,38.2958],[26.2654,38.2867],[26.2859,38.3187],[26.3076,38.3231],[26.2889,38.3406],[26.2941,38.3699],[26.3076,38.3579],[26.3211,38.3777],[26.3143,38.3367],[26.3219,38.3339],[26.3431,38.37],[26.3435,38.37],[26.4151,38.3682],[26.4294,38.4409],[26.4181,38.4649],[26.3879,38.4543],[26.4038,38.4875],[26.3758,38.5286],[26.3486,38.6213],[26.3563,38.6617],[26.4141,38.6794],[26.4656,38.6727],[26.5056,38.6527],[26.5558,38.6054],[26.561,38.5972],[26.8017,38.982],[26.8009,38.9874],[26.7208,39.0479],[26.7208,39.0777],[26.7208,39.1074],[26.6815,39.1074],[26.6815,39.1372],[26.7208,39.1372],[26.7208,39.1552],[26.7526,39.1552],[26.7844,39.1552],[26.7844,39.1674],[26.7787,39.17],[26.9936,39.2908],[27.05,39.3512],[27.1097,39.374],[27.291,39.4645],[27.3475,39.4558],[27.3907,39.4247],[27.4201,39.3803],[27.4588,39.3037],[27.4918,39.1836],[27.5081,39.1478],[27.5453,39.0939],[27.5377,39.0413],[27.5101,39.0168],[27.4452,38.9744],[27.3821,38.9545],[27.3271,38.9249],[27.3094,38.8497],[27.291,38.8166],[27.2608,38.792],[27.2332,38.7558],[27.2284,38.7348],[27.2947,38.6846],[27.3213,38.6157],[27.3803,38.5759],[27.4506,38.5705],[27.5833,38.5699],[27.6135,38.5468],[27.6303,38.4915],[27.6999,38.453],[27.7778,38.4247],[27.8061,38.3634],[27.8483,38.3329],[27.8989,38.3421],[27.9389,38.4068],[27.9864,38.4051],[28.0344,38.3883],[28.0954,38.3946],[28.1357,38.3592],[28.1629,38.3088],[28.3251,38.3274],[28.345,38.3088],[28.4478,38.2899],[28.4758,38.2621],[28.5174,38.1593],[28.5623,38.1062],[28.698,38.1038],[28.743,38.1043],[28.7844,38.1199],[28.7984,38.1436],[28.7936,38.1705],[28.8381,38.2388],[28.931,38.2551],[28.8938,38.2874],[28.8638,38.288],[28.8385,38.3034],[28.8949,38.3632],[28.9082,38.3932],[28.9155,38.4407],[28.9029,38.5354],[28.8804,38.5571],[28.8519,38.5647],[28.8484,38.6001],[28.8767,38.6084],[28.9179,38.6537],[28.9955,38.701],[29.0323,38.7301],[29.0363,38.7933],[29.0153,38.84],[28.982,38.8867],[28.9909,38.948],[28.9743,38.9816],[28.9099,39.0596],[28.881,39.0753],[28.7304,39.1008],[28.6595,39.1566],[28.6578,39.204],[28.6667,39.238],[28.7787,39.2722],[28.8114,39.2906],[28.8497,39.3479],[28.896,39.3997],[28.9088,39.4707],[28.9408,39.5211],[28.947,39.5599],[28.9672,39.5891],[29.0048,39.5661],[29.1193,39.5516],[29.1908,39.5521],[29.2461,39.5793],[29.2525,39.6458],[29.2742,39.6909],[29.3202,39.7172],[29.3478,39.7969],[29.3682,39.8133],[29.3995,39.8959],[29.4502,39.9235],[29.5544,39.8919],[29.6183,39.8924],[29.6777,39.9063]]]}},
{"type":"Feature","properties":{"entityId":"anatolian-beyliks","from":1423,"to":1424,"certainty":"estimated","source":"유럽 쪽은 Natural Earth 1:10m admin-1(v5.1.2) 현대 행정구역 조각을 그 시기 국경에 맞춰 묶고, 조각이 역사 경계와 다른 곳은 선을 그어 나눈 근사. 유럽 밖(시베리아·중앙아시아·극동)은 대략적인 추정. 운영자 검수 필요"},"geometry":{"type":"Polygon","coordinates":[[[29.6777,39.9063],[29.6617,39.8211],[29.6658,39.7788],[29.7163,39.7093],[29.7911,39.6771],[29.902,39.6166],[29.9455,39.6076],[30.0241,39.6242],[30.1361,39.6388],[30.174,39.5905],[30.2845,39.5097],[30.312,39.4495],[30.3238,39.372],[30.4242,39.2695],[30.4418,39.2063],[30.4772,39.1996],[30.5049,39.1784],[30.5437,39.1241],[30.6212,39.0869],[30.668,39.093],[30.7698,39.1412],[30.8685,39.2109],[30.9186,39.1926],[30.9622,39.1546],[31.035,39.1791],[31.1072,39.2226],[31.1462,39.23],[31.2165,39.2725],[31.2577,39.2819],[31.3281,39.2239],[31.3783,39.1357],[31.4528,39.0912],[31.5819,39.1019],[31.6596,39.1003],[31.6978,39.0926],[31.6747,39.0005],[31.7236,38.9675],[31.7149,38.9277],[31.6383,38.8291],[31.608,38.7821],[31.5922,38.7288],[31.5948,38.6664],[31.5072,38.5771],[31.4308,38.5141],[31.2544,38.423],[31.207,38.4396],[31.1622,38.4908],[31.1238,38.5124],[31.0996,38.5152],[31.0304,38.4598],[30.9056,38.3805],[30.8447,38.3249],[30.7811,38.2777],[30.7051,38.2545],[30.6623,38.25],[30.6055,38.2137],[30.5302,38.193],[30.4812,38.1495],[30.429,38.1122],[30.3903,38.0946],[30.3,38.0244],[30.2322,37.9932],[30.2111,37.9619],[30.1977,37.8584],[30.1653,37.8104],[30.0934,37.7792],[30.0153,37.7765],[29.9264,37.7819],[29.8455,37.7593],[29.7737,37.7124],[29.6889,37.6744],[29.666,37.6303],[29.5381,37.5763],[29.5475,37.5226],[29.5458,37.4827],[29.5575,37.445],[29.5842,37.433],[29.5845,37.41],[29.5402,37.3397],[29.442,37.2225],[29.4147,37.1747],[29.3989,37.1224],[29.3904,37.0686],[29.4134,37.0176],[29.3967,36.9597],[29.435,36.9474],[29.4834,36.9959],[29.604,37.0086],[29.6889,36.9143],[29.5802,36.7161],[29.5938,36.6543],[29.5755,36.599],[29.4811,36.5371],[29.4773,36.4824],[29.4549,36.4733],[29.4244,36.4835],[29.362,36.4631],[29.3133,36.3763],[29.3071,36.325],[29.2612,36.2936],[29.2437,36.3138],[29.2231,36.3246],[29.2186,36.3288],[29.1447,36.3493],[29.1447,36.3772],[29.0964,36.3909],[29.1304,36.4114],[29.1242,36.4536],[29.106,36.4706],[28.8614,36.6057],[28.8587,36.6013],[28.8186,36.6117],[28.8293,36.6235],[28.7335,36.6764],[28.1584,36.6675],[28.1115,36.6042],[28.0881,36.5891],[28.0617,36.5963],[28.048,36.569],[28.0138,36.5759],[27.9909,36.5598],[27.9661,36.5759],[27.9592,36.6025],[28.0344,36.6025],[28.054,36.6096],[28.0881,36.6426],[28.0211,36.6336],[28.0211,36.6337],[28.0207,36.6336],[28.0144,36.6653],[27.6716,36.6599],[27.6712,36.6578],[27.6646,36.6598],[27.6431,36.6595],[27.6427,36.6595],[27.6374,36.6682],[27.603,36.6789],[27.5597,36.6746],[27.5556,36.6829],[27.5486,36.6834],[27.4863,36.6652],[27.4727,36.6509],[27.4557,36.6629],[27.3628,36.6851],[27.3558,36.7124],[27.4143,36.7093],[27.4273,36.7357],[27.4588,36.7557],[27.4832,36.754],[27.5614,36.7609],[27.5784,36.7671],[27.4296,37.0158],[27.4059,37.0167],[27.3436,37.0146],[27.3314,37.0023],[27.3327,36.9971],[27.3006,36.9731],[27.3081,36.9594],[27.2632,36.9634],[27.2527,36.9783],[27.2288,37.0618],[27.2391,37.083],[27.2696,37.0981],[27.2828,37.1103],[27.2604,37.1103],[27.2717,37.1289],[27.2998,37.1262],[27.3007,37.127],[27.3011,37.127],[27.3218,37.1254],[27.3218,37.1587],[27.349,37.1301],[27.3579,37.1358],[27.3239,37.1927],[27.302,37.2293],[27.2801,37.266],[27.2334,37.344],[27.2119,37.3573],[27.1908,37.3573],[27.2075,37.3764],[27.206,37.3898],[27.0507,37.6497],[27.0488,37.6501],[27.0115,37.6657],[27.0208,37.6742],[27.0048,37.6863],[27.0048,37.7066],[27.0306,37.7066],[27.0591,37.7067],[27.0591,37.6897],[27.0876,37.6892],[27.0876,37.7129],[27.0876,37.7157],[27.1161,37.7157],[27.1161,37.7428],[27.1445,37.7428],[27.1445,37.748],[27.1445,37.7727],[27.1445,37.7753],[27.173,37.7753],[27.173,37.8025],[27.1477,37.8025],[27.1477,37.8324],[27.1185,37.8324],[27.1185,37.8623],[27.1185,37.8922],[27.0892,37.8922],[27.0599,37.8922],[27.0306,37.8922],[27.0306,37.922],[27.0014,37.922],[26.9721,37.922],[26.9428,37.922],[26.916,37.922],[26.9135,37.922],[26.8861,37.922],[26.8843,37.922],[26.8562,37.922],[26.855,37.922],[26.8263,37.922],[26.7964,37.922],[26.7964,37.9377],[26.7665,37.9377],[26.7366,37.9377],[26.7067,37.9377],[26.6768,37.9377],[26.6768,37.9356],[26.6469,37.9583],[26.617,37.981],[26.5572,38.0264],[26.3179,38.2082],[26.3181,38.2085],[26.3179,38.2086],[26.3344,38.2351],[26.3286,38.2351],[26.2866,38.2611],[26.2346,38.2738],[26.2388,38.2958],[26.2654,38.2867],[26.2859,38.3187],[26.3076,38.3231],[26.2889,38.3406],[26.2941,38.3699],[26.3076,38.3579],[26.3211,38.3777],[26.3143,38.3367],[26.3219,38.3339],[26.3431,38.37],[26.3435,38.37],[26.4151,38.3682],[26.4294,38.4409],[26.4181,38.4649],[26.3879,38.4543],[26.4038,38.4875],[26.3758,38.5286],[26.3486,38.6213],[26.3563,38.6617],[26.4141,38.6794],[26.4656,38.6727],[26.5056,38.6527],[26.5558,38.6054],[26.561,38.5972],[26.8017,38.982],[26.8009,38.9874],[26.7208,39.0479],[26.7208,39.0777],[26.7208,39.1074],[26.6815,39.1074],[26.6815,39.1372],[26.7208,39.1372],[26.7208,39.1552],[26.7526,39.1552],[26.7844,39.1552],[26.7844,39.1674],[26.7787,39.17],[26.9936,39.2908],[27.05,39.3512],[27.1097,39.374],[27.291,39.4645],[27.3475,39.4558],[27.3907,39.4247],[27.4201,39.3803],[27.4588,39.3037],[27.4918,39.1836],[27.5081,39.1478],[27.5453,39.0939],[27.5377,39.0413],[27.5101,39.0168],[27.4452,38.9744],[27.3821,38.9545],[27.3271,38.9249],[27.3094,38.8497],[27.291,38.8166],[27.2608,38.792],[27.2332,38.7558],[27.2284,38.7348],[27.2947,38.6846],[27.3213,38.6157],[27.3803,38.5759],[27.4506,38.5705],[27.5833,38.5699],[27.6135,38.5468],[27.6303,38.4915],[27.6999,38.453],[27.7778,38.4247],[27.8061,38.3634],[27.8483,38.3329],[27.8989,38.3421],[27.9389,38.4068],[27.9864,38.4051],[28.0344,38.3883],[28.0954,38.3946],[28.1357,38.3592],[28.1629,38.3088],[28.3251,38.3274],[28.345,38.3088],[28.4478,38.2899],[28.4758,38.2621],[28.5174,38.1593],[28.5623,38.1062],[28.698,38.1038],[28.743,38.1043],[28.7844,38.1199],[28.7984,38.1436],[28.7936,38.1705],[28.8381,38.2388],[28.931,38.2551],[28.8938,38.2874],[28.8638,38.288],[28.8385,38.3034],[28.8949,38.3632],[28.9082,38.3932],[28.9155,38.4407],[28.9029,38.5354],[28.8804,38.5571],[28.8519,38.5647],[28.8484,38.6001],[28.8767,38.6084],[28.9179,38.6537],[28.9955,38.701],[29.0323,38.7301],[29.0363,38.7933],[29.0153,38.84],[28.982,38.8867],[28.9909,38.948],[28.9743,38.9816],[28.9099,39.0596],[28.881,39.0753],[28.7304,39.1008],[28.6595,39.1566],[28.6578,39.204],[28.6667,39.238],[28.7787,39.2722],[28.8114,39.2906],[28.8497,39.3479],[28.896,39.3997],[28.9088,39.4707],[28.9408,39.5211],[28.947,39.5599],[28.9672,39.5891],[29.0048,39.5661],[29.1193,39.5516],[29.1908,39.5521],[29.2461,39.5793],[29.2525,39.6458],[29.2742,39.6909],[29.3202,39.7172],[29.3478,39.7969],[29.3682,39.8133],[29.3995,39.8959],[29.4502,39.9235],[29.5544,39.8919],[29.6183,39.8924],[29.6777,39.9063]]]}},
{"type":"Feature","properties":{"entityId":"anatolian-beyliks","from":1424,"to":1425,"certainty":"estimated","source":"유럽 쪽은 Natural Earth 1:10m admin-1(v5.1.2) 현대 행정구역 조각을 그 시기 국경에 맞춰 묶고, 조각이 역사 경계와 다른 곳은 선을 그어 나눈 근사. 유럽 밖(시베리아·중앙아시아·극동)은 대략적인 추정. 운영자 검수 필요"},"geometry":{"type":"Polygon","coordinates":[[[29.6777,39.9063],[29.6617,39.8211],[29.6658,39.7788],[29.7163,39.7093],[29.7911,39.6771],[29.902,39.6166],[29.9455,39.6076],[30.0241,39.6242],[30.1361,39.6388],[30.174,39.5905],[30.2845,39.5097],[30.312,39.4495],[30.3238,39.372],[30.4242,39.2695],[30.4418,39.2063],[30.4772,39.1996],[30.5049,39.1784],[30.5437,39.1241],[30.6212,39.0869],[30.668,39.093],[30.7698,39.1412],[30.8685,39.2109],[30.9186,39.1926],[30.9622,39.1546],[31.035,39.1791],[31.1072,39.2226],[31.1462,39.23],[31.2165,39.2725],[31.2577,39.2819],[31.3281,39.2239],[31.3783,39.1357],[31.4528,39.0912],[31.5819,39.1019],[31.6596,39.1003],[31.6978,39.0926],[31.6747,39.0005],[31.7236,38.9675],[31.7149,38.9277],[31.6383,38.8291],[31.608,38.7821],[31.5922,38.7288],[31.5948,38.6664],[31.5072,38.5771],[31.4308,38.5141],[31.2544,38.423],[31.207,38.4396],[31.1622,38.4908],[31.1238,38.5124],[31.0996,38.5152],[31.0304,38.4598],[30.9056,38.3805],[30.8447,38.3249],[30.7811,38.2777],[30.7051,38.2545],[30.6623,38.25],[30.6055,38.2137],[30.5302,38.193],[30.4812,38.1495],[30.429,38.1122],[30.3903,38.0946],[30.3,38.0244],[30.2322,37.9932],[30.2111,37.9619],[30.1977,37.8584],[30.1653,37.8104],[30.0934,37.7792],[30.0153,37.7765],[29.9264,37.7819],[29.8455,37.7593],[29.7737,37.7124],[29.6889,37.6744],[29.666,37.6303],[29.5381,37.5763],[29.5475,37.5226],[29.5458,37.4827],[29.5575,37.445],[29.5842,37.433],[29.5845,37.41],[29.5402,37.3397],[29.442,37.2225],[29.4147,37.1747],[29.3989,37.1224],[29.3904,37.0686],[29.3426,37.038],[29.3357,36.973],[29.3044,36.9258],[29.2704,36.9116],[29.1699,36.9549],[29.1151,36.9581],[29.0902,36.9779],[29.0754,37.0655],[29.0618,37.1029],[29.0019,37.1497],[28.9283,37.1766],[28.8861,37.2249],[28.8115,37.2335],[28.7779,37.2721],[28.765,37.3185],[28.7353,37.3599],[28.688,37.3747],[28.6273,37.3825],[28.6174,37.4112],[28.6208,37.4605],[28.6089,37.4775],[28.4782,37.4917],[28.4048,37.523],[28.3426,37.5654],[28.2699,37.5774],[28.2161,37.5473],[28.1807,37.4924],[28.1414,37.4668],[28.0198,37.4598],[27.9497,37.4624],[27.9073,37.4799],[27.8613,37.4798],[27.8161,37.4708],[27.7704,37.4766],[27.7,37.5149],[27.6196,37.5244],[27.5458,37.5545],[27.5125,37.5531],[27.4811,37.5392],[27.4035,37.4126],[27.3769,37.4066],[27.3769,37.376],[27.3769,37.3729],[27.3769,37.3393],[27.3291,37.3393],[27.3291,37.3088],[27.3291,37.3027],[27.3291,37.266],[27.3162,37.266],[27.2813,37.266],[27.2801,37.266],[27.2334,37.344],[27.2119,37.3573],[27.1908,37.3573],[27.2075,37.3764],[27.206,37.3898],[27.0507,37.6497],[27.0488,37.6501],[27.0115,37.6657],[27.0208,37.6742],[27.0048,37.6863],[27.0048,37.7066],[27.0306,37.7066],[27.0591,37.7067],[27.0591,37.6897],[27.0876,37.6892],[27.0876,37.7129],[27.0876,37.7157],[27.1161,37.7157],[27.1161,37.7428],[27.1445,37.7428],[27.1445,37.748],[27.1445,37.7727],[27.1445,37.7753],[27.173,37.7753],[27.173,37.8025],[27.1477,37.8025],[27.1477,37.8324],[27.1185,37.8324],[27.1185,37.8623],[27.1185,37.8922],[27.0892,37.8922],[27.0599,37.8922],[27.0306,37.8922],[27.0306,37.922],[27.0014,37.922],[26.9721,37.922],[26.9428,37.922],[26.916,37.922],[26.9135,37.922],[26.8861,37.922],[26.8843,37.922],[26.8562,37.922],[26.855,37.922],[26.8263,37.922],[26.7964,37.922],[26.7964,37.9377],[26.7665,37.9377],[26.7366,37.9377],[26.7067,37.9377],[26.6768,37.9377],[26.6768,37.9356],[26.6469,37.9583],[26.617,37.981],[26.5572,38.0264],[26.3179,38.2082],[26.3181,38.2085],[26.3179,38.2086],[26.3344,38.2351],[26.3286,38.2351],[26.2866,38.2611],[26.2346,38.2738],[26.2388,38.2958],[26.2654,38.2867],[26.2859,38.3187],[26.3076,38.3231],[26.2889,38.3406],[26.2941,38.3699],[26.3076,38.3579],[26.3211,38.3777],[26.3143,38.3367],[26.3219,38.3339],[26.3431,38.37],[26.3435,38.37],[26.4151,38.3682],[26.4294,38.4409],[26.4181,38.4649],[26.3879,38.4543],[26.4038,38.4875],[26.3758,38.5286],[26.3486,38.6213],[26.3563,38.6617],[26.4141,38.6794],[26.4656,38.6727],[26.5056,38.6527],[26.5558,38.6054],[26.561,38.5972],[26.8017,38.982],[26.8009,38.9874],[26.7208,39.0479],[26.7208,39.0777],[26.7208,39.1074],[26.6815,39.1074],[26.6815,39.1372],[26.7208,39.1372],[26.7208,39.1552],[26.7526,39.1552],[26.7844,39.1552],[26.7844,39.1674],[26.7787,39.17],[26.9936,39.2908],[27.05,39.3512],[27.1097,39.374],[27.291,39.4645],[27.3475,39.4558],[27.3907,39.4247],[27.4201,39.3803],[27.4588,39.3037],[27.4918,39.1836],[27.5081,39.1478],[27.5453,39.0939],[27.5377,39.0413],[27.5101,39.0168],[27.4452,38.9744],[27.3821,38.9545],[27.3271,38.9249],[27.3094,38.8497],[27.291,38.8166],[27.2608,38.792],[27.2332,38.7558],[27.2284,38.7348],[27.2947,38.6846],[27.3213,38.6157],[27.3803,38.5759],[27.4506,38.5705],[27.5833,38.5699],[27.6135,38.5468],[27.6303,38.4915],[27.6999,38.453],[27.7778,38.4247],[27.8061,38.3634],[27.8483,38.3329],[27.8989,38.3421],[27.9389,38.4068],[27.9864,38.4051],[28.0344,38.3883],[28.0954,38.3946],[28.1357,38.3592],[28.1629,38.3088],[28.3251,38.3274],[28.345,38.3088],[28.4478,38.2899],[28.4758,38.2621],[28.5174,38.1593],[28.5623,38.1062],[28.698,38.1038],[28.743,38.1043],[28.7844,38.1199],[28.7984,38.1436],[28.7936,38.1705],[28.8381,38.2388],[28.931,38.2551],[28.8938,38.2874],[28.8638,38.288],[28.8385,38.3034],[28.8949,38.3632],[28.9082,38.3932],[28.9155,38.4407],[28.9029,38.5354],[28.8804,38.5571],[28.8519,38.5647],[28.8484,38.6001],[28.8767,38.6084],[28.9179,38.6537],[28.9955,38.701],[29.0323,38.7301],[29.0363,38.7933],[29.0153,38.84],[28.982,38.8867],[28.9909,38.948],[28.9743,38.9816],[28.9099,39.0596],[28.881,39.0753],[28.7304,39.1008],[28.6595,39.1566],[28.6578,39.204],[28.6667,39.238],[28.7787,39.2722],[28.8114,39.2906],[28.8497,39.3479],[28.896,39.3997],[28.9088,39.4707],[28.9408,39.5211],[28.947,39.5599],[28.9672,39.5891],[29.0048,39.5661],[29.1193,39.5516],[29.1908,39.5521],[29.2461,39.5793],[29.2525,39.6458],[29.2742,39.6909],[29.3202,39.7172],[29.3478,39.7969],[29.3682,39.8133],[29.3995,39.8959],[29.4502,39.9235],[29.5544,39.8919],[29.6183,39.8924],[29.6777,39.9063]]]}},
{"type":"Feature","properties":{"entityId":"anatolian-beyliks","from":1425,"to":1429,"certainty":"estimated","source":"유럽 쪽은 Natural Earth 1:10m admin-1(v5.1.2) 현대 행정구역 조각을 그 시기 국경에 맞춰 묶고, 조각이 역사 경계와 다른 곳은 선을 그어 나눈 근사. 유럽 밖(시베리아·중앙아시아·극동)은 대략적인 추정. 운영자 검수 필요"},"geometry":{"type":"Polygon","coordinates":[[[29.6777,39.9063],[29.6617,39.8211],[29.6658,39.7788],[29.7163,39.7093],[29.7911,39.6771],[29.902,39.6166],[29.9455,39.6076],[30.0241,39.6242],[30.1361,39.6388],[30.174,39.5905],[30.2845,39.5097],[30.312,39.4495],[30.3238,39.372],[30.4242,39.2695],[30.4418,39.2063],[30.4772,39.1996],[30.5049,39.1784],[30.5437,39.1241],[30.6212,39.0869],[30.668,39.093],[30.7698,39.1412],[30.8685,39.2109],[30.9186,39.1926],[30.9622,39.1546],[31.035,39.1791],[31.1072,39.2226],[31.1462,39.23],[31.2165,39.2725],[31.2577,39.2819],[31.3281,39.2239],[31.3783,39.1357],[31.4528,39.0912],[31.5819,39.1019],[31.6596,39.1003],[31.6978,39.0926],[31.6747,39.0005],[31.7236,38.9675],[31.7149,38.9277],[31.6383,38.8291],[31.608,38.7821],[31.5922,38.7288],[31.5948,38.6664],[31.5072,38.5771],[31.4308,38.5141],[31.2544,38.423],[31.207,38.4396],[31.1622,38.4908],[31.1238,38.5124],[31.0996,38.5152],[31.0304,38.4598],[30.9056,38.3805],[30.8447,38.3249],[30.7811,38.2777],[30.7051,38.2545],[30.6623,38.25],[30.6055,38.2137],[30.5302,38.193],[30.4812,38.1495],[30.429,38.1122],[30.3903,38.0946],[30.3,38.0244],[30.2322,37.9932],[30.2111,37.9619],[30.1977,37.8584],[30.1653,37.8104],[30.0934,37.7792],[30.0153,37.7765],[29.9264,37.7819],[29.8455,37.7593],[29.7737,37.7124],[29.6889,37.6744],[29.666,37.6303],[29.5381,37.5763],[29.5475,37.5226],[29.5458,37.4827],[29.5575,37.445],[29.5842,37.433],[29.5845,37.41],[29.5402,37.3397],[29.442,37.2225],[29.4147,37.1747],[29.3989,37.1224],[29.3904,37.0686],[29.3426,37.038],[29.3357,36.973],[29.3044,36.9258],[29.2704,36.9116],[29.1699,36.9549],[29.1151,36.9581],[29.0902,36.9779],[29.0754,37.0655],[29.0618,37.1029],[29.0019,37.1497],[28.9283,37.1766],[28.8861,37.2249],[28.8115,37.2335],[28.7779,37.2721],[28.765,37.3185],[28.7353,37.3599],[28.688,37.3747],[28.6273,37.3825],[28.6174,37.4112],[28.6208,37.4605],[28.6089,37.4775],[28.5956,37.5061],[28.5754,37.5146],[28.5628,37.553],[28.5832,37.5897],[28.6531,37.6063],[28.7303,37.5984],[28.7833,37.6385],[28.8302,37.6911],[28.869,37.6925],[28.8996,37.7097],[28.8929,37.7603],[28.8292,37.7705],[28.7706,37.8452],[28.7734,37.8711],[28.8043,37.9051],[28.7884,37.9652],[28.7905,37.9994],[28.7777,38.0288],[28.7222,38.0591],[28.698,38.1038],[28.743,38.1043],[28.7844,38.1199],[28.7984,38.1436],[28.7936,38.1705],[28.8381,38.2388],[28.931,38.2551],[28.8938,38.2874],[28.8638,38.288],[28.8385,38.3034],[28.8949,38.3632],[28.9082,38.3932],[28.9155,38.4407],[28.9029,38.5354],[28.8804,38.5571],[28.8519,38.5647],[28.8484,38.6001],[28.8767,38.6084],[28.9179,38.6537],[28.9955,38.701],[29.0323,38.7301],[29.0363,38.7933],[29.0153,38.84],[28.982,38.8867],[28.9909,38.948],[28.9743,38.9816],[28.9099,39.0596],[28.881,39.0753],[28.7304,39.1008],[28.6595,39.1566],[28.6578,39.204],[28.6667,39.238],[28.7787,39.2722],[28.8114,39.2906],[28.8497,39.3479],[28.896,39.3997],[28.9088,39.4707],[28.9408,39.5211],[28.947,39.5599],[28.9672,39.5891],[29.0048,39.5661],[29.1193,39.5516],[29.1908,39.5521],[29.2461,39.5793],[29.2525,39.6458],[29.2742,39.6909],[29.3202,39.7172],[29.3478,39.7969],[29.3682,39.8133],[29.3995,39.8959],[29.4502,39.9235],[29.5544,39.8919],[29.6183,39.8924],[29.6777,39.9063]]]}}
]}
