{"type":"FeatureCollection","features":[
{"type":"Feature","properties":{"entityId":"antigonid-asia","from":-319,"to":-316,"certainty":"estimated","source":"유럽 쪽은 Natural Earth 1:10m admin-1(v5.1.2) 현대 행정구역 조각을 그 시기 국경에 맞춰 묶고, 조각이 역사 경계와 다른 곳은 선을 그어 나눈 근사. 유럽 밖(시베리아·중앙아시아·극동)은 대략적인 추정. 운영자 검수 필요"},"geometry":{"type":"Polygon","coordinates":[[[26.07,39.4963],[26.0742,39.4745],[26.113,39.4592],[26.1528,39.4592],[26.1717,39.4631],[26.22,39.4265],[26.22,39.4364],[26.2683,39.4364],[26.2683,39.4205],[26.365,39.4205],[26.365,39.4375],[26.4617,39.4375],[26.4617,39.3987],[26.5101,39.3987],[26.5101,39.2619],[26.5584,39.2619],[26.5584,39.2264],[26.599,39.2264],[26.599,39.1967],[26.6396,39.1967],[26.6396,39.1669],[26.6421,39.1669],[26.6421,39.1372],[26.6815,39.1372],[26.6815,39.1074],[26.7208,39.1074],[26.7208,39.0479],[26.8009,38.9874],[26.8017,38.982],[26.6753,38.78],[26.561,38.5972],[26.5558,38.6054],[26.5056,38.6527],[26.4656,38.6727],[26.4141,38.6794],[26.3563,38.6617],[26.3486,38.6213],[26.3758,38.5286],[26.4038,38.4875],[26.3879,38.4543],[26.4181,38.4649],[26.4294,38.4409],[26.4151,38.3682],[26.3435,38.37],[26.3431,38.37],[26.3219,38.3339],[26.3143,38.3367],[26.3211,38.3777],[26.3076,38.3579],[26.2941,38.3699],[26.2889,38.3406],[26.3076,38.3231],[26.2859,38.3187],[26.2654,38.2867],[26.2388,38.2958],[26.2346,38.2738],[26.2866,38.2611],[26.3286,38.2351],[26.3344,38.2351],[26.3179,38.2086],[26.3181,38.2085],[26.3179,38.2082],[26.5572,38.0264],[26.6768,37.9356],[26.6768,37.9377],[26.7964,37.9377],[26.7964,37.922],[27.0306,37.922],[27.0306,37.8922],[27.1185,37.8922],[27.1185,37.8324],[27.1477,37.8324],[27.1477,37.8025],[27.173,37.8025],[27.173,37.7753],[27.1445,37.7753],[27.1445,37.7428],[27.1161,37.7428],[27.1161,37.7157],[27.0876,37.7157],[27.0876,37.6892],[27.0591,37.6897],[27.0591,37.7067],[27.0306,37.7066],[27.0048,37.7066],[27.0048,37.6863],[27.0208,37.6742],[27.0115,37.6657],[27.0488,37.6501],[27.0507,37.6497],[27.206,37.3898],[27.2075,37.3764],[27.1908,37.3573],[27.2119,37.3573],[27.2334,37.344],[27.2801,37.266],[27.302,37.2293],[27.3239,37.1927],[27.3579,37.1358],[27.349,37.1301],[27.3218,37.1587],[27.3218,37.1254],[27.3011,37.127],[27.3007,37.127],[27.2998,37.1262],[27.2717,37.1289],[27.2604,37.1103],[27.2828,37.1103],[27.2696,37.0981],[27.2391,37.083],[27.2288,37.0618],[27.2527,36.9783],[27.2632,36.9634],[27.3081,36.9594],[27.3006,36.9731],[27.3327,36.9971],[27.3314,37.0023],[27.3436,37.0146],[27.4059,37.0167],[27.4296,37.0158],[27.5784,36.7671],[27.5614,36.7609],[27.4832,36.754],[27.4588,36.7557],[27.4273,36.7357],[27.4143,36.7093],[27.3558,36.7124],[27.3628,36.6851],[27.4557,36.6629],[27.4727,36.6509],[27.4863,36.6652],[27.5486,36.6834],[27.5556,36.6829],[27.5597,36.6746],[27.603,36.6789],[27.6374,36.6682],[27.6427,36.6595],[27.6431,36.6595],[27.6646,36.6598],[27.6712,36.6578],[27.6716,36.6599],[28.0144,36.6653],[28.0207,36.6336],[28.0211,36.6337],[28.0211,36.6336],[28.0881,36.6426],[28.054,36.6096],[28.0344,36.6025],[27.9592,36.6025],[27.9661,36.5759],[27.9909,36.5598],[28.0138,36.5759],[28.048,36.569],[28.0617,36.5963],[28.0881,36.5891],[28.1115,36.6042],[28.1584,36.6675],[28.7335,36.6764],[28.8293,36.6235],[28.8186,36.6117],[28.8587,36.6013],[28.8614,36.6057],[29.106,36.4706],[29.1242,36.4536],[29.1304,36.4114],[29.0964,36.3909],[29.1447,36.3772],[29.1447,36.3493],[29.2186,36.3288],[29.2231,36.3246],[29.2437,36.3138],[29.2612,36.2936],[29.3223,36.2469],[29.3571,36.2357],[29.3702,36.2522],[29.4187,36.2375],[29.4204,36.2306],[29.4262,36.2353],[29.4725,36.2213],[29.4945,36.211],[29.5215,36.206],[29.5229,36.206],[29.585,36.1872],[29.5835,36.1855],[29.5887,36.1861],[29.6342,36.1723],[29.634,36.1571],[29.6682,36.1438],[29.6724,36.1234],[29.6944,36.1455],[29.6983,36.1433],[29.6986,36.1434],[29.6987,36.1433],[29.7457,36.1515],[29.7617,36.137],[29.7953,36.1452],[29.823,36.1649],[30.3566,36.2576],[30.3859,36.243],[30.3861,36.2431],[30.3863,36.243],[30.4,36.2488],[30.4004,36.2481],[30.3986,36.206],[30.4408,36.2393],[30.4517,36.2618],[30.488,36.2878],[30.4668,36.2878],[30.473,36.2985],[30.4835,36.3107],[30.4838,36.3127],[30.5199,36.3419],[30.4942,36.3493],[30.5016,36.3636],[30.4927,36.3708],[30.5046,36.4478],[30.5088,36.4543],[30.5101,36.4583],[30.5487,36.5115],[30.5698,36.528],[30.5811,36.5752],[30.5724,36.5919],[30.6028,36.6465],[30.6203,36.6781],[31.6999,36.6443],[31.8,36.578],[31.8,37.301],[31.5587,37.3407],[31.8154,37.2985],[31.8987,37.2552],[31.963,37.2076],[32.0331,37.1686],[32.0832,37.1266],[32.1279,37.0762],[32.2531,36.9869],[32.3235,36.9582],[32.3272,36.9276],[32.3016,36.9116],[32.2903,36.8814],[32.3053,36.8542],[32.3487,36.8412],[32.4264,36.8321],[32.4475,36.8083],[32.4632,36.7416],[32.4562,36.6734],[32.4906,36.6016],[32.5316,36.5338],[32.5587,36.5062],[32.632,36.4703],[32.6517,36.438],[32.7173,36.445],[32.7824,36.4316],[32.8425,36.4328],[32.8994,36.4533],[32.9582,36.4644],[33.0524,36.4666],[33.0762,36.4855],[33.1022,36.5535],[33.1318,36.5613],[33.2048,36.5344],[33.231,36.5607],[33.2068,36.5909],[33.1612,36.6185],[33.1084,36.6296],[33.0684,36.6632],[33.0435,36.6727],[33.0193,36.7283],[32.982,36.7716],[32.9795,36.8038],[33.0336,36.8141],[33.1079,36.8464],[33.1312,36.8211],[33.1673,36.8134],[33.1888,36.8426],[33.2007,36.8871],[33.2327,36.918],[33.27,36.928],[33.3719,36.988],[33.4132,36.9972],[33.54,37.0066],[33.6194,37.0318],[33.7021,37.0372],[33.7366,37.0287],[33.7975,37.0471],[33.8706,37.0577],[33.9668,37.1162],[34.0027,37.1288],[34.0786,37.133],[34.149,37.155],[34.1832,37.1879],[34.2105,37.2013],[34.2979,37.2254],[34.3539,37.248],[34.3986,37.2822],[34.4819,37.3089],[34.5001,37.3199],[34.5122,37.352],[34.5875,37.3533],[34.7215,37.4014],[34.7916,37.3877],[34.7946,37.4572],[34.8499,37.5106],[34.8652,37.553],[34.8326,37.6299],[34.8278,37.6802],[34.8597,37.7166],[34.9106,37.7136],[34.9619,37.7007],[35.0597,37.7135],[35.1906,37.8181],[35.3632,37.8073],[35.4536,37.7888],[35.5772,37.7505],[35.6296,37.7702],[35.6077,37.9538],[35.979,38.155],[36.0331,38.2133],[36.0756,38.2819],[36.1033,38.3122],[36.1459,38.3951],[36.19,38.4235],[36.2669,38.4578],[36.348,38.4747],[36.4001,38.4566],[36.4373,38.4097],[36.4626,38.358],[36.5055,38.3229],[36.65,38.4591],[36.682,38.4999],[36.694,38.5523],[36.7137,38.583],[36.7475,38.5994],[36.8789,38.625],[37.0088,38.6105],[37.0597,38.5881],[37.2844,38.6036],[37.2259,38.5263],[37.2371,38.4672],[37.3107,38.4749],[37.4597,38.4496],[37.5872,38.39],[37.6552,38.3747],[37.7336,38.3462],[37.7823,38.2784],[37.7762,38.2372],[37.7213,38.1226],[37.7152,38.0927],[37.6582,38.0267],[37.6069,37.8795],[37.5653,37.8205],[37.7076,37.842],[37.796,37.8712],[37.888,37.881],[37.9735,37.8657],[38.0444,37.8887],[38.1276,37.905],[38.1892,37.9485],[38.1909,38.0008],[38.2173,38.0405],[38.295,38.0738],[38.3579,38.149],[38.4309,38.2141],[38.5009,38.2146],[38.5609,38.2284],[38.6187,38.2191],[38.6228,38.1866],[38.5639,38.1467],[38.5714,38.1259],[38.6035,38.1104],[38.6631,38.0982],[38.7334,38.0984],[38.8032,38.0903],[38.932,38.1073],[39.0156,38.1308],[39.0695,38.1515],[39.1149,38.1927],[39.1485,38.2842],[39.145,38.3078],[39.1149,38.3435],[39.0734,38.3479],[38.9922,38.326],[38.9572,38.3305],[38.9111,38.3607],[38.8855,38.364],[38.861,38.3988],[38.8269,38.4186],[38.8105,38.4403],[38.7177,38.4186],[38.6889,38.4207],[38.6078,38.4534],[38.5667,38.4646],[38.4817,38.4759],[38.4566,38.4849],[38.4256,38.5124],[38.403,38.508],[38.3735,38.5365],[38.3489,38.5956],[38.3757,38.6452],[38.4024,38.6734],[38.4604,38.6924],[38.4781,38.7254],[38.4713,38.7408],[38.5089,38.7568],[38.6187,38.7482],[38.6357,38.7817],[38.6239,38.8126],[38.6194,38.8959],[38.5899,38.9508],[38.5893,38.9922],[38.6168,39.0203],[38.6879,39.023],[38.6236,39.0822],[38.5356,39.1159],[38.4409,39.1195],[38.3617,39.1503],[38.2839,39.1297],[38.2123,39.0876],[38.1477,39.0726],[38.0802,39.0802],[38.01,39.0637],[37.932,39.0623],[37.7858,38.9983],[37.7022,38.9843],[37.6176,39.017],[37.5736,39.0082],[37.5516,38.9694],[37.5614,38.9222],[37.5969,38.8343],[37.5805,38.7968],[37.5098,38.7366],[37.4447,38.7082],[37.3936,38.6613],[37.3429,38.6249],[37.3,38.6093],[37.3,40.2532],[37.3508,40.259],[37.4221,40.2955],[37.5241,40.317],[37.5841,40.382],[37.6349,40.4612],[37.617,40.5212],[37.5841,40.5694],[37.4488,40.5759],[37.2197,40.6977],[37.1525,40.7019],[37.0846,40.6943],[37.0134,40.6989],[36.9468,40.7203],[36.8954,40.7447],[36.8118,40.7661],[36.7565,40.792],[36.6989,40.8068],[36.6875,40.836],[36.7052,40.8625],[36.746,40.875],[36.8284,40.8878],[36.8807,40.9124],[36.9203,40.9458],[36.9991,40.9797],[37.0423,41.0418],[37.0984,41.0866],[37.1517,41.1468],[37.1489,41.1468],[37.1489,41.2497],[37.1739,41.2497],[37.1739,41.2661],[37.1489,41.2728],[37.1238,41.2796],[37.0736,41.2931],[36.9132,41.3364],[36.8731,41.3526],[36.071,41.676],[36.0449,41.7015],[36.0387,41.689],[36.033,41.6914],[35.9779,41.7297],[35.9627,41.7197],[35.9466,41.7262],[35.9568,41.7363],[35.9403,41.7287],[35.7284,41.8142],[35.6225,41.8569],[35.5961,41.8675],[35.5696,41.8782],[35.5696,41.7646],[35.5431,41.7646],[35.5431,41.7309],[35.5166,41.7309],[35.5166,41.639],[35.5001,41.6416],[35.4608,41.5742],[35.456,41.5236],[35.4723,41.4755],[35.4709,41.4171],[35.4895,41.3735],[35.5048,41.2845],[35.4851,41.2728],[35.4338,41.2833],[35.3831,41.2602],[35.3399,41.2545],[35.2963,41.2583],[35.2397,41.2892],[35.1944,41.2934],[35.1958,41.311],[35.1406,41.3415],[35.1328,41.3771],[35.1133,41.3998],[35.1024,41.3853],[35.0239,41.3588],[34.9913,41.3348],[34.9345,41.3179],[34.9418,41.2999],[34.888,41.2698],[34.8761,41.233],[34.8373,41.2016],[34.7239,41.2293],[34.6704,41.2661],[34.641,41.2721],[34.5741,41.2705],[34.5575,41.2846],[34.4985,41.2859],[34.4719,41.3108],[34.4798,41.4416],[34.4629,41.4798],[34.472,41.5185],[34.4918,41.5523],[34.5533,41.5912],[34.5879,41.6575],[34.5325,41.7132],[34.4661,41.7275],[34.3443,41.7325],[34.2842,41.7453],[34.2051,41.7478],[34.1404,41.7671],[34.1422,41.8002],[34.1926,41.8451],[34.2209,41.9035],[34.2161,41.9601],[34.1995,41.9619],[34.1995,42.0276],[34.1518,42.027],[33.5143,42.0185],[33.4818,42.0106],[33.3895,42.0168],[33.3609,42.0207],[33.3245,42.019],[33.2916,42.0062],[33.2839,42.0052],[33.0586,41.93],[33.0081,41.9173],[32.9667,41.8994],[32.9455,41.8923],[32.7903,41.8596],[32.7554,41.8591],[32.6792,41.8363],[32.6126,41.8395],[32.5836,41.816],[32.5681,41.8127],[32.5484,41.8157],[32.4685,41.783],[32.3785,41.7534],[32.3772,41.7541],[32.3754,41.7524],[32.3047,41.7291],[32.296,41.7236],[32.2634,41.7202],[32.2434,41.6929],[32.2322,41.6833],[32.1274,41.617],[32.0604,41.5809],[32.1341,41.5994],[32.1901,41.5571],[32.2507,41.5369],[32.2709,41.4843],[32.3072,41.4156],[32.287,41.3308],[32.1981,41.2419],[32.182,41.1893],[32.1496,41.1085],[32.1494,41.0192],[32.1983,41.0181],[32.284,41.0039],[32.2783,40.9486],[32.3303,40.9328],[32.3769,40.9106],[32.4922,40.8678],[32.5295,40.8152],[32.5262,40.7887],[32.5071,40.7052],[32.4713,40.6939],[32.4427,40.673],[32.439,40.619],[32.4767,40.539],[32.4239,40.4856],[32.3961,40.4483],[32.3154,40.4152],[32.1768,40.4313],[32.1349,40.421],[32.0931,40.3989],[31.9751,40.3771],[31.9061,40.3534],[31.8214,40.3384],[31.6965,40.34],[31.6577,40.3361],[31.5679,40.3085],[31.5356,40.3116],[31.4524,40.332],[31.4197,40.3597],[31.2509,40.346],[31.163,40.3869],[31.0692,40.4113],[31.0439,40.3899],[31.0341,40.3524],[31.0382,40.2922],[31.0072,40.2416],[30.9254,40.2057],[30.8636,40.1428],[30.7988,40.1509],[30.7386,40.1678],[30.7011,40.204],[30.64,40.2872],[30.626,40.3315],[30.5736,40.341],[30.4985,40.3396],[30.4577,40.3791],[30.4263,40.394],[30.3507,40.4021],[30.3075,40.399],[30.1691,40.371],[30.081,40.3914],[30.0046,40.4477],[29.9688,40.4887],[29.9408,40.5335],[29.9262,40.577],[29.7889,40.6147],[29.7204,40.6043],[29.5353,40.5524],[29.4771,40.5498],[29.4207,40.5632],[29.3581,40.5729],[29.2939,40.5222],[29.2305,40.5116],[29.0784,40.5632],[29.0475,40.5602],[28.978,40.5732],[28.9803,40.4645],[28.9956,40.4732],[28.9956,40.4182],[28.9177,40.4182],[28.9177,40.4416],[28.8397,40.4416],[28.8397,40.4441],[28.8008,40.4441],[28.8008,40.4592],[28.7618,40.4582],[28.6838,40.4563],[28.5278,40.4523],[28.2159,40.4444],[28.177,40.4434],[28.138,40.4425],[28.06,40.4405],[27.985,40.4386],[28.0168,40.4511],[28.0344,40.4744],[28.0142,40.4912],[27.9699,40.503],[27.8047,40.5228],[27.7894,40.5142],[27.76,40.5371],[27.7332,40.5306],[27.6843,40.5023],[27.7258,40.4614],[27.7502,40.4576],[27.7563,40.4328],[27.589,40.4286],[27.5522,40.4276],[27.5154,40.4267],[27.4417,40.4248],[27.324,40.4219],[27.3034,40.4584],[27.2715,40.4678],[27.2377,40.4557],[27.1451,40.4537],[27.1431,40.4539],[27.126,40.4533],[27.1207,40.4532],[27.1206,40.4531],[27.0964,40.4523],[27.0333,40.4068],[27.0127,40.3959],[26.9204,40.3977],[26.8972,40.4062],[26.863,40.3999],[26.7534,40.403],[26.69,40.38],[26.62,40.33],[26.52,40.27],[26.44,40.21],[26.3982,40.164],[26.4035,40.139],[26.3936,40.1094],[26.3923,40.108],[26.3694,40.1029],[26.365,40.0787],[26.3143,40.0244],[26.2262,40.0015],[26.1978,40.0089],[26.1815,39.9898],[26.1811,39.9897],[26.1809,39.9891],[26.1677,39.9736],[26.1526,39.9426],[26.1565,39.9013],[26.1512,39.8823],[26.1364,39.8376],[26.1502,39.8292],[26.151,39.8031],[26.1406,39.7427],[26.1538,39.7207],[26.1556,39.6638],[26.1534,39.6524],[26.1272,39.6103],[26.1107,39.5979],[26.095,39.5486],[26.07,39.4963]]]}},
{"type":"Feature","properties":{"entityId":"antigonid-asia","from":-316,"to":-310,"certainty":"estimated","source":"유럽 쪽은 Natural Earth 1:10m admin-1(v5.1.2) 현대 행정구역 조각을 그 시기 국경에 맞춰 묶고, 조각이 역사 경계와 다른 곳은 선을 그어 나눈 근사. 유럽 밖(시베리아·중앙아시아·극동)은 대략적인 추정. 운영자 검수 필요"},"geometry":{"type":"Polygon","coordinates":[[[26.07,39.4963],[26.0742,39.4745],[26.113,39.4592],[26.1528,39.4592],[26.1717,39.4631],[26.22,39.4265],[26.22,39.4364],[26.2683,39.4364],[26.2683,39.4205],[26.365,39.4205],[26.365,39.4375],[26.4617,39.4375],[26.4617,39.3987],[26.5101,39.3987],[26.5101,39.2619],[26.5584,39.2619],[26.5584,39.2264],[26.599,39.2264],[26.599,39.1967],[26.6396,39.1967],[26.6396,39.1669],[26.6421,39.1669],[26.6421,39.1372],[26.6815,39.1372],[26.6815,39.1074],[26.7208,39.1074],[26.7208,39.0479],[26.8009,38.9874],[26.8017,38.982],[26.6753,38.78],[26.561,38.5972],[26.5558,38.6054],[26.5056,38.6527],[26.4656,38.6727],[26.4141,38.6794],[26.3563,38.6617],[26.3486,38.6213],[26.3758,38.5286],[26.4038,38.4875],[26.3879,38.4543],[26.4181,38.4649],[26.4294,38.4409],[26.4151,38.3682],[26.3435,38.37],[26.3431,38.37],[26.3219,38.3339],[26.3143,38.3367],[26.3211,38.3777],[26.3076,38.3579],[26.2941,38.3699],[26.2889,38.3406],[26.3076,38.3231],[26.2859,38.3187],[26.2654,38.2867],[26.2388,38.2958],[26.2346,38.2738],[26.2866,38.2611],[26.3286,38.2351],[26.3344,38.2351],[26.3179,38.2086],[26.3181,38.2085],[26.3179,38.2082],[26.5572,38.0264],[26.6768,37.9356],[26.6768,37.9377],[26.7964,37.9377],[26.7964,37.922],[27.0306,37.922],[27.0306,37.8922],[27.1185,37.8922],[27.1185,37.8324],[27.1477,37.8324],[27.1477,37.8025],[27.173,37.8025],[27.173,37.7753],[27.1445,37.7753],[27.1445,37.7428],[27.1161,37.7428],[27.1161,37.7157],[27.0876,37.7157],[27.0876,37.6892],[27.0591,37.6897],[27.0591,37.7067],[27.0306,37.7066],[27.0048,37.7066],[27.0048,37.6863],[27.0208,37.6742],[27.0115,37.6657],[27.0488,37.6501],[27.0507,37.6497],[27.206,37.3898],[27.2075,37.3764],[27.1908,37.3573],[27.2119,37.3573],[27.2334,37.344],[27.2801,37.266],[27.302,37.2293],[27.3239,37.1927],[27.3579,37.1358],[27.349,37.1301],[27.3218,37.1587],[27.3218,37.1254],[27.3011,37.127],[27.3007,37.127],[27.2998,37.1262],[27.2717,37.1289],[27.2604,37.1103],[27.2828,37.1103],[27.2696,37.0981],[27.2391,37.083],[27.2288,37.0618],[27.2527,36.9783],[27.2632,36.9634],[27.3081,36.9594],[27.3006,36.9731],[27.3327,36.9971],[27.3314,37.0023],[27.3436,37.0146],[27.4059,37.0167],[27.4296,37.0158],[27.5784,36.7671],[27.5614,36.7609],[27.4832,36.754],[27.4588,36.7557],[27.4273,36.7357],[27.4143,36.7093],[27.3558,36.7124],[27.3628,36.6851],[27.4557,36.6629],[27.4727,36.6509],[27.4863,36.6652],[27.5486,36.6834],[27.5556,36.6829],[27.5597,36.6746],[27.603,36.6789],[27.6374,36.6682],[27.6427,36.6595],[27.6431,36.6595],[27.6646,36.6598],[27.6712,36.6578],[27.6716,36.6599],[28.0144,36.6653],[28.0207,36.6336],[28.0211,36.6337],[28.0211,36.6336],[28.0881,36.6426],[28.054,36.6096],[28.0344,36.6025],[27.9592,36.6025],[27.9661,36.5759],[27.9909,36.5598],[28.0138,36.5759],[28.048,36.569],[28.0617,36.5963],[28.0881,36.5891],[28.1115,36.6042],[28.1584,36.6675],[28.7335,36.6764],[28.8293,36.6235],[28.8186,36.6117],[28.8587,36.6013],[28.8614,36.6057],[29.106,36.4706],[29.1242,36.4536],[29.1304,36.4114],[29.0964,36.3909],[29.1447,36.3772],[29.1447,36.3493],[29.2186,36.3288],[29.2231,36.3246],[29.2437,36.3138],[29.2612,36.2936],[29.3223,36.2469],[29.3571,36.2357],[29.3702,36.2522],[29.4187,36.2375],[29.4204,36.2306],[29.4262,36.2353],[29.4725,36.2213],[29.4945,36.211],[29.5215,36.206],[29.5229,36.206],[29.585,36.1872],[29.5835,36.1855],[29.5887,36.1861],[29.6342,36.1723],[29.634,36.1571],[29.6682,36.1438],[29.6724,36.1234],[29.6944,36.1455],[29.6983,36.1433],[29.6986,36.1434],[29.6987,36.1433],[29.7457,36.1515],[29.7617,36.137],[29.7953,36.1452],[29.823,36.1649],[30.3566,36.2576],[30.3859,36.243],[30.3861,36.2431],[30.3863,36.243],[30.4,36.2488],[30.4004,36.2481],[30.3986,36.206],[30.4408,36.2393],[30.4517,36.2618],[30.488,36.2878],[30.4668,36.2878],[30.473,36.2985],[30.4835,36.3107],[30.4838,36.3127],[30.5199,36.3419],[30.4942,36.3493],[30.5016,36.3636],[30.4927,36.3708],[30.5046,36.4478],[30.5088,36.4543],[30.5101,36.4583],[30.5487,36.5115],[30.5698,36.528],[30.5811,36.5752],[30.5724,36.5919],[30.6028,36.6465],[30.6203,36.6781],[31.6999,36.6443],[31.8,36.578],[32.2814,36.2591],[32.283,36.2506],[32.3187,36.2286],[32.3655,36.178],[32.4196,36.1595],[32.4373,36.1387],[32.5134,36.103],[32.5452,36.0981],[32.5826,36.0888],[32.6707,36.0467],[32.7606,36.0295],[32.8037,36.0272],[32.8655,36.0678],[32.9279,36.0954],[32.9826,36.0976],[33.0877,36.0828],[33.1071,36.1033],[33.3004,36.1318],[33.3084,36.1322],[33.3093,36.1331],[33.3662,36.1415],[33.3865,36.137],[33.4371,36.1519],[33.4425,36.1527],[33.5215,36.144],[33.5219,36.144],[33.5325,36.1463],[33.5442,36.1445],[33.5523,36.1275],[33.5888,36.1588],[33.661,36.1747],[33.6853,36.1432],[33.7053,36.1817],[33.7177,36.1922],[33.7302,36.1976],[33.9451,36.2134],[33.959,36.2136],[33.9593,36.2145],[34.0259,36.2194],[34.2,36.3651],[34.7134,36.7948],[34.9056,36.7421],[34.9079,36.7404],[34.9004,36.7199],[34.9333,36.7275],[34.9423,36.7263],[34.9435,36.7256],[35.1174,36.6585],[35.2947,36.5725],[35.348,36.5444],[35.409,36.5769],[35.4717,36.5868],[35.552,36.5647],[35.5524,36.5647],[35.8126,36.6016],[35.8379,36.6052],[35.8631,36.6088],[35.8883,36.6123],[35.9639,36.6231],[36.0144,36.6302],[36.1599,36.6509],[36.0328,36.5246],[36.0308,36.5229],[36.0144,36.51],[35.966,36.4719],[35.9424,36.4643],[35.9187,36.4482],[35.9124,36.4296],[35.8832,36.4066],[35.879,36.4009],[35.8735,36.3977],[35.8676,36.3856],[35.8572,36.3714],[35.8159,36.353],[35.7887,36.3203],[35.7965,36.2898],[35.7824,36.2757],[35.7826,36.2755],[35.7824,36.2753],[35.8986,36.1317],[35.9246,36.0704],[35.9551,35.9985],[35.9268,35.9607],[35.9137,35.9433],[35.894,35.917],[35.8851,35.9058],[35.9015,35.9058],[35.9113,35.9178],[35.9803,35.9269],[35.9928,35.9153],[35.9924,35.8773],[36.0803,35.8542],[36.1385,35.8198],[36.1553,35.8222],[36.1688,35.8521],[36.1749,35.9227],[36.1969,35.9517],[36.229,35.9612],[36.269,35.9587],[36.2775,35.9942],[36.2974,36.0007],[36.3367,35.9882],[36.358,35.994],[36.3555,36.0224],[36.3586,36.167],[36.3758,36.2045],[36.373,36.2276],[36.4119,36.2045],[36.4507,36.1999],[36.4689,36.2224],[36.4986,36.2279],[36.5935,36.2181],[36.6643,36.229],[36.6691,36.2599],[36.6488,36.3057],[36.6207,36.322],[36.5878,36.3248],[36.5943,36.3571],[36.5857,36.387],[36.5527,36.4082],[36.5338,36.4625],[36.5355,36.494],[36.5653,36.5325],[36.5693,36.6201],[36.5947,36.6858],[36.6033,36.747],[36.6433,36.8036],[36.6399,36.8281],[36.6596,36.8272],[36.8437,36.7758],[36.9068,36.7726],[36.9647,36.7538],[37.0106,36.7195],[37.0195,36.6858],[37.0145,36.6423],[37.0531,36.6199],[37.1044,36.651],[37.1561,36.6439],[37.2419,36.6586],[37.4045,36.6345],[37.4461,36.6342],[37.5221,36.6736],[37.5934,36.7105],[37.6541,36.7321],[37.8197,36.7605],[38.026,36.835],[38.123,36.8846],[38.1901,36.9055],[38.2243,36.9084],[38.2899,36.9017],[38.48,36.8557],[38.5294,36.8337],[38.6352,36.744],[38.6641,36.7195],[38.725,36.6939],[38.7954,36.6867],[38.958,36.6929],[39.0322,36.7012],[39.1859,36.6595],[39.2396,36.6613],[39.4417,36.6924],[39.7653,36.7422],[39.9798,36.807],[40.0792,36.8549],[40.1527,36.8704],[40.1901,36.8844],[40.2614,36.9228],[40.3937,36.994],[40.4352,37.0106],[40.5257,37.0259],[40.6595,37.0853],[40.709,37.1005],[40.8964,37.1227],[41.1351,37.0842],[41.2013,37.065],[41.4798,37.0756],[41.8964,37.1543],[41.876,37.2168],[41.814,37.2581],[41.6983,37.2871],[41.6818,37.3284],[41.7231,37.3656],[41.8926,37.4359],[41.905,37.502],[41.876,37.5888],[41.8169,37.7138],[41.6322,37.6094],[41.5206,37.5433],[41.3677,37.5185],[41.2603,37.5722],[41.19,37.688],[41.1197,37.7582],[41.0752,37.7649],[41.0118,37.7414],[40.662,37.7484],[40.5516,37.7299],[40.5392,37.7073],[40.492,37.657],[40.4122,37.6524],[40.3009,37.5842],[40.2518,37.5693],[40.1426,37.5087],[40.0978,37.4758],[40,37.3757],[39.9537,37.4174],[39.9202,37.4695],[39.8843,37.5501],[39.8567,37.6694],[39.8632,37.7777],[39.8486,37.8019],[39.8128,37.8136],[39.7592,37.8424],[39.7385,37.8172],[39.6913,37.8339],[39.6527,37.8621],[39.5888,37.883],[39.5233,37.9261],[39.4626,37.9767],[39.4079,37.997],[39.3486,37.9989],[39.2675,38.0091],[39.189,38.0431],[39.2346,38.0761],[39.2247,38.0903],[39.2563,38.1531],[39.2526,38.1797],[39.2219,38.205],[39.1413,38.1786],[39.1149,38.1927],[39.1485,38.2842],[39.145,38.3078],[39.1149,38.3435],[39.0734,38.3479],[38.9922,38.326],[38.9572,38.3305],[38.9111,38.3607],[38.8855,38.364],[38.861,38.3988],[38.8269,38.4186],[38.8105,38.4403],[38.7177,38.4186],[38.6889,38.4207],[38.6078,38.4534],[38.5667,38.4646],[38.4817,38.4759],[38.4566,38.4849],[38.4256,38.5124],[38.403,38.508],[38.3735,38.5365],[38.3489,38.5956],[38.3757,38.6452],[38.4024,38.6734],[38.4604,38.6924],[38.4781,38.7254],[38.4713,38.7408],[38.5089,38.7568],[38.6187,38.7482],[38.6357,38.7817],[38.6239,38.8126],[38.6194,38.8959],[38.5899,38.9508],[38.5893,38.9922],[38.6168,39.0203],[38.6879,39.023],[38.6236,39.0822],[38.5356,39.1159],[38.4409,39.1195],[38.3617,39.1503],[38.2839,39.1297],[38.2123,39.0876],[38.1477,39.0726],[38.0802,39.0802],[38.01,39.0637],[37.932,39.0623],[37.7858,38.9983],[37.7022,38.9843],[37.6176,39.017],[37.5736,39.0082],[37.5516,38.9694],[37.5614,38.9222],[37.5969,38.8343],[37.5805,38.7968],[37.5098,38.7366],[37.4447,38.7082],[37.3936,38.6613],[37.3429,38.6249],[37.3,38.6093],[37.3,40.2532],[37.3508,40.259],[37.4221,40.2955],[37.5241,40.317],[37.5841,40.382],[37.6349,40.4612],[37.617,40.5212],[37.5841,40.5694],[37.4488,40.5759],[37.2197,40.6977],[37.1525,40.7019],[37.0846,40.6943],[37.0134,40.6989],[36.9468,40.7203],[36.8954,40.7447],[36.8118,40.7661],[36.7565,40.792],[36.6989,40.8068],[36.6875,40.836],[36.7052,40.8625],[36.746,40.875],[36.8284,40.8878],[36.8807,40.9124],[36.9203,40.9458],[36.9991,40.9797],[37.0423,41.0418],[37.0984,41.0866],[37.1517,41.1468],[37.1489,41.1468],[37.1489,41.2497],[37.1739,41.2497],[37.1739,41.2661],[37.1489,41.2728],[37.1238,41.2796],[37.0736,41.2931],[36.9132,41.3364],[36.8731,41.3526],[36.071,41.676],[36.0449,41.7015],[36.0387,41.689],[36.033,41.6914],[35.9779,41.7297],[35.9627,41.7197],[35.9466,41.7262],[35.9568,41.7363],[35.9403,41.7287],[35.7284,41.8142],[35.6225,41.8569],[35.5961,41.8675],[35.5696,41.8782],[35.5696,41.7646],[35.5431,41.7646],[35.5431,41.7309],[35.5166,41.7309],[35.5166,41.639],[35.5001,41.6416],[35.4608,41.5742],[35.456,41.5236],[35.4723,41.4755],[35.4709,41.4171],[35.4895,41.3735],[35.5048,41.2845],[35.4851,41.2728],[35.4338,41.2833],[35.3831,41.2602],[35.3399,41.2545],[35.2963,41.2583],[35.2397,41.2892],[35.1944,41.2934],[35.1958,41.311],[35.1406,41.3415],[35.1328,41.3771],[35.1133,41.3998],[35.1024,41.3853],[35.0239,41.3588],[34.9913,41.3348],[34.9345,41.3179],[34.9418,41.2999],[34.888,41.2698],[34.8761,41.233],[34.8373,41.2016],[34.7239,41.2293],[34.6704,41.2661],[34.641,41.2721],[34.5741,41.2705],[34.5575,41.2846],[34.4985,41.2859],[34.4719,41.3108],[34.4798,41.4416],[34.4629,41.4798],[34.472,41.5185],[34.4918,41.5523],[34.5533,41.5912],[34.5879,41.6575],[34.5325,41.7132],[34.4661,41.7275],[34.3443,41.7325],[34.2842,41.7453],[34.2051,41.7478],[34.1404,41.7671],[34.1422,41.8002],[34.1926,41.8451],[34.2209,41.9035],[34.2161,41.9601],[34.1995,41.9619],[34.1995,42.0276],[34.1518,42.027],[33.5143,42.0185],[33.4818,42.0106],[33.3895,42.0168],[33.3609,42.0207],[33.3245,42.019],[33.2916,42.0062],[33.2839,42.0052],[33.0586,41.93],[33.0081,41.9173],[32.9667,41.8994],[32.9455,41.8923],[32.7903,41.8596],[32.7554,41.8591],[32.6792,41.8363],[32.6126,41.8395],[32.5836,41.816],[32.5681,41.8127],[32.5484,41.8157],[32.4685,41.783],[32.3785,41.7534],[32.3772,41.7541],[32.3754,41.7524],[32.3047,41.7291],[32.296,41.7236],[32.2634,41.7202],[32.2434,41.6929],[32.2322,41.6833],[32.1274,41.617],[32.0604,41.5809],[32.1341,41.5994],[32.1901,41.5571],[32.2507,41.5369],[32.2709,41.4843],[32.3072,41.4156],[32.287,41.3308],[32.1981,41.2419],[32.182,41.1893],[32.1496,41.1085],[32.1494,41.0192],[32.1983,41.0181],[32.284,41.0039],[32.2783,40.9486],[32.3303,40.9328],[32.3769,40.9106],[32.4922,40.8678],[32.5295,40.8152],[32.5262,40.7887],[32.5071,40.7052],[32.4713,40.6939],[32.4427,40.673],[32.439,40.619],[32.4767,40.539],[32.4239,40.4856],[32.3961,40.4483],[32.3154,40.4152],[32.1768,40.4313],[32.1349,40.421],[32.0931,40.3989],[31.9751,40.3771],[31.9061,40.3534],[31.8214,40.3384],[31.6965,40.34],[31.6577,40.3361],[31.5679,40.3085],[31.5356,40.3116],[31.4524,40.332],[31.4197,40.3597],[31.2509,40.346],[31.163,40.3869],[31.0692,40.4113],[31.0439,40.3899],[31.0341,40.3524],[31.0382,40.2922],[31.0072,40.2416],[30.9254,40.2057],[30.8636,40.1428],[30.7988,40.1509],[30.7386,40.1678],[30.7011,40.204],[30.64,40.2872],[30.626,40.3315],[30.5736,40.341],[30.4985,40.3396],[30.4577,40.3791],[30.4263,40.394],[30.3507,40.4021],[30.3075,40.399],[30.1691,40.371],[30.081,40.3914],[30.0046,40.4477],[29.9688,40.4887],[29.9408,40.5335],[29.9262,40.577],[29.7889,40.6147],[29.7204,40.6043],[29.5353,40.5524],[29.4771,40.5498],[29.4207,40.5632],[29.3581,40.5729],[29.2939,40.5222],[29.2305,40.5116],[29.0784,40.5632],[29.0475,40.5602],[28.978,40.5732],[28.9803,40.4645],[28.9956,40.4732],[28.9956,40.4182],[28.9177,40.4182],[28.9177,40.4416],[28.8397,40.4416],[28.8397,40.4441],[28.8008,40.4441],[28.8008,40.4592],[28.7618,40.4582],[28.6838,40.4563],[28.5278,40.4523],[28.2159,40.4444],[28.177,40.4434],[28.138,40.4425],[28.06,40.4405],[27.985,40.4386],[28.0168,40.4511],[28.0344,40.4744],[28.0142,40.4912],[27.9699,40.503],[27.8047,40.5228],[27.7894,40.5142],[27.76,40.5371],[27.7332,40.5306],[27.6843,40.5023],[27.7258,40.4614],[27.7502,40.4576],[27.7563,40.4328],[27.589,40.4286],[27.5522,40.4276],[27.5154,40.4267],[27.4417,40.4248],[27.324,40.4219],[27.3034,40.4584],[27.2715,40.4678],[27.2377,40.4557],[27.1451,40.4537],[27.1431,40.4539],[27.126,40.4533],[27.1207,40.4532],[27.1206,40.4531],[27.0964,40.4523],[27.0333,40.4068],[27.0127,40.3959],[26.9204,40.3977],[26.8972,40.4062],[26.863,40.3999],[26.7534,40.403],[26.69,40.38],[26.62,40.33],[26.52,40.27],[26.44,40.21],[26.3982,40.164],[26.4035,40.139],[26.3936,40.1094],[26.3923,40.108],[26.3694,40.1029],[26.365,40.0787],[26.3143,40.0244],[26.2262,40.0015],[26.1978,40.0089],[26.1815,39.9898],[26.1811,39.9897],[26.1809,39.9891],[26.1677,39.9736],[26.1526,39.9426],[26.1565,39.9013],[26.1512,39.8823],[26.1364,39.8376],[26.1502,39.8292],[26.151,39.8031],[26.1406,39.7427],[26.1538,39.7207],[26.1556,39.6638],[26.1534,39.6524],[26.1272,39.6103],[26.1107,39.5979],[26.095,39.5486],[26.07,39.4963]]]}},
{"type":"Feature","properties":{"entityId":"antigonid-asia","from":-310,"to":-300,"certainty":"estimated","source":"유럽 쪽은 Natural Earth 1:10m admin-1(v5.1.2) 현대 행정구역 조각을 그 시기 국경에 맞춰 묶고, 조각이 역사 경계와 다른 곳은 선을 그어 나눈 근사. 유럽 밖(시베리아·중앙아시아·극동)은 대략적인 추정. 운영자 검수 필요"},"geometry":{"type":"Polygon","coordinates":[[[26.07,39.4963],[26.0742,39.4745],[26.113,39.4592],[26.1528,39.4592],[26.1717,39.4631],[26.22,39.4265],[26.22,39.4364],[26.2683,39.4364],[26.2683,39.4205],[26.365,39.4205],[26.365,39.4375],[26.4617,39.4375],[26.4617,39.3987],[26.5101,39.3987],[26.5101,39.2619],[26.5584,39.2619],[26.5584,39.2264],[26.599,39.2264],[26.599,39.1967],[26.6396,39.1967],[26.6396,39.1669],[26.6421,39.1669],[26.6421,39.1372],[26.6815,39.1372],[26.6815,39.1074],[26.7208,39.1074],[26.7208,39.0479],[26.8009,38.9874],[26.8017,38.982],[26.6753,38.78],[26.561,38.5972],[26.5558,38.6054],[26.5056,38.6527],[26.4656,38.6727],[26.4141,38.6794],[26.3563,38.6617],[26.3486,38.6213],[26.3758,38.5286],[26.4038,38.4875],[26.3879,38.4543],[26.4181,38.4649],[26.4294,38.4409],[26.4151,38.3682],[26.3435,38.37],[26.3431,38.37],[26.3219,38.3339],[26.3143,38.3367],[26.3211,38.3777],[26.3076,38.3579],[26.2941,38.3699],[26.2889,38.3406],[26.3076,38.3231],[26.2859,38.3187],[26.2654,38.2867],[26.2388,38.2958],[26.2346,38.2738],[26.2866,38.2611],[26.3286,38.2351],[26.3344,38.2351],[26.3179,38.2086],[26.3181,38.2085],[26.3179,38.2082],[26.5572,38.0264],[26.6768,37.9356],[26.6768,37.9377],[26.7964,37.9377],[26.7964,37.922],[27.0306,37.922],[27.0306,37.8922],[27.1185,37.8922],[27.1185,37.8324],[27.1477,37.8324],[27.1477,37.8025],[27.173,37.8025],[27.173,37.7753],[27.1445,37.7753],[27.1445,37.7428],[27.1161,37.7428],[27.1161,37.7157],[27.0876,37.7157],[27.0876,37.6892],[27.0591,37.6897],[27.0591,37.7067],[27.0306,37.7066],[27.0048,37.7066],[27.0048,37.6863],[27.0208,37.6742],[27.0115,37.6657],[27.0488,37.6501],[27.0507,37.6497],[27.206,37.3898],[27.2075,37.3764],[27.1908,37.3573],[27.2119,37.3573],[27.2334,37.344],[27.2801,37.266],[27.302,37.2293],[27.3239,37.1927],[27.3579,37.1358],[27.349,37.1301],[27.3218,37.1587],[27.3218,37.1254],[27.3011,37.127],[27.3007,37.127],[27.2998,37.1262],[27.2717,37.1289],[27.2604,37.1103],[27.2828,37.1103],[27.2696,37.0981],[27.2391,37.083],[27.2288,37.0618],[27.2527,36.9783],[27.2632,36.9634],[27.3081,36.9594],[27.3006,36.9731],[27.3327,36.9971],[27.3314,37.0023],[27.3436,37.0146],[27.4059,37.0167],[27.4296,37.0158],[27.5784,36.7671],[27.5614,36.7609],[27.4832,36.754],[27.4588,36.7557],[27.4273,36.7357],[27.4143,36.7093],[27.3558,36.7124],[27.3628,36.6851],[27.4557,36.6629],[27.4727,36.6509],[27.4863,36.6652],[27.5486,36.6834],[27.5556,36.6829],[27.5597,36.6746],[27.603,36.6789],[27.6374,36.6682],[27.6427,36.6595],[27.6431,36.6595],[27.6646,36.6598],[27.6712,36.6578],[27.6716,36.6599],[28.0144,36.6653],[28.0207,36.6336],[28.0211,36.6337],[28.0211,36.6336],[28.0881,36.6426],[28.054,36.6096],[28.0344,36.6025],[27.9592,36.6025],[27.9661,36.5759],[27.9909,36.5598],[28.0138,36.5759],[28.048,36.569],[28.0617,36.5963],[28.0881,36.5891],[28.1115,36.6042],[28.1584,36.6675],[28.7335,36.6764],[28.8293,36.6235],[28.8186,36.6117],[28.8587,36.6013],[28.8614,36.6057],[29.106,36.4706],[29.1242,36.4536],[29.1304,36.4114],[29.0964,36.3909],[29.1447,36.3772],[29.1447,36.3493],[29.2186,36.3288],[29.2231,36.3246],[29.2437,36.3138],[29.2612,36.2936],[29.3223,36.2469],[29.3571,36.2357],[29.3702,36.2522],[29.4187,36.2375],[29.4204,36.2306],[29.4262,36.2353],[29.4725,36.2213],[29.4945,36.211],[29.5215,36.206],[29.5229,36.206],[29.585,36.1872],[29.5835,36.1855],[29.5887,36.1861],[29.6342,36.1723],[29.634,36.1571],[29.6682,36.1438],[29.6724,36.1234],[29.6944,36.1455],[29.6983,36.1433],[29.6986,36.1434],[29.6987,36.1433],[29.7457,36.1515],[29.7617,36.137],[29.7953,36.1452],[29.823,36.1649],[30.3566,36.2576],[30.3859,36.243],[30.3861,36.2431],[30.3863,36.243],[30.4,36.2488],[30.4004,36.2481],[30.3986,36.206],[30.4408,36.2393],[30.4517,36.2618],[30.488,36.2878],[30.4668,36.2878],[30.473,36.2985],[30.4835,36.3107],[30.4838,36.3127],[30.5199,36.3419],[30.4942,36.3493],[30.5016,36.3636],[30.4927,36.3708],[30.5046,36.4478],[30.5088,36.4543],[30.5101,36.4583],[30.5487,36.5115],[30.5698,36.528],[30.5811,36.5752],[30.5724,36.5919],[30.6028,36.6465],[30.6203,36.6781],[31.6999,36.6443],[31.8,36.578],[32.2814,36.2591],[32.283,36.2506],[32.3187,36.2286],[32.3655,36.178],[32.4196,36.1595],[32.4373,36.1387],[32.5134,36.103],[32.5452,36.0981],[32.5826,36.0888],[32.6707,36.0467],[32.7606,36.0295],[32.8037,36.0272],[32.8655,36.0678],[32.9279,36.0954],[32.9826,36.0976],[33.0877,36.0828],[33.1071,36.1033],[33.3004,36.1318],[33.3084,36.1322],[33.3093,36.1331],[33.3662,36.1415],[33.3865,36.137],[33.4371,36.1519],[33.4425,36.1527],[33.5215,36.144],[33.5219,36.144],[33.5325,36.1463],[33.5442,36.1445],[33.5523,36.1275],[33.5888,36.1588],[33.661,36.1747],[33.6853,36.1432],[33.7053,36.1817],[33.7177,36.1922],[33.7302,36.1976],[33.9451,36.2134],[33.959,36.2136],[33.9593,36.2145],[34.0259,36.2194],[34.2,36.3651],[34.7134,36.7948],[34.9056,36.7421],[34.9079,36.7404],[34.9004,36.7199],[34.9333,36.7275],[34.9423,36.7263],[34.9435,36.7256],[35.1174,36.6585],[35.2947,36.5725],[35.348,36.5444],[35.409,36.5769],[35.4717,36.5868],[35.552,36.5647],[35.5524,36.5647],[35.8126,36.6016],[35.8379,36.6052],[35.8631,36.6088],[35.8883,36.6123],[35.9639,36.6231],[36.0144,36.6302],[36.1599,36.6509],[36.0328,36.5246],[36.0308,36.5229],[36.0144,36.51],[35.966,36.4719],[35.9424,36.4643],[35.9187,36.4482],[35.9124,36.4296],[35.8832,36.4066],[35.879,36.4009],[35.8735,36.3977],[35.8676,36.3856],[35.8572,36.3714],[35.8159,36.353],[35.7887,36.3203],[35.7965,36.2898],[35.7824,36.2757],[35.7826,36.2755],[35.7824,36.2753],[35.8986,36.1317],[35.9246,36.0704],[35.9551,35.9985],[35.9268,35.9607],[35.9137,35.9433],[35.894,35.917],[35.8851,35.9058],[35.9015,35.9058],[35.9113,35.9178],[35.9803,35.9269],[35.9928,35.9153],[35.9924,35.8773],[36.0803,35.8542],[36.1385,35.8198],[36.1553,35.8222],[36.1688,35.8521],[36.1749,35.9227],[36.1969,35.9517],[36.229,35.9612],[36.269,35.9587],[36.2775,35.9942],[36.2974,36.0007],[36.3367,35.9882],[36.358,35.994],[36.3555,36.0224],[36.3586,36.167],[36.3758,36.2045],[36.373,36.2276],[36.4119,36.2045],[36.4507,36.1999],[36.4689,36.2224],[36.4986,36.2279],[36.5935,36.2181],[36.6643,36.229],[36.6691,36.2599],[36.6488,36.3057],[36.6207,36.322],[36.5878,36.3248],[36.5943,36.3571],[36.5857,36.387],[36.5527,36.4082],[36.5338,36.4625],[36.5355,36.494],[36.5653,36.5325],[36.5693,36.6201],[36.5947,36.6858],[36.6033,36.747],[36.6433,36.8036],[36.6399,36.8281],[36.6596,36.8272],[36.8437,36.7758],[36.9068,36.7726],[36.9647,36.7538],[37.0106,36.7195],[37.0195,36.6858],[37.0145,36.6423],[37.0531,36.6199],[37.1044,36.651],[37.1561,36.6439],[37.2419,36.6586],[37.4045,36.6345],[37.4461,36.6342],[37.5221,36.6736],[37.5934,36.7105],[37.6541,36.7321],[37.8197,36.7605],[38.026,36.835],[38.0212,36.8711],[38.0406,36.8804],[38.0187,36.9042],[38.0079,36.9571],[37.9669,36.9904],[37.9641,37.014],[37.9788,37.05],[37.9226,37.0419],[37.8682,37.0776],[37.8762,37.1308],[37.8435,37.1866],[37.8525,37.2265],[37.8747,37.2133],[37.8669,37.2493],[37.8406,37.2679],[37.8577,37.3129],[37.879,37.3251],[37.8856,37.3506],[37.9744,37.4354],[37.9897,37.4447],[38.0399,37.446],[38.0655,37.4368],[38.0945,37.4535],[38.1256,37.4337],[38.1702,37.4255],[38.1857,37.4129],[38.2068,37.4535],[38.2499,37.4485],[38.272,37.4764],[38.3408,37.4944],[38.3723,37.4839],[38.4948,37.5006],[38.5154,37.5111],[38.6456,37.6242],[38.8685,37.6514],[38.8005,37.697],[38.836,37.6947],[38.8824,37.7149],[38.9231,37.7135],[38.8889,37.7408],[38.9018,37.7527],[38.9647,37.7613],[38.9539,37.8014],[38.9306,37.8075],[38.8889,37.7886],[38.9085,37.8168],[38.9368,37.8296],[38.9709,37.8228],[38.9709,37.8507],[38.9892,37.878],[38.9783,37.906],[39.0272,37.918],[39.0505,37.9397],[39.0603,37.9879],[39.0896,38.007],[39.1499,38.0207],[39.189,38.0431],[39.2346,38.0761],[39.2247,38.0903],[39.2563,38.1531],[39.2526,38.1797],[39.2219,38.205],[39.1413,38.1786],[39.1149,38.1927],[39.1485,38.2842],[39.145,38.3078],[39.1149,38.3435],[39.0734,38.3479],[38.9922,38.326],[38.9572,38.3305],[38.9111,38.3607],[38.8855,38.364],[38.861,38.3988],[38.8269,38.4186],[38.8105,38.4403],[38.7177,38.4186],[38.6889,38.4207],[38.6078,38.4534],[38.5667,38.4646],[38.4817,38.4759],[38.4566,38.4849],[38.4256,38.5124],[38.403,38.508],[38.3735,38.5365],[38.3489,38.5956],[38.3757,38.6452],[38.4024,38.6734],[38.4604,38.6924],[38.4781,38.7254],[38.4713,38.7408],[38.5089,38.7568],[38.6187,38.7482],[38.6357,38.7817],[38.6239,38.8126],[38.6194,38.8959],[38.5899,38.9508],[38.5893,38.9922],[38.6168,39.0203],[38.6879,39.023],[38.6236,39.0822],[38.5356,39.1159],[38.4409,39.1195],[38.3617,39.1503],[38.2839,39.1297],[38.2123,39.0876],[38.1477,39.0726],[38.0802,39.0802],[38.01,39.0637],[37.932,39.0623],[37.7858,38.9983],[37.7022,38.9843],[37.6176,39.017],[37.5736,39.0082],[37.5516,38.9694],[37.5614,38.9222],[37.5969,38.8343],[37.5805,38.7968],[37.5098,38.7366],[37.4447,38.7082],[37.3936,38.6613],[37.3429,38.6249],[37.3,38.6093],[37.3,40.2532],[37.3508,40.259],[37.4221,40.2955],[37.5241,40.317],[37.5841,40.382],[37.6349,40.4612],[37.617,40.5212],[37.5841,40.5694],[37.4488,40.5759],[37.2197,40.6977],[37.1525,40.7019],[37.0846,40.6943],[37.0134,40.6989],[36.9468,40.7203],[36.8954,40.7447],[36.8118,40.7661],[36.7565,40.792],[36.6989,40.8068],[36.6875,40.836],[36.7052,40.8625],[36.746,40.875],[36.8284,40.8878],[36.8807,40.9124],[36.9203,40.9458],[36.9991,40.9797],[37.0423,41.0418],[37.0984,41.0866],[37.1517,41.1468],[37.1489,41.1468],[37.1489,41.2497],[37.1739,41.2497],[37.1739,41.2661],[37.1489,41.2728],[37.1238,41.2796],[37.0736,41.2931],[36.9132,41.3364],[36.8731,41.3526],[36.071,41.676],[36.0449,41.7015],[36.0387,41.689],[36.033,41.6914],[35.9779,41.7297],[35.9627,41.7197],[35.9466,41.7262],[35.9568,41.7363],[35.9403,41.7287],[35.7284,41.8142],[35.6225,41.8569],[35.5961,41.8675],[35.5696,41.8782],[35.5696,41.7646],[35.5431,41.7646],[35.5431,41.7309],[35.5166,41.7309],[35.5166,41.639],[35.5001,41.6416],[35.4608,41.5742],[35.456,41.5236],[35.4723,41.4755],[35.4709,41.4171],[35.4895,41.3735],[35.5048,41.2845],[35.4851,41.2728],[35.4338,41.2833],[35.3831,41.2602],[35.3399,41.2545],[35.2963,41.2583],[35.2397,41.2892],[35.1944,41.2934],[35.1958,41.311],[35.1406,41.3415],[35.1328,41.3771],[35.1133,41.3998],[35.1024,41.3853],[35.0239,41.3588],[34.9913,41.3348],[34.9345,41.3179],[34.9418,41.2999],[34.888,41.2698],[34.8761,41.233],[34.8373,41.2016],[34.7239,41.2293],[34.6704,41.2661],[34.641,41.2721],[34.5741,41.2705],[34.5575,41.2846],[34.4985,41.2859],[34.4719,41.3108],[34.4798,41.4416],[34.4629,41.4798],[34.472,41.5185],[34.4918,41.5523],[34.5533,41.5912],[34.5879,41.6575],[34.5325,41.7132],[34.4661,41.7275],[34.3443,41.7325],[34.2842,41.7453],[34.2051,41.7478],[34.1404,41.7671],[34.1422,41.8002],[34.1926,41.8451],[34.2209,41.9035],[34.2161,41.9601],[34.1995,41.9619],[34.1995,42.0276],[34.1518,42.027],[33.5143,42.0185],[33.4818,42.0106],[33.3895,42.0168],[33.3609,42.0207],[33.3245,42.019],[33.2916,42.0062],[33.2839,42.0052],[33.0586,41.93],[33.0081,41.9173],[32.9667,41.8994],[32.9455,41.8923],[32.7903,41.8596],[32.7554,41.8591],[32.6792,41.8363],[32.6126,41.8395],[32.5836,41.816],[32.5681,41.8127],[32.5484,41.8157],[32.4685,41.783],[32.3785,41.7534],[32.3772,41.7541],[32.3754,41.7524],[32.3047,41.7291],[32.296,41.7236],[32.2634,41.7202],[32.2434,41.6929],[32.2322,41.6833],[32.1274,41.617],[32.0604,41.5809],[32.1341,41.5994],[32.1901,41.5571],[32.2507,41.5369],[32.2709,41.4843],[32.3072,41.4156],[32.287,41.3308],[32.1981,41.2419],[32.182,41.1893],[32.1496,41.1085],[32.1494,41.0192],[32.1983,41.0181],[32.284,41.0039],[32.2783,40.9486],[32.3303,40.9328],[32.3769,40.9106],[32.4922,40.8678],[32.5295,40.8152],[32.5262,40.7887],[32.5071,40.7052],[32.4713,40.6939],[32.4427,40.673],[32.439,40.619],[32.4767,40.539],[32.4239,40.4856],[32.3961,40.4483],[32.3154,40.4152],[32.1768,40.4313],[32.1349,40.421],[32.0931,40.3989],[31.9751,40.3771],[31.9061,40.3534],[31.8214,40.3384],[31.6965,40.34],[31.6577,40.3361],[31.5679,40.3085],[31.5356,40.3116],[31.4524,40.332],[31.4197,40.3597],[31.2509,40.346],[31.163,40.3869],[31.0692,40.4113],[31.0439,40.3899],[31.0341,40.3524],[31.0382,40.2922],[31.0072,40.2416],[30.9254,40.2057],[30.8636,40.1428],[30.7988,40.1509],[30.7386,40.1678],[30.7011,40.204],[30.64,40.2872],[30.626,40.3315],[30.5736,40.341],[30.4985,40.3396],[30.4577,40.3791],[30.4263,40.394],[30.3507,40.4021],[30.3075,40.399],[30.1691,40.371],[30.081,40.3914],[30.0046,40.4477],[29.9688,40.4887],[29.9408,40.5335],[29.9262,40.577],[29.7889,40.6147],[29.7204,40.6043],[29.5353,40.5524],[29.4771,40.5498],[29.4207,40.5632],[29.3581,40.5729],[29.2939,40.5222],[29.2305,40.5116],[29.0784,40.5632],[29.0475,40.5602],[28.978,40.5732],[28.9803,40.4645],[28.9956,40.4732],[28.9956,40.4182],[28.9177,40.4182],[28.9177,40.4416],[28.8397,40.4416],[28.8397,40.4441],[28.8008,40.4441],[28.8008,40.4592],[28.7618,40.4582],[28.6838,40.4563],[28.5278,40.4523],[28.2159,40.4444],[28.177,40.4434],[28.138,40.4425],[28.06,40.4405],[27.985,40.4386],[28.0168,40.4511],[28.0344,40.4744],[28.0142,40.4912],[27.9699,40.503],[27.8047,40.5228],[27.7894,40.5142],[27.76,40.5371],[27.7332,40.5306],[27.6843,40.5023],[27.7258,40.4614],[27.7502,40.4576],[27.7563,40.4328],[27.589,40.4286],[27.5522,40.4276],[27.5154,40.4267],[27.4417,40.4248],[27.324,40.4219],[27.3034,40.4584],[27.2715,40.4678],[27.2377,40.4557],[27.1451,40.4537],[27.1431,40.4539],[27.126,40.4533],[27.1207,40.4532],[27.1206,40.4531],[27.0964,40.4523],[27.0333,40.4068],[27.0127,40.3959],[26.9204,40.3977],[26.8972,40.4062],[26.863,40.3999],[26.7534,40.403],[26.69,40.38],[26.62,40.33],[26.52,40.27],[26.44,40.21],[26.3982,40.164],[26.4035,40.139],[26.3936,40.1094],[26.3923,40.108],[26.3694,40.1029],[26.365,40.0787],[26.3143,40.0244],[26.2262,40.0015],[26.1978,40.0089],[26.1815,39.9898],[26.1811,39.9897],[26.1809,39.9891],[26.1677,39.9736],[26.1526,39.9426],[26.1565,39.9013],[26.1512,39.8823],[26.1364,39.8376],[26.1502,39.8292],[26.151,39.8031],[26.1406,39.7427],[26.1538,39.7207],[26.1556,39.6638],[26.1534,39.6524],[26.1272,39.6103],[26.1107,39.5979],[26.095,39.5486],[26.07,39.4963]]]}}
]}
