{"type":"FeatureCollection","features":[
{"type":"Feature","properties":{"entityId":"apulia-duchy","from":1042,"to":1060,"certainty":"estimated","source":"유럽 쪽은 Natural Earth 1:10m admin-1(v5.1.2) 현대 행정구역 조각을 그 시기 국경에 맞춰 묶고, 조각이 역사 경계와 다른 곳은 선을 그어 나눈 근사. 유럽 밖(시베리아·중앙아시아·극동)은 대략적인 추정. 운영자 검수 필요"},"geometry":{"type":"Polygon","coordinates":[[[15.561,39.8571],[15.561,39.9012],[15.5741,39.9012],[15.5741,39.9454],[15.5741,39.9895],[15.6195,39.9895],[15.6195,40.0237],[15.6645,40.0237],[15.6645,40.0259],[15.6467,40.0469],[15.6643,40.067],[15.6498,40.0808],[15.6931,40.1305],[15.694,40.162],[15.7239,40.1909],[15.7755,40.2198],[15.7904,40.2565],[15.7485,40.3002],[15.717,40.3184],[15.7063,40.3743],[15.6561,40.3942],[15.6228,40.4234],[15.5922,40.4333],[15.5764,40.4575],[15.5349,40.494],[15.5396,40.52],[15.5176,40.5647],[15.4456,40.6057],[15.481,40.6408],[15.4876,40.6619],[15.4352,40.6794],[15.3785,40.7294],[15.3649,40.7924],[15.3443,40.8207],[15.3658,40.8439],[15.3692,40.899],[15.4709,40.9018],[15.5239,40.9242],[15.544,40.9439],[15.5779,41.011],[15.5586,41.0551],[15.4554,41.0794],[15.4118,41.1039],[15.3826,41.0975],[15.2876,41.1025],[15.2553,41.1277],[15.2089,41.1494],[15.203,41.1657],[15.2476,41.2015],[15.2465,41.2288],[15.2676,41.2379],[15.2521,41.2588],[15.1787,41.2891],[15.1435,41.2746],[15.1282,41.3077],[15.0801,41.3263],[15.0667,41.3585],[15.1019,41.3906],[15.0936,41.4302],[15.0507,41.4607],[14.9953,41.4821],[14.935,41.526],[14.939,41.5631],[14.9339,41.6201],[14.9534,41.6342],[15.0176,41.6197],[15.1126,41.6856],[15.1447,41.6937],[15.1521,41.7091],[15.1159,41.716],[15.1032,41.7744],[15.1061,41.8298],[15.132,41.8696],[15.1435,41.9312],[15.1441,41.9312],[15.1441,41.9559],[15.177,41.9561],[15.4408,41.9578],[15.9246,41.961],[15.925,41.961],[15.95,41.9385],[15.9642,41.9392],[15.9643,41.9392],[15.9646,41.9392],[15.9685,41.9388],[16.0271,41.9441],[16.1405,41.9199],[16.1586,41.8982],[16.1662,41.8958],[16.1688,41.886],[16.176,41.8774],[16.1922,41.8214],[16.1929,41.7909],[16.1535,41.7556],[16.163,41.7471],[16.1698,41.741],[16.1696,41.7408],[16.1698,41.7406],[16.163,41.7358],[15.9241,41.5658],[15.9051,41.5523],[15.9029,41.5357],[16.0013,41.4961],[16.001,41.4961],[16.001,41.4612],[15.974,41.4612],[15.974,41.4527],[15.9717,41.4539],[15.9403,41.4297],[15.9611,41.421],[16.0332,41.3672],[15.982,41.3484],[15.987,41.3068],[16.0202,41.2352],[15.9482,41.1817],[15.8583,41.1368],[15.9004,41.1011],[15.9533,41.0854],[16.0313,41.0169],[16.0165,40.9803],[15.9851,40.9645],[15.9876,40.9499],[16.119,40.9042],[16.1649,40.9228],[16.1966,40.9114],[16.2082,40.9035],[16.2454,40.8375],[16.1603,40.8047],[16.1215,40.7961],[16.1172,40.7699],[16.1492,40.7225],[16.1458,40.6957],[16.0562,40.6564],[16.0528,40.6323],[16.1192,40.5827],[16.0983,40.5548],[16.0958,40.5293],[16.1303,40.4723],[16.1365,40.4452],[16.1075,40.4162],[16.109,40.4032],[16.1529,40.3737],[16.1757,40.2988],[16.1983,40.2724],[16.2338,40.2651],[16.3193,40.2801],[16.331,40.3065],[16.3746,40.3099],[16.3715,40.273],[16.351,40.207],[16.3942,40.1577],[16.363,40.1366],[16.3557,40.1179],[16.3816,40.0651],[16.3988,40.0555],[16.3837,39.9934],[16.3653,39.9749],[16.3453,39.9326],[16.3543,39.9008],[16.3031,39.9372],[16.2627,39.9422],[16.2149,39.929],[16.1974,39.9145],[16.0689,39.9067],[16.0154,39.9484],[16.0162,39.987],[15.9769,39.9806],[15.9519,40.0044],[15.9203,40.004],[15.9035,39.9855],[15.8583,40.0082],[15.7765,39.9653],[15.7458,39.9246],[15.7397,39.9382],[15.7283,39.9382],[15.7283,39.8955],[15.7104,39.8955],[15.692,39.8955],[15.665,39.8955],[15.665,39.8528],[15.6195,39.8528],[15.6195,39.8571],[15.5903,39.8571],[15.561,39.8571]],[[15.9733,40.6505],[15.9398,40.6381],[15.9646,40.6083],[15.9845,40.6058],[15.9832,40.6468],[15.9733,40.6505]]]}},
{"type":"Feature","properties":{"entityId":"apulia-duchy","from":1060,"to":1071,"certainty":"estimated","source":"유럽 쪽은 Natural Earth 1:10m admin-1(v5.1.2) 현대 행정구역 조각을 그 시기 국경에 맞춰 묶고, 조각이 역사 경계와 다른 곳은 선을 그어 나눈 근사. 유럽 밖(시베리아·중앙아시아·극동)은 대략적인 추정. 운영자 검수 필요"},"geometry":{"type":"Polygon","coordinates":[[[16.8939,38.8797],[16.8616,38.8751],[16.797,38.866],[16.6985,38.852],[16.6162,38.8001],[16.5586,38.715],[16.5687,38.5593],[16.577,38.5286],[16.5735,38.4673],[16.5614,38.4163],[16.4671,38.3487],[16.4351,38.34],[16.4188,38.3333],[16.2814,38.2498],[16.2186,38.1749],[16.134,38.0389],[16.1255,38.0048],[16.09,37.9492],[16.0632,37.9327],[16.001,37.919],[15.9421,37.9331],[15.7762,37.9258],[15.6838,37.9086],[15.6838,37.9087],[15.6834,37.9086],[15.6834,37.909],[15.6839,37.9559],[15.6658,37.9669],[15.6351,38.0091],[15.6503,38.0308],[15.6474,38.0345],[15.6468,38.0594],[15.624,38.0921],[15.6448,38.1366],[15.6441,38.162],[15.6328,38.2203],[15.6506,38.241],[15.6954,38.2532],[15.7014,38.2623],[15.7055,38.2637],[15.7721,38.4379],[15.7897,38.484],[15.8074,38.5302],[15.8428,38.6226],[15.8355,38.6282],[15.8445,38.6604],[15.8589,38.665],[15.8922,38.7519],[15.9223,38.7816],[15.9813,38.8399],[16.0108,38.869],[16.0403,38.8981],[16.108,38.965],[16.0723,39.0182],[16.0646,39.0297],[16.0388,39.0681],[16.013,39.1065],[15.9537,39.1948],[15.8351,39.3714],[15.7194,39.5436],[15.6096,39.7246],[15.556,39.8129],[15.5292,39.8571],[15.5317,39.8571],[15.561,39.8571],[15.561,39.9012],[15.5741,39.9012],[15.5741,39.9454],[15.5741,39.9895],[15.6195,39.9895],[15.6195,40.0237],[15.6645,40.0237],[15.6645,40.0259],[15.6467,40.0469],[15.6643,40.067],[15.6498,40.0808],[15.6931,40.1305],[15.694,40.162],[15.7239,40.1909],[15.7755,40.2198],[15.7904,40.2565],[15.7485,40.3002],[15.717,40.3184],[15.7063,40.3743],[15.6561,40.3942],[15.6228,40.4234],[15.5922,40.4333],[15.5764,40.4575],[15.5349,40.494],[15.5396,40.52],[15.5176,40.5647],[15.4456,40.6057],[15.481,40.6408],[15.4876,40.6619],[15.4352,40.6794],[15.3785,40.7294],[15.3649,40.7924],[15.3443,40.8207],[15.3658,40.8439],[15.3692,40.899],[15.4709,40.9018],[15.5239,40.9242],[15.544,40.9439],[15.5779,41.011],[15.5586,41.0551],[15.4554,41.0794],[15.4118,41.1039],[15.3826,41.0975],[15.2876,41.1025],[15.2553,41.1277],[15.2089,41.1494],[15.203,41.1657],[15.2476,41.2015],[15.2465,41.2288],[15.2676,41.2379],[15.2521,41.2588],[15.1787,41.2891],[15.1435,41.2746],[15.1282,41.3077],[15.0801,41.3263],[15.0667,41.3585],[15.1019,41.3906],[15.0936,41.4302],[15.0507,41.4607],[14.9953,41.4821],[14.935,41.526],[14.939,41.5631],[14.9339,41.6201],[14.9534,41.6342],[15.0176,41.6197],[15.1126,41.6856],[15.1447,41.6937],[15.1521,41.7091],[15.1159,41.716],[15.1032,41.7744],[15.1061,41.8298],[15.132,41.8696],[15.1435,41.9312],[15.1441,41.9312],[15.1441,41.9559],[15.177,41.9561],[15.4408,41.9578],[15.9246,41.961],[15.925,41.961],[15.95,41.9385],[15.9642,41.9392],[15.9643,41.9392],[15.9646,41.9392],[15.9685,41.9388],[16.0271,41.9441],[16.1405,41.9199],[16.1586,41.8982],[16.1662,41.8958],[16.1688,41.886],[16.176,41.8774],[16.1922,41.8214],[16.1929,41.7909],[16.1535,41.7556],[16.163,41.7471],[16.1698,41.741],[16.1696,41.7408],[16.1698,41.7406],[16.163,41.7358],[15.9241,41.5658],[15.9051,41.5523],[15.9029,41.5357],[16.0013,41.4961],[16.001,41.4961],[16.001,41.4612],[15.974,41.4612],[15.974,41.4527],[15.9717,41.4539],[15.9403,41.4297],[15.9611,41.421],[16.0332,41.3672],[15.982,41.3484],[15.987,41.3068],[16.0202,41.2352],[15.9482,41.1817],[15.8583,41.1368],[15.9004,41.1011],[15.9533,41.0854],[16.0313,41.0169],[16.0165,40.9803],[15.9851,40.9645],[15.9876,40.9499],[16.119,40.9042],[16.1649,40.9228],[16.1966,40.9114],[16.2082,40.9035],[16.2454,40.8375],[16.1603,40.8047],[16.1215,40.7961],[16.1172,40.7699],[16.1492,40.7225],[16.1458,40.6957],[16.0562,40.6564],[16.0528,40.6323],[16.1192,40.5827],[16.0983,40.5548],[16.0958,40.5293],[16.1303,40.4723],[16.1365,40.4452],[16.1075,40.4162],[16.109,40.4032],[16.1529,40.3737],[16.1757,40.2988],[16.1983,40.2724],[16.2338,40.2651],[16.3193,40.2801],[16.331,40.3065],[16.3746,40.3099],[16.3715,40.273],[16.351,40.207],[16.3942,40.1577],[16.363,40.1366],[16.3557,40.1179],[16.3816,40.0651],[16.3988,40.0555],[16.4103,40.1082],[16.4269,40.1366],[16.45,40.1244],[16.5167,40.1213],[16.5589,40.1268],[16.64,40.1187],[16.6392,40.1179],[16.6392,40.1113],[16.6572,40.1113],[16.6414,40.0799],[16.6097,40.0172],[16.6316,39.9662],[16.5892,39.9198],[16.5436,39.8864],[16.5298,39.8591],[16.5232,39.7588],[16.8302,39.6007],[17.0004,39.5131],[17.0418,39.4918],[17.0832,39.4705],[17.0855,39.4693],[17.1706,39.4255],[17.1705,39.4251],[17.1706,39.4251],[17.1694,39.4198],[17.1283,39.2389],[17.1457,39.2107],[17.1254,39.133],[17.159,39.0404],[17.2064,39.0295],[17.1724,39.0052],[17.1724,39.0034],[17.1742,38.9984],[17.1741,38.9983],[17.1742,38.998],[17.1724,38.9961],[17.1724,38.9605],[17.1277,38.9288],[17.104,38.8991],[17.095,38.9191],[17.0706,38.9228],[17.0553,38.9175],[17.0518,38.9021],[16.9261,38.8843],[16.8939,38.8797]],[[15.9733,40.6505],[15.9398,40.6381],[15.9646,40.6083],[15.9845,40.6058],[15.9832,40.6468],[15.9733,40.6505]]]}},
{"type":"Feature","properties":{"entityId":"apulia-duchy","from":1071,"to":1077,"certainty":"estimated","source":"유럽 쪽은 Natural Earth 1:10m admin-1(v5.1.2) 현대 행정구역 조각을 그 시기 국경에 맞춰 묶고, 조각이 역사 경계와 다른 곳은 선을 그어 나눈 근사. 유럽 밖(시베리아·중앙아시아·극동)은 대략적인 추정. 운영자 검수 필요"},"geometry":{"type":"Polygon","coordinates":[[[18.1538,40.492],[18.2117,40.4647],[18.2383,40.4577],[18.2588,40.4307],[18.2887,40.41],[18.3766,40.3565],[18.4093,40.2976],[18.4373,40.2679],[18.5174,40.1142],[18.4919,40.0847],[18.4836,40.0552],[18.4459,40.0303],[18.4234,39.9875],[18.3948,39.9049],[18.4001,39.8786],[18.3865,39.8253],[18.3683,39.7966],[18.3304,39.8034],[18.2997,39.8223],[18.2938,39.811],[18.2935,39.8112],[18.2934,39.811],[18.2654,39.8346],[18.2113,39.8393],[18.1619,39.8605],[18.1306,39.8835],[18.0715,39.9115],[17.9954,40.0027],[18.0221,40.0217],[18.0051,40.0449],[17.9675,40.0573],[17.9889,40.0676],[17.8202,40.2098],[17.7725,40.25],[17.739,40.2782],[17.7248,40.2809],[17.6293,40.2989],[17.5121,40.3037],[17.4881,40.3128],[17.4762,40.3139],[17.4241,40.331],[17.3994,40.331],[17.3781,40.3462],[17.0667,40.4049],[16.911,40.4342],[16.9078,40.4348],[16.8724,40.3966],[16.8285,40.3493],[16.807,40.3261],[16.7553,40.2546],[16.7376,40.211],[16.6795,40.1461],[16.6746,40.1427],[16.6678,40.1322],[16.6572,40.1113],[16.6414,40.0799],[16.6097,40.0172],[16.6316,39.9662],[16.5892,39.9198],[16.5436,39.8864],[16.5298,39.8591],[16.5232,39.7588],[16.8302,39.6007],[17.0004,39.5131],[17.0418,39.4918],[17.0832,39.4705],[17.0855,39.4693],[17.1706,39.4255],[17.1705,39.4251],[17.1706,39.4251],[17.1694,39.4198],[17.1283,39.2389],[17.1457,39.2107],[17.1254,39.133],[17.159,39.0404],[17.2064,39.0295],[17.1724,39.0052],[17.1724,39.0034],[17.1742,38.9984],[17.1741,38.9983],[17.1742,38.998],[17.1724,38.9961],[17.1724,38.9605],[17.1277,38.9288],[17.104,38.8991],[17.095,38.9191],[17.0706,38.9228],[17.0553,38.9175],[17.0518,38.9021],[16.9261,38.8843],[16.8939,38.8797],[16.8616,38.8751],[16.797,38.866],[16.6985,38.852],[16.6162,38.8001],[16.5586,38.715],[16.5687,38.5593],[16.577,38.5286],[16.5735,38.4673],[16.5614,38.4163],[16.4671,38.3487],[16.4351,38.34],[16.4188,38.3333],[16.2814,38.2498],[16.2186,38.1749],[16.134,38.0389],[16.1255,38.0048],[16.09,37.9492],[16.0632,37.9327],[16.001,37.919],[15.9421,37.9331],[15.7762,37.9258],[15.6838,37.9086],[15.6838,37.9087],[15.6834,37.9086],[15.6834,37.909],[15.6839,37.9559],[15.6658,37.9669],[15.6351,38.0091],[15.6503,38.0308],[15.6474,38.0345],[15.6468,38.0594],[15.624,38.0921],[15.6448,38.1366],[15.6441,38.162],[15.6328,38.2203],[15.6506,38.241],[15.6954,38.2532],[15.7014,38.2623],[15.7055,38.2637],[15.7721,38.4379],[15.7897,38.484],[15.8074,38.5302],[15.8428,38.6226],[15.8355,38.6282],[15.8445,38.6604],[15.8589,38.665],[15.8922,38.7519],[15.9223,38.7816],[15.9813,38.8399],[16.0108,38.869],[16.0403,38.8981],[16.108,38.965],[16.0723,39.0182],[16.0646,39.0297],[16.0388,39.0681],[16.013,39.1065],[15.9537,39.1948],[15.8351,39.3714],[15.7194,39.5436],[15.6096,39.7246],[15.556,39.8129],[15.5292,39.8571],[15.5317,39.8571],[15.561,39.8571],[15.561,39.9012],[15.5741,39.9012],[15.5741,39.9454],[15.5741,39.9895],[15.6195,39.9895],[15.6195,40.0237],[15.6645,40.0237],[15.6645,40.0259],[15.6467,40.0469],[15.6643,40.067],[15.6498,40.0808],[15.6931,40.1305],[15.694,40.162],[15.7239,40.1909],[15.7755,40.2198],[15.7904,40.2565],[15.7485,40.3002],[15.717,40.3184],[15.7063,40.3743],[15.6561,40.3942],[15.6228,40.4234],[15.5922,40.4333],[15.5764,40.4575],[15.5349,40.494],[15.5396,40.52],[15.5176,40.5647],[15.4456,40.6057],[15.481,40.6408],[15.4876,40.6619],[15.4352,40.6794],[15.3785,40.7294],[15.3649,40.7924],[15.3443,40.8207],[15.3658,40.8439],[15.3692,40.899],[15.4709,40.9018],[15.5239,40.9242],[15.544,40.9439],[15.5779,41.011],[15.5586,41.0551],[15.4554,41.0794],[15.4118,41.1039],[15.3826,41.0975],[15.2876,41.1025],[15.2553,41.1277],[15.2089,41.1494],[15.203,41.1657],[15.2476,41.2015],[15.2465,41.2288],[15.2676,41.2379],[15.2521,41.2588],[15.1787,41.2891],[15.1435,41.2746],[15.1282,41.3077],[15.0801,41.3263],[15.0667,41.3585],[15.1019,41.3906],[15.0936,41.4302],[15.0507,41.4607],[14.9953,41.4821],[14.935,41.526],[14.939,41.5631],[14.9339,41.6201],[14.9534,41.6342],[15.0176,41.6197],[15.1126,41.6856],[15.1447,41.6937],[15.1521,41.7091],[15.1159,41.716],[15.1032,41.7744],[15.1061,41.8298],[15.132,41.8696],[15.1435,41.9312],[15.1441,41.9312],[15.1441,41.9559],[15.177,41.9561],[15.4408,41.9578],[15.9246,41.961],[15.925,41.961],[15.95,41.9385],[15.9642,41.9392],[15.9643,41.9392],[15.9646,41.9392],[15.9685,41.9388],[16.0271,41.9441],[16.1405,41.9199],[16.1586,41.8982],[16.1662,41.8958],[16.1688,41.886],[16.176,41.8774],[16.1922,41.8214],[16.1929,41.7909],[16.1535,41.7556],[16.163,41.7471],[16.1698,41.741],[16.1696,41.7408],[16.1698,41.7406],[16.163,41.7358],[15.9241,41.5658],[15.9051,41.5523],[15.9029,41.5357],[16.0013,41.4961],[16.0279,41.4854],[16.163,41.4311],[16.4347,41.3218],[16.5026,41.2945],[16.5705,41.2671],[16.6045,41.2535],[16.6384,41.2398],[16.7063,41.2125],[16.7854,41.1807],[16.9779,41.1013],[17.0571,41.0819],[17.2031,41.021],[17.2764,40.9802],[17.2823,40.9757],[17.3909,40.931],[17.4181,40.9197],[17.4452,40.9086],[17.4995,40.8862],[17.5198,40.8778],[17.7166,40.758],[17.7484,40.7476],[17.8248,40.7049],[17.8577,40.6922],[17.9219,40.683],[17.9558,40.6705],[17.9552,40.6547],[17.9554,40.6546],[17.9617,40.6474],[18.007,40.6507],[18.0158,40.6252],[18.0432,40.602],[18.0381,40.5624],[18.1538,40.492]]]}},
{"type":"Feature","properties":{"entityId":"apulia-duchy","from":1077,"to":1128,"certainty":"estimated","source":"유럽 쪽은 Natural Earth 1:10m admin-1(v5.1.2) 현대 행정구역 조각을 그 시기 국경에 맞춰 묶고, 조각이 역사 경계와 다른 곳은 선을 그어 나눈 근사. 유럽 밖(시베리아·중앙아시아·극동)은 대략적인 추정. 운영자 검수 필요"},"geometry":{"type":"Polygon","coordinates":[[[14.5138,41.389],[14.4959,41.3904],[14.4619,41.4231],[14.3827,41.442],[14.2951,41.4694],[14.2665,41.4852],[14.2225,41.4948],[14.1637,41.4907],[14.1209,41.4957],[14.083,41.4546],[14.1058,41.4188],[14.1091,41.3927],[14.0393,41.3946],[14.0256,41.4038],[13.9846,41.461],[13.9618,41.4707],[13.9809,41.5043],[14.0101,41.5289],[13.9943,41.583],[13.9926,41.6283],[13.9457,41.6882],[13.9946,41.6869],[14.0352,41.7036],[14.063,41.7288],[14.0988,41.7251],[14.186,41.7705],[14.1432,41.8147],[14.1606,41.8418],[14.1916,41.8396],[14.2294,41.8774],[14.2829,41.9062],[14.3336,41.8691],[14.3724,41.8736],[14.4329,41.837],[14.4323,41.8139],[14.4576,41.7658],[14.4904,41.7761],[14.5146,41.7861],[14.5766,41.8556],[14.6484,41.9249],[14.6503,41.9504],[14.6735,41.9594],[14.7443,42.013],[14.7634,42.0779],[14.7675,42.0766],[14.7675,42.0885],[14.7675,42.1157],[14.7849,42.1157],[14.8105,42.1157],[14.8105,42.1342],[14.8362,42.1342],[14.8362,42.1701],[14.848,42.1701],[14.8618,42.1601],[14.9131,42.123],[15.0451,42.0274],[15.1111,41.9796],[15.1438,41.9559],[15.1441,41.9559],[15.177,41.9561],[15.4408,41.9578],[15.9246,41.961],[15.925,41.961],[15.95,41.9385],[15.9642,41.9392],[15.9643,41.9392],[15.9646,41.9392],[15.9685,41.9388],[16.0271,41.9441],[16.1405,41.9199],[16.1586,41.8982],[16.1662,41.8958],[16.1688,41.886],[16.176,41.8774],[16.1922,41.8214],[16.1929,41.7909],[16.1535,41.7556],[16.163,41.7471],[16.1698,41.741],[16.1696,41.7408],[16.1698,41.7406],[16.163,41.7358],[15.9241,41.5658],[15.9051,41.5523],[15.9029,41.5357],[16.0013,41.4961],[16.0279,41.4854],[16.163,41.4311],[16.4347,41.3218],[16.5026,41.2945],[16.5705,41.2671],[16.6045,41.2535],[16.6384,41.2398],[16.7063,41.2125],[16.7854,41.1807],[16.9779,41.1013],[17.0571,41.0819],[17.2031,41.021],[17.2764,40.9802],[17.2823,40.9757],[17.3909,40.931],[17.4181,40.9197],[17.4452,40.9086],[17.4995,40.8862],[17.5198,40.8778],[17.7166,40.758],[17.7484,40.7476],[17.8248,40.7049],[17.8577,40.6922],[17.9219,40.683],[17.9558,40.6705],[17.9552,40.6547],[17.9554,40.6546],[17.9617,40.6474],[18.007,40.6507],[18.0158,40.6252],[18.0432,40.602],[18.0381,40.5624],[18.1538,40.492],[18.2117,40.4647],[18.2383,40.4577],[18.2588,40.4307],[18.2887,40.41],[18.3766,40.3565],[18.4093,40.2976],[18.4373,40.2679],[18.5174,40.1142],[18.4919,40.0847],[18.4836,40.0552],[18.4459,40.0303],[18.4234,39.9875],[18.3948,39.9049],[18.4001,39.8786],[18.3865,39.8253],[18.3683,39.7966],[18.3304,39.8034],[18.2997,39.8223],[18.2938,39.811],[18.2935,39.8112],[18.2934,39.811],[18.2654,39.8346],[18.2113,39.8393],[18.1619,39.8605],[18.1306,39.8835],[18.0715,39.9115],[17.9954,40.0027],[18.0221,40.0217],[18.0051,40.0449],[17.9675,40.0573],[17.9889,40.0676],[17.8202,40.2098],[17.7725,40.25],[17.739,40.2782],[17.7248,40.2809],[17.6293,40.2989],[17.5121,40.3037],[17.4881,40.3128],[17.4762,40.3139],[17.4241,40.331],[17.3994,40.331],[17.3781,40.3462],[17.0667,40.4049],[16.911,40.4342],[16.9078,40.4348],[16.8724,40.3966],[16.8285,40.3493],[16.807,40.3261],[16.7553,40.2546],[16.7376,40.211],[16.6795,40.1461],[16.6746,40.1427],[16.6678,40.1322],[16.6572,40.1113],[16.6414,40.0799],[16.6097,40.0172],[16.6316,39.9662],[16.5892,39.9198],[16.5436,39.8864],[16.5298,39.8591],[16.5232,39.7588],[16.8302,39.6007],[17.0004,39.5131],[17.0418,39.4918],[17.0832,39.4705],[17.0855,39.4693],[17.1706,39.4255],[17.1705,39.4251],[17.1706,39.4251],[17.1694,39.4198],[17.1283,39.2389],[17.1457,39.2107],[17.1254,39.133],[17.159,39.0404],[17.2064,39.0295],[17.1724,39.0052],[17.1724,39.0034],[17.1742,38.9984],[17.1741,38.9983],[17.1742,38.998],[17.1724,38.9961],[17.1724,38.9605],[17.1277,38.9288],[17.104,38.8991],[17.095,38.9191],[17.0706,38.9228],[17.0553,38.9175],[17.0518,38.9021],[16.9261,38.8843],[16.8939,38.8797],[16.8616,38.8751],[16.797,38.866],[16.6985,38.852],[16.6162,38.8001],[16.5586,38.715],[16.5687,38.5593],[16.577,38.5286],[16.5735,38.4673],[16.5614,38.4163],[16.4671,38.3487],[16.4351,38.34],[16.4188,38.3333],[16.2814,38.2498],[16.2186,38.1749],[16.134,38.0389],[16.1255,38.0048],[16.09,37.9492],[16.0632,37.9327],[16.001,37.919],[15.9421,37.9331],[15.7762,37.9258],[15.6838,37.9086],[15.6838,37.9087],[15.6834,37.9086],[15.6834,37.909],[15.6839,37.9559],[15.6658,37.9669],[15.6351,38.0091],[15.6503,38.0308],[15.6474,38.0345],[15.6468,38.0594],[15.624,38.0921],[15.6448,38.1366],[15.6441,38.162],[15.6328,38.2203],[15.6506,38.241],[15.6954,38.2532],[15.7014,38.2623],[15.7055,38.2637],[15.7721,38.4379],[15.7897,38.484],[15.8074,38.5302],[15.8428,38.6226],[15.8355,38.6282],[15.8445,38.6604],[15.8589,38.665],[15.8922,38.7519],[15.9223,38.7816],[15.9813,38.8399],[16.0108,38.869],[16.0403,38.8981],[16.108,38.965],[16.0723,39.0182],[16.0646,39.0297],[16.0388,39.0681],[16.013,39.1065],[15.9537,39.1948],[15.8351,39.3714],[15.7194,39.5436],[15.6096,39.7246],[15.556,39.8129],[15.5292,39.8571],[15.5025,39.9012],[15.4378,40.0078],[15.4296,39.9998],[15.4101,39.994],[15.3432,40.0041],[15.3143,40.0338],[15.2612,40.0294],[15.2791,40.0477],[15.2354,40.0982],[15.2164,40.1076],[14.9993,40.1733],[14.9605,40.23],[14.9571,40.2316],[14.9111,40.2416],[14.9069,40.2586],[14.9265,40.2797],[14.7041,40.6049],[14.597,40.635],[14.5713,40.6177],[14.5442,40.6136],[14.4914,40.631],[14.4845,40.6315],[14.4714,40.6247],[14.481,40.6448],[14.5438,40.6455],[14.5822,40.6868],[14.5641,40.7274],[14.5261,40.7335],[14.5101,40.7566],[14.5253,40.7776],[14.5793,40.795],[14.568,40.8311],[14.6055,40.8476],[14.5782,40.8748],[14.5944,40.9033],[14.6538,40.894],[14.6691,40.9009],[14.6549,40.9214],[14.6,40.9311],[14.5826,40.9429],[14.572,41.0095],[14.5313,41.0134],[14.5159,41.0446],[14.4816,41.0522],[14.4293,41.048],[14.422,41.0606],[14.4347,41.0946],[14.4231,41.1119],[14.3645,41.1378],[14.3596,41.1605],[14.3784,41.164],[14.4214,41.1507],[14.4602,41.1775],[14.4472,41.2063],[14.421,41.2302],[14.4244,41.2562],[14.4504,41.2881],[14.4881,41.307],[14.4453,41.3457],[14.4533,41.3638],[14.5138,41.389]]]}}
]}
