{"type":"FeatureCollection","features":[
{"type":"Feature","properties":{"entityId":"aquitaine","from":888,"to":1063,"certainty":"estimated","source":"유럽 쪽은 Natural Earth 1:10m admin-1(v5.1.2) 현대 행정구역 조각을 그 시기 국경에 맞춰 묶고, 조각이 역사 경계와 다른 곳은 선을 그어 나눈 근사. 유럽 밖(시베리아·중앙아시아·극동)은 대략적인 추정. 운영자 검수 필요"},"geometry":{"type":"Polygon","coordinates":[[[-0.109,47.0696],[-0.0918,47.0861],[-0.0531,47.0963],[-0.0369,47.1279],[-0.004,47.1566],[0.0668,47.1537],[0.0921,47.1218],[0.1287,47.1273],[0.1403,47.103],[0.1919,47.1023],[0.2001,47.0555],[0.2493,47.0636],[0.2772,47.0453],[0.307,47.0426],[0.3082,46.9515],[0.3267,46.9385],[0.3887,46.9389],[0.4339,46.9327],[0.4837,46.9508],[0.5631,46.9533],[0.5837,46.965],[0.5691,47.0007],[0.5844,47.0013],[0.682,46.9583],[0.7134,46.9001],[0.8315,46.7794],[0.8808,46.7505],[0.9024,46.7298],[0.9169,46.6899],[0.907,46.6442],[0.916,46.6151],[0.9596,46.5811],[1.0197,46.56],[1.0388,46.5344],[1.1015,46.5344],[1.1294,46.5245],[1.1493,46.4978],[1.1411,46.4735],[1.1533,46.4542],[1.1947,46.4279],[1.177,46.387],[1.2211,46.3689],[1.3047,46.3746],[1.3347,46.3971],[1.4144,46.3509],[1.4459,46.3649],[1.5114,46.4119],[1.5881,46.4102],[1.6124,46.3838],[1.6408,46.3832],[1.6725,46.401],[1.7253,46.3958],[1.7454,46.4031],[1.7619,46.4502],[1.7799,46.451],[1.8314,46.4205],[1.8815,46.4382],[1.971,46.4364],[2.0115,46.4253],[2.0685,46.4254],[2.1023,46.4159],[2.1392,46.4214],[2.2539,46.4198],[2.316,46.3667],[2.3317,46.3291],[2.3968,46.3101],[2.4311,46.2737],[2.4494,46.2834],[2.4741,46.2714],[2.5146,46.2258],[2.5377,46.1755],[2.5667,46.1359],[2.5638,46.0702],[2.5946,46.0269],[2.5953,45.9712],[2.5678,45.9464],[2.5419,45.9035],[2.5016,45.8699],[2.4538,45.8637],[2.4006,45.8292],[2.4386,45.7615],[2.4899,45.7361],[2.5247,45.6977],[2.5221,45.6492],[2.476,45.6177],[2.4651,45.5846],[2.4954,45.5452],[2.4966,45.501],[2.5186,45.4792],[2.4887,45.397],[2.4414,45.3923],[2.3912,45.4133],[2.35,45.4031],[2.367,45.3689],[2.2977,45.2931],[2.2437,45.271],[2.233,45.2453],[2.1946,45.2237],[2.2069,45.1595],[2.1681,45.0947],[2.1136,45.0585],[2.1098,45.0367],[2.1316,44.9927],[2.0587,44.9751],[1.9791,44.9712],[1.9535,44.9609],[1.9079,44.9684],[1.852,44.9458],[1.7996,44.9329],[1.7662,44.9352],[1.7142,44.9602],[1.6934,44.9846],[1.6098,45.0291],[1.5809,45.0356],[1.5462,45.0276],[1.5297,45.045],[1.4586,45.0151],[1.425,44.9838],[1.4467,44.9329],[1.4373,44.8834],[1.3991,44.8533],[1.3545,44.8067],[1.3258,44.8018],[1.3117,44.7731],[1.3217,44.7514],[1.288,44.7174],[1.2352,44.6926],[1.175,44.673],[1.1199,44.6036],[1.0772,44.5745],[1.013,44.5476],[1.0003,44.5274],[1.0195,44.5056],[1.0375,44.4464],[1.0675,44.4222],[1.0645,44.3787],[1.0513,44.3678],[0.9695,44.3628],[0.9201,44.379],[0.9042,44.3732],[0.8865,44.3126],[0.8983,44.2964],[0.9447,44.2791],[0.9433,44.2597],[0.9059,44.201],[0.8718,44.1809],[0.8943,44.1497],[0.8639,44.14],[0.8189,44.149],[0.7951,44.1225],[0.7527,44.0984],[0.7417,44.067],[0.6589,44.0376],[0.5925,44.0728],[0.5087,44.0524],[0.4663,44.0563],[0.3143,43.9992],[0.2874,43.998],[0.2216,44.0186],[0.1982,44.0078],[0.1571,43.9691],[0.1161,43.9807],[0.0852,43.9673],[0.0603,44.0249],[0.079,44.0384],[0.1017,44.0803],[0.1355,44.1173],[0.1187,44.1259],[-0.0795,44.1541],[-0.1292,44.1525],[-0.1295,44.1907],[-0.1406,44.2265],[-0.0664,44.2536],[-0.0347,44.2759],[-0.048,44.3073],[-0.0854,44.3457],[-0.0735,44.3544],[-0.0048,44.3695],[0.0148,44.3667],[-0.0012,44.4104],[0.0076,44.4577],[-0.015,44.4738],[-0.0061,44.5091],[0.0333,44.5491],[0.0819,44.5571],[0.1702,44.6374],[0.1656,44.6639],[0.1253,44.6729],[0.1104,44.7103],[0.1289,44.7314],[0.1709,44.7386],[0.2004,44.7138],[0.224,44.7274],[0.2275,44.7537],[0.2974,44.7623],[0.2745,44.7901],[0.2638,44.8265],[0.2965,44.8337],[0.3222,44.8566],[0.3048,44.8676],[0.233,44.8813],[0.2399,44.8676],[0.1931,44.8319],[0.1745,44.8267],[0.0311,44.8403],[-0.0127,44.8613],[0.0306,44.9108],[0.0051,44.9463],[0.0137,44.9725],[0.0394,44.9963],[0.0384,45.0186],[0.0659,45.0635],[0.0486,45.1089],[0.0315,45.1201],[-0.0336,45.1201],[-0.0608,45.1115],[-0.0888,45.119],[-0.1738,45.1011],[-0.2264,45.113],[-0.2922,45.1491],[-0.3391,45.1665],[-0.3943,45.1665],[-0.4232,45.2085],[-0.4222,45.2498],[-0.4689,45.2833],[-0.5452,45.2939],[-0.5634,45.3058],[-0.5837,45.3465],[-0.6186,45.3222],[-0.7066,45.3222],[-0.7046,45.3121],[-0.7399,45.3121],[-0.7399,45.3417],[-0.745,45.3417],[-0.745,45.3847],[-0.7768,45.3847],[-0.8086,45.3847],[-0.8086,45.4276],[-0.8404,45.4276],[-0.8404,45.4385],[-0.8404,45.4705],[-0.8404,45.4853],[-0.8722,45.4853],[-0.904,45.4853],[-0.9358,45.4853],[-0.9358,45.5321],[-0.9677,45.5321],[-0.9677,45.5588],[-1.0014,45.5588],[-1.0134,45.5588],[-1.0351,45.5588],[-1.0351,45.5855],[-1.0688,45.5855],[-1.0688,45.6122],[-1.1025,45.6122],[-1.1025,45.5966],[-1.1362,45.5966],[-1.1699,45.5966],[-1.2018,45.5966],[-1.2036,45.5966],[-1.2337,45.5966],[-1.23,45.6345],[-1.2228,45.71],[-1.2473,45.7099],[-1.2303,45.7924],[-1.2147,45.7949],[-1.2127,45.8153],[-1.2269,45.8198],[-1.2457,45.8546],[-1.2778,45.8942],[-1.3402,45.9387],[-1.3783,45.976],[-1.375,45.9858],[-1.3833,46.0155],[-1.4049,46.0532],[-1.388,46.0492],[-1.388,46.0501],[-1.3876,46.0499],[-1.3876,46.0501],[-1.3829,46.048],[-1.3399,46.0378],[-1.2738,45.9976],[-1.2336,45.9917],[-1.2194,45.9439],[-1.2198,45.9431],[-1.2021,45.9262],[-1.1936,46.0143],[-1.2496,46.0712],[-1.3432,46.1662],[-1.3506,46.1737],[-1.4329,46.2108],[-1.5043,46.2077],[-1.5558,46.2518],[-1.4981,46.2619],[-1.4679,46.2499],[-1.4739,46.2381],[-1.508,46.2456],[-1.4905,46.2244],[-1.4136,46.2377],[-1.4421,46.2666],[-1.4706,46.2956],[-1.5025,46.3279],[-1.5344,46.3603],[-1.598,46.425],[-1.5988,46.425],[-1.6256,46.4311],[-1.6321,46.4501],[-1.6459,46.4558],[-1.6868,46.4609],[-1.7684,46.5002],[-1.7742,46.5093],[-1.7854,46.514],[-1.7817,46.4954],[-1.8048,46.5036],[-1.8213,46.558],[-1.9208,46.685],[-1.9398,46.7019],[-1.965,46.7104],[-1.9921,46.7485],[-2.0022,46.7575],[-2.0503,46.7921],[-2.1188,46.82],[-2.1313,46.8718],[-2.122,46.9037],[-2.0963,46.9165],[-2.1022,46.9307],[-2.098,46.9328],[-2.1137,46.9487],[-2.1532,46.9889],[-2.1814,47.0175],[-2.1814,47.0291],[-2.1475,47.0291],[-2.1137,47.0291],[-2.0798,47.0291],[-2.046,47.0291],[-2.046,47.0306],[-2.046,47.0644],[-2.0183,47.0644],[-2.0183,47.0306],[-2.0001,47.0306],[-1.9907,47.0354],[-1.9684,47.0252],[-1.9084,46.9773],[-1.8766,46.9594],[-1.7716,46.9245],[-1.7203,46.8846],[-1.6518,46.8791],[-1.5501,46.8599],[-1.5,46.8827],[-1.5394,46.9457],[-1.553,46.9934],[-1.5466,47.0201],[-1.4982,47.0354],[-1.468,47.0105],[-1.468,46.9556],[-1.4595,46.9404],[-1.4241,46.9358],[-1.3787,46.957],[-1.3624,46.986],[-1.368,47.024],[-1.3439,47.0451],[-1.3054,47.0392],[-1.2697,47.0763],[-1.2312,47.067],[-1.1486,47.0295],[-1.0753,47.0072],[-1.0349,47.0032],[-0.9934,47.0204],[-0.946,47.0004],[-0.935,47.0166],[-0.8704,46.9942],[-0.8375,46.9897],[-0.7804,46.997],[-0.6965,46.9881],[-0.6324,46.9924],[-0.5492,47.0252],[-0.5551,47.061],[-0.5177,47.0754],[-0.4732,47.0664],[-0.3763,47.0881],[-0.2697,47.0972],[-0.1706,47.0983],[-0.143,47.0628],[-0.109,47.0696]]]}},
{"type":"Feature","properties":{"entityId":"aquitaine","from":1063,"to":1137,"certainty":"estimated","source":"유럽 쪽은 Natural Earth 1:10m admin-1(v5.1.2) 현대 행정구역 조각을 그 시기 국경에 맞춰 묶고, 조각이 역사 경계와 다른 곳은 선을 그어 나눈 근사. 유럽 밖(시베리아·중앙아시아·극동)은 대략적인 추정. 운영자 검수 필요"},"geometry":{"type":"Polygon","coordinates":[[[-0.109,47.0696],[-0.0918,47.0861],[-0.0531,47.0963],[-0.0369,47.1279],[-0.004,47.1566],[0.0668,47.1537],[0.0921,47.1218],[0.1287,47.1273],[0.1403,47.103],[0.1919,47.1023],[0.2001,47.0555],[0.2493,47.0636],[0.2772,47.0453],[0.307,47.0426],[0.3082,46.9515],[0.3267,46.9385],[0.3887,46.9389],[0.4339,46.9327],[0.4837,46.9508],[0.5631,46.9533],[0.5837,46.965],[0.5691,47.0007],[0.5844,47.0013],[0.682,46.9583],[0.7134,46.9001],[0.8315,46.7794],[0.8808,46.7505],[0.9024,46.7298],[0.9169,46.6899],[0.907,46.6442],[0.916,46.6151],[0.9596,46.5811],[1.0197,46.56],[1.0388,46.5344],[1.1015,46.5344],[1.1294,46.5245],[1.1493,46.4978],[1.1411,46.4735],[1.1533,46.4542],[1.1947,46.4279],[1.177,46.387],[1.2211,46.3689],[1.3047,46.3746],[1.3347,46.3971],[1.4144,46.3509],[1.4459,46.3649],[1.5114,46.4119],[1.5881,46.4102],[1.6124,46.3838],[1.6408,46.3832],[1.6725,46.401],[1.7253,46.3958],[1.7454,46.4031],[1.7619,46.4502],[1.7799,46.451],[1.8314,46.4205],[1.8815,46.4382],[1.971,46.4364],[2.0115,46.4253],[2.0685,46.4254],[2.1023,46.4159],[2.1392,46.4214],[2.2539,46.4198],[2.316,46.3667],[2.3317,46.3291],[2.3968,46.3101],[2.4311,46.2737],[2.4494,46.2834],[2.4741,46.2714],[2.5146,46.2258],[2.5377,46.1755],[2.5667,46.1359],[2.5638,46.0702],[2.5946,46.0269],[2.5953,45.9712],[2.5678,45.9464],[2.5419,45.9035],[2.5016,45.8699],[2.4538,45.8637],[2.4006,45.8292],[2.4386,45.7615],[2.4899,45.7361],[2.5247,45.6977],[2.5221,45.6492],[2.476,45.6177],[2.4651,45.5846],[2.4954,45.5452],[2.4966,45.501],[2.5186,45.4792],[2.4887,45.397],[2.4414,45.3923],[2.3912,45.4133],[2.35,45.4031],[2.367,45.3689],[2.2977,45.2931],[2.2437,45.271],[2.233,45.2453],[2.1946,45.2237],[2.2069,45.1595],[2.1681,45.0947],[2.1136,45.0585],[2.1098,45.0367],[2.1316,44.9927],[2.0587,44.9751],[1.9791,44.9712],[1.9535,44.9609],[1.9079,44.9684],[1.852,44.9458],[1.7996,44.9329],[1.7662,44.9352],[1.7142,44.9602],[1.6934,44.9846],[1.6098,45.0291],[1.5809,45.0356],[1.5462,45.0276],[1.5297,45.045],[1.4586,45.0151],[1.425,44.9838],[1.4467,44.9329],[1.4373,44.8834],[1.3991,44.8533],[1.3545,44.8067],[1.3258,44.8018],[1.3117,44.7731],[1.3217,44.7514],[1.288,44.7174],[1.2352,44.6926],[1.175,44.673],[1.1199,44.6036],[1.0772,44.5745],[1.013,44.5476],[1.0003,44.5274],[1.0195,44.5056],[1.0375,44.4464],[1.0675,44.4222],[1.0645,44.3787],[1.0513,44.3678],[0.9695,44.3628],[0.9201,44.379],[0.9042,44.3732],[0.8865,44.3126],[0.8983,44.2964],[0.9447,44.2791],[0.9433,44.2597],[0.9059,44.201],[0.8718,44.1809],[0.8943,44.1497],[0.8639,44.14],[0.8189,44.149],[0.7951,44.1225],[0.7527,44.0984],[0.7417,44.067],[0.7642,44.0296],[0.8189,44.0529],[0.838,44.0505],[0.8484,44.0244],[0.7864,43.9578],[0.7601,43.9452],[0.8019,43.9226],[0.8738,43.9196],[0.8915,43.8908],[0.9082,43.8161],[0.8974,43.7885],[0.9539,43.7873],[0.973,43.7541],[1.0167,43.7181],[1.0444,43.7052],[1.0674,43.67],[1.1452,43.6344],[1.1923,43.5988],[1.1773,43.5617],[1.1327,43.5365],[1.0715,43.5371],[1.0549,43.5204],[1.0352,43.4755],[1.0334,43.4102],[1.0253,43.3775],[0.9996,43.3591],[0.9797,43.3639],[0.9119,43.4073],[0.7889,43.4137],[0.7138,43.3733],[0.6633,43.3239],[0.6067,43.3109],[0.6153,43.2913],[0.5668,43.2524],[0.5693,43.2215],[0.5333,43.2066],[0.4416,43.1311],[0.5629,43.0738],[0.529,43.0161],[0.5311,43.0035],[0.6059,43.0315],[0.6449,42.9569],[0.5808,42.8862],[0.5499,42.8671],[0.477,42.869],[0.4578,42.8263],[0.4558,42.7653],[0.4669,42.6904],[0.3893,42.6851],[0.3542,42.7175],[0.336,42.7127],[0.2902,42.6703],[0.2754,42.6687],[0.2384,42.7104],[0.1692,42.7265],[0.1342,42.7152],[0.0728,42.7085],[-0.0043,42.6875],[-0.0389,42.6851],[-0.119,42.7169],[-0.1636,42.778],[-0.1614,42.7953],[-0.2084,42.7839],[-0.2351,42.7862],[-0.247,42.8048],[-0.3051,42.8308],[-0.3228,42.8425],[-0.4239,42.7907],[-0.4545,42.7889],[-0.5084,42.8075],[-0.5339,42.808],[-0.5356,42.7842],[-0.5787,42.7773],[-0.5829,42.7958],[-0.6095,42.8114],[-0.6483,42.8498],[-0.7004,42.8764],[-0.7301,42.8775],[-0.7459,42.8939],[-0.745,42.9187],[-0.7597,42.9465],[-0.7864,42.9533],[-0.8635,42.9431],[-0.9432,42.9479],[-0.9815,42.957],[-1.0285,42.9867],[-1.0797,42.9934],[-1.1124,43.0083],[-1.1499,43.0057],[-1.2169,43.0393],[-1.2749,43.0468],[-1.3106,43.0695],[-1.3086,43.1136],[-1.3483,43.0931],[-1.3576,43.0468],[-1.3831,43.0292],[-1.435,43.0357],[-1.4753,43.0601],[-1.4878,43.0818],[-1.4258,43.1353],[-1.3997,43.2067],[-1.4035,43.2433],[-1.4322,43.265],[-1.4664,43.2608],[-1.5081,43.2768],[-1.559,43.2841],[-1.5876,43.2516],[-1.639,43.2557],[-1.645,43.2924],[-1.6739,43.3042],[-1.7497,43.2948],[-1.7682,43.3309],[-1.7969,43.3411],[-1.7941,43.386],[-1.8006,43.3894],[-1.8006,43.4067],[-1.762,43.4067],[-1.762,43.4372],[-1.762,43.4406],[-1.762,43.4677],[-1.762,43.4694],[-1.762,43.4982],[-1.7614,43.4982],[-1.7614,43.5425],[-1.7997,43.5425],[-1.7614,43.5868],[-1.7231,43.6311],[-1.6848,43.6753],[-1.4818,43.9099],[-1.3844,44.0225],[-1.367,44.2044],[-1.3529,44.3516],[-1.3458,44.4252],[-1.3423,44.462],[-1.3388,44.4988],[-1.2808,45.1045],[-1.2518,45.4074],[-1.2373,45.5588],[-1.2337,45.5966],[-1.23,45.6345],[-1.2228,45.71],[-1.2473,45.7099],[-1.2303,45.7924],[-1.2147,45.7949],[-1.2127,45.8153],[-1.2269,45.8198],[-1.2457,45.8546],[-1.2778,45.8942],[-1.3402,45.9387],[-1.3783,45.976],[-1.375,45.9858],[-1.3833,46.0155],[-1.4049,46.0532],[-1.388,46.0492],[-1.388,46.0501],[-1.3876,46.0499],[-1.3876,46.0501],[-1.3829,46.048],[-1.3399,46.0378],[-1.2738,45.9976],[-1.2336,45.9917],[-1.2194,45.9439],[-1.2198,45.9431],[-1.2021,45.9262],[-1.1936,46.0143],[-1.2496,46.0712],[-1.3432,46.1662],[-1.3506,46.1737],[-1.4329,46.2108],[-1.5043,46.2077],[-1.5558,46.2518],[-1.4981,46.2619],[-1.4679,46.2499],[-1.4739,46.2381],[-1.508,46.2456],[-1.4905,46.2244],[-1.4136,46.2377],[-1.4421,46.2666],[-1.4706,46.2956],[-1.5025,46.3279],[-1.5344,46.3603],[-1.598,46.425],[-1.5988,46.425],[-1.6256,46.4311],[-1.6321,46.4501],[-1.6459,46.4558],[-1.6868,46.4609],[-1.7684,46.5002],[-1.7742,46.5093],[-1.7854,46.514],[-1.7817,46.4954],[-1.8048,46.5036],[-1.8213,46.558],[-1.9208,46.685],[-1.9398,46.7019],[-1.965,46.7104],[-1.9921,46.7485],[-2.0022,46.7575],[-2.0503,46.7921],[-2.1188,46.82],[-2.1313,46.8718],[-2.122,46.9037],[-2.0963,46.9165],[-2.1022,46.9307],[-2.098,46.9328],[-2.1137,46.9487],[-2.1532,46.9889],[-2.1814,47.0175],[-2.1814,47.0291],[-2.1475,47.0291],[-2.1137,47.0291],[-2.0798,47.0291],[-2.046,47.0291],[-2.046,47.0306],[-2.046,47.0644],[-2.0183,47.0644],[-2.0183,47.0306],[-2.0001,47.0306],[-1.9907,47.0354],[-1.9684,47.0252],[-1.9084,46.9773],[-1.8766,46.9594],[-1.7716,46.9245],[-1.7203,46.8846],[-1.6518,46.8791],[-1.5501,46.8599],[-1.5,46.8827],[-1.5394,46.9457],[-1.553,46.9934],[-1.5466,47.0201],[-1.4982,47.0354],[-1.468,47.0105],[-1.468,46.9556],[-1.4595,46.9404],[-1.4241,46.9358],[-1.3787,46.957],[-1.3624,46.986],[-1.368,47.024],[-1.3439,47.0451],[-1.3054,47.0392],[-1.2697,47.0763],[-1.2312,47.067],[-1.1486,47.0295],[-1.0753,47.0072],[-1.0349,47.0032],[-0.9934,47.0204],[-0.946,47.0004],[-0.935,47.0166],[-0.8704,46.9942],[-0.8375,46.9897],[-0.7804,46.997],[-0.6965,46.9881],[-0.6324,46.9924],[-0.5492,47.0252],[-0.5551,47.061],[-0.5177,47.0754],[-0.4732,47.0664],[-0.3763,47.0881],[-0.2697,47.0972],[-0.1706,47.0983],[-0.143,47.0628],[-0.109,47.0696]]]}},
{"type":"Feature","properties":{"entityId":"aquitaine","from":1152,"to":1154,"certainty":"estimated","source":"유럽 쪽은 Natural Earth 1:10m admin-1(v5.1.2) 현대 행정구역 조각을 그 시기 국경에 맞춰 묶고, 조각이 역사 경계와 다른 곳은 선을 그어 나눈 근사. 유럽 밖(시베리아·중앙아시아·극동)은 대략적인 추정. 운영자 검수 필요"},"geometry":{"type":"Polygon","coordinates":[[[-0.109,47.0696],[-0.0918,47.0861],[-0.0531,47.0963],[-0.0369,47.1279],[-0.004,47.1566],[0.0668,47.1537],[0.0921,47.1218],[0.1287,47.1273],[0.1403,47.103],[0.1919,47.1023],[0.2001,47.0555],[0.2493,47.0636],[0.2772,47.0453],[0.307,47.0426],[0.3082,46.9515],[0.3267,46.9385],[0.3887,46.9389],[0.4339,46.9327],[0.4837,46.9508],[0.5631,46.9533],[0.5837,46.965],[0.5691,47.0007],[0.5844,47.0013],[0.682,46.9583],[0.7134,46.9001],[0.8315,46.7794],[0.8808,46.7505],[0.9024,46.7298],[0.9169,46.6899],[0.907,46.6442],[0.916,46.6151],[0.9596,46.5811],[1.0197,46.56],[1.0388,46.5344],[1.1015,46.5344],[1.1294,46.5245],[1.1493,46.4978],[1.1411,46.4735],[1.1533,46.4542],[1.1947,46.4279],[1.177,46.387],[1.2211,46.3689],[1.3047,46.3746],[1.3347,46.3971],[1.4144,46.3509],[1.4459,46.3649],[1.5114,46.4119],[1.5881,46.4102],[1.6124,46.3838],[1.6408,46.3832],[1.6725,46.401],[1.7253,46.3958],[1.7454,46.4031],[1.7619,46.4502],[1.7799,46.451],[1.8314,46.4205],[1.8815,46.4382],[1.971,46.4364],[2.0115,46.4253],[2.0685,46.4254],[2.1023,46.4159],[2.1392,46.4214],[2.2539,46.4198],[2.316,46.3667],[2.3317,46.3291],[2.3968,46.3101],[2.4311,46.2737],[2.4494,46.2834],[2.4741,46.2714],[2.5146,46.2258],[2.5377,46.1755],[2.5667,46.1359],[2.5638,46.0702],[2.5946,46.0269],[2.5953,45.9712],[2.5678,45.9464],[2.5419,45.9035],[2.5016,45.8699],[2.4538,45.8637],[2.4006,45.8292],[2.4386,45.7615],[2.4899,45.7361],[2.5247,45.6977],[2.5221,45.6492],[2.476,45.6177],[2.4651,45.5846],[2.4954,45.5452],[2.4966,45.501],[2.5186,45.4792],[2.4887,45.397],[2.4414,45.3923],[2.3912,45.4133],[2.35,45.4031],[2.367,45.3689],[2.2977,45.2931],[2.2437,45.271],[2.233,45.2453],[2.1946,45.2237],[2.2069,45.1595],[2.1681,45.0947],[2.1136,45.0585],[2.1098,45.0367],[2.1316,44.9927],[2.0587,44.9751],[1.9791,44.9712],[1.9535,44.9609],[1.9079,44.9684],[1.852,44.9458],[1.7996,44.9329],[1.7662,44.9352],[1.7142,44.9602],[1.6934,44.9846],[1.6098,45.0291],[1.5809,45.0356],[1.5462,45.0276],[1.5297,45.045],[1.4586,45.0151],[1.425,44.9838],[1.4467,44.9329],[1.4373,44.8834],[1.3991,44.8533],[1.3545,44.8067],[1.3258,44.8018],[1.3117,44.7731],[1.3217,44.7514],[1.288,44.7174],[1.2352,44.6926],[1.175,44.673],[1.1199,44.6036],[1.0772,44.5745],[1.013,44.5476],[1.0003,44.5274],[1.0195,44.5056],[1.0375,44.4464],[1.0675,44.4222],[1.0645,44.3787],[1.0513,44.3678],[0.9695,44.3628],[0.9201,44.379],[0.9042,44.3732],[0.8865,44.3126],[0.8983,44.2964],[0.9447,44.2791],[0.9433,44.2597],[0.9059,44.201],[0.8718,44.1809],[0.8943,44.1497],[0.8639,44.14],[0.8189,44.149],[0.7951,44.1225],[0.7527,44.0984],[0.7417,44.067],[0.7642,44.0296],[0.8189,44.0529],[0.838,44.0505],[0.8484,44.0244],[0.7864,43.9578],[0.7601,43.9452],[0.8019,43.9226],[0.8738,43.9196],[0.8915,43.8908],[0.9082,43.8161],[0.8974,43.7885],[0.9539,43.7873],[0.973,43.7541],[1.0167,43.7181],[1.0444,43.7052],[1.0674,43.67],[1.1452,43.6344],[1.1923,43.5988],[1.1773,43.5617],[1.1327,43.5365],[1.0715,43.5371],[1.0549,43.5204],[1.0352,43.4755],[1.0334,43.4102],[1.0253,43.3775],[0.9996,43.3591],[0.9797,43.3639],[0.9119,43.4073],[0.7889,43.4137],[0.7138,43.3733],[0.6633,43.3239],[0.6067,43.3109],[0.6153,43.2913],[0.5668,43.2524],[0.5693,43.2215],[0.5333,43.2066],[0.4416,43.1311],[0.5629,43.0738],[0.529,43.0161],[0.5311,43.0035],[0.6059,43.0315],[0.6449,42.9569],[0.5808,42.8862],[0.5499,42.8671],[0.477,42.869],[0.4578,42.8263],[0.4558,42.7653],[0.4669,42.6904],[0.3893,42.6851],[0.3542,42.7175],[0.336,42.7127],[0.2902,42.6703],[0.2754,42.6687],[0.2384,42.7104],[0.1692,42.7265],[0.1342,42.7152],[0.0728,42.7085],[-0.0043,42.6875],[-0.0389,42.6851],[-0.119,42.7169],[-0.1636,42.778],[-0.1614,42.7953],[-0.2084,42.7839],[-0.2351,42.7862],[-0.247,42.8048],[-0.3051,42.8308],[-0.3228,42.8425],[-0.4239,42.7907],[-0.4545,42.7889],[-0.5084,42.8075],[-0.5339,42.808],[-0.5356,42.7842],[-0.5787,42.7773],[-0.5829,42.7958],[-0.6095,42.8114],[-0.6483,42.8498],[-0.7004,42.8764],[-0.7301,42.8775],[-0.7459,42.8939],[-0.745,42.9187],[-0.7597,42.9465],[-0.7864,42.9533],[-0.8635,42.9431],[-0.9432,42.9479],[-0.9815,42.957],[-1.0285,42.9867],[-1.0797,42.9934],[-1.1124,43.0083],[-1.1499,43.0057],[-1.2169,43.0393],[-1.2749,43.0468],[-1.3106,43.0695],[-1.3086,43.1136],[-1.3483,43.0931],[-1.3576,43.0468],[-1.3831,43.0292],[-1.435,43.0357],[-1.4753,43.0601],[-1.4878,43.0818],[-1.4258,43.1353],[-1.3997,43.2067],[-1.4035,43.2433],[-1.4322,43.265],[-1.4664,43.2608],[-1.5081,43.2768],[-1.559,43.2841],[-1.5876,43.2516],[-1.639,43.2557],[-1.645,43.2924],[-1.6739,43.3042],[-1.7497,43.2948],[-1.7682,43.3309],[-1.7969,43.3411],[-1.7941,43.386],[-1.8006,43.3894],[-1.8006,43.4067],[-1.762,43.4067],[-1.762,43.4372],[-1.762,43.4406],[-1.762,43.4677],[-1.762,43.4694],[-1.762,43.4982],[-1.7614,43.4982],[-1.7614,43.5425],[-1.7997,43.5425],[-1.7614,43.5868],[-1.7231,43.6311],[-1.6848,43.6753],[-1.4818,43.9099],[-1.3844,44.0225],[-1.367,44.2044],[-1.3529,44.3516],[-1.3458,44.4252],[-1.3423,44.462],[-1.3388,44.4988],[-1.2808,45.1045],[-1.2518,45.4074],[-1.2373,45.5588],[-1.2337,45.5966],[-1.23,45.6345],[-1.2228,45.71],[-1.2473,45.7099],[-1.2303,45.7924],[-1.2147,45.7949],[-1.2127,45.8153],[-1.2269,45.8198],[-1.2457,45.8546],[-1.2778,45.8942],[-1.3402,45.9387],[-1.3783,45.976],[-1.375,45.9858],[-1.3833,46.0155],[-1.4049,46.0532],[-1.388,46.0492],[-1.388,46.0501],[-1.3876,46.0499],[-1.3876,46.0501],[-1.3829,46.048],[-1.3399,46.0378],[-1.2738,45.9976],[-1.2336,45.9917],[-1.2194,45.9439],[-1.2198,45.9431],[-1.2021,45.9262],[-1.1936,46.0143],[-1.2496,46.0712],[-1.3432,46.1662],[-1.3506,46.1737],[-1.4329,46.2108],[-1.5043,46.2077],[-1.5558,46.2518],[-1.4981,46.2619],[-1.4679,46.2499],[-1.4739,46.2381],[-1.508,46.2456],[-1.4905,46.2244],[-1.4136,46.2377],[-1.4421,46.2666],[-1.4706,46.2956],[-1.5025,46.3279],[-1.5344,46.3603],[-1.598,46.425],[-1.5988,46.425],[-1.6256,46.4311],[-1.6321,46.4501],[-1.6459,46.4558],[-1.6868,46.4609],[-1.7684,46.5002],[-1.7742,46.5093],[-1.7854,46.514],[-1.7817,46.4954],[-1.8048,46.5036],[-1.8213,46.558],[-1.9208,46.685],[-1.9398,46.7019],[-1.965,46.7104],[-1.9921,46.7485],[-2.0022,46.7575],[-2.0503,46.7921],[-2.1188,46.82],[-2.1313,46.8718],[-2.122,46.9037],[-2.0963,46.9165],[-2.1022,46.9307],[-2.098,46.9328],[-2.1137,46.9487],[-2.1532,46.9889],[-2.1814,47.0175],[-2.1814,47.0291],[-2.1475,47.0291],[-2.1137,47.0291],[-2.0798,47.0291],[-2.046,47.0291],[-2.046,47.0306],[-2.046,47.0644],[-2.0183,47.0644],[-2.0183,47.0306],[-2.0001,47.0306],[-1.9907,47.0354],[-1.9684,47.0252],[-1.9084,46.9773],[-1.8766,46.9594],[-1.7716,46.9245],[-1.7203,46.8846],[-1.6518,46.8791],[-1.5501,46.8599],[-1.5,46.8827],[-1.5394,46.9457],[-1.553,46.9934],[-1.5466,47.0201],[-1.4982,47.0354],[-1.468,47.0105],[-1.468,46.9556],[-1.4595,46.9404],[-1.4241,46.9358],[-1.3787,46.957],[-1.3624,46.986],[-1.368,47.024],[-1.3439,47.0451],[-1.3054,47.0392],[-1.2697,47.0763],[-1.2312,47.067],[-1.1486,47.0295],[-1.0753,47.0072],[-1.0349,47.0032],[-0.9934,47.0204],[-0.946,47.0004],[-0.935,47.0166],[-0.8704,46.9942],[-0.8375,46.9897],[-0.7804,46.997],[-0.6965,46.9881],[-0.6324,46.9924],[-0.5492,47.0252],[-0.5551,47.061],[-0.5177,47.0754],[-0.4732,47.0664],[-0.3763,47.0881],[-0.2697,47.0972],[-0.1706,47.0983],[-0.143,47.0628],[-0.109,47.0696]]]}}
]}
