{"type":"FeatureCollection","features":[
{"type":"Feature","properties":{"entityId":"aragon","from":1400,"to":1409,"certainty":"estimated","source":"유럽 쪽은 Natural Earth 1:10m admin-1(v5.1.2) 현대 행정구역 조각을 그 시기 국경에 맞춰 묶고, 조각이 역사 경계와 다른 곳은 선을 그어 나눈 근사. 유럽 밖(시베리아·중앙아시아·극동)은 대략적인 추정. 운영자 검수 필요"},"geometry":{"type":"MultiPolygon","coordinates":[[[[-1.4485,40.1498],[-1.4444,40.1967],[-1.5551,40.2054],[-1.6601,40.283],[-1.7,40.2948],[-1.7136,40.2877],[-1.7206,40.3354],[-1.7793,40.3922],[-1.8083,40.402],[-1.75,40.4592],[-1.6998,40.4933],[-1.6986,40.5424],[-1.6711,40.5893],[-1.5867,40.5706],[-1.5512,40.5951],[-1.5552,40.6142],[-1.5374,40.663],[-1.5397,40.6944],[-1.557,40.7252],[-1.5388,40.7768],[-1.5446,40.8174],[-1.601,40.8587],[-1.6141,40.8867],[-1.6102,40.9277],[-1.6219,40.9468],[-1.7328,41.026],[-1.7673,41.065],[-1.8169,41.097],[-1.9449,41.1644],[-1.9719,41.1699],[-2.0532,41.1504],[-2.0837,41.1719],[-2.1382,41.1815],[-2.1491,41.1939],[-2.1592,41.2692],[-2.1733,41.2946],[-2.1662,41.346],[-2.128,41.3768],[-2.1196,41.4237],[-2.0997,41.4426],[-2.0521,41.435],[-2.0408,41.3947],[-2.0141,41.3881],[-1.9459,41.4155],[-1.9528,41.4578],[-1.9787,41.5076],[-1.9759,41.5427],[-1.9883,41.5955],[-1.9695,41.6077],[-1.9235,41.603],[-1.894,41.6294],[-1.8073,41.6704],[-1.7855,41.7193],[-1.8085,41.7375],[-1.8459,41.7907],[-1.816,41.8517],[-1.8516,41.9061],[-1.8577,41.9548],[-1.8445,41.982],[-1.8524,42.0012],[-1.7766,41.993],[-1.7236,41.9606],[-1.6946,41.9533],[-1.6572,41.9622],[-1.6219,41.9512],[-1.5559,41.9116],[-1.4833,41.9222],[-1.4193,41.9089],[-1.3831,41.9437],[-1.3612,41.9838],[-1.316,42.0371],[-1.3239,42.0673],[-1.3507,42.0727],[-1.3942,42.1276],[-1.3966,42.178],[-1.4164,42.2206],[-1.384,42.3004],[-1.3345,42.3499],[-1.3504,42.3868],[-1.342,42.4148],[-1.2727,42.4876],[-1.2845,42.5166],[-1.2574,42.5532],[-1.2053,42.5581],[-1.185,42.5846],[-1.1533,42.6054],[-1.145,42.6414],[-1.0445,42.65],[-1.0246,42.6961],[-0.9771,42.7057],[-0.9044,42.7426],[-0.8569,42.7869],[-0.8462,42.8495],[-0.8192,42.8761],[-0.8062,42.9044],[-0.745,42.9187],[-0.7459,42.8939],[-0.7301,42.8775],[-0.7004,42.8764],[-0.6483,42.8498],[-0.6095,42.8114],[-0.5829,42.7958],[-0.5787,42.7773],[-0.5356,42.7842],[-0.5339,42.808],[-0.5084,42.8075],[-0.4545,42.7889],[-0.4239,42.7907],[-0.3228,42.8425],[-0.3051,42.8308],[-0.247,42.8048],[-0.2351,42.7862],[-0.2084,42.7839],[-0.1614,42.7953],[-0.1636,42.778],[-0.119,42.7169],[-0.0389,42.6851],[-0.0043,42.6875],[0.0728,42.7085],[0.1342,42.7152],[0.1692,42.7265],[0.2384,42.7104],[0.2754,42.6687],[0.2902,42.6703],[0.336,42.7127],[0.3542,42.7175],[0.3893,42.6851],[0.4669,42.6904],[0.4835,42.6853],[0.6082,42.688],[0.6436,42.6845],[0.6634,42.6962],[0.6665,42.7148],[0.6335,42.7448],[0.6537,42.8027],[0.6563,42.8384],[0.7243,42.8453],[0.7763,42.8325],[0.8129,42.8316],[0.8561,42.8128],[0.9211,42.7844],[0.9587,42.7937],[0.9829,42.7804],[1.0682,42.7761],[1.1067,42.7596],[1.1343,42.716],[1.1625,42.7057],[1.1959,42.7136],[1.3191,42.7134],[1.3611,42.6867],[1.398,42.6436],[1.4293,42.5954],[1.4193,42.5793],[1.418,42.5698],[1.4264,42.5656],[1.4263,42.5618],[1.4098,42.5406],[1.4065,42.5292],[1.429,42.5315],[1.4466,42.5199],[1.45,42.5041],[1.4302,42.4936],[1.4076,42.4868],[1.4364,42.4535],[1.4364,42.441],[1.4479,42.4346],[1.5085,42.4287],[1.5282,42.4342],[1.5444,42.4504],[1.5727,42.4531],[1.6075,42.4564],[1.6395,42.4664],[1.6504,42.4934],[1.657,42.4976],[1.6624,42.4937],[1.6742,42.4905],[1.6863,42.4906],[1.6975,42.4945],[1.707,42.5028],[1.7106,42.5277],[1.7171,42.5399],[1.7217,42.5485],[1.74,42.5616],[1.7651,42.5634],[1.7611,42.5676],[1.8728,42.579],[1.9383,42.5718],[1.9588,42.5944],[1.9628,42.6218],[2.0056,42.6561],[2.0983,42.6639],[2.154,42.6564],[2.1661,42.6638],[2.1895,42.6522],[2.2647,42.7089],[2.3067,42.7052],[2.343,42.7188],[2.3507,42.7452],[2.3309,42.8224],[2.3412,42.8374],[2.375,42.8473],[2.704,42.834],[2.7297,42.8403],[2.7839,42.8898],[2.8553,42.9138],[2.8927,42.8956],[3.0463,42.8371],[3.0455,42.8228],[3.0535,42.8228],[3.0502,42.806],[3.0604,42.7524],[3.087,42.6117],[3.0908,42.5919],[3.1911,42.471],[3.1988,42.4617],[3.2108,42.4358],[3.2132,42.4305],[3.2253,42.4006],[3.2384,42.368],[3.2888,42.3437],[3.2933,42.3303],[3.3177,42.323],[3.3044,42.297],[3.3068,42.2899],[3.3067,42.2899],[3.3068,42.2895],[3.2993,42.2869],[3.287,42.2629],[3.263,42.2399],[3.2101,42.2397],[3.1658,42.2526],[3.1521,42.163],[3.1736,42.1354],[3.224,42.1111],[3.2384,42.0833],[3.2492,41.9444],[3.2492,41.944],[3.2099,41.9115],[3.1949,41.8883],[3.1502,41.8454],[3.1272,41.8469],[3.0735,41.8119],[3.0691,41.7991],[3.0403,41.7869],[2.9509,41.7343],[2.933,41.7125],[2.8511,41.6972],[2.792,41.669],[2.7785,41.6456],[2.6519,41.6053],[2.6155,41.5927],[2.0936,41.226],[1.9058,41.195],[1.7284,41.1657],[1.6841,41.1584],[1.6397,41.1511],[1.5953,41.1438],[1.5509,41.1364],[1.196,41.0779],[1.1836,41.0626],[1.149,41.0701],[1.0133,41.0477],[0.8156,40.892],[0.7926,40.8762],[0.7705,40.8589],[0.7582,40.813],[0.7976,40.8039],[0.8912,40.7223],[0.891,40.7221],[0.8912,40.7219],[0.8588,40.6854],[0.8546,40.6837],[0.8483,40.6754],[0.8167,40.6683],[0.7624,40.6463],[0.7564,40.6422],[0.707,40.5834],[0.6771,40.5652],[0.6159,40.5535],[0.6024,40.5701],[0.5913,40.5601],[0.5553,40.5277],[0.5442,40.5178],[0.4977,40.4759],[0.4654,40.4469],[0.4513,40.4288],[0.4461,40.4084],[0.4203,40.3883],[0.3506,40.2849],[0.2988,40.2468],[0.2647,40.2098],[0.2485,40.1993],[0.1728,40.122],[0.1445,40.0788],[0.117,40.0563],[0.0662,40.0319],[0.0587,40.0234],[-0.0791,39.7321],[-0.0963,39.6957],[-0.1136,39.6593],[-0.148,39.5865],[-0.2169,39.4408],[-0.2787,39.3102],[-0.1695,39.1495],[-0.088,39.0296],[-0.0298,38.944],[-0.014,38.9208],[0.0052,38.8925],[0.0188,38.8725],[0.023,38.871],[0.06,38.8583],[0.111,38.8499],[0.154,38.831],[0.1853,38.8035],[0.1744,38.7979],[0.1786,38.7915],[0.2179,38.7681],[0.2277,38.7346],[0.1921,38.7304],[0.1626,38.7135],[0.145,38.6863],[0.1257,38.6855],[0.083,38.661],[0.0604,38.6348],[0.0237,38.6297],[-0.052,38.5848],[-0.0563,38.5828],[-0.06,38.5527],[-0.0902,38.5353],[-0.1317,38.5353],[-0.1606,38.5289],[-0.466,38.2928],[-0.5359,38.0825],[-0.61,37.8594],[-0.6193,37.8315],[-0.6404,37.8315],[-0.6707,37.8315],[-0.701,37.8315],[-0.7313,37.8315],[-0.7313,37.8322],[-0.7606,37.8322],[-0.7606,37.8459],[-0.7797,37.8429],[-0.8387,37.868],[-0.9167,37.9336],[-0.9822,38.0264],[-1.02,38.0685],[-1.0329,38.1169],[-1.0228,38.1463],[-0.9832,38.203],[-0.9692,38.2708],[-0.9836,38.3109],[-1.0119,38.3348],[-1.0767,38.3497],[-1.084,38.3746],[-1.0821,38.4311],[-1.024,38.4834],[-1.0057,38.5646],[-1.0054,38.5903],[-1.0221,38.6545],[-0.9396,38.664],[-0.9035,38.6887],[-0.9423,38.7312],[-0.9537,38.7626],[-0.9306,38.7855],[-0.9133,38.8246],[-0.9262,38.8553],[-0.9209,38.8862],[-0.9592,38.94],[-0.9911,38.9512],[-1.0379,38.9373],[-1.121,38.9326],[-1.1515,38.9485],[-1.2484,39.0381],[-1.2621,39.0737],[-1.2269,39.1468],[-1.2018,39.1704],[-1.1786,39.2206],[-1.1703,39.2883],[-1.1777,39.3041],[-1.3397,39.3417],[-1.4062,39.3706],[-1.4457,39.3669],[-1.4524,39.3902],[-1.501,39.422],[-1.5182,39.4518],[-1.4984,39.4961],[-1.5045,39.5455],[-1.4944,39.5673],[-1.4632,39.5902],[-1.4275,39.6452],[-1.372,39.6836],[-1.3204,39.6714],[-1.2922,39.6727],[-1.2655,39.6938],[-1.267,39.7435],[-1.2256,39.7963],[-1.2029,39.8633],[-1.1962,39.9506],[-1.1455,39.9723],[-1.1627,40.0115],[-1.243,39.9974],[-1.3695,40.0163],[-1.3783,40.0221],[-1.4169,40.1095],[-1.4523,40.1307],[-1.4485,40.1498]],[[-1.1639,42.4409],[-1.1945,42.4243],[-1.1904,42.4028],[-1.1581,42.426],[-1.1639,42.4409]],[[-1.1061,42.483],[-1.1342,42.4467],[-1.0755,42.4326],[-1.0672,42.4458],[-1.1061,42.483]]],[[[1.4455,38.6716],[1.4128,38.6464],[1.3829,38.6421],[1.3828,38.7116],[1.4078,38.7231],[1.4164,38.7397],[1.4344,38.7693],[1.4347,38.7691],[1.4348,38.7693],[1.496,38.712],[1.5932,38.7016],[1.5932,38.6716],[1.5774,38.6628],[1.5814,38.6531],[1.5234,38.6494],[1.478,38.6716],[1.4455,38.6716]]],[[[1.586,39.0055],[1.5762,38.9858],[1.5412,38.9678],[1.5098,38.9302],[1.4587,38.9001],[1.445,38.9132],[1.4408,38.91],[1.4096,38.8574],[1.4092,38.8575],[1.4092,38.8574],[1.4081,38.8575],[1.4031,38.8323],[1.3707,38.8318],[1.3435,38.8624],[1.3078,38.8579],[1.3003,38.8705],[1.2666,38.8703],[1.2599,38.8579],[1.2166,38.8851],[1.2122,38.9032],[1.2368,38.9652],[1.2505,38.9658],[1.2544,38.9741],[1.2992,38.9824],[1.2928,39.0333],[1.3214,39.0531],[1.348,39.0817],[1.4474,39.1001],[1.4507,39.1018],[1.4596,39.1024],[1.5292,39.1153],[1.5371,39.118],[1.5393,39.1171],[1.564,39.1217],[1.5641,39.1216],[1.5644,39.1217],[1.6148,39.0869],[1.6256,39.0383],[1.6255,39.0382],[1.6256,39.0379],[1.621,39.0342],[1.6231,39.0292],[1.6103,39.0254],[1.586,39.0055]]],[[[3.4,39.6101],[3.3987,39.6077],[3.406,39.592],[3.3324,39.5314],[3.2947,39.4802],[3.2918,39.4758],[3.2825,39.4201],[3.2688,39.4276],[3.2526,39.3862],[3.221,39.3599],[3.1294,39.3157],[3.0608,39.2691],[3.0293,39.3046],[3.0013,39.3177],[2.997,39.3306],[2.9212,39.3595],[2.9126,39.3587],[2.8255,39.3636],[2.7866,39.3759],[2.7617,39.4002],[2.7512,39.4548],[2.7366,39.4621],[2.7496,39.4909],[2.7448,39.5101],[2.7016,39.5414],[2.6335,39.5552],[2.576,39.531],[2.5629,39.5217],[2.5449,39.493],[2.5202,39.4728],[2.4927,39.4702],[2.469,39.5059],[2.4736,39.51],[2.4568,39.531],[2.4373,39.5337],[2.3919,39.5237],[2.3556,39.5587],[2.3577,39.6119],[2.4223,39.6433],[2.5122,39.6957],[2.5176,39.7001],[2.5215,39.7011],[2.6259,39.7619],[2.6314,39.7701],[2.6399,39.7701],[2.6782,39.7924],[2.7039,39.8142],[2.7412,39.8291],[2.7756,39.8492],[2.8132,39.8726],[2.8248,39.8726],[2.9032,39.9081],[3.1588,39.9706],[3.159,39.9706],[3.1592,39.9706],[3.1745,39.9672],[3.1795,39.9688],[3.184,39.9652],[3.1988,39.9619],[3.1985,39.9616],[3.1988,39.9615],[3.1946,39.9565],[3.2036,39.9492],[3.1823,39.942],[3.1664,39.9233],[3.1664,39.9081],[3.198,39.8911],[3.2068,39.893],[3.1931,39.8596],[3.1875,39.8577],[3.1592,39.8365],[3.1449,39.79],[3.2418,39.7571],[3.3424,39.7866],[3.3427,39.7866],[3.3428,39.7866],[3.3968,39.7779],[3.4508,39.7623],[3.4527,39.7511],[3.4744,39.7497],[3.4675,39.6876],[3.4432,39.6458],[3.4228,39.6385],[3.4148,39.6264],[3.4,39.6101]]],[[[4.3016,39.858],[4.3001,39.8218],[4.2481,39.8165],[4.1772,39.8433],[4.0151,39.9258],[3.9413,39.9368],[3.8693,39.9255],[3.8307,39.9361],[3.846,39.9732],[3.8428,39.9754],[3.8428,39.9758],[3.8435,39.9882],[3.8034,40.0132],[3.8219,40.0476],[3.8508,40.0526],[3.8536,40.0626],[4.0588,40.0747],[4.0589,40.0747],[4.0592,40.0747],[4.0801,40.0694],[4.1051,40.0794],[4.1224,40.0588],[4.1663,40.0478],[4.1765,40.0592],[4.178,40.0449],[4.2248,40.0331],[4.2518,39.9982],[4.2546,39.9975],[4.2717,39.9726],[4.2949,39.9426],[4.298,39.942],[4.2997,39.9363],[4.3148,39.9168],[4.322,39.8977],[4.3219,39.8975],[4.322,39.8973],[4.3208,39.895],[4.3371,39.8672],[4.3137,39.8812],[4.3016,39.858]]],[[[8.3981,39.4465],[8.4136,39.4641],[8.4535,39.4654],[8.4886,39.4806],[8.5306,39.4794],[8.5532,39.4545],[8.6049,39.4256],[8.6562,39.3784],[8.6993,39.3749],[8.7489,39.3973],[8.7822,39.4037],[8.93,39.3995],[8.9784,39.422],[8.968,39.4568],[9.0045,39.4774],[9.0097,39.5197],[8.9957,39.5463],[9.0109,39.5886],[9.0422,39.6395],[9.06,39.7238],[9.0578,39.7529],[9.0033,39.7605],[9.0629,39.8165],[9.1013,39.8317],[9.1593,39.8296],[9.2002,39.8262],[9.1961,39.8917],[9.2124,39.9101],[9.2804,39.9173],[9.2817,39.8746],[9.273,39.8507],[9.3084,39.7982],[9.3544,39.7756],[9.3622,39.7533],[9.3856,39.7405],[9.3455,39.6984],[9.3585,39.6823],[9.3882,39.692],[9.4019,39.6794],[9.3994,39.6498],[9.4195,39.6326],[9.4485,39.6373],[9.4936,39.6222],[9.5511,39.5755],[9.596,39.5729],[9.6463,39.5491],[9.6423,39.5386],[9.6696,39.5386],[9.7065,39.5386],[9.7023,39.4984],[9.6681,39.1763],[9.6677,39.1764],[9.6677,39.1763],[9.5784,39.189],[9.5799,39.1871],[9.5578,39.1397],[9.5227,39.1249],[9.4807,39.1356],[9.4429,39.1244],[9.3796,39.171],[9.2646,39.2167],[9.2073,39.2133],[9.1836,39.2062],[9.166,39.1871],[9.153,39.1903],[9.0315,39.0907],[9.03,39.0813],[9.0449,39.0513],[9.0151,38.9897],[8.9963,38.9828],[8.8947,38.9023],[8.8533,38.878],[8.8054,38.906],[8.791,38.9044],[8.7678,38.9162],[8.7173,38.9268],[8.704,38.9268],[8.6688,38.9106],[8.6428,38.89],[8.5999,38.8991],[8.615,38.923],[8.6106,38.9527],[8.6062,38.9557],[8.5801,38.9605],[8.5721,38.9982],[8.5517,39.0293],[8.527,39.0604],[8.5044,39.0629],[8.5138,39.077],[8.5093,39.0827],[8.4828,39.0804],[8.4733,39.1074],[8.4422,39.1182],[8.4354,39.166],[8.405,39.1744],[8.3987,39.2012],[8.3718,39.2306],[8.4131,39.2704],[8.4113,39.2914],[8.4083,39.3443],[8.3821,39.3597],[8.374,39.3789],[8.4014,39.4124],[8.3981,39.4465]]],[[[8.402,39.1044],[8.4446,39.1027],[8.4519,39.0839],[8.4801,39.0678],[8.4799,39.0675],[8.4801,39.0674],[8.4575,39.0286],[8.437,38.9672],[8.4098,38.9618],[8.3649,39.0295],[8.3493,39.0622],[8.346,39.0977],[8.3604,39.1182],[8.367,39.1148],[8.3681,39.1165],[8.3684,39.1164],[8.3685,39.1165],[8.402,39.1044]]]]}},
{"type":"Feature","properties":{"entityId":"aragon","from":1409,"to":1410,"certainty":"estimated","source":"유럽 쪽은 Natural Earth 1:10m admin-1(v5.1.2) 현대 행정구역 조각을 그 시기 국경에 맞춰 묶고, 조각이 역사 경계와 다른 곳은 선을 그어 나눈 근사. 유럽 밖(시베리아·중앙아시아·극동)은 대략적인 추정. 운영자 검수 필요"},"geometry":{"type":"MultiPolygon","coordinates":[[[[-1.4485,40.1498],[-1.4444,40.1967],[-1.5551,40.2054],[-1.6601,40.283],[-1.7,40.2948],[-1.7136,40.2877],[-1.7206,40.3354],[-1.7793,40.3922],[-1.8083,40.402],[-1.75,40.4592],[-1.6998,40.4933],[-1.6986,40.5424],[-1.6711,40.5893],[-1.5867,40.5706],[-1.5512,40.5951],[-1.5552,40.6142],[-1.5374,40.663],[-1.5397,40.6944],[-1.557,40.7252],[-1.5388,40.7768],[-1.5446,40.8174],[-1.601,40.8587],[-1.6141,40.8867],[-1.6102,40.9277],[-1.6219,40.9468],[-1.7328,41.026],[-1.7673,41.065],[-1.8169,41.097],[-1.9449,41.1644],[-1.9719,41.1699],[-2.0532,41.1504],[-2.0837,41.1719],[-2.1382,41.1815],[-2.1491,41.1939],[-2.1592,41.2692],[-2.1733,41.2946],[-2.1662,41.346],[-2.128,41.3768],[-2.1196,41.4237],[-2.0997,41.4426],[-2.0521,41.435],[-2.0408,41.3947],[-2.0141,41.3881],[-1.9459,41.4155],[-1.9528,41.4578],[-1.9787,41.5076],[-1.9759,41.5427],[-1.9883,41.5955],[-1.9695,41.6077],[-1.9235,41.603],[-1.894,41.6294],[-1.8073,41.6704],[-1.7855,41.7193],[-1.8085,41.7375],[-1.8459,41.7907],[-1.816,41.8517],[-1.8516,41.9061],[-1.8577,41.9548],[-1.8445,41.982],[-1.8524,42.0012],[-1.7766,41.993],[-1.7236,41.9606],[-1.6946,41.9533],[-1.6572,41.9622],[-1.6219,41.9512],[-1.5559,41.9116],[-1.4833,41.9222],[-1.4193,41.9089],[-1.3831,41.9437],[-1.3612,41.9838],[-1.316,42.0371],[-1.3239,42.0673],[-1.3507,42.0727],[-1.3942,42.1276],[-1.3966,42.178],[-1.4164,42.2206],[-1.384,42.3004],[-1.3345,42.3499],[-1.3504,42.3868],[-1.342,42.4148],[-1.2727,42.4876],[-1.2845,42.5166],[-1.2574,42.5532],[-1.2053,42.5581],[-1.185,42.5846],[-1.1533,42.6054],[-1.145,42.6414],[-1.0445,42.65],[-1.0246,42.6961],[-0.9771,42.7057],[-0.9044,42.7426],[-0.8569,42.7869],[-0.8462,42.8495],[-0.8192,42.8761],[-0.8062,42.9044],[-0.745,42.9187],[-0.7459,42.8939],[-0.7301,42.8775],[-0.7004,42.8764],[-0.6483,42.8498],[-0.6095,42.8114],[-0.5829,42.7958],[-0.5787,42.7773],[-0.5356,42.7842],[-0.5339,42.808],[-0.5084,42.8075],[-0.4545,42.7889],[-0.4239,42.7907],[-0.3228,42.8425],[-0.3051,42.8308],[-0.247,42.8048],[-0.2351,42.7862],[-0.2084,42.7839],[-0.1614,42.7953],[-0.1636,42.778],[-0.119,42.7169],[-0.0389,42.6851],[-0.0043,42.6875],[0.0728,42.7085],[0.1342,42.7152],[0.1692,42.7265],[0.2384,42.7104],[0.2754,42.6687],[0.2902,42.6703],[0.336,42.7127],[0.3542,42.7175],[0.3893,42.6851],[0.4669,42.6904],[0.4835,42.6853],[0.6082,42.688],[0.6436,42.6845],[0.6634,42.6962],[0.6665,42.7148],[0.6335,42.7448],[0.6537,42.8027],[0.6563,42.8384],[0.7243,42.8453],[0.7763,42.8325],[0.8129,42.8316],[0.8561,42.8128],[0.9211,42.7844],[0.9587,42.7937],[0.9829,42.7804],[1.0682,42.7761],[1.1067,42.7596],[1.1343,42.716],[1.1625,42.7057],[1.1959,42.7136],[1.3191,42.7134],[1.3611,42.6867],[1.398,42.6436],[1.4293,42.5954],[1.4193,42.5793],[1.418,42.5698],[1.4264,42.5656],[1.4263,42.5618],[1.4098,42.5406],[1.4065,42.5292],[1.429,42.5315],[1.4466,42.5199],[1.45,42.5041],[1.4302,42.4936],[1.4076,42.4868],[1.4364,42.4535],[1.4364,42.441],[1.4479,42.4346],[1.5085,42.4287],[1.5282,42.4342],[1.5444,42.4504],[1.5727,42.4531],[1.6075,42.4564],[1.6395,42.4664],[1.6504,42.4934],[1.657,42.4976],[1.6624,42.4937],[1.6742,42.4905],[1.6863,42.4906],[1.6975,42.4945],[1.707,42.5028],[1.7106,42.5277],[1.7171,42.5399],[1.7217,42.5485],[1.74,42.5616],[1.7651,42.5634],[1.7611,42.5676],[1.8728,42.579],[1.9383,42.5718],[1.9588,42.5944],[1.9628,42.6218],[2.0056,42.6561],[2.0983,42.6639],[2.154,42.6564],[2.1661,42.6638],[2.1895,42.6522],[2.2647,42.7089],[2.3067,42.7052],[2.343,42.7188],[2.3507,42.7452],[2.3309,42.8224],[2.3412,42.8374],[2.375,42.8473],[2.704,42.834],[2.7297,42.8403],[2.7839,42.8898],[2.8553,42.9138],[2.8927,42.8956],[3.0463,42.8371],[3.0455,42.8228],[3.0535,42.8228],[3.0502,42.806],[3.0604,42.7524],[3.087,42.6117],[3.0908,42.5919],[3.1911,42.471],[3.1988,42.4617],[3.2108,42.4358],[3.2132,42.4305],[3.2253,42.4006],[3.2384,42.368],[3.2888,42.3437],[3.2933,42.3303],[3.3177,42.323],[3.3044,42.297],[3.3068,42.2899],[3.3067,42.2899],[3.3068,42.2895],[3.2993,42.2869],[3.287,42.2629],[3.263,42.2399],[3.2101,42.2397],[3.1658,42.2526],[3.1521,42.163],[3.1736,42.1354],[3.224,42.1111],[3.2384,42.0833],[3.2492,41.9444],[3.2492,41.944],[3.2099,41.9115],[3.1949,41.8883],[3.1502,41.8454],[3.1272,41.8469],[3.0735,41.8119],[3.0691,41.7991],[3.0403,41.7869],[2.9509,41.7343],[2.933,41.7125],[2.8511,41.6972],[2.792,41.669],[2.7785,41.6456],[2.6519,41.6053],[2.6155,41.5927],[2.0936,41.226],[1.9058,41.195],[1.7284,41.1657],[1.6841,41.1584],[1.6397,41.1511],[1.5953,41.1438],[1.5509,41.1364],[1.196,41.0779],[1.1836,41.0626],[1.149,41.0701],[1.0133,41.0477],[0.8156,40.892],[0.7926,40.8762],[0.7705,40.8589],[0.7582,40.813],[0.7976,40.8039],[0.8912,40.7223],[0.891,40.7221],[0.8912,40.7219],[0.8588,40.6854],[0.8546,40.6837],[0.8483,40.6754],[0.8167,40.6683],[0.7624,40.6463],[0.7564,40.6422],[0.707,40.5834],[0.6771,40.5652],[0.6159,40.5535],[0.6024,40.5701],[0.5913,40.5601],[0.5553,40.5277],[0.5442,40.5178],[0.4977,40.4759],[0.4654,40.4469],[0.4513,40.4288],[0.4461,40.4084],[0.4203,40.3883],[0.3506,40.2849],[0.2988,40.2468],[0.2647,40.2098],[0.2485,40.1993],[0.1728,40.122],[0.1445,40.0788],[0.117,40.0563],[0.0662,40.0319],[0.0587,40.0234],[-0.0791,39.7321],[-0.0963,39.6957],[-0.1136,39.6593],[-0.148,39.5865],[-0.2169,39.4408],[-0.2787,39.3102],[-0.1695,39.1495],[-0.088,39.0296],[-0.0298,38.944],[-0.014,38.9208],[0.0052,38.8925],[0.0188,38.8725],[0.023,38.871],[0.06,38.8583],[0.111,38.8499],[0.154,38.831],[0.1853,38.8035],[0.1744,38.7979],[0.1786,38.7915],[0.2179,38.7681],[0.2277,38.7346],[0.1921,38.7304],[0.1626,38.7135],[0.145,38.6863],[0.1257,38.6855],[0.083,38.661],[0.0604,38.6348],[0.0237,38.6297],[-0.052,38.5848],[-0.0563,38.5828],[-0.06,38.5527],[-0.0902,38.5353],[-0.1317,38.5353],[-0.1606,38.5289],[-0.466,38.2928],[-0.5359,38.0825],[-0.61,37.8594],[-0.6193,37.8315],[-0.6404,37.8315],[-0.6707,37.8315],[-0.701,37.8315],[-0.7313,37.8315],[-0.7313,37.8322],[-0.7606,37.8322],[-0.7606,37.8459],[-0.7797,37.8429],[-0.8387,37.868],[-0.9167,37.9336],[-0.9822,38.0264],[-1.02,38.0685],[-1.0329,38.1169],[-1.0228,38.1463],[-0.9832,38.203],[-0.9692,38.2708],[-0.9836,38.3109],[-1.0119,38.3348],[-1.0767,38.3497],[-1.084,38.3746],[-1.0821,38.4311],[-1.024,38.4834],[-1.0057,38.5646],[-1.0054,38.5903],[-1.0221,38.6545],[-0.9396,38.664],[-0.9035,38.6887],[-0.9423,38.7312],[-0.9537,38.7626],[-0.9306,38.7855],[-0.9133,38.8246],[-0.9262,38.8553],[-0.9209,38.8862],[-0.9592,38.94],[-0.9911,38.9512],[-1.0379,38.9373],[-1.121,38.9326],[-1.1515,38.9485],[-1.2484,39.0381],[-1.2621,39.0737],[-1.2269,39.1468],[-1.2018,39.1704],[-1.1786,39.2206],[-1.1703,39.2883],[-1.1777,39.3041],[-1.3397,39.3417],[-1.4062,39.3706],[-1.4457,39.3669],[-1.4524,39.3902],[-1.501,39.422],[-1.5182,39.4518],[-1.4984,39.4961],[-1.5045,39.5455],[-1.4944,39.5673],[-1.4632,39.5902],[-1.4275,39.6452],[-1.372,39.6836],[-1.3204,39.6714],[-1.2922,39.6727],[-1.2655,39.6938],[-1.267,39.7435],[-1.2256,39.7963],[-1.2029,39.8633],[-1.1962,39.9506],[-1.1455,39.9723],[-1.1627,40.0115],[-1.243,39.9974],[-1.3695,40.0163],[-1.3783,40.0221],[-1.4169,40.1095],[-1.4523,40.1307],[-1.4485,40.1498]],[[-1.1639,42.4409],[-1.1945,42.4243],[-1.1904,42.4028],[-1.1581,42.426],[-1.1639,42.4409]],[[-1.1061,42.483],[-1.1342,42.4467],[-1.0755,42.4326],[-1.0672,42.4458],[-1.1061,42.483]]],[[[1.4455,38.6716],[1.4128,38.6464],[1.3829,38.6421],[1.3828,38.7116],[1.4078,38.7231],[1.4164,38.7397],[1.4344,38.7693],[1.4347,38.7691],[1.4348,38.7693],[1.496,38.712],[1.5932,38.7016],[1.5932,38.6716],[1.5774,38.6628],[1.5814,38.6531],[1.5234,38.6494],[1.478,38.6716],[1.4455,38.6716]]],[[[1.586,39.0055],[1.5762,38.9858],[1.5412,38.9678],[1.5098,38.9302],[1.4587,38.9001],[1.445,38.9132],[1.4408,38.91],[1.4096,38.8574],[1.4092,38.8575],[1.4092,38.8574],[1.4081,38.8575],[1.4031,38.8323],[1.3707,38.8318],[1.3435,38.8624],[1.3078,38.8579],[1.3003,38.8705],[1.2666,38.8703],[1.2599,38.8579],[1.2166,38.8851],[1.2122,38.9032],[1.2368,38.9652],[1.2505,38.9658],[1.2544,38.9741],[1.2992,38.9824],[1.2928,39.0333],[1.3214,39.0531],[1.348,39.0817],[1.4474,39.1001],[1.4507,39.1018],[1.4596,39.1024],[1.5292,39.1153],[1.5371,39.118],[1.5393,39.1171],[1.564,39.1217],[1.5641,39.1216],[1.5644,39.1217],[1.6148,39.0869],[1.6256,39.0383],[1.6255,39.0382],[1.6256,39.0379],[1.621,39.0342],[1.6231,39.0292],[1.6103,39.0254],[1.586,39.0055]]],[[[3.4,39.6101],[3.3987,39.6077],[3.406,39.592],[3.3324,39.5314],[3.2947,39.4802],[3.2918,39.4758],[3.2825,39.4201],[3.2688,39.4276],[3.2526,39.3862],[3.221,39.3599],[3.1294,39.3157],[3.0608,39.2691],[3.0293,39.3046],[3.0013,39.3177],[2.997,39.3306],[2.9212,39.3595],[2.9126,39.3587],[2.8255,39.3636],[2.7866,39.3759],[2.7617,39.4002],[2.7512,39.4548],[2.7366,39.4621],[2.7496,39.4909],[2.7448,39.5101],[2.7016,39.5414],[2.6335,39.5552],[2.576,39.531],[2.5629,39.5217],[2.5449,39.493],[2.5202,39.4728],[2.4927,39.4702],[2.469,39.5059],[2.4736,39.51],[2.4568,39.531],[2.4373,39.5337],[2.3919,39.5237],[2.3556,39.5587],[2.3577,39.6119],[2.4223,39.6433],[2.5122,39.6957],[2.5176,39.7001],[2.5215,39.7011],[2.6259,39.7619],[2.6314,39.7701],[2.6399,39.7701],[2.6782,39.7924],[2.7039,39.8142],[2.7412,39.8291],[2.7756,39.8492],[2.8132,39.8726],[2.8248,39.8726],[2.9032,39.9081],[3.1588,39.9706],[3.159,39.9706],[3.1592,39.9706],[3.1745,39.9672],[3.1795,39.9688],[3.184,39.9652],[3.1988,39.9619],[3.1985,39.9616],[3.1988,39.9615],[3.1946,39.9565],[3.2036,39.9492],[3.1823,39.942],[3.1664,39.9233],[3.1664,39.9081],[3.198,39.8911],[3.2068,39.893],[3.1931,39.8596],[3.1875,39.8577],[3.1592,39.8365],[3.1449,39.79],[3.2418,39.7571],[3.3424,39.7866],[3.3427,39.7866],[3.3428,39.7866],[3.3968,39.7779],[3.4508,39.7623],[3.4527,39.7511],[3.4744,39.7497],[3.4675,39.6876],[3.4432,39.6458],[3.4228,39.6385],[3.4148,39.6264],[3.4,39.6101]]],[[[4.3016,39.858],[4.3001,39.8218],[4.2481,39.8165],[4.1772,39.8433],[4.0151,39.9258],[3.9413,39.9368],[3.8693,39.9255],[3.8307,39.9361],[3.846,39.9732],[3.8428,39.9754],[3.8428,39.9758],[3.8435,39.9882],[3.8034,40.0132],[3.8219,40.0476],[3.8508,40.0526],[3.8536,40.0626],[4.0588,40.0747],[4.0589,40.0747],[4.0592,40.0747],[4.0801,40.0694],[4.1051,40.0794],[4.1224,40.0588],[4.1663,40.0478],[4.1765,40.0592],[4.178,40.0449],[4.2248,40.0331],[4.2518,39.9982],[4.2546,39.9975],[4.2717,39.9726],[4.2949,39.9426],[4.298,39.942],[4.2997,39.9363],[4.3148,39.9168],[4.322,39.8977],[4.3219,39.8975],[4.322,39.8973],[4.3208,39.895],[4.3371,39.8672],[4.3137,39.8812],[4.3016,39.858]]],[[[12.9632,38.0966],[12.9993,38.0938],[13.0491,38.0899],[13.0553,38.1304],[13.0582,38.1321],[13.0547,38.1418],[13.0894,38.166],[13.1009,38.1901],[13.1473,38.184],[13.1597,38.1912],[13.2342,38.1912],[13.2544,38.2025],[13.3102,38.2196],[13.3719,38.1728],[13.3732,38.1438],[13.3833,38.1269],[13.4337,38.1113],[13.4601,38.1073],[13.5135,38.1105],[13.5413,38.0941],[13.5445,38.0741],[13.5944,38.0473],[13.7395,38.036],[14.1286,38.0772],[14.1652,38.0811],[14.2017,38.0849],[14.2747,38.0927],[14.4207,38.1081],[14.7127,38.139],[14.7337,38.1576],[14.7627,38.1588],[14.7905,38.1669],[14.8445,38.1721],[14.8448,38.1721],[14.8449,38.1721],[14.855,38.1718],[14.874,38.1757],[14.9071,38.1877],[14.945,38.1818],[14.9574,38.1692],[14.9769,38.1687],[15.2037,38.1945],[15.2207,38.2102],[15.2407,38.2412],[15.245,38.2194],[15.2802,38.2311],[15.2804,38.231],[15.2806,38.2311],[15.3382,38.218],[15.3481,38.2204],[15.4998,38.2919],[15.5056,38.2922],[15.5129,38.2976],[15.5593,38.3001],[15.616,38.2802],[15.6516,38.2753],[15.6292,38.2638],[15.5758,38.2203],[15.5636,38.1999],[15.5759,38.2002],[15.527,38.1368],[15.5003,38.0849],[15.454,38.0382],[15.4116,37.9893],[15.345,37.8436],[15.3227,37.795],[15.3004,37.7463],[15.2559,37.649],[15.1669,37.4544],[15.1619,37.4434],[15.1798,37.4058],[15.203,37.3571],[15.2494,37.2598],[15.252,37.2577],[15.251,37.2565],[15.3094,37.1338],[15.3093,37.1336],[15.3094,37.1334],[15.297,37.1031],[15.3032,37.1012],[15.3027,37.0625],[15.2948,37.0567],[15.295,37.0558],[15.295,37.0467],[15.3123,37.044],[15.3324,37.0116],[15.3089,37.0178],[15.2888,37.0092],[15.2681,36.9939],[15.2681,36.9731],[15.2445,36.9721],[15.2435,36.9717],[15.1319,36.6976],[15.1349,36.6877],[15.1192,36.6663],[15.1006,36.6206],[15.1003,36.6208],[15.1002,36.6206],[15.0445,36.6479],[15.0071,36.6662],[14.9697,36.6845],[14.8912,36.723],[14.8878,36.7238],[14.8201,36.7154],[14.7808,36.6994],[14.7443,36.7191],[14.6846,36.726],[14.6622,36.7502],[14.6141,36.7672],[14.5565,36.7759],[14.5372,36.784],[14.4873,36.7934],[14.4758,36.8049],[14.4153,36.9092],[14.3668,36.9707],[14.3642,36.9732],[14.334,36.994],[14.3295,36.9971],[14.3038,37.0026],[14.2434,37.0155],[14.1227,37.0412],[14.0624,37.0541],[14.0322,37.0605],[14.002,37.067],[13.8812,37.0928],[13.8257,37.1046],[13.3983,37.2604],[12.9154,37.4364],[12.8852,37.4474],[12.8551,37.4584],[12.7947,37.4804],[12.674,37.5244],[12.4325,37.6124],[12.4326,37.6128],[12.4325,37.6128],[12.4632,37.7281],[12.4563,37.7598],[12.4274,37.8093],[12.4388,37.8126],[12.4361,37.8193],[12.4362,37.8195],[12.4361,37.8197],[12.47,37.9001],[12.4641,37.9129],[12.4905,37.954],[12.5042,38.0112],[12.4929,38.0214],[12.5234,38.0314],[12.5455,38.0482],[12.5477,38.0523],[12.5497,38.0535],[12.5693,38.1274],[12.5697,38.1274],[12.6757,38.119],[12.7025,38.1426],[12.721,38.1654],[12.7199,38.1755],[12.7304,38.1769],[12.7349,38.1825],[12.7351,38.1823],[12.7353,38.1825],[12.7396,38.1781],[12.7609,38.181],[12.7831,38.1335],[12.8072,38.1088],[12.9272,38.0994],[12.9632,38.0966]]],[[[8.3981,39.4465],[8.4136,39.4641],[8.4535,39.4654],[8.4886,39.4806],[8.5306,39.4794],[8.5532,39.4545],[8.6049,39.4256],[8.6562,39.3784],[8.6993,39.3749],[8.7489,39.3973],[8.7822,39.4037],[8.93,39.3995],[8.9784,39.422],[8.968,39.4568],[9.0045,39.4774],[9.0097,39.5197],[8.9957,39.5463],[9.0109,39.5886],[9.0422,39.6395],[9.06,39.7238],[9.0578,39.7529],[9.0033,39.7605],[9.0629,39.8165],[9.1013,39.8317],[9.1593,39.8296],[9.2002,39.8262],[9.1961,39.8917],[9.2124,39.9101],[9.2804,39.9173],[9.2817,39.8746],[9.273,39.8507],[9.3084,39.7982],[9.3544,39.7756],[9.3622,39.7533],[9.3856,39.7405],[9.3455,39.6984],[9.3585,39.6823],[9.3882,39.692],[9.4019,39.6794],[9.3994,39.6498],[9.4195,39.6326],[9.4485,39.6373],[9.4936,39.6222],[9.5511,39.5755],[9.596,39.5729],[9.6463,39.5491],[9.6423,39.5386],[9.6696,39.5386],[9.7065,39.5386],[9.7023,39.4984],[9.6681,39.1763],[9.6677,39.1764],[9.6677,39.1763],[9.5784,39.189],[9.5799,39.1871],[9.5578,39.1397],[9.5227,39.1249],[9.4807,39.1356],[9.4429,39.1244],[9.3796,39.171],[9.2646,39.2167],[9.2073,39.2133],[9.1836,39.2062],[9.166,39.1871],[9.153,39.1903],[9.0315,39.0907],[9.03,39.0813],[9.0449,39.0513],[9.0151,38.9897],[8.9963,38.9828],[8.8947,38.9023],[8.8533,38.878],[8.8054,38.906],[8.791,38.9044],[8.7678,38.9162],[8.7173,38.9268],[8.704,38.9268],[8.6688,38.9106],[8.6428,38.89],[8.5999,38.8991],[8.615,38.923],[8.6106,38.9527],[8.6062,38.9557],[8.5801,38.9605],[8.5721,38.9982],[8.5517,39.0293],[8.527,39.0604],[8.5044,39.0629],[8.5138,39.077],[8.5093,39.0827],[8.4828,39.0804],[8.4733,39.1074],[8.4422,39.1182],[8.4354,39.166],[8.405,39.1744],[8.3987,39.2012],[8.3718,39.2306],[8.4131,39.2704],[8.4113,39.2914],[8.4083,39.3443],[8.3821,39.3597],[8.374,39.3789],[8.4014,39.4124],[8.3981,39.4465]]],[[[8.402,39.1044],[8.4446,39.1027],[8.4519,39.0839],[8.4801,39.0678],[8.4799,39.0675],[8.4801,39.0674],[8.4575,39.0286],[8.437,38.9672],[8.4098,38.9618],[8.3649,39.0295],[8.3493,39.0622],[8.346,39.0977],[8.3604,39.1182],[8.367,39.1148],[8.3681,39.1165],[8.3684,39.1164],[8.3685,39.1165],[8.402,39.1044]]],[[[12.0334,36.8062],[12.0515,36.7904],[12.0535,36.7676],[12.0501,36.7637],[12.0513,36.7572],[12.0512,36.7572],[12.0513,36.7568],[12.0423,36.7548],[12.0306,36.7414],[11.9961,36.7449],[11.9726,36.7624],[11.9393,36.7794],[11.9387,36.7878],[11.9373,36.7888],[11.9222,36.8284],[11.9427,36.8386],[11.9465,36.844],[11.9468,36.8439],[11.9469,36.844],[11.9512,36.8428],[11.9513,36.8428],[11.9515,36.8427],[11.994,36.8306],[11.9995,36.8359],[12.0111,36.8258],[12.0261,36.8215],[12.0334,36.8062]]]]}},
{"type":"Feature","properties":{"entityId":"aragon","from":1410,"to":1420,"certainty":"estimated","source":"유럽 쪽은 Natural Earth 1:10m admin-1(v5.1.2) 현대 행정구역 조각을 그 시기 국경에 맞춰 묶고, 조각이 역사 경계와 다른 곳은 선을 그어 나눈 근사. 유럽 밖(시베리아·중앙아시아·극동)은 대략적인 추정. 운영자 검수 필요"},"geometry":{"type":"MultiPolygon","coordinates":[[[[-1.4485,40.1498],[-1.4444,40.1967],[-1.5551,40.2054],[-1.6601,40.283],[-1.7,40.2948],[-1.7136,40.2877],[-1.7206,40.3354],[-1.7793,40.3922],[-1.8083,40.402],[-1.75,40.4592],[-1.6998,40.4933],[-1.6986,40.5424],[-1.6711,40.5893],[-1.5867,40.5706],[-1.5512,40.5951],[-1.5552,40.6142],[-1.5374,40.663],[-1.5397,40.6944],[-1.557,40.7252],[-1.5388,40.7768],[-1.5446,40.8174],[-1.601,40.8587],[-1.6141,40.8867],[-1.6102,40.9277],[-1.6219,40.9468],[-1.7328,41.026],[-1.7673,41.065],[-1.8169,41.097],[-1.9449,41.1644],[-1.9719,41.1699],[-2.0532,41.1504],[-2.0837,41.1719],[-2.1382,41.1815],[-2.1491,41.1939],[-2.1592,41.2692],[-2.1733,41.2946],[-2.1662,41.346],[-2.128,41.3768],[-2.1196,41.4237],[-2.0997,41.4426],[-2.0521,41.435],[-2.0408,41.3947],[-2.0141,41.3881],[-1.9459,41.4155],[-1.9528,41.4578],[-1.9787,41.5076],[-1.9759,41.5427],[-1.9883,41.5955],[-1.9695,41.6077],[-1.9235,41.603],[-1.894,41.6294],[-1.8073,41.6704],[-1.7855,41.7193],[-1.8085,41.7375],[-1.8459,41.7907],[-1.816,41.8517],[-1.8516,41.9061],[-1.8577,41.9548],[-1.8445,41.982],[-1.8524,42.0012],[-1.7766,41.993],[-1.7236,41.9606],[-1.6946,41.9533],[-1.6572,41.9622],[-1.6219,41.9512],[-1.5559,41.9116],[-1.4833,41.9222],[-1.4193,41.9089],[-1.3831,41.9437],[-1.3612,41.9838],[-1.316,42.0371],[-1.3239,42.0673],[-1.3507,42.0727],[-1.3942,42.1276],[-1.3966,42.178],[-1.4164,42.2206],[-1.384,42.3004],[-1.3345,42.3499],[-1.3504,42.3868],[-1.342,42.4148],[-1.2727,42.4876],[-1.2845,42.5166],[-1.2574,42.5532],[-1.2053,42.5581],[-1.185,42.5846],[-1.1533,42.6054],[-1.145,42.6414],[-1.0445,42.65],[-1.0246,42.6961],[-0.9771,42.7057],[-0.9044,42.7426],[-0.8569,42.7869],[-0.8462,42.8495],[-0.8192,42.8761],[-0.8062,42.9044],[-0.745,42.9187],[-0.7459,42.8939],[-0.7301,42.8775],[-0.7004,42.8764],[-0.6483,42.8498],[-0.6095,42.8114],[-0.5829,42.7958],[-0.5787,42.7773],[-0.5356,42.7842],[-0.5339,42.808],[-0.5084,42.8075],[-0.4545,42.7889],[-0.4239,42.7907],[-0.3228,42.8425],[-0.3051,42.8308],[-0.247,42.8048],[-0.2351,42.7862],[-0.2084,42.7839],[-0.1614,42.7953],[-0.1636,42.778],[-0.119,42.7169],[-0.0389,42.6851],[-0.0043,42.6875],[0.0728,42.7085],[0.1342,42.7152],[0.1692,42.7265],[0.2384,42.7104],[0.2754,42.6687],[0.2902,42.6703],[0.336,42.7127],[0.3542,42.7175],[0.3893,42.6851],[0.4669,42.6904],[0.4835,42.6853],[0.6082,42.688],[0.6436,42.6845],[0.6634,42.6962],[0.6665,42.7148],[0.6335,42.7448],[0.6537,42.8027],[0.6563,42.8384],[0.7243,42.8453],[0.7763,42.8325],[0.8129,42.8316],[0.8561,42.8128],[0.9211,42.7844],[0.9587,42.7937],[0.9829,42.7804],[1.0682,42.7761],[1.1067,42.7596],[1.1343,42.716],[1.1625,42.7057],[1.1959,42.7136],[1.3191,42.7134],[1.3611,42.6867],[1.398,42.6436],[1.4293,42.5954],[1.4193,42.5793],[1.418,42.5698],[1.4264,42.5656],[1.4263,42.5618],[1.4098,42.5406],[1.4065,42.5292],[1.429,42.5315],[1.4466,42.5199],[1.45,42.5041],[1.4302,42.4936],[1.4076,42.4868],[1.4364,42.4535],[1.4364,42.441],[1.4479,42.4346],[1.5085,42.4287],[1.5282,42.4342],[1.5444,42.4504],[1.5727,42.4531],[1.6075,42.4564],[1.6395,42.4664],[1.6504,42.4934],[1.657,42.4976],[1.6624,42.4937],[1.6742,42.4905],[1.6863,42.4906],[1.6975,42.4945],[1.707,42.5028],[1.7106,42.5277],[1.7171,42.5399],[1.7217,42.5485],[1.74,42.5616],[1.7651,42.5634],[1.7611,42.5676],[1.8728,42.579],[1.9383,42.5718],[1.9588,42.5944],[1.9628,42.6218],[2.0056,42.6561],[2.0983,42.6639],[2.154,42.6564],[2.1661,42.6638],[2.1895,42.6522],[2.2647,42.7089],[2.3067,42.7052],[2.343,42.7188],[2.3507,42.7452],[2.3309,42.8224],[2.3412,42.8374],[2.375,42.8473],[2.704,42.834],[2.7297,42.8403],[2.7839,42.8898],[2.8553,42.9138],[2.8927,42.8956],[3.0463,42.8371],[3.0455,42.8228],[3.0535,42.8228],[3.0502,42.806],[3.0604,42.7524],[3.087,42.6117],[3.0908,42.5919],[3.1911,42.471],[3.1988,42.4617],[3.2108,42.4358],[3.2132,42.4305],[3.2253,42.4006],[3.2384,42.368],[3.2888,42.3437],[3.2933,42.3303],[3.3177,42.323],[3.3044,42.297],[3.3068,42.2899],[3.3067,42.2899],[3.3068,42.2895],[3.2993,42.2869],[3.287,42.2629],[3.263,42.2399],[3.2101,42.2397],[3.1658,42.2526],[3.1521,42.163],[3.1736,42.1354],[3.224,42.1111],[3.2384,42.0833],[3.2492,41.9444],[3.2492,41.944],[3.2099,41.9115],[3.1949,41.8883],[3.1502,41.8454],[3.1272,41.8469],[3.0735,41.8119],[3.0691,41.7991],[3.0403,41.7869],[2.9509,41.7343],[2.933,41.7125],[2.8511,41.6972],[2.792,41.669],[2.7785,41.6456],[2.6519,41.6053],[2.6155,41.5927],[2.0936,41.226],[1.9058,41.195],[1.7284,41.1657],[1.6841,41.1584],[1.6397,41.1511],[1.5953,41.1438],[1.5509,41.1364],[1.196,41.0779],[1.1836,41.0626],[1.149,41.0701],[1.0133,41.0477],[0.8156,40.892],[0.7926,40.8762],[0.7705,40.8589],[0.7582,40.813],[0.7976,40.8039],[0.8912,40.7223],[0.891,40.7221],[0.8912,40.7219],[0.8588,40.6854],[0.8546,40.6837],[0.8483,40.6754],[0.8167,40.6683],[0.7624,40.6463],[0.7564,40.6422],[0.707,40.5834],[0.6771,40.5652],[0.6159,40.5535],[0.6024,40.5701],[0.5913,40.5601],[0.5553,40.5277],[0.5442,40.5178],[0.4977,40.4759],[0.4654,40.4469],[0.4513,40.4288],[0.4461,40.4084],[0.4203,40.3883],[0.3506,40.2849],[0.2988,40.2468],[0.2647,40.2098],[0.2485,40.1993],[0.1728,40.122],[0.1445,40.0788],[0.117,40.0563],[0.0662,40.0319],[0.0587,40.0234],[-0.0791,39.7321],[-0.0963,39.6957],[-0.1136,39.6593],[-0.148,39.5865],[-0.2169,39.4408],[-0.2787,39.3102],[-0.1695,39.1495],[-0.088,39.0296],[-0.0298,38.944],[-0.014,38.9208],[0.0052,38.8925],[0.0188,38.8725],[0.023,38.871],[0.06,38.8583],[0.111,38.8499],[0.154,38.831],[0.1853,38.8035],[0.1744,38.7979],[0.1786,38.7915],[0.2179,38.7681],[0.2277,38.7346],[0.1921,38.7304],[0.1626,38.7135],[0.145,38.6863],[0.1257,38.6855],[0.083,38.661],[0.0604,38.6348],[0.0237,38.6297],[-0.052,38.5848],[-0.0563,38.5828],[-0.06,38.5527],[-0.0902,38.5353],[-0.1317,38.5353],[-0.1606,38.5289],[-0.466,38.2928],[-0.5359,38.0825],[-0.61,37.8594],[-0.6193,37.8315],[-0.6404,37.8315],[-0.6707,37.8315],[-0.701,37.8315],[-0.7313,37.8315],[-0.7313,37.8322],[-0.7606,37.8322],[-0.7606,37.8459],[-0.7797,37.8429],[-0.8387,37.868],[-0.9167,37.9336],[-0.9822,38.0264],[-1.02,38.0685],[-1.0329,38.1169],[-1.0228,38.1463],[-0.9832,38.203],[-0.9692,38.2708],[-0.9836,38.3109],[-1.0119,38.3348],[-1.0767,38.3497],[-1.084,38.3746],[-1.0821,38.4311],[-1.024,38.4834],[-1.0057,38.5646],[-1.0054,38.5903],[-1.0221,38.6545],[-0.9396,38.664],[-0.9035,38.6887],[-0.9423,38.7312],[-0.9537,38.7626],[-0.9306,38.7855],[-0.9133,38.8246],[-0.9262,38.8553],[-0.9209,38.8862],[-0.9592,38.94],[-0.9911,38.9512],[-1.0379,38.9373],[-1.121,38.9326],[-1.1515,38.9485],[-1.2484,39.0381],[-1.2621,39.0737],[-1.2269,39.1468],[-1.2018,39.1704],[-1.1786,39.2206],[-1.1703,39.2883],[-1.1777,39.3041],[-1.3397,39.3417],[-1.4062,39.3706],[-1.4457,39.3669],[-1.4524,39.3902],[-1.501,39.422],[-1.5182,39.4518],[-1.4984,39.4961],[-1.5045,39.5455],[-1.4944,39.5673],[-1.4632,39.5902],[-1.4275,39.6452],[-1.372,39.6836],[-1.3204,39.6714],[-1.2922,39.6727],[-1.2655,39.6938],[-1.267,39.7435],[-1.2256,39.7963],[-1.2029,39.8633],[-1.1962,39.9506],[-1.1455,39.9723],[-1.1627,40.0115],[-1.243,39.9974],[-1.3695,40.0163],[-1.3783,40.0221],[-1.4169,40.1095],[-1.4523,40.1307],[-1.4485,40.1498]],[[-1.1639,42.4409],[-1.1945,42.4243],[-1.1904,42.4028],[-1.1581,42.426],[-1.1639,42.4409]],[[-1.1061,42.483],[-1.1342,42.4467],[-1.0755,42.4326],[-1.0672,42.4458],[-1.1061,42.483]]],[[[1.4455,38.6716],[1.4128,38.6464],[1.3829,38.6421],[1.3828,38.7116],[1.4078,38.7231],[1.4164,38.7397],[1.4344,38.7693],[1.4347,38.7691],[1.4348,38.7693],[1.496,38.712],[1.5932,38.7016],[1.5932,38.6716],[1.5774,38.6628],[1.5814,38.6531],[1.5234,38.6494],[1.478,38.6716],[1.4455,38.6716]]],[[[1.586,39.0055],[1.5762,38.9858],[1.5412,38.9678],[1.5098,38.9302],[1.4587,38.9001],[1.445,38.9132],[1.4408,38.91],[1.4096,38.8574],[1.4092,38.8575],[1.4092,38.8574],[1.4081,38.8575],[1.4031,38.8323],[1.3707,38.8318],[1.3435,38.8624],[1.3078,38.8579],[1.3003,38.8705],[1.2666,38.8703],[1.2599,38.8579],[1.2166,38.8851],[1.2122,38.9032],[1.2368,38.9652],[1.2505,38.9658],[1.2544,38.9741],[1.2992,38.9824],[1.2928,39.0333],[1.3214,39.0531],[1.348,39.0817],[1.4474,39.1001],[1.4507,39.1018],[1.4596,39.1024],[1.5292,39.1153],[1.5371,39.118],[1.5393,39.1171],[1.564,39.1217],[1.5641,39.1216],[1.5644,39.1217],[1.6148,39.0869],[1.6256,39.0383],[1.6255,39.0382],[1.6256,39.0379],[1.621,39.0342],[1.6231,39.0292],[1.6103,39.0254],[1.586,39.0055]]],[[[3.4,39.6101],[3.3987,39.6077],[3.406,39.592],[3.3324,39.5314],[3.2947,39.4802],[3.2918,39.4758],[3.2825,39.4201],[3.2688,39.4276],[3.2526,39.3862],[3.221,39.3599],[3.1294,39.3157],[3.0608,39.2691],[3.0293,39.3046],[3.0013,39.3177],[2.997,39.3306],[2.9212,39.3595],[2.9126,39.3587],[2.8255,39.3636],[2.7866,39.3759],[2.7617,39.4002],[2.7512,39.4548],[2.7366,39.4621],[2.7496,39.4909],[2.7448,39.5101],[2.7016,39.5414],[2.6335,39.5552],[2.576,39.531],[2.5629,39.5217],[2.5449,39.493],[2.5202,39.4728],[2.4927,39.4702],[2.469,39.5059],[2.4736,39.51],[2.4568,39.531],[2.4373,39.5337],[2.3919,39.5237],[2.3556,39.5587],[2.3577,39.6119],[2.4223,39.6433],[2.5122,39.6957],[2.5176,39.7001],[2.5215,39.7011],[2.6259,39.7619],[2.6314,39.7701],[2.6399,39.7701],[2.6782,39.7924],[2.7039,39.8142],[2.7412,39.8291],[2.7756,39.8492],[2.8132,39.8726],[2.8248,39.8726],[2.9032,39.9081],[3.1588,39.9706],[3.159,39.9706],[3.1592,39.9706],[3.1745,39.9672],[3.1795,39.9688],[3.184,39.9652],[3.1988,39.9619],[3.1985,39.9616],[3.1988,39.9615],[3.1946,39.9565],[3.2036,39.9492],[3.1823,39.942],[3.1664,39.9233],[3.1664,39.9081],[3.198,39.8911],[3.2068,39.893],[3.1931,39.8596],[3.1875,39.8577],[3.1592,39.8365],[3.1449,39.79],[3.2418,39.7571],[3.3424,39.7866],[3.3427,39.7866],[3.3428,39.7866],[3.3968,39.7779],[3.4508,39.7623],[3.4527,39.7511],[3.4744,39.7497],[3.4675,39.6876],[3.4432,39.6458],[3.4228,39.6385],[3.4148,39.6264],[3.4,39.6101]]],[[[4.3016,39.858],[4.3001,39.8218],[4.2481,39.8165],[4.1772,39.8433],[4.0151,39.9258],[3.9413,39.9368],[3.8693,39.9255],[3.8307,39.9361],[3.846,39.9732],[3.8428,39.9754],[3.8428,39.9758],[3.8435,39.9882],[3.8034,40.0132],[3.8219,40.0476],[3.8508,40.0526],[3.8536,40.0626],[4.0588,40.0747],[4.0589,40.0747],[4.0592,40.0747],[4.0801,40.0694],[4.1051,40.0794],[4.1224,40.0588],[4.1663,40.0478],[4.1765,40.0592],[4.178,40.0449],[4.2248,40.0331],[4.2518,39.9982],[4.2546,39.9975],[4.2717,39.9726],[4.2949,39.9426],[4.298,39.942],[4.2997,39.9363],[4.3148,39.9168],[4.322,39.8977],[4.3219,39.8975],[4.322,39.8973],[4.3208,39.895],[4.3371,39.8672],[4.3137,39.8812],[4.3016,39.858]]],[[[12.9632,38.0966],[12.9993,38.0938],[13.0491,38.0899],[13.0553,38.1304],[13.0582,38.1321],[13.0547,38.1418],[13.0894,38.166],[13.1009,38.1901],[13.1473,38.184],[13.1597,38.1912],[13.2342,38.1912],[13.2544,38.2025],[13.3102,38.2196],[13.3719,38.1728],[13.3732,38.1438],[13.3833,38.1269],[13.4337,38.1113],[13.4601,38.1073],[13.5135,38.1105],[13.5413,38.0941],[13.5445,38.0741],[13.5944,38.0473],[13.7395,38.036],[14.1286,38.0772],[14.1652,38.0811],[14.2017,38.0849],[14.2747,38.0927],[14.4207,38.1081],[14.7127,38.139],[14.7337,38.1576],[14.7627,38.1588],[14.7905,38.1669],[14.8445,38.1721],[14.8448,38.1721],[14.8449,38.1721],[14.855,38.1718],[14.874,38.1757],[14.9071,38.1877],[14.945,38.1818],[14.9574,38.1692],[14.9769,38.1687],[15.2037,38.1945],[15.2207,38.2102],[15.2407,38.2412],[15.245,38.2194],[15.2802,38.2311],[15.2804,38.231],[15.2806,38.2311],[15.3382,38.218],[15.3481,38.2204],[15.4998,38.2919],[15.5056,38.2922],[15.5129,38.2976],[15.5593,38.3001],[15.616,38.2802],[15.6516,38.2753],[15.6292,38.2638],[15.5758,38.2203],[15.5636,38.1999],[15.5759,38.2002],[15.527,38.1368],[15.5003,38.0849],[15.454,38.0382],[15.4116,37.9893],[15.345,37.8436],[15.3227,37.795],[15.3004,37.7463],[15.2559,37.649],[15.1669,37.4544],[15.1619,37.4434],[15.1798,37.4058],[15.203,37.3571],[15.2494,37.2598],[15.252,37.2577],[15.251,37.2565],[15.3094,37.1338],[15.3093,37.1336],[15.3094,37.1334],[15.297,37.1031],[15.3032,37.1012],[15.3027,37.0625],[15.2948,37.0567],[15.295,37.0558],[15.295,37.0467],[15.3123,37.044],[15.3324,37.0116],[15.3089,37.0178],[15.2888,37.0092],[15.2681,36.9939],[15.2681,36.9731],[15.2445,36.9721],[15.2435,36.9717],[15.1319,36.6976],[15.1349,36.6877],[15.1192,36.6663],[15.1006,36.6206],[15.1003,36.6208],[15.1002,36.6206],[15.0445,36.6479],[15.0071,36.6662],[14.9697,36.6845],[14.8912,36.723],[14.8878,36.7238],[14.8201,36.7154],[14.7808,36.6994],[14.7443,36.7191],[14.6846,36.726],[14.6622,36.7502],[14.6141,36.7672],[14.5565,36.7759],[14.5372,36.784],[14.4873,36.7934],[14.4758,36.8049],[14.4153,36.9092],[14.3668,36.9707],[14.3642,36.9732],[14.334,36.994],[14.3295,36.9971],[14.3038,37.0026],[14.2434,37.0155],[14.1227,37.0412],[14.0624,37.0541],[14.0322,37.0605],[14.002,37.067],[13.8812,37.0928],[13.8257,37.1046],[13.3983,37.2604],[12.9154,37.4364],[12.8852,37.4474],[12.8551,37.4584],[12.7947,37.4804],[12.674,37.5244],[12.4325,37.6124],[12.4326,37.6128],[12.4325,37.6128],[12.4632,37.7281],[12.4563,37.7598],[12.4274,37.8093],[12.4388,37.8126],[12.4361,37.8193],[12.4362,37.8195],[12.4361,37.8197],[12.47,37.9001],[12.4641,37.9129],[12.4905,37.954],[12.5042,38.0112],[12.4929,38.0214],[12.5234,38.0314],[12.5455,38.0482],[12.5477,38.0523],[12.5497,38.0535],[12.5693,38.1274],[12.5697,38.1274],[12.6757,38.119],[12.7025,38.1426],[12.721,38.1654],[12.7199,38.1755],[12.7304,38.1769],[12.7349,38.1825],[12.7351,38.1823],[12.7353,38.1825],[12.7396,38.1781],[12.7609,38.181],[12.7831,38.1335],[12.8072,38.1088],[12.9272,38.0994],[12.9632,38.0966]]],[[[8.3981,39.4465],[8.3869,39.4698],[8.4042,39.4896],[8.4178,39.5211],[8.4118,39.7019],[8.4084,39.808],[8.4075,39.8346],[8.4066,39.8611],[8.4053,39.9002],[8.3983,39.9053],[8.3936,39.9769],[8.4019,40.0048],[8.4012,40.0274],[8.3845,40.0419],[8.4006,40.0452],[8.3906,40.3508],[8.386,40.3518],[8.3889,40.3802],[8.376,40.412],[8.3921,40.412],[8.3921,40.4123],[8.4306,40.3961],[8.472,40.4052],[8.4931,40.4218],[8.5296,40.4119],[8.5704,40.3742],[8.5927,40.3381],[8.6203,40.3188],[8.6465,40.3063],[8.6705,40.3102],[8.7103,40.3413],[8.8056,40.3627],[8.8161,40.4058],[8.8371,40.4138],[8.8584,40.3924],[8.9413,40.3728],[9.0002,40.317],[9.0279,40.3053],[9.0591,40.3326],[9.1833,40.3711],[9.2005,40.4001],[9.2228,40.4096],[9.2499,40.4642],[9.2806,40.4858],[9.2585,40.5052],[9.2119,40.5026],[9.1918,40.5128],[9.1895,40.5368],[9.3191,40.5502],[9.3669,40.5742],[9.3909,40.5953],[9.424,40.6535],[9.4542,40.659],[9.5037,40.6484],[9.5744,40.6898],[9.6021,40.6987],[9.6379,40.6956],[9.6798,40.6663],[9.7036,40.6772],[9.7488,40.6603],[9.7481,40.6637],[9.7941,40.5556],[9.7943,40.5548],[9.8267,40.5196],[9.8088,40.4708],[9.8047,40.4644],[9.7877,40.3034],[9.7834,40.2632],[9.7791,40.2229],[9.7706,40.1424],[9.7364,39.8204],[9.7193,39.6594],[9.7108,39.5789],[9.7065,39.5386],[9.7023,39.4984],[9.6681,39.1763],[9.6677,39.1764],[9.6677,39.1763],[9.5784,39.189],[9.5799,39.1871],[9.5578,39.1397],[9.5227,39.1249],[9.4807,39.1356],[9.4429,39.1244],[9.3796,39.171],[9.2646,39.2167],[9.2073,39.2133],[9.1836,39.2062],[9.166,39.1871],[9.153,39.1903],[9.0315,39.0907],[9.03,39.0813],[9.0449,39.0513],[9.0151,38.9897],[8.9963,38.9828],[8.8947,38.9023],[8.8533,38.878],[8.8054,38.906],[8.791,38.9044],[8.7678,38.9162],[8.7173,38.9268],[8.704,38.9268],[8.6688,38.9106],[8.6428,38.89],[8.5999,38.8991],[8.615,38.923],[8.6106,38.9527],[8.6062,38.9557],[8.5801,38.9605],[8.5721,38.9982],[8.5517,39.0293],[8.527,39.0604],[8.5044,39.0629],[8.5138,39.077],[8.5093,39.0827],[8.4828,39.0804],[8.4733,39.1074],[8.4422,39.1182],[8.4354,39.166],[8.405,39.1744],[8.3987,39.2012],[8.3718,39.2306],[8.4131,39.2704],[8.4113,39.2914],[8.4083,39.3443],[8.3821,39.3597],[8.374,39.3789],[8.4014,39.4124],[8.3981,39.4465]]],[[[8.402,39.1044],[8.4446,39.1027],[8.4519,39.0839],[8.4801,39.0678],[8.4799,39.0675],[8.4801,39.0674],[8.4575,39.0286],[8.437,38.9672],[8.4098,38.9618],[8.3649,39.0295],[8.3493,39.0622],[8.346,39.0977],[8.3604,39.1182],[8.367,39.1148],[8.3681,39.1165],[8.3684,39.1164],[8.3685,39.1165],[8.402,39.1044]]],[[[12.0334,36.8062],[12.0515,36.7904],[12.0535,36.7676],[12.0501,36.7637],[12.0513,36.7572],[12.0512,36.7572],[12.0513,36.7568],[12.0423,36.7548],[12.0306,36.7414],[11.9961,36.7449],[11.9726,36.7624],[11.9393,36.7794],[11.9387,36.7878],[11.9373,36.7888],[11.9222,36.8284],[11.9427,36.8386],[11.9465,36.844],[11.9468,36.8439],[11.9469,36.844],[11.9512,36.8428],[11.9513,36.8428],[11.9515,36.8427],[11.994,36.8306],[11.9995,36.8359],[12.0111,36.8258],[12.0261,36.8215],[12.0334,36.8062]]]]}},
{"type":"Feature","properties":{"entityId":"aragon","from":1420,"to":1479,"certainty":"estimated","source":"유럽 쪽은 Natural Earth 1:10m admin-1(v5.1.2) 현대 행정구역 조각을 그 시기 국경에 맞춰 묶고, 조각이 역사 경계와 다른 곳은 선을 그어 나눈 근사. 유럽 밖(시베리아·중앙아시아·극동)은 대략적인 추정. 운영자 검수 필요"},"geometry":{"type":"MultiPolygon","coordinates":[[[[-1.4485,40.1498],[-1.4444,40.1967],[-1.5551,40.2054],[-1.6601,40.283],[-1.7,40.2948],[-1.7136,40.2877],[-1.7206,40.3354],[-1.7793,40.3922],[-1.8083,40.402],[-1.75,40.4592],[-1.6998,40.4933],[-1.6986,40.5424],[-1.6711,40.5893],[-1.5867,40.5706],[-1.5512,40.5951],[-1.5552,40.6142],[-1.5374,40.663],[-1.5397,40.6944],[-1.557,40.7252],[-1.5388,40.7768],[-1.5446,40.8174],[-1.601,40.8587],[-1.6141,40.8867],[-1.6102,40.9277],[-1.6219,40.9468],[-1.7328,41.026],[-1.7673,41.065],[-1.8169,41.097],[-1.9449,41.1644],[-1.9719,41.1699],[-2.0532,41.1504],[-2.0837,41.1719],[-2.1382,41.1815],[-2.1491,41.1939],[-2.1592,41.2692],[-2.1733,41.2946],[-2.1662,41.346],[-2.128,41.3768],[-2.1196,41.4237],[-2.0997,41.4426],[-2.0521,41.435],[-2.0408,41.3947],[-2.0141,41.3881],[-1.9459,41.4155],[-1.9528,41.4578],[-1.9787,41.5076],[-1.9759,41.5427],[-1.9883,41.5955],[-1.9695,41.6077],[-1.9235,41.603],[-1.894,41.6294],[-1.8073,41.6704],[-1.7855,41.7193],[-1.8085,41.7375],[-1.8459,41.7907],[-1.816,41.8517],[-1.8516,41.9061],[-1.8577,41.9548],[-1.8445,41.982],[-1.8524,42.0012],[-1.7766,41.993],[-1.7236,41.9606],[-1.6946,41.9533],[-1.6572,41.9622],[-1.6219,41.9512],[-1.5559,41.9116],[-1.4833,41.9222],[-1.4193,41.9089],[-1.3831,41.9437],[-1.3612,41.9838],[-1.316,42.0371],[-1.3239,42.0673],[-1.3507,42.0727],[-1.3942,42.1276],[-1.3966,42.178],[-1.4164,42.2206],[-1.384,42.3004],[-1.3345,42.3499],[-1.3504,42.3868],[-1.342,42.4148],[-1.2727,42.4876],[-1.2845,42.5166],[-1.2574,42.5532],[-1.2053,42.5581],[-1.185,42.5846],[-1.1533,42.6054],[-1.145,42.6414],[-1.0445,42.65],[-1.0246,42.6961],[-0.9771,42.7057],[-0.9044,42.7426],[-0.8569,42.7869],[-0.8462,42.8495],[-0.8192,42.8761],[-0.8062,42.9044],[-0.745,42.9187],[-0.7459,42.8939],[-0.7301,42.8775],[-0.7004,42.8764],[-0.6483,42.8498],[-0.6095,42.8114],[-0.5829,42.7958],[-0.5787,42.7773],[-0.5356,42.7842],[-0.5339,42.808],[-0.5084,42.8075],[-0.4545,42.7889],[-0.4239,42.7907],[-0.3228,42.8425],[-0.3051,42.8308],[-0.247,42.8048],[-0.2351,42.7862],[-0.2084,42.7839],[-0.1614,42.7953],[-0.1636,42.778],[-0.119,42.7169],[-0.0389,42.6851],[-0.0043,42.6875],[0.0728,42.7085],[0.1342,42.7152],[0.1692,42.7265],[0.2384,42.7104],[0.2754,42.6687],[0.2902,42.6703],[0.336,42.7127],[0.3542,42.7175],[0.3893,42.6851],[0.4669,42.6904],[0.4835,42.6853],[0.6082,42.688],[0.6436,42.6845],[0.6634,42.6962],[0.6665,42.7148],[0.6335,42.7448],[0.6537,42.8027],[0.6563,42.8384],[0.7243,42.8453],[0.7763,42.8325],[0.8129,42.8316],[0.8561,42.8128],[0.9211,42.7844],[0.9587,42.7937],[0.9829,42.7804],[1.0682,42.7761],[1.1067,42.7596],[1.1343,42.716],[1.1625,42.7057],[1.1959,42.7136],[1.3191,42.7134],[1.3611,42.6867],[1.398,42.6436],[1.4293,42.5954],[1.4193,42.5793],[1.418,42.5698],[1.4264,42.5656],[1.4263,42.5618],[1.4098,42.5406],[1.4065,42.5292],[1.429,42.5315],[1.4466,42.5199],[1.45,42.5041],[1.4302,42.4936],[1.4076,42.4868],[1.4364,42.4535],[1.4364,42.441],[1.4479,42.4346],[1.5085,42.4287],[1.5282,42.4342],[1.5444,42.4504],[1.5727,42.4531],[1.6075,42.4564],[1.6395,42.4664],[1.6504,42.4934],[1.657,42.4976],[1.6624,42.4937],[1.6742,42.4905],[1.6863,42.4906],[1.6975,42.4945],[1.707,42.5028],[1.7106,42.5277],[1.7171,42.5399],[1.7217,42.5485],[1.74,42.5616],[1.7651,42.5634],[1.7611,42.5676],[1.8728,42.579],[1.9383,42.5718],[1.9588,42.5944],[1.9628,42.6218],[2.0056,42.6561],[2.0983,42.6639],[2.154,42.6564],[2.1661,42.6638],[2.1895,42.6522],[2.2647,42.7089],[2.3067,42.7052],[2.343,42.7188],[2.3507,42.7452],[2.3309,42.8224],[2.3412,42.8374],[2.375,42.8473],[2.704,42.834],[2.7297,42.8403],[2.7839,42.8898],[2.8553,42.9138],[2.8927,42.8956],[3.0463,42.8371],[3.0455,42.8228],[3.0535,42.8228],[3.0502,42.806],[3.0604,42.7524],[3.087,42.6117],[3.0908,42.5919],[3.1911,42.471],[3.1988,42.4617],[3.2108,42.4358],[3.2132,42.4305],[3.2253,42.4006],[3.2384,42.368],[3.2888,42.3437],[3.2933,42.3303],[3.3177,42.323],[3.3044,42.297],[3.3068,42.2899],[3.3067,42.2899],[3.3068,42.2895],[3.2993,42.2869],[3.287,42.2629],[3.263,42.2399],[3.2101,42.2397],[3.1658,42.2526],[3.1521,42.163],[3.1736,42.1354],[3.224,42.1111],[3.2384,42.0833],[3.2492,41.9444],[3.2492,41.944],[3.2099,41.9115],[3.1949,41.8883],[3.1502,41.8454],[3.1272,41.8469],[3.0735,41.8119],[3.0691,41.7991],[3.0403,41.7869],[2.9509,41.7343],[2.933,41.7125],[2.8511,41.6972],[2.792,41.669],[2.7785,41.6456],[2.6519,41.6053],[2.6155,41.5927],[2.0936,41.226],[1.9058,41.195],[1.7284,41.1657],[1.6841,41.1584],[1.6397,41.1511],[1.5953,41.1438],[1.5509,41.1364],[1.196,41.0779],[1.1836,41.0626],[1.149,41.0701],[1.0133,41.0477],[0.8156,40.892],[0.7926,40.8762],[0.7705,40.8589],[0.7582,40.813],[0.7976,40.8039],[0.8912,40.7223],[0.891,40.7221],[0.8912,40.7219],[0.8588,40.6854],[0.8546,40.6837],[0.8483,40.6754],[0.8167,40.6683],[0.7624,40.6463],[0.7564,40.6422],[0.707,40.5834],[0.6771,40.5652],[0.6159,40.5535],[0.6024,40.5701],[0.5913,40.5601],[0.5553,40.5277],[0.5442,40.5178],[0.4977,40.4759],[0.4654,40.4469],[0.4513,40.4288],[0.4461,40.4084],[0.4203,40.3883],[0.3506,40.2849],[0.2988,40.2468],[0.2647,40.2098],[0.2485,40.1993],[0.1728,40.122],[0.1445,40.0788],[0.117,40.0563],[0.0662,40.0319],[0.0587,40.0234],[-0.0791,39.7321],[-0.0963,39.6957],[-0.1136,39.6593],[-0.148,39.5865],[-0.2169,39.4408],[-0.2787,39.3102],[-0.1695,39.1495],[-0.088,39.0296],[-0.0298,38.944],[-0.014,38.9208],[0.0052,38.8925],[0.0188,38.8725],[0.023,38.871],[0.06,38.8583],[0.111,38.8499],[0.154,38.831],[0.1853,38.8035],[0.1744,38.7979],[0.1786,38.7915],[0.2179,38.7681],[0.2277,38.7346],[0.1921,38.7304],[0.1626,38.7135],[0.145,38.6863],[0.1257,38.6855],[0.083,38.661],[0.0604,38.6348],[0.0237,38.6297],[-0.052,38.5848],[-0.0563,38.5828],[-0.06,38.5527],[-0.0902,38.5353],[-0.1317,38.5353],[-0.1606,38.5289],[-0.466,38.2928],[-0.5359,38.0825],[-0.61,37.8594],[-0.6193,37.8315],[-0.6404,37.8315],[-0.6707,37.8315],[-0.701,37.8315],[-0.7313,37.8315],[-0.7313,37.8322],[-0.7606,37.8322],[-0.7606,37.8459],[-0.7797,37.8429],[-0.8387,37.868],[-0.9167,37.9336],[-0.9822,38.0264],[-1.02,38.0685],[-1.0329,38.1169],[-1.0228,38.1463],[-0.9832,38.203],[-0.9692,38.2708],[-0.9836,38.3109],[-1.0119,38.3348],[-1.0767,38.3497],[-1.084,38.3746],[-1.0821,38.4311],[-1.024,38.4834],[-1.0057,38.5646],[-1.0054,38.5903],[-1.0221,38.6545],[-0.9396,38.664],[-0.9035,38.6887],[-0.9423,38.7312],[-0.9537,38.7626],[-0.9306,38.7855],[-0.9133,38.8246],[-0.9262,38.8553],[-0.9209,38.8862],[-0.9592,38.94],[-0.9911,38.9512],[-1.0379,38.9373],[-1.121,38.9326],[-1.1515,38.9485],[-1.2484,39.0381],[-1.2621,39.0737],[-1.2269,39.1468],[-1.2018,39.1704],[-1.1786,39.2206],[-1.1703,39.2883],[-1.1777,39.3041],[-1.3397,39.3417],[-1.4062,39.3706],[-1.4457,39.3669],[-1.4524,39.3902],[-1.501,39.422],[-1.5182,39.4518],[-1.4984,39.4961],[-1.5045,39.5455],[-1.4944,39.5673],[-1.4632,39.5902],[-1.4275,39.6452],[-1.372,39.6836],[-1.3204,39.6714],[-1.2922,39.6727],[-1.2655,39.6938],[-1.267,39.7435],[-1.2256,39.7963],[-1.2029,39.8633],[-1.1962,39.9506],[-1.1455,39.9723],[-1.1627,40.0115],[-1.243,39.9974],[-1.3695,40.0163],[-1.3783,40.0221],[-1.4169,40.1095],[-1.4523,40.1307],[-1.4485,40.1498]],[[-1.1639,42.4409],[-1.1945,42.4243],[-1.1904,42.4028],[-1.1581,42.426],[-1.1639,42.4409]],[[-1.1061,42.483],[-1.1342,42.4467],[-1.0755,42.4326],[-1.0672,42.4458],[-1.1061,42.483]]],[[[1.4455,38.6716],[1.4128,38.6464],[1.3829,38.6421],[1.3828,38.7116],[1.4078,38.7231],[1.4164,38.7397],[1.4344,38.7693],[1.4347,38.7691],[1.4348,38.7693],[1.496,38.712],[1.5932,38.7016],[1.5932,38.6716],[1.5774,38.6628],[1.5814,38.6531],[1.5234,38.6494],[1.478,38.6716],[1.4455,38.6716]]],[[[1.586,39.0055],[1.5762,38.9858],[1.5412,38.9678],[1.5098,38.9302],[1.4587,38.9001],[1.445,38.9132],[1.4408,38.91],[1.4096,38.8574],[1.4092,38.8575],[1.4092,38.8574],[1.4081,38.8575],[1.4031,38.8323],[1.3707,38.8318],[1.3435,38.8624],[1.3078,38.8579],[1.3003,38.8705],[1.2666,38.8703],[1.2599,38.8579],[1.2166,38.8851],[1.2122,38.9032],[1.2368,38.9652],[1.2505,38.9658],[1.2544,38.9741],[1.2992,38.9824],[1.2928,39.0333],[1.3214,39.0531],[1.348,39.0817],[1.4474,39.1001],[1.4507,39.1018],[1.4596,39.1024],[1.5292,39.1153],[1.5371,39.118],[1.5393,39.1171],[1.564,39.1217],[1.5641,39.1216],[1.5644,39.1217],[1.6148,39.0869],[1.6256,39.0383],[1.6255,39.0382],[1.6256,39.0379],[1.621,39.0342],[1.6231,39.0292],[1.6103,39.0254],[1.586,39.0055]]],[[[3.4,39.6101],[3.3987,39.6077],[3.406,39.592],[3.3324,39.5314],[3.2947,39.4802],[3.2918,39.4758],[3.2825,39.4201],[3.2688,39.4276],[3.2526,39.3862],[3.221,39.3599],[3.1294,39.3157],[3.0608,39.2691],[3.0293,39.3046],[3.0013,39.3177],[2.997,39.3306],[2.9212,39.3595],[2.9126,39.3587],[2.8255,39.3636],[2.7866,39.3759],[2.7617,39.4002],[2.7512,39.4548],[2.7366,39.4621],[2.7496,39.4909],[2.7448,39.5101],[2.7016,39.5414],[2.6335,39.5552],[2.576,39.531],[2.5629,39.5217],[2.5449,39.493],[2.5202,39.4728],[2.4927,39.4702],[2.469,39.5059],[2.4736,39.51],[2.4568,39.531],[2.4373,39.5337],[2.3919,39.5237],[2.3556,39.5587],[2.3577,39.6119],[2.4223,39.6433],[2.5122,39.6957],[2.5176,39.7001],[2.5215,39.7011],[2.6259,39.7619],[2.6314,39.7701],[2.6399,39.7701],[2.6782,39.7924],[2.7039,39.8142],[2.7412,39.8291],[2.7756,39.8492],[2.8132,39.8726],[2.8248,39.8726],[2.9032,39.9081],[3.1588,39.9706],[3.159,39.9706],[3.1592,39.9706],[3.1745,39.9672],[3.1795,39.9688],[3.184,39.9652],[3.1988,39.9619],[3.1985,39.9616],[3.1988,39.9615],[3.1946,39.9565],[3.2036,39.9492],[3.1823,39.942],[3.1664,39.9233],[3.1664,39.9081],[3.198,39.8911],[3.2068,39.893],[3.1931,39.8596],[3.1875,39.8577],[3.1592,39.8365],[3.1449,39.79],[3.2418,39.7571],[3.3424,39.7866],[3.3427,39.7866],[3.3428,39.7866],[3.3968,39.7779],[3.4508,39.7623],[3.4527,39.7511],[3.4744,39.7497],[3.4675,39.6876],[3.4432,39.6458],[3.4228,39.6385],[3.4148,39.6264],[3.4,39.6101]]],[[[4.3016,39.858],[4.3001,39.8218],[4.2481,39.8165],[4.1772,39.8433],[4.0151,39.9258],[3.9413,39.9368],[3.8693,39.9255],[3.8307,39.9361],[3.846,39.9732],[3.8428,39.9754],[3.8428,39.9758],[3.8435,39.9882],[3.8034,40.0132],[3.8219,40.0476],[3.8508,40.0526],[3.8536,40.0626],[4.0588,40.0747],[4.0589,40.0747],[4.0592,40.0747],[4.0801,40.0694],[4.1051,40.0794],[4.1224,40.0588],[4.1663,40.0478],[4.1765,40.0592],[4.178,40.0449],[4.2248,40.0331],[4.2518,39.9982],[4.2546,39.9975],[4.2717,39.9726],[4.2949,39.9426],[4.298,39.942],[4.2997,39.9363],[4.3148,39.9168],[4.322,39.8977],[4.3219,39.8975],[4.322,39.8973],[4.3208,39.895],[4.3371,39.8672],[4.3137,39.8812],[4.3016,39.858]]],[[[12.9632,38.0966],[12.9993,38.0938],[13.0491,38.0899],[13.0553,38.1304],[13.0582,38.1321],[13.0547,38.1418],[13.0894,38.166],[13.1009,38.1901],[13.1473,38.184],[13.1597,38.1912],[13.2342,38.1912],[13.2544,38.2025],[13.3102,38.2196],[13.3719,38.1728],[13.3732,38.1438],[13.3833,38.1269],[13.4337,38.1113],[13.4601,38.1073],[13.5135,38.1105],[13.5413,38.0941],[13.5445,38.0741],[13.5944,38.0473],[13.7395,38.036],[14.1286,38.0772],[14.1652,38.0811],[14.2017,38.0849],[14.2747,38.0927],[14.4207,38.1081],[14.7127,38.139],[14.7337,38.1576],[14.7627,38.1588],[14.7905,38.1669],[14.8445,38.1721],[14.8448,38.1721],[14.8449,38.1721],[14.855,38.1718],[14.874,38.1757],[14.9071,38.1877],[14.945,38.1818],[14.9574,38.1692],[14.9769,38.1687],[15.2037,38.1945],[15.2207,38.2102],[15.2407,38.2412],[15.245,38.2194],[15.2802,38.2311],[15.2804,38.231],[15.2806,38.2311],[15.3382,38.218],[15.3481,38.2204],[15.4998,38.2919],[15.5056,38.2922],[15.5129,38.2976],[15.5593,38.3001],[15.616,38.2802],[15.6516,38.2753],[15.6292,38.2638],[15.5758,38.2203],[15.5636,38.1999],[15.5759,38.2002],[15.527,38.1368],[15.5003,38.0849],[15.454,38.0382],[15.4116,37.9893],[15.345,37.8436],[15.3227,37.795],[15.3004,37.7463],[15.2559,37.649],[15.1669,37.4544],[15.1619,37.4434],[15.1798,37.4058],[15.203,37.3571],[15.2494,37.2598],[15.252,37.2577],[15.251,37.2565],[15.3094,37.1338],[15.3093,37.1336],[15.3094,37.1334],[15.297,37.1031],[15.3032,37.1012],[15.3027,37.0625],[15.2948,37.0567],[15.295,37.0558],[15.295,37.0467],[15.3123,37.044],[15.3324,37.0116],[15.3089,37.0178],[15.2888,37.0092],[15.2681,36.9939],[15.2681,36.9731],[15.2445,36.9721],[15.2435,36.9717],[15.1319,36.6976],[15.1349,36.6877],[15.1192,36.6663],[15.1006,36.6206],[15.1003,36.6208],[15.1002,36.6206],[15.0445,36.6479],[15.0071,36.6662],[14.9697,36.6845],[14.8912,36.723],[14.8878,36.7238],[14.8201,36.7154],[14.7808,36.6994],[14.7443,36.7191],[14.6846,36.726],[14.6622,36.7502],[14.6141,36.7672],[14.5565,36.7759],[14.5372,36.784],[14.4873,36.7934],[14.4758,36.8049],[14.4153,36.9092],[14.3668,36.9707],[14.3642,36.9732],[14.334,36.994],[14.3295,36.9971],[14.3038,37.0026],[14.2434,37.0155],[14.1227,37.0412],[14.0624,37.0541],[14.0322,37.0605],[14.002,37.067],[13.8812,37.0928],[13.8257,37.1046],[13.3983,37.2604],[12.9154,37.4364],[12.8852,37.4474],[12.8551,37.4584],[12.7947,37.4804],[12.674,37.5244],[12.4325,37.6124],[12.4326,37.6128],[12.4325,37.6128],[12.4632,37.7281],[12.4563,37.7598],[12.4274,37.8093],[12.4388,37.8126],[12.4361,37.8193],[12.4362,37.8195],[12.4361,37.8197],[12.47,37.9001],[12.4641,37.9129],[12.4905,37.954],[12.5042,38.0112],[12.4929,38.0214],[12.5234,38.0314],[12.5455,38.0482],[12.5477,38.0523],[12.5497,38.0535],[12.5693,38.1274],[12.5697,38.1274],[12.6757,38.119],[12.7025,38.1426],[12.721,38.1654],[12.7199,38.1755],[12.7304,38.1769],[12.7349,38.1825],[12.7351,38.1823],[12.7353,38.1825],[12.7396,38.1781],[12.7609,38.181],[12.7831,38.1335],[12.8072,38.1088],[12.9272,38.0994],[12.9632,38.0966]]],[[[8.3981,39.4465],[8.3869,39.4698],[8.4042,39.4896],[8.4178,39.5211],[8.4118,39.7019],[8.4084,39.808],[8.4075,39.8346],[8.4066,39.8611],[8.4053,39.9002],[8.3983,39.9053],[8.3936,39.9769],[8.4019,40.0048],[8.4012,40.0274],[8.3845,40.0419],[8.4006,40.0452],[8.3906,40.3508],[8.386,40.3518],[8.3889,40.3802],[8.376,40.412],[8.3632,40.4438],[8.3376,40.5075],[8.3317,40.5107],[8.3269,40.5271],[8.2961,40.5587],[8.255,40.5884],[8.2163,40.5706],[8.196,40.5781],[8.2163,40.6122],[8.1766,40.6066],[8.1618,40.5638],[8.1406,40.6252],[8.1738,40.6416],[8.187,40.6693],[8.1854,40.6954],[8.168,40.7016],[8.1338,40.7289],[8.1958,40.8406],[8.1984,40.8528],[8.1593,40.9501],[8.1595,40.9501],[8.1593,40.9505],[8.1597,40.9505],[8.1886,40.9478],[8.2022,40.9753],[8.2362,40.9548],[8.2354,40.9435],[8.6627,40.9042],[8.7092,40.9206],[8.738,40.9171],[8.8605,40.9929],[8.8811,41.0237],[8.9121,41.0324],[8.9176,41.0374],[8.9401,41.0612],[8.956,41.0726],[8.9981,41.1111],[8.9992,41.1114],[9.0055,41.1219],[9.0683,41.1314],[9.0985,41.1402],[9.114,41.1498],[9.1385,41.1668],[9.1636,41.1857],[9.1711,41.2429],[9.2306,41.2626],[9.2681,41.2366],[9.2825,41.2018],[9.2829,41.2014],[9.3058,41.1997],[9.3125,41.2012],[9.316,41.1989],[9.3339,41.1975],[9.3352,41.2117],[9.3882,41.1807],[9.4224,41.1807],[9.4145,41.1689],[9.4557,41.1511],[9.4696,41.1366],[9.4691,41.1462],[9.5081,41.1404],[9.5664,41.1193],[9.5459,41.0777],[9.5391,41.092],[9.5308,41.0639],[9.5385,41.0538],[9.5745,41.0313],[9.611,41.0185],[9.6157,41.0196],[9.6626,41.0026],[9.6512,40.9911],[9.611,41.001],[9.5889,40.9927],[9.5852,40.9864],[9.5789,40.962],[9.5575,40.9312],[9.554,40.9314],[9.5745,40.915],[9.5833,40.9099],[9.6226,40.9238],[9.6421,40.9206],[9.6141,40.8934],[9.6558,40.876],[9.6633,40.8582],[9.6831,40.8654],[9.724,40.8449],[9.681,40.8298],[9.677,40.8247],[9.6825,40.8177],[9.7341,40.6966],[9.7445,40.6805],[9.7481,40.6637],[9.7941,40.5556],[9.7943,40.5548],[9.8267,40.5196],[9.8088,40.4708],[9.8047,40.4644],[9.7877,40.3034],[9.7834,40.2632],[9.7791,40.2229],[9.7706,40.1424],[9.7364,39.8204],[9.7193,39.6594],[9.7108,39.5789],[9.7065,39.5386],[9.7023,39.4984],[9.6681,39.1763],[9.6677,39.1764],[9.6677,39.1763],[9.5784,39.189],[9.5799,39.1871],[9.5578,39.1397],[9.5227,39.1249],[9.4807,39.1356],[9.4429,39.1244],[9.3796,39.171],[9.2646,39.2167],[9.2073,39.2133],[9.1836,39.2062],[9.166,39.1871],[9.153,39.1903],[9.0315,39.0907],[9.03,39.0813],[9.0449,39.0513],[9.0151,38.9897],[8.9963,38.9828],[8.8947,38.9023],[8.8533,38.878],[8.8054,38.906],[8.791,38.9044],[8.7678,38.9162],[8.7173,38.9268],[8.704,38.9268],[8.6688,38.9106],[8.6428,38.89],[8.5999,38.8991],[8.615,38.923],[8.6106,38.9527],[8.6062,38.9557],[8.5801,38.9605],[8.5721,38.9982],[8.5517,39.0293],[8.527,39.0604],[8.5044,39.0629],[8.5138,39.077],[8.5093,39.0827],[8.4828,39.0804],[8.4733,39.1074],[8.4422,39.1182],[8.4354,39.166],[8.405,39.1744],[8.3987,39.2012],[8.3718,39.2306],[8.4131,39.2704],[8.4113,39.2914],[8.4083,39.3443],[8.3821,39.3597],[8.374,39.3789],[8.4014,39.4124],[8.3981,39.4465]]],[[[8.402,39.1044],[8.4446,39.1027],[8.4519,39.0839],[8.4801,39.0678],[8.4799,39.0675],[8.4801,39.0674],[8.4575,39.0286],[8.437,38.9672],[8.4098,38.9618],[8.3649,39.0295],[8.3493,39.0622],[8.346,39.0977],[8.3604,39.1182],[8.367,39.1148],[8.3681,39.1165],[8.3684,39.1164],[8.3685,39.1165],[8.402,39.1044]]],[[[8.219,41.022],[8.2232,41.0336],[8.2274,41.0365],[8.2673,41.099],[8.2777,41.1033],[8.2778,41.1057],[8.283,41.1055],[8.3206,41.1212],[8.3262,41.1261],[8.3357,41.1092],[8.3433,41.1024],[8.3431,41.1021],[8.3433,41.102],[8.3414,41.0989],[8.342,41.0978],[8.3324,41.0646],[8.3186,41.0629],[8.3181,41.0621],[8.2857,41.0395],[8.2533,40.9944],[8.2529,40.9944],[8.2465,40.9949],[8.2464,40.9936],[8.2096,40.9958],[8.2102,40.9976],[8.2061,40.9979],[8.2063,40.9983],[8.2061,40.9983],[8.219,41.022]]],[[[12.0334,36.8062],[12.0515,36.7904],[12.0535,36.7676],[12.0501,36.7637],[12.0513,36.7572],[12.0512,36.7572],[12.0513,36.7568],[12.0423,36.7548],[12.0306,36.7414],[11.9961,36.7449],[11.9726,36.7624],[11.9393,36.7794],[11.9387,36.7878],[11.9373,36.7888],[11.9222,36.8284],[11.9427,36.8386],[11.9465,36.844],[11.9468,36.8439],[11.9469,36.844],[11.9512,36.8428],[11.9513,36.8428],[11.9515,36.8427],[11.994,36.8306],[11.9995,36.8359],[12.0111,36.8258],[12.0261,36.8215],[12.0334,36.8062]]]]}}
]}
