{"type":"FeatureCollection","features":[
{"type":"Feature","properties":{"entityId":"armenian-kingdoms","from":1000,"to":1022,"certainty":"estimated","source":"유럽 쪽은 Natural Earth 1:10m admin-1(v5.1.2) 현대 행정구역 조각을 그 시기 국경에 맞춰 묶고, 조각이 역사 경계와 다른 곳은 선을 그어 나눈 근사. 유럽 밖(시베리아·중앙아시아·극동)은 대략적인 추정. 운영자 검수 필요"},"geometry":{"type":"MultiPolygon","coordinates":[[[[42.972,39.1041],[42.7874,39.0719],[42.7181,39.0349],[42.6711,39.023],[42.6276,39.0024],[42.6237,39.0537],[42.6425,39.1421],[42.6361,39.171],[42.6413,39.2354],[42.5803,39.2956],[42.5632,39.3232],[42.501,39.3732],[42.4591,39.4287],[42.4313,39.4914],[42.4632,39.5315],[42.4729,39.5786],[42.471,39.7141],[42.4949,39.7481],[42.3529,39.7921],[42.2716,39.8694],[42.3067,39.8807],[42.3816,39.8706],[42.4179,39.8802],[42.44,39.9036],[42.503,39.9128],[42.536,39.9274],[42.5637,39.9519],[42.4846,40.0588],[42.4252,40.0763],[42.3787,40.125],[42.3165,40.1496],[42.2309,40.1605],[42.1504,40.2405],[42.1812,40.2944],[42.3269,40.3319],[42.3906,40.3596],[42.4568,40.3972],[42.5382,40.4307],[42.5141,40.5305],[42.537,40.5992],[42.6522,40.6157],[42.7719,40.6253],[42.7911,40.6971],[42.8054,40.8169],[42.8294,40.8935],[42.9491,40.9414],[43.2749,41.0468],[43.3755,41.0899],[43.4404,41.1066],[43.4701,41.1062],[43.5241,41.1228],[43.5666,41.1241],[43.7297,41.1067],[43.7737,41.1145],[43.8204,41.1455],[43.8632,41.159],[43.9778,41.1645],[43.9782,41.1646],[44.0413,41.1826],[44.1036,41.1752],[44.1601,41.1979],[44.1684,41.2236],[44.191,41.23],[44.2665,41.1962],[44.3085,41.1938],[44.3573,41.2122],[44.4106,41.1877],[44.4549,41.1805],[44.5166,41.2068],[44.531,41.1815],[44.5515,41.177],[44.5914,41.2158],[44.6129,41.2231],[44.6749,41.2085],[44.8215,41.2062],[44.8538,41.2235],[44.8095,41.2444],[44.8207,41.2733],[44.9172,41.2618],[44.9552,41.2627],[45.0024,41.2905],[45.0394,41.2312],[45.0293,41.2101],[45.052,41.1921],[45.1344,41.1879],[45.1868,41.1569],[45.201,41.1267],[45.1667,41.1078],[45.0678,41.1109],[45.0572,41.0788],[45.07,41.0621],[45.111,41.0495],[45.12,41.0796],[45.2216,41.0144],[45.2687,41.0103],[45.3354,40.9938],[45.3819,41.0114],[45.4191,41.0173],[45.4252,40.9937],[45.4164,40.9613],[45.4428,40.9484],[45.4793,40.9299],[45.5379,40.8759],[45.5992,40.8627],[45.601,40.8406],[45.5822,40.7994],[45.5559,40.7766],[45.4783,40.7482],[45.4379,40.7334],[45.3988,40.7089],[45.3736,40.6753],[45.3736,40.6513],[45.3213,40.6838],[45.2801,40.698],[45.2419,40.7261],[45.1743,40.7321],[45.0982,40.6987],[45.0646,40.6542],[44.9969,40.6376],[44.9154,40.6692],[44.7966,40.6501],[44.7882,40.5974],[44.8084,40.5316],[44.8428,40.5308],[44.8721,40.4891],[44.8645,40.4625],[44.9108,40.4251],[44.9575,40.2925],[44.9466,40.242],[45.0298,40.1633],[44.962,40.1623],[44.8583,40.1328],[44.7832,40.1003],[44.6926,40.0833],[44.6476,40.1156],[44.6398,40.1307],[44.6268,40.136],[44.5903,40.1349],[44.5809,40.1444],[44.5885,40.1643],[44.6181,40.1951],[44.5891,40.2229],[44.5719,40.2292],[44.5263,40.2147],[44.4873,40.2119],[44.4719,40.2143],[44.4544,40.2086],[44.4388,40.2104],[44.426,40.2008],[44.4184,40.1893],[44.3598,40.1991],[44.282,40.2384],[44.2434,40.2365],[44.2176,40.2247],[44.1746,40.2427],[44.1618,40.2322],[44.1694,40.2009],[44.1365,40.1852],[44.0178,40.1858],[43.9621,40.2197],[43.9239,40.2301],[43.8843,40.2526],[43.8325,40.2661],[43.8155,40.2846],[43.781,40.2616],[43.7397,40.2684],[43.6903,40.2404],[43.6731,40.2277],[43.7214,40.1694],[43.7116,40.1565],[43.6525,40.139],[43.6654,40.1102],[43.5335,40.0744],[43.409,40.0601],[43.3563,40.0409],[43.3563,40.0026],[43.3184,39.9693],[43.341,39.9126],[43.3354,39.8415],[43.35,39.8038],[43.4004,39.7831],[43.464,39.8175],[43.5316,39.8385],[43.5634,39.8332],[43.6635,39.7956],[43.6856,39.7582],[43.7155,39.7282],[43.805,39.6956],[43.8682,39.6841],[43.8809,39.6549],[43.9733,39.6432],[44.0726,39.6532],[44.1474,39.635],[44.2245,39.628],[44.4028,39.6595],[44.4583,39.6425],[44.4186,39.5743],[44.412,39.5445],[44.4168,39.5055],[44.4017,39.4713],[44.4048,39.4344],[44.3687,39.4036],[44.317,39.3853],[44.2695,39.3829],[44.2004,39.4095],[44.1222,39.4004],[44.0614,39.4003],[44.0149,39.3741],[44.0474,39.3375],[44.0694,39.287],[44.0827,39.2357],[44.0777,39.2001],[44.1866,39.1451],[44.1948,39.1205],[44.1699,39.0744],[44.1791,39.0349],[44.1392,38.994],[44.152,38.9646],[44.1746,38.9458],[44.1921,38.8908],[44.222,38.8634],[44.275,38.8436],[44.2798,38.8142],[44.2486,38.7218],[44.2605,38.6792],[44.2443,38.659],[44.2749,38.6494],[44.297,38.6223],[44.2922,38.562],[44.3014,38.5112],[44.2875,38.4537],[44.2895,38.3823],[44.3634,38.3646],[44.3963,38.3797],[44.4247,38.377],[44.4511,38.354],[44.4592,38.3224],[44.4368,38.2969],[44.3724,38.2495],[44.3767,38.2015],[44.3606,38.1479],[44.3271,38.1284],[44.3338,38.1009],[44.2959,38.079],[44.2695,38.03],[44.2454,38.0084],[44.2215,37.9688],[44.2255,37.9293],[44.205,37.9048],[44.1169,37.913],[44.0443,37.9012],[44.0037,37.8452],[43.9778,37.7913],[43.923,37.7644],[43.8589,37.754],[43.7944,37.7547],[43.7114,37.773],[43.6548,37.7517],[43.5212,37.7347],[43.3868,37.7336],[43.2902,37.7273],[43.1888,37.757],[43.1029,37.7661],[43.0233,37.7317],[42.9835,37.8064],[43.0081,37.8582],[43.0115,37.9167],[43.0293,37.9994],[43.0258,38.0809],[43.0163,38.1518],[42.9455,38.1733],[42.865,38.1853],[42.7869,38.1811],[42.7335,38.1959],[42.7158,38.246],[42.7253,38.2812],[42.7192,38.32],[42.678,38.4049],[42.6877,38.4472],[42.7043,38.4618],[42.8116,38.509],[42.8753,38.5442],[42.9136,38.6027],[43.005,38.7103],[43.0605,38.7553],[43.132,38.7994],[43.1612,38.8723],[43.1205,38.9223],[43.0036,38.9773],[42.9732,39.0281],[42.972,39.1041]]],[[[45.8091,39.8512],[45.8619,39.8045],[45.8832,39.7961],[45.9792,39.7685],[46.0066,39.7479],[46.0451,39.6876],[46.0765,39.6681],[46.1145,39.6596],[46.1461,39.6385],[46.1696,39.6041],[46.2065,39.5879],[46.2412,39.5935],[46.3095,39.6205],[46.3437,39.6186],[46.3814,39.585],[46.4162,39.574],[46.4793,39.5787],[46.512,39.5676],[46.5273,39.5382],[46.492,39.5102],[46.4986,39.4831],[46.479,39.4618],[46.4057,39.4512],[46.374,39.436],[46.3609,39.4103],[46.3746,39.3788],[46.4074,39.3591],[46.4793,39.3342],[46.4953,39.324],[46.5177,39.2788],[46.5991,39.2225],[46.5264,39.1858],[46.5141,39.1844],[46.4534,39.2084],[46.4183,39.2119],[46.3953,39.1952],[46.3963,39.1644],[46.4218,39.1446],[46.4793,39.1148],[46.4975,39.0535],[46.4946,39.0255],[46.4758,38.9756],[46.4793,38.9394],[46.514,38.8822],[46.3919,38.9224],[46.3045,38.9163],[46.2719,38.9066],[46.2025,38.8705],[46.1359,38.8637],[46.0776,38.9505],[46.0255,39.0638],[46.0052,39.0954],[45.9581,39.1515],[45.949,39.1778],[45.9551,39.2032],[45.986,39.2347],[45.9792,39.2573],[45.9588,39.2724],[45.9018,39.2941],[45.8237,39.3431],[45.7644,39.3591],[45.765,39.3895],[45.7986,39.4324],[45.8031,39.4482],[45.794,39.4939],[45.7971,39.5363],[45.7881,39.549],[45.7379,39.5698],[45.7091,39.5684],[45.7012,39.5896],[45.7281,39.6703],[45.7315,39.707],[45.7125,39.7342],[45.7234,39.76],[45.7765,39.8294],[45.8091,39.8512]]]]}},
{"type":"Feature","properties":{"entityId":"armenian-kingdoms","from":1022,"to":1054,"certainty":"estimated","source":"유럽 쪽은 Natural Earth 1:10m admin-1(v5.1.2) 현대 행정구역 조각을 그 시기 국경에 맞춰 묶고, 조각이 역사 경계와 다른 곳은 선을 그어 나눈 근사. 유럽 밖(시베리아·중앙아시아·극동)은 대략적인 추정. 운영자 검수 필요"},"geometry":{"type":"MultiPolygon","coordinates":[[[[43.4404,41.1066],[43.4701,41.1062],[43.5241,41.1228],[43.5666,41.1241],[43.7297,41.1067],[43.7737,41.1145],[43.8204,41.1455],[43.8632,41.159],[43.9778,41.1645],[43.9782,41.1646],[44.0413,41.1826],[44.1036,41.1752],[44.1601,41.1979],[44.1684,41.2236],[44.191,41.23],[44.2665,41.1962],[44.3085,41.1938],[44.3573,41.2122],[44.4106,41.1877],[44.4549,41.1805],[44.5166,41.2068],[44.531,41.1815],[44.5515,41.177],[44.5914,41.2158],[44.6129,41.2231],[44.6749,41.2085],[44.8215,41.2062],[44.8538,41.2235],[44.8095,41.2444],[44.8207,41.2733],[44.9172,41.2618],[44.9552,41.2627],[45.0024,41.2905],[45.0394,41.2312],[45.0293,41.2101],[45.052,41.1921],[45.1344,41.1879],[45.1868,41.1569],[45.201,41.1267],[45.1667,41.1078],[45.0678,41.1109],[45.0572,41.0788],[45.07,41.0621],[45.111,41.0495],[45.12,41.0796],[45.2216,41.0144],[45.2687,41.0103],[45.3354,40.9938],[45.3819,41.0114],[45.4191,41.0173],[45.4252,40.9937],[45.4164,40.9613],[45.4428,40.9484],[45.4793,40.9299],[45.5379,40.8759],[45.5992,40.8627],[45.601,40.8406],[45.5822,40.7994],[45.5559,40.7766],[45.4783,40.7482],[45.4379,40.7334],[45.3988,40.7089],[45.3736,40.6753],[45.3736,40.6513],[45.3213,40.6838],[45.2801,40.698],[45.2419,40.7261],[45.1743,40.7321],[45.0982,40.6987],[45.0646,40.6542],[44.9969,40.6376],[44.9154,40.6692],[44.7966,40.6501],[44.7882,40.5974],[44.8084,40.5316],[44.8428,40.5308],[44.8721,40.4891],[44.8645,40.4625],[44.9108,40.4251],[44.9575,40.2925],[44.9466,40.242],[45.0298,40.1633],[44.962,40.1623],[44.8583,40.1328],[44.7832,40.1003],[44.6926,40.0833],[44.6476,40.1156],[44.6398,40.1307],[44.6268,40.136],[44.5903,40.1349],[44.5809,40.1444],[44.5885,40.1643],[44.6181,40.1951],[44.5891,40.2229],[44.5719,40.2292],[44.5263,40.2147],[44.4873,40.2119],[44.4719,40.2143],[44.4544,40.2086],[44.4388,40.2104],[44.426,40.2008],[44.4184,40.1893],[44.3598,40.1991],[44.282,40.2384],[44.2434,40.2365],[44.2176,40.2247],[44.1746,40.2427],[44.1618,40.2322],[44.1694,40.2009],[44.1365,40.1852],[44.0178,40.1858],[43.9621,40.2197],[43.9239,40.2301],[43.8843,40.2526],[43.8325,40.2661],[43.8155,40.2846],[43.781,40.2616],[43.7397,40.2684],[43.6903,40.2404],[43.6731,40.2277],[43.7214,40.1694],[43.7116,40.1565],[43.6525,40.139],[43.6654,40.1102],[43.5335,40.0744],[43.409,40.0601],[43.3563,40.0409],[43.3563,40.0026],[43.3184,39.9693],[43.2653,39.9866],[43.2196,39.9793],[43.1735,39.9885],[43.0645,39.9893],[42.7573,39.9221],[42.5637,39.9519],[42.4846,40.0588],[42.4252,40.0763],[42.3787,40.125],[42.3165,40.1496],[42.2309,40.1605],[42.1504,40.2405],[42.1812,40.2944],[42.3269,40.3319],[42.3906,40.3596],[42.4568,40.3972],[42.5382,40.4307],[42.5141,40.5305],[42.537,40.5992],[42.6522,40.6157],[42.7719,40.6253],[42.7911,40.6971],[42.8054,40.8169],[42.8294,40.8935],[42.9491,40.9414],[43.2749,41.0468],[43.3755,41.0899],[43.4404,41.1066]]],[[[45.8091,39.8512],[45.8619,39.8045],[45.8832,39.7961],[45.9792,39.7685],[46.0066,39.7479],[46.0451,39.6876],[46.0765,39.6681],[46.1145,39.6596],[46.1461,39.6385],[46.1696,39.6041],[46.2065,39.5879],[46.2412,39.5935],[46.3095,39.6205],[46.3437,39.6186],[46.3814,39.585],[46.4162,39.574],[46.4793,39.5787],[46.512,39.5676],[46.5273,39.5382],[46.492,39.5102],[46.4986,39.4831],[46.479,39.4618],[46.4057,39.4512],[46.374,39.436],[46.3609,39.4103],[46.3746,39.3788],[46.4074,39.3591],[46.4793,39.3342],[46.4953,39.324],[46.5177,39.2788],[46.5991,39.2225],[46.5264,39.1858],[46.5141,39.1844],[46.4534,39.2084],[46.4183,39.2119],[46.3953,39.1952],[46.3963,39.1644],[46.4218,39.1446],[46.4793,39.1148],[46.4975,39.0535],[46.4946,39.0255],[46.4758,38.9756],[46.4793,38.9394],[46.514,38.8822],[46.3919,38.9224],[46.3045,38.9163],[46.2719,38.9066],[46.2025,38.8705],[46.1359,38.8637],[46.0776,38.9505],[46.0255,39.0638],[46.0052,39.0954],[45.9581,39.1515],[45.949,39.1778],[45.9551,39.2032],[45.986,39.2347],[45.9792,39.2573],[45.9588,39.2724],[45.9018,39.2941],[45.8237,39.3431],[45.7644,39.3591],[45.765,39.3895],[45.7986,39.4324],[45.8031,39.4482],[45.794,39.4939],[45.7971,39.5363],[45.7881,39.549],[45.7379,39.5698],[45.7091,39.5684],[45.7012,39.5896],[45.7281,39.6703],[45.7315,39.707],[45.7125,39.7342],[45.7234,39.76],[45.7765,39.8294],[45.8091,39.8512]]]]}},
{"type":"Feature","properties":{"entityId":"armenian-kingdoms","from":1054,"to":1065,"certainty":"estimated","source":"유럽 쪽은 Natural Earth 1:10m admin-1(v5.1.2) 현대 행정구역 조각을 그 시기 국경에 맞춰 묶고, 조각이 역사 경계와 다른 곳은 선을 그어 나눈 근사. 유럽 밖(시베리아·중앙아시아·극동)은 대략적인 추정. 운영자 검수 필요"},"geometry":{"type":"MultiPolygon","coordinates":[[[[45.0024,41.2905],[45.0394,41.2312],[45.0293,41.2101],[45.052,41.1921],[45.1344,41.1879],[45.1868,41.1569],[45.201,41.1267],[45.1667,41.1078],[45.0678,41.1109],[45.0572,41.0788],[45.07,41.0621],[45.111,41.0495],[45.12,41.0796],[45.2216,41.0144],[45.2687,41.0103],[45.3354,40.9938],[45.3819,41.0114],[45.4191,41.0173],[45.4252,40.9937],[45.4164,40.9613],[45.4428,40.9484],[45.4793,40.9299],[45.5379,40.8759],[45.5992,40.8627],[45.601,40.8406],[45.5822,40.7994],[45.5559,40.7766],[45.4783,40.7482],[45.4379,40.7334],[45.3988,40.7089],[45.3736,40.6753],[45.3736,40.6513],[45.3213,40.6838],[45.2801,40.698],[45.2419,40.7261],[45.1743,40.7321],[45.0982,40.6987],[45.0646,40.6542],[44.9969,40.6376],[44.9154,40.6692],[44.7966,40.6501],[44.7725,40.6652],[44.685,40.6649],[44.5941,40.6947],[44.5527,40.6879],[44.5267,40.6997],[44.4184,40.6818],[44.3995,40.71],[44.3218,40.7382],[44.2923,40.7418],[44.255,40.719],[44.219,40.7201],[44.1905,40.742],[44.1658,40.7405],[44.1092,40.7438],[44.0852,40.7713],[44.0371,40.7846],[44.0153,40.8297],[44.0402,40.882],[44.0804,40.8747],[44.0983,40.8846],[44.1202,40.921],[44.123,40.9584],[44.0778,40.9596],[44.0578,40.9732],[44.0753,41.0067],[44.0382,41.0307],[44.0086,41.0623],[43.9661,41.0885],[43.9778,41.1645],[43.9782,41.1646],[44.0413,41.1826],[44.1036,41.1752],[44.1601,41.1979],[44.1684,41.2236],[44.191,41.23],[44.2665,41.1962],[44.3085,41.1938],[44.3573,41.2122],[44.4106,41.1877],[44.4549,41.1805],[44.5166,41.2068],[44.531,41.1815],[44.5515,41.177],[44.5914,41.2158],[44.6129,41.2231],[44.6749,41.2085],[44.8215,41.2062],[44.8538,41.2235],[44.8095,41.2444],[44.8207,41.2733],[44.9172,41.2618],[44.9552,41.2627],[45.0024,41.2905]]],[[[45.8091,39.8512],[45.8619,39.8045],[45.8832,39.7961],[45.9792,39.7685],[46.0066,39.7479],[46.0451,39.6876],[46.0765,39.6681],[46.1145,39.6596],[46.1461,39.6385],[46.1696,39.6041],[46.2065,39.5879],[46.2412,39.5935],[46.3095,39.6205],[46.3437,39.6186],[46.3814,39.585],[46.4162,39.574],[46.4793,39.5787],[46.512,39.5676],[46.5273,39.5382],[46.492,39.5102],[46.4986,39.4831],[46.479,39.4618],[46.4057,39.4512],[46.374,39.436],[46.3609,39.4103],[46.3746,39.3788],[46.4074,39.3591],[46.4793,39.3342],[46.4953,39.324],[46.5177,39.2788],[46.5991,39.2225],[46.5264,39.1858],[46.5141,39.1844],[46.4534,39.2084],[46.4183,39.2119],[46.3953,39.1952],[46.3963,39.1644],[46.4218,39.1446],[46.4793,39.1148],[46.4975,39.0535],[46.4946,39.0255],[46.4758,38.9756],[46.4793,38.9394],[46.514,38.8822],[46.3919,38.9224],[46.3045,38.9163],[46.2719,38.9066],[46.2025,38.8705],[46.1359,38.8637],[46.0776,38.9505],[46.0255,39.0638],[46.0052,39.0954],[45.9581,39.1515],[45.949,39.1778],[45.9551,39.2032],[45.986,39.2347],[45.9792,39.2573],[45.9588,39.2724],[45.9018,39.2941],[45.8237,39.3431],[45.7644,39.3591],[45.765,39.3895],[45.7986,39.4324],[45.8031,39.4482],[45.794,39.4939],[45.7971,39.5363],[45.7881,39.549],[45.7379,39.5698],[45.7091,39.5684],[45.7012,39.5896],[45.7281,39.6703],[45.7315,39.707],[45.7125,39.7342],[45.7234,39.76],[45.7765,39.8294],[45.8091,39.8512]]],[[[43.4404,41.1066],[43.4363,41.0832],[43.4605,41.0229],[43.4796,41.0091],[43.5224,41.0045],[43.5654,40.9881],[43.6049,40.9633],[43.6477,40.9139],[43.6595,40.852],[43.7113,40.7816],[43.7241,40.7464],[43.7294,40.6771],[43.6995,40.6346],[43.7072,40.6119],[43.6648,40.5741],[43.6525,40.5294],[43.5937,40.509],[43.5595,40.4779],[43.5636,40.4647],[43.6253,40.4202],[43.6245,40.4111],[43.5942,40.3454],[43.676,40.266],[43.6903,40.2404],[43.6731,40.2277],[43.7214,40.1694],[43.7116,40.1565],[43.6525,40.139],[43.6654,40.1102],[43.5335,40.0744],[43.409,40.0601],[43.3563,40.0409],[43.3563,40.0026],[43.3184,39.9693],[43.2653,39.9866],[43.2196,39.9793],[43.1735,39.9885],[43.0645,39.9893],[42.7573,39.9221],[42.5637,39.9519],[42.4846,40.0588],[42.4252,40.0763],[42.3787,40.125],[42.3165,40.1496],[42.2309,40.1605],[42.1504,40.2405],[42.1812,40.2944],[42.3269,40.3319],[42.3906,40.3596],[42.4568,40.3972],[42.5382,40.4307],[42.5141,40.5305],[42.537,40.5992],[42.6522,40.6157],[42.7719,40.6253],[42.7911,40.6971],[42.8054,40.8169],[42.8294,40.8935],[42.9491,40.9414],[43.2749,41.0468],[43.3755,41.0899],[43.4404,41.1066]]]]}},
{"type":"Feature","properties":{"entityId":"armenian-kingdoms","from":1065,"to":1118,"certainty":"estimated","source":"유럽 쪽은 Natural Earth 1:10m admin-1(v5.1.2) 현대 행정구역 조각을 그 시기 국경에 맞춰 묶고, 조각이 역사 경계와 다른 곳은 선을 그어 나눈 근사. 유럽 밖(시베리아·중앙아시아·극동)은 대략적인 추정. 운영자 검수 필요"},"geometry":{"type":"MultiPolygon","coordinates":[[[[45.0024,41.2905],[45.0394,41.2312],[45.0293,41.2101],[45.052,41.1921],[45.1344,41.1879],[45.1868,41.1569],[45.201,41.1267],[45.1667,41.1078],[45.0678,41.1109],[45.0572,41.0788],[45.07,41.0621],[45.111,41.0495],[45.12,41.0796],[45.2216,41.0144],[45.2687,41.0103],[45.3354,40.9938],[45.3819,41.0114],[45.4191,41.0173],[45.4252,40.9937],[45.4164,40.9613],[45.4428,40.9484],[45.4793,40.9299],[45.5379,40.8759],[45.5992,40.8627],[45.601,40.8406],[45.5822,40.7994],[45.5559,40.7766],[45.4783,40.7482],[45.4379,40.7334],[45.3988,40.7089],[45.3736,40.6753],[45.3736,40.6513],[45.3213,40.6838],[45.2801,40.698],[45.2419,40.7261],[45.1743,40.7321],[45.0982,40.6987],[45.0646,40.6542],[44.9969,40.6376],[44.9154,40.6692],[44.7966,40.6501],[44.7725,40.6652],[44.685,40.6649],[44.5941,40.6947],[44.5527,40.6879],[44.5267,40.6997],[44.4184,40.6818],[44.3995,40.71],[44.3218,40.7382],[44.2923,40.7418],[44.255,40.719],[44.219,40.7201],[44.1905,40.742],[44.1658,40.7405],[44.1092,40.7438],[44.0852,40.7713],[44.0371,40.7846],[44.0153,40.8297],[44.0402,40.882],[44.0804,40.8747],[44.0983,40.8846],[44.1202,40.921],[44.123,40.9584],[44.0778,40.9596],[44.0578,40.9732],[44.0753,41.0067],[44.0382,41.0307],[44.0086,41.0623],[43.9661,41.0885],[43.9778,41.1645],[43.9782,41.1646],[44.0413,41.1826],[44.1036,41.1752],[44.1601,41.1979],[44.1684,41.2236],[44.191,41.23],[44.2665,41.1962],[44.3085,41.1938],[44.3573,41.2122],[44.4106,41.1877],[44.4549,41.1805],[44.5166,41.2068],[44.531,41.1815],[44.5515,41.177],[44.5914,41.2158],[44.6129,41.2231],[44.6749,41.2085],[44.8215,41.2062],[44.8538,41.2235],[44.8095,41.2444],[44.8207,41.2733],[44.9172,41.2618],[44.9552,41.2627],[45.0024,41.2905]]],[[[45.8091,39.8512],[45.8619,39.8045],[45.8832,39.7961],[45.9792,39.7685],[46.0066,39.7479],[46.0451,39.6876],[46.0765,39.6681],[46.1145,39.6596],[46.1461,39.6385],[46.1696,39.6041],[46.2065,39.5879],[46.2412,39.5935],[46.3095,39.6205],[46.3437,39.6186],[46.3814,39.585],[46.4162,39.574],[46.4793,39.5787],[46.512,39.5676],[46.5273,39.5382],[46.492,39.5102],[46.4986,39.4831],[46.479,39.4618],[46.4057,39.4512],[46.374,39.436],[46.3609,39.4103],[46.3746,39.3788],[46.4074,39.3591],[46.4793,39.3342],[46.4953,39.324],[46.5177,39.2788],[46.5991,39.2225],[46.5264,39.1858],[46.5141,39.1844],[46.4534,39.2084],[46.4183,39.2119],[46.3953,39.1952],[46.3963,39.1644],[46.4218,39.1446],[46.4793,39.1148],[46.4975,39.0535],[46.4946,39.0255],[46.4758,38.9756],[46.4793,38.9394],[46.514,38.8822],[46.3919,38.9224],[46.3045,38.9163],[46.2719,38.9066],[46.2025,38.8705],[46.1359,38.8637],[46.0776,38.9505],[46.0255,39.0638],[46.0052,39.0954],[45.9581,39.1515],[45.949,39.1778],[45.9551,39.2032],[45.986,39.2347],[45.9792,39.2573],[45.9588,39.2724],[45.9018,39.2941],[45.8237,39.3431],[45.7644,39.3591],[45.765,39.3895],[45.7986,39.4324],[45.8031,39.4482],[45.794,39.4939],[45.7971,39.5363],[45.7881,39.549],[45.7379,39.5698],[45.7091,39.5684],[45.7012,39.5896],[45.7281,39.6703],[45.7315,39.707],[45.7125,39.7342],[45.7234,39.76],[45.7765,39.8294],[45.8091,39.8512]]]]}},
{"type":"Feature","properties":{"entityId":"armenian-kingdoms","from":1118,"to":1171,"certainty":"estimated","source":"유럽 쪽은 Natural Earth 1:10m admin-1(v5.1.2) 현대 행정구역 조각을 그 시기 국경에 맞춰 묶고, 조각이 역사 경계와 다른 곳은 선을 그어 나눈 근사. 유럽 밖(시베리아·중앙아시아·극동)은 대략적인 추정. 운영자 검수 필요"},"geometry":{"type":"Polygon","coordinates":[[[45.8091,39.8512],[45.8619,39.8045],[45.8832,39.7961],[45.9792,39.7685],[46.0066,39.7479],[46.0451,39.6876],[46.0765,39.6681],[46.1145,39.6596],[46.1461,39.6385],[46.1696,39.6041],[46.2065,39.5879],[46.2412,39.5935],[46.3095,39.6205],[46.3437,39.6186],[46.3814,39.585],[46.4162,39.574],[46.4793,39.5787],[46.512,39.5676],[46.5273,39.5382],[46.492,39.5102],[46.4986,39.4831],[46.479,39.4618],[46.4057,39.4512],[46.374,39.436],[46.3609,39.4103],[46.3746,39.3788],[46.4074,39.3591],[46.4793,39.3342],[46.4953,39.324],[46.5177,39.2788],[46.5991,39.2225],[46.5264,39.1858],[46.5141,39.1844],[46.4534,39.2084],[46.4183,39.2119],[46.3953,39.1952],[46.3963,39.1644],[46.4218,39.1446],[46.4793,39.1148],[46.4975,39.0535],[46.4946,39.0255],[46.4758,38.9756],[46.4793,38.9394],[46.514,38.8822],[46.3919,38.9224],[46.3045,38.9163],[46.2719,38.9066],[46.2025,38.8705],[46.1359,38.8637],[46.0776,38.9505],[46.0255,39.0638],[46.0052,39.0954],[45.9581,39.1515],[45.949,39.1778],[45.9551,39.2032],[45.986,39.2347],[45.9792,39.2573],[45.9588,39.2724],[45.9018,39.2941],[45.8237,39.3431],[45.7644,39.3591],[45.765,39.3895],[45.7986,39.4324],[45.8031,39.4482],[45.794,39.4939],[45.7971,39.5363],[45.7881,39.549],[45.7379,39.5698],[45.7091,39.5684],[45.7012,39.5896],[45.7281,39.6703],[45.7315,39.707],[45.7125,39.7342],[45.7234,39.76],[45.7765,39.8294],[45.8091,39.8512]]]}}
]}
