{"type":"FeatureCollection","features":[
{"type":"Feature","properties":{"entityId":"astrakhan-khanate","from":1466,"to":1556,"certainty":"estimated","source":"유럽 쪽은 Natural Earth 1:10m admin-1(v5.1.2) 현대 행정구역 조각을 그 시기 국경에 맞춰 묶고, 조각이 역사 경계와 다른 곳은 선을 그어 나눈 근사. 유럽 밖(시베리아·중앙아시아·극동)은 대략적인 추정. 운영자 검수 필요"},"geometry":{"type":"MultiPolygon","coordinates":[[[[45.3006,48.0977],[45.2864,48.1322],[45.2483,48.168],[45.1718,48.1821],[45.1615,48.2324],[45.1495,48.2383],[44.9874,48.2682],[44.9997,48.3111],[44.9883,48.3266],[45.0212,48.3492],[45.0415,48.3946],[45.1179,48.4276],[45.1717,48.439],[45.1939,48.4842],[45.2392,48.4782],[45.3086,48.4343],[45.3472,48.435],[45.3749,48.4641],[45.3358,48.4946],[45.3003,48.5048],[45.2371,48.5002],[45.2074,48.5253],[45.2471,48.5565],[45.3011,48.558],[45.3446,48.543],[45.4257,48.5694],[45.5041,48.5737],[45.6087,48.5928],[45.6791,48.6462],[45.7595,48.6658],[45.8577,48.74],[45.9012,48.7895],[45.9369,48.8146],[45.9483,48.8359],[46.0022,48.8639],[46.0575,48.8689],[46.298,48.84],[46.3333,48.808],[46.4474,48.7618],[46.6202,48.6696],[46.4793,48.4102],[46.9792,48.294],[47.0783,48.2753],[47.1121,48.2422],[47.0752,48.2051],[47.1088,48.174],[47.1165,48.1539],[47.1036,48.1012],[47.1195,48.0883],[47.1739,48.0842],[47.192,48.0718],[47.1782,48.0518],[47.1371,48.0273],[47.0442,47.9862],[47.0512,47.9746],[47.1217,47.9154],[47.1553,47.8774],[47.1195,47.8198],[47.1406,47.7927],[47.1745,47.7705],[47.3597,47.6833],[47.3829,47.7054],[47.3894,47.7516],[47.3888,47.8119],[47.4122,47.8359],[47.4353,47.8344],[47.6497,47.7656],[48.0445,47.7697],[48.1125,47.7485],[48.1744,47.7129],[48.3606,47.4931],[48.4111,47.4458],[48.4375,47.4292],[48.5251,47.4102],[48.5462,47.3694],[48.6973,47.101],[49.0063,46.7691],[48.9481,46.7199],[48.9169,46.7026],[48.764,46.6828],[48.7395,46.6906],[48.7127,46.7288],[48.6766,46.758],[48.6182,46.7704],[48.5567,46.7617],[48.5058,46.7326],[48.4791,46.6835],[48.4551,46.6608],[48.53,46.6382],[48.5469,46.5993],[48.563,46.5913],[48.5394,46.568],[48.5732,46.5583],[48.6652,46.5572],[48.705,46.5504],[48.7586,46.5131],[48.8196,46.4793],[48.897,46.4822],[49.0332,46.4049],[49.2271,46.3279],[49.306,46.2631],[49.282,46.2499],[49.2492,46.2673],[49.1802,46.2863],[49.1245,46.2823],[49.1101,46.2285],[49.1082,46.2259],[49.112,46.2211],[49.1195,46.1588],[49.093,46.1624],[49.0738,46.1861],[48.9355,46.1407],[48.9553,46.1078],[48.9318,46.0853],[48.9144,46.132],[48.9126,46.1332],[48.8933,46.1269],[48.8857,46.117],[48.887,46.1078],[48.8822,46.1125],[48.8692,46.0957],[48.8742,46.0782],[48.8591,46.0826],[48.7437,45.933],[48.7429,45.9301],[48.7501,45.9216],[48.7499,45.9214],[48.7501,45.9212],[48.7446,45.915],[48.7566,45.8879],[48.7914,45.8409],[48.7655,45.8522],[48.6952,45.828],[48.6917,45.8657],[48.6457,45.8061],[48.2324,45.7361],[48.2428,45.7099],[48.1994,45.7305],[47.8888,45.6778],[47.8378,45.664],[47.8353,45.6496],[47.8523,45.6423],[47.8182,45.6081],[47.7771,45.6523],[47.7746,45.6584],[47.6773,45.6419],[47.6587,45.6226],[47.6611,45.6218],[47.6455,45.5922],[47.6537,45.5591],[47.615,45.5702],[47.6126,45.5747],[47.5698,45.5303],[47.5442,45.5037],[47.5346,45.4937],[47.4993,45.457],[47.4968,45.43],[47.4774,45.4224],[47.466,45.4224],[47.4445,45.4001],[47.4592,45.3987],[47.3978,45.3231],[47.3929,45.2945],[47.3794,45.2706],[47.3794,45.2028],[47.3701,45.1856],[47.3305,45.1934],[47.2957,45.1487],[47.266,45.0997],[47.2505,45.0653],[47.2279,45.0334],[47.2012,44.97],[47.1658,44.967],[47.146,44.9291],[47.1379,44.936],[47.1157,44.9056],[47.1087,44.8865],[47.1117,44.8696],[47.0845,44.8175],[47.0783,44.7851],[47.0236,44.843],[47.0193,44.8595],[47.004,44.8758],[46.9974,44.8606],[47.01,44.8301],[46.9616,44.7652],[46.935,44.77],[46.8555,44.7256],[46.8679,44.7405],[46.8881,44.7519],[46.884,44.7846],[46.8433,44.7864],[46.8136,44.7663],[46.7867,44.7689],[46.772,44.8107],[46.6035,44.8853],[46.4337,44.9366],[46.1798,44.9659],[46.0973,44.9664],[46.0043,44.9863],[45.9165,44.9844],[45.8537,45.0005],[45.706,44.9758],[45.7119,45.0137],[45.6149,45.1175],[45.5862,45.1583],[45.3525,45.2434],[44.8271,45.4557],[44.7377,45.4966],[44.7063,45.506],[44.5497,45.5093],[44.421,45.5267],[44.2771,45.5802],[44.2072,45.61],[44.1482,45.6525],[44.1161,45.7129],[44.097,45.7739],[44.08,45.7958],[44.0393,45.8206],[43.9699,45.8854],[43.9276,45.9019],[43.8776,45.9455],[43.8091,45.9682],[43.7423,45.9789],[43.5683,45.981],[43.3925,46.016],[43.3567,46.0306],[43.3055,46.0767],[43.2373,46.1124],[43.1743,46.1252],[42.9914,46.1796],[42.9327,46.2324],[42.9054,46.2403],[42.8396,46.2059],[42.8519,46.1772],[42.8346,46.1558],[42.7391,46.0992],[42.6712,46.0884],[42.5335,45.9977],[42.34,45.9719],[42.3174,45.9808],[42.3397,46.1071],[42.3177,46.1255],[42.2036,46.1087],[42.1774,46.0991],[42.1797,46.0558],[42.1516,46.0164],[42.1578,45.9719],[42.1497,45.949],[42.0998,45.9293],[42.0706,45.9565],[42.0363,45.9651],[41.7126,45.996],[41.7201,46.0242],[41.7037,46.0528],[41.6558,46.1053],[41.67,46.1313],[41.648,46.1561],[41.6592,46.1783],[41.726,46.2136],[41.7505,46.2074],[41.7835,46.1696],[41.8401,46.1529],[41.9083,46.1802],[41.9234,46.2164],[41.9624,46.2625],[41.9631,46.2891],[41.995,46.3013],[42.2019,46.3145],[42.2059,46.3227],[42.1794,46.377],[42.1601,46.394],[42.0996,46.4071],[42.0745,46.4354],[42.0501,46.4851],[42.0343,46.5433],[42.0728,46.5583],[42.1809,46.5779],[42.4093,46.5249],[42.4458,46.4829],[42.556,46.4457],[42.5968,46.4109],[42.7401,46.3979],[42.7872,46.3894],[42.9118,46.435],[42.9577,46.4242],[43.0802,46.3598],[43.1803,46.285],[43.2431,46.2471],[43.3188,46.19],[43.3556,46.1724],[43.5106,46.1624],[43.5594,46.1689],[43.646,46.2157],[43.6758,46.2719],[43.7574,46.3693],[43.773,46.4079],[43.8199,46.3896],[43.8594,46.3364],[43.8617,46.2918],[43.9608,46.3361],[43.9702,46.3566],[43.9184,46.416],[43.9277,46.521],[43.9027,46.549],[43.8268,46.5677],[43.8171,46.5887],[43.8744,46.6295],[43.9083,46.6728],[43.9304,46.7227],[44.053,46.799],[44.0726,46.8277],[44.1029,46.8368],[44.1622,46.8329],[44.1902,46.8445],[44.2624,46.9001],[44.3276,47.1108],[44.331,47.4033],[44.334,47.4752],[44.3189,47.4909],[44.2567,47.5059],[44.2455,47.5187],[44.2446,47.5693],[44.2284,47.5746],[44.1263,47.5446],[44.1168,47.5335],[44.1195,47.4288],[44.1096,47.4137],[44.0034,47.4088],[43.9648,47.3855],[43.9533,47.3649],[43.9392,47.2689],[43.9273,47.2668],[43.8023,47.2825],[43.7927,47.2897],[43.7992,47.3706],[43.7567,47.448],[43.7315,47.4766],[43.6475,47.5474],[43.6336,47.5704],[43.7052,47.6831],[43.729,47.7035],[43.8221,47.7497],[43.8642,47.7618],[43.9515,47.7561],[43.9743,47.7668],[44.0323,47.8161],[44.0385,47.8335],[44.0187,47.865],[44.0588,47.9005],[44.0825,47.909],[44.3891,47.8683],[44.3941,47.9233],[44.4455,47.9604],[44.4669,47.9902],[44.4652,48.0388],[44.4477,48.0497],[44.3471,48.0549],[44.3281,48.0638],[44.3141,48.0941],[44.2957,48.2132],[44.3059,48.2551],[44.3705,48.2513],[44.4011,48.2312],[44.4423,48.2339],[44.4737,48.2142],[44.522,48.2095],[44.5402,48.1969],[44.5497,48.108],[44.5467,48.0631],[44.6104,48.0599],[44.6436,48.0881],[44.6623,48.0893],[44.766,48.0588],[44.7964,48.0613],[44.8673,48.0903],[44.9332,48.1355],[44.9456,48.1602],[44.934,48.179],[44.9626,48.2087],[45.0962,48.1378],[45.1369,48.1118],[45.3006,48.0977]]],[[[47.9477,45.6463],[47.957,45.6505],[47.9869,45.5537],[47.9869,45.5536],[47.9971,45.5205],[47.9971,45.4678],[47.9907,45.4487],[47.9598,45.4758],[47.928,45.534],[47.9177,45.5701],[47.9175,45.6328],[47.9446,45.6449],[47.9469,45.6473],[47.947,45.647],[47.9471,45.6471],[47.9473,45.6473],[47.9477,45.6463]]]]}}
]}
