{"type":"FeatureCollection","features":[
{"type":"Feature","properties":{"entityId":"austria-hungary","from":1867,"to":1908,"certainty":"estimated","source":"유럽 쪽은 Natural Earth 1:10m admin-1(v5.1.2) 현대 행정구역 조각을 그 시기 국경에 맞춰 묶고, 조각이 역사 경계와 다른 곳은 선을 그어 나눈 근사. 유럽 밖(시베리아·중앙아시아·극동)은 대략적인 추정. 운영자 검수 필요"},"geometry":{"type":"MultiPolygon","coordinates":[[[[9.5212,47.2628],[9.5303,47.2537],[9.5342,47.2512],[9.5471,47.243],[9.5431,47.2348],[9.5404,47.2291],[9.5448,47.2203],[9.5543,47.2116],[9.5629,47.1977],[9.5619,47.1906],[9.552,47.1756],[9.5521,47.1669],[9.5671,47.1608],[9.5818,47.1549],[9.6056,47.1323],[9.6095,47.1224],[9.6142,47.1107],[9.6157,47.1068],[9.6088,47.0808],[9.6051,47.0776],[9.5883,47.063],[9.5812,47.0569],[9.6691,47.0562],[9.858,47.0155],[9.8668,47.0019],[9.8624,46.9398],[9.8999,46.9144],[10.0069,46.8908],[10.0681,46.8566],[10.1252,46.8468],[10.2014,46.8668],[10.2351,46.9233],[10.2957,46.9227],[10.2962,46.9414],[10.3389,46.9841],[10.3679,46.9955],[10.3947,46.9854],[10.4156,46.9624],[10.4585,46.9366],[10.4638,46.9197],[10.4538,46.8644],[10.4485,46.8322],[10.4172,46.7989],[10.4287,46.7556],[10.3997,46.7355],[10.3944,46.7008],[10.3692,46.6724],[10.3956,46.6388],[10.4382,46.6357],[10.4591,46.6236],[10.4659,46.5785],[10.4518,46.5467],[10.4939,46.4945],[10.5413,46.4895],[10.6247,46.4545],[10.6387,46.4111],[10.6189,46.3754],[10.5634,46.3674],[10.5279,46.3426],[10.5777,46.3127],[10.5902,46.2334],[10.5673,46.1935],[10.5586,46.118],[10.5152,46.082],[10.4908,46.0269],[10.4686,46.0118],[10.4591,45.985],[10.4956,45.9693],[10.5195,45.9167],[10.5072,45.8775],[10.5229,45.8413],[10.559,45.8244],[10.5562,45.8072],[10.5792,45.7947],[10.621,45.8088],[10.6653,45.8115],[10.6874,45.8453],[10.7286,45.8488],[10.7674,45.8416],[10.8124,45.845],[10.8449,45.8341],[10.8846,45.8169],[10.9002,45.7841],[10.8787,45.7614],[10.8703,45.7221],[10.9027,45.7083],[10.9318,45.6819],[10.9791,45.6918],[11.0067,45.7129],[11.0636,45.7126],[11.1307,45.6996],[11.1849,45.7547],[11.1825,45.7784],[11.2005,45.8109],[11.2581,45.8839],[11.2787,45.919],[11.3147,45.9394],[11.359,45.9229],[11.383,45.9448],[11.3926,45.9811],[11.4406,45.9876],[11.4861,46.0099],[11.541,46.016],[11.5788,46.0062],[11.5993,45.9794],[11.6538,45.9754],[11.6848,45.9843],[11.6845,46.0303],[11.7047,46.0534],[11.699,46.0871],[11.7121,46.1011],[11.7998,46.1057],[11.8965,46.1327],[11.9694,46.1963],[11.9204,46.2228],[11.9274,46.2506],[11.8876,46.2727],[11.8535,46.2737],[11.8499,46.3045],[11.8039,46.3453],[11.8029,46.3662],[11.8504,46.3845],[11.8667,46.4324],[11.8957,46.4548],[11.8808,46.4714],[11.8342,46.4838],[11.8322,46.504],[11.8519,46.5142],[12.022,46.5394],[12.0712,46.6131],[12.0803,46.6499],[12.0991,46.6678],[12.1386,46.6443],[12.1779,46.6348],[12.214,46.5961],[12.2531,46.6109],[12.3024,46.6146],[12.3407,46.6282],[12.3825,46.6181],[12.3992,46.6397],[12.4696,46.6758],[12.4999,46.6721],[12.562,46.6512],[12.6202,46.6565],[12.6714,46.6525],[12.6974,46.6405],[12.7485,46.641],[12.8304,46.6096],[13.0645,46.598],[13.1465,46.585],[13.2311,46.5522],[13.2714,46.5508],[13.3733,46.5658],[13.417,46.5605],[13.478,46.5636],[13.5068,46.5469],[13.5492,46.5458],[13.6703,46.5187],[13.701,46.5197],[13.6899,46.4933],[13.6859,46.464],[13.6775,46.4521],[13.6588,46.4451],[13.6002,46.4426],[13.5757,46.4267],[13.53,46.3883],[13.4837,46.3712],[13.4597,46.359],[13.4341,46.3539],[13.4232,46.3448],[13.3956,46.3067],[13.3653,46.2903],[13.3786,46.2684],[13.3847,46.2433],[13.3981,46.2305],[13.4101,46.208],[13.4374,46.2109],[13.4228,46.2286],[13.4683,46.2234],[13.4823,46.2179],[13.5102,46.214],[13.529,46.2048],[13.559,46.1841],[13.5845,46.1813],[13.6274,46.1817],[13.6411,46.1714],[13.645,46.1617],[13.6164,46.125],[13.5226,46.0753],[13.5051,46.066],[13.4823,46.0448],[13.4903,46.0389],[13.4928,46.0325],[13.4823,46.0184],[13.4618,46.0064],[13.4649,45.9899],[13.4375,45.9665],[13.4079,45.9175],[13.4036,45.8894],[13.4324,45.7788],[13.4324,45.7534],[13.4226,45.7241],[13.3862,45.7324],[13.3862,45.717],[13.341,45.717],[13.341,45.7003],[13.3862,45.692],[13.4011,45.6893],[13.3767,45.6832],[13.4017,45.6754],[13.428,45.6811],[13.432,45.6836],[13.5261,45.6664],[13.6201,45.6492],[13.772,45.6214],[13.7599,45.6135],[13.757,45.6137],[13.7302,45.6131],[13.7118,45.5932],[13.7196,45.5872],[13.6474,45.5418],[13.6109,45.538],[13.5896,45.5358],[13.5686,45.5393],[13.5728,45.53],[13.5786,45.5234],[13.5857,45.5197],[13.5773,45.5171],[13.5479,45.5005],[13.5071,45.5119],[13.5046,45.4839],[13.5208,45.4573],[13.5134,45.4362],[13.5549,45.3611],[13.5413,45.3461],[13.5618,45.3264],[13.5703,45.3253],[13.5766,45.3069],[13.5755,45.3065],[13.5774,45.3046],[13.5915,45.264],[13.5882,45.2596],[13.5942,45.2208],[13.5823,45.1966],[13.5994,45.1713],[13.6006,45.1373],[13.6197,45.1387],[13.6238,45.1232],[13.6126,45.1179],[13.6369,45.0936],[13.6232,45.0731],[13.6813,45.0464],[13.7328,44.9949],[13.7493,44.9825],[13.8073,44.9079],[13.8049,44.8854],[13.8237,44.8868],[13.8339,44.8736],[13.8338,44.8734],[13.7993,44.8646],[13.8491,44.8472],[13.8491,44.8266],[13.897,44.8131],[13.9032,44.7724],[13.918,44.7783],[13.8911,44.8314],[13.9013,44.8292],[13.9017,44.8292],[13.9039,44.8294],[13.9363,44.8199],[13.9517,44.8024],[13.9519,44.8026],[13.9521,44.8024],[13.9597,44.813],[13.9639,44.8118],[14,44.8131],[13.9727,44.8266],[13.9727,44.8314],[14.0288,44.9105],[14.0421,44.9265],[14.0828,44.9839],[14.0689,44.9495],[14.1133,44.9775],[14.1399,44.9713],[14.1637,44.9958],[14.1662,45.0189],[14.1551,45.0678],[14.1745,45.0896],[14.1931,45.1056],[14.1916,45.1088],[14.2077,45.1268],[14.2092,45.1264],[14.2347,45.1546],[14.2477,45.1865],[14.2535,45.2235],[14.2551,45.2297],[14.258,45.2339],[14.5334,45.1666],[14.5213,45.1488],[14.5227,45.1465],[14.4897,45.1279],[14.4671,45.1241],[14.4652,45.1142],[14.4377,45.0987],[14.4379,45.0984],[14.4377,45.0983],[14.4407,45.093],[14.4251,45.0873],[14.4601,45.0524],[14.5105,45.0322],[14.5907,45.0233],[14.5997,45.0268],[14.6141,45.0254],[14.6282,44.9949],[14.6289,44.9782],[14.6824,44.9584],[14.6861,44.956],[14.6864,44.9561],[14.6865,44.956],[14.6882,44.9563],[14.7234,44.9433],[14.7568,44.9487],[14.7487,44.9666],[14.8089,44.9768],[14.815,44.9775],[14.7998,45.0052],[14.7744,45.0218],[14.7405,45.0657],[14.7404,45.0658],[14.7405,45.0731],[14.7283,45.0732],[14.7009,45.09],[14.6669,45.1318],[14.6676,45.1339],[14.8374,45.0924],[14.8553,45.081],[14.8598,45.0713],[14.9022,44.9791],[14.9057,44.9717],[14.8937,44.8869],[14.8838,44.8615],[14.8838,44.7888],[14.8895,44.7626],[14.8923,44.733],[14.8838,44.7236],[14.9014,44.6902],[15.0013,44.5785],[15.0444,44.5553],[15.1305,44.4894],[15.155,44.4667],[15.2938,44.3648],[15.308,44.3544],[15.3562,44.3378],[15.3771,44.3186],[15.3307,44.3014],[15.3086,44.3093],[15.2612,44.3326],[15.3027,44.2991],[15.2883,44.2897],[15.2838,44.2897],[15.2448,44.2772],[15.1981,44.3017],[15.2078,44.2728],[15.2073,44.2724],[15.183,44.2724],[15.1653,44.2679],[15.1576,44.2803],[15.1104,44.2644],[15.1219,44.2564],[15.1218,44.2564],[15.1573,44.2098],[15.1445,44.1955],[15.2127,44.1483],[15.2129,44.131],[15.2783,44.0856],[15.3195,44.0452],[15.3581,44.0257],[15.4661,43.9217],[15.492,43.9158],[15.4998,43.9092],[15.5387,43.8847],[15.5469,43.8766],[15.5741,43.8595],[15.5853,43.8554],[15.6415,43.8201],[15.6174,43.8255],[15.633,43.8105],[15.6821,43.7972],[15.7063,43.7634],[15.7242,43.7625],[15.9201,43.5905],[15.9595,43.5382],[15.9681,43.5403],[15.981,43.5257],[15.9735,43.5031],[16.0128,43.504],[16.0396,43.4908],[16.0924,43.4823],[16.441,43.3687],[16.4286,43.3436],[16.4214,43.3176],[16.4215,43.3176],[16.4214,43.3172],[16.4898,43.2859],[16.4996,43.2847],[16.5007,43.2842],[16.564,43.2701],[16.6283,43.2637],[16.7547,43.2665],[16.9169,43.2136],[16.929,43.2097],[17.0302,43.1468],[16.9169,43.1565],[16.8869,43.1591],[16.8644,43.1689],[16.8484,43.1624],[16.7113,43.1741],[16.6943,43.1793],[16.6745,43.1969],[16.6595,43.216],[16.6038,43.2235],[16.5955,43.2205],[16.5719,43.2232],[16.5628,43.229],[16.5205,43.229],[16.5207,43.2288],[16.3746,43.2134],[16.375,43.2132],[16.3748,43.2132],[16.3751,43.2131],[16.3746,43.213],[16.3973,43.2021],[16.3804,43.202],[16.3716,43.1955],[16.4452,43.1708],[16.5393,43.148],[16.551,43.1436],[16.6806,43.1228],[16.9169,43.1191],[17.0788,43.1165],[17.1231,43.089],[17.1489,43.0729],[17.1747,43.0569],[17.2262,43.0249],[17.2274,43.0241],[17.2258,43.0242],[17.221,43.0259],[17.2094,43.0259],[17.1587,43.031],[17.0733,43.0242],[17.0016,43.0515],[17.0282,43.0242],[17.0275,43.0036],[17.0954,42.9844],[17.1836,42.9843],[17.252,42.9692],[17.2603,42.9667],[17.2807,42.9585],[17.3509,42.9218],[17.3855,42.9163],[17.4284,42.899],[17.442,42.8906],[17.4404,42.8734],[17.4956,42.8572],[17.5086,42.8492],[18.2342,42.5643],[18.2389,42.5591],[18.4119,42.476],[18.4131,42.4619],[18.4745,42.4414],[18.4964,42.4163],[18.5103,42.4053],[18.5197,42.4332],[18.5476,42.4291],[18.5452,42.4236],[18.553,42.4136],[18.5781,42.4004],[18.5706,42.393],[18.5949,42.3837],[18.6167,42.3681],[18.6384,42.3703],[18.6532,42.3663],[18.6535,42.3674],[18.7141,42.3377],[18.7145,42.3253],[18.7295,42.3116],[18.7625,42.2912],[18.7786,42.2715],[18.7887,42.276],[18.8136,42.2891],[18.8256,42.2832],[18.8314,42.2775],[18.8332,42.2795],[18.8946,42.2495],[18.9001,42.2449],[18.9017,42.2375],[18.9133,42.2222],[18.9465,42.2038],[18.9811,42.1637],[18.9919,42.1637],[18.9816,42.1671],[18.9714,42.1833],[19.0009,42.2085],[18.9959,42.2216],[18.9457,42.2653],[18.9286,42.2892],[18.9225,42.3021],[18.9142,42.3201],[18.8846,42.3395],[18.8529,42.3442],[18.8296,42.3518],[18.7971,42.36],[18.7936,42.3542],[18.7791,42.3793],[18.7619,42.4253],[18.7788,42.38],[18.785,42.38],[18.785,42.45],[18.7705,42.45],[18.7721,42.4767],[18.7605,42.5074],[18.698,42.5405],[18.684,42.5765],[18.6663,42.5936],[18.6483,42.6293],[18.6013,42.6244],[18.5428,42.6264],[18.5384,42.6183],[18.5068,42.5985],[18.4867,42.5898],[18.4959,42.5709],[18.4818,42.5637],[18.459,42.5697],[18.4374,42.5592],[18.3698,42.5744],[18.3387,42.6025],[18.3116,42.6012],[18.2241,42.6281],[17.9719,42.755],[17.9045,42.8045],[17.8585,42.817],[17.8272,42.8531],[17.8262,42.8886],[17.8118,42.9099],[17.7867,42.9014],[17.7016,42.9195],[17.6795,42.9157],[17.6533,42.8909],[17.6385,42.8976],[17.6385,42.8854],[17.6127,42.893],[17.587,42.9005],[17.587,42.921],[17.5733,42.9272],[17.5354,42.9272],[17.5354,42.9538],[17.5612,42.9471],[17.5612,42.9338],[17.587,42.9283],[17.587,42.9387],[17.5807,42.9421],[17.6345,42.9504],[17.6627,42.9657],[17.6593,42.9934],[17.6284,43.0466],[17.598,43.0729],[17.5874,43.0821],[17.4509,43.1482],[17.4268,43.1657],[17.4002,43.216],[17.3287,43.2604],[17.2899,43.3034],[17.2676,43.3533],[17.2864,43.4374],[17.2705,43.4632],[17.2395,43.4784],[17.1428,43.4893],[17.0623,43.5277],[16.8238,43.7073],[16.7126,43.7715],[16.6982,43.7881],[16.6786,43.8407],[16.6374,43.8684],[16.6048,43.9011],[16.5558,43.9375],[16.5274,43.9679],[16.4835,44.0025],[16.4396,44.014],[16.404,44.0588],[16.3672,44.0581],[16.3269,44.0824],[16.2755,44.1574],[16.2158,44.2082],[16.1876,44.2824],[16.2056,44.3505],[16.1713,44.3771],[16.1388,44.3854],[16.1599,44.4007],[16.1529,44.4351],[16.1165,44.5215],[16.0837,44.5349],[16.0473,44.5233],[16.0061,44.541],[16.0447,44.5894],[16.0283,44.6247],[15.969,44.6392],[15.9374,44.689],[15.9131,44.6845],[15.8956,44.7186],[15.8763,44.7248],[15.8564,44.7036],[15.8057,44.6967],[15.7593,44.7342],[15.7173,44.7865],[15.7306,44.817],[15.7687,44.8273],[15.7734,44.845],[15.7343,44.9021],[15.7341,44.9344],[15.7674,44.9932],[15.756,45.0422],[15.7838,45.1009],[15.78,45.1603],[15.8026,45.1965],[15.8248,45.211],[15.8789,45.2172],[16.0085,45.2182],[16.0292,45.205],[16.0244,45.1843],[16.0675,45.1696],[16.1041,45.1125],[16.213,45.0315],[16.2793,45.0072],[16.3162,45.0012],[16.346,45.02],[16.382,45.0837],[16.3818,45.1076],[16.4355,45.1329],[16.4819,45.1995],[16.5289,45.2223],[16.587,45.2209],[16.7863,45.1788],[16.8242,45.1891],[16.8307,45.217],[16.9244,45.2845],[16.9473,45.2357],[16.9612,45.2509],[17.0083,45.2162],[17.0363,45.2305],[17.0557,45.2004],[17.1246,45.1691],[17.1871,45.1486],[17.2455,45.1554],[17.269,45.1895],[17.3824,45.1396],[17.4341,45.1486],[17.4478,45.1343],[17.4962,45.1417],[17.4893,45.1163],[17.5724,45.1204],[17.63,45.1573],[17.6847,45.164],[17.7145,45.152],[17.7657,45.111],[17.7975,45.082],[17.8357,45.0644],[17.9026,45.0778],[17.9277,45.092],[17.9885,45.1438],[18.0191,45.1494],[18.0903,45.108],[18.1437,45.0977],[18.1749,45.1008],[18.1993,45.119],[18.2023,45.1441],[18.2379,45.1575],[18.262,45.1507],[18.3223,45.1229],[18.3929,45.1186],[18.412,45.1124],[18.4518,45.085],[18.4817,45.0669],[18.517,45.0559],[18.5411,45.0553],[18.5348,45.0884],[18.6167,45.0977],[18.6405,45.0654],[18.6581,45.0663],[18.6661,45.083],[18.689,45.0802],[18.7263,45.0261],[18.7501,45.0122],[18.789,45.0057],[18.8046,44.9738],[18.7726,44.9425],[18.7834,44.9137],[18.8178,44.8875],[18.8421,44.8762],[18.8587,44.8685],[18.8896,44.8612],[18.9749,44.8628],[19.0158,44.8656],[19.0846,44.879],[19.1743,44.9254],[19.2019,44.9084],[19.2395,44.9151],[19.3102,44.9124],[19.357,44.8959],[19.3249,44.9223],[19.3716,44.9139],[19.4061,44.9416],[19.4739,44.9014],[19.4992,44.9169],[19.5521,44.9005],[19.6003,44.914],[19.6447,44.9127],[19.6735,44.9345],[19.7569,44.9154],[19.7533,44.8921],[19.7006,44.8076],[19.7203,44.7645],[19.7453,44.7522],[19.7966,44.7516],[19.8463,44.7335],[19.914,44.6954],[19.9826,44.6959],[20.0101,44.6889],[19.9308,44.6593],[19.9404,44.6318],[19.9734,44.6412],[20.0455,44.6903],[20.0845,44.7047],[20.1,44.7],[20.2,44.675],[20.3,44.69],[20.33,44.73],[20.38,44.775],[20.42,44.805],[20.45,44.826],[20.5,44.832],[20.55,44.822],[20.6,44.785],[20.65,44.735],[20.72,44.685],[20.7377,44.685],[20.7203,44.6962],[20.7636,44.6684],[20.7948,44.6647],[20.8265,44.6609],[20.8832,44.6727],[20.9896,44.7168],[21.0368,44.722],[21.0779,44.7265],[21.1123,44.7448],[21.1638,44.7478],[21.1888,44.7782],[21.2695,44.8137],[21.3598,44.8267],[21.3959,44.7902],[21.4972,44.778],[21.5584,44.7817],[21.5956,44.766],[21.6197,44.7139],[21.6563,44.6877],[21.7052,44.6771],[21.7568,44.6773],[21.8554,44.6985],[22.0043,44.6515],[22.0342,44.5962],[22.0888,44.6032],[22.1499,44.5977],[22.169,44.609],[22.1727,44.6339],[22.1608,44.6644],[22.1653,44.7022],[22.2057,44.7613],[22.2219,44.8062],[22.2626,44.8083],[22.3112,44.7779],[22.3542,44.7777],[22.3878,44.7537],[22.4212,44.7521],[22.4418,44.7694],[22.467,44.8393],[22.4918,44.8846],[22.5337,44.9342],[22.5666,45.0239],[22.5989,45.0602],[22.6411,45.0924],[22.6346,45.1275],[22.5661,45.1388],[22.5727,45.1708],[22.601,45.1977],[22.6691,45.2405],[22.8814,45.2949],[22.9334,45.2767],[22.9761,45.2748],[23.027,45.2597],[23.0908,45.2794],[23.1895,45.2718],[23.2441,45.2952],[23.3575,45.3215],[23.3984,45.3182],[23.4304,45.3038],[23.5237,45.3379],[23.5858,45.3526],[23.5999,45.3819],[23.5808,45.4323],[23.5842,45.4473],[23.6261,45.4519],[23.6469,45.4505],[23.7097,45.4798],[23.7526,45.4861],[23.794,45.508],[23.9606,45.5122],[24.0683,45.4964],[24.1689,45.537],[24.3218,45.563],[24.5272,45.5618],[24.7091,45.5988],[24.7719,45.6029],[24.8004,45.595],[24.8388,45.5631],[24.8687,45.5739],[24.9839,45.58],[25.0951,45.5696],[25.2208,45.5034],[25.2759,45.4165],[25.3092,45.3885],[25.3703,45.3994],[25.4027,45.4392],[25.4298,45.4523],[25.4588,45.4636],[25.6278,45.4847],[25.6933,45.4794],[25.7502,45.4659],[25.7904,45.4733],[25.8231,45.4455],[25.8627,45.4416],[25.8913,45.4654],[25.9028,45.5006],[25.9458,45.5102],[25.9989,45.4886],[26.046,45.4823],[26.1005,45.5644],[26.1889,45.5745],[26.2075,45.5832],[26.2156,45.6122],[26.2346,45.6256],[26.2847,45.6028],[26.3286,45.6181],[26.3427,45.6553],[26.3667,45.6852],[26.395,45.7498],[26.3804,45.8029],[26.4048,45.9175],[26.4209,45.9505],[26.4848,46.0212],[26.4681,46.0274],[26.4406,46.0748],[26.4021,46.0943],[26.4149,46.128],[26.4001,46.1445],[26.325,46.1794],[26.2932,46.1601],[26.2516,46.1503],[26.259,46.1881],[26.2799,46.2265],[26.2869,46.2762],[26.3002,46.302],[26.2927,46.3197],[26.2471,46.3266],[26.1823,46.3057],[26.1595,46.3125],[26.1682,46.35],[26.1619,46.3731],[26.1326,46.3907],[26.0387,46.4033],[26.0189,46.4268],[26.0325,46.4683],[26.0699,46.4872],[26.0691,46.4986],[26.0289,46.5485],[26.012,46.5936],[26.0088,46.668],[25.9271,46.6819],[25.907,46.6748],[25.915,46.6356],[25.889,46.6348],[25.8409,46.6702],[25.8282,46.6936],[25.8165,46.8592],[25.832,46.8853],[25.8668,46.8837],[25.8658,46.9128],[25.7918,46.9661],[25.7627,47.0125],[25.7371,47.039],[25.6713,47.0579],[25.6721,47.0799],[25.6962,47.123],[25.7408,47.1597],[25.7951,47.1866],[25.8196,47.2069],[25.8194,47.2246],[25.7715,47.2685],[25.7942,47.2779],[25.8785,47.2333],[25.909,47.234],[25.9821,47.2575],[26.0396,47.2454],[26.1104,47.2541],[26.2229,47.2537],[26.2594,47.2599],[26.3531,47.2932],[26.3958,47.2968],[26.4327,47.2888],[26.4823,47.2536],[26.559,47.2656],[26.5727,47.2857],[26.5114,47.3244],[26.5005,47.3409],[26.5212,47.3534],[26.6261,47.3449],[26.6561,47.3529],[26.6734,47.4127],[26.6585,47.4267],[26.6172,47.4307],[26.5676,47.4681],[26.5621,47.5284],[26.5463,47.5806],[26.5267,47.614],[26.4161,47.7065],[26.397,47.7284],[26.2833,47.8263],[26.1416,47.8963],[26.1194,47.9175],[26.1025,47.9783],[26.1731,47.9931],[26.2048,48.0374],[26.2553,48.0723],[26.287,48.1247],[26.3035,48.212],[26.3303,48.2085],[26.3739,48.22],[26.29,48.22],[26.22,48.32],[26.15,48.5],[26.1573,48.5364],[26.1809,48.5267],[26.2567,48.5334],[26.3266,48.5116],[26.3805,48.5171],[26.354,48.5616],[26.3689,48.5761],[26.3067,48.6056],[26.3163,48.6428],[26.285,48.6412],[26.2819,48.6616],[26.2355,48.685],[26.2513,48.7524],[26.2285,48.7792],[26.2642,48.8082],[26.2387,48.8188],[26.2143,48.847],[26.2229,48.8972],[26.1954,48.9],[26.2023,48.935],[26.1891,48.953],[26.1985,48.9845],[26.2212,49.0007],[26.1995,49.0413],[26.2284,49.0669],[26.2109,49.1191],[26.2218,49.148],[26.1992,49.1746],[26.2078,49.2273],[26.2417,49.2412],[26.2563,49.2936],[26.2344,49.3195],[26.2391,49.342],[26.2291,49.397],[26.1985,49.4153],[26.1484,49.5165],[26.1643,49.544],[26.2087,49.5669],[26.2239,49.62],[26.2,49.62],[26,49.75],[25.8,49.85],[25.6,49.92],[25.3898,49.9873],[25.4038,49.9797],[25.3727,49.9965],[25.3676,50.0131],[25.2959,50.0413],[25.2023,50.095],[25.1854,50.128],[25.1929,50.1816],[25.1677,50.22],[25.2075,50.2501],[25.1957,50.288],[25.1529,50.2925],[25.1041,50.2794],[25.0635,50.2948],[25.0638,50.3345],[25.0489,50.3473],[25.0039,50.3457],[24.9319,50.3702],[24.9114,50.3481],[24.8484,50.3549],[24.773,50.3405],[24.7052,50.3496],[24.6882,50.3767],[24.6394,50.3974],[24.6342,50.4134],[24.591,50.417],[24.5526,50.4384],[24.5418,50.4109],[24.5042,50.4106],[24.4988,50.4397],[24.4567,50.4614],[24.4634,50.4788],[24.5132,50.4867],[24.5354,50.5001],[24.5306,50.5241],[24.5008,50.5455],[24.4343,50.549],[24.4054,50.5674],[24.3795,50.6009],[24.3459,50.6089],[24.3214,50.5926],[24.2479,50.5818],[24.2179,50.5892],[24.1647,50.6402],[24.1259,50.6418],[24.1082,50.6303],[24.0853,50.6044],[24.0954,50.5569],[24.1077,50.5408],[24.075,50.5143],[24.0107,50.4928],[24.0032,50.4377],[23.9813,50.4048],[23.9287,50.3908],[23.7475,50.3894],[23.6957,50.3768],[23.6587,50.327],[23.558,50.3647],[23.5255,50.3957],[23.4626,50.4215],[23.3889,50.4267],[23.3055,50.4158],[23.2231,50.3562],[23.1584,50.3227],[23.0828,50.3125],[22.8581,50.3171],[22.7212,50.342],[22.7114,50.3567],[22.7611,50.3679],[22.7343,50.3797],[22.5949,50.3621],[22.5598,50.3725],[22.5339,50.3981],[22.5266,50.4229],[22.5681,50.4646],[22.6305,50.4689],[22.6579,50.479],[22.6227,50.5315],[22.6121,50.5681],[22.4547,50.622],[22.2215,50.6596],[22.203,50.6801],[22.2624,50.7599],[22.1951,50.7917],[22.1568,50.8009],[22.1174,50.7998],[22.0513,50.7704],[21.9764,50.7728],[21.8443,50.8298],[21.8486,50.7792],[21.8405,50.7399],[21.8062,50.6914],[21.745,50.6747],[21.7163,50.6444],[21.6688,50.6085],[21.644,50.558],[21.5949,50.5245],[21.5308,50.514],[21.4352,50.4867],[21.4489,50.4662],[21.4043,50.4439],[21.3601,50.4457],[21.2953,50.4108],[21.284,50.3267],[21.2535,50.2795],[21.2162,50.2382],[21.2142,50.22],[20.7,50.22],[20.6716,50.2103],[20.6335,50.1744],[20.5702,50.1755],[20.35,50.1],[20.15,50.09],[19.98,50.14],[19.82,50.18],[19.65,50.2],[19.48,50.24],[19.32,50.27],[19.17,50.235],[19.19,50.2],[19.22,50.15],[19.23,50.08],[19.2,50.03],[19.08,49.99],[18.95,49.96],[18.85,49.93],[18.77,49.92],[18.62,49.91],[18.48,49.92],[18.3874,49.9262],[18.3688,49.932],[18.3569,49.9282],[18.33,49.93],[18.3277,49.919],[18.2925,49.9078],[18.2559,49.946],[18.2087,49.9583],[18.162,49.9812],[18.0982,49.989],[18.0916,50.0172],[18.0191,50.0441],[18.0069,50.0241],[18.0375,50.0072],[17.9999,49.9966],[17.9416,49.9928],[17.9121,49.9758],[17.8757,49.9687],[17.8394,49.9736],[17.7633,50.0252],[17.743,50.0606],[17.7195,50.0809],[17.732,50.0949],[17.6776,50.1077],[17.6328,50.1063],[17.5842,50.1459],[17.5894,50.1632],[17.6753,50.1747],[17.7382,50.2024],[17.7476,50.2175],[17.7214,50.2427],[17.7345,50.2895],[17.708,50.311],[17.6845,50.3124],[17.6467,50.2711],[17.6064,50.2582],[17.517,50.2684],[17.4694,50.2656],[17.44,50.2427],[17.4191,50.2427],[17.388,50.2726],[17.355,50.2533],[17.3348,50.27],[17.3341,50.2957],[17.3168,50.3186],[17.2461,50.3221],[17.201,50.3432],[17.1876,50.3785],[17.1189,50.3812],[17.0847,50.398],[16.944,50.4203],[16.893,50.4329],[16.8659,50.4084],[16.8979,50.3782],[16.9265,50.3193],[16.9878,50.2849],[17.0084,50.21],[16.9603,50.232],[16.9553,50.2135],[16.919,50.2171],[16.8698,50.1897],[16.8177,50.1868],[16.7953,50.1744],[16.7543,50.1323],[16.7012,50.0949],[16.6606,50.093],[16.5842,50.1274],[16.5573,50.1547],[16.535,50.2077],[16.5048,50.228],[16.4378,50.298],[16.371,50.3184],[16.3532,50.3335],[16.3508,50.3606],[16.3342,50.3719],[16.2625,50.3644],[16.232,50.4026],[16.1996,50.4063],[16.1902,50.4242],[16.2112,50.4513],[16.28,50.4799],[16.3034,50.496],[16.3526,50.4928],[16.3912,50.5218],[16.3945,50.5593],[16.4259,50.5676],[16.4168,50.5866],[16.3316,50.644],[16.2683,50.6604],[16.2191,50.6591],[16.2045,50.6363],[16.1755,50.6241],[16.1287,50.644],[16.0865,50.6468],[16.0245,50.6086],[15.982,50.6036],[15.9964,50.6237],[15.9932,50.6494],[15.9715,50.6786],[15.9415,50.6884],[15.8823,50.6742],[15.8482,50.6752],[15.7976,50.7298],[15.7674,50.7442],[15.6843,50.7314],[15.6419,50.7558],[15.5221,50.7824],[15.4418,50.8002],[15.4001,50.798],[15.3703,50.7726],[15.3497,50.7837],[15.353,50.813],[15.341,50.8317],[15.2878,50.8549],[15.2531,50.9141],[15.2698,50.9527],[15.2271,50.9774],[15.1702,50.978],[15.1561,51.0078],[15.1315,51.0058],[15.1079,50.981],[15.0736,51.0026],[14.9965,51.0078],[14.961,50.9927],[14.9966,50.9592],[14.9849,50.9181],[14.9821,50.8591],[14.8679,50.8644],[14.8104,50.8584],[14.7754,50.813],[14.7004,50.816],[14.6083,50.8531],[14.6346,50.9094],[14.6171,50.9209],[14.5618,50.9064],[14.5504,50.9121],[14.5756,50.9507],[14.5743,50.9755],[14.5423,50.9987],[14.4935,51.0167],[14.4821,51.0372],[14.4621,51.0197],[14.3978,51.0131],[14.3566,51.0323],[14.2875,51.0368],[14.2636,51.0214],[14.2383,50.9825],[14.3038,50.9697],[14.2928,50.9535],[14.3183,50.9375],[14.3819,50.9209],[14.3759,50.896],[14.3465,50.8802],[14.2681,50.8841],[14.2321,50.8794],[14.1908,50.8479],[14.0349,50.8026],[13.9596,50.8021],[13.9233,50.78],[13.8925,50.7804],[13.8822,50.7427],[13.8345,50.7237],[13.7491,50.7232],[13.6918,50.7118],[13.6019,50.7122],[13.5566,50.7067],[13.5156,50.691],[13.5233,50.6622],[13.4933,50.6432],[13.4982,50.6292],[13.4479,50.5973],[13.407,50.6013],[13.381,50.6255],[13.3219,50.6024],[13.3056,50.5758],[13.2846,50.569],[13.2323,50.582],[13.1991,50.5253],[13.1601,50.497],[13.1074,50.499],[13.0698,50.4911],[13.0096,50.4927],[12.9966,50.4337],[12.9606,50.4092],[12.9184,50.4054],[12.8258,50.4414],[12.7542,50.4353],[12.6788,50.3937],[12.6254,50.3999],[12.5505,50.3964],[12.5102,50.3888],[12.4751,50.3694],[12.469,50.3456],[12.3982,50.3152],[12.3672,50.2791],[12.3365,50.2586],[12.3056,50.1993],[12.3144,50.1673],[12.2834,50.1622],[12.2585,50.2109],[12.2325,50.2325],[12.243,50.253],[12.178,50.2688],[12.1685,50.303],[12.1013,50.314],[12.0761,50.3152],[12.1073,50.2909],[12.1091,50.2638],[12.0796,50.2427],[12.1393,50.211],[12.1827,50.1707],[12.1792,50.118],[12.1879,50.1028],[12.2325,50.0805],[12.2469,50.045],[12.4682,49.9702],[12.4627,49.9313],[12.5241,49.905],[12.5129,49.8702],[12.4825,49.8272],[12.4625,49.8312],[12.4527,49.7797],[12.3954,49.7579],[12.3836,49.7429],[12.4196,49.7002],[12.4964,49.67],[12.502,49.6197],[12.5536,49.5847],[12.5623,49.5508],[12.5937,49.515],[12.623,49.5098],[12.6272,49.4602],[12.6435,49.4295],[12.7293,49.3911],[12.7621,49.3432],[12.7978,49.3278],[12.8754,49.3239],[12.8847,49.3396],[12.9229,49.3327],[12.9998,49.2949],[13.0113,49.2678],[13.0558,49.2382],[13.1495,49.1548],[13.1785,49.1183],[13.2068,49.1075],[13.2673,49.1056],[13.2995,49.0936],[13.3724,49.0385],[13.3842,48.993],[13.4273,48.96],[13.4823,48.9376],[13.5021,48.9661],[13.5224,48.9693],[13.5905,48.9448],[13.6087,48.9462],[13.6218,48.9091],[13.6544,48.8822],[13.7247,48.8673],[13.7962,48.7798],[13.8157,48.7664],[13.7859,48.7248],[13.8169,48.6956],[13.8009,48.6752],[13.8024,48.6117],[13.766,48.5638],[13.7339,48.5598],[13.7165,48.5217],[13.6734,48.5355],[13.6244,48.5654],[13.5207,48.5846],[13.4546,48.5734],[13.4401,48.561],[13.4564,48.5067],[13.4364,48.4692],[13.4382,48.441],[13.4056,48.3766],[13.3078,48.3196],[13.2742,48.3071],[13.1364,48.2911],[13.0328,48.2636],[12.933,48.2093],[12.8776,48.202],[12.8221,48.1607],[12.745,48.1206],[12.737,48.1],[12.7602,48.0649],[12.8306,48.0155],[12.8482,47.9824],[12.862,47.9626],[12.9311,47.9249],[12.965,47.872],[12.9912,47.8471],[12.9267,47.7774],[12.9172,47.7502],[12.892,47.7235],[12.9083,47.7124],[12.964,47.7054],[13.0044,47.7146],[13.0446,47.6966],[13.0748,47.6467],[13.072,47.6224],[13.0383,47.584],[13.0281,47.5416],[13.0373,47.493],[13.0019,47.466],[12.9697,47.4757],[12.9425,47.4705],[12.8826,47.4986],[12.8284,47.5373],[12.7789,47.5548],[12.7737,47.5795],[12.7859,47.6027],[12.8132,47.6118],[12.7517,47.6494],[12.762,47.6669],[12.6531,47.6751],[12.5984,47.6629],[12.5634,47.6418],[12.4966,47.6289],[12.4528,47.6498],[12.4241,47.6916],[12.3515,47.6817],[12.2937,47.69],[12.2387,47.6789],[12.2233,47.6959],[12.2422,47.732],[12.1766,47.7058],[12.2023,47.6778],[12.2021,47.6298],[12.1656,47.604],[11.9359,47.6107],[11.852,47.5992],[11.8203,47.5753],[11.764,47.5831],[11.6826,47.5834],[11.6205,47.5897],[11.5891,47.5704],[11.5694,47.5274],[11.5512,47.5137],[11.4826,47.5026],[11.4126,47.5061],[11.3655,47.4693],[11.3886,47.4622],[11.3839,47.4449],[11.3056,47.4354],[11.2588,47.4007],[11.213,47.3958],[11.2152,47.423],[11.1686,47.4243],[11.0837,47.3895],[10.9795,47.3905],[10.9553,47.4096],[10.9598,47.4325],[10.9099,47.469],[10.8516,47.4931],[10.8922,47.5149],[10.8586,47.5307],[10.7903,47.5161],[10.7522,47.5154],[10.7399,47.5285],[10.6079,47.5623],[10.5837,47.5625],[10.5251,47.5285],[10.4825,47.5329],[10.4535,47.5462],[10.4536,47.5811],[10.4142,47.573],[10.431,47.5422],[10.4196,47.493],[10.4422,47.4814],[10.452,47.4388],[10.4116,47.381],[10.3657,47.3611],[10.3434,47.3308],[10.3059,47.3022],[10.2394,47.2777],[10.175,47.2724],[10.1554,47.2729],[10.1859,47.295],[10.2086,47.3545],[10.1909,47.3792],[10.1257,47.3627],[10.0732,47.3655],[10.0532,47.4049],[10.0806,47.4274],[10.0226,47.488],[9.9936,47.4766],[9.9487,47.5242],[9.9459,47.5408],[9.9188,47.5322],[9.8131,47.5418],[9.808,47.5763],[9.7821,47.5884],[9.7527,47.5821],[9.704,47.5314],[9.6767,47.5226],[9.6126,47.5219],[9.5541,47.5327],[9.5475,47.5345],[9.5531,47.5169],[9.5845,47.4807],[9.6503,47.4521],[9.6495,47.4097],[9.601,47.3613],[9.5874,47.3278],[9.5212,47.2628]],[[19.8269,49.1865],[19.8325,49.1861],[19.8683,49.2008],[19.832,49.1859],[19.8269,49.1865]]],[[[14.2777,45.128],[14.2874,45.1011],[14.3161,45.0766],[14.3405,45.0202],[14.3405,44.9807],[14.303,44.9428],[14.3015,44.9434],[14.3009,44.9407],[14.3009,44.9406],[14.2942,44.9086],[14.3141,44.8938],[14.3298,44.8339],[14.3544,44.8201],[14.3648,44.8004],[14.3745,44.7539],[14.3894,44.7524],[14.3961,44.734],[14.3945,44.7076],[14.4279,44.6566],[14.473,44.6203],[14.5204,44.6215],[14.5139,44.6622],[14.4778,44.7019],[14.4724,44.7135],[14.4739,44.7545],[14.4615,44.7795],[14.4593,44.8018],[14.4666,44.8048],[14.4555,44.8396],[14.4525,44.8694],[14.4626,44.9401],[14.471,44.9539],[14.4661,44.9837],[14.4467,44.9873],[14.3949,45.031],[14.3697,45.0814],[14.3636,45.1302],[14.3641,45.1576],[14.3593,45.1646],[14.3589,45.1682],[14.3585,45.1682],[14.3571,45.168],[14.3562,45.1693],[14.3137,45.1724],[14.295,45.1494],[14.2865,45.1456],[14.2866,45.1453],[14.2865,45.1452],[14.2883,45.1411],[14.2777,45.128]]],[[[14.6579,44.7988],[14.6649,44.7931],[14.6789,44.7702],[14.6977,44.7667],[14.6995,44.7652],[14.7061,44.7651],[14.7617,44.7546],[14.806,44.7357],[14.8496,44.7032],[14.8502,44.7169],[14.8553,44.7147],[14.8552,44.7149],[14.8557,44.7147],[14.8554,44.7152],[14.8557,44.7151],[14.8506,44.7239],[14.8512,44.7373],[14.8224,44.7714],[14.8112,44.7771],[14.7657,44.821],[14.7549,44.8453],[14.7464,44.8457],[14.739,44.8534],[14.7325,44.8465],[14.6901,44.8487],[14.6897,44.8487],[14.6883,44.8468],[14.6858,44.8472],[14.6873,44.8454],[14.6717,44.8244],[14.6609,44.8001],[14.661,44.7999],[14.6609,44.7997],[14.6618,44.7983],[14.6579,44.7988]]],[[[14.7401,44.6973],[14.7513,44.6801],[14.7615,44.6586],[14.8093,44.6177],[14.8841,44.5445],[14.9072,44.4972],[14.8975,44.4909],[14.9158,44.4837],[14.9957,44.4334],[15.039,44.3935],[15.0966,44.3588],[15.1071,44.3506],[15.1104,44.3463],[15.0967,44.34],[15.1288,44.312],[15.1724,44.2991],[15.1309,44.3264],[15.1368,44.3275],[15.1614,44.3084],[15.1616,44.3086],[15.1618,44.3084],[15.1761,44.3242],[15.1989,44.317],[15.2271,44.3264],[15.2061,44.3441],[15.2122,44.3466],[15.2137,44.3468],[15.2351,44.3362],[15.2544,44.34],[15.2394,44.3499],[15.241,44.3501],[15.2407,44.3503],[15.2408,44.3503],[15.2406,44.3504],[15.241,44.3505],[15.1434,44.4164],[15.1005,44.4489],[15.0514,44.4938],[15.0755,44.4841],[15.0412,44.5275],[15.0051,44.5358],[15.0018,44.5382],[14.9663,44.5734],[14.9041,44.61],[14.9004,44.6099],[14.8989,44.6109],[14.8557,44.6179],[14.8053,44.6491],[14.7846,44.6646],[14.78,44.6695],[14.7412,44.7016],[14.7444,44.6947],[14.7405,44.6977],[14.7409,44.6971],[14.7401,44.6977],[14.7406,44.6969],[14.7401,44.6973]]],[[[14.8496,44.1756],[14.8701,44.1408],[14.9044,44.1145],[15.0421,43.9914],[15.0428,43.9904],[15.1066,43.9254],[15.1365,43.903],[15.1386,43.9079],[15.1508,43.9108],[15.1844,43.9016],[15.1955,43.8952],[15.1985,43.8977],[15.201,43.897],[15.201,43.8971],[15.2014,43.897],[15.2029,43.9013],[15.2168,43.9128],[15.1764,43.9334],[15.0266,44.0571],[15.0227,44.0722],[14.9906,44.0868],[14.9529,44.1179],[14.9403,44.1252],[14.9391,44.1271],[14.9102,44.1428],[14.8665,44.1682],[14.8667,44.1678],[14.8661,44.1682],[14.8665,44.1676],[14.8661,44.1678],[14.8671,44.1661],[14.8496,44.1756]]],[[[15.0625,44.1619],[15.0655,44.1573],[15.0646,44.1578],[15.0648,44.1575],[15.0642,44.1578],[15.0645,44.1572],[15.0642,44.1574],[15.075,44.1383],[15.0821,44.1314],[15.0871,44.1237],[15.1218,44.0922],[15.1891,44.0478],[15.2061,44.049],[15.2431,44.0297],[15.2544,44.0179],[15.2471,44.0467],[15.2303,44.0621],[15.2302,44.0623],[15.2298,44.0625],[15.2258,44.0662],[15.0625,44.1619]]],[[[15.2612,44.0111],[15.3027,43.9664],[15.3066,43.9642],[15.309,43.9612],[15.3579,43.9259],[15.3587,43.9194],[15.4071,43.8961],[15.4461,43.8875],[15.4387,43.8988],[15.439,43.8987],[15.4385,43.8992],[15.439,43.8991],[15.4372,43.9011],[15.4188,43.9291],[15.4058,43.9354],[15.3883,43.9545],[15.384,43.9702],[15.3719,43.9724],[15.3706,43.9738],[15.323,43.991],[15.2964,44.0056],[15.2724,44.0093],[15.2698,44.0103],[15.27,44.0101],[15.2694,44.0103],[15.2697,44.0098],[15.2694,44.0099],[15.2695,44.0098],[15.2612,44.0111]]],[[[16.6317,42.9826],[16.659,42.9779],[16.6662,42.9596],[16.6767,42.9501],[16.6384,42.9348],[16.6726,42.9218],[16.6914,42.9282],[16.7191,42.9219],[16.7382,42.9127],[16.8498,42.8953],[16.8502,42.8953],[16.8844,42.9043],[16.8987,42.9058],[16.9729,42.9267],[16.9845,42.9272],[17.0874,42.9144],[17.0878,42.9144],[17.1048,42.9147],[17.1074,42.9143],[17.1145,42.9149],[17.1886,42.9162],[17.1882,42.9166],[17.1886,42.9166],[17.1841,42.9205],[17.2002,42.9218],[17.1318,42.9696],[17.1111,42.9643],[17.0321,42.9826],[16.9917,42.9798],[16.9726,42.9825],[16.9722,42.9825],[16.8356,42.9686],[16.7388,42.9833],[16.7205,42.9901],[16.6861,42.9913],[16.6522,42.9964],[16.6522,42.9963],[16.6518,42.9964],[16.652,42.996],[16.6518,42.996],[16.6532,42.9924],[16.6527,42.9924],[16.6317,42.9826]]],[[[17.3237,42.7908],[17.3738,42.76],[17.3859,42.7709],[17.7489,42.6946],[17.7427,42.701],[17.743,42.7009],[17.7425,42.7012],[17.7428,42.7011],[17.7423,42.7014],[17.7426,42.7013],[17.7423,42.7015],[17.743,42.7013],[17.7417,42.702],[17.7305,42.7134],[17.6699,42.7384],[17.6098,42.769],[17.4334,42.8003],[17.433,42.8003],[17.3898,42.7985],[17.3724,42.7953],[17.3738,42.8026],[17.3237,42.7908]]]]}},
{"type":"Feature","properties":{"entityId":"austria-hungary","from":1908,"to":1918,"certainty":"estimated","source":"유럽 쪽은 Natural Earth 1:10m admin-1(v5.1.2) 현대 행정구역 조각을 그 시기 국경에 맞춰 묶고, 조각이 역사 경계와 다른 곳은 선을 그어 나눈 근사. 유럽 밖(시베리아·중앙아시아·극동)은 대략적인 추정. 운영자 검수 필요"},"geometry":{"type":"MultiPolygon","coordinates":[[[[9.5212,47.2628],[9.5303,47.2537],[9.5342,47.2512],[9.5471,47.243],[9.5431,47.2348],[9.5404,47.2291],[9.5448,47.2203],[9.5543,47.2116],[9.5629,47.1977],[9.5619,47.1906],[9.552,47.1756],[9.5521,47.1669],[9.5671,47.1608],[9.5818,47.1549],[9.6056,47.1323],[9.6095,47.1224],[9.6142,47.1107],[9.6157,47.1068],[9.6088,47.0808],[9.6051,47.0776],[9.5883,47.063],[9.5812,47.0569],[9.6691,47.0562],[9.858,47.0155],[9.8668,47.0019],[9.8624,46.9398],[9.8999,46.9144],[10.0069,46.8908],[10.0681,46.8566],[10.1252,46.8468],[10.2014,46.8668],[10.2351,46.9233],[10.2957,46.9227],[10.2962,46.9414],[10.3389,46.9841],[10.3679,46.9955],[10.3947,46.9854],[10.4156,46.9624],[10.4585,46.9366],[10.4638,46.9197],[10.4538,46.8644],[10.4485,46.8322],[10.4172,46.7989],[10.4287,46.7556],[10.3997,46.7355],[10.3944,46.7008],[10.3692,46.6724],[10.3956,46.6388],[10.4382,46.6357],[10.4591,46.6236],[10.4659,46.5785],[10.4518,46.5467],[10.4939,46.4945],[10.5413,46.4895],[10.6247,46.4545],[10.6387,46.4111],[10.6189,46.3754],[10.5634,46.3674],[10.5279,46.3426],[10.5777,46.3127],[10.5902,46.2334],[10.5673,46.1935],[10.5586,46.118],[10.5152,46.082],[10.4908,46.0269],[10.4686,46.0118],[10.4591,45.985],[10.4956,45.9693],[10.5195,45.9167],[10.5072,45.8775],[10.5229,45.8413],[10.559,45.8244],[10.5562,45.8072],[10.5792,45.7947],[10.621,45.8088],[10.6653,45.8115],[10.6874,45.8453],[10.7286,45.8488],[10.7674,45.8416],[10.8124,45.845],[10.8449,45.8341],[10.8846,45.8169],[10.9002,45.7841],[10.8787,45.7614],[10.8703,45.7221],[10.9027,45.7083],[10.9318,45.6819],[10.9791,45.6918],[11.0067,45.7129],[11.0636,45.7126],[11.1307,45.6996],[11.1849,45.7547],[11.1825,45.7784],[11.2005,45.8109],[11.2581,45.8839],[11.2787,45.919],[11.3147,45.9394],[11.359,45.9229],[11.383,45.9448],[11.3926,45.9811],[11.4406,45.9876],[11.4861,46.0099],[11.541,46.016],[11.5788,46.0062],[11.5993,45.9794],[11.6538,45.9754],[11.6848,45.9843],[11.6845,46.0303],[11.7047,46.0534],[11.699,46.0871],[11.7121,46.1011],[11.7998,46.1057],[11.8965,46.1327],[11.9694,46.1963],[11.9204,46.2228],[11.9274,46.2506],[11.8876,46.2727],[11.8535,46.2737],[11.8499,46.3045],[11.8039,46.3453],[11.8029,46.3662],[11.8504,46.3845],[11.8667,46.4324],[11.8957,46.4548],[11.8808,46.4714],[11.8342,46.4838],[11.8322,46.504],[11.8519,46.5142],[12.022,46.5394],[12.0712,46.6131],[12.0803,46.6499],[12.0991,46.6678],[12.1386,46.6443],[12.1779,46.6348],[12.214,46.5961],[12.2531,46.6109],[12.3024,46.6146],[12.3407,46.6282],[12.3825,46.6181],[12.3992,46.6397],[12.4696,46.6758],[12.4999,46.6721],[12.562,46.6512],[12.6202,46.6565],[12.6714,46.6525],[12.6974,46.6405],[12.7485,46.641],[12.8304,46.6096],[13.0645,46.598],[13.1465,46.585],[13.2311,46.5522],[13.2714,46.5508],[13.3733,46.5658],[13.417,46.5605],[13.478,46.5636],[13.5068,46.5469],[13.5492,46.5458],[13.6703,46.5187],[13.701,46.5197],[13.6899,46.4933],[13.6859,46.464],[13.6775,46.4521],[13.6588,46.4451],[13.6002,46.4426],[13.5757,46.4267],[13.53,46.3883],[13.4837,46.3712],[13.4597,46.359],[13.4341,46.3539],[13.4232,46.3448],[13.3956,46.3067],[13.3653,46.2903],[13.3786,46.2684],[13.3847,46.2433],[13.3981,46.2305],[13.4101,46.208],[13.4374,46.2109],[13.4228,46.2286],[13.4683,46.2234],[13.4823,46.2179],[13.5102,46.214],[13.529,46.2048],[13.559,46.1841],[13.5845,46.1813],[13.6274,46.1817],[13.6411,46.1714],[13.645,46.1617],[13.6164,46.125],[13.5226,46.0753],[13.5051,46.066],[13.4823,46.0448],[13.4903,46.0389],[13.4928,46.0325],[13.4823,46.0184],[13.4618,46.0064],[13.4649,45.9899],[13.4375,45.9665],[13.4079,45.9175],[13.4036,45.8894],[13.4324,45.7788],[13.4324,45.7534],[13.4226,45.7241],[13.3862,45.7324],[13.3862,45.717],[13.341,45.717],[13.341,45.7003],[13.3862,45.692],[13.4011,45.6893],[13.3767,45.6832],[13.4017,45.6754],[13.428,45.6811],[13.432,45.6836],[13.5261,45.6664],[13.6201,45.6492],[13.772,45.6214],[13.7599,45.6135],[13.757,45.6137],[13.7302,45.6131],[13.7118,45.5932],[13.7196,45.5872],[13.6474,45.5418],[13.6109,45.538],[13.5896,45.5358],[13.5686,45.5393],[13.5728,45.53],[13.5786,45.5234],[13.5857,45.5197],[13.5773,45.5171],[13.5479,45.5005],[13.5071,45.5119],[13.5046,45.4839],[13.5208,45.4573],[13.5134,45.4362],[13.5549,45.3611],[13.5413,45.3461],[13.5618,45.3264],[13.5703,45.3253],[13.5766,45.3069],[13.5755,45.3065],[13.5774,45.3046],[13.5915,45.264],[13.5882,45.2596],[13.5942,45.2208],[13.5823,45.1966],[13.5994,45.1713],[13.6006,45.1373],[13.6197,45.1387],[13.6238,45.1232],[13.6126,45.1179],[13.6369,45.0936],[13.6232,45.0731],[13.6813,45.0464],[13.7328,44.9949],[13.7493,44.9825],[13.8073,44.9079],[13.8049,44.8854],[13.8237,44.8868],[13.8339,44.8736],[13.8338,44.8734],[13.7993,44.8646],[13.8491,44.8472],[13.8491,44.8266],[13.897,44.8131],[13.9032,44.7724],[13.918,44.7783],[13.8911,44.8314],[13.9013,44.8292],[13.9017,44.8292],[13.9039,44.8294],[13.9363,44.8199],[13.9517,44.8024],[13.9519,44.8026],[13.9521,44.8024],[13.9597,44.813],[13.9639,44.8118],[14,44.8131],[13.9727,44.8266],[13.9727,44.8314],[14.0288,44.9105],[14.0421,44.9265],[14.0828,44.9839],[14.0689,44.9495],[14.1133,44.9775],[14.1399,44.9713],[14.1637,44.9958],[14.1662,45.0189],[14.1551,45.0678],[14.1745,45.0896],[14.1931,45.1056],[14.1916,45.1088],[14.2077,45.1268],[14.2092,45.1264],[14.2347,45.1546],[14.2477,45.1865],[14.2535,45.2235],[14.2551,45.2297],[14.258,45.2339],[14.5334,45.1666],[14.5213,45.1488],[14.5227,45.1465],[14.4897,45.1279],[14.4671,45.1241],[14.4652,45.1142],[14.4377,45.0987],[14.4379,45.0984],[14.4377,45.0983],[14.4407,45.093],[14.4251,45.0873],[14.4601,45.0524],[14.5105,45.0322],[14.5907,45.0233],[14.5997,45.0268],[14.6141,45.0254],[14.6282,44.9949],[14.6289,44.9782],[14.6824,44.9584],[14.6861,44.956],[14.6864,44.9561],[14.6865,44.956],[14.6882,44.9563],[14.7234,44.9433],[14.7568,44.9487],[14.7487,44.9666],[14.8089,44.9768],[14.815,44.9775],[14.7998,45.0052],[14.7744,45.0218],[14.7405,45.0657],[14.7404,45.0658],[14.7405,45.0731],[14.7283,45.0732],[14.7009,45.09],[14.6669,45.1318],[14.6676,45.1339],[14.8374,45.0924],[14.8553,45.081],[14.8598,45.0713],[14.9022,44.9791],[14.9057,44.9717],[14.8937,44.8869],[14.8838,44.8615],[14.8838,44.7888],[14.8895,44.7626],[14.8923,44.733],[14.8838,44.7236],[14.9014,44.6902],[15.0013,44.5785],[15.0444,44.5553],[15.1305,44.4894],[15.155,44.4667],[15.2938,44.3648],[15.308,44.3544],[15.3562,44.3378],[15.3771,44.3186],[15.3307,44.3014],[15.3086,44.3093],[15.2612,44.3326],[15.3027,44.2991],[15.2883,44.2897],[15.2838,44.2897],[15.2448,44.2772],[15.1981,44.3017],[15.2078,44.2728],[15.2073,44.2724],[15.183,44.2724],[15.1653,44.2679],[15.1576,44.2803],[15.1104,44.2644],[15.1219,44.2564],[15.1218,44.2564],[15.1573,44.2098],[15.1445,44.1955],[15.2127,44.1483],[15.2129,44.131],[15.2783,44.0856],[15.3195,44.0452],[15.3581,44.0257],[15.4661,43.9217],[15.492,43.9158],[15.4998,43.9092],[15.5387,43.8847],[15.5469,43.8766],[15.5741,43.8595],[15.5853,43.8554],[15.6415,43.8201],[15.6174,43.8255],[15.633,43.8105],[15.6821,43.7972],[15.7063,43.7634],[15.7242,43.7625],[15.9201,43.5905],[15.9595,43.5382],[15.9681,43.5403],[15.981,43.5257],[15.9735,43.5031],[16.0128,43.504],[16.0396,43.4908],[16.0924,43.4823],[16.441,43.3687],[16.4286,43.3436],[16.4214,43.3176],[16.4215,43.3176],[16.4214,43.3172],[16.4898,43.2859],[16.4996,43.2847],[16.5007,43.2842],[16.564,43.2701],[16.6283,43.2637],[16.7547,43.2665],[16.9169,43.2136],[16.929,43.2097],[17.0302,43.1468],[16.9169,43.1565],[16.8869,43.1591],[16.8644,43.1689],[16.8484,43.1624],[16.7113,43.1741],[16.6943,43.1793],[16.6745,43.1969],[16.6595,43.216],[16.6038,43.2235],[16.5955,43.2205],[16.5719,43.2232],[16.5628,43.229],[16.5205,43.229],[16.5207,43.2288],[16.3746,43.2134],[16.375,43.2132],[16.3748,43.2132],[16.3751,43.2131],[16.3746,43.213],[16.3973,43.2021],[16.3804,43.202],[16.3716,43.1955],[16.4452,43.1708],[16.5393,43.148],[16.551,43.1436],[16.6806,43.1228],[16.9169,43.1191],[17.0788,43.1165],[17.1231,43.089],[17.1489,43.0729],[17.1747,43.0569],[17.2262,43.0249],[17.2274,43.0241],[17.2258,43.0242],[17.221,43.0259],[17.2094,43.0259],[17.1587,43.031],[17.0733,43.0242],[17.0016,43.0515],[17.0282,43.0242],[17.0275,43.0036],[17.0954,42.9844],[17.1836,42.9843],[17.252,42.9692],[17.2603,42.9667],[17.2807,42.9585],[17.3509,42.9218],[17.3855,42.9163],[17.4284,42.899],[17.442,42.8906],[17.4404,42.8734],[17.4956,42.8572],[17.5086,42.8492],[18.2342,42.5643],[18.2389,42.5591],[18.4119,42.476],[18.4131,42.4619],[18.4745,42.4414],[18.4964,42.4163],[18.5103,42.4053],[18.5197,42.4332],[18.5476,42.4291],[18.5452,42.4236],[18.553,42.4136],[18.5781,42.4004],[18.5706,42.393],[18.5949,42.3837],[18.6167,42.3681],[18.6384,42.3703],[18.6532,42.3663],[18.6535,42.3674],[18.7141,42.3377],[18.7145,42.3253],[18.7295,42.3116],[18.7625,42.2912],[18.7786,42.2715],[18.7887,42.276],[18.8136,42.2891],[18.8256,42.2832],[18.8314,42.2775],[18.8332,42.2795],[18.8946,42.2495],[18.9001,42.2449],[18.9017,42.2375],[18.9133,42.2222],[18.9465,42.2038],[18.9811,42.1637],[18.9919,42.1637],[18.9816,42.1671],[18.9714,42.1833],[19.0009,42.2085],[18.9959,42.2216],[18.9457,42.2653],[18.9286,42.2892],[18.9225,42.3021],[18.9142,42.3201],[18.8846,42.3395],[18.8529,42.3442],[18.8296,42.3518],[18.7971,42.36],[18.7936,42.3542],[18.7791,42.3793],[18.7619,42.4253],[18.7788,42.38],[18.785,42.38],[18.785,42.45],[18.7705,42.45],[18.7721,42.4767],[18.7605,42.5074],[18.698,42.5405],[18.684,42.5765],[18.6663,42.5936],[18.6483,42.6293],[18.6013,42.6244],[18.5428,42.6264],[18.55,42.6681],[18.5397,42.6955],[18.5022,42.7274],[18.4674,42.7692],[18.4437,42.8345],[18.4733,42.8626],[18.434,42.9369],[18.4528,42.9934],[18.483,43.0146],[18.539,43.0239],[18.639,43.0202],[18.6211,43.0964],[18.6211,43.1246],[18.6453,43.1802],[18.6884,43.2245],[18.6643,43.2332],[18.6795,43.2495],[18.8072,43.318],[18.8335,43.3242],[18.8212,43.3414],[18.8991,43.3519],[18.9573,43.3259],[18.9595,43.3035],[18.9895,43.272],[19.0029,43.2739],[19.0225,43.2965],[19.0697,43.3088],[19.0396,43.3507],[19.0099,43.411],[18.9683,43.4481],[18.9463,43.4439],[18.9512,43.4638],[18.9056,43.4906],[18.911,43.5073],[18.9775,43.5462],[19.0002,43.5479],[19.0381,43.511],[19.096,43.5129],[19.1228,43.5359],[19.1953,43.5328],[19.2175,43.5328],[19.2527,43.5886],[19.3009,43.5883],[19.3466,43.6088],[19.3805,43.5856],[19.4107,43.5408],[19.4318,43.5711],[19.4817,43.5608],[19.4756,43.6026],[19.4817,43.6289],[19.5074,43.6472],[19.5057,43.6736],[19.4617,43.7621],[19.3595,43.8422],[19.2754,43.9333],[19.241,43.9524],[19.238,43.9925],[19.2521,44.0075],[19.2873,44.013],[19.3646,43.9733],[19.4471,43.9798],[19.5041,43.9757],[19.5522,43.9834],[19.5934,44.0056],[19.6189,44.0357],[19.5989,44.0626],[19.5802,44.0515],[19.5162,44.0912],[19.4764,44.127],[19.4597,44.1527],[19.4426,44.1432],[19.3624,44.1912],[19.354,44.2243],[19.3243,44.264],[19.2959,44.2758],[19.2637,44.2702],[19.1772,44.287],[19.1389,44.3093],[19.1167,44.3437],[19.1072,44.3827],[19.1414,44.4308],[19.1434,44.4582],[19.1299,44.5183],[19.1796,44.5383],[19.1863,44.5693],[19.2557,44.6456],[19.2776,44.6849],[19.3084,44.7051],[19.3284,44.734],[19.3637,44.8546],[19.3766,44.863],[19.357,44.8959],[19.3249,44.9223],[19.3716,44.9139],[19.4061,44.9416],[19.4739,44.9014],[19.4992,44.9169],[19.5521,44.9005],[19.6003,44.914],[19.6447,44.9127],[19.6735,44.9345],[19.7569,44.9154],[19.7533,44.8921],[19.7006,44.8076],[19.7203,44.7645],[19.7453,44.7522],[19.7966,44.7516],[19.8463,44.7335],[19.914,44.6954],[19.9826,44.6959],[20.0101,44.6889],[19.9308,44.6593],[19.9404,44.6318],[19.9734,44.6412],[20.0455,44.6903],[20.0845,44.7047],[20.1,44.7],[20.2,44.675],[20.3,44.69],[20.33,44.73],[20.38,44.775],[20.42,44.805],[20.45,44.826],[20.5,44.832],[20.55,44.822],[20.6,44.785],[20.65,44.735],[20.72,44.685],[20.7377,44.685],[20.7203,44.6962],[20.7636,44.6684],[20.7948,44.6647],[20.8265,44.6609],[20.8832,44.6727],[20.9896,44.7168],[21.0368,44.722],[21.0779,44.7265],[21.1123,44.7448],[21.1638,44.7478],[21.1888,44.7782],[21.2695,44.8137],[21.3598,44.8267],[21.3959,44.7902],[21.4972,44.778],[21.5584,44.7817],[21.5956,44.766],[21.6197,44.7139],[21.6563,44.6877],[21.7052,44.6771],[21.7568,44.6773],[21.8554,44.6985],[22.0043,44.6515],[22.0342,44.5962],[22.0888,44.6032],[22.1499,44.5977],[22.169,44.609],[22.1727,44.6339],[22.1608,44.6644],[22.1653,44.7022],[22.2057,44.7613],[22.2219,44.8062],[22.2626,44.8083],[22.3112,44.7779],[22.3542,44.7777],[22.3878,44.7537],[22.4212,44.7521],[22.4418,44.7694],[22.467,44.8393],[22.4918,44.8846],[22.5337,44.9342],[22.5666,45.0239],[22.5989,45.0602],[22.6411,45.0924],[22.6346,45.1275],[22.5661,45.1388],[22.5727,45.1708],[22.601,45.1977],[22.6691,45.2405],[22.8814,45.2949],[22.9334,45.2767],[22.9761,45.2748],[23.027,45.2597],[23.0908,45.2794],[23.1895,45.2718],[23.2441,45.2952],[23.3575,45.3215],[23.3984,45.3182],[23.4304,45.3038],[23.5237,45.3379],[23.5858,45.3526],[23.5999,45.3819],[23.5808,45.4323],[23.5842,45.4473],[23.6261,45.4519],[23.6469,45.4505],[23.7097,45.4798],[23.7526,45.4861],[23.794,45.508],[23.9606,45.5122],[24.0683,45.4964],[24.1689,45.537],[24.3218,45.563],[24.5272,45.5618],[24.7091,45.5988],[24.7719,45.6029],[24.8004,45.595],[24.8388,45.5631],[24.8687,45.5739],[24.9839,45.58],[25.0951,45.5696],[25.2208,45.5034],[25.2759,45.4165],[25.3092,45.3885],[25.3703,45.3994],[25.4027,45.4392],[25.4298,45.4523],[25.4588,45.4636],[25.6278,45.4847],[25.6933,45.4794],[25.7502,45.4659],[25.7904,45.4733],[25.8231,45.4455],[25.8627,45.4416],[25.8913,45.4654],[25.9028,45.5006],[25.9458,45.5102],[25.9989,45.4886],[26.046,45.4823],[26.1005,45.5644],[26.1889,45.5745],[26.2075,45.5832],[26.2156,45.6122],[26.2346,45.6256],[26.2847,45.6028],[26.3286,45.6181],[26.3427,45.6553],[26.3667,45.6852],[26.395,45.7498],[26.3804,45.8029],[26.4048,45.9175],[26.4209,45.9505],[26.4848,46.0212],[26.4681,46.0274],[26.4406,46.0748],[26.4021,46.0943],[26.4149,46.128],[26.4001,46.1445],[26.325,46.1794],[26.2932,46.1601],[26.2516,46.1503],[26.259,46.1881],[26.2799,46.2265],[26.2869,46.2762],[26.3002,46.302],[26.2927,46.3197],[26.2471,46.3266],[26.1823,46.3057],[26.1595,46.3125],[26.1682,46.35],[26.1619,46.3731],[26.1326,46.3907],[26.0387,46.4033],[26.0189,46.4268],[26.0325,46.4683],[26.0699,46.4872],[26.0691,46.4986],[26.0289,46.5485],[26.012,46.5936],[26.0088,46.668],[25.9271,46.6819],[25.907,46.6748],[25.915,46.6356],[25.889,46.6348],[25.8409,46.6702],[25.8282,46.6936],[25.8165,46.8592],[25.832,46.8853],[25.8668,46.8837],[25.8658,46.9128],[25.7918,46.9661],[25.7627,47.0125],[25.7371,47.039],[25.6713,47.0579],[25.6721,47.0799],[25.6962,47.123],[25.7408,47.1597],[25.7951,47.1866],[25.8196,47.2069],[25.8194,47.2246],[25.7715,47.2685],[25.7942,47.2779],[25.8785,47.2333],[25.909,47.234],[25.9821,47.2575],[26.0396,47.2454],[26.1104,47.2541],[26.2229,47.2537],[26.2594,47.2599],[26.3531,47.2932],[26.3958,47.2968],[26.4327,47.2888],[26.4823,47.2536],[26.559,47.2656],[26.5727,47.2857],[26.5114,47.3244],[26.5005,47.3409],[26.5212,47.3534],[26.6261,47.3449],[26.6561,47.3529],[26.6734,47.4127],[26.6585,47.4267],[26.6172,47.4307],[26.5676,47.4681],[26.5621,47.5284],[26.5463,47.5806],[26.5267,47.614],[26.4161,47.7065],[26.397,47.7284],[26.2833,47.8263],[26.1416,47.8963],[26.1194,47.9175],[26.1025,47.9783],[26.1731,47.9931],[26.2048,48.0374],[26.2553,48.0723],[26.287,48.1247],[26.3035,48.212],[26.3303,48.2085],[26.3739,48.22],[26.29,48.22],[26.22,48.32],[26.15,48.5],[26.1573,48.5364],[26.1809,48.5267],[26.2567,48.5334],[26.3266,48.5116],[26.3805,48.5171],[26.354,48.5616],[26.3689,48.5761],[26.3067,48.6056],[26.3163,48.6428],[26.285,48.6412],[26.2819,48.6616],[26.2355,48.685],[26.2513,48.7524],[26.2285,48.7792],[26.2642,48.8082],[26.2387,48.8188],[26.2143,48.847],[26.2229,48.8972],[26.1954,48.9],[26.2023,48.935],[26.1891,48.953],[26.1985,48.9845],[26.2212,49.0007],[26.1995,49.0413],[26.2284,49.0669],[26.2109,49.1191],[26.2218,49.148],[26.1992,49.1746],[26.2078,49.2273],[26.2417,49.2412],[26.2563,49.2936],[26.2344,49.3195],[26.2391,49.342],[26.2291,49.397],[26.1985,49.4153],[26.1484,49.5165],[26.1643,49.544],[26.2087,49.5669],[26.2239,49.62],[26.2,49.62],[26,49.75],[25.8,49.85],[25.6,49.92],[25.3898,49.9873],[25.4038,49.9797],[25.3727,49.9965],[25.3676,50.0131],[25.2959,50.0413],[25.2023,50.095],[25.1854,50.128],[25.1929,50.1816],[25.1677,50.22],[25.2075,50.2501],[25.1957,50.288],[25.1529,50.2925],[25.1041,50.2794],[25.0635,50.2948],[25.0638,50.3345],[25.0489,50.3473],[25.0039,50.3457],[24.9319,50.3702],[24.9114,50.3481],[24.8484,50.3549],[24.773,50.3405],[24.7052,50.3496],[24.6882,50.3767],[24.6394,50.3974],[24.6342,50.4134],[24.591,50.417],[24.5526,50.4384],[24.5418,50.4109],[24.5042,50.4106],[24.4988,50.4397],[24.4567,50.4614],[24.4634,50.4788],[24.5132,50.4867],[24.5354,50.5001],[24.5306,50.5241],[24.5008,50.5455],[24.4343,50.549],[24.4054,50.5674],[24.3795,50.6009],[24.3459,50.6089],[24.3214,50.5926],[24.2479,50.5818],[24.2179,50.5892],[24.1647,50.6402],[24.1259,50.6418],[24.1082,50.6303],[24.0853,50.6044],[24.0954,50.5569],[24.1077,50.5408],[24.075,50.5143],[24.0107,50.4928],[24.0032,50.4377],[23.9813,50.4048],[23.9287,50.3908],[23.7475,50.3894],[23.6957,50.3768],[23.6587,50.327],[23.558,50.3647],[23.5255,50.3957],[23.4626,50.4215],[23.3889,50.4267],[23.3055,50.4158],[23.2231,50.3562],[23.1584,50.3227],[23.0828,50.3125],[22.8581,50.3171],[22.7212,50.342],[22.7114,50.3567],[22.7611,50.3679],[22.7343,50.3797],[22.5949,50.3621],[22.5598,50.3725],[22.5339,50.3981],[22.5266,50.4229],[22.5681,50.4646],[22.6305,50.4689],[22.6579,50.479],[22.6227,50.5315],[22.6121,50.5681],[22.4547,50.622],[22.2215,50.6596],[22.203,50.6801],[22.2624,50.7599],[22.1951,50.7917],[22.1568,50.8009],[22.1174,50.7998],[22.0513,50.7704],[21.9764,50.7728],[21.8443,50.8298],[21.8486,50.7792],[21.8405,50.7399],[21.8062,50.6914],[21.745,50.6747],[21.7163,50.6444],[21.6688,50.6085],[21.644,50.558],[21.5949,50.5245],[21.5308,50.514],[21.4352,50.4867],[21.4489,50.4662],[21.4043,50.4439],[21.3601,50.4457],[21.2953,50.4108],[21.284,50.3267],[21.2535,50.2795],[21.2162,50.2382],[21.2142,50.22],[20.7,50.22],[20.6716,50.2103],[20.6335,50.1744],[20.5702,50.1755],[20.35,50.1],[20.15,50.09],[19.98,50.14],[19.82,50.18],[19.65,50.2],[19.48,50.24],[19.32,50.27],[19.17,50.235],[19.19,50.2],[19.22,50.15],[19.23,50.08],[19.2,50.03],[19.08,49.99],[18.95,49.96],[18.85,49.93],[18.77,49.92],[18.62,49.91],[18.48,49.92],[18.3874,49.9262],[18.3688,49.932],[18.3569,49.9282],[18.33,49.93],[18.3277,49.919],[18.2925,49.9078],[18.2559,49.946],[18.2087,49.9583],[18.162,49.9812],[18.0982,49.989],[18.0916,50.0172],[18.0191,50.0441],[18.0069,50.0241],[18.0375,50.0072],[17.9999,49.9966],[17.9416,49.9928],[17.9121,49.9758],[17.8757,49.9687],[17.8394,49.9736],[17.7633,50.0252],[17.743,50.0606],[17.7195,50.0809],[17.732,50.0949],[17.6776,50.1077],[17.6328,50.1063],[17.5842,50.1459],[17.5894,50.1632],[17.6753,50.1747],[17.7382,50.2024],[17.7476,50.2175],[17.7214,50.2427],[17.7345,50.2895],[17.708,50.311],[17.6845,50.3124],[17.6467,50.2711],[17.6064,50.2582],[17.517,50.2684],[17.4694,50.2656],[17.44,50.2427],[17.4191,50.2427],[17.388,50.2726],[17.355,50.2533],[17.3348,50.27],[17.3341,50.2957],[17.3168,50.3186],[17.2461,50.3221],[17.201,50.3432],[17.1876,50.3785],[17.1189,50.3812],[17.0847,50.398],[16.944,50.4203],[16.893,50.4329],[16.8659,50.4084],[16.8979,50.3782],[16.9265,50.3193],[16.9878,50.2849],[17.0084,50.21],[16.9603,50.232],[16.9553,50.2135],[16.919,50.2171],[16.8698,50.1897],[16.8177,50.1868],[16.7953,50.1744],[16.7543,50.1323],[16.7012,50.0949],[16.6606,50.093],[16.5842,50.1274],[16.5573,50.1547],[16.535,50.2077],[16.5048,50.228],[16.4378,50.298],[16.371,50.3184],[16.3532,50.3335],[16.3508,50.3606],[16.3342,50.3719],[16.2625,50.3644],[16.232,50.4026],[16.1996,50.4063],[16.1902,50.4242],[16.2112,50.4513],[16.28,50.4799],[16.3034,50.496],[16.3526,50.4928],[16.3912,50.5218],[16.3945,50.5593],[16.4259,50.5676],[16.4168,50.5866],[16.3316,50.644],[16.2683,50.6604],[16.2191,50.6591],[16.2045,50.6363],[16.1755,50.6241],[16.1287,50.644],[16.0865,50.6468],[16.0245,50.6086],[15.982,50.6036],[15.9964,50.6237],[15.9932,50.6494],[15.9715,50.6786],[15.9415,50.6884],[15.8823,50.6742],[15.8482,50.6752],[15.7976,50.7298],[15.7674,50.7442],[15.6843,50.7314],[15.6419,50.7558],[15.5221,50.7824],[15.4418,50.8002],[15.4001,50.798],[15.3703,50.7726],[15.3497,50.7837],[15.353,50.813],[15.341,50.8317],[15.2878,50.8549],[15.2531,50.9141],[15.2698,50.9527],[15.2271,50.9774],[15.1702,50.978],[15.1561,51.0078],[15.1315,51.0058],[15.1079,50.981],[15.0736,51.0026],[14.9965,51.0078],[14.961,50.9927],[14.9966,50.9592],[14.9849,50.9181],[14.9821,50.8591],[14.8679,50.8644],[14.8104,50.8584],[14.7754,50.813],[14.7004,50.816],[14.6083,50.8531],[14.6346,50.9094],[14.6171,50.9209],[14.5618,50.9064],[14.5504,50.9121],[14.5756,50.9507],[14.5743,50.9755],[14.5423,50.9987],[14.4935,51.0167],[14.4821,51.0372],[14.4621,51.0197],[14.3978,51.0131],[14.3566,51.0323],[14.2875,51.0368],[14.2636,51.0214],[14.2383,50.9825],[14.3038,50.9697],[14.2928,50.9535],[14.3183,50.9375],[14.3819,50.9209],[14.3759,50.896],[14.3465,50.8802],[14.2681,50.8841],[14.2321,50.8794],[14.1908,50.8479],[14.0349,50.8026],[13.9596,50.8021],[13.9233,50.78],[13.8925,50.7804],[13.8822,50.7427],[13.8345,50.7237],[13.7491,50.7232],[13.6918,50.7118],[13.6019,50.7122],[13.5566,50.7067],[13.5156,50.691],[13.5233,50.6622],[13.4933,50.6432],[13.4982,50.6292],[13.4479,50.5973],[13.407,50.6013],[13.381,50.6255],[13.3219,50.6024],[13.3056,50.5758],[13.2846,50.569],[13.2323,50.582],[13.1991,50.5253],[13.1601,50.497],[13.1074,50.499],[13.0698,50.4911],[13.0096,50.4927],[12.9966,50.4337],[12.9606,50.4092],[12.9184,50.4054],[12.8258,50.4414],[12.7542,50.4353],[12.6788,50.3937],[12.6254,50.3999],[12.5505,50.3964],[12.5102,50.3888],[12.4751,50.3694],[12.469,50.3456],[12.3982,50.3152],[12.3672,50.2791],[12.3365,50.2586],[12.3056,50.1993],[12.3144,50.1673],[12.2834,50.1622],[12.2585,50.2109],[12.2325,50.2325],[12.243,50.253],[12.178,50.2688],[12.1685,50.303],[12.1013,50.314],[12.0761,50.3152],[12.1073,50.2909],[12.1091,50.2638],[12.0796,50.2427],[12.1393,50.211],[12.1827,50.1707],[12.1792,50.118],[12.1879,50.1028],[12.2325,50.0805],[12.2469,50.045],[12.4682,49.9702],[12.4627,49.9313],[12.5241,49.905],[12.5129,49.8702],[12.4825,49.8272],[12.4625,49.8312],[12.4527,49.7797],[12.3954,49.7579],[12.3836,49.7429],[12.4196,49.7002],[12.4964,49.67],[12.502,49.6197],[12.5536,49.5847],[12.5623,49.5508],[12.5937,49.515],[12.623,49.5098],[12.6272,49.4602],[12.6435,49.4295],[12.7293,49.3911],[12.7621,49.3432],[12.7978,49.3278],[12.8754,49.3239],[12.8847,49.3396],[12.9229,49.3327],[12.9998,49.2949],[13.0113,49.2678],[13.0558,49.2382],[13.1495,49.1548],[13.1785,49.1183],[13.2068,49.1075],[13.2673,49.1056],[13.2995,49.0936],[13.3724,49.0385],[13.3842,48.993],[13.4273,48.96],[13.4823,48.9376],[13.5021,48.9661],[13.5224,48.9693],[13.5905,48.9448],[13.6087,48.9462],[13.6218,48.9091],[13.6544,48.8822],[13.7247,48.8673],[13.7962,48.7798],[13.8157,48.7664],[13.7859,48.7248],[13.8169,48.6956],[13.8009,48.6752],[13.8024,48.6117],[13.766,48.5638],[13.7339,48.5598],[13.7165,48.5217],[13.6734,48.5355],[13.6244,48.5654],[13.5207,48.5846],[13.4546,48.5734],[13.4401,48.561],[13.4564,48.5067],[13.4364,48.4692],[13.4382,48.441],[13.4056,48.3766],[13.3078,48.3196],[13.2742,48.3071],[13.1364,48.2911],[13.0328,48.2636],[12.933,48.2093],[12.8776,48.202],[12.8221,48.1607],[12.745,48.1206],[12.737,48.1],[12.7602,48.0649],[12.8306,48.0155],[12.8482,47.9824],[12.862,47.9626],[12.9311,47.9249],[12.965,47.872],[12.9912,47.8471],[12.9267,47.7774],[12.9172,47.7502],[12.892,47.7235],[12.9083,47.7124],[12.964,47.7054],[13.0044,47.7146],[13.0446,47.6966],[13.0748,47.6467],[13.072,47.6224],[13.0383,47.584],[13.0281,47.5416],[13.0373,47.493],[13.0019,47.466],[12.9697,47.4757],[12.9425,47.4705],[12.8826,47.4986],[12.8284,47.5373],[12.7789,47.5548],[12.7737,47.5795],[12.7859,47.6027],[12.8132,47.6118],[12.7517,47.6494],[12.762,47.6669],[12.6531,47.6751],[12.5984,47.6629],[12.5634,47.6418],[12.4966,47.6289],[12.4528,47.6498],[12.4241,47.6916],[12.3515,47.6817],[12.2937,47.69],[12.2387,47.6789],[12.2233,47.6959],[12.2422,47.732],[12.1766,47.7058],[12.2023,47.6778],[12.2021,47.6298],[12.1656,47.604],[11.9359,47.6107],[11.852,47.5992],[11.8203,47.5753],[11.764,47.5831],[11.6826,47.5834],[11.6205,47.5897],[11.5891,47.5704],[11.5694,47.5274],[11.5512,47.5137],[11.4826,47.5026],[11.4126,47.5061],[11.3655,47.4693],[11.3886,47.4622],[11.3839,47.4449],[11.3056,47.4354],[11.2588,47.4007],[11.213,47.3958],[11.2152,47.423],[11.1686,47.4243],[11.0837,47.3895],[10.9795,47.3905],[10.9553,47.4096],[10.9598,47.4325],[10.9099,47.469],[10.8516,47.4931],[10.8922,47.5149],[10.8586,47.5307],[10.7903,47.5161],[10.7522,47.5154],[10.7399,47.5285],[10.6079,47.5623],[10.5837,47.5625],[10.5251,47.5285],[10.4825,47.5329],[10.4535,47.5462],[10.4536,47.5811],[10.4142,47.573],[10.431,47.5422],[10.4196,47.493],[10.4422,47.4814],[10.452,47.4388],[10.4116,47.381],[10.3657,47.3611],[10.3434,47.3308],[10.3059,47.3022],[10.2394,47.2777],[10.175,47.2724],[10.1554,47.2729],[10.1859,47.295],[10.2086,47.3545],[10.1909,47.3792],[10.1257,47.3627],[10.0732,47.3655],[10.0532,47.4049],[10.0806,47.4274],[10.0226,47.488],[9.9936,47.4766],[9.9487,47.5242],[9.9459,47.5408],[9.9188,47.5322],[9.8131,47.5418],[9.808,47.5763],[9.7821,47.5884],[9.7527,47.5821],[9.704,47.5314],[9.6767,47.5226],[9.6126,47.5219],[9.5541,47.5327],[9.5475,47.5345],[9.5531,47.5169],[9.5845,47.4807],[9.6503,47.4521],[9.6495,47.4097],[9.601,47.3613],[9.5874,47.3278],[9.5212,47.2628]],[[19.8269,49.1865],[19.8325,49.1861],[19.8683,49.2008],[19.832,49.1859],[19.8269,49.1865]]],[[[14.2777,45.128],[14.2874,45.1011],[14.3161,45.0766],[14.3405,45.0202],[14.3405,44.9807],[14.303,44.9428],[14.3015,44.9434],[14.3009,44.9407],[14.3009,44.9406],[14.2942,44.9086],[14.3141,44.8938],[14.3298,44.8339],[14.3544,44.8201],[14.3648,44.8004],[14.3745,44.7539],[14.3894,44.7524],[14.3961,44.734],[14.3945,44.7076],[14.4279,44.6566],[14.473,44.6203],[14.5204,44.6215],[14.5139,44.6622],[14.4778,44.7019],[14.4724,44.7135],[14.4739,44.7545],[14.4615,44.7795],[14.4593,44.8018],[14.4666,44.8048],[14.4555,44.8396],[14.4525,44.8694],[14.4626,44.9401],[14.471,44.9539],[14.4661,44.9837],[14.4467,44.9873],[14.3949,45.031],[14.3697,45.0814],[14.3636,45.1302],[14.3641,45.1576],[14.3593,45.1646],[14.3589,45.1682],[14.3585,45.1682],[14.3571,45.168],[14.3562,45.1693],[14.3137,45.1724],[14.295,45.1494],[14.2865,45.1456],[14.2866,45.1453],[14.2865,45.1452],[14.2883,45.1411],[14.2777,45.128]]],[[[14.6579,44.7988],[14.6649,44.7931],[14.6789,44.7702],[14.6977,44.7667],[14.6995,44.7652],[14.7061,44.7651],[14.7617,44.7546],[14.806,44.7357],[14.8496,44.7032],[14.8502,44.7169],[14.8553,44.7147],[14.8552,44.7149],[14.8557,44.7147],[14.8554,44.7152],[14.8557,44.7151],[14.8506,44.7239],[14.8512,44.7373],[14.8224,44.7714],[14.8112,44.7771],[14.7657,44.821],[14.7549,44.8453],[14.7464,44.8457],[14.739,44.8534],[14.7325,44.8465],[14.6901,44.8487],[14.6897,44.8487],[14.6883,44.8468],[14.6858,44.8472],[14.6873,44.8454],[14.6717,44.8244],[14.6609,44.8001],[14.661,44.7999],[14.6609,44.7997],[14.6618,44.7983],[14.6579,44.7988]]],[[[14.7401,44.6973],[14.7513,44.6801],[14.7615,44.6586],[14.8093,44.6177],[14.8841,44.5445],[14.9072,44.4972],[14.8975,44.4909],[14.9158,44.4837],[14.9957,44.4334],[15.039,44.3935],[15.0966,44.3588],[15.1071,44.3506],[15.1104,44.3463],[15.0967,44.34],[15.1288,44.312],[15.1724,44.2991],[15.1309,44.3264],[15.1368,44.3275],[15.1614,44.3084],[15.1616,44.3086],[15.1618,44.3084],[15.1761,44.3242],[15.1989,44.317],[15.2271,44.3264],[15.2061,44.3441],[15.2122,44.3466],[15.2137,44.3468],[15.2351,44.3362],[15.2544,44.34],[15.2394,44.3499],[15.241,44.3501],[15.2407,44.3503],[15.2408,44.3503],[15.2406,44.3504],[15.241,44.3505],[15.1434,44.4164],[15.1005,44.4489],[15.0514,44.4938],[15.0755,44.4841],[15.0412,44.5275],[15.0051,44.5358],[15.0018,44.5382],[14.9663,44.5734],[14.9041,44.61],[14.9004,44.6099],[14.8989,44.6109],[14.8557,44.6179],[14.8053,44.6491],[14.7846,44.6646],[14.78,44.6695],[14.7412,44.7016],[14.7444,44.6947],[14.7405,44.6977],[14.7409,44.6971],[14.7401,44.6977],[14.7406,44.6969],[14.7401,44.6973]]],[[[14.8496,44.1756],[14.8701,44.1408],[14.9044,44.1145],[15.0421,43.9914],[15.0428,43.9904],[15.1066,43.9254],[15.1365,43.903],[15.1386,43.9079],[15.1508,43.9108],[15.1844,43.9016],[15.1955,43.8952],[15.1985,43.8977],[15.201,43.897],[15.201,43.8971],[15.2014,43.897],[15.2029,43.9013],[15.2168,43.9128],[15.1764,43.9334],[15.0266,44.0571],[15.0227,44.0722],[14.9906,44.0868],[14.9529,44.1179],[14.9403,44.1252],[14.9391,44.1271],[14.9102,44.1428],[14.8665,44.1682],[14.8667,44.1678],[14.8661,44.1682],[14.8665,44.1676],[14.8661,44.1678],[14.8671,44.1661],[14.8496,44.1756]]],[[[15.0625,44.1619],[15.0655,44.1573],[15.0646,44.1578],[15.0648,44.1575],[15.0642,44.1578],[15.0645,44.1572],[15.0642,44.1574],[15.075,44.1383],[15.0821,44.1314],[15.0871,44.1237],[15.1218,44.0922],[15.1891,44.0478],[15.2061,44.049],[15.2431,44.0297],[15.2544,44.0179],[15.2471,44.0467],[15.2303,44.0621],[15.2302,44.0623],[15.2298,44.0625],[15.2258,44.0662],[15.0625,44.1619]]],[[[15.2612,44.0111],[15.3027,43.9664],[15.3066,43.9642],[15.309,43.9612],[15.3579,43.9259],[15.3587,43.9194],[15.4071,43.8961],[15.4461,43.8875],[15.4387,43.8988],[15.439,43.8987],[15.4385,43.8992],[15.439,43.8991],[15.4372,43.9011],[15.4188,43.9291],[15.4058,43.9354],[15.3883,43.9545],[15.384,43.9702],[15.3719,43.9724],[15.3706,43.9738],[15.323,43.991],[15.2964,44.0056],[15.2724,44.0093],[15.2698,44.0103],[15.27,44.0101],[15.2694,44.0103],[15.2697,44.0098],[15.2694,44.0099],[15.2695,44.0098],[15.2612,44.0111]]],[[[16.6317,42.9826],[16.659,42.9779],[16.6662,42.9596],[16.6767,42.9501],[16.6384,42.9348],[16.6726,42.9218],[16.6914,42.9282],[16.7191,42.9219],[16.7382,42.9127],[16.8498,42.8953],[16.8502,42.8953],[16.8844,42.9043],[16.8987,42.9058],[16.9729,42.9267],[16.9845,42.9272],[17.0874,42.9144],[17.0878,42.9144],[17.1048,42.9147],[17.1074,42.9143],[17.1145,42.9149],[17.1886,42.9162],[17.1882,42.9166],[17.1886,42.9166],[17.1841,42.9205],[17.2002,42.9218],[17.1318,42.9696],[17.1111,42.9643],[17.0321,42.9826],[16.9917,42.9798],[16.9726,42.9825],[16.9722,42.9825],[16.8356,42.9686],[16.7388,42.9833],[16.7205,42.9901],[16.6861,42.9913],[16.6522,42.9964],[16.6522,42.9963],[16.6518,42.9964],[16.652,42.996],[16.6518,42.996],[16.6532,42.9924],[16.6527,42.9924],[16.6317,42.9826]]],[[[17.3237,42.7908],[17.3738,42.76],[17.3859,42.7709],[17.7489,42.6946],[17.7427,42.701],[17.743,42.7009],[17.7425,42.7012],[17.7428,42.7011],[17.7423,42.7014],[17.7426,42.7013],[17.7423,42.7015],[17.743,42.7013],[17.7417,42.702],[17.7305,42.7134],[17.6699,42.7384],[17.6098,42.769],[17.4334,42.8003],[17.433,42.8003],[17.3898,42.7985],[17.3724,42.7953],[17.3738,42.8026],[17.3237,42.7908]]]]}}
]}
