{"type":"FeatureCollection","features":[
{"type":"Feature","properties":{"entityId":"bavaria-duchy","from":555,"to":772,"certainty":"estimated","source":"유럽 쪽은 Natural Earth 1:10m admin-1(v5.1.2) 현대 행정구역 조각을 그 시기 국경에 맞춰 묶고, 조각이 역사 경계와 다른 곳은 선을 그어 나눈 근사. 유럽 밖(시베리아·중앙아시아·극동)은 대략적인 추정. 운영자 검수 필요"},"geometry":{"type":"Polygon","coordinates":[[[10.0834,46.908],[10.1252,46.8468],[10.2014,46.8668],[10.2351,46.9233],[10.2957,46.9227],[10.2962,46.9414],[10.3389,46.9841],[10.3679,46.9955],[10.3947,46.9854],[10.4156,46.9624],[10.4585,46.9366],[10.4638,46.9197],[10.4538,46.8644],[10.4485,46.8322],[10.4172,46.7989],[10.4287,46.7556],[10.3997,46.7355],[10.3944,46.7008],[10.3692,46.6724],[10.3956,46.6388],[10.4382,46.6357],[10.4591,46.6236],[10.4659,46.5785],[10.4518,46.5467],[10.4939,46.4945],[10.5413,46.4895],[10.6247,46.4545],[10.6575,46.4495],[10.7452,46.4849],[10.7762,46.4754],[10.7975,46.4469],[10.8399,46.4307],[10.9974,46.4792],[11.0511,46.446],[11.0643,46.458],[11.0553,46.5156],[11.0859,46.5236],[11.1176,46.4938],[11.1454,46.4872],[11.1927,46.5056],[11.2145,46.4693],[11.2018,46.3392],[11.1562,46.284],[11.1615,46.2495],[11.191,46.2271],[11.242,46.2312],[11.2871,46.2591],[11.3282,46.2935],[11.3707,46.269],[11.3876,46.2811],[11.4085,46.3245],[11.4549,46.3348],[11.4766,46.3596],[11.5378,46.3537],[11.5774,46.3681],[11.5953,46.3862],[11.6412,46.4727],[11.6841,46.5077],[11.7158,46.5138],[11.7784,46.5101],[11.8118,46.5303],[11.8322,46.504],[11.8519,46.5142],[12.022,46.5394],[12.0712,46.6131],[12.0803,46.6499],[12.0991,46.6678],[12.1386,46.6443],[12.1779,46.6348],[12.214,46.5961],[12.2531,46.6109],[12.3024,46.6146],[12.3407,46.6282],[12.3825,46.6181],[12.3992,46.6397],[12.4696,46.6758],[12.4999,46.6721],[12.562,46.6512],[12.6202,46.6565],[12.6714,46.6525],[12.7091,46.7052],[12.7243,46.7489],[12.7456,46.7562],[12.8973,46.7759],[12.933,46.7575],[12.9453,46.7752],[12.8852,46.8325],[12.8288,46.876],[12.8069,46.9294],[12.7641,46.9567],[12.735,47.0042],[12.7515,47.0397],[12.7443,47.058],[12.6581,47.0776],[12.6338,47.112],[12.665,47.1365],[12.7724,47.0993],[12.9144,47.076],[12.9942,47.0408],[13.0595,47.0288],[13.1735,47.0375],[13.2261,47.0549],[13.2743,47.0838],[13.3082,47.0872],[13.4397,47.0625],[13.5618,47.0466],[13.6062,47.0442],[13.6672,47.0261],[13.7531,46.9806],[13.7823,46.9542],[13.8206,46.9878],[13.8637,47.0423],[13.8802,47.0727],[13.8799,47.1054],[13.9372,47.1506],[13.9317,47.1694],[13.9018,47.1839],[13.8608,47.222],[13.8482,47.2504],[13.7967,47.3021],[13.6941,47.2745],[13.6307,47.3056],[13.6045,47.3425],[13.5748,47.4099],[13.5652,47.4454],[13.5818,47.4864],[13.6744,47.4742],[13.7243,47.498],[13.7354,47.5163],[13.7303,47.546],[13.6814,47.5976],[13.6872,47.664],[13.7165,47.6845],[13.8233,47.7205],[13.9527,47.6945],[13.9967,47.6986],[14.0421,47.6624],[14.0597,47.626],[14.0861,47.6361],[14.195,47.6577],[14.2514,47.6312],[14.2934,47.6205],[14.3473,47.6257],[14.4172,47.6588],[14.477,47.6783],[14.4916,47.6954],[14.6356,47.7343],[14.6993,47.7689],[14.7162,47.7935],[14.7189,47.8289],[14.7507,47.9019],[14.6905,47.9372],[14.6066,47.9612],[14.4454,48.043],[14.4272,48.0574],[14.4454,48.0685],[14.4799,48.1179],[14.4694,48.1558],[14.4849,48.2184],[14.52,48.2448],[14.5823,48.2402],[14.6376,48.1971],[14.6755,48.1825],[14.8187,48.2056],[14.862,48.237],[14.9296,48.244],[14.968,48.2252],[14.9754,48.3336],[14.9638,48.3831],[14.94,48.4018],[14.9344,48.434],[14.9098,48.44],[14.8823,48.4712],[14.8871,48.5005],[14.9136,48.4999],[14.9064,48.5271],[14.8393,48.542],[14.7745,48.5625],[14.7116,48.572],[14.6911,48.5865],[14.6592,48.577],[14.6347,48.6023],[14.6019,48.6045],[14.5788,48.6205],[14.522,48.6106],[14.4821,48.6245],[14.4582,48.6432],[14.4436,48.6365],[14.4054,48.5863],[14.3157,48.5579],[14.2165,48.5812],[14.0748,48.5917],[14.0408,48.6012],[14.0062,48.6395],[14.0329,48.6549],[13.9823,48.7065],[13.915,48.731],[13.8559,48.7593],[13.8157,48.7664],[13.7962,48.7798],[13.7247,48.8673],[13.6544,48.8822],[13.6218,48.9091],[13.6087,48.9462],[13.5905,48.9448],[13.5224,48.9693],[13.5021,48.9661],[13.4823,48.9376],[13.4273,48.96],[13.3842,48.993],[13.3724,49.0385],[13.2995,49.0936],[13.2673,49.1056],[13.2068,49.1075],[13.1785,49.1183],[13.1495,49.1548],[13.0558,49.2382],[13.0113,49.2678],[12.9998,49.2949],[12.9229,49.3327],[12.8847,49.3396],[12.8754,49.3239],[12.7978,49.3278],[12.7621,49.3432],[12.7293,49.3911],[12.6435,49.4295],[12.6272,49.4602],[12.623,49.5098],[12.5937,49.515],[12.5623,49.5508],[12.5536,49.5847],[12.502,49.6197],[12.4964,49.67],[12.4196,49.7002],[12.3836,49.7429],[12.3954,49.7579],[12.4527,49.7797],[12.4625,49.8312],[12.4825,49.8272],[12.5129,49.8702],[12.5241,49.905],[12.4627,49.9313],[12.4682,49.9702],[12.3,50.0271],[12.3,49.75],[11.55,49.75],[11.55,49.05],[10.92,49.05],[10.92,47.4616],[10.9598,47.4325],[10.9099,47.469],[10.8516,47.4931],[10.8922,47.5149],[10.8586,47.5307],[10.7903,47.5161],[10.7522,47.5154],[10.7399,47.5285],[10.6079,47.5623],[10.5837,47.5625],[10.5251,47.5285],[10.4825,47.5329],[10.4535,47.5462],[10.4536,47.5811],[10.4142,47.573],[10.431,47.5422],[10.4196,47.493],[10.4422,47.4814],[10.452,47.4388],[10.4116,47.381],[10.3657,47.3611],[10.3434,47.3308],[10.3059,47.3022],[10.2394,47.2777],[10.175,47.2724],[10.2034,47.1987],[10.2021,47.161],[10.1382,47.0773],[10.1247,47.0218],[10.1294,46.985],[10.1204,46.9552],[10.0844,46.9263],[10.0834,46.908]]]}},
{"type":"Feature","properties":{"entityId":"bavaria-duchy","from":772,"to":788,"certainty":"estimated","source":"유럽 쪽은 Natural Earth 1:10m admin-1(v5.1.2) 현대 행정구역 조각을 그 시기 국경에 맞춰 묶고, 조각이 역사 경계와 다른 곳은 선을 그어 나눈 근사. 유럽 밖(시베리아·중앙아시아·극동)은 대략적인 추정. 운영자 검수 필요"},"geometry":{"type":"Polygon","coordinates":[[[10.0834,46.908],[10.1252,46.8468],[10.2014,46.8668],[10.2351,46.9233],[10.2957,46.9227],[10.2962,46.9414],[10.3389,46.9841],[10.3679,46.9955],[10.3947,46.9854],[10.4156,46.9624],[10.4585,46.9366],[10.4638,46.9197],[10.4538,46.8644],[10.4485,46.8322],[10.4172,46.7989],[10.4287,46.7556],[10.3997,46.7355],[10.3944,46.7008],[10.3692,46.6724],[10.3956,46.6388],[10.4382,46.6357],[10.4591,46.6236],[10.4659,46.5785],[10.4518,46.5467],[10.4939,46.4945],[10.5413,46.4895],[10.6247,46.4545],[10.6575,46.4495],[10.7452,46.4849],[10.7762,46.4754],[10.7975,46.4469],[10.8399,46.4307],[10.9974,46.4792],[11.0511,46.446],[11.0643,46.458],[11.0553,46.5156],[11.0859,46.5236],[11.1176,46.4938],[11.1454,46.4872],[11.1927,46.5056],[11.2145,46.4693],[11.2018,46.3392],[11.1562,46.284],[11.1615,46.2495],[11.191,46.2271],[11.242,46.2312],[11.2871,46.2591],[11.3282,46.2935],[11.3707,46.269],[11.3876,46.2811],[11.4085,46.3245],[11.4549,46.3348],[11.4766,46.3596],[11.5378,46.3537],[11.5774,46.3681],[11.5953,46.3862],[11.6412,46.4727],[11.6841,46.5077],[11.7158,46.5138],[11.7784,46.5101],[11.8118,46.5303],[11.8322,46.504],[11.8519,46.5142],[12.022,46.5394],[12.0712,46.6131],[12.0803,46.6499],[12.0991,46.6678],[12.1386,46.6443],[12.1779,46.6348],[12.214,46.5961],[12.2531,46.6109],[12.3024,46.6146],[12.3407,46.6282],[12.3825,46.6181],[12.3992,46.6397],[12.4696,46.6758],[12.4999,46.6721],[12.562,46.6512],[12.6202,46.6565],[12.6714,46.6525],[12.6974,46.6405],[12.7485,46.641],[12.8304,46.6096],[13.0645,46.598],[13.1465,46.585],[13.2311,46.5522],[13.2714,46.5508],[13.3733,46.5658],[13.417,46.5605],[13.478,46.5636],[13.5068,46.5469],[13.5492,46.5458],[13.6703,46.5187],[13.701,46.5197],[13.6899,46.4933],[13.6859,46.464],[13.6775,46.4521],[13.6588,46.4451],[13.6002,46.4426],[13.5757,46.4267],[13.53,46.3883],[13.4837,46.3712],[13.4597,46.359],[13.4341,46.3539],[13.4232,46.3448],[13.3956,46.3067],[13.3653,46.2903],[13.3786,46.2684],[13.3847,46.2433],[13.3981,46.2305],[13.4101,46.208],[13.4374,46.2109],[13.4228,46.2286],[13.4683,46.2234],[13.4823,46.2179],[13.5102,46.214],[13.529,46.2048],[13.559,46.1841],[13.5845,46.1813],[13.6274,46.1817],[13.6411,46.1714],[13.645,46.1617],[13.6164,46.125],[13.5226,46.0753],[13.5051,46.066],[13.4823,46.0448],[13.4903,46.0389],[13.4928,46.0325],[13.4823,46.0184],[13.4618,46.0064],[13.5094,45.9674],[13.5394,45.969],[13.5717,45.9798],[13.6007,45.9846],[13.6228,45.9664],[13.6153,45.9459],[13.6082,45.9266],[13.5993,45.9123],[13.5693,45.8645],[13.566,45.8303],[13.5742,45.819],[13.5813,45.8092],[13.5885,45.8065],[13.6092,45.7986],[13.6436,45.7957],[13.6603,45.792],[13.6999,45.7705],[13.7095,45.7653],[13.7787,45.7434],[13.8584,45.6494],[13.8692,45.6411],[13.8936,45.6338],[13.887,45.6188],[13.8679,45.6022],[13.88,45.5725],[13.8946,45.5598],[13.9104,45.552],[13.9522,45.546],[13.9838,45.5195],[13.9875,45.5119],[14.014,45.508],[14.0667,45.4803],[14.0929,45.4739],[14.1167,45.473],[14.1173,45.473],[14.1455,45.4762],[14.2187,45.4972],[14.2804,45.4811],[14.3268,45.4749],[14.3728,45.4778],[14.4112,45.4932],[14.4689,45.5256],[14.4821,45.5424],[14.4915,45.5792],[14.4986,45.5962],[14.5436,45.6364],[14.5561,45.6567],[14.5691,45.6643],[14.5809,45.6678],[14.5919,45.6634],[14.5941,45.648],[14.5939,45.6162],[14.6031,45.6036],[14.616,45.5941],[14.6503,45.5748],[14.6637,45.5702],[14.6717,45.5568],[14.6685,45.534],[14.6883,45.522],[14.7815,45.4931],[14.7972,45.4652],[14.8388,45.459],[14.8816,45.4698],[14.9008,45.4931],[14.9044,45.5144],[14.9226,45.5149],[14.9454,45.5045],[14.9626,45.4931],[14.9773,45.4917],[15.0074,45.4808],[15.0562,45.4799],[15.0661,45.4739],[15.1393,45.43],[15.1842,45.4256],[15.2258,45.4365],[15.2816,45.451],[15.314,45.4505],[15.3339,45.4585],[15.3614,45.482],[15.311,45.5059],[15.2967,45.523],[15.2822,45.5715],[15.2696,45.5934],[15.2686,45.6017],[15.2879,45.6103],[15.2974,45.6257],[15.3267,45.6323],[15.3531,45.6403],[15.3738,45.6402],[15.3683,45.649],[15.35,45.6696],[15.3308,45.6846],[15.315,45.6809],[15.3049,45.6721],[15.2919,45.6756],[15.2778,45.685],[15.2678,45.6985],[15.2582,45.7051],[15.2509,45.7077],[15.2499,45.7137],[15.2635,45.7304],[15.3038,45.7461],[15.331,45.7525],[15.4298,45.7757],[15.4411,45.7822],[15.4356,45.8021],[15.4513,45.8151],[15.4854,45.8102],[15.5235,45.8268],[15.5497,45.8237],[15.5873,45.8192],[15.6261,45.8202],[15.6661,45.8317],[15.6761,45.8417],[15.6755,45.856],[15.6594,45.8888],[15.6756,45.9252],[15.6754,45.9725],[15.6742,45.9932],[15.682,46.0135],[15.698,46.0362],[15.6929,46.0416],[15.6839,46.0511],[15.6717,46.0574],[15.6437,46.0655],[15.6315,46.0706],[15.6236,46.0764],[15.6235,46.0764],[15.6038,46.091],[15.5899,46.1135],[15.59,46.1387],[15.6043,46.167],[15.6229,46.1917],[15.6266,46.1952],[15.6398,46.2077],[15.6613,46.2153],[15.678,46.2145],[15.7498,46.2108],[15.7689,46.2194],[15.7891,46.2431],[15.7995,46.2486],[15.8031,46.2505],[15.8183,46.2555],[15.8342,46.2584],[15.8793,46.2593],[15.8809,46.2593],[15.8837,46.2594],[15.9189,46.2728],[15.9487,46.2842],[15.9937,46.2906],[16.0192,46.2988],[16.0389,46.3084],[16.0499,46.3167],[16.0524,46.3186],[16.0596,46.3323],[16.0597,46.3453],[16.0574,46.3597],[16.058,46.3775],[16.0887,46.3731],[16.106,46.3737],[16.1316,46.3931],[16.1536,46.3914],[16.1775,46.3756],[16.1918,46.3698],[16.2171,46.3674],[16.2528,46.3734],[16.2756,46.3732],[16.2799,46.3787],[16.2741,46.3921],[16.257,46.3999],[16.2482,46.4133],[16.2494,46.4375],[16.2375,46.4651],[16.2342,46.4849],[16.2349,46.4933],[16.2609,46.5136],[16.2639,46.5159],[16.2954,46.5244],[16.3015,46.5271],[16.3107,46.531],[16.33,46.5355],[16.3403,46.5438],[16.3441,46.547],[16.3517,46.5395],[16.3579,46.547],[16.3695,46.5406],[16.4063,46.5395],[16.4152,46.5356],[16.432,46.5232],[16.4404,46.519],[16.4708,46.5203],[16.4911,46.5151],[16.5153,46.5017],[16.5008,46.5448],[16.4671,46.5647],[16.4302,46.6044],[16.3946,46.619],[16.3764,46.6291],[16.3722,46.6363],[16.3684,46.643],[16.3776,46.6529],[16.3967,46.6591],[16.4026,46.6631],[16.4105,46.6684],[16.405,46.6873],[16.39,46.6942],[16.3714,46.6949],[16.3662,46.6965],[16.3654,46.6967],[16.3576,46.699],[16.3573,46.7158],[16.3434,46.7142],[16.3142,46.7433],[16.2982,46.7758],[16.2995,46.7795],[16.3022,46.787],[16.3111,46.7975],[16.3149,46.802],[16.3218,46.8133],[16.3275,46.8255],[16.3298,46.8344],[16.3253,46.8394],[16.3107,46.84],[16.3019,46.8432],[16.2974,46.847],[16.2822,46.8599],[16.272,46.864],[16.1795,46.8585],[16.1354,46.8558],[16.1302,46.8567],[16.094,46.8628],[16.0529,46.8461],[16.032,46.8376],[16.0284,46.8369],[16.0037,46.8707],[16.0115,46.9133],[16.0545,46.9442],[16.1363,47.0249],[16.1347,47.0402],[16.0895,47.0829],[16.0844,47.1069],[16.095,47.1651],[16.0675,47.2376],[16.0584,47.2911],[16.02,47.3724],[16.0475,47.4106],[16.0717,47.3949],[16.1479,47.443],[16.1135,47.4634],[16.0804,47.5165],[16.0472,47.5062],[15.9983,47.5238],[15.9167,47.5332],[15.8923,47.572],[15.8661,47.5854],[15.8279,47.5889],[15.8287,47.6321],[15.7969,47.6454],[15.7432,47.6367],[15.7261,47.6902],[15.7143,47.7019],[15.6718,47.7042],[15.6386,47.7174],[15.6062,47.7435],[15.5387,47.7474],[15.5001,47.7663],[15.4175,47.7935],[15.3754,47.8196],[15.3391,47.8254],[15.2779,47.8152],[15.2297,47.8193],[15.1871,47.7804],[15.0561,47.7508],[15.0147,47.7524],[14.9296,47.7269],[14.8834,47.7247],[14.8382,47.7505],[14.7341,47.7502],[14.6993,47.7689],[14.7162,47.7935],[14.7189,47.8289],[14.7507,47.9019],[14.6905,47.9372],[14.6066,47.9612],[14.4454,48.043],[14.4272,48.0574],[14.4454,48.0685],[14.4799,48.1179],[14.4694,48.1558],[14.4849,48.2184],[14.52,48.2448],[14.5823,48.2402],[14.6376,48.1971],[14.6755,48.1825],[14.8187,48.2056],[14.862,48.237],[14.9296,48.244],[14.968,48.2252],[14.9754,48.3336],[14.9638,48.3831],[14.94,48.4018],[14.9344,48.434],[14.9098,48.44],[14.8823,48.4712],[14.8871,48.5005],[14.9136,48.4999],[14.9064,48.5271],[14.8393,48.542],[14.7745,48.5625],[14.7116,48.572],[14.6911,48.5865],[14.6592,48.577],[14.6347,48.6023],[14.6019,48.6045],[14.5788,48.6205],[14.522,48.6106],[14.4821,48.6245],[14.4582,48.6432],[14.4436,48.6365],[14.4054,48.5863],[14.3157,48.5579],[14.2165,48.5812],[14.0748,48.5917],[14.0408,48.6012],[14.0062,48.6395],[14.0329,48.6549],[13.9823,48.7065],[13.915,48.731],[13.8559,48.7593],[13.8157,48.7664],[13.7962,48.7798],[13.7247,48.8673],[13.6544,48.8822],[13.6218,48.9091],[13.6087,48.9462],[13.5905,48.9448],[13.5224,48.9693],[13.5021,48.9661],[13.4823,48.9376],[13.4273,48.96],[13.3842,48.993],[13.3724,49.0385],[13.2995,49.0936],[13.2673,49.1056],[13.2068,49.1075],[13.1785,49.1183],[13.1495,49.1548],[13.0558,49.2382],[13.0113,49.2678],[12.9998,49.2949],[12.9229,49.3327],[12.8847,49.3396],[12.8754,49.3239],[12.7978,49.3278],[12.7621,49.3432],[12.7293,49.3911],[12.6435,49.4295],[12.6272,49.4602],[12.623,49.5098],[12.5937,49.515],[12.5623,49.5508],[12.5536,49.5847],[12.502,49.6197],[12.4964,49.67],[12.4196,49.7002],[12.3836,49.7429],[12.3954,49.7579],[12.4527,49.7797],[12.4625,49.8312],[12.4825,49.8272],[12.5129,49.8702],[12.5241,49.905],[12.4627,49.9313],[12.4682,49.9702],[12.3,50.0271],[12.3,49.75],[11.55,49.75],[11.55,49.05],[10.92,49.05],[10.92,47.4616],[10.9598,47.4325],[10.9099,47.469],[10.8516,47.4931],[10.8922,47.5149],[10.8586,47.5307],[10.7903,47.5161],[10.7522,47.5154],[10.7399,47.5285],[10.6079,47.5623],[10.5837,47.5625],[10.5251,47.5285],[10.4825,47.5329],[10.4535,47.5462],[10.4536,47.5811],[10.4142,47.573],[10.431,47.5422],[10.4196,47.493],[10.4422,47.4814],[10.452,47.4388],[10.4116,47.381],[10.3657,47.3611],[10.3434,47.3308],[10.3059,47.3022],[10.2394,47.2777],[10.175,47.2724],[10.2034,47.1987],[10.2021,47.161],[10.1382,47.0773],[10.1247,47.0218],[10.1294,46.985],[10.1204,46.9552],[10.0844,46.9263],[10.0834,46.908]]]}}
]}
