{"type":"FeatureCollection","features":[
{"type":"Feature","properties":{"entityId":"belarus","from":1992,"to":null,"certainty":"estimated","source":"유럽 쪽은 Natural Earth 1:10m admin-1(v5.1.2) 현대 행정구역 조각을 그 시기 국경에 맞춰 묶고, 조각이 역사 경계와 다른 곳은 선을 그어 나눈 근사. 유럽 밖(시베리아·중앙아시아·극동)은 대략적인 추정. 운영자 검수 필요"},"geometry":{"type":"Polygon","coordinates":[[[26.1703,54.9933],[26.2246,55.0549],[26.233,55.1116],[26.2644,55.1401],[26.3095,55.1446],[26.4203,55.1281],[26.4734,55.1457],[26.5789,55.1185],[26.6163,55.1354],[26.6339,55.1922],[26.657,55.2153],[26.7011,55.2368],[26.7399,55.2428],[26.7897,55.2572],[26.8007,55.2733],[26.7686,55.3002],[26.6027,55.3169],[26.5423,55.3076],[26.4658,55.3209],[26.4455,55.3375],[26.486,55.3908],[26.5078,55.4391],[26.5433,55.4596],[26.5277,55.4922],[26.5321,55.5163],[26.5956,55.568],[26.6077,55.6165],[26.5945,55.667],[26.6401,55.6956],[26.743,55.6829],[26.8228,55.7061],[26.8428,55.7193],[26.9001,55.7787],[26.9578,55.8186],[26.9794,55.8263],[27.1108,55.8363],[27.1732,55.8257],[27.263,55.7872],[27.2824,55.7919],[27.3496,55.8312],[27.3746,55.8148],[27.4388,55.7987],[27.5646,55.7922],[27.5927,55.7942],[27.6101,55.831],[27.6172,55.8786],[27.645,55.9228],[27.7444,55.9597],[27.7601,55.9754],[27.7812,56.0164],[27.8807,56.0639],[27.9115,56.1002],[27.9397,56.1131],[27.981,56.118],[28.0511,56.1407],[28.0682,56.1476],[28.111,56.1568],[28.1489,56.1424],[28.1691,56.1253],[28.2898,56.0466],[28.3334,56.0502],[28.3898,56.0886],[28.5378,56.0977],[28.6207,56.083],[28.6806,56.0274],[28.7064,55.9598],[28.7319,55.9468],[28.809,55.9346],[28.8309,55.9377],[28.8331,55.961],[28.8597,55.9765],[28.9225,55.9922],[28.9808,56.0135],[29.0308,56.0242],[29.0886,56.0232],[29.1454,56.012],[29.224,55.9782],[29.3774,55.954],[29.4411,55.9149],[29.3841,55.8799],[29.3719,55.8364],[29.3436,55.787],[29.3634,55.7515],[29.4131,55.7278],[29.461,55.6873],[29.5081,55.6855],[29.5854,55.738],[29.6842,55.7706],[29.7108,55.7738],[29.7799,55.7638],[29.8057,55.7715],[29.8695,55.8305],[29.9078,55.8432],[29.9882,55.8468],[30.1063,55.8219],[30.1324,55.8269],[30.1773,55.8514],[30.2178,55.8551],[30.2708,55.8307],[30.4688,55.7935],[30.4807,55.754],[30.5696,55.7295],[30.5916,55.7057],[30.5837,55.6791],[30.5964,55.6653],[30.6391,55.6545],[30.6937,55.6522],[30.7422,55.5944],[30.7707,55.5915],[30.8477,55.611],[30.8862,55.6005],[30.9071,55.5778],[30.9197,55.5345],[30.8994,55.4991],[30.9194,55.4923],[30.8872,55.4681],[30.8891,55.4334],[30.9186,55.4076],[30.9059,55.376],[30.8456,55.3511],[30.8112,55.3231],[30.7943,55.2855],[30.8041,55.273],[30.8568,55.2535],[30.8865,55.2045],[30.9598,55.1626],[30.9588,55.1444],[30.984,55.1309],[30.9703,55.1014],[31.0064,55.0424],[31.0056,55.023],[30.9806,55.0187],[30.9132,55.0246],[30.9066,55.0126],[30.9361,54.9732],[30.8995,54.9464],[30.8386,54.9392],[30.8148,54.928],[30.8261,54.8775],[30.7681,54.8299],[30.7706,54.786],[30.8273,54.771],[30.9806,54.7057],[30.999,54.6713],[31.1052,54.6683],[31.1286,54.6404],[31.1679,54.6216],[31.1395,54.5829],[31.0896,54.5359],[31.0646,54.4923],[31.0936,54.4794],[31.1679,54.4671],[31.179,54.4534],[31.209,54.448],[31.2487,54.3768],[31.2848,54.3474],[31.2992,54.2726],[31.3247,54.2292],[31.5064,54.1439],[31.5831,54.1295],[31.6669,54.1019],[31.7258,54.0975],[31.7481,54.0863],[31.7713,54.0485],[31.8139,54.0571],[31.8465,53.9923],[31.8101,53.8826],[31.7538,53.8196],[31.7447,53.7949],[31.7873,53.7944],[31.8732,53.7771],[32.0836,53.8096],[32.106,53.8069],[32.1648,53.7817],[32.2904,53.7609],[32.3718,53.7144],[32.4216,53.7158],[32.4616,53.7068],[32.4878,53.6847],[32.4806,53.6624],[32.3991,53.6354],[32.4115,53.5824],[32.4529,53.5464],[32.5543,53.5108],[32.5768,53.486],[32.6006,53.4924],[32.6503,53.4876],[32.6417,53.469],[32.6582,53.4557],[32.7012,53.4621],[32.7178,53.4311],[32.7044,53.3664],[32.7175,53.3349],[32.6979,53.3259],[32.6499,53.3337],[32.58,53.3244],[32.5959,53.3083],[32.5692,53.2988],[32.4548,53.3004],[32.456,53.2778],[32.4791,53.2749],[32.4557,53.2367],[32.4055,53.1927],[32.3528,53.1805],[32.268,53.1248],[32.2157,53.1255],[32.2059,53.1004],[32.1523,53.0963],[32.1173,53.0811],[32.0828,53.082],[32.0099,53.1],[31.9547,53.09],[31.9072,53.0919],[31.8555,53.1102],[31.7963,53.1124],[31.7805,53.1279],[31.7697,53.1693],[31.7386,53.1925],[31.6749,53.1952],[31.614,53.2098],[31.5359,53.1949],[31.4164,53.2],[31.3785,53.182],[31.3616,53.12],[31.3541,53.0821],[31.3192,53.0764],[31.2471,53.0144],[31.3226,52.9771],[31.3662,52.9086],[31.3879,52.888],[31.451,52.8572],[31.5051,52.8489],[31.5239,52.8117],[31.5608,52.7871],[31.5702,52.7253],[31.5479,52.7057],[31.4806,52.6825],[31.5361,52.6305],[31.579,52.5778],[31.6286,52.5481],[31.6108,52.536],[31.5593,52.5405],[31.5759,52.5247],[31.553,52.5022],[31.5879,52.4826],[31.5829,52.4028],[31.6081,52.3725],[31.5923,52.3286],[31.5674,52.3114],[31.6314,52.2648],[31.6994,52.2515],[31.6795,52.2159],[31.6987,52.1854],[31.749,52.1639],[31.7626,52.1498],[31.7643,52.1006],[31.6499,52.0968],[31.4749,52.1178],[31.3831,52.1175],[31.3044,52.0975],[31.2524,52.0445],[31.2049,52.0439],[31.1348,52.0767],[31.0963,52.0796],[30.9593,52.0747],[30.9188,52.0592],[30.9113,52.0226],[30.9405,52.0201],[30.9412,51.9938],[30.9028,52],[30.858,51.9576],[30.8031,51.9391],[30.8106,51.9184],[30.7795,51.8979],[30.7497,51.8996],[30.7345,51.8737],[30.714,51.867],[30.662,51.8194],[30.6706,51.7905],[30.6182,51.7613],[30.6462,51.7545],[30.6306,51.7156],[30.6138,51.7029],[30.5703,51.6999],[30.5703,51.6515],[30.5566,51.6236],[30.5151,51.6037],[30.5431,51.5826],[30.5226,51.5689],[30.5341,51.5533],[30.584,51.5423],[30.5629,51.5218],[30.6182,51.4597],[30.586,51.4518],[30.5879,51.4274],[30.6226,51.4121],[30.6456,51.3675],[30.6383,51.3359],[30.5799,51.3037],[30.5566,51.2673],[30.5547,51.2425],[30.5396,51.2352],[30.5081,51.2577],[30.465,51.2619],[30.4281,51.2918],[30.3838,51.2939],[30.3551,51.3053],[30.3199,51.3416],[30.329,51.3886],[30.3074,51.4096],[30.2569,51.4251],[30.2054,51.4665],[30.1486,51.4844],[30.0087,51.4821],[29.9251,51.4579],[29.8863,51.4648],[29.8466,51.4329],[29.8286,51.43],[29.7379,51.4395],[29.7,51.4837],[29.6608,51.4931],[29.618,51.4856],[29.5682,51.4496],[29.5055,51.4375],[29.4663,51.3851],[29.4027,51.3961],[29.3533,51.3771],[29.3199,51.3656],[29.297,51.3737],[29.2649,51.4329],[29.221,51.467],[29.2265,51.5191],[29.1815,51.567],[29.1604,51.6033],[29.1239,51.625],[29.0837,51.6312],[29.0436,51.6262],[29,51.5824],[28.9546,51.5633],[28.8636,51.5589],[28.7999,51.5326],[28.7522,51.4837],[28.7516,51.4287],[28.7288,51.4013],[28.704,51.4426],[28.6636,51.434],[28.6309,51.4636],[28.6039,51.5535],[28.4884,51.572],[28.4353,51.5661],[28.3469,51.5252],[28.3339,51.5284],[28.3109,51.5745],[28.2494,51.6131],[28.2451,51.6406],[28.21,51.652],[28.1662,51.6331],[28.1142,51.5756],[28.0708,51.5576],[27.9732,51.5578],[27.9361,51.567],[27.8756,51.608],[27.8542,51.6153],[27.8125,51.602],[27.7932,51.565],[27.7971,51.5306],[27.7873,51.5109],[27.7406,51.4714],[27.7143,51.4637],[27.6661,51.4902],[27.7052,51.5684],[27.6768,51.5948],[27.6206,51.5959],[27.5124,51.6231],[27.4773,51.6237],[27.431,51.5984],[27.3884,51.5907],[27.3291,51.597],[27.2675,51.5875],[27.254,51.5954],[27.2775,51.6511],[27.2036,51.6551],[27.1811,51.6834],[27.1779,51.7471],[27.11,51.7624],[27.0216,51.7645],[26.9208,51.7425],[26.8548,51.7493],[26.6657,51.8014],[26.4456,51.8056],[26.4192,51.8209],[26.4078,51.8506],[26.1753,51.8567],[26.1454,51.8648],[26.0808,51.9007],[25.9811,51.9035],[25.7679,51.9285],[25.6835,51.918],[25.5474,51.9194],[25.352,51.9215],[25.1833,51.9498],[25.0927,51.9398],[25.0027,51.9105],[24.7218,51.8823],[24.6398,51.8921],[24.3908,51.88],[24.3479,51.8612],[24.2961,51.8081],[24.2723,51.7429],[24.2441,51.7182],[24.1308,51.6698],[23.9813,51.586],[23.9413,51.5819],[23.8849,51.6199],[23.7497,51.6445],[23.7262,51.6449],[23.629,51.629],[23.5944,51.605],[23.6263,51.5409],[23.6241,51.5159],[23.6062,51.5174],[23.5728,51.5397],[23.574,51.5553],[23.5399,51.6071],[23.5438,51.6438],[23.5324,51.659],[23.5604,51.672],[23.5466,51.7136],[23.5604,51.7545],[23.6175,51.7865],[23.6287,51.8098],[23.5946,51.8433],[23.6214,51.8956],[23.6222,51.9279],[23.6476,51.9741],[23.6764,51.9941],[23.6375,52.0845],[23.5794,52.1215],[23.5125,52.1244],[23.4847,52.1586],[23.4505,52.1859],[23.4367,52.1757],[23.3885,52.1842],[23.3958,52.1996],[23.2123,52.2317],[23.1897,52.2405],[23.1945,52.2715],[23.1761,52.2851],[23.1656,52.2894],[23.2121,52.3475],[23.2705,52.3951],[23.3923,52.5096],[23.4805,52.5544],[23.569,52.5859],[23.7362,52.6149],[23.869,52.67],[23.9088,52.6999],[23.9225,52.7426],[23.9204,52.7726],[23.9121,52.8939],[23.902,52.9125],[23.9175,52.9588],[23.9097,53.0127],[23.8679,53.051],[23.8607,53.0875],[23.8914,53.1277],[23.8937,53.152],[23.8481,53.1838],[23.783,53.2709],[23.743,53.3655],[23.6758,53.4557],[23.5909,53.6113],[23.5671,53.681],[23.5648,53.7424],[23.5299,53.7842],[23.5207,53.8373],[23.4869,53.91],[23.4856,53.9393],[23.5201,53.934],[23.61,53.9018],[23.6426,53.899],[23.6919,53.9115],[23.7544,53.9168],[23.7872,53.9279],[23.8283,53.9201],[23.9198,53.9478],[23.9813,53.9304],[24.0454,53.9309],[24.1367,53.9554],[24.2011,53.9525],[24.2291,53.9324],[24.2571,53.894],[24.3779,53.8868],[24.414,53.8977],[24.5287,53.9584],[24.5791,53.9756],[24.6779,53.9923],[24.6908,53.9728],[24.7239,53.9634],[24.7887,53.9697],[24.8194,53.9926],[24.8214,54.0199],[24.7825,54.0929],[24.8182,54.1101],[24.8216,54.1345],[24.851,54.145],[24.9023,54.1498],[24.9483,54.1459],[25.0271,54.1279],[25.072,54.1322],[25.1156,54.1488],[25.1565,54.1757],[25.1935,54.2437],[25.2241,54.2586],[25.2876,54.2452],[25.3697,54.2479],[25.394,54.2572],[25.4341,54.2918],[25.4721,54.2972],[25.554,54.2313],[25.5017,54.2218],[25.5217,54.1882],[25.4858,54.1754],[25.4933,54.1575],[25.543,54.137],[25.6535,54.1287],[25.6906,54.1482],[25.74,54.1463],[25.771,54.1721],[25.7719,54.2179],[25.7868,54.2318],[25.7578,54.269],[25.7154,54.2852],[25.696,54.321],[25.6674,54.3233],[25.6074,54.3049],[25.564,54.3031],[25.5287,54.321],[25.53,54.3461],[25.5947,54.4001],[25.6126,54.4218],[25.6199,54.4881],[25.6462,54.5204],[25.7074,54.5415],[25.7404,54.5685],[25.7399,54.6077],[25.7151,54.6432],[25.7095,54.6756],[25.7246,54.7157],[25.7243,54.7801],[25.7785,54.8053],[25.7723,54.8509],[25.7827,54.8697],[25.8467,54.9062],[25.8585,54.933],[25.9079,54.9481],[25.9811,54.9427],[26.1026,54.957],[26.1386,54.9689],[26.1703,54.9933]]]}}
]}
