{"type":"FeatureCollection","features":[
{"type":"Feature","properties":{"entityId":"belgium","from":1830,"to":1839,"certainty":"estimated","source":"유럽 쪽은 Natural Earth 1:10m admin-1(v5.1.2) 현대 행정구역 조각을 그 시기 국경에 맞춰 묶고, 조각이 역사 경계와 다른 곳은 선을 그어 나눈 근사. 유럽 밖(시베리아·중앙아시아·극동)은 대략적인 추정. 운영자 검수 필요"},"geometry":{"type":"MultiPolygon","coordinates":[[[[2.5218,51.0875],[2.537,51.0646],[2.557,51.0012],[2.6085,50.9611],[2.6117,50.9412],[2.5769,50.9115],[2.5967,50.8676],[2.59,50.842],[2.6204,50.8165],[2.6919,50.8088],[2.7066,50.7888],[2.7438,50.7662],[2.7682,50.7332],[2.8667,50.7001],[2.9001,50.7031],[2.9302,50.7362],[2.9714,50.7578],[3.0238,50.7683],[3.1033,50.7841],[3.1292,50.7791],[3.1628,50.7499],[3.1969,50.7092],[3.2244,50.7052],[3.2438,50.6721],[3.2298,50.6554],[3.2643,50.5702],[3.271,50.5269],[3.2999,50.5075],[3.3436,50.4929],[3.3854,50.4916],[3.4292,50.5018],[3.4629,50.5191],[3.4915,50.5171],[3.4991,50.4868],[3.5637,50.4865],[3.6083,50.4765],[3.6444,50.4455],[3.6529,50.3602],[3.6617,50.3193],[3.6969,50.2982],[3.7415,50.3431],[3.7987,50.3485],[3.8402,50.3452],[3.8959,50.3253],[3.9821,50.3426],[4.0227,50.3381],[4.0979,50.2948],[4.1253,50.2571],[4.1437,50.2516],[4.1628,50.273],[4.2037,50.252],[4.1573,50.2127],[4.1258,50.1282],[4.1806,50.1272],[4.21,50.0602],[4.1373,50.0251],[4.1317,49.975],[4.1877,49.9555],[4.2159,49.9544],[4.2776,49.9602],[4.4277,49.9336],[4.4648,49.9356],[4.6042,49.9802],[4.6567,49.9891],[4.6729,50.0164],[4.6819,50.0839],[4.7886,50.1534],[4.8156,50.1613],[4.8201,50.1464],[4.8719,50.1398],[4.8629,50.0841],[4.846,50.0907],[4.8272,50.0641],[4.8267,50.036],[4.7883,49.9743],[4.7973,49.9443],[4.8446,49.9317],[4.8594,49.8917],[4.8369,49.848],[4.8492,49.8316],[4.849,49.7942],[4.8842,49.7841],[4.9684,49.797],[4.9892,49.8234],[4.9849,49.8513],[5.0599,49.8861],[5.0432,49.8969],[5.0687,49.9124],[5.1189,49.9253],[5.0972,49.9393],[5.101,49.9616],[5.0626,49.9848],[5.0094,49.9827],[4.9911,50.0303],[5.0496,50.0637],[5.0662,50.1248],[5.0721,50.0968],[5.0933,50.092],[5.187,50.0962],[5.2673,50.1203],[5.2418,50.1355],[5.2703,50.1414],[5.2796,50.1595],[5.2441,50.186],[5.2444,50.2062],[5.2059,50.2199],[5.2533,50.2271],[5.2507,50.2388],[5.284,50.2492],[5.2945,50.2404],[5.3652,50.2697],[5.3927,50.2881],[5.3834,50.3192],[5.3401,50.3118],[5.3944,50.3378],[5.3802,50.3496],[5.4012,50.3676],[5.3924,50.3805],[5.4257,50.4006],[5.4057,50.4234],[5.4251,50.4308],[5.4685,50.4091],[5.5086,50.426],[5.5316,50.3951],[5.5877,50.4006],[5.6703,50.3577],[5.7208,50.3575],[5.7034,50.3326],[5.7206,50.3041],[5.7476,50.2998],[5.7207,50.2631],[5.8738,50.2715],[5.8455,50.2846],[5.8678,50.3195],[5.8493,50.3295],[5.8581,50.3479],[5.9793,50.3309],[5.9814,50.3297],[5.95,50.38],[5.93,50.48],[5.97,50.6],[5.95,50.75],[5.95,50.7505],[5.8913,50.7512],[5.7932,50.7521],[5.7524,50.7734],[5.7328,50.7589],[5.6884,50.7608],[5.7005,50.7956],[5.6574,50.8076],[5.6245,50.8303],[5.6223,50.8527],[5.6945,50.9037],[5.7176,50.9092],[5.764,50.9594],[5.7224,50.9594],[5.7776,51.0236],[5.7715,51.0581],[5.7913,51.055],[5.8118,51.0823],[5.8049,51.0966],[5.846,51.1034],[5.8232,51.1187],[5.8405,51.1389],[5.8291,51.1565],[5.7814,51.1524],[5.7472,51.1776],[5.718,51.1846],[5.659,51.1791],[5.625,51.1969],[5.5514,51.2168],[5.5352,51.262],[5.5167,51.2772],[5.4716,51.2881],[5.3891,51.2587],[5.2707,51.2618],[5.2395,51.2569],[5.2154,51.2587],[5.2149,51.2943],[5.1973,51.3083],[5.1229,51.3134],[5.1026,51.3507],[5.0681,51.3745],[5.0653,51.4059],[5.0799,51.4385],[5.0603,51.462],[5.0121,51.4743],[4.9958,51.4467],[4.9571,51.411],[4.9103,51.3919],[4.8533,51.4061],[4.7833,51.4076],[4.7791,51.4264],[4.8227,51.4137],[4.8154,51.4311],[4.8239,51.4756],[4.7642,51.4962],[4.7312,51.4856],[4.6539,51.4262],[4.6301,51.4182],[4.5406,51.4201],[4.5215,51.4286],[4.5332,51.4676],[4.4831,51.4743],[4.3771,51.4429],[4.3799,51.4095],[4.4162,51.374],[4.3922,51.3504],[4.3456,51.3523],[4.2811,51.3689],[4.2611,51.3694],[4.2579,51.3783],[4.237,51.3783],[4.237,51.3816],[4.1904,51.3816],[4.1904,51.375],[4.2215,51.368],[4.2079,51.3306],[4.1686,51.2969],[4.119,51.2724],[3.995,51.2332],[3.927,51.2063],[3.8087,51.2053],[3.7814,51.2199],[3.7762,51.2545],[3.7573,51.2623],[3.6351,51.2878],[3.5848,51.2895],[3.5143,51.281],[3.5012,51.2403],[3.4539,51.2356],[3.3988,51.2447],[3.3674,51.2635],[3.3532,51.2886],[3.3581,51.3367],[3.3494,51.3752],[3.3477,51.3749],[3.3477,51.3774],[3.3126,51.3702],[3.2775,51.3629],[3.2236,51.3518],[3.2073,51.3464],[3.1248,51.3297],[2.9983,51.2774],[2.9608,51.265],[2.9162,51.2478],[2.6523,51.1824],[2.5658,51.1609],[2.5226,51.1502],[2.5226,51.0877],[2.5218,51.0875]]],[[[6.0075,50.2187],[6.0276,50.2081],[6.0103,50.2657],[6.0075,50.2187]]],[[[6.0199,50.1947],[6.0215,50.1717],[6.03,50.2],[6.0295,50.2017],[6.0199,50.1947]]]]}},
{"type":"Feature","properties":{"entityId":"belgium","from":1839,"to":1920,"certainty":"estimated","source":"유럽 쪽은 Natural Earth 1:10m admin-1(v5.1.2) 현대 행정구역 조각을 그 시기 국경에 맞춰 묶고, 조각이 역사 경계와 다른 곳은 선을 그어 나눈 근사. 유럽 밖(시베리아·중앙아시아·극동)은 대략적인 추정. 운영자 검수 필요"},"geometry":{"type":"Polygon","coordinates":[[[2.5218,51.0875],[2.537,51.0646],[2.557,51.0012],[2.6085,50.9611],[2.6117,50.9412],[2.5769,50.9115],[2.5967,50.8676],[2.59,50.842],[2.6204,50.8165],[2.6919,50.8088],[2.7066,50.7888],[2.7438,50.7662],[2.7682,50.7332],[2.8667,50.7001],[2.9001,50.7031],[2.9302,50.7362],[2.9714,50.7578],[3.0238,50.7683],[3.1033,50.7841],[3.1292,50.7791],[3.1628,50.7499],[3.1969,50.7092],[3.2244,50.7052],[3.2438,50.6721],[3.2298,50.6554],[3.2643,50.5702],[3.271,50.5269],[3.2999,50.5075],[3.3436,50.4929],[3.3854,50.4916],[3.4292,50.5018],[3.4629,50.5191],[3.4915,50.5171],[3.4991,50.4868],[3.5637,50.4865],[3.6083,50.4765],[3.6444,50.4455],[3.6529,50.3602],[3.6617,50.3193],[3.6969,50.2982],[3.7415,50.3431],[3.7987,50.3485],[3.8402,50.3452],[3.8959,50.3253],[3.9821,50.3426],[4.0227,50.3381],[4.0979,50.2948],[4.1253,50.2571],[4.1437,50.2516],[4.1628,50.273],[4.2037,50.252],[4.1573,50.2127],[4.1258,50.1282],[4.1806,50.1272],[4.21,50.0602],[4.1373,50.0251],[4.1317,49.975],[4.1877,49.9555],[4.2159,49.9544],[4.2776,49.9602],[4.4277,49.9336],[4.4648,49.9356],[4.6042,49.9802],[4.6567,49.9891],[4.6729,50.0164],[4.6819,50.0839],[4.7886,50.1534],[4.8156,50.1613],[4.8201,50.1464],[4.8719,50.1398],[4.8629,50.0841],[4.846,50.0907],[4.8272,50.0641],[4.8267,50.036],[4.7883,49.9743],[4.7973,49.9443],[4.8446,49.9317],[4.8594,49.8917],[4.8369,49.848],[4.8492,49.8316],[4.849,49.7942],[4.8842,49.7841],[4.9684,49.797],[5.0263,49.7667],[5.0819,49.7527],[5.1364,49.7053],[5.1925,49.6828],[5.2592,49.6913],[5.2994,49.6625],[5.2979,49.6133],[5.3349,49.6258],[5.3912,49.6088],[5.4502,49.5458],[5.4499,49.5078],[5.4777,49.4952],[5.5476,49.5234],[5.6023,49.5137],[5.6446,49.5438],[5.7103,49.5311],[5.7571,49.5484],[5.7907,49.5378],[5.8145,49.5451],[5.8469,49.5767],[5.83,49.5828],[5.8855,49.6435],[5.8799,49.6577],[5.8423,49.6739],[5.8564,49.7058],[5.8054,49.7219],[5.7785,49.773],[5.7383,49.7888],[5.7202,49.8247],[5.7365,49.8394],[5.7319,49.86],[5.7581,49.8582],[5.7149,49.8819],[5.7637,49.9468],[5.8126,49.9776],[5.8027,50.0025],[5.8291,50.0136],[5.8377,50.0474],[5.8583,50.0618],[5.8724,50.0969],[5.9411,50.1283],[5.9616,50.1656],[5.9983,50.175],[6.023,50.1508],[6.0215,50.1717],[6.03,50.2],[6.0295,50.2017],[6.0338,50.2048],[6.0276,50.2081],[6.0103,50.2657],[6.0075,50.2187],[6.013,50.3118],[5.9793,50.3309],[5.9814,50.3297],[5.95,50.38],[5.93,50.48],[5.97,50.6],[5.95,50.75],[5.95,50.7505],[5.8913,50.7512],[5.7932,50.7521],[5.7524,50.7734],[5.7328,50.7589],[5.6884,50.7608],[5.7005,50.7956],[5.6574,50.8076],[5.6245,50.8303],[5.6223,50.8527],[5.6945,50.9037],[5.7176,50.9092],[5.764,50.9594],[5.7224,50.9594],[5.7776,51.0236],[5.7715,51.0581],[5.7913,51.055],[5.8118,51.0823],[5.8049,51.0966],[5.846,51.1034],[5.8232,51.1187],[5.8405,51.1389],[5.8291,51.1565],[5.7814,51.1524],[5.7472,51.1776],[5.718,51.1846],[5.659,51.1791],[5.625,51.1969],[5.5514,51.2168],[5.5352,51.262],[5.5167,51.2772],[5.4716,51.2881],[5.3891,51.2587],[5.2707,51.2618],[5.2395,51.2569],[5.2154,51.2587],[5.2149,51.2943],[5.1973,51.3083],[5.1229,51.3134],[5.1026,51.3507],[5.0681,51.3745],[5.0653,51.4059],[5.0799,51.4385],[5.0603,51.462],[5.0121,51.4743],[4.9958,51.4467],[4.9571,51.411],[4.9103,51.3919],[4.8533,51.4061],[4.7833,51.4076],[4.7791,51.4264],[4.8227,51.4137],[4.8154,51.4311],[4.8239,51.4756],[4.7642,51.4962],[4.7312,51.4856],[4.6539,51.4262],[4.6301,51.4182],[4.5406,51.4201],[4.5215,51.4286],[4.5332,51.4676],[4.4831,51.4743],[4.3771,51.4429],[4.3799,51.4095],[4.4162,51.374],[4.3922,51.3504],[4.3456,51.3523],[4.2811,51.3689],[4.2611,51.3694],[4.2579,51.3783],[4.237,51.3783],[4.237,51.3816],[4.1904,51.3816],[4.1904,51.375],[4.2215,51.368],[4.2079,51.3306],[4.1686,51.2969],[4.119,51.2724],[3.995,51.2332],[3.927,51.2063],[3.8087,51.2053],[3.7814,51.2199],[3.7762,51.2545],[3.7573,51.2623],[3.6351,51.2878],[3.5848,51.2895],[3.5143,51.281],[3.5012,51.2403],[3.4539,51.2356],[3.3988,51.2447],[3.3674,51.2635],[3.3532,51.2886],[3.3581,51.3367],[3.3494,51.3752],[3.3477,51.3749],[3.3477,51.3774],[3.3126,51.3702],[3.2775,51.3629],[3.2236,51.3518],[3.2073,51.3464],[3.1248,51.3297],[2.9983,51.2774],[2.9608,51.265],[2.9162,51.2478],[2.6523,51.1824],[2.5658,51.1609],[2.5226,51.1502],[2.5226,51.0877],[2.5218,51.0875]]]}},
{"type":"Feature","properties":{"entityId":"belgium","from":1920,"to":1940,"certainty":"estimated","source":"유럽 쪽은 Natural Earth 1:10m admin-1(v5.1.2) 현대 행정구역 조각을 그 시기 국경에 맞춰 묶고, 조각이 역사 경계와 다른 곳은 선을 그어 나눈 근사. 유럽 밖(시베리아·중앙아시아·극동)은 대략적인 추정. 운영자 검수 필요"},"geometry":{"type":"Polygon","coordinates":[[[2.5218,51.0875],[2.537,51.0646],[2.557,51.0012],[2.6085,50.9611],[2.6117,50.9412],[2.5769,50.9115],[2.5967,50.8676],[2.59,50.842],[2.6204,50.8165],[2.6919,50.8088],[2.7066,50.7888],[2.7438,50.7662],[2.7682,50.7332],[2.8667,50.7001],[2.9001,50.7031],[2.9302,50.7362],[2.9714,50.7578],[3.0238,50.7683],[3.1033,50.7841],[3.1292,50.7791],[3.1628,50.7499],[3.1969,50.7092],[3.2244,50.7052],[3.2438,50.6721],[3.2298,50.6554],[3.2643,50.5702],[3.271,50.5269],[3.2999,50.5075],[3.3436,50.4929],[3.3854,50.4916],[3.4292,50.5018],[3.4629,50.5191],[3.4915,50.5171],[3.4991,50.4868],[3.5637,50.4865],[3.6083,50.4765],[3.6444,50.4455],[3.6529,50.3602],[3.6617,50.3193],[3.6969,50.2982],[3.7415,50.3431],[3.7987,50.3485],[3.8402,50.3452],[3.8959,50.3253],[3.9821,50.3426],[4.0227,50.3381],[4.0979,50.2948],[4.1253,50.2571],[4.1437,50.2516],[4.1628,50.273],[4.2037,50.252],[4.1573,50.2127],[4.1258,50.1282],[4.1806,50.1272],[4.21,50.0602],[4.1373,50.0251],[4.1317,49.975],[4.1877,49.9555],[4.2159,49.9544],[4.2776,49.9602],[4.4277,49.9336],[4.4648,49.9356],[4.6042,49.9802],[4.6567,49.9891],[4.6729,50.0164],[4.6819,50.0839],[4.7886,50.1534],[4.8156,50.1613],[4.8201,50.1464],[4.8719,50.1398],[4.8629,50.0841],[4.846,50.0907],[4.8272,50.0641],[4.8267,50.036],[4.7883,49.9743],[4.7973,49.9443],[4.8446,49.9317],[4.8594,49.8917],[4.8369,49.848],[4.8492,49.8316],[4.849,49.7942],[4.8842,49.7841],[4.9684,49.797],[5.0263,49.7667],[5.0819,49.7527],[5.1364,49.7053],[5.1925,49.6828],[5.2592,49.6913],[5.2994,49.6625],[5.2979,49.6133],[5.3349,49.6258],[5.3912,49.6088],[5.4502,49.5458],[5.4499,49.5078],[5.4777,49.4952],[5.5476,49.5234],[5.6023,49.5137],[5.6446,49.5438],[5.7103,49.5311],[5.7571,49.5484],[5.7907,49.5378],[5.8145,49.5451],[5.8469,49.5767],[5.83,49.5828],[5.8855,49.6435],[5.8799,49.6577],[5.8423,49.6739],[5.8564,49.7058],[5.8054,49.7219],[5.7785,49.773],[5.7383,49.7888],[5.7202,49.8247],[5.7365,49.8394],[5.7319,49.86],[5.7581,49.8582],[5.7149,49.8819],[5.7637,49.9468],[5.8126,49.9776],[5.8027,50.0025],[5.8291,50.0136],[5.8377,50.0474],[5.8583,50.0618],[5.8724,50.0969],[5.9411,50.1283],[5.9616,50.1656],[5.9983,50.175],[6.023,50.1508],[6.0971,50.1513],[6.1175,50.1205],[6.1232,50.1649],[6.1651,50.1819],[6.1468,50.214],[6.1896,50.2427],[6.2534,50.2568],[6.2694,50.2865],[6.2995,50.3089],[6.362,50.307],[6.3734,50.3231],[6.3377,50.3681],[6.3512,50.4336],[6.3233,50.466],[6.3369,50.481],[6.2556,50.4946],[6.1992,50.4904],[6.1708,50.518],[6.1607,50.5436],[6.1791,50.562],[6.2329,50.5871],[6.2491,50.6144],[6.18,50.6155],[6.1478,50.6368],[6.1611,50.6422],[6.081,50.7135],[6.0248,50.7076],[6.0076,50.7169],[5.9949,50.7499],[5.95,50.7505],[5.8913,50.7512],[5.7932,50.7521],[5.7524,50.7734],[5.7328,50.7589],[5.6884,50.7608],[5.7005,50.7956],[5.6574,50.8076],[5.6245,50.8303],[5.6223,50.8527],[5.6945,50.9037],[5.7176,50.9092],[5.764,50.9594],[5.7224,50.9594],[5.7776,51.0236],[5.7715,51.0581],[5.7913,51.055],[5.8118,51.0823],[5.8049,51.0966],[5.846,51.1034],[5.8232,51.1187],[5.8405,51.1389],[5.8291,51.1565],[5.7814,51.1524],[5.7472,51.1776],[5.718,51.1846],[5.659,51.1791],[5.625,51.1969],[5.5514,51.2168],[5.5352,51.262],[5.5167,51.2772],[5.4716,51.2881],[5.3891,51.2587],[5.2707,51.2618],[5.2395,51.2569],[5.2154,51.2587],[5.2149,51.2943],[5.1973,51.3083],[5.1229,51.3134],[5.1026,51.3507],[5.0681,51.3745],[5.0653,51.4059],[5.0799,51.4385],[5.0603,51.462],[5.0121,51.4743],[4.9958,51.4467],[4.9571,51.411],[4.9103,51.3919],[4.8533,51.4061],[4.7833,51.4076],[4.7791,51.4264],[4.8227,51.4137],[4.8154,51.4311],[4.8239,51.4756],[4.7642,51.4962],[4.7312,51.4856],[4.6539,51.4262],[4.6301,51.4182],[4.5406,51.4201],[4.5215,51.4286],[4.5332,51.4676],[4.4831,51.4743],[4.3771,51.4429],[4.3799,51.4095],[4.4162,51.374],[4.3922,51.3504],[4.3456,51.3523],[4.2811,51.3689],[4.2611,51.3694],[4.2579,51.3783],[4.237,51.3783],[4.237,51.3816],[4.1904,51.3816],[4.1904,51.375],[4.2215,51.368],[4.2079,51.3306],[4.1686,51.2969],[4.119,51.2724],[3.995,51.2332],[3.927,51.2063],[3.8087,51.2053],[3.7814,51.2199],[3.7762,51.2545],[3.7573,51.2623],[3.6351,51.2878],[3.5848,51.2895],[3.5143,51.281],[3.5012,51.2403],[3.4539,51.2356],[3.3988,51.2447],[3.3674,51.2635],[3.3532,51.2886],[3.3581,51.3367],[3.3494,51.3752],[3.3477,51.3749],[3.3477,51.3774],[3.3126,51.3702],[3.2775,51.3629],[3.2236,51.3518],[3.2073,51.3464],[3.1248,51.3297],[2.9983,51.2774],[2.9608,51.265],[2.9162,51.2478],[2.6523,51.1824],[2.5658,51.1609],[2.5226,51.1502],[2.5226,51.0877],[2.5218,51.0875]]]}},
{"type":"Feature","properties":{"entityId":"belgium","from":1940,"to":1944,"certainty":"estimated","source":"유럽 쪽은 Natural Earth 1:10m admin-1(v5.1.2) 현대 행정구역 조각을 그 시기 국경에 맞춰 묶고, 조각이 역사 경계와 다른 곳은 선을 그어 나눈 근사. 유럽 밖(시베리아·중앙아시아·극동)은 대략적인 추정. 운영자 검수 필요"},"geometry":{"type":"Polygon","coordinates":[[[2.5218,51.0875],[2.537,51.0646],[2.557,51.0012],[2.6085,50.9611],[2.6117,50.9412],[2.5769,50.9115],[2.5967,50.8676],[2.59,50.842],[2.6204,50.8165],[2.6919,50.8088],[2.7066,50.7888],[2.7438,50.7662],[2.7682,50.7332],[2.8667,50.7001],[2.9001,50.7031],[2.9302,50.7362],[2.9714,50.7578],[3.0238,50.7683],[3.1033,50.7841],[3.1292,50.7791],[3.1628,50.7499],[3.1969,50.7092],[3.2244,50.7052],[3.2438,50.6721],[3.2298,50.6554],[3.2643,50.5702],[3.271,50.5269],[3.2999,50.5075],[3.3436,50.4929],[3.3854,50.4916],[3.4292,50.5018],[3.4629,50.5191],[3.4915,50.5171],[3.4991,50.4868],[3.5637,50.4865],[3.6083,50.4765],[3.6444,50.4455],[3.6529,50.3602],[3.6617,50.3193],[3.6969,50.2982],[3.7415,50.3431],[3.7987,50.3485],[3.8402,50.3452],[3.8959,50.3253],[3.9821,50.3426],[4.0227,50.3381],[4.0979,50.2948],[4.1253,50.2571],[4.1437,50.2516],[4.1628,50.273],[4.2037,50.252],[4.1573,50.2127],[4.1258,50.1282],[4.1806,50.1272],[4.21,50.0602],[4.1373,50.0251],[4.1317,49.975],[4.1877,49.9555],[4.2159,49.9544],[4.2776,49.9602],[4.4277,49.9336],[4.4648,49.9356],[4.6042,49.9802],[4.6567,49.9891],[4.6729,50.0164],[4.6819,50.0839],[4.7886,50.1534],[4.8156,50.1613],[4.8201,50.1464],[4.8719,50.1398],[4.8629,50.0841],[4.846,50.0907],[4.8272,50.0641],[4.8267,50.036],[4.7883,49.9743],[4.7973,49.9443],[4.8446,49.9317],[4.8594,49.8917],[4.8369,49.848],[4.8492,49.8316],[4.849,49.7942],[4.8842,49.7841],[4.9684,49.797],[5.0263,49.7667],[5.0819,49.7527],[5.1364,49.7053],[5.1925,49.6828],[5.2592,49.6913],[5.2994,49.6625],[5.2979,49.6133],[5.3349,49.6258],[5.3912,49.6088],[5.4502,49.5458],[5.4499,49.5078],[5.4777,49.4952],[5.5476,49.5234],[5.6023,49.5137],[5.6446,49.5438],[5.7103,49.5311],[5.7571,49.5484],[5.7907,49.5378],[5.8145,49.5451],[5.8469,49.5767],[5.83,49.5828],[5.8855,49.6435],[5.8799,49.6577],[5.8423,49.6739],[5.8564,49.7058],[5.8054,49.7219],[5.7785,49.773],[5.7383,49.7888],[5.7202,49.8247],[5.7365,49.8394],[5.7319,49.86],[5.7581,49.8582],[5.7149,49.8819],[5.7637,49.9468],[5.8126,49.9776],[5.8027,50.0025],[5.8291,50.0136],[5.8377,50.0474],[5.8583,50.0618],[5.8724,50.0969],[5.9411,50.1283],[5.9616,50.1656],[5.9983,50.175],[6.023,50.1508],[6.0215,50.1717],[6.03,50.2],[6.0295,50.2017],[6.0338,50.2048],[6.0276,50.2081],[6.0103,50.2657],[6.0075,50.2187],[6.013,50.3118],[5.9793,50.3309],[5.9814,50.3297],[5.95,50.38],[5.93,50.48],[5.97,50.6],[5.95,50.75],[5.95,50.7505],[5.8913,50.7512],[5.7932,50.7521],[5.7524,50.7734],[5.7328,50.7589],[5.6884,50.7608],[5.7005,50.7956],[5.6574,50.8076],[5.6245,50.8303],[5.6223,50.8527],[5.6945,50.9037],[5.7176,50.9092],[5.764,50.9594],[5.7224,50.9594],[5.7776,51.0236],[5.7715,51.0581],[5.7913,51.055],[5.8118,51.0823],[5.8049,51.0966],[5.846,51.1034],[5.8232,51.1187],[5.8405,51.1389],[5.8291,51.1565],[5.7814,51.1524],[5.7472,51.1776],[5.718,51.1846],[5.659,51.1791],[5.625,51.1969],[5.5514,51.2168],[5.5352,51.262],[5.5167,51.2772],[5.4716,51.2881],[5.3891,51.2587],[5.2707,51.2618],[5.2395,51.2569],[5.2154,51.2587],[5.2149,51.2943],[5.1973,51.3083],[5.1229,51.3134],[5.1026,51.3507],[5.0681,51.3745],[5.0653,51.4059],[5.0799,51.4385],[5.0603,51.462],[5.0121,51.4743],[4.9958,51.4467],[4.9571,51.411],[4.9103,51.3919],[4.8533,51.4061],[4.7833,51.4076],[4.7791,51.4264],[4.8227,51.4137],[4.8154,51.4311],[4.8239,51.4756],[4.7642,51.4962],[4.7312,51.4856],[4.6539,51.4262],[4.6301,51.4182],[4.5406,51.4201],[4.5215,51.4286],[4.5332,51.4676],[4.4831,51.4743],[4.3771,51.4429],[4.3799,51.4095],[4.4162,51.374],[4.3922,51.3504],[4.3456,51.3523],[4.2811,51.3689],[4.2611,51.3694],[4.2579,51.3783],[4.237,51.3783],[4.237,51.3816],[4.1904,51.3816],[4.1904,51.375],[4.2215,51.368],[4.2079,51.3306],[4.1686,51.2969],[4.119,51.2724],[3.995,51.2332],[3.927,51.2063],[3.8087,51.2053],[3.7814,51.2199],[3.7762,51.2545],[3.7573,51.2623],[3.6351,51.2878],[3.5848,51.2895],[3.5143,51.281],[3.5012,51.2403],[3.4539,51.2356],[3.3988,51.2447],[3.3674,51.2635],[3.3532,51.2886],[3.3581,51.3367],[3.3494,51.3752],[3.3477,51.3749],[3.3477,51.3774],[3.3126,51.3702],[3.2775,51.3629],[3.2236,51.3518],[3.2073,51.3464],[3.1248,51.3297],[2.9983,51.2774],[2.9608,51.265],[2.9162,51.2478],[2.6523,51.1824],[2.5658,51.1609],[2.5226,51.1502],[2.5226,51.0877],[2.5218,51.0875]]]}},
{"type":"Feature","properties":{"entityId":"belgium","from":1944,"to":null,"certainty":"estimated","source":"유럽 쪽은 Natural Earth 1:10m admin-1(v5.1.2) 현대 행정구역 조각을 그 시기 국경에 맞춰 묶고, 조각이 역사 경계와 다른 곳은 선을 그어 나눈 근사. 유럽 밖(시베리아·중앙아시아·극동)은 대략적인 추정. 운영자 검수 필요"},"geometry":{"type":"Polygon","coordinates":[[[2.5218,51.0875],[2.537,51.0646],[2.557,51.0012],[2.6085,50.9611],[2.6117,50.9412],[2.5769,50.9115],[2.5967,50.8676],[2.59,50.842],[2.6204,50.8165],[2.6919,50.8088],[2.7066,50.7888],[2.7438,50.7662],[2.7682,50.7332],[2.8667,50.7001],[2.9001,50.7031],[2.9302,50.7362],[2.9714,50.7578],[3.0238,50.7683],[3.1033,50.7841],[3.1292,50.7791],[3.1628,50.7499],[3.1969,50.7092],[3.2244,50.7052],[3.2438,50.6721],[3.2298,50.6554],[3.2643,50.5702],[3.271,50.5269],[3.2999,50.5075],[3.3436,50.4929],[3.3854,50.4916],[3.4292,50.5018],[3.4629,50.5191],[3.4915,50.5171],[3.4991,50.4868],[3.5637,50.4865],[3.6083,50.4765],[3.6444,50.4455],[3.6529,50.3602],[3.6617,50.3193],[3.6969,50.2982],[3.7415,50.3431],[3.7987,50.3485],[3.8402,50.3452],[3.8959,50.3253],[3.9821,50.3426],[4.0227,50.3381],[4.0979,50.2948],[4.1253,50.2571],[4.1437,50.2516],[4.1628,50.273],[4.2037,50.252],[4.1573,50.2127],[4.1258,50.1282],[4.1806,50.1272],[4.21,50.0602],[4.1373,50.0251],[4.1317,49.975],[4.1877,49.9555],[4.2159,49.9544],[4.2776,49.9602],[4.4277,49.9336],[4.4648,49.9356],[4.6042,49.9802],[4.6567,49.9891],[4.6729,50.0164],[4.6819,50.0839],[4.7886,50.1534],[4.8156,50.1613],[4.8201,50.1464],[4.8719,50.1398],[4.8629,50.0841],[4.846,50.0907],[4.8272,50.0641],[4.8267,50.036],[4.7883,49.9743],[4.7973,49.9443],[4.8446,49.9317],[4.8594,49.8917],[4.8369,49.848],[4.8492,49.8316],[4.849,49.7942],[4.8842,49.7841],[4.9684,49.797],[5.0263,49.7667],[5.0819,49.7527],[5.1364,49.7053],[5.1925,49.6828],[5.2592,49.6913],[5.2994,49.6625],[5.2979,49.6133],[5.3349,49.6258],[5.3912,49.6088],[5.4502,49.5458],[5.4499,49.5078],[5.4777,49.4952],[5.5476,49.5234],[5.6023,49.5137],[5.6446,49.5438],[5.7103,49.5311],[5.7571,49.5484],[5.7907,49.5378],[5.8145,49.5451],[5.8469,49.5767],[5.83,49.5828],[5.8855,49.6435],[5.8799,49.6577],[5.8423,49.6739],[5.8564,49.7058],[5.8054,49.7219],[5.7785,49.773],[5.7383,49.7888],[5.7202,49.8247],[5.7365,49.8394],[5.7319,49.86],[5.7581,49.8582],[5.7149,49.8819],[5.7637,49.9468],[5.8126,49.9776],[5.8027,50.0025],[5.8291,50.0136],[5.8377,50.0474],[5.8583,50.0618],[5.8724,50.0969],[5.9411,50.1283],[5.9616,50.1656],[5.9983,50.175],[6.023,50.1508],[6.0971,50.1513],[6.1175,50.1205],[6.1232,50.1649],[6.1651,50.1819],[6.1468,50.214],[6.1896,50.2427],[6.2534,50.2568],[6.2694,50.2865],[6.2995,50.3089],[6.362,50.307],[6.3734,50.3231],[6.3377,50.3681],[6.3512,50.4336],[6.3233,50.466],[6.3369,50.481],[6.2556,50.4946],[6.1992,50.4904],[6.1708,50.518],[6.1607,50.5436],[6.1791,50.562],[6.2329,50.5871],[6.2491,50.6144],[6.18,50.6155],[6.1478,50.6368],[6.1611,50.6422],[6.081,50.7135],[6.0248,50.7076],[6.0076,50.7169],[5.9949,50.7499],[5.95,50.7505],[5.8913,50.7512],[5.7932,50.7521],[5.7524,50.7734],[5.7328,50.7589],[5.6884,50.7608],[5.7005,50.7956],[5.6574,50.8076],[5.6245,50.8303],[5.6223,50.8527],[5.6945,50.9037],[5.7176,50.9092],[5.764,50.9594],[5.7224,50.9594],[5.7776,51.0236],[5.7715,51.0581],[5.7913,51.055],[5.8118,51.0823],[5.8049,51.0966],[5.846,51.1034],[5.8232,51.1187],[5.8405,51.1389],[5.8291,51.1565],[5.7814,51.1524],[5.7472,51.1776],[5.718,51.1846],[5.659,51.1791],[5.625,51.1969],[5.5514,51.2168],[5.5352,51.262],[5.5167,51.2772],[5.4716,51.2881],[5.3891,51.2587],[5.2707,51.2618],[5.2395,51.2569],[5.2154,51.2587],[5.2149,51.2943],[5.1973,51.3083],[5.1229,51.3134],[5.1026,51.3507],[5.0681,51.3745],[5.0653,51.4059],[5.0799,51.4385],[5.0603,51.462],[5.0121,51.4743],[4.9958,51.4467],[4.9571,51.411],[4.9103,51.3919],[4.8533,51.4061],[4.7833,51.4076],[4.7791,51.4264],[4.8227,51.4137],[4.8154,51.4311],[4.8239,51.4756],[4.7642,51.4962],[4.7312,51.4856],[4.6539,51.4262],[4.6301,51.4182],[4.5406,51.4201],[4.5215,51.4286],[4.5332,51.4676],[4.4831,51.4743],[4.3771,51.4429],[4.3799,51.4095],[4.4162,51.374],[4.3922,51.3504],[4.3456,51.3523],[4.2811,51.3689],[4.2611,51.3694],[4.2579,51.3783],[4.237,51.3783],[4.237,51.3816],[4.1904,51.3816],[4.1904,51.375],[4.2215,51.368],[4.2079,51.3306],[4.1686,51.2969],[4.119,51.2724],[3.995,51.2332],[3.927,51.2063],[3.8087,51.2053],[3.7814,51.2199],[3.7762,51.2545],[3.7573,51.2623],[3.6351,51.2878],[3.5848,51.2895],[3.5143,51.281],[3.5012,51.2403],[3.4539,51.2356],[3.3988,51.2447],[3.3674,51.2635],[3.3532,51.2886],[3.3581,51.3367],[3.3494,51.3752],[3.3477,51.3749],[3.3477,51.3774],[3.3126,51.3702],[3.2775,51.3629],[3.2236,51.3518],[3.2073,51.3464],[3.1248,51.3297],[2.9983,51.2774],[2.9608,51.265],[2.9162,51.2478],[2.6523,51.1824],[2.5658,51.1609],[2.5226,51.1502],[2.5226,51.0877],[2.5218,51.0875]]]}}
]}
