{"type":"FeatureCollection","features":[
{"type":"Feature","properties":{"entityId":"berlin-western-sectors","from":1945,"to":1949,"certainty":"estimated","source":"유럽 쪽은 Natural Earth 1:10m admin-1(v5.1.2) 현대 행정구역 조각을 그 시기 국경에 맞춰 묶고, 조각이 역사 경계와 다른 곳은 선을 그어 나눈 근사. 유럽 밖(시베리아·중앙아시아·극동)은 대략적인 추정. 운영자 검수 필요"},"geometry":{"type":"Polygon","coordinates":[[[13.0937,52.4187],[13.1217,52.4011],[13.1565,52.3969],[13.2141,52.4171],[13.2482,52.4051],[13.2943,52.4151],[13.3127,52.4005],[13.3458,52.4074],[13.3758,52.3866],[13.4257,52.3811],[13.4271,52.4095],[13.468,52.4137],[13.4844,52.3987],[13.4877,52.3992],[13.5,52.43],[13.45,52.48],[13.42,52.5],[13.38,52.52],[13.4,52.55],[13.37,52.6],[13.3648,52.626],[13.3266,52.6252],[13.3031,52.6353],[13.3028,52.6562],[13.2825,52.654],[13.2527,52.6299],[13.2207,52.626],[13.2168,52.5874],[13.1574,52.6003],[13.1409,52.5243],[13.1568,52.501],[13.1166,52.476],[13.1169,52.4415],[13.0937,52.4187]]]}}
]}
