{"type":"FeatureCollection","features":[
{"type":"Feature","properties":{"entityId":"bithynia-kingdom","from":-333,"to":-280,"certainty":"estimated","source":"유럽 쪽은 Natural Earth 1:10m admin-1(v5.1.2) 현대 행정구역 조각을 그 시기 국경에 맞춰 묶고, 조각이 역사 경계와 다른 곳은 선을 그어 나눈 근사. 유럽 밖(시베리아·중앙아시아·극동)은 대략적인 추정. 운영자 검수 필요"},"geometry":{"type":"Polygon","coordinates":[[[28.8008,40.4592],[28.8199,40.4597],[28.8255,40.4698],[28.8397,40.4955],[28.8435,40.5024],[28.8415,40.5031],[28.8397,40.5041],[28.8226,40.5141],[28.7742,40.5228],[28.7927,40.5533],[28.8268,40.5706],[28.8781,40.5859],[28.8952,40.5955],[28.9915,40.7692],[29.0168,40.815],[29.0294,40.815],[29.0294,40.7692],[29.0674,40.7692],[29.0674,40.815],[29.1054,40.815],[29.1434,40.815],[29.1434,40.818],[29.1766,40.818],[29.1766,40.8504],[29.2098,40.8504],[29.2098,40.8383],[29.243,40.8383],[29.243,40.8647],[29.243,40.8793],[29.2537,40.8755],[29.2878,40.9094],[29.3652,40.9527],[29.4509,41.0086],[29.5037,41.005],[29.551,40.9741],[29.5818,40.9253],[29.611,40.9069],[29.6466,40.9099],[29.6727,40.9569],[29.7306,40.9878],[29.7948,41.0067],[29.8494,41.0294],[29.8774,41.0798],[29.8634,41.142],[29.8846,41.149],[29.8936,41.1488],[29.8936,41.1744],[29.9204,41.1726],[30.0277,41.1651],[30.0394,41.1643],[30.2424,41.1865],[30.2713,41.2112],[30.3367,41.2008],[30.3424,41.1975],[30.3463,41.1979],[30.3464,41.1979],[30.3467,41.1979],[30.5478,41.149],[30.6992,41.1215],[30.7047,41.1182],[30.8818,41.1059],[30.9261,41.1029],[30.9704,41.0998],[31.0251,41.096],[31.059,41.0977],[31.1752,41.1037],[31.2362,41.1366],[31.2412,41.1393],[31.283,41.1618],[31.3248,41.1843],[31.3248,41.167],[31.3597,41.167],[31.3597,41.1632],[31.3464,41.1507],[31.3846,41.1232],[31.556,41.0595],[31.7991,41.0418],[31.8722,41.0365],[31.9347,41.0241],[32.1494,41.0192],[32.1983,41.0181],[32.284,41.0039],[32.2783,40.9486],[32.3303,40.9328],[32.3769,40.9106],[32.4922,40.8678],[32.5295,40.8152],[32.5262,40.7887],[32.5071,40.7052],[32.4713,40.6939],[32.4427,40.673],[32.439,40.619],[32.4767,40.539],[32.4239,40.4856],[32.3961,40.4483],[32.3154,40.4152],[32.1768,40.4313],[32.1349,40.421],[32.0931,40.3989],[31.9751,40.3771],[31.9061,40.3534],[31.8214,40.3384],[31.6965,40.34],[31.6577,40.3361],[31.5679,40.3085],[31.5356,40.3116],[31.4524,40.332],[31.4197,40.3597],[31.2509,40.346],[31.163,40.3869],[31.0692,40.4113],[31.0439,40.3899],[31.0341,40.3524],[31.0382,40.2922],[31.0072,40.2416],[30.9254,40.2057],[30.8636,40.1428],[30.7988,40.1509],[30.7386,40.1678],[30.7011,40.204],[30.64,40.2872],[30.626,40.3315],[30.5736,40.341],[30.4985,40.3396],[30.4577,40.3791],[30.4263,40.394],[30.3507,40.4021],[30.3075,40.399],[30.1691,40.371],[30.081,40.3914],[30.0046,40.4477],[29.9688,40.4887],[29.9408,40.5335],[29.9262,40.577],[29.7889,40.6147],[29.7204,40.6043],[29.5353,40.5524],[29.4771,40.5498],[29.4207,40.5632],[29.3581,40.5729],[29.2939,40.5222],[29.2305,40.5116],[29.0784,40.5632],[29.0475,40.5602],[28.978,40.5732],[28.9803,40.4645],[28.9956,40.4732],[28.9956,40.4457],[28.9956,40.4182],[28.9567,40.4182],[28.9177,40.4182],[28.9177,40.4416],[28.8787,40.4416],[28.8397,40.4416],[28.8397,40.4441],[28.8008,40.4441],[28.8008,40.4592]]]}},
{"type":"Feature","properties":{"entityId":"bithynia-kingdom","from":-280,"to":-73,"certainty":"estimated","source":"유럽 쪽은 Natural Earth 1:10m admin-1(v5.1.2) 현대 행정구역 조각을 그 시기 국경에 맞춰 묶고, 조각이 역사 경계와 다른 곳은 선을 그어 나눈 근사. 유럽 밖(시베리아·중앙아시아·극동)은 대략적인 추정. 운영자 검수 필요"},"geometry":{"type":"Polygon","coordinates":[[[28.0989,40.2972],[28.1064,40.263],[28.1294,40.2581],[28.149,40.2258],[28.1253,40.1912],[28.1128,40.1533],[28.1358,40.0963],[28.1731,40.0509],[28.227,40.0217],[28.246,39.9964],[28.2637,39.927],[28.2814,39.8958],[28.5459,39.7452],[28.6258,39.7376],[28.6738,39.7641],[28.6891,39.7473],[28.6864,39.6995],[28.7116,39.6631],[28.7556,39.6483],[28.7803,39.6188],[28.8198,39.6145],[28.9122,39.6199],[28.9672,39.5891],[29.0048,39.5661],[29.1193,39.5516],[29.1908,39.5521],[29.2461,39.5793],[29.2525,39.6458],[29.2742,39.6909],[29.3202,39.7172],[29.3478,39.7969],[29.3682,39.8133],[29.3995,39.8959],[29.4502,39.9235],[29.5544,39.8919],[29.6183,39.8924],[29.6777,39.9063],[29.6617,39.8211],[29.6658,39.7788],[29.7163,39.7093],[29.7911,39.6771],[29.902,39.6166],[29.9455,39.6076],[30.0241,39.6242],[30.1361,39.6388],[30.1917,39.6885],[30.235,39.7477],[30.2452,39.8497],[30.3016,39.8791],[30.3339,39.9197],[30.3852,39.9367],[30.4395,39.9362],[30.4907,39.9653],[30.5242,40.0116],[30.5554,40.1146],[30.6361,40.1646],[30.7386,40.1678],[30.7988,40.1509],[30.8636,40.1428],[30.9254,40.2057],[31.0072,40.2416],[31.0382,40.2922],[31.0341,40.3524],[31.0439,40.3899],[31.0692,40.4113],[31.163,40.3869],[31.2509,40.346],[31.4197,40.3597],[31.4524,40.332],[31.5356,40.3116],[31.5679,40.3085],[31.6577,40.3361],[31.6965,40.34],[31.8214,40.3384],[31.9061,40.3534],[31.9751,40.3771],[32.0931,40.3989],[32.1349,40.421],[32.1768,40.4313],[32.3154,40.4152],[32.3961,40.4483],[32.4239,40.4856],[32.4767,40.539],[32.439,40.619],[32.4427,40.673],[32.4713,40.6939],[32.5071,40.7052],[32.5262,40.7887],[32.5295,40.8152],[32.4922,40.8678],[32.3769,40.9106],[32.3303,40.9328],[32.2783,40.9486],[32.284,41.0039],[32.1983,41.0181],[32.1494,41.0192],[31.9347,41.0241],[31.8722,41.0365],[31.7991,41.0418],[31.556,41.0595],[31.3846,41.1232],[31.3464,41.1507],[31.3597,41.1632],[31.3597,41.167],[31.3248,41.167],[31.3248,41.1843],[31.2412,41.1393],[31.2362,41.1366],[31.1752,41.1037],[31.059,41.0977],[31.0251,41.096],[30.9704,41.0998],[30.9261,41.1029],[30.8818,41.1059],[30.7047,41.1182],[30.6992,41.1215],[30.5478,41.149],[30.3467,41.1979],[30.3463,41.1979],[30.3424,41.1975],[30.3367,41.2008],[30.2713,41.2112],[30.2424,41.1865],[30.0394,41.1643],[30.0277,41.1651],[29.9204,41.1726],[29.8936,41.1744],[29.8667,41.1763],[29.813,41.18],[29.5476,41.1984],[29.3836,41.2194],[29.2318,41.2407],[29.2062,41.2292],[29.1697,41.2331],[29.1301,41.2119],[29.0975,41.1803],[29.0935,41.1771],[29.0932,41.1761],[29.0782,41.1616],[29.0769,41.1485],[29.0828,41.1452],[29.0683,41.1024],[29.0625,41.0767],[29.0623,41.0763],[29.0261,41.0383],[29.0114,41.0321],[29.0087,41.028],[29.0281,40.9821],[29.0832,40.9597],[29.093,40.9524],[29.0168,40.815],[28.9915,40.7692],[28.8952,40.5955],[28.8781,40.5859],[28.8268,40.5706],[28.7927,40.5533],[28.7742,40.5228],[28.8226,40.5141],[28.8397,40.5041],[28.8415,40.5031],[28.8435,40.5024],[28.8397,40.4955],[28.8255,40.4698],[28.8199,40.4597],[28.8008,40.4592],[28.7618,40.4582],[28.6838,40.4563],[28.5278,40.4523],[28.2159,40.4444],[28.2159,40.3996],[28.2081,40.3993],[28.1558,40.3364],[28.0989,40.2972]]]}}
]}
