{"type":"FeatureCollection","features":[
{"type":"Feature","properties":{"entityId":"bohemia-kingdom","from":1198,"to":1251,"certainty":"estimated","source":"유럽 쪽은 Natural Earth 1:10m admin-1(v5.1.2) 현대 행정구역 조각을 그 시기 국경에 맞춰 묶고, 조각이 역사 경계와 다른 곳은 선을 그어 나눈 근사. 유럽 밖(시베리아·중앙아시아·극동)은 대략적인 추정. 운영자 검수 필요"},"geometry":{"type":"Polygon","coordinates":[[[12.5241,49.905],[12.4627,49.9313],[12.4682,49.9702],[12.2469,50.045],[12.2325,50.0805],[12.1879,50.1028],[12.1792,50.118],[12.1827,50.1707],[12.1393,50.211],[12.0796,50.2427],[12.1091,50.2638],[12.1073,50.2909],[12.0761,50.3152],[12.1013,50.314],[12.1685,50.303],[12.178,50.2688],[12.243,50.253],[12.2325,50.2325],[12.2585,50.2109],[12.2834,50.1622],[12.3144,50.1673],[12.3056,50.1993],[12.3365,50.2586],[12.3672,50.2791],[12.3982,50.3152],[12.469,50.3456],[12.4751,50.3694],[12.5102,50.3888],[12.5505,50.3964],[12.6254,50.3999],[12.6788,50.3937],[12.7542,50.4353],[12.8258,50.4414],[12.9184,50.4054],[12.9606,50.4092],[12.9966,50.4337],[13.0096,50.4927],[13.0698,50.4911],[13.1074,50.499],[13.1601,50.497],[13.1991,50.5253],[13.2323,50.582],[13.2846,50.569],[13.3056,50.5758],[13.3219,50.6024],[13.381,50.6255],[13.407,50.6013],[13.4479,50.5973],[13.4982,50.6292],[13.4933,50.6432],[13.5233,50.6622],[13.5156,50.691],[13.5566,50.7067],[13.6019,50.7122],[13.6918,50.7118],[13.7491,50.7232],[13.8345,50.7237],[13.8822,50.7427],[13.8925,50.7804],[13.9233,50.78],[13.9596,50.8021],[14.0349,50.8026],[14.1908,50.8479],[14.2321,50.8794],[14.2681,50.8841],[14.3465,50.8802],[14.3759,50.896],[14.3819,50.9209],[14.3183,50.9375],[14.2928,50.9535],[14.3038,50.9697],[14.2383,50.9825],[14.2636,51.0214],[14.2875,51.0368],[14.3566,51.0323],[14.3978,51.0131],[14.4621,51.0197],[14.4821,51.0372],[14.4935,51.0167],[14.5423,50.9987],[14.5743,50.9755],[14.5756,50.9507],[14.5504,50.9121],[14.5618,50.9064],[14.6171,50.9209],[14.6346,50.9094],[14.6083,50.8531],[14.7004,50.816],[14.7754,50.813],[14.8104,50.8584],[14.8679,50.8644],[14.9821,50.8591],[14.9849,50.9181],[14.9966,50.9592],[14.961,50.9927],[14.9965,51.0078],[15.0736,51.0026],[15.1079,50.981],[15.1315,51.0058],[15.1561,51.0078],[15.1702,50.978],[15.2271,50.9774],[15.2698,50.9527],[15.2531,50.9141],[15.2878,50.8549],[15.341,50.8317],[15.353,50.813],[15.3497,50.7837],[15.3703,50.7726],[15.4001,50.798],[15.4418,50.8002],[15.5221,50.7824],[15.6419,50.7558],[15.6843,50.7314],[15.7674,50.7442],[15.7976,50.7298],[15.8482,50.6752],[15.8823,50.6742],[15.9415,50.6884],[15.9715,50.6786],[15.9932,50.6494],[15.9964,50.6237],[15.982,50.6036],[16.0245,50.6086],[16.0865,50.6468],[16.1287,50.644],[16.1755,50.6241],[16.2045,50.6363],[16.2191,50.6591],[16.2683,50.6604],[16.3316,50.644],[16.4168,50.5866],[16.4259,50.5676],[16.3945,50.5593],[16.3912,50.5218],[16.3526,50.4928],[16.3034,50.496],[16.28,50.4799],[16.2112,50.4513],[16.1902,50.4242],[16.1996,50.4063],[16.232,50.4026],[16.2625,50.3644],[16.3342,50.3719],[16.3508,50.3606],[16.3532,50.3335],[16.371,50.3184],[16.4378,50.298],[16.5048,50.228],[16.535,50.2077],[16.5573,50.1547],[16.5842,50.1274],[16.6606,50.093],[16.7012,50.0949],[16.7543,50.1323],[16.7953,50.1744],[16.8177,50.1868],[16.8698,50.1897],[16.919,50.2171],[16.9553,50.2135],[16.9603,50.232],[17.0084,50.21],[16.9878,50.2849],[16.9265,50.3193],[16.8979,50.3782],[16.8659,50.4084],[16.893,50.4329],[16.944,50.4203],[17.0847,50.398],[17.1189,50.3812],[17.1876,50.3785],[17.201,50.3432],[17.2461,50.3221],[17.3168,50.3186],[17.3341,50.2957],[17.3348,50.27],[17.355,50.2533],[17.388,50.2726],[17.4191,50.2427],[17.44,50.2427],[17.4694,50.2656],[17.517,50.2684],[17.6064,50.2582],[17.6467,50.2711],[17.6845,50.3124],[17.708,50.311],[17.7345,50.2895],[17.7214,50.2427],[17.7476,50.2175],[17.7382,50.2024],[17.6753,50.1747],[17.5894,50.1632],[17.5842,50.1459],[17.6328,50.1063],[17.6776,50.1077],[17.732,50.0949],[17.7195,50.0809],[17.743,50.0606],[17.7633,50.0252],[17.8394,49.9736],[17.8757,49.9687],[17.9121,49.9758],[17.9416,49.9928],[17.9999,49.9966],[18.0375,50.0072],[18.0069,50.0241],[18.0191,50.0441],[18.0916,50.0172],[18.0982,49.989],[18.162,49.9812],[18.2087,49.9583],[18.2559,49.946],[18.2925,49.9078],[18.3688,49.932],[18.4818,49.8966],[18.5444,49.913],[18.5592,49.9072],[18.5673,49.8615],[18.5938,49.8522],[18.5663,49.8316],[18.5668,49.8048],[18.6077,49.743],[18.6177,49.7139],[18.6373,49.7003],[18.6824,49.6958],[18.7277,49.6689],[18.7735,49.6758],[18.7926,49.6608],[18.7993,49.6264],[18.8345,49.5476],[18.8332,49.5103],[18.7736,49.5049],[18.7325,49.4803],[18.7045,49.4793],[18.6428,49.4958],[18.6004,49.486],[18.5562,49.4902],[18.5356,49.4817],[18.5147,49.4406],[18.4818,49.4291],[18.4168,49.3855],[18.387,49.3776],[18.3852,49.3423],[18.3616,49.3302],[18.3246,49.3113],[18.19,49.2769],[18.1365,49.2331],[18.1051,49.1698],[18.1029,49.0923],[18.0755,49.0472],[18.0129,49.0191],[17.9592,49.0219],[17.9141,49.0105],[17.8869,48.9472],[17.8603,48.9217],[17.7955,48.9206],[17.7272,48.8629],[17.646,48.8418],[17.5351,48.813],[17.4985,48.8168],[17.4533,48.8428],[17.4112,48.8302],[17.3744,48.8196],[17.2603,48.8578],[17.2122,48.8661],[17.1675,48.8598],[17.1137,48.8339],[17.0987,48.8058],[17.0499,48.774],[17.0253,48.7463],[16.9748,48.6499],[16.9475,48.6232],[16.945,48.6042],[16.9105,48.6308],[16.8967,48.697],[16.873,48.719],[16.7989,48.7092],[16.729,48.7331],[16.662,48.74],[16.6431,48.7783],[16.5103,48.8048],[16.4357,48.7945],[16.385,48.7371],[16.3583,48.7273],[16.1778,48.7465],[16.0854,48.7429],[16.0323,48.7581],[15.9081,48.8197],[15.886,48.842],[15.8401,48.8501],[15.8185,48.8723],[15.7792,48.8709],[15.7268,48.855],[15.6813,48.8585],[15.6037,48.8874],[15.5442,48.9026],[15.4719,48.9367],[15.3355,48.975],[15.2629,48.9826],[15.2381,48.9508],[15.1419,48.9375],[15.149,48.9653],[15.1374,48.993],[15.0596,48.9972],[14.9821,49.0079],[14.9646,48.9717],[14.9682,48.885],[14.9381,48.8028],[14.9511,48.7803],[14.9193,48.7616],[14.8677,48.7756],[14.8004,48.7765],[14.7754,48.724],[14.7227,48.6934],[14.7038,48.6731],[14.7007,48.6155],[14.6911,48.5865],[14.6592,48.577],[14.6347,48.6023],[14.6019,48.6045],[14.5788,48.6205],[14.522,48.6106],[14.4821,48.6245],[14.4582,48.6432],[14.4436,48.6365],[14.4054,48.5863],[14.3157,48.5579],[14.2165,48.5812],[14.0748,48.5917],[14.0408,48.6012],[14.0062,48.6395],[14.0329,48.6549],[13.9823,48.7065],[13.915,48.731],[13.8559,48.7593],[13.8157,48.7664],[13.7962,48.7798],[13.7247,48.8673],[13.6544,48.8822],[13.6218,48.9091],[13.6087,48.9462],[13.5905,48.9448],[13.5224,48.9693],[13.5021,48.9661],[13.4823,48.9376],[13.4273,48.96],[13.3842,48.993],[13.3724,49.0385],[13.2995,49.0936],[13.2673,49.1056],[13.2068,49.1075],[13.1785,49.1183],[13.1495,49.1548],[13.0558,49.2382],[13.0113,49.2678],[12.9998,49.2949],[12.9229,49.3327],[12.8847,49.3396],[12.8754,49.3239],[12.7978,49.3278],[12.7621,49.3432],[12.7293,49.3911],[12.6435,49.4295],[12.6272,49.4602],[12.623,49.5098],[12.5937,49.515],[12.5623,49.5508],[12.5536,49.5847],[12.502,49.6197],[12.4964,49.67],[12.4196,49.7002],[12.3836,49.7429],[12.3954,49.7579],[12.4527,49.7797],[12.4625,49.8312],[12.4825,49.8272],[12.5129,49.8702],[12.5241,49.905]]]}},
{"type":"Feature","properties":{"entityId":"bohemia-kingdom","from":1251,"to":1261,"certainty":"estimated","source":"유럽 쪽은 Natural Earth 1:10m admin-1(v5.1.2) 현대 행정구역 조각을 그 시기 국경에 맞춰 묶고, 조각이 역사 경계와 다른 곳은 선을 그어 나눈 근사. 유럽 밖(시베리아·중앙아시아·극동)은 대략적인 추정. 운영자 검수 필요"},"geometry":{"type":"Polygon","coordinates":[[[16.945,48.6042],[16.9491,48.5448],[16.9139,48.5193],[16.8608,48.4438],[16.8445,48.3656],[16.9019,48.3394],[16.8984,48.3162],[16.9166,48.2908],[16.9506,48.2766],[16.9819,48.1613],[17.0072,48.1428],[17.0475,48.131],[17.0625,48.1127],[17.0344,48.1],[17.0035,48.1091],[16.983,48.0978],[16.9829,48.0682],[16.9623,48.0458],[16.9002,48.0721],[16.8566,48.0632],[16.7738,48.0298],[16.7504,48.0295],[16.7045,48.0092],[16.6803,47.9715],[16.6123,47.9332],[16.5732,47.9198],[16.5031,47.9353],[16.4393,47.9281],[16.3909,47.9029],[16.36,47.8718],[16.358,47.833],[16.3242,47.7964],[16.2897,47.7936],[16.2893,47.7325],[16.3125,47.7025],[16.3758,47.6449],[16.3212,47.5717],[16.3245,47.5013],[16.2722,47.4634],[16.2309,47.4455],[16.1479,47.443],[16.1135,47.4634],[16.0804,47.5165],[16.0472,47.5062],[15.9983,47.5238],[15.9167,47.5332],[15.8923,47.572],[15.8661,47.5854],[15.8279,47.5889],[15.8287,47.6321],[15.7969,47.6454],[15.7432,47.6367],[15.7261,47.6902],[15.7143,47.7019],[15.6718,47.7042],[15.6386,47.7174],[15.6062,47.7435],[15.5387,47.7474],[15.5001,47.7663],[15.4175,47.7935],[15.3754,47.8196],[15.3391,47.8254],[15.2779,47.8152],[15.2297,47.8193],[15.1871,47.7804],[15.0561,47.7508],[15.0147,47.7524],[14.9296,47.7269],[14.8834,47.7247],[14.8382,47.7505],[14.7341,47.7502],[14.6993,47.7689],[14.6356,47.7343],[14.4916,47.6954],[14.477,47.6783],[14.4172,47.6588],[14.3473,47.6257],[14.2934,47.6205],[14.2514,47.6312],[14.195,47.6577],[14.0861,47.6361],[14.0597,47.626],[14.0421,47.6624],[13.9967,47.6986],[13.9527,47.6945],[13.8233,47.7205],[13.7165,47.6845],[13.6872,47.664],[13.6814,47.5976],[13.7303,47.546],[13.7354,47.5163],[13.7243,47.498],[13.6744,47.4742],[13.5818,47.4864],[13.5242,47.5112],[13.4889,47.5358],[13.4791,47.5644],[13.5056,47.6029],[13.489,47.6415],[13.5256,47.7175],[13.5132,47.7354],[13.4581,47.7474],[13.4533,47.77],[13.5087,47.7732],[13.521,47.7835],[13.4976,47.7979],[13.3168,47.825],[13.2919,47.8406],[13.2713,47.9122],[13.2763,47.9523],[13.2953,47.9693],[13.3509,47.9655],[13.361,47.9806],[13.3029,48.0099],[13.2347,47.9889],[13.1389,47.9872],[13.0899,48.0003],[13.0359,48.0309],[12.9684,48.0316],[12.9375,48.0213],[12.9271,48.0018],[12.8482,47.9824],[12.8306,48.0155],[12.7602,48.0649],[12.737,48.1],[12.745,48.1206],[12.8221,48.1607],[12.8776,48.202],[12.933,48.2093],[13.0328,48.2636],[13.1364,48.2911],[13.2742,48.3071],[13.3078,48.3196],[13.4056,48.3766],[13.4382,48.441],[13.4364,48.4692],[13.4564,48.5067],[13.4401,48.561],[13.4546,48.5734],[13.5207,48.5846],[13.6244,48.5654],[13.6734,48.5355],[13.7165,48.5217],[13.7339,48.5598],[13.766,48.5638],[13.8024,48.6117],[13.8009,48.6752],[13.8169,48.6956],[13.7859,48.7248],[13.8157,48.7664],[13.7962,48.7798],[13.7247,48.8673],[13.6544,48.8822],[13.6218,48.9091],[13.6087,48.9462],[13.5905,48.9448],[13.5224,48.9693],[13.5021,48.9661],[13.4823,48.9376],[13.4273,48.96],[13.3842,48.993],[13.3724,49.0385],[13.2995,49.0936],[13.2673,49.1056],[13.2068,49.1075],[13.1785,49.1183],[13.1495,49.1548],[13.0558,49.2382],[13.0113,49.2678],[12.9998,49.2949],[12.9229,49.3327],[12.8847,49.3396],[12.8754,49.3239],[12.7978,49.3278],[12.7621,49.3432],[12.7293,49.3911],[12.6435,49.4295],[12.6272,49.4602],[12.623,49.5098],[12.5937,49.515],[12.5623,49.5508],[12.5536,49.5847],[12.502,49.6197],[12.4964,49.67],[12.4196,49.7002],[12.3836,49.7429],[12.3954,49.7579],[12.4527,49.7797],[12.4625,49.8312],[12.4825,49.8272],[12.5129,49.8702],[12.5241,49.905],[12.4627,49.9313],[12.4682,49.9702],[12.2469,50.045],[12.2325,50.0805],[12.1879,50.1028],[12.1792,50.118],[12.1827,50.1707],[12.1393,50.211],[12.0796,50.2427],[12.1091,50.2638],[12.1073,50.2909],[12.0761,50.3152],[12.1013,50.314],[12.1685,50.303],[12.178,50.2688],[12.243,50.253],[12.2325,50.2325],[12.2585,50.2109],[12.2834,50.1622],[12.3144,50.1673],[12.3056,50.1993],[12.3365,50.2586],[12.3672,50.2791],[12.3982,50.3152],[12.469,50.3456],[12.4751,50.3694],[12.5102,50.3888],[12.5505,50.3964],[12.6254,50.3999],[12.6788,50.3937],[12.7542,50.4353],[12.8258,50.4414],[12.9184,50.4054],[12.9606,50.4092],[12.9966,50.4337],[13.0096,50.4927],[13.0698,50.4911],[13.1074,50.499],[13.1601,50.497],[13.1991,50.5253],[13.2323,50.582],[13.2846,50.569],[13.3056,50.5758],[13.3219,50.6024],[13.381,50.6255],[13.407,50.6013],[13.4479,50.5973],[13.4982,50.6292],[13.4933,50.6432],[13.5233,50.6622],[13.5156,50.691],[13.5566,50.7067],[13.6019,50.7122],[13.6918,50.7118],[13.7491,50.7232],[13.8345,50.7237],[13.8822,50.7427],[13.8925,50.7804],[13.9233,50.78],[13.9596,50.8021],[14.0349,50.8026],[14.1908,50.8479],[14.2321,50.8794],[14.2681,50.8841],[14.3465,50.8802],[14.3759,50.896],[14.3819,50.9209],[14.3183,50.9375],[14.2928,50.9535],[14.3038,50.9697],[14.2383,50.9825],[14.2636,51.0214],[14.2875,51.0368],[14.3566,51.0323],[14.3978,51.0131],[14.4621,51.0197],[14.4821,51.0372],[14.4935,51.0167],[14.5423,50.9987],[14.5743,50.9755],[14.5756,50.9507],[14.5504,50.9121],[14.5618,50.9064],[14.6171,50.9209],[14.6346,50.9094],[14.6083,50.8531],[14.7004,50.816],[14.7754,50.813],[14.8104,50.8584],[14.8679,50.8644],[14.9821,50.8591],[14.9849,50.9181],[14.9966,50.9592],[14.961,50.9927],[14.9965,51.0078],[15.0736,51.0026],[15.1079,50.981],[15.1315,51.0058],[15.1561,51.0078],[15.1702,50.978],[15.2271,50.9774],[15.2698,50.9527],[15.2531,50.9141],[15.2878,50.8549],[15.341,50.8317],[15.353,50.813],[15.3497,50.7837],[15.3703,50.7726],[15.4001,50.798],[15.4418,50.8002],[15.5221,50.7824],[15.6419,50.7558],[15.6843,50.7314],[15.7674,50.7442],[15.7976,50.7298],[15.8482,50.6752],[15.8823,50.6742],[15.9415,50.6884],[15.9715,50.6786],[15.9932,50.6494],[15.9964,50.6237],[15.982,50.6036],[16.0245,50.6086],[16.0865,50.6468],[16.1287,50.644],[16.1755,50.6241],[16.2045,50.6363],[16.2191,50.6591],[16.2683,50.6604],[16.3316,50.644],[16.4168,50.5866],[16.4259,50.5676],[16.3945,50.5593],[16.3912,50.5218],[16.3526,50.4928],[16.3034,50.496],[16.28,50.4799],[16.2112,50.4513],[16.1902,50.4242],[16.1996,50.4063],[16.232,50.4026],[16.2625,50.3644],[16.3342,50.3719],[16.3508,50.3606],[16.3532,50.3335],[16.371,50.3184],[16.4378,50.298],[16.5048,50.228],[16.535,50.2077],[16.5573,50.1547],[16.5842,50.1274],[16.6606,50.093],[16.7012,50.0949],[16.7543,50.1323],[16.7953,50.1744],[16.8177,50.1868],[16.8698,50.1897],[16.919,50.2171],[16.9553,50.2135],[16.9603,50.232],[17.0084,50.21],[16.9878,50.2849],[16.9265,50.3193],[16.8979,50.3782],[16.8659,50.4084],[16.893,50.4329],[16.944,50.4203],[17.0847,50.398],[17.1189,50.3812],[17.1876,50.3785],[17.201,50.3432],[17.2461,50.3221],[17.3168,50.3186],[17.3341,50.2957],[17.3348,50.27],[17.355,50.2533],[17.388,50.2726],[17.4191,50.2427],[17.44,50.2427],[17.4694,50.2656],[17.517,50.2684],[17.6064,50.2582],[17.6467,50.2711],[17.6845,50.3124],[17.708,50.311],[17.7345,50.2895],[17.7214,50.2427],[17.7476,50.2175],[17.7382,50.2024],[17.6753,50.1747],[17.5894,50.1632],[17.5842,50.1459],[17.6328,50.1063],[17.6776,50.1077],[17.732,50.0949],[17.7195,50.0809],[17.743,50.0606],[17.7633,50.0252],[17.8394,49.9736],[17.8757,49.9687],[17.9121,49.9758],[17.9416,49.9928],[17.9999,49.9966],[18.0375,50.0072],[18.0069,50.0241],[18.0191,50.0441],[18.0916,50.0172],[18.0982,49.989],[18.162,49.9812],[18.2087,49.9583],[18.2559,49.946],[18.2925,49.9078],[18.3688,49.932],[18.4818,49.8966],[18.5444,49.913],[18.5592,49.9072],[18.5673,49.8615],[18.5938,49.8522],[18.5663,49.8316],[18.5668,49.8048],[18.6077,49.743],[18.6177,49.7139],[18.6373,49.7003],[18.6824,49.6958],[18.7277,49.6689],[18.7735,49.6758],[18.7926,49.6608],[18.7993,49.6264],[18.8345,49.5476],[18.8332,49.5103],[18.7736,49.5049],[18.7325,49.4803],[18.7045,49.4793],[18.6428,49.4958],[18.6004,49.486],[18.5562,49.4902],[18.5356,49.4817],[18.5147,49.4406],[18.4818,49.4291],[18.4168,49.3855],[18.387,49.3776],[18.3852,49.3423],[18.3616,49.3302],[18.3246,49.3113],[18.19,49.2769],[18.1365,49.2331],[18.1051,49.1698],[18.1029,49.0923],[18.0755,49.0472],[18.0129,49.0191],[17.9592,49.0219],[17.9141,49.0105],[17.8869,48.9472],[17.8603,48.9217],[17.7955,48.9206],[17.7272,48.8629],[17.646,48.8418],[17.5351,48.813],[17.4985,48.8168],[17.4533,48.8428],[17.4112,48.8302],[17.3744,48.8196],[17.2603,48.8578],[17.2122,48.8661],[17.1675,48.8598],[17.1137,48.8339],[17.0987,48.8058],[17.0499,48.774],[17.0253,48.7463],[16.9748,48.6499],[16.9475,48.6232],[16.945,48.6042]]]}},
{"type":"Feature","properties":{"entityId":"bohemia-kingdom","from":1261,"to":1269,"certainty":"estimated","source":"유럽 쪽은 Natural Earth 1:10m admin-1(v5.1.2) 현대 행정구역 조각을 그 시기 국경에 맞춰 묶고, 조각이 역사 경계와 다른 곳은 선을 그어 나눈 근사. 유럽 밖(시베리아·중앙아시아·극동)은 대략적인 추정. 운영자 검수 필요"},"geometry":{"type":"Polygon","coordinates":[[[16.945,48.6042],[16.9491,48.5448],[16.9139,48.5193],[16.8608,48.4438],[16.8445,48.3656],[16.9019,48.3394],[16.8984,48.3162],[16.9166,48.2908],[16.9506,48.2766],[16.9819,48.1613],[17.0072,48.1428],[17.0475,48.131],[17.0625,48.1127],[17.0344,48.1],[17.0035,48.1091],[16.983,48.0978],[16.9829,48.0682],[16.9623,48.0458],[16.9002,48.0721],[16.8566,48.0632],[16.7738,48.0298],[16.7504,48.0295],[16.7045,48.0092],[16.6803,47.9715],[16.6123,47.9332],[16.5732,47.9198],[16.5031,47.9353],[16.4393,47.9281],[16.3909,47.9029],[16.36,47.8718],[16.358,47.833],[16.3242,47.7964],[16.2897,47.7936],[16.2893,47.7325],[16.3125,47.7025],[16.3758,47.6449],[16.3212,47.5717],[16.3245,47.5013],[16.2722,47.4634],[16.2309,47.4455],[16.1479,47.443],[16.0717,47.3949],[16.0475,47.4106],[16.02,47.3724],[16.0584,47.2911],[16.0675,47.2376],[16.095,47.1651],[16.0844,47.1069],[16.0895,47.0829],[16.1347,47.0402],[16.1363,47.0249],[16.0545,46.9442],[16.0115,46.9133],[16.0037,46.8707],[16.0284,46.8369],[16.032,46.8376],[16.0529,46.8461],[16.094,46.8628],[16.1302,46.8567],[16.1354,46.8558],[16.1795,46.8585],[16.272,46.864],[16.2822,46.8599],[16.2974,46.847],[16.3019,46.8432],[16.3107,46.84],[16.3253,46.8394],[16.3298,46.8344],[16.3275,46.8255],[16.3218,46.8133],[16.3149,46.802],[16.3111,46.7975],[16.3022,46.787],[16.2995,46.7795],[16.2982,46.7758],[16.3142,46.7433],[16.3434,46.7142],[16.3573,46.7158],[16.3576,46.699],[16.3654,46.6967],[16.3662,46.6965],[16.3714,46.6949],[16.39,46.6942],[16.405,46.6873],[16.4105,46.6684],[16.4026,46.6631],[16.3967,46.6591],[16.3776,46.6529],[16.3684,46.643],[16.3722,46.6363],[16.3764,46.6291],[16.3946,46.619],[16.4302,46.6044],[16.4671,46.5647],[16.5008,46.5448],[16.5153,46.5017],[16.4911,46.5151],[16.4708,46.5203],[16.4404,46.519],[16.432,46.5232],[16.4152,46.5356],[16.4063,46.5395],[16.3695,46.5406],[16.3579,46.547],[16.3517,46.5395],[16.3441,46.547],[16.3403,46.5438],[16.33,46.5355],[16.3107,46.531],[16.3015,46.5271],[16.2954,46.5244],[16.2639,46.5159],[16.2609,46.5136],[16.2349,46.4933],[16.2342,46.4849],[16.2375,46.4651],[16.2494,46.4375],[16.2482,46.4133],[16.257,46.3999],[16.2741,46.3921],[16.2799,46.3787],[16.2756,46.3732],[16.2528,46.3734],[16.2171,46.3674],[16.1918,46.3698],[16.1775,46.3756],[16.1536,46.3914],[16.1316,46.3931],[16.106,46.3737],[16.0887,46.3731],[16.058,46.3775],[16.0574,46.3597],[16.0597,46.3453],[16.0596,46.3323],[16.0524,46.3186],[16.0499,46.3167],[16.0389,46.3084],[16.0192,46.2988],[15.9937,46.2906],[15.9487,46.2842],[15.9189,46.2728],[15.8837,46.2594],[15.8809,46.2593],[15.8793,46.2593],[15.8342,46.2584],[15.8183,46.2555],[15.8031,46.2505],[15.7995,46.2486],[15.7891,46.2431],[15.7689,46.2194],[15.7498,46.2108],[15.678,46.2145],[15.6613,46.2153],[15.6398,46.2077],[15.6266,46.1952],[15.6229,46.1917],[15.6043,46.167],[15.59,46.1387],[15.5899,46.1135],[15.6038,46.091],[15.6235,46.0764],[15.6236,46.0764],[15.6315,46.0706],[15.6437,46.0655],[15.6717,46.0574],[15.6839,46.0511],[15.6929,46.0416],[15.6926,46.0416],[15.6846,46.04],[15.6678,46.0264],[15.6238,46.0037],[15.5976,45.9945],[15.5837,45.994],[15.5686,45.9978],[15.5647,46],[15.5639,46.0046],[15.5594,46.0171],[15.5484,46.0441],[15.5377,46.0526],[15.5249,46.0593],[15.5174,46.0599],[15.4926,46.0677],[15.4184,46.0633],[15.3684,46.0721],[15.3168,46.0687],[15.2921,46.059],[15.2688,46.0796],[15.2539,46.0833],[15.2035,46.0837],[15.1937,46.0785],[15.2049,46.0664],[15.2019,46.0608],[15.1634,46.0925],[15.1284,46.086],[15.1063,46.0935],[15.0974,46.1074],[15.0881,46.1137],[15.0809,46.1159],[15.0684,46.1292],[15.0651,46.1365],[15.0705,46.1497],[15.084,46.1656],[15.102,46.1739],[15.1133,46.1834],[15.111,46.1873],[15.0777,46.1844],[15.0451,46.1933],[15.0184,46.1912],[14.9999,46.199],[15.0128,46.1822],[14.9928,46.1733],[14.9878,46.1665],[14.9991,46.1681],[15.0134,46.1559],[15.0271,46.1402],[15.0313,46.1259],[15.0147,46.1167],[14.9999,46.1191],[14.9762,46.1122],[14.9591,46.1011],[14.947,46.0962],[14.9113,46.0929],[14.9034,46.0957],[14.8924,46.1089],[14.8939,46.1247],[14.8818,46.1292],[14.8393,46.1296],[14.8348,46.137],[14.8396,46.1414],[14.8406,46.149],[14.8284,46.1603],[14.8199,46.1719],[14.8857,46.1773],[14.8927,46.1792],[14.9017,46.191],[14.8989,46.2087],[14.9101,46.2105],[14.9301,46.2188],[14.8849,46.2405],[14.8548,46.2529],[14.8112,46.2544],[14.7887,46.253],[14.753,46.2543],[14.7141,46.2631],[14.704,46.2698],[14.7057,46.2869],[14.7313,46.3108],[14.7808,46.3385],[14.8069,46.3885],[14.8091,46.3991],[14.8056,46.4088],[14.8041,46.4251],[14.7757,46.4319],[14.7699,46.4313],[14.7546,46.4215],[14.7337,46.4424],[14.7221,46.448],[14.6758,46.4543],[14.6725,46.4598],[14.68,46.4589],[14.6871,46.4712],[14.7097,46.4925],[14.7264,46.4977],[14.7353,46.4933],[14.7609,46.4963],[14.7886,46.5066],[14.7967,46.5194],[14.8072,46.536],[14.8145,46.5513],[14.8223,46.5675],[14.8336,46.5844],[14.8504,46.6011],[14.863,46.6048],[14.8771,46.6036],[14.8941,46.6052],[14.8977,46.6056],[14.9195,46.615],[14.9336,46.6211],[14.948,46.6193],[14.9672,46.6003],[15.0044,46.6368],[15.062,46.6496],[15.0857,46.6478],[15.1056,46.6463],[15.0347,46.7033],[15.0203,46.7606],[14.9869,46.8422],[15.0063,46.8813],[15.0083,46.9112],[14.9296,46.9936],[14.8902,47.0268],[14.8499,47.0413],[14.7391,47.0233],[14.616,47.0168],[14.589,47.0244],[14.4966,47.023],[14.3946,46.9982],[14.2668,47.0292],[14.2006,47.0567],[14.1359,47.0535],[14.0267,47.0175],[13.9789,46.973],[13.9415,46.9606],[13.8799,46.9278],[13.8439,46.9227],[13.7823,46.9542],[13.8206,46.9878],[13.8637,47.0423],[13.8802,47.0727],[13.8799,47.1054],[13.9372,47.1506],[13.9317,47.1694],[13.9018,47.1839],[13.8608,47.222],[13.8482,47.2504],[13.7967,47.3021],[13.6941,47.2745],[13.6307,47.3056],[13.6045,47.3425],[13.5748,47.4099],[13.5652,47.4454],[13.5818,47.4864],[13.5242,47.5112],[13.4889,47.5358],[13.4791,47.5644],[13.5056,47.6029],[13.489,47.6415],[13.5256,47.7175],[13.5132,47.7354],[13.4581,47.7474],[13.4533,47.77],[13.5087,47.7732],[13.521,47.7835],[13.4976,47.7979],[13.3168,47.825],[13.2919,47.8406],[13.2713,47.9122],[13.2763,47.9523],[13.2953,47.9693],[13.3509,47.9655],[13.361,47.9806],[13.3029,48.0099],[13.2347,47.9889],[13.1389,47.9872],[13.0899,48.0003],[13.0359,48.0309],[12.9684,48.0316],[12.9375,48.0213],[12.9271,48.0018],[12.8482,47.9824],[12.8306,48.0155],[12.7602,48.0649],[12.737,48.1],[12.745,48.1206],[12.8221,48.1607],[12.8776,48.202],[12.933,48.2093],[13.0328,48.2636],[13.1364,48.2911],[13.2742,48.3071],[13.3078,48.3196],[13.4056,48.3766],[13.4382,48.441],[13.4364,48.4692],[13.4564,48.5067],[13.4401,48.561],[13.4546,48.5734],[13.5207,48.5846],[13.6244,48.5654],[13.6734,48.5355],[13.7165,48.5217],[13.7339,48.5598],[13.766,48.5638],[13.8024,48.6117],[13.8009,48.6752],[13.8169,48.6956],[13.7859,48.7248],[13.8157,48.7664],[13.7962,48.7798],[13.7247,48.8673],[13.6544,48.8822],[13.6218,48.9091],[13.6087,48.9462],[13.5905,48.9448],[13.5224,48.9693],[13.5021,48.9661],[13.4823,48.9376],[13.4273,48.96],[13.3842,48.993],[13.3724,49.0385],[13.2995,49.0936],[13.2673,49.1056],[13.2068,49.1075],[13.1785,49.1183],[13.1495,49.1548],[13.0558,49.2382],[13.0113,49.2678],[12.9998,49.2949],[12.9229,49.3327],[12.8847,49.3396],[12.8754,49.3239],[12.7978,49.3278],[12.7621,49.3432],[12.7293,49.3911],[12.6435,49.4295],[12.6272,49.4602],[12.623,49.5098],[12.5937,49.515],[12.5623,49.5508],[12.5536,49.5847],[12.502,49.6197],[12.4964,49.67],[12.4196,49.7002],[12.3836,49.7429],[12.3954,49.7579],[12.4527,49.7797],[12.4625,49.8312],[12.4825,49.8272],[12.5129,49.8702],[12.5241,49.905],[12.4627,49.9313],[12.4682,49.9702],[12.2469,50.045],[12.2325,50.0805],[12.1879,50.1028],[12.1792,50.118],[12.1827,50.1707],[12.1393,50.211],[12.0796,50.2427],[12.1091,50.2638],[12.1073,50.2909],[12.0761,50.3152],[12.1013,50.314],[12.1685,50.303],[12.178,50.2688],[12.243,50.253],[12.2325,50.2325],[12.2585,50.2109],[12.2834,50.1622],[12.3144,50.1673],[12.3056,50.1993],[12.3365,50.2586],[12.3672,50.2791],[12.3982,50.3152],[12.469,50.3456],[12.4751,50.3694],[12.5102,50.3888],[12.5505,50.3964],[12.6254,50.3999],[12.6788,50.3937],[12.7542,50.4353],[12.8258,50.4414],[12.9184,50.4054],[12.9606,50.4092],[12.9966,50.4337],[13.0096,50.4927],[13.0698,50.4911],[13.1074,50.499],[13.1601,50.497],[13.1991,50.5253],[13.2323,50.582],[13.2846,50.569],[13.3056,50.5758],[13.3219,50.6024],[13.381,50.6255],[13.407,50.6013],[13.4479,50.5973],[13.4982,50.6292],[13.4933,50.6432],[13.5233,50.6622],[13.5156,50.691],[13.5566,50.7067],[13.6019,50.7122],[13.6918,50.7118],[13.7491,50.7232],[13.8345,50.7237],[13.8822,50.7427],[13.8925,50.7804],[13.9233,50.78],[13.9596,50.8021],[14.0349,50.8026],[14.1908,50.8479],[14.2321,50.8794],[14.2681,50.8841],[14.3465,50.8802],[14.3759,50.896],[14.3819,50.9209],[14.3183,50.9375],[14.2928,50.9535],[14.3038,50.9697],[14.2383,50.9825],[14.2636,51.0214],[14.2875,51.0368],[14.3566,51.0323],[14.3978,51.0131],[14.4621,51.0197],[14.4821,51.0372],[14.4935,51.0167],[14.5423,50.9987],[14.5743,50.9755],[14.5756,50.9507],[14.5504,50.9121],[14.5618,50.9064],[14.6171,50.9209],[14.6346,50.9094],[14.6083,50.8531],[14.7004,50.816],[14.7754,50.813],[14.8104,50.8584],[14.8679,50.8644],[14.9821,50.8591],[14.9849,50.9181],[14.9966,50.9592],[14.961,50.9927],[14.9965,51.0078],[15.0736,51.0026],[15.1079,50.981],[15.1315,51.0058],[15.1561,51.0078],[15.1702,50.978],[15.2271,50.9774],[15.2698,50.9527],[15.2531,50.9141],[15.2878,50.8549],[15.341,50.8317],[15.353,50.813],[15.3497,50.7837],[15.3703,50.7726],[15.4001,50.798],[15.4418,50.8002],[15.5221,50.7824],[15.6419,50.7558],[15.6843,50.7314],[15.7674,50.7442],[15.7976,50.7298],[15.8482,50.6752],[15.8823,50.6742],[15.9415,50.6884],[15.9715,50.6786],[15.9932,50.6494],[15.9964,50.6237],[15.982,50.6036],[16.0245,50.6086],[16.0865,50.6468],[16.1287,50.644],[16.1755,50.6241],[16.2045,50.6363],[16.2191,50.6591],[16.2683,50.6604],[16.3316,50.644],[16.4168,50.5866],[16.4259,50.5676],[16.3945,50.5593],[16.3912,50.5218],[16.3526,50.4928],[16.3034,50.496],[16.28,50.4799],[16.2112,50.4513],[16.1902,50.4242],[16.1996,50.4063],[16.232,50.4026],[16.2625,50.3644],[16.3342,50.3719],[16.3508,50.3606],[16.3532,50.3335],[16.371,50.3184],[16.4378,50.298],[16.5048,50.228],[16.535,50.2077],[16.5573,50.1547],[16.5842,50.1274],[16.6606,50.093],[16.7012,50.0949],[16.7543,50.1323],[16.7953,50.1744],[16.8177,50.1868],[16.8698,50.1897],[16.919,50.2171],[16.9553,50.2135],[16.9603,50.232],[17.0084,50.21],[16.9878,50.2849],[16.9265,50.3193],[16.8979,50.3782],[16.8659,50.4084],[16.893,50.4329],[16.944,50.4203],[17.0847,50.398],[17.1189,50.3812],[17.1876,50.3785],[17.201,50.3432],[17.2461,50.3221],[17.3168,50.3186],[17.3341,50.2957],[17.3348,50.27],[17.355,50.2533],[17.388,50.2726],[17.4191,50.2427],[17.44,50.2427],[17.4694,50.2656],[17.517,50.2684],[17.6064,50.2582],[17.6467,50.2711],[17.6845,50.3124],[17.708,50.311],[17.7345,50.2895],[17.7214,50.2427],[17.7476,50.2175],[17.7382,50.2024],[17.6753,50.1747],[17.5894,50.1632],[17.5842,50.1459],[17.6328,50.1063],[17.6776,50.1077],[17.732,50.0949],[17.7195,50.0809],[17.743,50.0606],[17.7633,50.0252],[17.8394,49.9736],[17.8757,49.9687],[17.9121,49.9758],[17.9416,49.9928],[17.9999,49.9966],[18.0375,50.0072],[18.0069,50.0241],[18.0191,50.0441],[18.0916,50.0172],[18.0982,49.989],[18.162,49.9812],[18.2087,49.9583],[18.2559,49.946],[18.2925,49.9078],[18.3688,49.932],[18.4818,49.8966],[18.5444,49.913],[18.5592,49.9072],[18.5673,49.8615],[18.5938,49.8522],[18.5663,49.8316],[18.5668,49.8048],[18.6077,49.743],[18.6177,49.7139],[18.6373,49.7003],[18.6824,49.6958],[18.7277,49.6689],[18.7735,49.6758],[18.7926,49.6608],[18.7993,49.6264],[18.8345,49.5476],[18.8332,49.5103],[18.7736,49.5049],[18.7325,49.4803],[18.7045,49.4793],[18.6428,49.4958],[18.6004,49.486],[18.5562,49.4902],[18.5356,49.4817],[18.5147,49.4406],[18.4818,49.4291],[18.4168,49.3855],[18.387,49.3776],[18.3852,49.3423],[18.3616,49.3302],[18.3246,49.3113],[18.19,49.2769],[18.1365,49.2331],[18.1051,49.1698],[18.1029,49.0923],[18.0755,49.0472],[18.0129,49.0191],[17.9592,49.0219],[17.9141,49.0105],[17.8869,48.9472],[17.8603,48.9217],[17.7955,48.9206],[17.7272,48.8629],[17.646,48.8418],[17.5351,48.813],[17.4985,48.8168],[17.4533,48.8428],[17.4112,48.8302],[17.3744,48.8196],[17.2603,48.8578],[17.2122,48.8661],[17.1675,48.8598],[17.1137,48.8339],[17.0987,48.8058],[17.0499,48.774],[17.0253,48.7463],[16.9748,48.6499],[16.9475,48.6232],[16.945,48.6042]]]}},
{"type":"Feature","properties":{"entityId":"bohemia-kingdom","from":1269,"to":1276,"certainty":"estimated","source":"유럽 쪽은 Natural Earth 1:10m admin-1(v5.1.2) 현대 행정구역 조각을 그 시기 국경에 맞춰 묶고, 조각이 역사 경계와 다른 곳은 선을 그어 나눈 근사. 유럽 밖(시베리아·중앙아시아·극동)은 대략적인 추정. 운영자 검수 필요"},"geometry":{"type":"Polygon","coordinates":[[[13.8157,48.7664],[13.7962,48.7798],[13.7247,48.8673],[13.6544,48.8822],[13.6218,48.9091],[13.6087,48.9462],[13.5905,48.9448],[13.5224,48.9693],[13.5021,48.9661],[13.4823,48.9376],[13.4273,48.96],[13.3842,48.993],[13.3724,49.0385],[13.2995,49.0936],[13.2673,49.1056],[13.2068,49.1075],[13.1785,49.1183],[13.1495,49.1548],[13.0558,49.2382],[13.0113,49.2678],[12.9998,49.2949],[12.9229,49.3327],[12.8847,49.3396],[12.8754,49.3239],[12.7978,49.3278],[12.7621,49.3432],[12.7293,49.3911],[12.6435,49.4295],[12.6272,49.4602],[12.623,49.5098],[12.5937,49.515],[12.5623,49.5508],[12.5536,49.5847],[12.502,49.6197],[12.4964,49.67],[12.4196,49.7002],[12.3836,49.7429],[12.3954,49.7579],[12.4527,49.7797],[12.4625,49.8312],[12.4825,49.8272],[12.5129,49.8702],[12.5241,49.905],[12.4627,49.9313],[12.4682,49.9702],[12.2469,50.045],[12.2325,50.0805],[12.1879,50.1028],[12.1792,50.118],[12.1827,50.1707],[12.1393,50.211],[12.0796,50.2427],[12.1091,50.2638],[12.1073,50.2909],[12.0761,50.3152],[12.1013,50.314],[12.1685,50.303],[12.178,50.2688],[12.243,50.253],[12.2325,50.2325],[12.2585,50.2109],[12.2834,50.1622],[12.3144,50.1673],[12.3056,50.1993],[12.3365,50.2586],[12.3672,50.2791],[12.3982,50.3152],[12.469,50.3456],[12.4751,50.3694],[12.5102,50.3888],[12.5505,50.3964],[12.6254,50.3999],[12.6788,50.3937],[12.7542,50.4353],[12.8258,50.4414],[12.9184,50.4054],[12.9606,50.4092],[12.9966,50.4337],[13.0096,50.4927],[13.0698,50.4911],[13.1074,50.499],[13.1601,50.497],[13.1991,50.5253],[13.2323,50.582],[13.2846,50.569],[13.3056,50.5758],[13.3219,50.6024],[13.381,50.6255],[13.407,50.6013],[13.4479,50.5973],[13.4982,50.6292],[13.4933,50.6432],[13.5233,50.6622],[13.5156,50.691],[13.5566,50.7067],[13.6019,50.7122],[13.6918,50.7118],[13.7491,50.7232],[13.8345,50.7237],[13.8822,50.7427],[13.8925,50.7804],[13.9233,50.78],[13.9596,50.8021],[14.0349,50.8026],[14.1908,50.8479],[14.2321,50.8794],[14.2681,50.8841],[14.3465,50.8802],[14.3759,50.896],[14.3819,50.9209],[14.3183,50.9375],[14.2928,50.9535],[14.3038,50.9697],[14.2383,50.9825],[14.2636,51.0214],[14.2875,51.0368],[14.3566,51.0323],[14.3978,51.0131],[14.4621,51.0197],[14.4821,51.0372],[14.4935,51.0167],[14.5423,50.9987],[14.5743,50.9755],[14.5756,50.9507],[14.5504,50.9121],[14.5618,50.9064],[14.6171,50.9209],[14.6346,50.9094],[14.6083,50.8531],[14.7004,50.816],[14.7754,50.813],[14.8104,50.8584],[14.8679,50.8644],[14.9821,50.8591],[14.9849,50.9181],[14.9966,50.9592],[14.961,50.9927],[14.9965,51.0078],[15.0736,51.0026],[15.1079,50.981],[15.1315,51.0058],[15.1561,51.0078],[15.1702,50.978],[15.2271,50.9774],[15.2698,50.9527],[15.2531,50.9141],[15.2878,50.8549],[15.341,50.8317],[15.353,50.813],[15.3497,50.7837],[15.3703,50.7726],[15.4001,50.798],[15.4418,50.8002],[15.5221,50.7824],[15.6419,50.7558],[15.6843,50.7314],[15.7674,50.7442],[15.7976,50.7298],[15.8482,50.6752],[15.8823,50.6742],[15.9415,50.6884],[15.9715,50.6786],[15.9932,50.6494],[15.9964,50.6237],[15.982,50.6036],[16.0245,50.6086],[16.0865,50.6468],[16.1287,50.644],[16.1755,50.6241],[16.2045,50.6363],[16.2191,50.6591],[16.2683,50.6604],[16.3316,50.644],[16.4168,50.5866],[16.4259,50.5676],[16.3945,50.5593],[16.3912,50.5218],[16.3526,50.4928],[16.3034,50.496],[16.28,50.4799],[16.2112,50.4513],[16.1902,50.4242],[16.1996,50.4063],[16.232,50.4026],[16.2625,50.3644],[16.3342,50.3719],[16.3508,50.3606],[16.3532,50.3335],[16.371,50.3184],[16.4378,50.298],[16.5048,50.228],[16.535,50.2077],[16.5573,50.1547],[16.5842,50.1274],[16.6606,50.093],[16.7012,50.0949],[16.7543,50.1323],[16.7953,50.1744],[16.8177,50.1868],[16.8698,50.1897],[16.919,50.2171],[16.9553,50.2135],[16.9603,50.232],[17.0084,50.21],[16.9878,50.2849],[16.9265,50.3193],[16.8979,50.3782],[16.8659,50.4084],[16.893,50.4329],[16.944,50.4203],[17.0847,50.398],[17.1189,50.3812],[17.1876,50.3785],[17.201,50.3432],[17.2461,50.3221],[17.3168,50.3186],[17.3341,50.2957],[17.3348,50.27],[17.355,50.2533],[17.388,50.2726],[17.4191,50.2427],[17.44,50.2427],[17.4694,50.2656],[17.517,50.2684],[17.6064,50.2582],[17.6467,50.2711],[17.6845,50.3124],[17.708,50.311],[17.7345,50.2895],[17.7214,50.2427],[17.7476,50.2175],[17.7382,50.2024],[17.6753,50.1747],[17.5894,50.1632],[17.5842,50.1459],[17.6328,50.1063],[17.6776,50.1077],[17.732,50.0949],[17.7195,50.0809],[17.743,50.0606],[17.7633,50.0252],[17.8394,49.9736],[17.8757,49.9687],[17.9121,49.9758],[17.9416,49.9928],[17.9999,49.9966],[18.0375,50.0072],[18.0069,50.0241],[18.0191,50.0441],[18.0916,50.0172],[18.0982,49.989],[18.162,49.9812],[18.2087,49.9583],[18.2559,49.946],[18.2925,49.9078],[18.3688,49.932],[18.4818,49.8966],[18.5444,49.913],[18.5592,49.9072],[18.5673,49.8615],[18.5938,49.8522],[18.5663,49.8316],[18.5668,49.8048],[18.6077,49.743],[18.6177,49.7139],[18.6373,49.7003],[18.6824,49.6958],[18.7277,49.6689],[18.7735,49.6758],[18.7926,49.6608],[18.7993,49.6264],[18.8345,49.5476],[18.8332,49.5103],[18.7736,49.5049],[18.7325,49.4803],[18.7045,49.4793],[18.6428,49.4958],[18.6004,49.486],[18.5562,49.4902],[18.5356,49.4817],[18.5147,49.4406],[18.4818,49.4291],[18.4168,49.3855],[18.387,49.3776],[18.3852,49.3423],[18.3616,49.3302],[18.3246,49.3113],[18.19,49.2769],[18.1365,49.2331],[18.1051,49.1698],[18.1029,49.0923],[18.0755,49.0472],[18.0129,49.0191],[17.9592,49.0219],[17.9141,49.0105],[17.8869,48.9472],[17.8603,48.9217],[17.7955,48.9206],[17.7272,48.8629],[17.646,48.8418],[17.5351,48.813],[17.4985,48.8168],[17.4533,48.8428],[17.4112,48.8302],[17.3744,48.8196],[17.2603,48.8578],[17.2122,48.8661],[17.1675,48.8598],[17.1137,48.8339],[17.0987,48.8058],[17.0499,48.774],[17.0253,48.7463],[16.9748,48.6499],[16.9475,48.6232],[16.945,48.6042],[16.9491,48.5448],[16.9139,48.5193],[16.8608,48.4438],[16.8445,48.3656],[16.9019,48.3394],[16.8984,48.3162],[16.9166,48.2908],[16.9506,48.2766],[16.9819,48.1613],[17.0072,48.1428],[17.0475,48.131],[17.0625,48.1127],[17.0344,48.1],[17.0035,48.1091],[16.983,48.0978],[16.9829,48.0682],[16.9623,48.0458],[16.9002,48.0721],[16.8566,48.0632],[16.7738,48.0298],[16.7504,48.0295],[16.7045,48.0092],[16.6803,47.9715],[16.6123,47.9332],[16.5732,47.9198],[16.5031,47.9353],[16.4393,47.9281],[16.3909,47.9029],[16.36,47.8718],[16.358,47.833],[16.3242,47.7964],[16.2897,47.7936],[16.2893,47.7325],[16.3125,47.7025],[16.3758,47.6449],[16.3212,47.5717],[16.3245,47.5013],[16.2722,47.4634],[16.2309,47.4455],[16.1479,47.443],[16.0717,47.3949],[16.0475,47.4106],[16.02,47.3724],[16.0584,47.2911],[16.0675,47.2376],[16.095,47.1651],[16.0844,47.1069],[16.0895,47.0829],[16.1347,47.0402],[16.1363,47.0249],[16.0545,46.9442],[16.0115,46.9133],[16.0037,46.8707],[16.0284,46.8369],[16.032,46.8376],[16.0529,46.8461],[16.094,46.8628],[16.1302,46.8567],[16.1354,46.8558],[16.1795,46.8585],[16.272,46.864],[16.2822,46.8599],[16.2974,46.847],[16.3019,46.8432],[16.3107,46.84],[16.3253,46.8394],[16.3298,46.8344],[16.3275,46.8255],[16.3218,46.8133],[16.3149,46.802],[16.3111,46.7975],[16.3022,46.787],[16.2995,46.7795],[16.2982,46.7758],[16.3142,46.7433],[16.3434,46.7142],[16.3573,46.7158],[16.3576,46.699],[16.3654,46.6967],[16.3662,46.6965],[16.3714,46.6949],[16.39,46.6942],[16.405,46.6873],[16.4105,46.6684],[16.4026,46.6631],[16.3967,46.6591],[16.3776,46.6529],[16.3684,46.643],[16.3722,46.6363],[16.3764,46.6291],[16.3946,46.619],[16.4302,46.6044],[16.4671,46.5647],[16.5008,46.5448],[16.5153,46.5017],[16.4911,46.5151],[16.4708,46.5203],[16.4404,46.519],[16.432,46.5232],[16.4152,46.5356],[16.4063,46.5395],[16.3695,46.5406],[16.3579,46.547],[16.3517,46.5395],[16.3441,46.547],[16.3403,46.5438],[16.33,46.5355],[16.3107,46.531],[16.3015,46.5271],[16.2954,46.5244],[16.2639,46.5159],[16.2609,46.5136],[16.2349,46.4933],[16.2342,46.4849],[16.2375,46.4651],[16.2494,46.4375],[16.2482,46.4133],[16.257,46.3999],[16.2741,46.3921],[16.2799,46.3787],[16.2756,46.3732],[16.2528,46.3734],[16.2171,46.3674],[16.1918,46.3698],[16.1775,46.3756],[16.1536,46.3914],[16.1316,46.3931],[16.106,46.3737],[16.0887,46.3731],[16.058,46.3775],[16.0574,46.3597],[16.0597,46.3453],[16.0596,46.3323],[16.0524,46.3186],[16.0499,46.3167],[16.0389,46.3084],[16.0192,46.2988],[15.9937,46.2906],[15.9487,46.2842],[15.9189,46.2728],[15.8837,46.2594],[15.8809,46.2593],[15.8793,46.2593],[15.8342,46.2584],[15.8183,46.2555],[15.8031,46.2505],[15.7995,46.2486],[15.7891,46.2431],[15.7689,46.2194],[15.7498,46.2108],[15.678,46.2145],[15.6613,46.2153],[15.6398,46.2077],[15.6266,46.1952],[15.6229,46.1917],[15.6043,46.167],[15.59,46.1387],[15.5899,46.1135],[15.6038,46.091],[15.6235,46.0764],[15.6236,46.0764],[15.6315,46.0706],[15.6437,46.0655],[15.6717,46.0574],[15.6839,46.0511],[15.6929,46.0416],[15.698,46.0362],[15.682,46.0135],[15.6742,45.9932],[15.6754,45.9725],[15.6756,45.9252],[15.6594,45.8888],[15.6755,45.856],[15.6761,45.8417],[15.6661,45.8317],[15.6261,45.8202],[15.5873,45.8192],[15.5497,45.8237],[15.5235,45.8268],[15.4854,45.8102],[15.4513,45.8151],[15.4356,45.8021],[15.4411,45.7822],[15.4298,45.7757],[15.331,45.7525],[15.3038,45.7461],[15.2635,45.7304],[15.2499,45.7137],[15.2509,45.7077],[15.2582,45.7051],[15.2678,45.6985],[15.2778,45.685],[15.2919,45.6756],[15.3049,45.6721],[15.315,45.6809],[15.3308,45.6846],[15.35,45.6696],[15.3683,45.649],[15.3738,45.6402],[15.3531,45.6403],[15.3267,45.6323],[15.2974,45.6257],[15.2879,45.6103],[15.2686,45.6017],[15.2696,45.5934],[15.2822,45.5715],[15.2967,45.523],[15.311,45.5059],[15.3614,45.482],[15.3339,45.4585],[15.314,45.4505],[15.2816,45.451],[15.2258,45.4365],[15.1842,45.4256],[15.1393,45.43],[15.0661,45.4739],[15.0562,45.4799],[15.0074,45.4808],[14.9773,45.4917],[14.9626,45.4931],[14.9454,45.5045],[14.9226,45.5149],[14.9044,45.5144],[14.9008,45.4931],[14.8816,45.4698],[14.8388,45.459],[14.7972,45.4652],[14.7815,45.4931],[14.6883,45.522],[14.6685,45.534],[14.6717,45.5568],[14.6637,45.5702],[14.6503,45.5748],[14.616,45.5941],[14.6031,45.6036],[14.5939,45.6162],[14.5941,45.648],[14.5919,45.6634],[14.5809,45.6678],[14.5691,45.6643],[14.5561,45.6567],[14.5436,45.6364],[14.4986,45.5962],[14.4915,45.5792],[14.4821,45.5424],[14.4689,45.5256],[14.4112,45.4932],[14.3728,45.4778],[14.3268,45.4749],[14.2804,45.4811],[14.2187,45.4972],[14.1455,45.4762],[14.1173,45.473],[14.1167,45.473],[14.0929,45.4739],[14.0667,45.4803],[14.014,45.508],[13.9875,45.5119],[13.9838,45.5195],[13.9522,45.546],[13.9104,45.552],[13.8946,45.5598],[13.88,45.5725],[13.8679,45.6022],[13.887,45.6188],[13.8936,45.6338],[13.9089,45.6438],[13.9384,45.6426],[13.9437,45.6611],[13.9365,45.6704],[13.9679,45.7053],[13.9556,45.7333],[13.9567,45.74],[13.9756,45.7485],[13.9899,45.765],[14.0053,45.7714],[14.0158,45.7705],[14.0372,45.761],[14.0488,45.7781],[14.0521,45.7969],[14.0587,45.8086],[14.046,45.8369],[14.0931,45.8488],[14.126,45.8688],[14.1209,45.8787],[14.0428,45.8902],[14.0033,45.9095],[13.9612,45.9337],[13.9479,45.9365],[13.9236,45.9509],[13.901,45.9691],[13.8667,45.9848],[13.8523,46.002],[13.8659,46.007],[13.8682,46.0408],[13.8746,46.043],[13.8609,46.0587],[13.8675,46.0648],[13.8949,46.0677],[13.908,46.062],[13.9235,46.0613],[13.9275,46.0711],[13.9451,46.0697],[13.9646,46.0868],[13.9998,46.0672],[14.0192,46.0639],[14.0299,46.0661],[14.0301,46.0732],[14.0219,46.0822],[14.0278,46.1016],[14.0737,46.1581],[14.0675,46.1673],[14.0406,46.1732],[14.0029,46.1757],[13.9885,46.1807],[13.9893,46.1946],[14.005,46.2199],[13.997,46.2393],[13.8949,46.23],[13.8657,46.2317],[13.8209,46.2418],[13.7708,46.262],[13.7367,46.2861],[13.7274,46.3017],[13.7495,46.3353],[13.7641,46.3451],[13.828,46.3691],[13.8417,46.3822],[13.8113,46.413],[13.7674,46.4331],[13.7384,46.4403],[13.7126,46.4323],[13.687,46.4317],[13.6903,46.454],[13.6859,46.464],[13.6899,46.4933],[13.701,46.5197],[13.6703,46.5187],[13.5492,46.5458],[13.5068,46.5469],[13.478,46.5636],[13.417,46.5605],[13.3733,46.5658],[13.2714,46.5508],[13.2311,46.5522],[13.1465,46.585],[13.0645,46.598],[12.8304,46.6096],[12.7485,46.641],[12.6974,46.6405],[12.6714,46.6525],[12.7091,46.7052],[12.7243,46.7489],[12.7456,46.7562],[12.8973,46.7759],[12.933,46.7575],[12.9453,46.7752],[12.8852,46.8325],[12.8288,46.876],[12.8069,46.9294],[12.7641,46.9567],[12.735,47.0042],[12.7515,47.0397],[12.7443,47.058],[12.6581,47.0776],[12.6338,47.112],[12.665,47.1365],[12.7724,47.0993],[12.9144,47.076],[12.9942,47.0408],[13.0595,47.0288],[13.1735,47.0375],[13.2261,47.0549],[13.2743,47.0838],[13.3082,47.0872],[13.4397,47.0625],[13.5618,47.0466],[13.6062,47.0442],[13.6672,47.0261],[13.7531,46.9806],[13.7823,46.9542],[13.8206,46.9878],[13.8637,47.0423],[13.8802,47.0727],[13.8799,47.1054],[13.9372,47.1506],[13.9317,47.1694],[13.9018,47.1839],[13.8608,47.222],[13.8482,47.2504],[13.7967,47.3021],[13.6941,47.2745],[13.6307,47.3056],[13.6045,47.3425],[13.5748,47.4099],[13.5652,47.4454],[13.5818,47.4864],[13.5242,47.5112],[13.4889,47.5358],[13.4791,47.5644],[13.5056,47.6029],[13.489,47.6415],[13.5256,47.7175],[13.5132,47.7354],[13.4581,47.7474],[13.4533,47.77],[13.5087,47.7732],[13.521,47.7835],[13.4976,47.7979],[13.3168,47.825],[13.2919,47.8406],[13.2713,47.9122],[13.2763,47.9523],[13.2953,47.9693],[13.3509,47.9655],[13.361,47.9806],[13.3029,48.0099],[13.2347,47.9889],[13.1389,47.9872],[13.0899,48.0003],[13.0359,48.0309],[12.9684,48.0316],[12.9375,48.0213],[12.9271,48.0018],[12.8482,47.9824],[12.8306,48.0155],[12.7602,48.0649],[12.737,48.1],[12.745,48.1206],[12.8221,48.1607],[12.8776,48.202],[12.933,48.2093],[13.0328,48.2636],[13.1364,48.2911],[13.2742,48.3071],[13.3078,48.3196],[13.4056,48.3766],[13.4382,48.441],[13.4364,48.4692],[13.4564,48.5067],[13.4401,48.561],[13.4546,48.5734],[13.5207,48.5846],[13.6244,48.5654],[13.6734,48.5355],[13.7165,48.5217],[13.7339,48.5598],[13.766,48.5638],[13.8024,48.6117],[13.8009,48.6752],[13.8169,48.6956],[13.7859,48.7248],[13.8157,48.7664]]]}},
{"type":"Feature","properties":{"entityId":"bohemia-kingdom","from":1276,"to":1320,"certainty":"estimated","source":"유럽 쪽은 Natural Earth 1:10m admin-1(v5.1.2) 현대 행정구역 조각을 그 시기 국경에 맞춰 묶고, 조각이 역사 경계와 다른 곳은 선을 그어 나눈 근사. 유럽 밖(시베리아·중앙아시아·극동)은 대략적인 추정. 운영자 검수 필요"},"geometry":{"type":"Polygon","coordinates":[[[12.5241,49.905],[12.4627,49.9313],[12.4682,49.9702],[12.2469,50.045],[12.2325,50.0805],[12.1879,50.1028],[12.1792,50.118],[12.1827,50.1707],[12.1393,50.211],[12.0796,50.2427],[12.1091,50.2638],[12.1073,50.2909],[12.0761,50.3152],[12.1013,50.314],[12.1685,50.303],[12.178,50.2688],[12.243,50.253],[12.2325,50.2325],[12.2585,50.2109],[12.2834,50.1622],[12.3144,50.1673],[12.3056,50.1993],[12.3365,50.2586],[12.3672,50.2791],[12.3982,50.3152],[12.469,50.3456],[12.4751,50.3694],[12.5102,50.3888],[12.5505,50.3964],[12.6254,50.3999],[12.6788,50.3937],[12.7542,50.4353],[12.8258,50.4414],[12.9184,50.4054],[12.9606,50.4092],[12.9966,50.4337],[13.0096,50.4927],[13.0698,50.4911],[13.1074,50.499],[13.1601,50.497],[13.1991,50.5253],[13.2323,50.582],[13.2846,50.569],[13.3056,50.5758],[13.3219,50.6024],[13.381,50.6255],[13.407,50.6013],[13.4479,50.5973],[13.4982,50.6292],[13.4933,50.6432],[13.5233,50.6622],[13.5156,50.691],[13.5566,50.7067],[13.6019,50.7122],[13.6918,50.7118],[13.7491,50.7232],[13.8345,50.7237],[13.8822,50.7427],[13.8925,50.7804],[13.9233,50.78],[13.9596,50.8021],[14.0349,50.8026],[14.1908,50.8479],[14.2321,50.8794],[14.2681,50.8841],[14.3465,50.8802],[14.3759,50.896],[14.3819,50.9209],[14.3183,50.9375],[14.2928,50.9535],[14.3038,50.9697],[14.2383,50.9825],[14.2636,51.0214],[14.2875,51.0368],[14.3566,51.0323],[14.3978,51.0131],[14.4621,51.0197],[14.4821,51.0372],[14.4935,51.0167],[14.5423,50.9987],[14.5743,50.9755],[14.5756,50.9507],[14.5504,50.9121],[14.5618,50.9064],[14.6171,50.9209],[14.6346,50.9094],[14.6083,50.8531],[14.7004,50.816],[14.7754,50.813],[14.8104,50.8584],[14.8679,50.8644],[14.9821,50.8591],[14.9849,50.9181],[14.9966,50.9592],[14.961,50.9927],[14.9965,51.0078],[15.0736,51.0026],[15.1079,50.981],[15.1315,51.0058],[15.1561,51.0078],[15.1702,50.978],[15.2271,50.9774],[15.2698,50.9527],[15.2531,50.9141],[15.2878,50.8549],[15.341,50.8317],[15.353,50.813],[15.3497,50.7837],[15.3703,50.7726],[15.4001,50.798],[15.4418,50.8002],[15.5221,50.7824],[15.6419,50.7558],[15.6843,50.7314],[15.7674,50.7442],[15.7976,50.7298],[15.8482,50.6752],[15.8823,50.6742],[15.9415,50.6884],[15.9715,50.6786],[15.9932,50.6494],[15.9964,50.6237],[15.982,50.6036],[16.0245,50.6086],[16.0865,50.6468],[16.1287,50.644],[16.1755,50.6241],[16.2045,50.6363],[16.2191,50.6591],[16.2683,50.6604],[16.3316,50.644],[16.4168,50.5866],[16.4259,50.5676],[16.3945,50.5593],[16.3912,50.5218],[16.3526,50.4928],[16.3034,50.496],[16.28,50.4799],[16.2112,50.4513],[16.1902,50.4242],[16.1996,50.4063],[16.232,50.4026],[16.2625,50.3644],[16.3342,50.3719],[16.3508,50.3606],[16.3532,50.3335],[16.371,50.3184],[16.4378,50.298],[16.5048,50.228],[16.535,50.2077],[16.5573,50.1547],[16.5842,50.1274],[16.6606,50.093],[16.7012,50.0949],[16.7543,50.1323],[16.7953,50.1744],[16.8177,50.1868],[16.8698,50.1897],[16.919,50.2171],[16.9553,50.2135],[16.9603,50.232],[17.0084,50.21],[16.9878,50.2849],[16.9265,50.3193],[16.8979,50.3782],[16.8659,50.4084],[16.893,50.4329],[16.944,50.4203],[17.0847,50.398],[17.1189,50.3812],[17.1876,50.3785],[17.201,50.3432],[17.2461,50.3221],[17.3168,50.3186],[17.3341,50.2957],[17.3348,50.27],[17.355,50.2533],[17.388,50.2726],[17.4191,50.2427],[17.44,50.2427],[17.4694,50.2656],[17.517,50.2684],[17.6064,50.2582],[17.6467,50.2711],[17.6845,50.3124],[17.708,50.311],[17.7345,50.2895],[17.7214,50.2427],[17.7476,50.2175],[17.7382,50.2024],[17.6753,50.1747],[17.5894,50.1632],[17.5842,50.1459],[17.6328,50.1063],[17.6776,50.1077],[17.732,50.0949],[17.7195,50.0809],[17.743,50.0606],[17.7633,50.0252],[17.8394,49.9736],[17.8757,49.9687],[17.9121,49.9758],[17.9416,49.9928],[17.9999,49.9966],[18.0375,50.0072],[18.0069,50.0241],[18.0191,50.0441],[18.0916,50.0172],[18.0982,49.989],[18.162,49.9812],[18.2087,49.9583],[18.2559,49.946],[18.2925,49.9078],[18.3688,49.932],[18.4818,49.8966],[18.5444,49.913],[18.5592,49.9072],[18.5673,49.8615],[18.5938,49.8522],[18.5663,49.8316],[18.5668,49.8048],[18.6077,49.743],[18.6177,49.7139],[18.6373,49.7003],[18.6824,49.6958],[18.7277,49.6689],[18.7735,49.6758],[18.7926,49.6608],[18.7993,49.6264],[18.8345,49.5476],[18.8332,49.5103],[18.7736,49.5049],[18.7325,49.4803],[18.7045,49.4793],[18.6428,49.4958],[18.6004,49.486],[18.5562,49.4902],[18.5356,49.4817],[18.5147,49.4406],[18.4818,49.4291],[18.4168,49.3855],[18.387,49.3776],[18.3852,49.3423],[18.3616,49.3302],[18.3246,49.3113],[18.19,49.2769],[18.1365,49.2331],[18.1051,49.1698],[18.1029,49.0923],[18.0755,49.0472],[18.0129,49.0191],[17.9592,49.0219],[17.9141,49.0105],[17.8869,48.9472],[17.8603,48.9217],[17.7955,48.9206],[17.7272,48.8629],[17.646,48.8418],[17.5351,48.813],[17.4985,48.8168],[17.4533,48.8428],[17.4112,48.8302],[17.3744,48.8196],[17.2603,48.8578],[17.2122,48.8661],[17.1675,48.8598],[17.1137,48.8339],[17.0987,48.8058],[17.0499,48.774],[17.0253,48.7463],[16.9748,48.6499],[16.9475,48.6232],[16.945,48.6042],[16.9105,48.6308],[16.8967,48.697],[16.873,48.719],[16.7989,48.7092],[16.729,48.7331],[16.662,48.74],[16.6431,48.7783],[16.5103,48.8048],[16.4357,48.7945],[16.385,48.7371],[16.3583,48.7273],[16.1778,48.7465],[16.0854,48.7429],[16.0323,48.7581],[15.9081,48.8197],[15.886,48.842],[15.8401,48.8501],[15.8185,48.8723],[15.7792,48.8709],[15.7268,48.855],[15.6813,48.8585],[15.6037,48.8874],[15.5442,48.9026],[15.4719,48.9367],[15.3355,48.975],[15.2629,48.9826],[15.2381,48.9508],[15.1419,48.9375],[15.149,48.9653],[15.1374,48.993],[15.0596,48.9972],[14.9821,49.0079],[14.9646,48.9717],[14.9682,48.885],[14.9381,48.8028],[14.9511,48.7803],[14.9193,48.7616],[14.8677,48.7756],[14.8004,48.7765],[14.7754,48.724],[14.7227,48.6934],[14.7038,48.6731],[14.7007,48.6155],[14.6911,48.5865],[14.6592,48.577],[14.6347,48.6023],[14.6019,48.6045],[14.5788,48.6205],[14.522,48.6106],[14.4821,48.6245],[14.4582,48.6432],[14.4436,48.6365],[14.4054,48.5863],[14.3157,48.5579],[14.2165,48.5812],[14.0748,48.5917],[14.0408,48.6012],[14.0062,48.6395],[14.0329,48.6549],[13.9823,48.7065],[13.915,48.731],[13.8559,48.7593],[13.8157,48.7664],[13.7962,48.7798],[13.7247,48.8673],[13.6544,48.8822],[13.6218,48.9091],[13.6087,48.9462],[13.5905,48.9448],[13.5224,48.9693],[13.5021,48.9661],[13.4823,48.9376],[13.4273,48.96],[13.3842,48.993],[13.3724,49.0385],[13.2995,49.0936],[13.2673,49.1056],[13.2068,49.1075],[13.1785,49.1183],[13.1495,49.1548],[13.0558,49.2382],[13.0113,49.2678],[12.9998,49.2949],[12.9229,49.3327],[12.8847,49.3396],[12.8754,49.3239],[12.7978,49.3278],[12.7621,49.3432],[12.7293,49.3911],[12.6435,49.4295],[12.6272,49.4602],[12.623,49.5098],[12.5937,49.515],[12.5623,49.5508],[12.5536,49.5847],[12.502,49.6197],[12.4964,49.67],[12.4196,49.7002],[12.3836,49.7429],[12.3954,49.7579],[12.4527,49.7797],[12.4625,49.8312],[12.4825,49.8272],[12.5129,49.8702],[12.5241,49.905]]]}},
{"type":"Feature","properties":{"entityId":"bohemia-kingdom","from":1320,"to":1329,"certainty":"estimated","source":"유럽 쪽은 Natural Earth 1:10m admin-1(v5.1.2) 현대 행정구역 조각을 그 시기 국경에 맞춰 묶고, 조각이 역사 경계와 다른 곳은 선을 그어 나눈 근사. 유럽 밖(시베리아·중앙아시아·극동)은 대략적인 추정. 운영자 검수 필요"},"geometry":{"type":"Polygon","coordinates":[[[12.0761,50.3152],[12.1073,50.2909],[12.1091,50.2638],[12.0796,50.2427],[12.1393,50.211],[12.1827,50.1707],[12.1792,50.118],[12.1879,50.1028],[12.2325,50.0805],[12.2469,50.045],[12.4682,49.9702],[12.4627,49.9313],[12.5241,49.905],[12.5129,49.8702],[12.4825,49.8272],[12.4625,49.8312],[12.4527,49.7797],[12.3954,49.7579],[12.3836,49.7429],[12.4196,49.7002],[12.4964,49.67],[12.502,49.6197],[12.5536,49.5847],[12.5623,49.5508],[12.5937,49.515],[12.623,49.5098],[12.6272,49.4602],[12.6435,49.4295],[12.7293,49.3911],[12.7621,49.3432],[12.7978,49.3278],[12.8754,49.3239],[12.8847,49.3396],[12.9229,49.3327],[12.9998,49.2949],[13.0113,49.2678],[13.0558,49.2382],[13.1495,49.1548],[13.1785,49.1183],[13.2068,49.1075],[13.2673,49.1056],[13.2995,49.0936],[13.3724,49.0385],[13.3842,48.993],[13.4273,48.96],[13.4823,48.9376],[13.5021,48.9661],[13.5224,48.9693],[13.5905,48.9448],[13.6087,48.9462],[13.6218,48.9091],[13.6544,48.8822],[13.7247,48.8673],[13.7962,48.7798],[13.8157,48.7664],[13.8559,48.7593],[13.915,48.731],[13.9823,48.7065],[14.0329,48.6549],[14.0062,48.6395],[14.0408,48.6012],[14.0748,48.5917],[14.2165,48.5812],[14.3157,48.5579],[14.4054,48.5863],[14.4436,48.6365],[14.4582,48.6432],[14.4821,48.6245],[14.522,48.6106],[14.5788,48.6205],[14.6019,48.6045],[14.6347,48.6023],[14.6592,48.577],[14.6911,48.5865],[14.7007,48.6155],[14.7038,48.6731],[14.7227,48.6934],[14.7754,48.724],[14.8004,48.7765],[14.8677,48.7756],[14.9193,48.7616],[14.9511,48.7803],[14.9381,48.8028],[14.9682,48.885],[14.9646,48.9717],[14.9821,49.0079],[15.0596,48.9972],[15.1374,48.993],[15.149,48.9653],[15.1419,48.9375],[15.2381,48.9508],[15.2629,48.9826],[15.3355,48.975],[15.4719,48.9367],[15.5442,48.9026],[15.6037,48.8874],[15.6813,48.8585],[15.7268,48.855],[15.7792,48.8709],[15.8185,48.8723],[15.8401,48.8501],[15.886,48.842],[15.9081,48.8197],[16.0323,48.7581],[16.0854,48.7429],[16.1778,48.7465],[16.3583,48.7273],[16.385,48.7371],[16.4357,48.7945],[16.5103,48.8048],[16.6431,48.7783],[16.662,48.74],[16.729,48.7331],[16.7989,48.7092],[16.873,48.719],[16.8967,48.697],[16.9105,48.6308],[16.945,48.6042],[16.9475,48.6232],[16.9748,48.6499],[17.0253,48.7463],[17.0499,48.774],[17.0987,48.8058],[17.1137,48.8339],[17.1675,48.8598],[17.2122,48.8661],[17.2603,48.8578],[17.3744,48.8196],[17.4112,48.8302],[17.4533,48.8428],[17.4985,48.8168],[17.5351,48.813],[17.646,48.8418],[17.7272,48.8629],[17.7955,48.9206],[17.8603,48.9217],[17.8869,48.9472],[17.9141,49.0105],[17.9592,49.0219],[18.0129,49.0191],[18.0755,49.0472],[18.1029,49.0923],[18.1051,49.1698],[18.1365,49.2331],[18.19,49.2769],[18.3246,49.3113],[18.3616,49.3302],[18.3852,49.3423],[18.387,49.3776],[18.4168,49.3855],[18.4818,49.4291],[18.5147,49.4406],[18.5356,49.4817],[18.5562,49.4902],[18.6004,49.486],[18.6428,49.4958],[18.7045,49.4793],[18.7325,49.4803],[18.7736,49.5049],[18.8332,49.5103],[18.8345,49.5476],[18.7993,49.6264],[18.7926,49.6608],[18.7735,49.6758],[18.7277,49.6689],[18.6824,49.6958],[18.6373,49.7003],[18.6177,49.7139],[18.6077,49.743],[18.5668,49.8048],[18.5663,49.8316],[18.5938,49.8522],[18.5673,49.8615],[18.5592,49.9072],[18.5444,49.913],[18.4818,49.8966],[18.3688,49.932],[18.2925,49.9078],[18.2559,49.946],[18.2087,49.9583],[18.162,49.9812],[18.0982,49.989],[18.0916,50.0172],[18.0191,50.0441],[18.0069,50.0241],[18.0375,50.0072],[17.9999,49.9966],[17.9416,49.9928],[17.9121,49.9758],[17.8757,49.9687],[17.8394,49.9736],[17.7633,50.0252],[17.743,50.0606],[17.7195,50.0809],[17.732,50.0949],[17.6776,50.1077],[17.6328,50.1063],[17.5842,50.1459],[17.5894,50.1632],[17.6753,50.1747],[17.7382,50.2024],[17.7476,50.2175],[17.7214,50.2427],[17.7345,50.2895],[17.708,50.311],[17.6845,50.3124],[17.6467,50.2711],[17.6064,50.2582],[17.517,50.2684],[17.4694,50.2656],[17.44,50.2427],[17.4191,50.2427],[17.388,50.2726],[17.355,50.2533],[17.3348,50.27],[17.3341,50.2957],[17.3168,50.3186],[17.2461,50.3221],[17.201,50.3432],[17.1876,50.3785],[17.1189,50.3812],[17.0847,50.398],[16.944,50.4203],[16.893,50.4329],[16.8659,50.4084],[16.8979,50.3782],[16.9265,50.3193],[16.9878,50.2849],[17.0084,50.21],[16.9603,50.232],[16.9553,50.2135],[16.919,50.2171],[16.8698,50.1897],[16.8177,50.1868],[16.7953,50.1744],[16.7543,50.1323],[16.7012,50.0949],[16.6606,50.093],[16.5842,50.1274],[16.5573,50.1547],[16.535,50.2077],[16.5048,50.228],[16.4378,50.298],[16.371,50.3184],[16.3532,50.3335],[16.3508,50.3606],[16.3342,50.3719],[16.2625,50.3644],[16.232,50.4026],[16.1996,50.4063],[16.1902,50.4242],[16.2112,50.4513],[16.28,50.4799],[16.3034,50.496],[16.3526,50.4928],[16.3912,50.5218],[16.3945,50.5593],[16.4259,50.5676],[16.4168,50.5866],[16.3316,50.644],[16.2683,50.6604],[16.2191,50.6591],[16.2045,50.6363],[16.1755,50.6241],[16.1287,50.644],[16.0865,50.6468],[16.0245,50.6086],[15.982,50.6036],[15.9964,50.6237],[15.9932,50.6494],[15.9715,50.6786],[15.9415,50.6884],[15.8823,50.6742],[15.8482,50.6752],[15.7976,50.7298],[15.7674,50.7442],[15.6843,50.7314],[15.6419,50.7558],[15.5221,50.7824],[15.4418,50.8002],[15.4001,50.798],[15.3703,50.7726],[15.3497,50.7837],[15.353,50.813],[15.341,50.8317],[15.2878,50.8549],[15.2531,50.9141],[15.2698,50.9527],[15.2271,50.9774],[15.1702,50.978],[15.1561,51.0078],[15.1315,51.0058],[15.1079,50.981],[15.0736,51.0026],[14.9965,51.0078],[14.961,50.9927],[14.9966,50.9592],[14.9849,50.9181],[14.9821,50.8591],[14.8679,50.8644],[14.8104,50.8584],[14.8105,50.8771],[14.8602,50.9168],[14.9553,51.064],[14.9603,51.1046],[14.98,51.1228],[14.9832,51.1609],[15.0049,51.2156],[15.0221,51.2368],[15.0195,51.2717],[14.9638,51.3284],[14.9506,51.3965],[14.9451,51.4492],[14.911,51.469],[14.8414,51.4844],[14.7975,51.5021],[14.7322,51.5158],[14.7068,51.5408],[14.6634,51.5421],[14.5954,51.5625],[14.5526,51.5645],[14.5093,51.5569],[14.3772,51.5155],[14.3386,51.5099],[14.2689,51.5324],[14.221,51.5363],[14.1588,51.5269],[14.1061,51.5059],[14.067,51.4739],[14.0439,51.4281],[13.9703,51.3592],[13.9384,51.3614],[13.8928,51.3578],[13.9,51.3],[14,51.18],[14.15,51.1],[14.3,51.04],[14.31,51.0353],[14.3566,51.0323],[14.2875,51.0368],[14.2636,51.0214],[14.2383,50.9825],[14.3038,50.9697],[14.2928,50.9535],[14.3183,50.9375],[14.3819,50.9209],[14.3759,50.896],[14.3465,50.8802],[14.2681,50.8841],[14.2321,50.8794],[14.1908,50.8479],[14.0349,50.8026],[13.9596,50.8021],[13.9233,50.78],[13.8925,50.7804],[13.8822,50.7427],[13.8345,50.7237],[13.7491,50.7232],[13.6918,50.7118],[13.6019,50.7122],[13.5566,50.7067],[13.5156,50.691],[13.5233,50.6622],[13.4933,50.6432],[13.4982,50.6292],[13.4479,50.5973],[13.407,50.6013],[13.381,50.6255],[13.3219,50.6024],[13.3056,50.5758],[13.2846,50.569],[13.2323,50.582],[13.1991,50.5253],[13.1601,50.497],[13.1074,50.499],[13.0698,50.4911],[13.0096,50.4927],[12.9966,50.4337],[12.9606,50.4092],[12.9184,50.4054],[12.8258,50.4414],[12.7542,50.4353],[12.6788,50.3937],[12.6254,50.3999],[12.5505,50.3964],[12.5102,50.3888],[12.4751,50.3694],[12.469,50.3456],[12.3982,50.3152],[12.3672,50.2791],[12.3365,50.2586],[12.3056,50.1993],[12.3144,50.1673],[12.2834,50.1622],[12.2585,50.2109],[12.2325,50.2325],[12.243,50.253],[12.178,50.2688],[12.1685,50.303],[12.1013,50.314],[12.0761,50.3152]]]}},
{"type":"Feature","properties":{"entityId":"bohemia-kingdom","from":1329,"to":1369,"certainty":"estimated","source":"유럽 쪽은 Natural Earth 1:10m admin-1(v5.1.2) 현대 행정구역 조각을 그 시기 국경에 맞춰 묶고, 조각이 역사 경계와 다른 곳은 선을 그어 나눈 근사. 유럽 밖(시베리아·중앙아시아·극동)은 대략적인 추정. 운영자 검수 필요"},"geometry":{"type":"Polygon","coordinates":[[[12.0761,50.3152],[12.1073,50.2909],[12.1091,50.2638],[12.0796,50.2427],[12.1393,50.211],[12.1827,50.1707],[12.1792,50.118],[12.1879,50.1028],[12.2325,50.0805],[12.2469,50.045],[12.4682,49.9702],[12.4627,49.9313],[12.5241,49.905],[12.5129,49.8702],[12.4825,49.8272],[12.4625,49.8312],[12.4527,49.7797],[12.3954,49.7579],[12.3836,49.7429],[12.4196,49.7002],[12.4964,49.67],[12.502,49.6197],[12.5536,49.5847],[12.5623,49.5508],[12.5937,49.515],[12.623,49.5098],[12.6272,49.4602],[12.6435,49.4295],[12.7293,49.3911],[12.7621,49.3432],[12.7978,49.3278],[12.8754,49.3239],[12.8847,49.3396],[12.9229,49.3327],[12.9998,49.2949],[13.0113,49.2678],[13.0558,49.2382],[13.1495,49.1548],[13.1785,49.1183],[13.2068,49.1075],[13.2673,49.1056],[13.2995,49.0936],[13.3724,49.0385],[13.3842,48.993],[13.4273,48.96],[13.4823,48.9376],[13.5021,48.9661],[13.5224,48.9693],[13.5905,48.9448],[13.6087,48.9462],[13.6218,48.9091],[13.6544,48.8822],[13.7247,48.8673],[13.7962,48.7798],[13.8157,48.7664],[13.8559,48.7593],[13.915,48.731],[13.9823,48.7065],[14.0329,48.6549],[14.0062,48.6395],[14.0408,48.6012],[14.0748,48.5917],[14.2165,48.5812],[14.3157,48.5579],[14.4054,48.5863],[14.4436,48.6365],[14.4582,48.6432],[14.4821,48.6245],[14.522,48.6106],[14.5788,48.6205],[14.6019,48.6045],[14.6347,48.6023],[14.6592,48.577],[14.6911,48.5865],[14.7007,48.6155],[14.7038,48.6731],[14.7227,48.6934],[14.7754,48.724],[14.8004,48.7765],[14.8677,48.7756],[14.9193,48.7616],[14.9511,48.7803],[14.9381,48.8028],[14.9682,48.885],[14.9646,48.9717],[14.9821,49.0079],[15.0596,48.9972],[15.1374,48.993],[15.149,48.9653],[15.1419,48.9375],[15.2381,48.9508],[15.2629,48.9826],[15.3355,48.975],[15.4719,48.9367],[15.5442,48.9026],[15.6037,48.8874],[15.6813,48.8585],[15.7268,48.855],[15.7792,48.8709],[15.8185,48.8723],[15.8401,48.8501],[15.886,48.842],[15.9081,48.8197],[16.0323,48.7581],[16.0854,48.7429],[16.1778,48.7465],[16.3583,48.7273],[16.385,48.7371],[16.4357,48.7945],[16.5103,48.8048],[16.6431,48.7783],[16.662,48.74],[16.729,48.7331],[16.7989,48.7092],[16.873,48.719],[16.8967,48.697],[16.9105,48.6308],[16.945,48.6042],[16.9475,48.6232],[16.9748,48.6499],[17.0253,48.7463],[17.0499,48.774],[17.0987,48.8058],[17.1137,48.8339],[17.1675,48.8598],[17.2122,48.8661],[17.2603,48.8578],[17.3744,48.8196],[17.4112,48.8302],[17.4533,48.8428],[17.4985,48.8168],[17.5351,48.813],[17.646,48.8418],[17.7272,48.8629],[17.7955,48.9206],[17.8603,48.9217],[17.8869,48.9472],[17.9141,49.0105],[17.9592,49.0219],[18.0129,49.0191],[18.0755,49.0472],[18.1029,49.0923],[18.1051,49.1698],[18.1365,49.2331],[18.19,49.2769],[18.3246,49.3113],[18.3616,49.3302],[18.3852,49.3423],[18.387,49.3776],[18.4168,49.3855],[18.4818,49.4291],[18.5147,49.4406],[18.5356,49.4817],[18.5562,49.4902],[18.6004,49.486],[18.6428,49.4958],[18.7045,49.4793],[18.7325,49.4803],[18.7736,49.5049],[18.8332,49.5103],[18.9322,49.5043],[18.9611,49.4928],[18.9524,49.4759],[18.9623,49.3892],[19.0071,49.3881],[19.0676,49.4061],[19.1166,49.3909],[19.1725,49.4023],[19.2205,49.493],[19.2487,49.5163],[19.3471,49.533],[19.4338,49.5952],[19.4489,49.6004],[19.4074,49.6403],[19.433,49.6836],[19.4364,49.7099],[19.3688,49.7176],[19.2989,49.7483],[19.2635,49.8031],[19.2125,49.816],[19.1826,49.8506],[19.1805,49.884],[19.1591,49.9015],[19.1325,49.9032],[19.1124,49.9202],[19.1237,49.9537],[19.1679,50.0039],[19.2032,50.0294],[19.2,50.03],[19.23,50.08],[19.22,50.15],[19.19,50.2],[19.17,50.235],[19.1,50.3],[19.03,50.58],[18.68,50.93],[18.6356,50.9505],[18.6556,50.9952],[18.5806,51.0334],[18.5305,51.0826],[18.4964,51.0608],[18.4257,51.0596],[18.202,51.0959],[18.1726,51.1108],[18.1501,51.1361],[18.0358,51.0932],[17.9174,51.0658],[17.8537,51.068],[17.8012,51.0948],[17.7822,51.1407],[17.7492,51.1514],[17.7146,51.1502],[17.7016,51.2],[17.6902,51.3026],[17.7184,51.3447],[17.6824,51.3628],[17.6443,51.3694],[17.583,51.3617],[17.5239,51.3703],[17.5007,51.407],[17.4952,51.4503],[17.5328,51.4816],[17.5566,51.535],[17.4573,51.5751],[17.3468,51.594],[17.2293,51.5943],[17.1874,51.5889],[17.1496,51.5354],[16.943,51.5127],[16.8277,51.5383],[16.7731,51.5759],[16.6761,51.6095],[16.6328,51.6571],[16.6295,51.6897],[16.6118,51.7149],[16.4991,51.7529],[16.4585,51.7596],[16.3711,51.7492],[16.3221,51.6999],[16.2612,51.6668],[16.182,51.6558],[16.1265,51.6999],[16.1232,51.7345],[16.0965,51.7523],[15.9448,51.7699],[15.9105,51.7272],[15.8804,51.7083],[15.8238,51.6912],[15.7254,51.5716],[15.6147,51.4804],[15.5439,51.4695],[15.4033,51.5178],[15.3301,51.5019],[15.2968,51.4771],[15.2462,51.4227],[15.2171,51.4241],[15.1583,51.456],[15.1294,51.4556],[14.9506,51.3965],[14.9451,51.4492],[14.911,51.469],[14.8414,51.4844],[14.7975,51.5021],[14.7322,51.5158],[14.7068,51.5408],[14.6634,51.5421],[14.5954,51.5625],[14.5526,51.5645],[14.5093,51.5569],[14.3772,51.5155],[14.3386,51.5099],[14.2689,51.5324],[14.221,51.5363],[14.1588,51.5269],[14.1061,51.5059],[14.067,51.4739],[14.0439,51.4281],[13.9703,51.3592],[13.9384,51.3614],[13.8928,51.3578],[13.9,51.3],[14,51.18],[14.15,51.1],[14.3,51.04],[14.31,51.0353],[14.3566,51.0323],[14.2875,51.0368],[14.2636,51.0214],[14.2383,50.9825],[14.3038,50.9697],[14.2928,50.9535],[14.3183,50.9375],[14.3819,50.9209],[14.3759,50.896],[14.3465,50.8802],[14.2681,50.8841],[14.2321,50.8794],[14.1908,50.8479],[14.0349,50.8026],[13.9596,50.8021],[13.9233,50.78],[13.8925,50.7804],[13.8822,50.7427],[13.8345,50.7237],[13.7491,50.7232],[13.6918,50.7118],[13.6019,50.7122],[13.5566,50.7067],[13.5156,50.691],[13.5233,50.6622],[13.4933,50.6432],[13.4982,50.6292],[13.4479,50.5973],[13.407,50.6013],[13.381,50.6255],[13.3219,50.6024],[13.3056,50.5758],[13.2846,50.569],[13.2323,50.582],[13.1991,50.5253],[13.1601,50.497],[13.1074,50.499],[13.0698,50.4911],[13.0096,50.4927],[12.9966,50.4337],[12.9606,50.4092],[12.9184,50.4054],[12.8258,50.4414],[12.7542,50.4353],[12.6788,50.3937],[12.6254,50.3999],[12.5505,50.3964],[12.5102,50.3888],[12.4751,50.3694],[12.469,50.3456],[12.3982,50.3152],[12.3672,50.2791],[12.3365,50.2586],[12.3056,50.1993],[12.3144,50.1673],[12.2834,50.1622],[12.2585,50.2109],[12.2325,50.2325],[12.243,50.253],[12.178,50.2688],[12.1685,50.303],[12.1013,50.314],[12.0761,50.3152]]]}},
{"type":"Feature","properties":{"entityId":"bohemia-kingdom","from":1369,"to":1479,"certainty":"estimated","source":"유럽 쪽은 Natural Earth 1:10m admin-1(v5.1.2) 현대 행정구역 조각을 그 시기 국경에 맞춰 묶고, 조각이 역사 경계와 다른 곳은 선을 그어 나눈 근사. 유럽 밖(시베리아·중앙아시아·극동)은 대략적인 추정. 운영자 검수 필요"},"geometry":{"type":"Polygon","coordinates":[[[12.0761,50.3152],[12.1073,50.2909],[12.1091,50.2638],[12.0796,50.2427],[12.1393,50.211],[12.1827,50.1707],[12.1792,50.118],[12.1879,50.1028],[12.2325,50.0805],[12.2469,50.045],[12.4682,49.9702],[12.4627,49.9313],[12.5241,49.905],[12.5129,49.8702],[12.4825,49.8272],[12.4625,49.8312],[12.4527,49.7797],[12.3954,49.7579],[12.3836,49.7429],[12.4196,49.7002],[12.4964,49.67],[12.502,49.6197],[12.5536,49.5847],[12.5623,49.5508],[12.5937,49.515],[12.623,49.5098],[12.6272,49.4602],[12.6435,49.4295],[12.7293,49.3911],[12.7621,49.3432],[12.7978,49.3278],[12.8754,49.3239],[12.8847,49.3396],[12.9229,49.3327],[12.9998,49.2949],[13.0113,49.2678],[13.0558,49.2382],[13.1495,49.1548],[13.1785,49.1183],[13.2068,49.1075],[13.2673,49.1056],[13.2995,49.0936],[13.3724,49.0385],[13.3842,48.993],[13.4273,48.96],[13.4823,48.9376],[13.5021,48.9661],[13.5224,48.9693],[13.5905,48.9448],[13.6087,48.9462],[13.6218,48.9091],[13.6544,48.8822],[13.7247,48.8673],[13.7962,48.7798],[13.8157,48.7664],[13.8559,48.7593],[13.915,48.731],[13.9823,48.7065],[14.0329,48.6549],[14.0062,48.6395],[14.0408,48.6012],[14.0748,48.5917],[14.2165,48.5812],[14.3157,48.5579],[14.4054,48.5863],[14.4436,48.6365],[14.4582,48.6432],[14.4821,48.6245],[14.522,48.6106],[14.5788,48.6205],[14.6019,48.6045],[14.6347,48.6023],[14.6592,48.577],[14.6911,48.5865],[14.7007,48.6155],[14.7038,48.6731],[14.7227,48.6934],[14.7754,48.724],[14.8004,48.7765],[14.8677,48.7756],[14.9193,48.7616],[14.9511,48.7803],[14.9381,48.8028],[14.9682,48.885],[14.9646,48.9717],[14.9821,49.0079],[15.0596,48.9972],[15.1374,48.993],[15.149,48.9653],[15.1419,48.9375],[15.2381,48.9508],[15.2629,48.9826],[15.3355,48.975],[15.4719,48.9367],[15.5442,48.9026],[15.6037,48.8874],[15.6813,48.8585],[15.7268,48.855],[15.7792,48.8709],[15.8185,48.8723],[15.8401,48.8501],[15.886,48.842],[15.9081,48.8197],[16.0323,48.7581],[16.0854,48.7429],[16.1778,48.7465],[16.3583,48.7273],[16.385,48.7371],[16.4357,48.7945],[16.5103,48.8048],[16.6431,48.7783],[16.662,48.74],[16.729,48.7331],[16.7989,48.7092],[16.873,48.719],[16.8967,48.697],[16.9105,48.6308],[16.945,48.6042],[16.9475,48.6232],[16.9748,48.6499],[17.0253,48.7463],[17.0499,48.774],[17.0987,48.8058],[17.1137,48.8339],[17.1675,48.8598],[17.2122,48.8661],[17.2603,48.8578],[17.3744,48.8196],[17.4112,48.8302],[17.4533,48.8428],[17.4985,48.8168],[17.5351,48.813],[17.646,48.8418],[17.7272,48.8629],[17.7955,48.9206],[17.8603,48.9217],[17.8869,48.9472],[17.9141,49.0105],[17.9592,49.0219],[18.0129,49.0191],[18.0755,49.0472],[18.1029,49.0923],[18.1051,49.1698],[18.1365,49.2331],[18.19,49.2769],[18.3246,49.3113],[18.3616,49.3302],[18.3852,49.3423],[18.387,49.3776],[18.4168,49.3855],[18.4818,49.4291],[18.5147,49.4406],[18.5356,49.4817],[18.5562,49.4902],[18.6004,49.486],[18.6428,49.4958],[18.7045,49.4793],[18.7325,49.4803],[18.7736,49.5049],[18.8332,49.5103],[18.9322,49.5043],[18.9611,49.4928],[18.9524,49.4759],[18.9623,49.3892],[19.0071,49.3881],[19.0676,49.4061],[19.1166,49.3909],[19.1725,49.4023],[19.2205,49.493],[19.2487,49.5163],[19.3471,49.533],[19.4338,49.5952],[19.4489,49.6004],[19.4074,49.6403],[19.433,49.6836],[19.4364,49.7099],[19.3688,49.7176],[19.2989,49.7483],[19.2635,49.8031],[19.2125,49.816],[19.1826,49.8506],[19.1805,49.884],[19.1591,49.9015],[19.1325,49.9032],[19.1124,49.9202],[19.1237,49.9537],[19.1679,50.0039],[19.2032,50.0294],[19.2,50.03],[19.23,50.08],[19.22,50.15],[19.19,50.2],[19.17,50.235],[19.1,50.3],[19.03,50.58],[18.68,50.93],[18.6356,50.9505],[18.6556,50.9952],[18.5806,51.0334],[18.5305,51.0826],[18.4964,51.0608],[18.4257,51.0596],[18.202,51.0959],[18.1726,51.1108],[18.1501,51.1361],[18.0358,51.0932],[17.9174,51.0658],[17.8537,51.068],[17.8012,51.0948],[17.7822,51.1407],[17.7492,51.1514],[17.7146,51.1502],[17.7016,51.2],[17.6902,51.3026],[17.7184,51.3447],[17.6824,51.3628],[17.6443,51.3694],[17.583,51.3617],[17.5239,51.3703],[17.5007,51.407],[17.4952,51.4503],[17.5328,51.4816],[17.5566,51.535],[17.4573,51.5751],[17.3468,51.594],[17.2293,51.5943],[17.1874,51.5889],[17.1496,51.5354],[16.943,51.5127],[16.8277,51.5383],[16.7731,51.5759],[16.6761,51.6095],[16.6328,51.6571],[16.6295,51.6897],[16.6118,51.7149],[16.4991,51.7529],[16.4585,51.7596],[16.3711,51.7492],[16.3221,51.6999],[16.2612,51.6668],[16.182,51.6558],[16.1265,51.6999],[16.1232,51.7345],[16.0965,51.7523],[15.9448,51.7699],[15.9105,51.7272],[15.8804,51.7083],[15.8238,51.6912],[15.7254,51.5716],[15.6147,51.4804],[15.5439,51.4695],[15.4033,51.5178],[15.3301,51.5019],[15.2968,51.4771],[15.2462,51.4227],[15.2171,51.4241],[15.1583,51.456],[15.1294,51.4556],[14.9506,51.3965],[14.9451,51.4492],[14.911,51.469],[14.8414,51.4844],[14.7975,51.5021],[14.7322,51.5158],[14.7068,51.5408],[14.7127,51.5674],[14.7439,51.6066],[14.7423,51.633],[14.7195,51.6756],[14.6484,51.7172],[14.6342,51.769],[14.5858,51.8039],[14.5959,51.8424],[14.6533,51.8786],[14.6956,51.9315],[14.6973,51.9616],[14.6,52.02],[14.3,52.1],[13.95,52.08],[13.75,51.95],[13.55,51.75],[13.55,51.3634],[13.6144,51.3553],[13.7665,51.348],[13.8928,51.3578],[13.9,51.3],[14,51.18],[14.15,51.1],[14.3,51.04],[14.31,51.0353],[14.3566,51.0323],[14.2875,51.0368],[14.2636,51.0214],[14.2383,50.9825],[14.3038,50.9697],[14.2928,50.9535],[14.3183,50.9375],[14.3819,50.9209],[14.3759,50.896],[14.3465,50.8802],[14.2681,50.8841],[14.2321,50.8794],[14.1908,50.8479],[14.0349,50.8026],[13.9596,50.8021],[13.9233,50.78],[13.8925,50.7804],[13.8822,50.7427],[13.8345,50.7237],[13.7491,50.7232],[13.6918,50.7118],[13.6019,50.7122],[13.5566,50.7067],[13.5156,50.691],[13.5233,50.6622],[13.4933,50.6432],[13.4982,50.6292],[13.4479,50.5973],[13.407,50.6013],[13.381,50.6255],[13.3219,50.6024],[13.3056,50.5758],[13.2846,50.569],[13.2323,50.582],[13.1991,50.5253],[13.1601,50.497],[13.1074,50.499],[13.0698,50.4911],[13.0096,50.4927],[12.9966,50.4337],[12.9606,50.4092],[12.9184,50.4054],[12.8258,50.4414],[12.7542,50.4353],[12.6788,50.3937],[12.6254,50.3999],[12.5505,50.3964],[12.5102,50.3888],[12.4751,50.3694],[12.469,50.3456],[12.3982,50.3152],[12.3672,50.2791],[12.3365,50.2586],[12.3056,50.1993],[12.3144,50.1673],[12.2834,50.1622],[12.2585,50.2109],[12.2325,50.2325],[12.243,50.253],[12.178,50.2688],[12.1685,50.303],[12.1013,50.314],[12.0761,50.3152]],[[14.15,51.68],[14.15,51.93],[14.55,51.93],[14.55,51.68],[14.15,51.68]]]}},
{"type":"Feature","properties":{"entityId":"bohemia-kingdom","from":1479,"to":1490,"certainty":"estimated","source":"유럽 쪽은 Natural Earth 1:10m admin-1(v5.1.2) 현대 행정구역 조각을 그 시기 국경에 맞춰 묶고, 조각이 역사 경계와 다른 곳은 선을 그어 나눈 근사. 유럽 밖(시베리아·중앙아시아·극동)은 대략적인 추정. 운영자 검수 필요"},"geometry":{"type":"Polygon","coordinates":[[[12.5241,49.905],[12.4627,49.9313],[12.4682,49.9702],[12.2469,50.045],[12.2325,50.0805],[12.1879,50.1028],[12.1792,50.118],[12.1827,50.1707],[12.1393,50.211],[12.0796,50.2427],[12.1091,50.2638],[12.1073,50.2909],[12.0761,50.3152],[12.1013,50.314],[12.1685,50.303],[12.178,50.2688],[12.243,50.253],[12.2325,50.2325],[12.2585,50.2109],[12.2834,50.1622],[12.3144,50.1673],[12.3056,50.1993],[12.3365,50.2586],[12.3672,50.2791],[12.3982,50.3152],[12.469,50.3456],[12.4751,50.3694],[12.5102,50.3888],[12.5505,50.3964],[12.6254,50.3999],[12.6788,50.3937],[12.7542,50.4353],[12.8258,50.4414],[12.9184,50.4054],[12.9606,50.4092],[12.9966,50.4337],[13.0096,50.4927],[13.0698,50.4911],[13.1074,50.499],[13.1601,50.497],[13.1991,50.5253],[13.2323,50.582],[13.2846,50.569],[13.3056,50.5758],[13.3219,50.6024],[13.381,50.6255],[13.407,50.6013],[13.4479,50.5973],[13.4982,50.6292],[13.4933,50.6432],[13.5233,50.6622],[13.5156,50.691],[13.5566,50.7067],[13.6019,50.7122],[13.6918,50.7118],[13.7491,50.7232],[13.8345,50.7237],[13.8822,50.7427],[13.8925,50.7804],[13.9233,50.78],[13.9596,50.8021],[14.0349,50.8026],[14.1908,50.8479],[14.2321,50.8794],[14.2681,50.8841],[14.3465,50.8802],[14.3759,50.896],[14.3819,50.9209],[14.3183,50.9375],[14.2928,50.9535],[14.3038,50.9697],[14.2383,50.9825],[14.2636,51.0214],[14.2875,51.0368],[14.3566,51.0323],[14.3978,51.0131],[14.4621,51.0197],[14.4821,51.0372],[14.4935,51.0167],[14.5423,50.9987],[14.5743,50.9755],[14.5756,50.9507],[14.5504,50.9121],[14.5618,50.9064],[14.6171,50.9209],[14.6346,50.9094],[14.6083,50.8531],[14.7004,50.816],[14.7754,50.813],[14.8104,50.8584],[14.8679,50.8644],[14.9821,50.8591],[14.9849,50.9181],[14.9966,50.9592],[14.961,50.9927],[14.9965,51.0078],[15.0736,51.0026],[15.1079,50.981],[15.1315,51.0058],[15.1561,51.0078],[15.1702,50.978],[15.2271,50.9774],[15.2698,50.9527],[15.2531,50.9141],[15.2878,50.8549],[15.341,50.8317],[15.353,50.813],[15.3497,50.7837],[15.3703,50.7726],[15.4001,50.798],[15.4418,50.8002],[15.5221,50.7824],[15.6419,50.7558],[15.6843,50.7314],[15.7674,50.7442],[15.7976,50.7298],[15.8482,50.6752],[15.8823,50.6742],[15.9415,50.6884],[15.9715,50.6786],[15.9932,50.6494],[15.9964,50.6237],[15.982,50.6036],[16.0245,50.6086],[16.0865,50.6468],[16.1287,50.644],[16.1755,50.6241],[16.2045,50.6363],[16.2191,50.6591],[16.2683,50.6604],[16.3316,50.644],[16.4168,50.5866],[16.4259,50.5676],[16.3945,50.5593],[16.3912,50.5218],[16.3526,50.4928],[16.3034,50.496],[16.28,50.4799],[16.2112,50.4513],[16.1902,50.4242],[16.1996,50.4063],[16.232,50.4026],[16.2625,50.3644],[16.3342,50.3719],[16.3508,50.3606],[16.3532,50.3335],[16.371,50.3184],[16.4378,50.298],[16.5048,50.228],[16.535,50.2077],[16.5573,50.1547],[16.5842,50.1274],[16.6606,50.093],[16.7012,50.0949],[16.7543,50.1323],[16.7953,50.1744],[16.8177,50.1868],[16.8698,50.1897],[16.8319,50.1277],[16.8068,50.0734],[16.8049,50.0315],[16.7268,49.9933],[16.7483,49.9185],[16.7487,49.8675],[16.7331,49.8286],[16.7962,49.7513],[16.7989,49.7345],[16.8337,49.7116],[16.8412,49.6777],[16.8103,49.657],[16.7892,49.6079],[16.7048,49.6282],[16.5636,49.6339],[16.5346,49.6034],[16.392,49.5973],[16.2856,49.6317],[16.2632,49.653],[16.2126,49.6763],[16.1629,49.6899],[16.1156,49.6893],[16.0728,49.7125],[15.9946,49.7316],[15.9797,49.7145],[15.9246,49.6925],[15.8588,49.6998],[15.843,49.7205],[15.7871,49.7491],[15.7559,49.7792],[15.7291,49.7833],[15.6659,49.8095],[15.5897,49.8055],[15.5283,49.857],[15.485,49.8756],[15.4794,49.849],[15.45,49.8308],[15.4364,49.7986],[15.383,49.7934],[15.3413,49.7706],[15.2656,49.746],[15.2176,49.7444],[15.1758,49.6996],[15.1744,49.6784],[15.2195,49.6565],[15.2355,49.6152],[15.1571,49.5906],[15.0829,49.5926],[15.0347,49.5874],[14.9796,49.5966],[14.9765,49.5786],[14.9228,49.5443],[14.9437,49.5252],[14.9332,49.5127],[14.8895,49.4995],[14.9044,49.4645],[14.9063,49.4298],[14.8852,49.3755],[14.9138,49.3361],[14.9206,49.3003],[14.9771,49.2698],[15.0297,49.2827],[15.0969,49.2498],[15.1233,49.2268],[15.1634,49.2097],[15.2063,49.2324],[15.2745,49.2105],[15.3317,49.2046],[15.354,49.1547],[15.4015,49.1251],[15.4926,49.1202],[15.5427,49.1292],[15.5983,49.0867],[15.5522,49.0777],[15.5379,49.0489],[15.5011,49.0197],[15.4992,49.0012],[15.525,48.9833],[15.5595,48.9798],[15.5747,48.9662],[15.5442,48.9026],[15.4719,48.9367],[15.3355,48.975],[15.2629,48.9826],[15.2381,48.9508],[15.1419,48.9375],[15.149,48.9653],[15.1374,48.993],[15.0596,48.9972],[14.9821,49.0079],[14.9646,48.9717],[14.9682,48.885],[14.9381,48.8028],[14.9511,48.7803],[14.9193,48.7616],[14.8677,48.7756],[14.8004,48.7765],[14.7754,48.724],[14.7227,48.6934],[14.7038,48.6731],[14.7007,48.6155],[14.6911,48.5865],[14.6592,48.577],[14.6347,48.6023],[14.6019,48.6045],[14.5788,48.6205],[14.522,48.6106],[14.4821,48.6245],[14.4582,48.6432],[14.4436,48.6365],[14.4054,48.5863],[14.3157,48.5579],[14.2165,48.5812],[14.0748,48.5917],[14.0408,48.6012],[14.0062,48.6395],[14.0329,48.6549],[13.9823,48.7065],[13.915,48.731],[13.8559,48.7593],[13.8157,48.7664],[13.7962,48.7798],[13.7247,48.8673],[13.6544,48.8822],[13.6218,48.9091],[13.6087,48.9462],[13.5905,48.9448],[13.5224,48.9693],[13.5021,48.9661],[13.4823,48.9376],[13.4273,48.96],[13.3842,48.993],[13.3724,49.0385],[13.2995,49.0936],[13.2673,49.1056],[13.2068,49.1075],[13.1785,49.1183],[13.1495,49.1548],[13.0558,49.2382],[13.0113,49.2678],[12.9998,49.2949],[12.9229,49.3327],[12.8847,49.3396],[12.8754,49.3239],[12.7978,49.3278],[12.7621,49.3432],[12.7293,49.3911],[12.6435,49.4295],[12.6272,49.4602],[12.623,49.5098],[12.5937,49.515],[12.5623,49.5508],[12.5536,49.5847],[12.502,49.6197],[12.4964,49.67],[12.4196,49.7002],[12.3836,49.7429],[12.3954,49.7579],[12.4527,49.7797],[12.4625,49.8312],[12.4825,49.8272],[12.5129,49.8702],[12.5241,49.905]]]}},
{"type":"Feature","properties":{"entityId":"bohemia-kingdom","from":1490,"to":1526,"certainty":"estimated","source":"유럽 쪽은 Natural Earth 1:10m admin-1(v5.1.2) 현대 행정구역 조각을 그 시기 국경에 맞춰 묶고, 조각이 역사 경계와 다른 곳은 선을 그어 나눈 근사. 유럽 밖(시베리아·중앙아시아·극동)은 대략적인 추정. 운영자 검수 필요"},"geometry":{"type":"Polygon","coordinates":[[[12.0761,50.3152],[12.1073,50.2909],[12.1091,50.2638],[12.0796,50.2427],[12.1393,50.211],[12.1827,50.1707],[12.1792,50.118],[12.1879,50.1028],[12.2325,50.0805],[12.2469,50.045],[12.4682,49.9702],[12.4627,49.9313],[12.5241,49.905],[12.5129,49.8702],[12.4825,49.8272],[12.4625,49.8312],[12.4527,49.7797],[12.3954,49.7579],[12.3836,49.7429],[12.4196,49.7002],[12.4964,49.67],[12.502,49.6197],[12.5536,49.5847],[12.5623,49.5508],[12.5937,49.515],[12.623,49.5098],[12.6272,49.4602],[12.6435,49.4295],[12.7293,49.3911],[12.7621,49.3432],[12.7978,49.3278],[12.8754,49.3239],[12.8847,49.3396],[12.9229,49.3327],[12.9998,49.2949],[13.0113,49.2678],[13.0558,49.2382],[13.1495,49.1548],[13.1785,49.1183],[13.2068,49.1075],[13.2673,49.1056],[13.2995,49.0936],[13.3724,49.0385],[13.3842,48.993],[13.4273,48.96],[13.4823,48.9376],[13.5021,48.9661],[13.5224,48.9693],[13.5905,48.9448],[13.6087,48.9462],[13.6218,48.9091],[13.6544,48.8822],[13.7247,48.8673],[13.7962,48.7798],[13.8157,48.7664],[13.8559,48.7593],[13.915,48.731],[13.9823,48.7065],[14.0329,48.6549],[14.0062,48.6395],[14.0408,48.6012],[14.0748,48.5917],[14.2165,48.5812],[14.3157,48.5579],[14.4054,48.5863],[14.4436,48.6365],[14.4582,48.6432],[14.4821,48.6245],[14.522,48.6106],[14.5788,48.6205],[14.6019,48.6045],[14.6347,48.6023],[14.6592,48.577],[14.6911,48.5865],[14.7007,48.6155],[14.7038,48.6731],[14.7227,48.6934],[14.7754,48.724],[14.8004,48.7765],[14.8677,48.7756],[14.9193,48.7616],[14.9511,48.7803],[14.9381,48.8028],[14.9682,48.885],[14.9646,48.9717],[14.9821,49.0079],[15.0596,48.9972],[15.1374,48.993],[15.149,48.9653],[15.1419,48.9375],[15.2381,48.9508],[15.2629,48.9826],[15.3355,48.975],[15.4719,48.9367],[15.5442,48.9026],[15.6037,48.8874],[15.6813,48.8585],[15.7268,48.855],[15.7792,48.8709],[15.8185,48.8723],[15.8401,48.8501],[15.886,48.842],[15.9081,48.8197],[16.0323,48.7581],[16.0854,48.7429],[16.1778,48.7465],[16.3583,48.7273],[16.385,48.7371],[16.4357,48.7945],[16.5103,48.8048],[16.6431,48.7783],[16.662,48.74],[16.729,48.7331],[16.7989,48.7092],[16.873,48.719],[16.8967,48.697],[16.9105,48.6308],[16.945,48.6042],[16.9475,48.6232],[16.9748,48.6499],[17.0253,48.7463],[17.0499,48.774],[17.0987,48.8058],[17.1137,48.8339],[17.1675,48.8598],[17.2122,48.8661],[17.2603,48.8578],[17.3744,48.8196],[17.4112,48.8302],[17.4533,48.8428],[17.4985,48.8168],[17.5351,48.813],[17.646,48.8418],[17.7272,48.8629],[17.7955,48.9206],[17.8603,48.9217],[17.8869,48.9472],[17.9141,49.0105],[17.9592,49.0219],[18.0129,49.0191],[18.0755,49.0472],[18.1029,49.0923],[18.1051,49.1698],[18.1365,49.2331],[18.19,49.2769],[18.3246,49.3113],[18.3616,49.3302],[18.3852,49.3423],[18.387,49.3776],[18.4168,49.3855],[18.4818,49.4291],[18.5147,49.4406],[18.5356,49.4817],[18.5562,49.4902],[18.6004,49.486],[18.6428,49.4958],[18.7045,49.4793],[18.7325,49.4803],[18.7736,49.5049],[18.8332,49.5103],[18.9322,49.5043],[18.9611,49.4928],[18.9524,49.4759],[18.9623,49.3892],[19.0071,49.3881],[19.0676,49.4061],[19.1166,49.3909],[19.1725,49.4023],[19.2205,49.493],[19.2487,49.5163],[19.3471,49.533],[19.4338,49.5952],[19.4489,49.6004],[19.4074,49.6403],[19.433,49.6836],[19.4364,49.7099],[19.3688,49.7176],[19.2989,49.7483],[19.2635,49.8031],[19.2125,49.816],[19.1826,49.8506],[19.1805,49.884],[19.1591,49.9015],[19.1325,49.9032],[19.1124,49.9202],[19.1237,49.9537],[19.1679,50.0039],[19.2032,50.0294],[19.2,50.03],[19.23,50.08],[19.22,50.15],[19.19,50.2],[19.17,50.235],[19.1,50.3],[19.03,50.58],[18.68,50.93],[18.6356,50.9505],[18.6556,50.9952],[18.5806,51.0334],[18.5305,51.0826],[18.4964,51.0608],[18.4257,51.0596],[18.202,51.0959],[18.1726,51.1108],[18.1501,51.1361],[18.0358,51.0932],[17.9174,51.0658],[17.8537,51.068],[17.8012,51.0948],[17.7822,51.1407],[17.7492,51.1514],[17.7146,51.1502],[17.7016,51.2],[17.6902,51.3026],[17.7184,51.3447],[17.6824,51.3628],[17.6443,51.3694],[17.583,51.3617],[17.5239,51.3703],[17.5007,51.407],[17.4952,51.4503],[17.5328,51.4816],[17.5566,51.535],[17.4573,51.5751],[17.3468,51.594],[17.2293,51.5943],[17.1874,51.5889],[17.1496,51.5354],[16.943,51.5127],[16.8277,51.5383],[16.7731,51.5759],[16.6761,51.6095],[16.6328,51.6571],[16.6295,51.6897],[16.6118,51.7149],[16.4991,51.7529],[16.4585,51.7596],[16.3711,51.7492],[16.3221,51.6999],[16.2612,51.6668],[16.182,51.6558],[16.1265,51.6999],[16.1232,51.7345],[16.0965,51.7523],[15.9448,51.7699],[15.9105,51.7272],[15.8804,51.7083],[15.8238,51.6912],[15.7254,51.5716],[15.6147,51.4804],[15.5439,51.4695],[15.4033,51.5178],[15.3301,51.5019],[15.2968,51.4771],[15.2462,51.4227],[15.2171,51.4241],[15.1583,51.456],[15.1294,51.4556],[14.9506,51.3965],[14.9451,51.4492],[14.911,51.469],[14.8414,51.4844],[14.7975,51.5021],[14.7322,51.5158],[14.7068,51.5408],[14.7127,51.5674],[14.7439,51.6066],[14.7423,51.633],[14.7195,51.6756],[14.6484,51.7172],[14.6342,51.769],[14.5858,51.8039],[14.5959,51.8424],[14.6533,51.8786],[14.6956,51.9315],[14.6973,51.9616],[14.6,52.02],[14.3,52.1],[13.95,52.08],[13.75,51.95],[13.55,51.75],[13.55,51.3634],[13.6144,51.3553],[13.7665,51.348],[13.8928,51.3578],[13.9,51.3],[14,51.18],[14.15,51.1],[14.3,51.04],[14.31,51.0353],[14.3566,51.0323],[14.2875,51.0368],[14.2636,51.0214],[14.2383,50.9825],[14.3038,50.9697],[14.2928,50.9535],[14.3183,50.9375],[14.3819,50.9209],[14.3759,50.896],[14.3465,50.8802],[14.2681,50.8841],[14.2321,50.8794],[14.1908,50.8479],[14.0349,50.8026],[13.9596,50.8021],[13.9233,50.78],[13.8925,50.7804],[13.8822,50.7427],[13.8345,50.7237],[13.7491,50.7232],[13.6918,50.7118],[13.6019,50.7122],[13.5566,50.7067],[13.5156,50.691],[13.5233,50.6622],[13.4933,50.6432],[13.4982,50.6292],[13.4479,50.5973],[13.407,50.6013],[13.381,50.6255],[13.3219,50.6024],[13.3056,50.5758],[13.2846,50.569],[13.2323,50.582],[13.1991,50.5253],[13.1601,50.497],[13.1074,50.499],[13.0698,50.4911],[13.0096,50.4927],[12.9966,50.4337],[12.9606,50.4092],[12.9184,50.4054],[12.8258,50.4414],[12.7542,50.4353],[12.6788,50.3937],[12.6254,50.3999],[12.5505,50.3964],[12.5102,50.3888],[12.4751,50.3694],[12.469,50.3456],[12.3982,50.3152],[12.3672,50.2791],[12.3365,50.2586],[12.3056,50.1993],[12.3144,50.1673],[12.2834,50.1622],[12.2585,50.2109],[12.2325,50.2325],[12.243,50.253],[12.178,50.2688],[12.1685,50.303],[12.1013,50.314],[12.0761,50.3152]],[[14.15,51.68],[14.15,51.93],[14.55,51.93],[14.55,51.68],[14.15,51.68]]]}}
]}
