{"type":"FeatureCollection","features":[
{"type":"Feature","properties":{"entityId":"bohemia-moravia","from":1939,"to":1945,"certainty":"estimated","source":"유럽 쪽은 Natural Earth 1:10m admin-1(v5.1.2) 현대 행정구역 조각을 그 시기 국경에 맞춰 묶고, 조각이 역사 경계와 다른 곳은 선을 그어 나눈 근사. 유럽 밖(시베리아·중앙아시아·극동)은 대략적인 추정. 운영자 검수 필요"},"geometry":{"type":"Polygon","coordinates":[[[12.95,49.45],[13.1,49.35],[13.3,49.3],[13.5,49.2],[13.75,49.1],[13.95,49.05],[14.2,48.95],[14.4,48.92],[14.6,48.88],[14.85,48.95],[15.05,49.05],[15.25,49.08],[15.5,49.02],[16,48.92],[16.25,48.95],[16.5,48.97],[16.7,48.9],[16.85,48.82],[17,48.72],[16.9555,48.631],[16.9748,48.6499],[17.0253,48.7463],[17.0499,48.774],[17.0987,48.8058],[17.1137,48.8339],[17.1675,48.8598],[17.2122,48.8661],[17.2603,48.8578],[17.3744,48.8196],[17.4112,48.8302],[17.4533,48.8428],[17.4985,48.8168],[17.5351,48.813],[17.646,48.8418],[17.7272,48.8629],[17.7955,48.9206],[17.8603,48.9217],[17.8869,48.9472],[17.9141,49.0105],[17.9592,49.0219],[18.0129,49.0191],[18.0755,49.0472],[18.1029,49.0923],[18.1051,49.1698],[18.1365,49.2331],[18.19,49.2769],[18.3246,49.3113],[18.3616,49.3302],[18.3852,49.3423],[18.387,49.3776],[18.4168,49.3855],[18.4818,49.4291],[18.5147,49.4406],[18.5356,49.4817],[18.5562,49.4902],[18.6004,49.486],[18.6428,49.4958],[18.7045,49.4793],[18.7325,49.4803],[18.7736,49.5049],[18.8332,49.5103],[18.8345,49.5476],[18.7993,49.6264],[18.7926,49.6608],[18.7735,49.6758],[18.7277,49.6689],[18.6824,49.6958],[18.6373,49.7003],[18.6177,49.7139],[18.6077,49.743],[18.5668,49.8048],[18.5663,49.8316],[18.5938,49.8522],[18.5673,49.8615],[18.5592,49.9072],[18.5444,49.913],[18.4818,49.8966],[18.3688,49.932],[18.2925,49.9078],[18.2792,49.9217],[18.15,49.87],[18.22,49.78],[18.15,49.62],[18,49.55],[17.85,49.6],[17.65,49.6],[17.45,49.65],[17.3,49.68],[17.15,49.68],[16.95,49.72],[16.75,49.65],[16.5,49.68],[16.35,49.82],[16.4,49.95],[16.42,50.08],[16.38,50.2],[16.3,50.35],[16.2772,50.3659],[16.2625,50.3644],[16.2411,50.3913],[16.2235,50.4036],[16.1996,50.4063],[16.1918,50.4212],[16,50.45],[15.75,50.48],[15.55,50.55],[15.3,50.6],[15.05,50.6],[14.55,50.5],[14.35,50.45],[14.15,50.45],[13.95,50.4],[13.75,50.3],[13.6,50.2],[13.4,50.08],[13.25,49.95],[13.15,49.78],[13.05,49.6],[12.95,49.45]]]}}
]}
