{"type":"FeatureCollection","features":[
{"type":"Feature","properties":{"entityId":"bosnia-kingdom","from":1377,"to":1390,"certainty":"estimated","source":"유럽 쪽은 Natural Earth 1:10m admin-1(v5.1.2) 현대 행정구역 조각을 그 시기 국경에 맞춰 묶고, 조각이 역사 경계와 다른 곳은 선을 그어 나눈 근사. 유럽 밖(시베리아·중앙아시아·극동)은 대략적인 추정. 운영자 검수 필요"},"geometry":{"type":"Polygon","coordinates":[[[16.1876,44.2824],[16.2158,44.2082],[16.2755,44.1574],[16.3269,44.0824],[16.3672,44.0581],[16.404,44.0588],[16.4396,44.014],[16.4835,44.0025],[16.5274,43.9679],[16.5558,43.9375],[16.6048,43.9011],[16.6374,43.8684],[16.6786,43.8407],[16.6982,43.7881],[16.7126,43.7715],[16.8238,43.7073],[17.0623,43.5277],[17.1428,43.4893],[17.2395,43.4784],[17.2705,43.4632],[17.2864,43.4374],[17.2676,43.3533],[17.2899,43.3034],[17.3287,43.2604],[17.4002,43.216],[17.4268,43.1657],[17.4509,43.1482],[17.4063,43.1418],[17.3531,43.1568],[17.4063,43.1005],[17.3654,43.0792],[17.3588,43.0857],[17.3588,43.063],[17.3292,43.063],[17.3292,43.0764],[17.2262,43.0764],[17.2262,43.064],[17.1747,43.064],[17.1747,43.0569],[17.2262,43.0249],[17.2274,43.0241],[17.2258,43.0242],[17.221,43.0259],[17.2094,43.0259],[17.1587,43.031],[17.15,43.0303],[17.15,43.025],[17.4,43],[17.5,42.96],[17.62,42.97],[17.6523,43.0055],[17.6593,42.9934],[17.6627,42.9657],[17.6345,42.9504],[17.5807,42.9421],[17.587,42.9387],[17.587,42.9283],[17.5612,42.9338],[17.5612,42.9471],[17.5354,42.9538],[17.5354,42.9272],[17.5733,42.9272],[17.587,42.921],[17.587,42.9005],[17.6127,42.893],[17.6385,42.8854],[17.6385,42.8976],[17.6533,42.8909],[17.6795,42.9157],[17.7016,42.9195],[17.7867,42.9014],[17.8118,42.9099],[17.8262,42.8886],[17.8272,42.8531],[17.8585,42.817],[17.9045,42.8045],[17.9719,42.755],[18.2241,42.6281],[18.3116,42.6012],[18.3387,42.6025],[18.3698,42.5744],[18.4374,42.5592],[18.442,42.543],[18.4364,42.5108],[18.4371,42.4934],[18.4443,42.4779],[18.4677,42.4534],[18.4929,42.4424],[18.4964,42.4163],[18.5103,42.4053],[18.5197,42.4332],[18.5476,42.4291],[18.5452,42.4236],[18.553,42.4136],[18.5781,42.4004],[18.5706,42.393],[18.5949,42.3837],[18.6167,42.3681],[18.6384,42.3703],[18.6532,42.3663],[18.6535,42.3674],[18.6585,42.3866],[18.66,42.3867],[18.6531,42.4012],[18.6449,42.4184],[18.6565,42.4155],[18.6568,42.4154],[18.6568,42.4543],[18.6541,42.4518],[18.6327,42.4959],[18.6112,42.5219],[18.5571,42.5484],[18.5068,42.5985],[18.5384,42.6183],[18.5428,42.6264],[18.6013,42.6244],[18.6483,42.6293],[18.6838,42.6419],[18.696,42.6851],[18.7274,42.7181],[18.7971,42.6953],[18.8599,42.6908],[18.9143,42.6575],[18.9372,42.6202],[18.9817,42.6222],[18.9952,42.6349],[18.9971,42.6641],[19.0144,42.6873],[19.0723,42.7088],[19.1255,42.6988],[19.1779,42.695],[19.2131,42.7082],[19.2107,42.7595],[19.2057,42.792],[19.2187,42.8397],[19.2086,42.8589],[19.1999,42.8876],[19.2278,42.9105],[19.2925,42.9022],[19.343,42.9009],[19.3723,42.9345],[19.3417,42.9536],[19.3317,42.9901],[19.3352,43.0114],[19.3494,43.0216],[19.3809,43.0276],[19.4111,43.0452],[19.4256,43.0514],[19.4595,43.0496],[19.4725,43.0971],[19.4998,43.1095],[19.5284,43.1426],[19.5478,43.2188],[19.5124,43.2406],[19.4731,43.2933],[19.414,43.3384],[19.3556,43.3931],[19.2184,43.4382],[19.1922,43.4545],[19.1759,43.4809],[19.1752,43.5096],[19.1953,43.5328],[19.2175,43.5328],[19.2527,43.5886],[19.3009,43.5883],[19.3466,43.6088],[19.3805,43.5856],[19.4107,43.5408],[19.4318,43.5711],[19.4817,43.5608],[19.4756,43.6026],[19.4817,43.6289],[19.5074,43.6472],[19.5057,43.6736],[19.4617,43.7621],[19.3595,43.8422],[19.2754,43.9333],[19.241,43.9524],[19.225,43.9215],[19.1274,43.9987],[19.0057,44.0474],[18.9084,44.092],[18.7366,44.1203],[18.7631,44.1488],[18.7867,44.1804],[18.7924,44.2148],[18.7824,44.2462],[18.7523,44.2992],[18.7452,44.3407],[18.7538,44.3578],[18.8067,44.3736],[18.8382,44.4165],[18.9226,44.4265],[19.0199,44.4759],[19.0284,44.4902],[19.0311,44.5675],[19.0993,44.5942],[19.1472,44.575],[19.1796,44.5383],[19.1863,44.5693],[19.2557,44.6456],[19.2776,44.6849],[19.3084,44.7051],[19.3284,44.734],[19.3637,44.8546],[19.3766,44.863],[19.357,44.8959],[19.3102,44.9124],[19.2395,44.9151],[19.2019,44.9084],[19.1743,44.9254],[19.0846,44.879],[19.0158,44.8656],[18.9749,44.8628],[18.8896,44.8612],[18.8587,44.8685],[18.8421,44.8762],[18.8178,44.8875],[18.7834,44.9137],[18.7726,44.9425],[18.8046,44.9738],[18.789,45.0057],[18.7501,45.0122],[18.7263,45.0261],[18.689,45.0802],[18.6661,45.083],[18.6581,45.0663],[18.6405,45.0654],[18.6167,45.0977],[18.5348,45.0884],[18.5411,45.0553],[18.517,45.0559],[18.4817,45.0669],[18.4518,45.085],[18.412,45.1124],[18.3929,45.1186],[18.3223,45.1229],[18.262,45.1507],[18.2379,45.1575],[18.2023,45.1441],[18.1993,45.119],[18.1749,45.1008],[18.1437,45.0977],[18.0903,45.108],[18.0191,45.1494],[17.9885,45.1438],[17.9277,45.092],[17.9026,45.0778],[17.8357,45.0644],[17.7975,45.082],[17.7657,45.111],[17.7145,45.152],[17.6847,45.164],[17.63,45.1573],[17.5724,45.1204],[17.4893,45.1163],[17.4962,45.1417],[17.4478,45.1343],[17.4341,45.1486],[17.3824,45.1396],[17.269,45.1895],[17.2455,45.1554],[17.1871,45.1486],[17.1246,45.1691],[17.0557,45.2004],[17.0363,45.2305],[17.0083,45.2162],[16.9612,45.2509],[16.9473,45.2357],[16.9244,45.2845],[16.8307,45.217],[16.8242,45.1891],[16.7863,45.1788],[16.587,45.2209],[16.5289,45.2223],[16.4819,45.1995],[16.4355,45.1329],[16.3818,45.1076],[16.382,45.0837],[16.346,45.02],[16.3489,44.9916],[16.2788,44.973],[16.2631,44.9544],[16.273,44.9215],[16.3017,44.8972],[16.3332,44.89],[16.5592,44.8771],[16.7037,44.8557],[16.7452,44.8371],[16.7895,44.8056],[16.8282,44.767],[16.8382,44.7412],[16.8382,44.684],[16.8782,44.6625],[16.8825,44.6211],[16.8811,44.5138],[16.8525,44.4594],[16.7537,44.4551],[16.6264,44.4895],[16.5664,44.5023],[16.5077,44.5009],[16.5034,44.4808],[16.5257,44.4553],[16.4794,44.4066],[16.3405,44.3815],[16.2809,44.3815],[16.2597,44.3576],[16.2056,44.3505],[16.1876,44.2824]]]}},
{"type":"Feature","properties":{"entityId":"bosnia-kingdom","from":1390,"to":1394,"certainty":"estimated","source":"유럽 쪽은 Natural Earth 1:10m admin-1(v5.1.2) 현대 행정구역 조각을 그 시기 국경에 맞춰 묶고, 조각이 역사 경계와 다른 곳은 선을 그어 나눈 근사. 유럽 밖(시베리아·중앙아시아·극동)은 대략적인 추정. 운영자 검수 필요"},"geometry":{"type":"MultiPolygon","coordinates":[[[[14.8496,44.1756],[14.8701,44.1408],[14.9044,44.1145],[15.0421,43.9914],[15.0428,43.9904],[15.1066,43.9254],[15.1365,43.903],[15.1386,43.9079],[15.1508,43.9108],[15.1844,43.9016],[15.1955,43.8952],[15.1985,43.8977],[15.201,43.897],[15.201,43.8971],[15.2014,43.897],[15.2029,43.9013],[15.2168,43.9128],[15.1764,43.9334],[15.0266,44.0571],[15.0227,44.0722],[14.9906,44.0868],[14.9529,44.1179],[14.9403,44.1252],[14.9391,44.1271],[14.9102,44.1428],[14.8665,44.1682],[14.8667,44.1678],[14.8661,44.1682],[14.8665,44.1676],[14.8661,44.1678],[14.8671,44.1661],[14.8496,44.1756]]],[[[15.0625,44.1619],[15.0655,44.1573],[15.0646,44.1578],[15.0648,44.1575],[15.0642,44.1578],[15.0645,44.1572],[15.0642,44.1574],[15.075,44.1383],[15.0821,44.1314],[15.0871,44.1237],[15.1218,44.0922],[15.1891,44.0478],[15.2061,44.049],[15.2431,44.0297],[15.2544,44.0179],[15.2471,44.0467],[15.2303,44.0621],[15.2302,44.0623],[15.2298,44.0625],[15.2258,44.0662],[15.0625,44.1619]]],[[[15.1104,44.2644],[15.1219,44.2564],[15.1218,44.2564],[15.1573,44.2098],[15.1445,44.1955],[15.2127,44.1483],[15.2129,44.131],[15.2783,44.0856],[15.3195,44.0452],[15.3581,44.0257],[15.4661,43.9217],[15.492,43.9158],[15.4998,43.9092],[15.5387,43.8847],[15.5469,43.8766],[15.5741,43.8595],[15.5853,43.8554],[15.6415,43.8201],[15.6174,43.8255],[15.633,43.8105],[15.6821,43.7972],[15.7063,43.7634],[15.7242,43.7625],[15.9201,43.5905],[15.9595,43.5382],[15.9681,43.5403],[15.981,43.5257],[15.9735,43.5031],[16.0128,43.504],[16.0396,43.4908],[16.0924,43.4823],[16.441,43.3687],[16.4286,43.3436],[16.4214,43.3176],[16.4215,43.3176],[16.4214,43.3172],[16.4898,43.2859],[16.4996,43.2847],[16.5007,43.2842],[16.564,43.2701],[16.6283,43.2637],[16.7547,43.2665],[16.9169,43.2136],[16.929,43.2097],[17.0302,43.1468],[16.9169,43.1565],[16.8869,43.1591],[16.8644,43.1689],[16.8484,43.1624],[16.7113,43.1741],[16.6943,43.1793],[16.6745,43.1969],[16.6595,43.216],[16.6038,43.2235],[16.5955,43.2205],[16.5719,43.2232],[16.5628,43.229],[16.5205,43.229],[16.5207,43.2288],[16.3746,43.2134],[16.375,43.2132],[16.3748,43.2132],[16.3751,43.2131],[16.3746,43.213],[16.3973,43.2021],[16.3804,43.202],[16.3716,43.1955],[16.4452,43.1708],[16.5393,43.148],[16.551,43.1436],[16.6806,43.1228],[16.9169,43.1191],[17.0788,43.1165],[17.1231,43.089],[17.1489,43.0729],[17.1747,43.0569],[17.2262,43.0249],[17.2274,43.0241],[17.2258,43.0242],[17.221,43.0259],[17.2094,43.0259],[17.1587,43.031],[17.15,43.0303],[17.15,43.025],[17.4,43],[17.5,42.96],[17.62,42.97],[17.6523,43.0055],[17.6593,42.9934],[17.6627,42.9657],[17.6345,42.9504],[17.5807,42.9421],[17.587,42.9387],[17.587,42.9283],[17.5612,42.9338],[17.5612,42.9471],[17.5354,42.9538],[17.5354,42.9272],[17.5733,42.9272],[17.587,42.921],[17.587,42.9005],[17.6127,42.893],[17.6385,42.8854],[17.6385,42.8976],[17.6533,42.8909],[17.6795,42.9157],[17.7016,42.9195],[17.7867,42.9014],[17.8118,42.9099],[17.8262,42.8886],[17.8272,42.8531],[17.8585,42.817],[17.9045,42.8045],[17.9719,42.755],[18.2241,42.6281],[18.3116,42.6012],[18.3387,42.6025],[18.3698,42.5744],[18.4374,42.5592],[18.442,42.543],[18.4364,42.5108],[18.4371,42.4934],[18.4443,42.4779],[18.4677,42.4534],[18.4929,42.4424],[18.4964,42.4163],[18.5103,42.4053],[18.5197,42.4332],[18.5476,42.4291],[18.5452,42.4236],[18.553,42.4136],[18.5781,42.4004],[18.5706,42.393],[18.5949,42.3837],[18.6167,42.3681],[18.6384,42.3703],[18.6532,42.3663],[18.6535,42.3674],[18.6585,42.3866],[18.66,42.3867],[18.6531,42.4012],[18.6449,42.4184],[18.6565,42.4155],[18.6568,42.4154],[18.6568,42.4543],[18.6541,42.4518],[18.6327,42.4959],[18.6112,42.5219],[18.5571,42.5484],[18.5068,42.5985],[18.5384,42.6183],[18.5428,42.6264],[18.6013,42.6244],[18.6483,42.6293],[18.6838,42.6419],[18.696,42.6851],[18.7274,42.7181],[18.7971,42.6953],[18.8599,42.6908],[18.9143,42.6575],[18.9372,42.6202],[18.9817,42.6222],[18.9952,42.6349],[18.9971,42.6641],[19.0144,42.6873],[19.0723,42.7088],[19.1255,42.6988],[19.1779,42.695],[19.2131,42.7082],[19.2107,42.7595],[19.2057,42.792],[19.2187,42.8397],[19.2086,42.8589],[19.1999,42.8876],[19.2278,42.9105],[19.2925,42.9022],[19.343,42.9009],[19.3723,42.9345],[19.3417,42.9536],[19.3317,42.9901],[19.3352,43.0114],[19.3494,43.0216],[19.3809,43.0276],[19.4111,43.0452],[19.4256,43.0514],[19.4595,43.0496],[19.4725,43.0971],[19.4998,43.1095],[19.5284,43.1426],[19.5478,43.2188],[19.5124,43.2406],[19.4731,43.2933],[19.414,43.3384],[19.3556,43.3931],[19.2184,43.4382],[19.1922,43.4545],[19.1759,43.4809],[19.1752,43.5096],[19.1953,43.5328],[19.2175,43.5328],[19.2527,43.5886],[19.3009,43.5883],[19.3466,43.6088],[19.3805,43.5856],[19.4107,43.5408],[19.4318,43.5711],[19.4817,43.5608],[19.4756,43.6026],[19.4817,43.6289],[19.5074,43.6472],[19.5057,43.6736],[19.4617,43.7621],[19.3595,43.8422],[19.2754,43.9333],[19.241,43.9524],[19.225,43.9215],[19.1274,43.9987],[19.0057,44.0474],[18.9084,44.092],[18.7366,44.1203],[18.7631,44.1488],[18.7867,44.1804],[18.7924,44.2148],[18.7824,44.2462],[18.7523,44.2992],[18.7452,44.3407],[18.7538,44.3578],[18.8067,44.3736],[18.8382,44.4165],[18.9226,44.4265],[19.0199,44.4759],[19.0284,44.4902],[19.0311,44.5675],[19.0993,44.5942],[19.1472,44.575],[19.1796,44.5383],[19.1863,44.5693],[19.2557,44.6456],[19.2776,44.6849],[19.3084,44.7051],[19.3284,44.734],[19.3637,44.8546],[19.3766,44.863],[19.357,44.8959],[19.3102,44.9124],[19.2395,44.9151],[19.2019,44.9084],[19.1743,44.9254],[19.0846,44.879],[19.0158,44.8656],[18.9749,44.8628],[18.8896,44.8612],[18.8587,44.8685],[18.8421,44.8762],[18.8178,44.8875],[18.7834,44.9137],[18.7726,44.9425],[18.8046,44.9738],[18.789,45.0057],[18.7501,45.0122],[18.7263,45.0261],[18.689,45.0802],[18.6661,45.083],[18.6581,45.0663],[18.6405,45.0654],[18.6167,45.0977],[18.5348,45.0884],[18.5411,45.0553],[18.517,45.0559],[18.4817,45.0669],[18.4518,45.085],[18.412,45.1124],[18.3929,45.1186],[18.3223,45.1229],[18.262,45.1507],[18.2379,45.1575],[18.2023,45.1441],[18.1993,45.119],[18.1749,45.1008],[18.1437,45.0977],[18.0903,45.108],[18.0191,45.1494],[17.9885,45.1438],[17.9277,45.092],[17.9026,45.0778],[17.8357,45.0644],[17.7975,45.082],[17.7657,45.111],[17.7145,45.152],[17.6847,45.164],[17.63,45.1573],[17.5724,45.1204],[17.4893,45.1163],[17.4962,45.1417],[17.4478,45.1343],[17.4341,45.1486],[17.3824,45.1396],[17.269,45.1895],[17.2455,45.1554],[17.1871,45.1486],[17.1246,45.1691],[17.0557,45.2004],[17.0363,45.2305],[17.0083,45.2162],[16.9612,45.2509],[16.9473,45.2357],[16.9244,45.2845],[16.8307,45.217],[16.8242,45.1891],[16.7863,45.1788],[16.587,45.2209],[16.5289,45.2223],[16.4819,45.1995],[16.4355,45.1329],[16.3818,45.1076],[16.382,45.0837],[16.346,45.02],[16.3489,44.9916],[16.2788,44.973],[16.2631,44.9544],[16.273,44.9215],[16.3017,44.8972],[16.3332,44.89],[16.5592,44.8771],[16.7037,44.8557],[16.7452,44.8371],[16.7895,44.8056],[16.8282,44.767],[16.8382,44.7412],[16.8382,44.684],[16.8782,44.6625],[16.8825,44.6211],[16.8811,44.5138],[16.8525,44.4594],[16.7537,44.4551],[16.6264,44.4895],[16.5664,44.5023],[16.5077,44.5009],[16.5034,44.4808],[16.5257,44.4553],[16.4794,44.4066],[16.3405,44.3815],[16.2809,44.3815],[16.2597,44.3576],[16.2056,44.3505],[16.1876,44.2824],[16.2158,44.2082],[16.2755,44.1574],[16.3269,44.0824],[16.3672,44.0581],[16.404,44.0588],[16.4396,44.014],[16.4835,44.0025],[16.5274,43.9679],[16.5558,43.9375],[16.6048,43.9011],[16.6374,43.8684],[16.6786,43.8407],[16.6982,43.7881],[16.7126,43.7715],[16.8238,43.7073],[17.0623,43.5277],[17.1428,43.4893],[17.2395,43.4784],[17.2705,43.4632],[17.2864,43.4374],[17.2676,43.3533],[17.2899,43.3034],[17.3287,43.2604],[17.4002,43.216],[17.4268,43.1657],[17.4509,43.1482],[17.4063,43.1418],[17.3531,43.1568],[17.3734,43.1511],[17.3,43.2],[17.1,43.32],[16.9,43.4],[16.72,43.47],[16.55,43.52],[16.4,43.56],[16.2,43.58],[16.05,43.62],[15.88,43.76],[15.8,43.82],[15.62,43.92],[15.48,44],[15.45,44.12],[15.5,44.22],[15.3769,44.3185],[15.3307,44.3014],[15.3086,44.3093],[15.2612,44.3326],[15.3027,44.2991],[15.2883,44.2897],[15.2838,44.2897],[15.2448,44.2772],[15.1981,44.3017],[15.2078,44.2728],[15.2073,44.2724],[15.183,44.2724],[15.1653,44.2679],[15.1576,44.2803],[15.1104,44.2644]]],[[[15.2612,44.0111],[15.3027,43.9664],[15.3066,43.9642],[15.309,43.9612],[15.3579,43.9259],[15.3587,43.9194],[15.4071,43.8961],[15.4461,43.8875],[15.4387,43.8988],[15.439,43.8987],[15.4385,43.8992],[15.439,43.8991],[15.4372,43.9011],[15.4188,43.9291],[15.4058,43.9354],[15.3883,43.9545],[15.384,43.9702],[15.3719,43.9724],[15.3706,43.9738],[15.323,43.991],[15.2964,44.0056],[15.2724,44.0093],[15.2698,44.0103],[15.27,44.0101],[15.2694,44.0103],[15.2697,44.0098],[15.2694,44.0099],[15.2695,44.0098],[15.2612,44.0111]]],[[[15.2938,44.3648],[15.308,44.3544],[15.3501,44.3399],[15.3031,44.3775],[15.2938,44.3648]]]]}},
{"type":"Feature","properties":{"entityId":"bosnia-kingdom","from":1394,"to":1448,"certainty":"estimated","source":"유럽 쪽은 Natural Earth 1:10m admin-1(v5.1.2) 현대 행정구역 조각을 그 시기 국경에 맞춰 묶고, 조각이 역사 경계와 다른 곳은 선을 그어 나눈 근사. 유럽 밖(시베리아·중앙아시아·극동)은 대략적인 추정. 운영자 검수 필요"},"geometry":{"type":"Polygon","coordinates":[[[16.1876,44.2824],[16.2158,44.2082],[16.2755,44.1574],[16.3269,44.0824],[16.3672,44.0581],[16.404,44.0588],[16.4396,44.014],[16.4835,44.0025],[16.5274,43.9679],[16.5558,43.9375],[16.6048,43.9011],[16.6374,43.8684],[16.6786,43.8407],[16.6982,43.7881],[16.7126,43.7715],[16.8238,43.7073],[17.0623,43.5277],[17.1428,43.4893],[17.2395,43.4784],[17.2705,43.4632],[17.2864,43.4374],[17.2676,43.3533],[17.2899,43.3034],[17.3287,43.2604],[17.4002,43.216],[17.4268,43.1657],[17.4509,43.1482],[17.4063,43.1418],[17.3531,43.1568],[17.4063,43.1005],[17.3654,43.0792],[17.3588,43.0857],[17.3588,43.063],[17.3292,43.063],[17.3292,43.0764],[17.2262,43.0764],[17.2262,43.064],[17.1747,43.064],[17.1747,43.0569],[17.2262,43.0249],[17.2274,43.0241],[17.2258,43.0242],[17.221,43.0259],[17.2094,43.0259],[17.1587,43.031],[17.15,43.0303],[17.15,43.025],[17.4,43],[17.5,42.96],[17.62,42.97],[17.6523,43.0055],[17.6593,42.9934],[17.6627,42.9657],[17.6345,42.9504],[17.5807,42.9421],[17.587,42.9387],[17.587,42.9283],[17.5612,42.9338],[17.5612,42.9471],[17.5354,42.9538],[17.5354,42.9272],[17.5733,42.9272],[17.587,42.921],[17.587,42.9005],[17.6127,42.893],[17.6385,42.8854],[17.6385,42.8976],[17.6533,42.8909],[17.6795,42.9157],[17.7016,42.9195],[17.7867,42.9014],[17.8118,42.9099],[17.8262,42.8886],[17.8272,42.8531],[17.8585,42.817],[17.9045,42.8045],[17.9719,42.755],[18.2241,42.6281],[18.3116,42.6012],[18.3387,42.6025],[18.3698,42.5744],[18.4374,42.5592],[18.442,42.543],[18.4364,42.5108],[18.4371,42.4934],[18.4443,42.4779],[18.4677,42.4534],[18.4929,42.4424],[18.4964,42.4163],[18.5103,42.4053],[18.5197,42.4332],[18.5476,42.4291],[18.5452,42.4236],[18.553,42.4136],[18.5781,42.4004],[18.5706,42.393],[18.5949,42.3837],[18.6167,42.3681],[18.6384,42.3703],[18.6532,42.3663],[18.6535,42.3674],[18.6585,42.3866],[18.66,42.3867],[18.6531,42.4012],[18.6449,42.4184],[18.6565,42.4155],[18.6568,42.4154],[18.6568,42.4543],[18.6541,42.4518],[18.6327,42.4959],[18.6112,42.5219],[18.5571,42.5484],[18.5068,42.5985],[18.5384,42.6183],[18.5428,42.6264],[18.6013,42.6244],[18.6483,42.6293],[18.6838,42.6419],[18.696,42.6851],[18.7274,42.7181],[18.7971,42.6953],[18.8599,42.6908],[18.9143,42.6575],[18.9372,42.6202],[18.9817,42.6222],[18.9952,42.6349],[18.9971,42.6641],[19.0144,42.6873],[19.0723,42.7088],[19.1255,42.6988],[19.1779,42.695],[19.2131,42.7082],[19.2107,42.7595],[19.2057,42.792],[19.2187,42.8397],[19.2086,42.8589],[19.1999,42.8876],[19.2278,42.9105],[19.2925,42.9022],[19.343,42.9009],[19.3723,42.9345],[19.3417,42.9536],[19.3317,42.9901],[19.3352,43.0114],[19.3494,43.0216],[19.3809,43.0276],[19.4111,43.0452],[19.4256,43.0514],[19.4595,43.0496],[19.4725,43.0971],[19.4998,43.1095],[19.5284,43.1426],[19.5478,43.2188],[19.5124,43.2406],[19.4731,43.2933],[19.414,43.3384],[19.3556,43.3931],[19.2184,43.4382],[19.1922,43.4545],[19.1759,43.4809],[19.1752,43.5096],[19.1953,43.5328],[19.2175,43.5328],[19.2527,43.5886],[19.3009,43.5883],[19.3466,43.6088],[19.3805,43.5856],[19.4107,43.5408],[19.4318,43.5711],[19.4817,43.5608],[19.4756,43.6026],[19.4817,43.6289],[19.5074,43.6472],[19.5057,43.6736],[19.4617,43.7621],[19.3595,43.8422],[19.2754,43.9333],[19.241,43.9524],[19.225,43.9215],[19.1274,43.9987],[19.0057,44.0474],[18.9084,44.092],[18.7366,44.1203],[18.7631,44.1488],[18.7867,44.1804],[18.7924,44.2148],[18.7824,44.2462],[18.7523,44.2992],[18.7452,44.3407],[18.7538,44.3578],[18.8067,44.3736],[18.8382,44.4165],[18.9226,44.4265],[19.0199,44.4759],[19.0284,44.4902],[19.0311,44.5675],[19.0993,44.5942],[19.1472,44.575],[19.1796,44.5383],[19.1863,44.5693],[19.2557,44.6456],[19.2776,44.6849],[19.3084,44.7051],[19.3284,44.734],[19.3637,44.8546],[19.3766,44.863],[19.357,44.8959],[19.3102,44.9124],[19.2395,44.9151],[19.2019,44.9084],[19.1743,44.9254],[19.0846,44.879],[19.0158,44.8656],[18.9749,44.8628],[18.8896,44.8612],[18.8587,44.8685],[18.8421,44.8762],[18.8178,44.8875],[18.7834,44.9137],[18.7726,44.9425],[18.8046,44.9738],[18.789,45.0057],[18.7501,45.0122],[18.7263,45.0261],[18.689,45.0802],[18.6661,45.083],[18.6581,45.0663],[18.6405,45.0654],[18.6167,45.0977],[18.5348,45.0884],[18.5411,45.0553],[18.517,45.0559],[18.4817,45.0669],[18.4518,45.085],[18.412,45.1124],[18.3929,45.1186],[18.3223,45.1229],[18.262,45.1507],[18.2379,45.1575],[18.2023,45.1441],[18.1993,45.119],[18.1749,45.1008],[18.1437,45.0977],[18.0903,45.108],[18.0191,45.1494],[17.9885,45.1438],[17.9277,45.092],[17.9026,45.0778],[17.8357,45.0644],[17.7975,45.082],[17.7657,45.111],[17.7145,45.152],[17.6847,45.164],[17.63,45.1573],[17.5724,45.1204],[17.4893,45.1163],[17.4962,45.1417],[17.4478,45.1343],[17.4341,45.1486],[17.3824,45.1396],[17.269,45.1895],[17.2455,45.1554],[17.1871,45.1486],[17.1246,45.1691],[17.0557,45.2004],[17.0363,45.2305],[17.0083,45.2162],[16.9612,45.2509],[16.9473,45.2357],[16.9244,45.2845],[16.8307,45.217],[16.8242,45.1891],[16.7863,45.1788],[16.587,45.2209],[16.5289,45.2223],[16.4819,45.1995],[16.4355,45.1329],[16.3818,45.1076],[16.382,45.0837],[16.346,45.02],[16.3489,44.9916],[16.2788,44.973],[16.2631,44.9544],[16.273,44.9215],[16.3017,44.8972],[16.3332,44.89],[16.5592,44.8771],[16.7037,44.8557],[16.7452,44.8371],[16.7895,44.8056],[16.8282,44.767],[16.8382,44.7412],[16.8382,44.684],[16.8782,44.6625],[16.8825,44.6211],[16.8811,44.5138],[16.8525,44.4594],[16.7537,44.4551],[16.6264,44.4895],[16.5664,44.5023],[16.5077,44.5009],[16.5034,44.4808],[16.5257,44.4553],[16.4794,44.4066],[16.3405,44.3815],[16.2809,44.3815],[16.2597,44.3576],[16.2056,44.3505],[16.1876,44.2824]]]}},
{"type":"Feature","properties":{"entityId":"bosnia-kingdom","from":1448,"to":1463,"certainty":"estimated","source":"유럽 쪽은 Natural Earth 1:10m admin-1(v5.1.2) 현대 행정구역 조각을 그 시기 국경에 맞춰 묶고, 조각이 역사 경계와 다른 곳은 선을 그어 나눈 근사. 유럽 밖(시베리아·중앙아시아·극동)은 대략적인 추정. 운영자 검수 필요"},"geometry":{"type":"Polygon","coordinates":[[[19.0311,44.5675],[19.0284,44.4902],[19.0199,44.4759],[18.9226,44.4265],[18.8382,44.4165],[18.8067,44.3736],[18.7538,44.3578],[18.7452,44.3407],[18.7523,44.2992],[18.7824,44.2462],[18.7924,44.2148],[18.7867,44.1804],[18.7631,44.1488],[18.7366,44.1203],[18.9084,44.092],[19.0057,44.0474],[19.1274,43.9987],[19.225,43.9215],[19.2166,43.9055],[19.2247,43.8527],[19.2207,43.8162],[19.2409,43.7757],[19.2207,43.7514],[19.1761,43.7554],[19.1436,43.7716],[19.0706,43.7838],[19.0017,43.7676],[18.9497,43.742],[18.9726,43.7248],[19.0284,43.7176],[19.0456,43.7019],[19.0571,43.6733],[19.0513,43.659],[19.0199,43.6547],[18.9626,43.6175],[18.8854,43.5917],[18.7609,43.576],[18.6937,43.5832],[18.6493,43.5989],[18.583,43.6367],[18.5527,43.6171],[18.4684,43.6139],[18.4294,43.5879],[18.3904,43.5939],[18.3827,43.5883],[18.3029,43.6021],[18.2896,43.5743],[18.2618,43.578],[18.1977,43.6046],[18.182,43.6542],[18.1493,43.6771],[18.0961,43.6747],[18.0587,43.6809],[18.0345,43.7063],[18.0069,43.7747],[17.9437,43.7763],[17.9158,43.7981],[17.8905,43.8368],[17.8119,43.8392],[17.7551,43.8175],[17.7163,43.8139],[17.6425,43.8393],[17.5967,43.8477],[17.5251,43.8369],[17.4593,43.8604],[17.4656,43.8428],[17.418,43.8586],[17.3835,43.8415],[17.3809,43.7819],[17.3915,43.7449],[17.4445,43.7395],[17.5305,43.6504],[17.5265,43.619],[17.4987,43.5872],[17.3915,43.574],[17.2988,43.5383],[17.2724,43.5383],[17.2538,43.5595],[17.23,43.5647],[17.1691,43.5462],[17.1175,43.5462],[17.0623,43.5277],[16.8238,43.7073],[16.7126,43.7715],[16.6982,43.7881],[16.6786,43.8407],[16.6374,43.8684],[16.6048,43.9011],[16.5558,43.9375],[16.5274,43.9679],[16.4835,44.0025],[16.4396,44.014],[16.404,44.0588],[16.3672,44.0581],[16.3269,44.0824],[16.2755,44.1574],[16.2158,44.2082],[16.1876,44.2824],[16.2056,44.3505],[16.2597,44.3576],[16.2809,44.3815],[16.3405,44.3815],[16.4794,44.4066],[16.5257,44.4553],[16.5034,44.4808],[16.5077,44.5009],[16.5664,44.5023],[16.6264,44.4895],[16.7537,44.4551],[16.8525,44.4594],[16.8811,44.5138],[16.8825,44.6211],[16.8782,44.6625],[16.8382,44.684],[16.8382,44.7412],[16.8282,44.767],[16.7895,44.8056],[16.7452,44.8371],[16.7037,44.8557],[16.5592,44.8771],[16.3332,44.89],[16.3017,44.8972],[16.273,44.9215],[16.2631,44.9544],[16.2788,44.973],[16.3489,44.9916],[16.346,45.02],[16.382,45.0837],[16.3818,45.1076],[16.4355,45.1329],[16.4819,45.1995],[16.5289,45.2223],[16.587,45.2209],[16.7863,45.1788],[16.8242,45.1891],[16.8307,45.217],[16.9244,45.2845],[16.9473,45.2357],[16.9612,45.2509],[17.0083,45.2162],[17.0363,45.2305],[17.0557,45.2004],[17.1246,45.1691],[17.1871,45.1486],[17.2455,45.1554],[17.269,45.1895],[17.3824,45.1396],[17.4341,45.1486],[17.4478,45.1343],[17.4962,45.1417],[17.4893,45.1163],[17.5724,45.1204],[17.63,45.1573],[17.6847,45.164],[17.7145,45.152],[17.7657,45.111],[17.7975,45.082],[17.8357,45.0644],[17.9026,45.0778],[17.9277,45.092],[17.9885,45.1438],[18.0191,45.1494],[18.0903,45.108],[18.1437,45.0977],[18.1749,45.1008],[18.1993,45.119],[18.2023,45.1441],[18.2379,45.1575],[18.262,45.1507],[18.3223,45.1229],[18.3929,45.1186],[18.412,45.1124],[18.4518,45.085],[18.4817,45.0669],[18.517,45.0559],[18.5411,45.0553],[18.5348,45.0884],[18.6167,45.0977],[18.6405,45.0654],[18.6581,45.0663],[18.6661,45.083],[18.689,45.0802],[18.7263,45.0261],[18.7501,45.0122],[18.789,45.0057],[18.8046,44.9738],[18.7726,44.9425],[18.7834,44.9137],[18.8178,44.8875],[18.8421,44.8762],[18.8587,44.8685],[18.8896,44.8612],[18.9749,44.8628],[19.0158,44.8656],[19.0846,44.879],[19.1743,44.9254],[19.2019,44.9084],[19.2395,44.9151],[19.3102,44.9124],[19.357,44.8959],[19.3766,44.863],[19.3637,44.8546],[19.3284,44.734],[19.3084,44.7051],[19.2776,44.6849],[19.2557,44.6456],[19.1863,44.5693],[19.1796,44.5383],[19.1472,44.575],[19.0993,44.5942],[19.0311,44.5675]]]}}
]}
