{"type":"FeatureCollection","features":[
{"type":"Feature","properties":{"entityId":"bosnia-occupied","from":1878,"to":1908,"certainty":"estimated","source":"유럽 쪽은 Natural Earth 1:10m admin-1(v5.1.2) 현대 행정구역 조각을 그 시기 국경에 맞춰 묶고, 조각이 역사 경계와 다른 곳은 선을 그어 나눈 근사. 유럽 밖(시베리아·중앙아시아·극동)은 대략적인 추정. 운영자 검수 필요"},"geometry":{"type":"Polygon","coordinates":[[[19.1796,44.5383],[19.1299,44.5183],[19.1434,44.4582],[19.1414,44.4308],[19.1072,44.3827],[19.1167,44.3437],[19.1389,44.3093],[19.1772,44.287],[19.2637,44.2702],[19.2959,44.2758],[19.3243,44.264],[19.354,44.2243],[19.3624,44.1912],[19.4426,44.1432],[19.4597,44.1527],[19.4764,44.127],[19.5162,44.0912],[19.5802,44.0515],[19.5989,44.0626],[19.6189,44.0357],[19.5934,44.0056],[19.5522,43.9834],[19.5041,43.9757],[19.4471,43.9798],[19.3646,43.9733],[19.2873,44.013],[19.2521,44.0075],[19.238,43.9925],[19.241,43.9524],[19.2754,43.9333],[19.3595,43.8422],[19.4617,43.7621],[19.5057,43.6736],[19.5074,43.6472],[19.4817,43.6289],[19.4756,43.6026],[19.4817,43.5608],[19.4318,43.5711],[19.4107,43.5408],[19.3805,43.5856],[19.3466,43.6088],[19.3009,43.5883],[19.2527,43.5886],[19.2175,43.5328],[19.1953,43.5328],[19.1228,43.5359],[19.096,43.5129],[19.0381,43.511],[19.0002,43.5479],[18.9775,43.5462],[18.911,43.5073],[18.9056,43.4906],[18.9512,43.4638],[18.9463,43.4439],[18.9683,43.4481],[19.0099,43.411],[19.0396,43.3507],[19.0697,43.3088],[19.0225,43.2965],[19.0029,43.2739],[18.9895,43.272],[18.9595,43.3035],[18.9573,43.3259],[18.8991,43.3519],[18.8212,43.3414],[18.8335,43.3242],[18.8072,43.318],[18.6795,43.2495],[18.6643,43.2332],[18.6884,43.2245],[18.6453,43.1802],[18.6211,43.1246],[18.6211,43.0964],[18.639,43.0202],[18.539,43.0239],[18.483,43.0146],[18.4528,42.9934],[18.434,42.9369],[18.4733,42.8626],[18.4437,42.8345],[18.4674,42.7692],[18.5022,42.7274],[18.5397,42.6955],[18.55,42.6681],[18.5428,42.6264],[18.5384,42.6183],[18.5068,42.5985],[18.4867,42.5898],[18.4959,42.5709],[18.4818,42.5637],[18.459,42.5697],[18.4374,42.5592],[18.3698,42.5744],[18.3387,42.6025],[18.3116,42.6012],[18.2241,42.6281],[17.9719,42.755],[17.9045,42.8045],[17.8585,42.817],[17.8272,42.8531],[17.8262,42.8886],[17.8118,42.9099],[17.7867,42.9014],[17.7016,42.9195],[17.6795,42.9157],[17.6533,42.8909],[17.6385,42.8976],[17.6385,42.8854],[17.6127,42.893],[17.587,42.9005],[17.587,42.921],[17.5733,42.9272],[17.5612,42.9272],[17.5354,42.9272],[17.5354,42.9538],[17.5612,42.9471],[17.5612,42.9338],[17.587,42.9283],[17.587,42.9387],[17.5807,42.9421],[17.6345,42.9504],[17.6627,42.9657],[17.6593,42.9934],[17.6284,43.0466],[17.598,43.0729],[17.5874,43.0821],[17.4509,43.1482],[17.4268,43.1657],[17.4002,43.216],[17.3287,43.2604],[17.2899,43.3034],[17.2676,43.3533],[17.2864,43.4374],[17.2705,43.4632],[17.2395,43.4784],[17.1428,43.4893],[17.0623,43.5277],[16.8238,43.7073],[16.7126,43.7715],[16.6982,43.7881],[16.6786,43.8407],[16.6374,43.8684],[16.6048,43.9011],[16.5558,43.9375],[16.5274,43.9679],[16.4835,44.0025],[16.4396,44.014],[16.404,44.0588],[16.3672,44.0581],[16.3269,44.0824],[16.2755,44.1574],[16.2158,44.2082],[16.1876,44.2824],[16.2056,44.3505],[16.1713,44.3771],[16.1388,44.3854],[16.1599,44.4007],[16.1529,44.4351],[16.1165,44.5215],[16.0837,44.5349],[16.0473,44.5233],[16.0061,44.541],[16.0447,44.5894],[16.0283,44.6247],[15.969,44.6392],[15.9374,44.689],[15.9131,44.6845],[15.8956,44.7186],[15.8763,44.7248],[15.8564,44.7036],[15.8057,44.6967],[15.7593,44.7342],[15.7173,44.7865],[15.7306,44.817],[15.7687,44.8273],[15.7734,44.845],[15.7343,44.9021],[15.7341,44.9344],[15.7674,44.9932],[15.756,45.0422],[15.7838,45.1009],[15.78,45.1603],[15.8026,45.1965],[15.8248,45.211],[15.8789,45.2172],[16.0085,45.2182],[16.0292,45.205],[16.0244,45.1843],[16.0675,45.1696],[16.1041,45.1125],[16.213,45.0315],[16.2793,45.0072],[16.3162,45.0012],[16.346,45.02],[16.382,45.0837],[16.3818,45.1076],[16.4355,45.1329],[16.4819,45.1995],[16.5289,45.2223],[16.587,45.2209],[16.7863,45.1788],[16.8242,45.1891],[16.8307,45.217],[16.9244,45.2845],[16.9473,45.2357],[16.9612,45.2509],[17.0083,45.2162],[17.0363,45.2305],[17.0557,45.2004],[17.1246,45.1691],[17.1871,45.1486],[17.2455,45.1554],[17.269,45.1895],[17.3824,45.1396],[17.4341,45.1486],[17.4478,45.1343],[17.4962,45.1417],[17.4893,45.1163],[17.5724,45.1204],[17.63,45.1573],[17.6847,45.164],[17.7145,45.152],[17.7657,45.111],[17.7975,45.082],[17.8357,45.0644],[17.9026,45.0778],[17.9277,45.092],[17.9885,45.1438],[18.0191,45.1494],[18.0903,45.108],[18.1437,45.0977],[18.1749,45.1008],[18.1993,45.119],[18.2023,45.1441],[18.2379,45.1575],[18.262,45.1507],[18.3223,45.1229],[18.3929,45.1186],[18.412,45.1124],[18.4518,45.085],[18.4817,45.0669],[18.517,45.0559],[18.5411,45.0553],[18.5348,45.0884],[18.6167,45.0977],[18.6405,45.0654],[18.6581,45.0663],[18.6661,45.083],[18.689,45.0802],[18.7263,45.0261],[18.7501,45.0122],[18.789,45.0057],[18.8046,44.9738],[18.7726,44.9425],[18.7834,44.9137],[18.8178,44.8875],[18.8421,44.8762],[18.8587,44.8685],[18.8896,44.8612],[18.9749,44.8628],[19.0158,44.8656],[19.0846,44.879],[19.1743,44.9254],[19.2019,44.9084],[19.2395,44.9151],[19.3102,44.9124],[19.357,44.8959],[19.3766,44.863],[19.3637,44.8546],[19.3284,44.734],[19.3084,44.7051],[19.2776,44.6849],[19.2557,44.6456],[19.1863,44.5693],[19.1796,44.5383]]]}}
]}
