{"type":"FeatureCollection","features":[
{"type":"Feature","properties":{"entityId":"brittany","from":1400,"to":1532,"certainty":"estimated","source":"유럽 쪽은 Natural Earth 1:10m admin-1(v5.1.2) 현대 행정구역 조각을 그 시기 국경에 맞춰 묶고, 조각이 역사 경계와 다른 곳은 선을 그어 나눈 근사. 유럽 밖(시베리아·중앙아시아·극동)은 대략적인 추정. 운영자 검수 필요"},"geometry":{"type":"Polygon","coordinates":[[[-1.251,47.7804],[-1.248,47.734],[-1.1793,47.6995],[-1.1761,47.6552],[-1.1581,47.6315],[-1.0313,47.6014],[-1.0082,47.5878],[-1.0583,47.5641],[-1.1617,47.5713],[-1.1789,47.5638],[-1.1747,47.542],[-1.129,47.505],[-0.9656,47.4918],[-0.9559,47.4388],[-0.9238,47.3943],[-1.0009,47.3832],[-1.1288,47.3815],[-1.1648,47.3758],[-1.2232,47.3511],[-1.2862,47.3458],[-1.3347,47.3239],[-1.3393,47.3009],[-1.3015,47.2971],[-1.2506,47.2464],[-1.1964,47.2482],[-1.1619,47.1858],[-1.2193,47.1318],[-1.2301,47.1094],[-1.1605,47.0841],[-1.1294,47.0626],[-1.1184,47.041],[-1.1486,47.0295],[-1.2312,47.067],[-1.2697,47.0763],[-1.3054,47.0392],[-1.3439,47.0451],[-1.368,47.024],[-1.3624,46.986],[-1.3787,46.957],[-1.4241,46.9358],[-1.4595,46.9404],[-1.468,46.9556],[-1.468,47.0105],[-1.4982,47.0354],[-1.5466,47.0201],[-1.553,46.9934],[-1.5394,46.9457],[-1.5,46.8827],[-1.5501,46.8599],[-1.6518,46.8791],[-1.7203,46.8846],[-1.7716,46.9245],[-1.8766,46.9594],[-1.9084,46.9773],[-1.9684,47.0252],[-1.9907,47.0354],[-2.0001,47.0306],[-2.0183,47.0306],[-2.0183,47.0644],[-2.046,47.0644],[-2.046,47.0306],[-2.046,47.0291],[-2.0798,47.0291],[-2.1137,47.0291],[-2.1475,47.0291],[-2.1814,47.0291],[-2.1814,47.0175],[-2.2079,47.0445],[-2.2098,47.0464],[-2.2268,47.0637],[-2.2382,47.0715],[-2.2491,47.079],[-2.3168,47.1254],[-2.365,47.1585],[-2.6458,47.351],[-2.684,47.3772],[-2.7238,47.4045],[-2.7637,47.4318],[-2.8435,47.4865],[-2.9648,47.5697],[-3.003,47.5794],[-3.0034,47.5787],[-3.0424,47.5881],[-3.0738,47.5765],[-3.112,47.5992],[-3.1289,47.5476],[-3.1233,47.519],[-3.0845,47.4782],[-3.1317,47.4782],[-3.1438,47.507],[-3.1339,47.5439],[-3.1412,47.598],[-3.1642,47.6201],[-3.3805,47.6748],[-3.5151,47.7088],[-3.5487,47.7173],[-3.5824,47.7258],[-3.6498,47.7429],[-4.0648,47.8478],[-4.0697,47.8482],[-4.1696,47.8235],[-4.1852,47.8134],[-4.2252,47.8024],[-4.3718,47.8072],[-4.3734,47.8287],[-4.3476,47.8383],[-4.3474,47.8532],[-4.376,47.8777],[-4.4078,47.9345],[-4.4912,47.9556],[-4.4957,47.9875],[-4.5681,48.008],[-4.572,48.0059],[-4.5804,48.0114],[-4.6321,48.026],[-4.653,48.0263],[-4.7281,48.0406],[-4.6974,48.0749],[-4.6837,48.0673],[-4.6417,48.0736],[-4.628,48.0864],[-4.5128,48.0968],[-4.5109,48.0973],[-4.5241,48.1928],[-4.5316,48.1831],[-4.5575,48.1772],[-4.5438,48.2051],[-4.5612,48.225],[-4.5547,48.2596],[-4.5573,48.263],[-4.6263,48.2665],[-4.6263,48.2871],[-4.5767,48.2899],[-4.575,48.2907],[-4.5595,48.3387],[-4.5445,48.3402],[-4.5476,48.3629],[-4.6189,48.3485],[-4.6876,48.3621],[-4.6908,48.3623],[-4.7045,48.3416],[-4.755,48.342],[-4.7834,48.3764],[-4.7648,48.3776],[-4.7834,48.4174],[-4.7799,48.4549],[-4.7493,48.4788],[-4.7746,48.4913],[-4.7646,48.5202],[-4.722,48.5682],[-4.6425,48.5819],[-4.6277,48.5788],[-4.5976,48.5914],[-4.6077,48.603],[-4.5807,48.6022],[-4.592,48.6834],[-4.5919,48.6834],[-4.592,48.6838],[-3.8424,48.8101],[-3.7487,48.8259],[-3.7018,48.8338],[-3.655,48.8417],[-3.5613,48.8575],[-3.4676,48.8733],[-3.296,48.9022],[-3.2958,48.9022],[-3.2956,48.9022],[-3.0928,48.8711],[-3.0915,48.8713],[-3.0915,48.8709],[-2.537,48.7859],[-2.2427,48.7407],[-2.0956,48.7182],[-2.0588,48.7125],[-2.022,48.7069],[-1.9484,48.6956],[-1.8437,48.7121],[-1.8363,48.6911],[-1.8466,48.68],[-1.735,48.6628],[-1.6719,48.6532],[-1.6404,48.6483],[-1.6185,48.645],[-1.6266,48.6738],[-1.6089,48.6738],[-1.6089,48.6619],[-1.6089,48.6353],[-1.5897,48.6418],[-1.5429,48.5635],[-1.5288,48.5307],[-1.4987,48.4949],[-1.4483,48.4658],[-1.3817,48.4704],[-1.303,48.5041],[-1.2657,48.5355],[-1.2228,48.5352],[-1.1207,48.5158],[-1.0791,48.4987],[-1.0823,48.4231],[-1.0698,48.3182],[-1.1017,48.2674],[-1.0852,48.24],[-1.0703,48.1743],[-1.0823,48.1524],[-1.0704,48.0906],[-1.0418,48.0623],[-1.0406,48.0015],[-1.0779,47.9893],[-1.1244,47.9861],[-1.1677,47.9608],[-1.2289,47.823],[-1.243,47.8095],[-1.251,47.7804]]]}}
]}
