{"type":"FeatureCollection","features":[
{"type":"Feature","properties":{"entityId":"bulgaria","from":1878,"to":1885,"certainty":"estimated","source":"유럽 쪽은 Natural Earth 1:10m admin-1(v5.1.2) 현대 행정구역 조각을 그 시기 국경에 맞춰 묶고, 조각이 역사 경계와 다른 곳은 선을 그어 나눈 근사. 유럽 밖(시베리아·중앙아시아·극동)은 대략적인 추정. 운영자 검수 필요"},"geometry":{"type":"Polygon","coordinates":[[[26.5724,42.9238],[26.5525,42.9577],[26.5743,42.9866],[26.4914,43.0199],[26.469,43.0094],[26.4187,43.0063],[26.3813,43.025],[26.3634,43.01],[26.3609,43.033],[26.3358,43.0415],[26.2747,43.0347],[26.2747,43.0048],[26.2243,42.9587],[26.172,42.9491],[26.1495,42.9098],[26.0823,42.8861],[26.0669,42.8683],[26.0691,42.8394],[26.0568,42.8172],[26.0103,42.8135],[25.9673,42.7842],[25.9016,42.7912],[25.8109,42.7828],[25.7317,42.7888],[25.6612,42.7574],[25.6201,42.767],[25.6127,42.7379],[25.5594,42.7727],[25.5357,42.753],[25.517,42.7585],[25.4839,42.7454],[25.4505,42.7516],[25.394,42.7358],[25.3418,42.7526],[25.2877,42.7604],[25.2472,42.7428],[25.2163,42.7726],[25.1661,42.7707],[25.1146,42.7525],[25.0629,42.7451],[25.0115,42.7483],[25.0112,42.7585],[24.98,42.7532],[24.9662,42.7321],[24.9247,42.714],[24.8787,42.7102],[24.8277,42.719],[24.7751,42.7191],[24.752,42.7094],[24.704,42.7167],[24.6644,42.7425],[24.6307,42.7753],[24.5853,42.7886],[24.5,42.792],[24.4376,42.7517],[24.3967,42.7549],[24.3602,42.7074],[24.3731,42.6617],[24.4163,42.645],[24.4472,42.6126],[24.473,42.5993],[24.4683,42.5771],[24.4418,42.5632],[24.4082,42.5621],[24.3504,42.5652],[24.3018,42.588],[24.285,42.6213],[24.2289,42.6297],[24.1575,42.6107],[24.1296,42.5816],[24.0815,42.5729],[24.0347,42.5534],[23.9614,42.5793],[23.904,42.5695],[23.8981,42.547],[23.9214,42.5075],[23.9881,42.4587],[24.0387,42.4649],[24.0547,42.445],[24.0384,42.408],[23.9594,42.3923],[23.9415,42.3468],[23.9741,42.2833],[23.9581,42.268],[23.9125,42.296],[23.8885,42.2907],[23.8806,42.2615],[23.8481,42.2257],[23.8009,42.2113],[23.7957,42.1887],[23.7631,42.1776],[23.718,42.1605],[23.6984,42.1668],[23.6002,42.1509],[23.5808,42.1144],[23.5475,42.0841],[23.4936,42.0991],[23.4443,42.0697],[23.3872,42.0623],[23.2605,42.0929],[23.2006,42.0917],[23.1227,42.0576],[23.0607,42.0487],[23.0051,42.0699],[22.9762,42.0683],[22.959,42.0871],[22.9336,42.086],[22.8969,42.0304],[22.8754,42.0331],[22.8456,42.0074],[22.827,42.0251],[22.7989,42.0212],[22.7809,42.0432],[22.7251,42.0425],[22.7057,42.0559],[22.6759,42.0606],[22.6272,42.0791],[22.6178,42.0827],[22.5311,42.1291],[22.5069,42.1489],[22.4814,42.1933],[22.4436,42.2144],[22.345,42.3134],[22.424,42.3259],[22.4698,42.3917],[22.5088,42.4049],[22.5365,42.4784],[22.5249,42.5077],[22.4253,42.5729],[22.4413,42.6329],[22.4421,42.6817],[22.4814,42.7398],[22.4531,42.7636],[22.4304,42.8171],[22.4814,42.8467],[22.506,42.8701],[22.5448,42.8717],[22.5909,42.8869],[22.6662,42.8719],[22.727,42.8869],[22.7396,42.8989],[22.7764,42.9797],[22.8288,42.9934],[22.8842,43.0367],[22.8967,43.0627],[22.9353,43.0856],[22.974,43.1412],[22.9829,43.1873],[22.9814,43.199],[22.9155,43.2122],[22.8838,43.2306],[22.8332,43.2746],[22.8045,43.329],[22.7243,43.3861],[22.6589,43.4013],[22.6285,43.4283],[22.5868,43.4344],[22.5658,43.4533],[22.5189,43.4742],[22.4785,43.5592],[22.4814,43.6006],[22.4729,43.6359],[22.4559,43.6564],[22.4265,43.6682],[22.3905,43.7124],[22.3885,43.7583],[22.3626,43.7808],[22.3495,43.8079],[22.3771,43.8835],[22.379,43.9135],[22.3945,43.9363],[22.3996,43.9933],[22.4118,44.0069],[22.4659,44.0176],[22.5037,44.0199],[22.5342,44.0572],[22.593,44.0639],[22.6047,44.0794],[22.5991,44.1303],[22.6062,44.1746],[22.6488,44.214],[22.6916,44.2284],[22.9064,44.1229],[23.0083,44.1004],[23.031,44.0931],[23.0401,44.0623],[23.023,44.0316],[22.9881,44.0177],[22.9058,44.004],[22.8859,43.9945],[22.8505,43.897],[22.8634,43.8554],[22.9196,43.8342],[23.0526,43.8428],[23.1318,43.8479],[23.2345,43.8773],[23.3252,43.8866],[23.4847,43.8806],[23.5927,43.8374],[23.6209,43.834],[23.7208,43.8458],[23.7999,43.8185],[24.1496,43.7547],[24.3367,43.7593],[24.3755,43.7639],[24.4312,43.7942],[24.5001,43.7995],[24.6618,43.7557],[24.7526,43.7388],[24.9637,43.7496],[25.0816,43.7189],[25.2113,43.7119],[25.2854,43.6904],[25.3596,43.6543],[25.4031,43.6501],[25.4825,43.6697],[25.5566,43.6704],[25.6165,43.6877],[25.6714,43.7174],[25.7329,43.7188],[25.7811,43.732],[25.8063,43.7637],[25.8693,43.8009],[25.9164,43.8444],[25.934,43.8703],[26.0543,43.9343],[26.0793,43.969],[26.1162,43.9989],[26.1507,44.0124],[26.2315,44.0275],[26.3323,44.0549],[26.4158,44.0638],[26.6142,44.0849],[26.7087,44.1081],[26.7895,44.116],[26.8841,44.1565],[27.0015,44.1651],[27.0275,44.177],[27.1002,44.1445],[27.2527,44.1215],[27.269,44.1124],[27.2643,44.0898],[27.2853,44.0725],[27.3417,44.0531],[27.3838,44.0151],[27.5745,44.0163],[27.6334,44.0298],[27.6563,44.0239],[27.6825,43.9873],[27.7217,43.9487],[27.7873,43.9604],[27.8565,43.9886],[27.9121,43.9933],[27.9358,43.9644],[27.981,43.8493],[28.0148,43.83],[28.2213,43.762],[28.4346,43.7352],[28.5784,43.7413],[28.5737,43.6221],[28.5731,43.6061],[28.6035,43.5382],[28.5603,43.4538],[28.4886,43.4064],[28.4732,43.3668],[28.4595,43.3807],[28.4239,43.3989],[28.3197,43.4266],[28.3065,43.4244],[28.2432,43.4078],[28.2076,43.4078],[28.1766,43.4026],[28.131,43.3662],[28.1045,43.345],[28.0775,43.3234],[28.0544,43.2932],[28.0311,43.249],[28.0063,43.2283],[27.8948,43.0092],[27.894,42.978],[27.904,42.9423],[27.8984,42.8747],[27.8909,42.8609],[27.884,42.8484],[27.8315,42.8266],[27.8018,42.8221],[27.7189,42.855],[27.6733,42.8918],[27.6206,42.9094],[27.5832,42.892],[27.4952,42.8757],[27.4458,42.8837],[27.4001,42.9039],[27.3554,42.9114],[27.3242,42.9483],[27.2849,42.9767],[27.2365,42.9884],[27.1768,42.963],[27.1191,42.9537],[27.0237,42.9288],[26.9815,42.9402],[26.9092,42.934],[26.8776,42.9496],[26.801,42.9469],[26.7623,42.9084],[26.6897,42.8889],[26.6546,42.9],[26.6452,42.9372],[26.5724,42.9238]]]}},
{"type":"Feature","properties":{"entityId":"bulgaria","from":1885,"to":1913,"certainty":"estimated","source":"유럽 쪽은 Natural Earth 1:10m admin-1(v5.1.2) 현대 행정구역 조각을 그 시기 국경에 맞춰 묶고, 조각이 역사 경계와 다른 곳은 선을 그어 나눈 근사. 유럽 밖(시베리아·중앙아시아·극동)은 대략적인 추정. 운영자 검수 필요"},"geometry":{"type":"Polygon","coordinates":[[[26.5529,41.8816],[26.5261,41.8242],[26.4784,41.8133],[26.3755,41.8166],[26.3342,41.7895],[26.3163,41.7438],[26.3334,41.713],[26.2739,41.7149],[26.2345,41.7458],[26.2118,41.7505],[26.1899,41.7347],[26.1084,41.7279],[26.0605,41.7073],[26.0481,41.6891],[26.0595,41.6438],[26.0098,41.6358],[25.9989,41.6191],[25.9642,41.6126],[25.9569,41.592],[25.9169,41.5627],[25.8731,41.5782],[25.8276,41.6148],[25.8172,41.6548],[25.7822,41.6646],[25.747,41.6517],[25.7147,41.6211],[25.6802,41.6304],[25.6391,41.6204],[25.6056,41.6337],[25.634,41.7009],[25.5858,41.7614],[25.5672,41.7615],[25.5316,41.7867],[25.4708,41.77],[25.4084,41.7978],[25.3893,41.8466],[25.3531,41.8385],[25.3304,41.8176],[25.3,41.8097],[25.2472,41.817],[25.2108,41.8785],[25.2226,41.9037],[25.1959,41.9086],[25.1494,41.8818],[25.1243,41.8445],[25.1021,41.831],[25.0911,41.7933],[25.0671,41.795],[25.0313,41.8009],[24.9938,41.8389],[24.9338,41.8314],[24.9144,41.8581],[24.8452,41.8958],[24.8088,41.931],[24.7602,41.9411],[24.6591,41.9253],[24.5626,41.8852],[24.4511,41.9494],[24.424,41.8895],[24.3577,41.8615],[24.3152,41.8174],[24.3146,41.771],[24.2713,41.7419],[24.2143,41.7407],[24.1772,41.7281],[24.1893,41.7641],[24.1496,41.7911],[24.0996,41.7971],[24.0631,41.792],[24.0664,41.7679],[24.0996,41.7421],[24.1023,41.7094],[24.0726,41.6863],[24.042,41.7104],[23.9282,41.769],[23.9055,41.7965],[23.8682,41.7954],[23.8217,41.8238],[23.7957,41.8609],[23.7896,41.906],[23.7625,41.9399],[23.7666,41.9765],[23.7919,42.0207],[23.8205,42.0453],[23.8013,42.0627],[23.8133,42.0962],[23.8096,42.1329],[23.7726,42.1582],[23.7631,42.1776],[23.718,42.1605],[23.6984,42.1668],[23.6002,42.1509],[23.5808,42.1144],[23.5475,42.0841],[23.4936,42.0991],[23.4443,42.0697],[23.3872,42.0623],[23.2605,42.0929],[23.2006,42.0917],[23.1227,42.0576],[23.0607,42.0487],[23.0051,42.0699],[22.9762,42.0683],[22.959,42.0871],[22.9336,42.086],[22.8969,42.0304],[22.8754,42.0331],[22.8456,42.0074],[22.827,42.0251],[22.7989,42.0212],[22.7809,42.0432],[22.7251,42.0425],[22.7057,42.0559],[22.6759,42.0606],[22.6272,42.0791],[22.6178,42.0827],[22.5311,42.1291],[22.5069,42.1489],[22.4814,42.1933],[22.4436,42.2144],[22.345,42.3134],[22.424,42.3259],[22.4698,42.3917],[22.5088,42.4049],[22.5365,42.4784],[22.5249,42.5077],[22.4253,42.5729],[22.4413,42.6329],[22.4421,42.6817],[22.4814,42.7398],[22.4531,42.7636],[22.4304,42.8171],[22.4814,42.8467],[22.506,42.8701],[22.5448,42.8717],[22.5909,42.8869],[22.6662,42.8719],[22.727,42.8869],[22.7396,42.8989],[22.7764,42.9797],[22.8288,42.9934],[22.8842,43.0367],[22.8967,43.0627],[22.9353,43.0856],[22.974,43.1412],[22.9829,43.1873],[22.9814,43.199],[22.9155,43.2122],[22.8838,43.2306],[22.8332,43.2746],[22.8045,43.329],[22.7243,43.3861],[22.6589,43.4013],[22.6285,43.4283],[22.5868,43.4344],[22.5658,43.4533],[22.5189,43.4742],[22.4785,43.5592],[22.4814,43.6006],[22.4729,43.6359],[22.4559,43.6564],[22.4265,43.6682],[22.3905,43.7124],[22.3885,43.7583],[22.3626,43.7808],[22.3495,43.8079],[22.3771,43.8835],[22.379,43.9135],[22.3945,43.9363],[22.3996,43.9933],[22.4118,44.0069],[22.4659,44.0176],[22.5037,44.0199],[22.5342,44.0572],[22.593,44.0639],[22.6047,44.0794],[22.5991,44.1303],[22.6062,44.1746],[22.6488,44.214],[22.6916,44.2284],[22.9064,44.1229],[23.0083,44.1004],[23.031,44.0931],[23.0401,44.0623],[23.023,44.0316],[22.9881,44.0177],[22.9058,44.004],[22.8859,43.9945],[22.8505,43.897],[22.8634,43.8554],[22.9196,43.8342],[23.0526,43.8428],[23.1318,43.8479],[23.2345,43.8773],[23.3252,43.8866],[23.4847,43.8806],[23.5927,43.8374],[23.6209,43.834],[23.7208,43.8458],[23.7999,43.8185],[24.1496,43.7547],[24.3367,43.7593],[24.3755,43.7639],[24.4312,43.7942],[24.5001,43.7995],[24.6618,43.7557],[24.7526,43.7388],[24.9637,43.7496],[25.0816,43.7189],[25.2113,43.7119],[25.2854,43.6904],[25.3596,43.6543],[25.4031,43.6501],[25.4825,43.6697],[25.5566,43.6704],[25.6165,43.6877],[25.6714,43.7174],[25.7329,43.7188],[25.7811,43.732],[25.8063,43.7637],[25.8693,43.8009],[25.9164,43.8444],[25.934,43.8703],[26.0543,43.9343],[26.0793,43.969],[26.1162,43.9989],[26.1507,44.0124],[26.2315,44.0275],[26.3323,44.0549],[26.4158,44.0638],[26.6142,44.0849],[26.7087,44.1081],[26.7895,44.116],[26.8841,44.1565],[27.0015,44.1651],[27.0275,44.177],[27.1002,44.1445],[27.2527,44.1215],[27.269,44.1124],[27.2643,44.0898],[27.2853,44.0725],[27.3417,44.0531],[27.3838,44.0151],[27.5745,44.0163],[27.6334,44.0298],[27.6563,44.0239],[27.6825,43.9873],[27.7217,43.9487],[27.7873,43.9604],[27.8565,43.9886],[27.9121,43.9933],[27.9358,43.9644],[27.981,43.8493],[28.0148,43.83],[28.2213,43.762],[28.4346,43.7352],[28.5784,43.7413],[28.5737,43.6221],[28.5731,43.6061],[28.6035,43.5382],[28.5603,43.4538],[28.4886,43.4064],[28.4732,43.3668],[28.4595,43.3807],[28.4239,43.3989],[28.3197,43.4266],[28.3065,43.4244],[28.2432,43.4078],[28.2076,43.4078],[28.1766,43.4026],[28.131,43.3662],[28.1045,43.345],[28.0775,43.3234],[28.0544,43.2932],[28.0311,43.249],[28.0063,43.2283],[27.8948,43.0092],[27.894,42.978],[27.904,42.9423],[27.8984,42.8747],[27.8909,42.8609],[27.8898,42.82],[27.8971,42.784],[27.8923,42.7105],[27.8411,42.7083],[27.7925,42.7122],[27.7547,42.7061],[27.729,42.6835],[27.7248,42.6752],[27.7395,42.6611],[27.7148,42.6556],[27.6756,42.5786],[27.944,42.1008],[27.9578,42.0943],[27.9866,42.0721],[27.9873,42.0517],[28.0191,42.0085],[28.0168,41.9726],[27.9659,41.9821],[27.917,41.9779],[27.8522,41.9954],[27.808,41.9935],[27.7898,41.9427],[27.724,41.9676],[27.6871,41.9686],[27.6093,41.9535],[27.5508,41.9242],[27.5464,41.9012],[27.4943,41.9428],[27.4208,41.9737],[27.3748,42.0087],[27.3325,42.0574],[27.2734,42.0917],[27.2382,42.0979],[27.2038,42.0881],[27.1738,42.0571],[27.1161,42.0618],[27.0837,42.0784],[27.0479,42.0829],[27.0226,42.0739],[27.0004,42.0428],[26.9672,42.0285],[26.9389,41.9962],[26.8903,41.9854],[26.8608,41.9879],[26.8379,41.9752],[26.8194,41.9657],[26.7806,41.9834],[26.7367,41.959],[26.6236,41.969],[26.5895,41.9588],[26.5471,41.9269],[26.5598,41.9073],[26.5529,41.8816]]]}},
{"type":"Feature","properties":{"entityId":"bulgaria","from":1913,"to":1919,"certainty":"estimated","source":"유럽 쪽은 Natural Earth 1:10m admin-1(v5.1.2) 현대 행정구역 조각을 그 시기 국경에 맞춰 묶고, 조각이 역사 경계와 다른 곳은 선을 그어 나눈 근사. 유럽 밖(시베리아·중앙아시아·극동)은 대략적인 추정. 운영자 검수 필요"},"geometry":{"type":"Polygon","coordinates":[[[22.345,42.3134],[22.4436,42.2144],[22.4814,42.1933],[22.5069,42.1489],[22.5311,42.1291],[22.6178,42.0827],[22.6272,42.0791],[22.6759,42.0606],[22.7057,42.0559],[22.7251,42.0425],[22.7809,42.0432],[22.7989,42.0212],[22.827,42.0251],[22.8456,42.0074],[22.8548,41.9826],[22.8589,41.9479],[22.8771,41.902],[22.8821,41.8716],[22.9014,41.8604],[22.9077,41.8486],[22.9183,41.8143],[22.9397,41.7767],[22.9569,41.7657],[22.9912,41.761],[23.0089,41.7399],[23.0096,41.7164],[22.9986,41.6931],[22.9854,41.6772],[22.967,41.647],[22.9409,41.6376],[22.933,41.6123],[22.9337,41.5846],[22.9487,41.561],[22.9436,41.5232],[22.9256,41.5189],[22.8581,41.5171],[22.8533,41.5171],[22.8352,41.5313],[22.8012,41.5327],[22.7718,41.5365],[22.7485,41.5518],[22.7385,41.5684],[22.7281,41.5694],[22.6981,41.5746],[22.6763,41.5741],[22.6758,41.5826],[22.6882,41.5865],[22.6909,41.6064],[22.6829,41.6159],[22.671,41.6183],[22.6567,41.6297],[22.6451,41.628],[22.632,41.6167],[22.6292,41.6341],[22.5966,41.6292],[22.5805,41.6092],[22.5781,41.5969],[22.599,41.5769],[22.6066,41.5508],[22.6057,41.5337],[22.5957,41.5227],[22.5861,41.5209],[22.5567,41.5427],[22.541,41.5498],[22.5258,41.5384],[22.5035,41.5318],[22.4996,41.5256],[22.5037,41.5073],[22.5027,41.4847],[22.5089,41.4666],[22.5029,41.4567],[22.4788,41.461],[22.4526,41.4529],[22.4458,41.446],[22.4607,41.4286],[22.493,41.4092],[22.522,41.4087],[22.532,41.3996],[22.5168,41.3692],[22.5349,41.3445],[22.5362,41.3298],[22.5843,41.3326],[22.6024,41.3131],[22.6304,41.3113],[22.6461,41.3203],[22.6613,41.316],[22.6817,41.3436],[22.7074,41.346],[22.7623,41.3225],[22.781,41.3349],[22.7968,41.337],[22.826,41.341],[22.917,41.3358],[23.1152,41.3127],[23.1797,41.3214],[23.1995,41.333],[23.2098,41.3686],[23.2466,41.3897],[23.2877,41.3982],[23.326,41.3693],[23.3472,41.3712],[23.4145,41.3999],[23.513,41.3977],[23.579,41.372],[23.6248,41.3771],[23.6529,41.3976],[23.7054,41.4032],[23.7544,41.4007],[23.7771,41.429],[23.8677,41.4455],[23.8948,41.4643],[23.9499,41.4376],[24.0007,41.4641],[24.0459,41.4555],[24.0525,41.4715],[24.0473,41.5257],[24.0766,41.536],[24.1463,41.5268],[24.1628,41.512],[24.1977,41.5477],[24.2507,41.5635],[24.2864,41.5404],[24.2868,41.5176],[24.3539,41.5191],[24.4388,41.5277],[24.4592,41.5495],[24.5102,41.5617],[24.5309,41.5475],[24.5494,41.4854],[24.5811,41.4602],[24.5958,41.4298],[24.6443,41.4277],[24.6382,41.4177],[24.6471,41.4172],[24.65,41.4],[24.7,41.25],[24.75,41.15],[24.8,41.08],[24.82,40.95],[24.8342,40.8791],[24.9548,40.9411],[24.9555,40.9411],[25.4467,40.852],[25.8819,40.8314],[25.8922,40.8264],[25.9729,40.7875],[25.9901,40.7792],[26.0119,40.7687],[26.019,40.757],[26.0222,40.7517],[26.0402,40.7517],[26.044,40.7385],[26.0816,40.7356],[26.1345,40.7671],[26.1583,40.8122],[26.212,40.8474],[26.2051,40.8584],[26.2262,40.8993],[26.2392,40.8857],[26.2604,40.9204],[26.2907,40.9061],[26.2944,40.9267],[26.3591,40.9647],[26.3359,40.9971],[26.3596,41.0024],[26.3742,41.0311],[26.3476,41.041],[26.3224,41.0886],[26.3395,41.1145],[26.3173,41.1223],[26.336,41.1526],[26.3211,41.1876],[26.336,41.2289],[26.3317,41.2541],[26.3951,41.259],[26.4893,41.3109],[26.5402,41.3518],[26.5911,41.3293],[26.6226,41.3404],[26.6366,41.3785],[26.6322,41.4197],[26.6159,41.4685],[26.6017,41.5473],[26.5955,41.6124],[26.5764,41.591],[26.4644,41.6485],[26.4762,41.6757],[26.4044,41.6918],[26.3774,41.7106],[26.3334,41.713],[26.3163,41.7438],[26.3342,41.7895],[26.3755,41.8166],[26.4784,41.8133],[26.5261,41.8242],[26.5529,41.8816],[26.5598,41.9073],[26.5471,41.9269],[26.5895,41.9588],[26.6236,41.969],[26.7367,41.959],[26.7806,41.9834],[26.8194,41.9657],[26.8379,41.9752],[26.8608,41.9879],[26.8903,41.9854],[26.9389,41.9962],[26.9672,42.0285],[27.0004,42.0428],[27.0226,42.0739],[27.0479,42.0829],[27.0837,42.0784],[27.1161,42.0618],[27.1738,42.0571],[27.2038,42.0881],[27.2382,42.0979],[27.2734,42.0917],[27.3325,42.0574],[27.3748,42.0087],[27.4208,41.9737],[27.4943,41.9428],[27.5464,41.9012],[27.5508,41.9242],[27.6093,41.9535],[27.6871,41.9686],[27.724,41.9676],[27.7898,41.9427],[27.808,41.9935],[27.8522,41.9954],[27.917,41.9779],[27.9659,41.9821],[28.0168,41.9726],[28.0191,42.0085],[27.9873,42.0517],[27.9866,42.0721],[27.9578,42.0943],[27.944,42.1008],[27.6756,42.5786],[27.7148,42.6556],[27.7395,42.6611],[27.7248,42.6752],[27.729,42.6835],[27.7547,42.7061],[27.7925,42.7122],[27.8411,42.7083],[27.8923,42.7105],[27.8971,42.784],[27.8898,42.82],[27.8909,42.8609],[27.8984,42.8747],[27.904,42.9423],[27.894,42.978],[27.8948,43.0092],[28.0063,43.2283],[28.0311,43.249],[28.0544,43.2932],[28.0775,43.3234],[28.1045,43.345],[28.0816,43.345],[28.087,43.3552],[28.0135,43.3531],[27.9655,43.3928],[27.9338,43.3943],[27.8677,43.3654],[27.8087,43.3877],[27.7151,43.4733],[27.678,43.4789],[27.6382,43.5059],[27.6038,43.5419],[27.5779,43.5185],[27.5199,43.4992],[27.495,43.508],[27.4884,43.5321],[27.4585,43.5627],[27.4189,43.5712],[27.4088,43.5986],[27.3856,43.6094],[27.3059,43.5949],[27.2769,43.6049],[27.2562,43.6353],[27.2001,43.6689],[27.1338,43.67],[27.0941,43.7031],[27.0541,43.7216],[27.0008,43.6996],[26.9313,43.75],[26.9133,43.7414],[26.9031,43.7755],[26.8598,43.8062],[26.8372,43.8437],[26.7674,43.8072],[26.7355,43.8449],[26.7019,43.8476],[26.6172,43.8694],[26.586,43.919],[26.5457,43.9449],[26.4916,43.925],[26.4648,43.9468],[26.3963,43.9496],[26.3762,44.0195],[26.3496,44.0223],[26.3323,44.0549],[26.2315,44.0275],[26.1507,44.0124],[26.1162,43.9989],[26.0793,43.969],[26.0543,43.9343],[25.934,43.8703],[25.9164,43.8444],[25.8693,43.8009],[25.8063,43.7637],[25.7811,43.732],[25.7329,43.7188],[25.6714,43.7174],[25.6165,43.6877],[25.5566,43.6704],[25.4825,43.6697],[25.4031,43.6501],[25.3596,43.6543],[25.2854,43.6904],[25.2113,43.7119],[25.0816,43.7189],[24.9637,43.7496],[24.7526,43.7388],[24.6618,43.7557],[24.5001,43.7995],[24.4312,43.7942],[24.3755,43.7639],[24.3367,43.7593],[24.1496,43.7547],[23.7999,43.8185],[23.7208,43.8458],[23.6209,43.834],[23.5927,43.8374],[23.4847,43.8806],[23.3252,43.8866],[23.2345,43.8773],[23.1318,43.8479],[23.0526,43.8428],[22.9196,43.8342],[22.8634,43.8554],[22.8505,43.897],[22.8859,43.9945],[22.9058,44.004],[22.9881,44.0177],[23.023,44.0316],[23.0401,44.0623],[23.031,44.0931],[23.0083,44.1004],[22.9064,44.1229],[22.6916,44.2284],[22.6488,44.214],[22.6062,44.1746],[22.5991,44.1303],[22.6047,44.0794],[22.593,44.0639],[22.5342,44.0572],[22.5037,44.0199],[22.4659,44.0176],[22.4118,44.0069],[22.3996,43.9933],[22.3945,43.9363],[22.379,43.9135],[22.3771,43.8835],[22.3495,43.8079],[22.3626,43.7808],[22.3885,43.7583],[22.3905,43.7124],[22.4265,43.6682],[22.4559,43.6564],[22.4729,43.6359],[22.4814,43.6006],[22.4785,43.5592],[22.5189,43.4742],[22.5658,43.4533],[22.5868,43.4344],[22.6285,43.4283],[22.6589,43.4013],[22.7243,43.3861],[22.8045,43.329],[22.8332,43.2746],[22.8838,43.2306],[22.9155,43.2122],[22.9814,43.199],[22.9829,43.1873],[22.974,43.1412],[22.9353,43.0856],[22.8967,43.0627],[22.8842,43.0367],[22.8288,42.9934],[22.7764,42.9797],[22.7396,42.8989],[22.727,42.8869],[22.6662,42.8719],[22.5909,42.8869],[22.5448,42.8717],[22.506,42.8701],[22.4814,42.8467],[22.4304,42.8171],[22.4531,42.7636],[22.4814,42.7398],[22.4421,42.6817],[22.4413,42.6329],[22.4253,42.5729],[22.5249,42.5077],[22.5365,42.4784],[22.5088,42.4049],[22.4698,42.3917],[22.424,42.3259],[22.345,42.3134]]]}},
{"type":"Feature","properties":{"entityId":"bulgaria","from":1919,"to":1940,"certainty":"estimated","source":"유럽 쪽은 Natural Earth 1:10m admin-1(v5.1.2) 현대 행정구역 조각을 그 시기 국경에 맞춰 묶고, 조각이 역사 경계와 다른 곳은 선을 그어 나눈 근사. 유럽 밖(시베리아·중앙아시아·극동)은 대략적인 추정. 운영자 검수 필요"},"geometry":{"type":"Polygon","coordinates":[[[22.345,42.3134],[22.424,42.3259],[22.4698,42.3917],[22.5088,42.4049],[22.5365,42.4784],[22.5249,42.5077],[22.4253,42.5729],[22.4413,42.6329],[22.4421,42.6817],[22.4814,42.7398],[22.4531,42.7636],[22.4304,42.8171],[22.4814,42.8467],[22.506,42.8701],[22.5448,42.8717],[22.5909,42.8869],[22.6662,42.8719],[22.727,42.8869],[22.7396,42.8989],[22.7764,42.9797],[22.8288,42.9934],[22.8842,43.0367],[22.8967,43.0627],[22.9353,43.0856],[22.974,43.1412],[22.9829,43.1873],[22.9814,43.199],[22.9155,43.2122],[22.8838,43.2306],[22.8332,43.2746],[22.8045,43.329],[22.7243,43.3861],[22.6589,43.4013],[22.6285,43.4283],[22.5868,43.4344],[22.5658,43.4533],[22.5189,43.4742],[22.4785,43.5592],[22.4814,43.6006],[22.4729,43.6359],[22.4559,43.6564],[22.4265,43.6682],[22.3905,43.7124],[22.3885,43.7583],[22.3626,43.7808],[22.3495,43.8079],[22.3771,43.8835],[22.379,43.9135],[22.3945,43.9363],[22.3996,43.9933],[22.4118,44.0069],[22.4659,44.0176],[22.5037,44.0199],[22.5342,44.0572],[22.593,44.0639],[22.6047,44.0794],[22.5991,44.1303],[22.6062,44.1746],[22.6488,44.214],[22.6916,44.2284],[22.9064,44.1229],[23.0083,44.1004],[23.031,44.0931],[23.0401,44.0623],[23.023,44.0316],[22.9881,44.0177],[22.9058,44.004],[22.8859,43.9945],[22.8505,43.897],[22.8634,43.8554],[22.9196,43.8342],[23.0526,43.8428],[23.1318,43.8479],[23.2345,43.8773],[23.3252,43.8866],[23.4847,43.8806],[23.5927,43.8374],[23.6209,43.834],[23.7208,43.8458],[23.7999,43.8185],[24.1496,43.7547],[24.3367,43.7593],[24.3755,43.7639],[24.4312,43.7942],[24.5001,43.7995],[24.6618,43.7557],[24.7526,43.7388],[24.9637,43.7496],[25.0816,43.7189],[25.2113,43.7119],[25.2854,43.6904],[25.3596,43.6543],[25.4031,43.6501],[25.4825,43.6697],[25.5566,43.6704],[25.6165,43.6877],[25.6714,43.7174],[25.7329,43.7188],[25.7811,43.732],[25.8063,43.7637],[25.8693,43.8009],[25.9164,43.8444],[25.934,43.8703],[26.0543,43.9343],[26.0793,43.969],[26.1162,43.9989],[26.1507,44.0124],[26.2315,44.0275],[26.3323,44.0549],[26.3496,44.0223],[26.3762,44.0195],[26.3963,43.9496],[26.4648,43.9468],[26.4916,43.925],[26.5457,43.9449],[26.586,43.919],[26.6172,43.8694],[26.7019,43.8476],[26.7355,43.8449],[26.7674,43.8072],[26.8372,43.8437],[26.8598,43.8062],[26.9031,43.7755],[26.9133,43.7414],[26.9313,43.75],[27.0008,43.6996],[27.0541,43.7216],[27.0941,43.7031],[27.1338,43.67],[27.2001,43.6689],[27.2562,43.6353],[27.2769,43.6049],[27.3059,43.5949],[27.3856,43.6094],[27.4088,43.5986],[27.4189,43.5712],[27.4585,43.5627],[27.4884,43.5321],[27.495,43.508],[27.5199,43.4992],[27.5779,43.5185],[27.6038,43.5419],[27.6382,43.5059],[27.678,43.4789],[27.7151,43.4733],[27.8087,43.3877],[27.8677,43.3654],[27.9338,43.3943],[27.9655,43.3928],[28.0135,43.3531],[28.087,43.3552],[28.0816,43.345],[28.1045,43.345],[28.0775,43.3234],[28.0544,43.2932],[28.0311,43.249],[28.0063,43.2283],[27.8948,43.0092],[27.894,42.978],[27.904,42.9423],[27.8984,42.8747],[27.8909,42.8609],[27.8898,42.82],[27.8971,42.784],[27.8923,42.7105],[27.8411,42.7083],[27.7925,42.7122],[27.7547,42.7061],[27.729,42.6835],[27.7248,42.6752],[27.7395,42.6611],[27.7148,42.6556],[27.6756,42.5786],[27.944,42.1008],[27.9578,42.0943],[27.9866,42.0721],[27.9873,42.0517],[28.0191,42.0085],[28.0168,41.9726],[27.9659,41.9821],[27.917,41.9779],[27.8522,41.9954],[27.808,41.9935],[27.7898,41.9427],[27.724,41.9676],[27.6871,41.9686],[27.6093,41.9535],[27.5508,41.9242],[27.5464,41.9012],[27.4943,41.9428],[27.4208,41.9737],[27.3748,42.0087],[27.3325,42.0574],[27.2734,42.0917],[27.2382,42.0979],[27.2038,42.0881],[27.1738,42.0571],[27.1161,42.0618],[27.0837,42.0784],[27.0479,42.0829],[27.0226,42.0739],[27.0004,42.0428],[26.9672,42.0285],[26.9389,41.9962],[26.8903,41.9854],[26.8608,41.9879],[26.8379,41.9752],[26.8194,41.9657],[26.7806,41.9834],[26.7367,41.959],[26.6236,41.969],[26.5895,41.9588],[26.5471,41.9269],[26.5598,41.9073],[26.5529,41.8816],[26.5261,41.8242],[26.4784,41.8133],[26.3755,41.8166],[26.3342,41.7895],[26.3163,41.7438],[26.3334,41.713],[26.2739,41.7149],[26.2345,41.7458],[26.2118,41.7505],[26.1899,41.7347],[26.1084,41.7279],[26.0605,41.7073],[26.0481,41.6891],[26.0595,41.6438],[26.1067,41.6243],[26.1303,41.5827],[26.1294,41.5594],[26.1581,41.5423],[26.1645,41.5177],[26.1459,41.478],[26.1743,41.446],[26.1209,41.3578],[26.0219,41.3417],[25.9596,41.315],[25.9212,41.316],[25.882,41.304],[25.811,41.341],[25.7635,41.319],[25.7175,41.3141],[25.6912,41.2984],[25.6398,41.3111],[25.5515,41.3157],[25.5051,41.2806],[25.4535,41.2804],[25.2857,41.2394],[25.2197,41.2497],[25.1771,41.2939],[25.1538,41.3075],[25.0804,41.3341],[24.917,41.3864],[24.8864,41.4006],[24.8033,41.3927],[24.7943,41.3474],[24.7744,41.3481],[24.7187,41.3957],[24.6809,41.4155],[24.6382,41.4177],[24.6443,41.4277],[24.5958,41.4298],[24.5811,41.4602],[24.5494,41.4854],[24.5309,41.5475],[24.5102,41.5617],[24.4592,41.5495],[24.4388,41.5277],[24.3539,41.5191],[24.2868,41.5176],[24.2864,41.5404],[24.2507,41.5635],[24.1977,41.5477],[24.1628,41.512],[24.1463,41.5268],[24.0766,41.536],[24.0473,41.5257],[24.0525,41.4715],[24.0459,41.4555],[24.0007,41.4641],[23.9499,41.4376],[23.8948,41.4643],[23.8677,41.4455],[23.7771,41.429],[23.7544,41.4007],[23.7054,41.4032],[23.6529,41.3976],[23.6248,41.3771],[23.579,41.372],[23.513,41.3977],[23.4145,41.3999],[23.3472,41.3712],[23.326,41.3693],[23.2877,41.3982],[23.2466,41.3897],[23.2098,41.3686],[23.1995,41.333],[23.1797,41.3214],[23.1152,41.3127],[22.917,41.3358],[22.9409,41.3498],[22.9445,41.3684],[22.9373,41.4108],[22.9521,41.4277],[22.9534,41.4382],[22.9462,41.4532],[22.9436,41.5232],[22.9487,41.561],[22.9337,41.5846],[22.933,41.6123],[22.9409,41.6376],[22.967,41.647],[22.9854,41.6772],[22.9986,41.6931],[23.0096,41.7164],[23.0089,41.7399],[22.9912,41.761],[22.9569,41.7657],[22.9397,41.7767],[22.9183,41.8143],[22.9077,41.8486],[22.9014,41.8604],[22.8821,41.8716],[22.8771,41.902],[22.8589,41.9479],[22.8548,41.9826],[22.8456,42.0074],[22.827,42.0251],[22.7989,42.0212],[22.7809,42.0432],[22.7251,42.0425],[22.7057,42.0559],[22.6759,42.0606],[22.6272,42.0791],[22.6178,42.0827],[22.5311,42.1291],[22.5069,42.1489],[22.4814,42.1933],[22.4436,42.2144],[22.345,42.3134]]]}},
{"type":"Feature","properties":{"entityId":"bulgaria","from":1940,"to":1941,"certainty":"estimated","source":"유럽 쪽은 Natural Earth 1:10m admin-1(v5.1.2) 현대 행정구역 조각을 그 시기 국경에 맞춰 묶고, 조각이 역사 경계와 다른 곳은 선을 그어 나눈 근사. 유럽 밖(시베리아·중앙아시아·극동)은 대략적인 추정. 운영자 검수 필요"},"geometry":{"type":"Polygon","coordinates":[[[22.345,42.3134],[22.424,42.3259],[22.4698,42.3917],[22.5088,42.4049],[22.5365,42.4784],[22.5249,42.5077],[22.4253,42.5729],[22.4413,42.6329],[22.4421,42.6817],[22.4814,42.7398],[22.4531,42.7636],[22.4304,42.8171],[22.4814,42.8467],[22.506,42.8701],[22.5448,42.8717],[22.5909,42.8869],[22.6662,42.8719],[22.727,42.8869],[22.7396,42.8989],[22.7764,42.9797],[22.8288,42.9934],[22.8842,43.0367],[22.8967,43.0627],[22.9353,43.0856],[22.974,43.1412],[22.9829,43.1873],[22.9814,43.199],[22.9155,43.2122],[22.8838,43.2306],[22.8332,43.2746],[22.8045,43.329],[22.7243,43.3861],[22.6589,43.4013],[22.6285,43.4283],[22.5868,43.4344],[22.5658,43.4533],[22.5189,43.4742],[22.4785,43.5592],[22.4814,43.6006],[22.4729,43.6359],[22.4559,43.6564],[22.4265,43.6682],[22.3905,43.7124],[22.3885,43.7583],[22.3626,43.7808],[22.3495,43.8079],[22.3771,43.8835],[22.379,43.9135],[22.3945,43.9363],[22.3996,43.9933],[22.4118,44.0069],[22.4659,44.0176],[22.5037,44.0199],[22.5342,44.0572],[22.593,44.0639],[22.6047,44.0794],[22.5991,44.1303],[22.6062,44.1746],[22.6488,44.214],[22.6916,44.2284],[22.9064,44.1229],[23.0083,44.1004],[23.031,44.0931],[23.0401,44.0623],[23.023,44.0316],[22.9881,44.0177],[22.9058,44.004],[22.8859,43.9945],[22.8505,43.897],[22.8634,43.8554],[22.9196,43.8342],[23.0526,43.8428],[23.1318,43.8479],[23.2345,43.8773],[23.3252,43.8866],[23.4847,43.8806],[23.5927,43.8374],[23.6209,43.834],[23.7208,43.8458],[23.7999,43.8185],[24.1496,43.7547],[24.3367,43.7593],[24.3755,43.7639],[24.4312,43.7942],[24.5001,43.7995],[24.6618,43.7557],[24.7526,43.7388],[24.9637,43.7496],[25.0816,43.7189],[25.2113,43.7119],[25.2854,43.6904],[25.3596,43.6543],[25.4031,43.6501],[25.4825,43.6697],[25.5566,43.6704],[25.6165,43.6877],[25.6714,43.7174],[25.7329,43.7188],[25.7811,43.732],[25.8063,43.7637],[25.8693,43.8009],[25.9164,43.8444],[25.934,43.8703],[26.0543,43.9343],[26.0793,43.969],[26.1162,43.9989],[26.1507,44.0124],[26.2315,44.0275],[26.3323,44.0549],[26.4158,44.0638],[26.6142,44.0849],[26.7087,44.1081],[26.7895,44.116],[26.8841,44.1565],[27.0015,44.1651],[27.0275,44.177],[27.1002,44.1445],[27.2527,44.1215],[27.269,44.1124],[27.2643,44.0898],[27.2853,44.0725],[27.3417,44.0531],[27.3838,44.0151],[27.5745,44.0163],[27.6334,44.0298],[27.6563,44.0239],[27.6825,43.9873],[27.7217,43.9487],[27.7873,43.9604],[27.8565,43.9886],[27.9121,43.9933],[27.9358,43.9644],[27.981,43.8493],[28.0148,43.83],[28.2213,43.762],[28.4346,43.7352],[28.5784,43.7413],[28.5737,43.6221],[28.5731,43.6061],[28.6035,43.5382],[28.5603,43.4538],[28.4886,43.4064],[28.4732,43.3668],[28.4595,43.3807],[28.4239,43.3989],[28.3197,43.4266],[28.3065,43.4244],[28.2432,43.4078],[28.2076,43.4078],[28.1766,43.4026],[28.131,43.3662],[28.1045,43.345],[28.0775,43.3234],[28.0544,43.2932],[28.0311,43.249],[28.0063,43.2283],[27.8948,43.0092],[27.894,42.978],[27.904,42.9423],[27.8984,42.8747],[27.8909,42.8609],[27.8898,42.82],[27.8971,42.784],[27.8923,42.7105],[27.8411,42.7083],[27.7925,42.7122],[27.7547,42.7061],[27.729,42.6835],[27.7248,42.6752],[27.7395,42.6611],[27.7148,42.6556],[27.6756,42.5786],[27.944,42.1008],[27.9578,42.0943],[27.9866,42.0721],[27.9873,42.0517],[28.0191,42.0085],[28.0168,41.9726],[27.9659,41.9821],[27.917,41.9779],[27.8522,41.9954],[27.808,41.9935],[27.7898,41.9427],[27.724,41.9676],[27.6871,41.9686],[27.6093,41.9535],[27.5508,41.9242],[27.5464,41.9012],[27.4943,41.9428],[27.4208,41.9737],[27.3748,42.0087],[27.3325,42.0574],[27.2734,42.0917],[27.2382,42.0979],[27.2038,42.0881],[27.1738,42.0571],[27.1161,42.0618],[27.0837,42.0784],[27.0479,42.0829],[27.0226,42.0739],[27.0004,42.0428],[26.9672,42.0285],[26.9389,41.9962],[26.8903,41.9854],[26.8608,41.9879],[26.8379,41.9752],[26.8194,41.9657],[26.7806,41.9834],[26.7367,41.959],[26.6236,41.969],[26.5895,41.9588],[26.5471,41.9269],[26.5598,41.9073],[26.5529,41.8816],[26.5261,41.8242],[26.4784,41.8133],[26.3755,41.8166],[26.3342,41.7895],[26.3163,41.7438],[26.3334,41.713],[26.2739,41.7149],[26.2345,41.7458],[26.2118,41.7505],[26.1899,41.7347],[26.1084,41.7279],[26.0605,41.7073],[26.0481,41.6891],[26.0595,41.6438],[26.1067,41.6243],[26.1303,41.5827],[26.1294,41.5594],[26.1581,41.5423],[26.1645,41.5177],[26.1459,41.478],[26.1743,41.446],[26.1209,41.3578],[26.0219,41.3417],[25.9596,41.315],[25.9212,41.316],[25.882,41.304],[25.811,41.341],[25.7635,41.319],[25.7175,41.3141],[25.6912,41.2984],[25.6398,41.3111],[25.5515,41.3157],[25.5051,41.2806],[25.4535,41.2804],[25.2857,41.2394],[25.2197,41.2497],[25.1771,41.2939],[25.1538,41.3075],[25.0804,41.3341],[24.917,41.3864],[24.8864,41.4006],[24.8033,41.3927],[24.7943,41.3474],[24.7744,41.3481],[24.7187,41.3957],[24.6809,41.4155],[24.6382,41.4177],[24.6443,41.4277],[24.5958,41.4298],[24.5811,41.4602],[24.5494,41.4854],[24.5309,41.5475],[24.5102,41.5617],[24.4592,41.5495],[24.4388,41.5277],[24.3539,41.5191],[24.2868,41.5176],[24.2864,41.5404],[24.2507,41.5635],[24.1977,41.5477],[24.1628,41.512],[24.1463,41.5268],[24.0766,41.536],[24.0473,41.5257],[24.0525,41.4715],[24.0459,41.4555],[24.0007,41.4641],[23.9499,41.4376],[23.8948,41.4643],[23.8677,41.4455],[23.7771,41.429],[23.7544,41.4007],[23.7054,41.4032],[23.6529,41.3976],[23.6248,41.3771],[23.579,41.372],[23.513,41.3977],[23.4145,41.3999],[23.3472,41.3712],[23.326,41.3693],[23.2877,41.3982],[23.2466,41.3897],[23.2098,41.3686],[23.1995,41.333],[23.1797,41.3214],[23.1152,41.3127],[22.917,41.3358],[22.9409,41.3498],[22.9445,41.3684],[22.9373,41.4108],[22.9521,41.4277],[22.9534,41.4382],[22.9462,41.4532],[22.9436,41.5232],[22.9487,41.561],[22.9337,41.5846],[22.933,41.6123],[22.9409,41.6376],[22.967,41.647],[22.9854,41.6772],[22.9986,41.6931],[23.0096,41.7164],[23.0089,41.7399],[22.9912,41.761],[22.9569,41.7657],[22.9397,41.7767],[22.9183,41.8143],[22.9077,41.8486],[22.9014,41.8604],[22.8821,41.8716],[22.8771,41.902],[22.8589,41.9479],[22.8548,41.9826],[22.8456,42.0074],[22.827,42.0251],[22.7989,42.0212],[22.7809,42.0432],[22.7251,42.0425],[22.7057,42.0559],[22.6759,42.0606],[22.6272,42.0791],[22.6178,42.0827],[22.5311,42.1291],[22.5069,42.1489],[22.4814,42.1933],[22.4436,42.2144],[22.345,42.3134]]]}},
{"type":"Feature","properties":{"entityId":"bulgaria","from":1941,"to":1944,"certainty":"estimated","source":"유럽 쪽은 Natural Earth 1:10m admin-1(v5.1.2) 현대 행정구역 조각을 그 시기 국경에 맞춰 묶고, 조각이 역사 경계와 다른 곳은 선을 그어 나눈 근사. 유럽 밖(시베리아·중앙아시아·극동)은 대략적인 추정. 운영자 검수 필요"},"geometry":{"type":"MultiPolygon","coordinates":[[[[20.6641,41.0591],[20.7027,40.9363],[20.7172,40.9132],[20.7409,40.898],[20.7661,40.8937],[20.817,40.9202],[20.8365,40.9239],[20.8902,40.9183],[20.9399,40.9071],[20.9567,40.8948],[20.9653,40.8494],[21.1121,40.8539],[21.183,40.8702],[21.2458,40.8632],[21.2954,40.8609],[21.3449,40.8731],[21.3813,40.9005],[21.4294,40.909],[21.5057,40.9009],[21.5537,40.8704],[21.5816,40.8663],[21.6237,40.8944],[21.6439,40.8945],[21.6569,40.9182],[21.6851,40.928],[21.737,40.9192],[21.7571,40.9225],[21.7781,40.9337],[21.7837,40.9642],[21.8313,40.9935],[21.845,41.0124],[21.8807,41.0384],[21.8963,41.0647],[21.9012,41.0908],[21.9255,41.1068],[21.9651,41.1244],[22.0291,41.1386],[22.0482,41.1519],[22.1034,41.1215],[22.1603,41.1519],[22.2136,41.1607],[22.3026,41.1455],[22.3067,41.1284],[22.3802,41.1317],[22.4218,41.1146],[22.4675,41.115],[22.5007,41.1221],[22.5492,41.1185],[22.5866,41.1241],[22.6073,41.136],[22.6245,41.1526],[22.6259,41.1698],[22.6293,41.1771],[22.6445,41.1802],[22.6572,41.177],[22.6741,41.1566],[22.6919,41.1446],[22.7049,41.1397],[22.7158,41.1456],[22.7272,41.1658],[22.7367,41.2044],[22.7409,41.2836],[22.742,41.287],[22.7513,41.3152],[22.7623,41.3225],[22.781,41.3349],[22.7968,41.337],[22.826,41.341],[22.917,41.3358],[23.1152,41.3127],[23.1797,41.3214],[23.1995,41.333],[23.2098,41.3686],[23.2466,41.3897],[23.2877,41.3982],[23.326,41.3693],[23.3472,41.3712],[23.4145,41.3999],[23.513,41.3977],[23.579,41.372],[23.6248,41.3771],[23.6192,41.3547],[23.6341,41.3113],[23.7187,41.2804],[23.7016,41.2277],[23.7089,41.213],[23.7563,41.1816],[23.816,41.1265],[23.8676,41.0972],[23.9203,41.0871],[23.9511,41.0635],[23.9695,41.0775],[24.0064,41.0778],[24.0472,41.0362],[24.1178,40.9958],[24.1217,40.9539],[24.1077,40.9146],[24.0372,40.8696],[24.0161,40.8451],[23.9429,40.8031],[23.8572,40.7883],[23.8543,40.7812],[23.8635,40.7796],[23.8635,40.718],[23.8978,40.7254],[23.9665,40.7402],[23.9863,40.7322],[24.0731,40.7214],[24.1101,40.7279],[24.2959,40.8112],[24.6124,40.8794],[24.6287,40.8586],[24.6619,40.8791],[24.6798,40.8694],[24.6907,40.8682],[24.7284,40.8527],[24.7539,40.8614],[24.79,40.8575],[24.802,40.8535],[24.8297,40.8768],[24.8342,40.8791],[24.9548,40.9411],[24.9555,40.9411],[25.4467,40.852],[25.8819,40.8314],[25.8922,40.8264],[25.9729,40.7875],[25.9901,40.7792],[26.0119,40.7687],[26.019,40.757],[26.0222,40.7517],[26.0402,40.7517],[26.044,40.7385],[26.0816,40.7356],[26.1345,40.7671],[26.1583,40.8122],[26.212,40.8474],[26.2051,40.8584],[26.2262,40.8993],[26.2392,40.8857],[26.2604,40.9204],[26.2907,40.9061],[26.2944,40.9267],[26.3591,40.9647],[26.3359,40.9971],[26.3596,41.0024],[26.3742,41.0311],[26.3476,41.041],[26.3224,41.0886],[26.3395,41.1145],[26.3173,41.1223],[26.336,41.1526],[26.3211,41.1876],[26.336,41.2289],[26.3317,41.2541],[26.3951,41.259],[26.4893,41.3109],[26.5402,41.3518],[26.5911,41.3293],[26.6226,41.3404],[26.6366,41.3785],[26.6322,41.4197],[26.6159,41.4685],[26.6017,41.5473],[26.5955,41.6124],[26.5764,41.591],[26.4644,41.6485],[26.4762,41.6757],[26.4044,41.6918],[26.3774,41.7106],[26.3334,41.713],[26.3163,41.7438],[26.3342,41.7895],[26.3755,41.8166],[26.4784,41.8133],[26.5261,41.8242],[26.5529,41.8816],[26.5598,41.9073],[26.5471,41.9269],[26.5895,41.9588],[26.6236,41.969],[26.7367,41.959],[26.7806,41.9834],[26.8194,41.9657],[26.8379,41.9752],[26.8608,41.9879],[26.8903,41.9854],[26.9389,41.9962],[26.9672,42.0285],[27.0004,42.0428],[27.0226,42.0739],[27.0479,42.0829],[27.0837,42.0784],[27.1161,42.0618],[27.1738,42.0571],[27.2038,42.0881],[27.2382,42.0979],[27.2734,42.0917],[27.3325,42.0574],[27.3748,42.0087],[27.4208,41.9737],[27.4943,41.9428],[27.5464,41.9012],[27.5508,41.9242],[27.6093,41.9535],[27.6871,41.9686],[27.724,41.9676],[27.7898,41.9427],[27.808,41.9935],[27.8522,41.9954],[27.917,41.9779],[27.9659,41.9821],[28.0168,41.9726],[28.0191,42.0085],[27.9873,42.0517],[27.9866,42.0721],[27.9578,42.0943],[27.944,42.1008],[27.6756,42.5786],[27.7148,42.6556],[27.7395,42.6611],[27.7248,42.6752],[27.729,42.6835],[27.7547,42.7061],[27.7925,42.7122],[27.8411,42.7083],[27.8923,42.7105],[27.8971,42.784],[27.8898,42.82],[27.8909,42.8609],[27.8984,42.8747],[27.904,42.9423],[27.894,42.978],[27.8948,43.0092],[28.0063,43.2283],[28.0311,43.249],[28.0544,43.2932],[28.0775,43.3234],[28.131,43.3662],[28.1766,43.4026],[28.2076,43.4078],[28.2432,43.4078],[28.3065,43.4244],[28.3197,43.4266],[28.4239,43.3989],[28.4595,43.3807],[28.4732,43.3668],[28.4886,43.4064],[28.5603,43.4538],[28.6035,43.5382],[28.5731,43.6061],[28.5737,43.6221],[28.5784,43.7413],[28.4346,43.7352],[28.2213,43.762],[28.0148,43.83],[27.981,43.8493],[27.9358,43.9644],[27.9121,43.9933],[27.8565,43.9886],[27.7873,43.9604],[27.7217,43.9487],[27.6825,43.9873],[27.6563,44.0239],[27.6334,44.0298],[27.5745,44.0163],[27.3838,44.0151],[27.3417,44.0531],[27.2853,44.0725],[27.2643,44.0898],[27.269,44.1124],[27.2527,44.1215],[27.1002,44.1445],[27.0275,44.177],[27.0015,44.1651],[26.8841,44.1565],[26.7895,44.116],[26.7087,44.1081],[26.6142,44.0849],[26.4158,44.0638],[26.3323,44.0549],[26.2315,44.0275],[26.1507,44.0124],[26.1162,43.9989],[26.0793,43.969],[26.0543,43.9343],[25.934,43.8703],[25.9164,43.8444],[25.8693,43.8009],[25.8063,43.7637],[25.7811,43.732],[25.7329,43.7188],[25.6714,43.7174],[25.6165,43.6877],[25.5566,43.6704],[25.4825,43.6697],[25.4031,43.6501],[25.3596,43.6543],[25.2854,43.6904],[25.2113,43.7119],[25.0816,43.7189],[24.9637,43.7496],[24.7526,43.7388],[24.6618,43.7557],[24.5001,43.7995],[24.4312,43.7942],[24.3755,43.7639],[24.3367,43.7593],[24.1496,43.7547],[23.7999,43.8185],[23.7208,43.8458],[23.6209,43.834],[23.5927,43.8374],[23.4847,43.8806],[23.3252,43.8866],[23.2345,43.8773],[23.1318,43.8479],[23.0526,43.8428],[22.9196,43.8342],[22.8634,43.8554],[22.8505,43.897],[22.8859,43.9945],[22.9058,44.004],[22.9881,44.0177],[23.023,44.0316],[23.0401,44.0623],[23.031,44.0931],[23.0083,44.1004],[22.9064,44.1229],[22.6916,44.2284],[22.6488,44.214],[22.6062,44.1746],[22.5991,44.1303],[22.6047,44.0794],[22.593,44.0639],[22.5342,44.0572],[22.5037,44.0199],[22.4659,44.0176],[22.4118,44.0069],[22.3996,43.9933],[22.3945,43.9363],[22.379,43.9135],[22.3771,43.8835],[22.3495,43.8079],[22.3626,43.7808],[22.3885,43.7583],[22.3905,43.7124],[22.4265,43.6682],[22.4559,43.6564],[22.4729,43.6359],[22.4814,43.6006],[22.4785,43.5592],[22.5189,43.4742],[22.5658,43.4533],[22.5868,43.4344],[22.6285,43.4283],[22.6589,43.4013],[22.6224,43.3678],[22.5776,43.3407],[22.5807,43.3268],[22.5246,43.3354],[22.4899,43.3669],[22.445,43.3447],[22.3373,43.3824],[22.3283,43.3281],[22.2554,43.3195],[22.206,43.3381],[22.1649,43.3437],[22.1374,43.3369],[22.1612,43.2599],[22.1451,43.2576],[22.1136,43.2029],[22.1741,43.1805],[22.2341,43.1484],[22.2605,43.1515],[22.2956,43.1099],[22.2466,43.0907],[22.234,43.074],[22.257,43.0585],[22.2024,43.0222],[22.2044,43.0132],[22.2556,42.9929],[22.2892,42.991],[22.39,42.956],[22.4014,42.9426],[22.3592,42.9296],[22.4138,42.8932],[22.4654,42.8781],[22.5448,42.8717],[22.506,42.8701],[22.4814,42.8467],[22.4304,42.8171],[22.3849,42.804],[22.361,42.7815],[22.2868,42.7459],[22.2563,42.7465],[22.1735,42.7885],[22.1714,42.8003],[22.1149,42.7909],[22.1045,42.8204],[22.0238,42.8042],[21.9897,42.816],[21.9671,42.789],[21.8916,42.7827],[21.8228,42.7714],[21.7849,42.7304],[21.7864,42.7073],[21.7443,42.6794],[21.7644,42.6696],[21.7671,42.6387],[21.7347,42.6242],[21.7202,42.5939],[21.7277,42.5741],[21.7177,42.5512],[21.6679,42.4901],[21.619,42.4492],[21.6219,42.4022],[21.6174,42.3866],[21.5966,42.3721],[21.5373,42.3586],[21.516,42.3419],[21.5149,42.3178],[21.5539,42.274],[21.5641,42.2463],[21.5199,42.239],[21.4993,42.2387],[21.4815,42.2478],[21.472,42.2391],[21.4572,42.237],[21.4363,42.2469],[21.4199,42.2401],[21.4298,42.2158],[21.4191,42.215],[21.3843,42.2249],[21.3606,42.2201],[21.3538,42.216],[21.295,42.149],[21.3003,42.1209],[21.3008,42.0984],[21.2993,42.0914],[21.2889,42.0897],[21.2457,42.0962],[21.2293,42.1038],[21.2158,42.0901],[21.1649,42.0861],[21.1496,42.0779],[21.1658,42.0651],[21.1851,42.0691],[21.1891,42.0513],[21.169,42.0384],[21.1706,42.025],[21.179,42.0056],[21.1466,41.9979],[21.1384,41.9898],[21.1609,41.983],[21.1874,41.9701],[21.19,41.9533],[21.1828,41.9268],[21.1802,41.9003],[21.2171,41.8777],[21.2239,41.8648],[21.2408,41.8559],[21.2384,41.8309],[21.2338,41.8172],[21.2165,41.8232],[21.1932,41.8372],[21.1838,41.839],[21.1664,41.8399],[21.147,41.8292],[21.1236,41.8098],[21.1069,41.7897],[21.0928,41.7797],[21.0791,41.7773],[21.0527,41.775],[21.0474,41.7409],[21.03,41.7282],[21.044,41.7128],[21.0561,41.6794],[21.0529,41.6476],[21.0621,41.6346],[21.0835,41.6339],[21.0976,41.6293],[21.1028,41.6212],[21.1015,41.5798],[21.1055,41.5744],[21.1082,41.5584],[21.1256,41.5437],[21.1477,41.5343],[21.1483,41.5283],[21.1383,41.5236],[21.1155,41.5036],[21.1009,41.4956],[21.0949,41.4882],[21.0781,41.4828],[21.0762,41.4667],[21.0861,41.4688],[21.1011,41.4694],[21.1176,41.4736],[21.1321,41.4806],[21.1444,41.4806],[21.1492,41.4779],[21.1497,41.4624],[21.1545,41.4538],[21.1604,41.449],[21.1722,41.4453],[21.1824,41.4442],[21.192,41.4399],[21.1952,41.4291],[21.1797,41.4223],[21.1519,41.4148],[21.1353,41.4078],[21.1335,41.405],[21.1391,41.3849],[21.0855,41.3544],[21.0077,41.354],[20.9616,41.3333],[20.9555,41.3242],[20.9568,41.3041],[20.9932,41.2841],[21.0029,41.264],[21.0212,41.2525],[21.0315,41.225],[21.0169,41.2221],[20.9695,41.2275],[20.9435,41.2408],[20.9073,41.2502],[20.8211,41.2395],[20.7943,41.2074],[20.7957,41.1874],[20.7783,41.182],[20.6641,41.0591]]],[[[24.512,40.6668],[24.5146,40.6519],[24.5142,40.6476],[24.5142,40.6472],[24.5155,40.6465],[24.5168,40.6391],[24.5402,40.634],[24.6114,40.5978],[24.6423,40.5706],[24.6639,40.5839],[24.7738,40.6142],[24.7738,40.6146],[24.7735,40.618],[24.7824,40.6202],[24.7705,40.6556],[24.7702,40.6595],[24.7789,40.6813],[24.7864,40.6879],[24.7831,40.6918],[24.7882,40.7045],[24.7881,40.7047],[24.7882,40.7049],[24.7738,40.7309],[24.7703,40.7345],[24.7864,40.7351],[24.7492,40.7562],[24.7412,40.7644],[24.7317,40.7835],[24.7213,40.785],[24.7198,40.7865],[24.702,40.7878],[24.6746,40.7917],[24.6423,40.8039],[24.6255,40.7932],[24.6226,40.7934],[24.6222,40.7934],[24.5862,40.7691],[24.5843,40.7669],[24.5667,40.7556],[24.5334,40.7182],[24.5234,40.6942],[24.5178,40.6875],[24.517,40.6789],[24.512,40.6668]]],[[[25.4435,40.4819],[25.4663,40.4558],[25.5326,40.415],[25.5661,40.405],[25.5727,40.4007],[25.573,40.4008],[25.5731,40.4007],[25.5772,40.4017],[25.5891,40.3981],[25.6826,40.4231],[25.6837,40.4265],[25.6847,40.4267],[25.6845,40.4271],[25.6847,40.4271],[25.6842,40.428],[25.6907,40.4477],[25.6887,40.475],[25.6565,40.4962],[25.5759,40.5147],[25.5715,40.5148],[25.5695,40.5157],[25.5692,40.5156],[25.5691,40.5157],[25.5661,40.5149],[25.5466,40.5153],[25.5021,40.4976],[25.4467,40.4827],[25.447,40.4825],[25.4469,40.4825],[25.4471,40.4824],[25.4467,40.4823],[25.4474,40.4818],[25.4435,40.4819]]]]}},
{"type":"Feature","properties":{"entityId":"bulgaria","from":1944,"to":null,"certainty":"estimated","source":"유럽 쪽은 Natural Earth 1:10m admin-1(v5.1.2) 현대 행정구역 조각을 그 시기 국경에 맞춰 묶고, 조각이 역사 경계와 다른 곳은 선을 그어 나눈 근사. 유럽 밖(시베리아·중앙아시아·극동)은 대략적인 추정. 운영자 검수 필요"},"geometry":{"type":"Polygon","coordinates":[[[22.345,42.3134],[22.424,42.3259],[22.4698,42.3917],[22.5088,42.4049],[22.5365,42.4784],[22.5249,42.5077],[22.4253,42.5729],[22.4413,42.6329],[22.4421,42.6817],[22.4814,42.7398],[22.4531,42.7636],[22.4304,42.8171],[22.4814,42.8467],[22.506,42.8701],[22.5448,42.8717],[22.5909,42.8869],[22.6662,42.8719],[22.727,42.8869],[22.7396,42.8989],[22.7764,42.9797],[22.8288,42.9934],[22.8842,43.0367],[22.8967,43.0627],[22.9353,43.0856],[22.974,43.1412],[22.9829,43.1873],[22.9814,43.199],[22.9155,43.2122],[22.8838,43.2306],[22.8332,43.2746],[22.8045,43.329],[22.7243,43.3861],[22.6589,43.4013],[22.6285,43.4283],[22.5868,43.4344],[22.5658,43.4533],[22.5189,43.4742],[22.4785,43.5592],[22.4814,43.6006],[22.4729,43.6359],[22.4559,43.6564],[22.4265,43.6682],[22.3905,43.7124],[22.3885,43.7583],[22.3626,43.7808],[22.3495,43.8079],[22.3771,43.8835],[22.379,43.9135],[22.3945,43.9363],[22.3996,43.9933],[22.4118,44.0069],[22.4659,44.0176],[22.5037,44.0199],[22.5342,44.0572],[22.593,44.0639],[22.6047,44.0794],[22.5991,44.1303],[22.6062,44.1746],[22.6488,44.214],[22.6916,44.2284],[22.9064,44.1229],[23.0083,44.1004],[23.031,44.0931],[23.0401,44.0623],[23.023,44.0316],[22.9881,44.0177],[22.9058,44.004],[22.8859,43.9945],[22.8505,43.897],[22.8634,43.8554],[22.9196,43.8342],[23.0526,43.8428],[23.1318,43.8479],[23.2345,43.8773],[23.3252,43.8866],[23.4847,43.8806],[23.5927,43.8374],[23.6209,43.834],[23.7208,43.8458],[23.7999,43.8185],[24.1496,43.7547],[24.3367,43.7593],[24.3755,43.7639],[24.4312,43.7942],[24.5001,43.7995],[24.6618,43.7557],[24.7526,43.7388],[24.9637,43.7496],[25.0816,43.7189],[25.2113,43.7119],[25.2854,43.6904],[25.3596,43.6543],[25.4031,43.6501],[25.4825,43.6697],[25.5566,43.6704],[25.6165,43.6877],[25.6714,43.7174],[25.7329,43.7188],[25.7811,43.732],[25.8063,43.7637],[25.8693,43.8009],[25.9164,43.8444],[25.934,43.8703],[26.0543,43.9343],[26.0793,43.969],[26.1162,43.9989],[26.1507,44.0124],[26.2315,44.0275],[26.3323,44.0549],[26.4158,44.0638],[26.6142,44.0849],[26.7087,44.1081],[26.7895,44.116],[26.8841,44.1565],[27.0015,44.1651],[27.0275,44.177],[27.1002,44.1445],[27.2527,44.1215],[27.269,44.1124],[27.2643,44.0898],[27.2853,44.0725],[27.3417,44.0531],[27.3838,44.0151],[27.5745,44.0163],[27.6334,44.0298],[27.6563,44.0239],[27.6825,43.9873],[27.7217,43.9487],[27.7873,43.9604],[27.8565,43.9886],[27.9121,43.9933],[27.9358,43.9644],[27.981,43.8493],[28.0148,43.83],[28.2213,43.762],[28.4346,43.7352],[28.5784,43.7413],[28.5737,43.6221],[28.5731,43.6061],[28.6035,43.5382],[28.5603,43.4538],[28.4886,43.4064],[28.4732,43.3668],[28.4595,43.3807],[28.4239,43.3989],[28.3197,43.4266],[28.3065,43.4244],[28.2432,43.4078],[28.2076,43.4078],[28.1766,43.4026],[28.131,43.3662],[28.1045,43.345],[28.0775,43.3234],[28.0544,43.2932],[28.0311,43.249],[28.0063,43.2283],[27.8948,43.0092],[27.894,42.978],[27.904,42.9423],[27.8984,42.8747],[27.8909,42.8609],[27.8898,42.82],[27.8971,42.784],[27.8923,42.7105],[27.8411,42.7083],[27.7925,42.7122],[27.7547,42.7061],[27.729,42.6835],[27.7248,42.6752],[27.7395,42.6611],[27.7148,42.6556],[27.6756,42.5786],[27.944,42.1008],[27.9578,42.0943],[27.9866,42.0721],[27.9873,42.0517],[28.0191,42.0085],[28.0168,41.9726],[27.9659,41.9821],[27.917,41.9779],[27.8522,41.9954],[27.808,41.9935],[27.7898,41.9427],[27.724,41.9676],[27.6871,41.9686],[27.6093,41.9535],[27.5508,41.9242],[27.5464,41.9012],[27.4943,41.9428],[27.4208,41.9737],[27.3748,42.0087],[27.3325,42.0574],[27.2734,42.0917],[27.2382,42.0979],[27.2038,42.0881],[27.1738,42.0571],[27.1161,42.0618],[27.0837,42.0784],[27.0479,42.0829],[27.0226,42.0739],[27.0004,42.0428],[26.9672,42.0285],[26.9389,41.9962],[26.8903,41.9854],[26.8608,41.9879],[26.8379,41.9752],[26.8194,41.9657],[26.7806,41.9834],[26.7367,41.959],[26.6236,41.969],[26.5895,41.9588],[26.5471,41.9269],[26.5598,41.9073],[26.5529,41.8816],[26.5261,41.8242],[26.4784,41.8133],[26.3755,41.8166],[26.3342,41.7895],[26.3163,41.7438],[26.3334,41.713],[26.2739,41.7149],[26.2345,41.7458],[26.2118,41.7505],[26.1899,41.7347],[26.1084,41.7279],[26.0605,41.7073],[26.0481,41.6891],[26.0595,41.6438],[26.1067,41.6243],[26.1303,41.5827],[26.1294,41.5594],[26.1581,41.5423],[26.1645,41.5177],[26.1459,41.478],[26.1743,41.446],[26.1209,41.3578],[26.0219,41.3417],[25.9596,41.315],[25.9212,41.316],[25.882,41.304],[25.811,41.341],[25.7635,41.319],[25.7175,41.3141],[25.6912,41.2984],[25.6398,41.3111],[25.5515,41.3157],[25.5051,41.2806],[25.4535,41.2804],[25.2857,41.2394],[25.2197,41.2497],[25.1771,41.2939],[25.1538,41.3075],[25.0804,41.3341],[24.917,41.3864],[24.8864,41.4006],[24.8033,41.3927],[24.7943,41.3474],[24.7744,41.3481],[24.7187,41.3957],[24.6809,41.4155],[24.6382,41.4177],[24.6443,41.4277],[24.5958,41.4298],[24.5811,41.4602],[24.5494,41.4854],[24.5309,41.5475],[24.5102,41.5617],[24.4592,41.5495],[24.4388,41.5277],[24.3539,41.5191],[24.2868,41.5176],[24.2864,41.5404],[24.2507,41.5635],[24.1977,41.5477],[24.1628,41.512],[24.1463,41.5268],[24.0766,41.536],[24.0473,41.5257],[24.0525,41.4715],[24.0459,41.4555],[24.0007,41.4641],[23.9499,41.4376],[23.8948,41.4643],[23.8677,41.4455],[23.7771,41.429],[23.7544,41.4007],[23.7054,41.4032],[23.6529,41.3976],[23.6248,41.3771],[23.579,41.372],[23.513,41.3977],[23.4145,41.3999],[23.3472,41.3712],[23.326,41.3693],[23.2877,41.3982],[23.2466,41.3897],[23.2098,41.3686],[23.1995,41.333],[23.1797,41.3214],[23.1152,41.3127],[22.917,41.3358],[22.9409,41.3498],[22.9445,41.3684],[22.9373,41.4108],[22.9521,41.4277],[22.9534,41.4382],[22.9462,41.4532],[22.9436,41.5232],[22.9487,41.561],[22.9337,41.5846],[22.933,41.6123],[22.9409,41.6376],[22.967,41.647],[22.9854,41.6772],[22.9986,41.6931],[23.0096,41.7164],[23.0089,41.7399],[22.9912,41.761],[22.9569,41.7657],[22.9397,41.7767],[22.9183,41.8143],[22.9077,41.8486],[22.9014,41.8604],[22.8821,41.8716],[22.8771,41.902],[22.8589,41.9479],[22.8548,41.9826],[22.8456,42.0074],[22.827,42.0251],[22.7989,42.0212],[22.7809,42.0432],[22.7251,42.0425],[22.7057,42.0559],[22.6759,42.0606],[22.6272,42.0791],[22.6178,42.0827],[22.5311,42.1291],[22.5069,42.1489],[22.4814,42.1933],[22.4436,42.2144],[22.345,42.3134]]]}}
]}
