{"type":"FeatureCollection","features":[
{"type":"Feature","properties":{"entityId":"burgundy","from":1453,"to":1482,"certainty":"estimated","source":"유럽 쪽은 Natural Earth 1:10m admin-1(v5.1.2) 현대 행정구역 조각을 그 시기 국경에 맞춰 묶고, 조각이 역사 경계와 다른 곳은 선을 그어 나눈 근사. 유럽 밖(시베리아·중앙아시아·극동)은 대략적인 추정. 운영자 검수 필요"},"geometry":{"type":"MultiPolygon","coordinates":[[[[1.2877,50.111],[1.3085,50.111],[1.3085,50.0628],[1.3489,50.0628],[1.3489,50.0531],[1.3731,50.0657],[1.5164,50.0007],[1.6809,49.8885],[1.7102,49.835],[1.7409,49.798],[1.7545,49.7656],[1.8365,49.7403],[1.8562,49.7014],[1.9722,49.7153],[2.0664,49.6845],[2.2386,49.6978],[2.3066,49.6892],[2.3577,49.6644],[2.4376,49.6528],[2.4666,49.6314],[2.5211,49.6298],[2.5761,49.6001],[2.6095,49.612],[2.6338,49.5799],[2.6534,49.5777],[2.6986,49.6216],[2.7387,49.6253],[2.7798,49.6141],[2.7982,49.6223],[2.804,49.6574],[2.8425,49.6648],[2.8848,49.7087],[2.936,49.693],[2.9829,49.7029],[3.0267,49.6859],[3.053,49.6947],[3.0524,49.7138],[3.1186,49.7058],[3.0949,49.7694],[3.0568,49.7785],[3.085,49.8143],[3.0841,49.8611],[3.1175,49.8827],[3.1533,49.9413],[3.1931,49.9756],[3.157,50.0187],[3.2259,50.029],[3.3162,50.0183],[3.362,50.0324],[3.4486,50.0154],[3.4779,50.0191],[3.5547,50.0495],[3.6295,50.038],[3.6832,50.0593],[3.8539,50.043],[3.8861,50.0209],[3.9621,50.0426],[3.9835,50.0371],[3.985,50.0006],[3.9969,49.9921],[4.0811,49.9709],[4.1317,49.975],[4.1877,49.9555],[4.2159,49.9544],[4.2776,49.9602],[4.4277,49.9336],[4.4648,49.9356],[4.6042,49.9802],[4.6567,49.9891],[4.6729,50.0164],[4.6819,50.0839],[4.7886,50.1534],[4.8156,50.1613],[4.8201,50.1464],[4.8719,50.1398],[4.8629,50.0841],[4.846,50.0907],[4.8272,50.0641],[4.8267,50.036],[4.7883,49.9743],[4.7973,49.9443],[4.8446,49.9317],[4.8594,49.8917],[4.8369,49.848],[4.8492,49.8316],[4.849,49.7942],[4.8842,49.7841],[4.9684,49.797],[5.0263,49.7667],[5.0819,49.7527],[5.1364,49.7053],[5.1925,49.6828],[5.2592,49.6913],[5.2994,49.6625],[5.2979,49.6133],[5.3349,49.6258],[5.3912,49.6088],[5.3899,49.5933],[5.3021,49.5495],[5.2731,49.544],[5.2629,49.5588],[5.25,49.5597],[5.25,49.45],[5.55,49.45],[5.55,49.523],[5.5476,49.5234],[5.6023,49.5137],[5.6446,49.5438],[5.7103,49.5311],[5.7571,49.5484],[5.7907,49.5378],[5.8221,49.5105],[5.8647,49.4922],[5.9281,49.4823],[5.9607,49.4413],[6,49.4441],[6,49.22],[6.4,49.22],[6.4,49.465],[6.3453,49.4553],[6.3423,49.493],[6.3488,49.5253],[6.3508,49.5666],[6.3715,49.593],[6.3976,49.6139],[6.4179,49.6391],[6.4027,49.6558],[6.4182,49.6699],[6.4917,49.7008],[6.4997,49.7122],[6.4863,49.7427],[6.5001,49.7945],[6.4625,49.8055],[6.4145,49.8055],[6.3801,49.8156],[6.3344,49.8402],[6.3026,49.8349],[6.2956,49.8486],[6.2868,49.861],[6.2227,49.8871],[6.1727,49.9562],[6.1619,49.9425],[6.1172,50.0044],[6.1138,50.0364],[6.0964,50.0486],[6.1175,50.1205],[6.0971,50.1513],[6.023,50.1508],[6.0199,50.1947],[6.0338,50.2048],[6.0075,50.2187],[6.013,50.3118],[5.9793,50.3309],[5.8581,50.3479],[5.8493,50.3295],[5.8678,50.3195],[5.8455,50.2846],[5.8738,50.2715],[5.7207,50.2631],[5.7476,50.2998],[5.7206,50.3041],[5.7034,50.3326],[5.7208,50.3575],[5.6703,50.3577],[5.5877,50.4006],[5.5316,50.3951],[5.5086,50.426],[5.4685,50.4091],[5.4251,50.4308],[5.4057,50.4234],[5.4257,50.4006],[5.3924,50.3805],[5.3499,50.3897],[5.2951,50.3662],[5.2824,50.3969],[5.2328,50.4056],[5.2205,50.4184],[5.2361,50.4381],[5.1959,50.4786],[5.1621,50.4699],[5.156,50.4906],[5.1054,50.5074],[5.0904,50.5309],[5.0346,50.5329],[5.0534,50.5419],[5.0277,50.5899],[4.9791,50.6193],[4.9826,50.6434],[5.0018,50.6662],[5.0008,50.6958],[5.0166,50.703],[4.992,50.7253],[5.0158,50.7335],[5.0191,50.7519],[5.0435,50.7428],[5.043,50.7251],[5.0747,50.7069],[5.1011,50.7098],[5.1204,50.736],[5.1011,50.7433],[5.1146,50.7636],[5.1064,50.782],[5.1516,50.8116],[5.1295,50.8166],[5.1532,50.8796],[5.1775,50.8786],[5.1862,50.9063],[5.1332,50.9225],[5.0946,50.911],[5.0547,50.9212],[5.0415,50.9431],[5.0817,50.9656],[5.0826,50.9877],[5.1244,50.9998],[5.118,51.0233],[5.1583,51.0235],[5.1312,51.0455],[5.0809,51.0495],[5.081,51.0245],[5.0225,51.0207],[5.0063,51.0404],[4.9809,51.036],[5.0098,51.0751],[5.0899,51.0852],[5.1303,51.1176],[5.1804,51.1192],[5.203,51.14],[5.2354,51.134],[5.2604,51.1481],[5.2572,51.1885],[5.2165,51.2125],[5.2395,51.2569],[5.2707,51.2618],[5.3891,51.2587],[5.4716,51.2881],[5.5167,51.2772],[5.5352,51.262],[5.5514,51.2168],[5.625,51.1969],[5.659,51.1791],[5.718,51.1846],[5.7472,51.1776],[5.7814,51.1524],[5.8291,51.1565],[5.8405,51.1389],[5.8232,51.1187],[5.846,51.1034],[5.8049,51.0966],[5.8118,51.0823],[5.7913,51.055],[5.7715,51.0581],[5.7776,51.0236],[5.7224,50.9594],[5.764,50.9594],[5.7176,50.9092],[5.6945,50.9037],[5.6223,50.8527],[5.6245,50.8303],[5.6574,50.8076],[5.7005,50.7956],[5.6884,50.7608],[5.7328,50.7589],[5.7524,50.7734],[5.7932,50.7521],[5.8913,50.7512],[5.9949,50.7499],[5.973,50.7818],[6.0036,50.8126],[6.0005,50.8304],[6.0456,50.8442],[6.0631,50.8709],[6.0637,50.9075],[5.9999,50.9294],[6.0037,50.9737],[5.9277,50.9777],[5.8746,50.9654],[5.8736,50.9906],[5.8525,51.0428],[5.8805,51.0521],[5.9196,51.0297],[5.9503,51.0395],[5.9829,51.0747],[6.0754,51.1204],[6.1324,51.1398],[6.1473,51.1523],[6.1263,51.1646],[6.1571,51.1793],[6.1341,51.1842],[6.0843,51.1627],[6.0537,51.1894],[6.0652,51.2316],[6.0965,51.2588],[6.1478,51.3182],[6.1936,51.3445],[6.2078,51.3877],[6.1927,51.399],[6.2053,51.4584],[6.1933,51.5093],[6.0865,51.5955],[6.0992,51.6445],[6.0315,51.663],[6.0086,51.6812],[6.022,51.7095],[5.9783,51.7298],[5.9393,51.7319],[5.9461,51.7463],[5.8899,51.7773],[5.8628,51.7594],[5.7599,51.7626],[5.6613,51.8002],[5.6432,51.8238],[5.5985,51.83],[5.5346,51.8239],[5.5008,51.835],[5.4415,51.8164],[5.3811,51.8116],[5.3675,51.7754],[5.318,51.7474],[5.1349,51.7348],[5.1373,51.7692],[5.1004,51.7848],[5.065,51.7831],[5.0121,51.8115],[5.0093,51.8252],[5.0045,51.8509],[5.0334,51.852],[5.1205,51.8762],[5.1179,51.8915],[5.1826,51.9669],[5.1541,51.974],[5.1049,52.0038],[5.0304,51.9743],[4.989,51.9802],[4.9268,51.9493],[4.8873,51.9412],[4.8243,51.9968],[4.854,52.0081],[4.8496,52.0202],[4.7994,52.0227],[4.8312,52.0525],[4.8777,52.0714],[4.8325,52.0716],[4.8198,52.1088],[4.7909,52.1197],[4.8208,52.1395],[4.8655,52.1356],[4.8627,52.168],[4.7919,52.1991],[4.7679,52.2212],[4.8144,52.2296],[4.8715,52.2522],[4.9113,52.2556],[4.9331,52.2755],[4.9863,52.2855],[5.0352,52.2718],[5.0582,52.2374],[5.034,52.2045],[5.045,52.1681],[5.1268,52.1809],[5.1824,52.179],[5.202,52.1874],[5.2457,52.2572],[5.2762,52.2793],[5.3661,52.2832],[5.2828,52.3185],[5.2489,52.325],[5.1599,52.3282],[5.1049,52.3638],[5.1033,52.3962],[5.1599,52.4285],[5.1939,52.4285],[5.168,52.4722],[5.1194,52.5159],[5.0952,52.5822],[5.2618,52.6486],[5.278,52.6858],[5.3087,52.6987],[5.3589,52.689],[5.3703,52.7903],[5.2602,52.8654],[5.1798,53.009],[5.1798,53.0488],[5.1492,53.0488],[5.1492,53.1051],[5.1187,53.1051],[5.1187,53.1666],[5.027,53.1666],[5.027,53.1908],[4.9883,53.179],[4.9495,53.1672],[4.8974,53.1512],[4.8872,53.1644],[4.8872,53.1833],[4.8868,53.1831],[4.8868,53.1833],[4.8858,53.1827],[4.8858,53.1867],[4.8543,53.1877],[4.8057,53.133],[4.7597,53.1091],[4.7167,53.096],[4.7068,53.093],[4.4064,52.5894],[4.3168,52.4391],[4.2944,52.4015],[4.2719,52.3639],[4.2271,52.2887],[4.0493,51.9907],[4.0225,51.9944],[4.01,51.9801],[4.0257,51.951],[3.9638,51.8472],[3.9627,51.8474],[3.8623,51.8161],[3.8716,51.7883],[3.9339,51.7971],[3.9173,51.7693],[3.9016,51.743],[3.8101,51.7473],[3.7928,51.7457],[3.7892,51.7459],[3.7888,51.7459],[3.7825,51.7448],[3.7258,51.7397],[3.7054,51.7314],[3.6988,51.7303],[3.6988,51.7288],[3.6895,51.725],[3.6867,51.6927],[3.7206,51.6768],[3.7654,51.6784],[3.7758,51.6858],[3.8159,51.693],[3.8244,51.69],[3.8596,51.6726],[3.8284,51.6204],[3.8118,51.6115],[3.5604,51.5946],[3.5469,51.5894],[3.5008,51.5775],[3.4838,51.5652],[3.4575,51.5551],[3.447,51.546],[3.4619,51.519],[3.4948,51.5009],[3.5321,51.4626],[3.4881,51.4392],[3.4608,51.4246],[3.4179,51.4017],[3.3878,51.3857],[3.3828,51.3847],[3.3496,51.3778],[3.3477,51.3774],[3.3126,51.3702],[3.2775,51.3629],[3.2236,51.3518],[3.2073,51.3464],[3.1248,51.3297],[2.9983,51.2774],[2.9608,51.265],[2.9162,51.2478],[2.6523,51.1824],[2.5658,51.1609],[2.5226,51.1502],[2.5144,51.1482],[2.4793,51.1401],[2.1333,51.0605],[2.0901,51.0505],[2.0468,51.0405],[1.9603,51.0206],[1.6396,50.9468],[1.6143,50.8782],[1.5806,50.8688],[1.5946,50.8248],[1.512,50.6011],[1.4707,50.4893],[1.4501,50.4334],[1.4398,50.4055],[1.4294,50.3775],[1.3696,50.2153],[1.3489,50.1593],[1.3372,50.1276],[1.2877,50.111]]],[[[3.6249,46.7393],[3.6579,46.6859],[3.6987,46.6571],[3.743,46.6102],[3.7409,46.5493],[3.81,46.5219],[3.8349,46.5219],[3.8782,46.4928],[3.9367,46.4841],[3.9788,46.4626],[3.9887,46.4225],[3.9791,46.3949],[3.9859,46.3562],[4.0013,46.3354],[3.9783,46.3122],[3.8865,46.2762],[3.8987,46.2493],[3.8977,46.2132],[3.9715,46.1819],[4.0066,46.1769],[4.0637,46.1927],[4.1337,46.1819],[4.1917,46.1899],[4.289,46.1727],[4.3284,46.182],[4.3839,46.2248],[4.4085,46.2898],[4.5176,46.2762],[4.5543,46.2887],[4.5812,46.2659],[4.6057,46.2631],[4.6381,46.2992],[4.673,46.2882],[4.6774,46.2613],[4.7041,46.2475],[4.7031,46.2247],[4.7202,46.1886],[4.7392,46.177],[4.7978,46.1718],[4.7952,46.1923],[4.8186,46.2573],[4.8728,46.3376],[4.8742,46.3597],[4.8993,46.3961],[4.9119,46.4472],[4.9376,46.5016],[4.96,46.5095],[5.0253,46.4933],[5.0641,46.4927],[5.1252,46.509],[5.1786,46.5054],[5.2404,46.4687],[5.311,46.4554],[5.3203,46.4084],[5.3639,46.3914],[5.3754,46.3604],[5.4691,46.3203],[5.4699,46.2769],[5.5099,46.2607],[5.5954,46.3],[5.6479,46.344],[5.6978,46.3121],[5.7144,46.2777],[5.7305,46.2712],[5.8396,46.2674],[5.8809,46.2755],[5.9521,46.3233],[5.9689,46.3448],[6.059,46.4174],[6.0642,46.4711],[6.1457,46.5516],[6.138,46.5576],[6.1184,46.5835],[6.1319,46.5956],[6.2663,46.6804],[6.3379,46.7074],[6.3742,46.7336],[6.4292,46.7608],[6.4326,46.786],[6.4186,46.807],[6.4431,46.8515],[6.4484,46.8716],[6.4278,46.9091],[6.4426,46.9442],[6.4911,46.9634],[6.5987,46.9865],[6.6654,47.0213],[6.6883,47.0438],[6.6763,47.0624],[6.6991,47.0846],[6.746,47.1039],[6.7448,47.1211],[6.7748,47.1282],[6.8381,47.1681],[6.8883,47.2113],[6.9562,47.2452],[6.9586,47.2906],[7.0443,47.3405],[7.004,47.3681],[6.9856,47.3621],[6.8666,47.3542],[6.8988,47.3957],[6.9245,47.406],[6.9392,47.4268],[6.9144,47.487],[6.9234,47.5211],[6.8938,47.5518],[6.8248,47.5476],[6.8071,47.5629],[6.8109,47.5764],[6.7897,47.6042],[6.7865,47.655],[6.7608,47.7138],[6.7651,47.7529],[6.7848,47.78],[6.836,47.8242],[6.7407,47.8761],[6.6965,47.8899],[6.6372,47.9351],[6.6138,47.9413],[6.5765,47.908],[6.5526,47.9012],[6.4987,47.9047],[6.412,47.9423],[6.3734,47.953],[6.3224,47.9505],[6.2828,47.9348],[6.2438,47.9322],[6.1819,47.9582],[6.1827,47.9768],[6.1469,48.0016],[6.0994,48.0087],[6.071,48.0044],[6.0344,47.9726],[5.9709,47.9409],[5.9551,47.9797],[5.9261,47.9481],[5.8918,47.9326],[5.8921,47.9091],[5.8608,47.9011],[5.821,47.8635],[5.716,47.8129],[5.7,47.792],[5.7099,47.7641],[5.7009,47.6931],[5.6827,47.6806],[5.5867,47.6579],[5.555,47.6602],[5.5013,47.6819],[5.4207,47.6711],[5.3749,47.6078],[5.3586,47.5934],[5.3305,47.6086],[5.2756,47.5908],[5.2667,47.6152],[5.1941,47.6535],[5.1677,47.6754],[5.138,47.6505],[5.0799,47.66],[5.0337,47.7038],[4.9914,47.6861],[4.9715,47.6934],[4.9545,47.751],[4.9316,47.7734],[4.9894,47.8008],[4.9679,47.8421],[4.8946,47.911],[4.8644,47.8956],[4.8435,47.9095],[4.8607,47.9438],[4.8008,47.9664],[4.7933,47.9969],[4.732,48.0059],[4.6985,48.022],[4.643,48.0086],[4.6102,48.0153],[4.5632,47.9978],[4.5604,47.9744],[4.5418,47.9653],[4.3259,47.946],[4.2884,47.9243],[4.2703,47.8876],[4.2627,47.8439],[4.3131,47.8415],[4.3376,47.792],[4.3303,47.7603],[4.2586,47.7339],[4.2569,47.6875],[4.2445,47.6558],[4.2192,47.6322],[4.2019,47.5996],[4.143,47.5251],[4.1184,47.5047],[4.1172,47.4556],[4.0682,47.4245],[4.0809,47.3801],[4.1021,47.3679],[4.1061,47.3392],[4.1234,47.3233],[4.125,47.2498],[4.1915,47.2446],[4.2192,47.2195],[4.2241,47.1999],[4.2097,47.1553],[4.1278,47.1248],[4.0623,47.1186],[4.0484,47.0951],[4.0625,47.0262],[4.0407,47.0079],[4.0011,47.0013],[4.0004,46.9774],[4.0459,46.9576],[4.0439,46.9084],[4.0891,46.8819],[4.0822,46.8524],[4.0479,46.8438],[4.0473,46.7856],[3.9973,46.778],[3.9174,46.7404],[3.857,46.7248],[3.8093,46.7018],[3.7653,46.7396],[3.7387,46.752],[3.6249,46.7393]]]]}}
]}
