{"type":"FeatureCollection","features":[
{"type":"Feature","properties":{"entityId":"byzantine-empire","from":1400,"to":1403,"certainty":"estimated","source":"유럽 쪽은 Natural Earth 1:10m admin-1(v5.1.2) 현대 행정구역 조각을 그 시기 국경에 맞춰 묶고, 조각이 역사 경계와 다른 곳은 선을 그어 나눈 근사. 유럽 밖(시베리아·중앙아시아·극동)은 대략적인 추정. 운영자 검수 필요"},"geometry":{"type":"MultiPolygon","coordinates":[[[[21.4341,37.3494],[21.4485,37.3188],[21.6702,36.8457],[21.7004,36.8297],[21.7074,36.818],[21.7642,36.795],[21.7654,36.7953],[21.8637,36.7431],[21.874,36.7267],[21.8834,36.7327],[22.4765,36.4184],[22.4797,36.402],[22.5046,36.4045],[22.5023,36.4109],[23.1538,36.4225],[23.1536,36.4229],[23.1538,36.4229],[23.1472,36.4383],[23.1619,36.4462],[23.1961,36.4325],[23.2036,36.4561],[23.1519,36.4873],[23.1346,36.5076],[23.1482,36.5172],[23.1346,36.5554],[23.0913,36.5745],[23.0849,36.5837],[23.0485,36.6689],[23.0533,36.6883],[23.0594,36.6926],[23.0544,36.6926],[23.0665,36.7415],[23.0886,36.7329],[23.1141,36.7813],[23.0806,36.7888],[23.0956,36.807],[23.0868,36.8291],[23.061,36.8501],[23.0602,36.8544],[23.0071,36.9868],[23.0117,36.9868],[22.9998,37.0333],[22.9564,37.0959],[22.9564,37.124],[22.9401,37.1212],[22.91,37.1786],[22.9116,37.1834],[22.8946,37.2079],[22.8514,37.2902],[22.832,37.3136],[23.091,37.3566],[23.1006,37.3573],[23.1619,37.3164],[23.1686,37.2995],[23.2036,37.3027],[23.186,37.3406],[23.278,37.3498],[23.2513,37.3573],[23.241,37.3706],[23.251,37.3766],[23.313,37.3933],[23.4094,37.4093],[23.4092,37.4097],[23.4094,37.4097],[23.4075,37.413],[23.4418,37.4144],[23.5256,37.4392],[23.5256,37.4597],[23.4792,37.4907],[23.4562,37.5],[23.4191,37.5332],[23.422,37.5355],[23.4116,37.54],[23.4094,37.5419],[23.395,37.5801],[23.3938,37.5805],[23.409,37.6259],[23.3987,37.6379],[23.3478,37.6344],[23.3122,37.6174],[23.3406,37.6003],[23.3427,37.5974],[23.3015,37.5965],[23.2648,37.66],[23.2612,37.66],[23.2612,37.6663],[23.259,37.6701],[23.2417,37.7],[23.2245,37.7299],[23.19,37.7896],[23.1824,37.8028],[23.1824,37.8091],[23.1768,37.8125],[23.1146,37.9202],[23.1146,37.9203],[23.1929,37.8978],[23.1929,37.93],[23.1668,37.93],[23.1668,37.9441],[23.1594,37.9405],[23.1108,38.0229],[23.0763,38.0597],[23.0902,38.0625],[23.0902,38.101],[23.0569,38.101],[23.0569,38.1423],[22.9569,38.1423],[22.9569,38.1315],[22.7238,38.1315],[22.7238,38.1795],[22.6904,38.1795],[22.6904,38.1558],[22.6571,38.1558],[22.6571,38.2038],[22.5572,38.2038],[22.5572,38.2163],[22.4573,38.2163],[22.4573,38.2517],[22.4239,38.2517],[22.4239,38.2168],[22.3906,38.2168],[22.3906,38.1774],[22.3573,38.1774],[22.3573,38.163],[22.348,38.1231],[22.3722,38.0898],[22.3278,38],[22.2323,37.9633],[22.2136,37.8783],[22.2355,37.8508],[22.2286,37.8354],[22.1725,37.8181],[22.1464,37.7942],[22.1113,37.7932],[22.1074,37.8074],[22.0542,37.8033],[22.0281,37.7794],[22.0106,37.7789],[21.8755,37.8316],[21.8675,37.8599],[21.8314,37.8536],[21.7736,37.779],[21.7686,37.7387],[21.7895,37.6896],[21.7907,37.5803],[21.8584,37.5718],[21.9502,37.5137],[21.9788,37.4855],[21.9507,37.4672],[21.9293,37.4809],[21.8871,37.4454],[21.8882,37.4179],[21.8528,37.3815],[21.8336,37.3731],[21.8006,37.38],[21.7646,37.3736],[21.6976,37.3849],[21.682,37.379],[21.6816,37.38],[21.6049,37.38],[21.6049,37.3494],[21.4341,37.3494]]],[[[28.1493,41.213],[28.1747,41.0808],[28.1835,41.0814],[28.1835,41.0258],[28.2121,41.0272],[28.4416,41.0379],[28.4607,41.0329],[28.5125,40.9927],[28.5414,40.9896],[28.5603,41.0123],[28.5608,41.0175],[28.6034,41.009],[28.5952,40.978],[28.6253,40.9684],[28.7453,40.9802],[28.822,40.9616],[28.8499,40.9753],[28.8993,40.9843],[28.9353,41.004],[28.946,41.0061],[28.9819,41.0017],[28.9973,41.0399],[29.0422,41.0664],[29.0706,41.1302],[29.0408,41.1643],[29.0693,41.1747],[29.0999,41.2104],[29.1092,41.2353],[29.0452,41.2564],[29.032,41.2449],[28.9576,41.2579],[28.9895,41.3005],[28.9893,41.3006],[28.9895,41.3009],[28.4778,41.489],[28.3499,41.536],[28.286,41.5595],[28.254,41.5712],[28.254,41.5384],[28.222,41.5384],[28.222,41.5267],[28.203,41.5402],[28.1557,41.4922],[28.1821,41.421],[28.193,41.3553],[28.163,41.2732],[28.1493,41.213]]],[[[29.0076,41.0305],[29.0087,41.028],[29.0114,41.0321],[29.0076,41.0305]]],[[[29.0691,41.1528],[29.0769,41.1485],[29.0782,41.1616],[29.0691,41.1528]]]]}},
{"type":"Feature","properties":{"entityId":"byzantine-empire","from":1403,"to":1423,"certainty":"estimated","source":"유럽 쪽은 Natural Earth 1:10m admin-1(v5.1.2) 현대 행정구역 조각을 그 시기 국경에 맞춰 묶고, 조각이 역사 경계와 다른 곳은 선을 그어 나눈 근사. 유럽 밖(시베리아·중앙아시아·극동)은 대략적인 추정. 운영자 검수 필요"},"geometry":{"type":"MultiPolygon","coordinates":[[[[21.4341,37.3494],[21.4485,37.3188],[21.6702,36.8457],[21.7004,36.8297],[21.7074,36.818],[21.7642,36.795],[21.7654,36.7953],[21.8637,36.7431],[21.874,36.7267],[21.8834,36.7327],[22.4765,36.4184],[22.4797,36.402],[22.5046,36.4045],[22.5023,36.4109],[23.1538,36.4225],[23.1536,36.4229],[23.1538,36.4229],[23.1472,36.4383],[23.1619,36.4462],[23.1961,36.4325],[23.2036,36.4561],[23.1519,36.4873],[23.1346,36.5076],[23.1482,36.5172],[23.1346,36.5554],[23.0913,36.5745],[23.0849,36.5837],[23.0485,36.6689],[23.0533,36.6883],[23.0594,36.6926],[23.0544,36.6926],[23.0665,36.7415],[23.0886,36.7329],[23.1141,36.7813],[23.0806,36.7888],[23.0956,36.807],[23.0868,36.8291],[23.061,36.8501],[23.0602,36.8544],[23.0071,36.9868],[23.0117,36.9868],[22.9998,37.0333],[22.9564,37.0959],[22.9564,37.124],[22.9401,37.1212],[22.91,37.1786],[22.9116,37.1834],[22.8946,37.2079],[22.8514,37.2902],[22.832,37.3136],[23.091,37.3566],[23.1006,37.3573],[23.1619,37.3164],[23.1686,37.2995],[23.2036,37.3027],[23.186,37.3406],[23.278,37.3498],[23.2513,37.3573],[23.241,37.3706],[23.251,37.3766],[23.313,37.3933],[23.4094,37.4093],[23.4092,37.4097],[23.4094,37.4097],[23.4075,37.413],[23.4418,37.4144],[23.5256,37.4392],[23.5256,37.4597],[23.4792,37.4907],[23.4562,37.5],[23.4191,37.5332],[23.422,37.5355],[23.4116,37.54],[23.4094,37.5419],[23.395,37.5801],[23.3938,37.5805],[23.409,37.6259],[23.3987,37.6379],[23.3478,37.6344],[23.3122,37.6174],[23.3406,37.6003],[23.3427,37.5974],[23.3015,37.5965],[23.2648,37.66],[23.2612,37.66],[23.2612,37.6663],[23.259,37.6701],[23.2417,37.7],[23.2245,37.7299],[23.19,37.7896],[23.1824,37.8028],[23.1824,37.8091],[23.1768,37.8125],[23.1146,37.9202],[23.1146,37.9203],[23.1929,37.8978],[23.1929,37.93],[23.1668,37.93],[23.1668,37.9441],[23.1594,37.9405],[23.1108,38.0229],[23.0763,38.0597],[23.0902,38.0625],[23.0902,38.101],[23.0569,38.101],[23.0569,38.1423],[22.9569,38.1423],[22.9569,38.1315],[22.7238,38.1315],[22.7238,38.1795],[22.6904,38.1795],[22.6904,38.1558],[22.6571,38.1558],[22.6571,38.2038],[22.5572,38.2038],[22.5572,38.2163],[22.4573,38.2163],[22.4573,38.2517],[22.4239,38.2517],[22.4239,38.2168],[22.3906,38.2168],[22.3906,38.1774],[22.3573,38.1774],[22.3573,38.163],[22.348,38.1231],[22.3722,38.0898],[22.3278,38],[22.2323,37.9633],[22.2136,37.8783],[22.2355,37.8508],[22.2286,37.8354],[22.1725,37.8181],[22.1464,37.7942],[22.1113,37.7932],[22.1074,37.8074],[22.0542,37.8033],[22.0281,37.7794],[22.0106,37.7789],[21.8755,37.8316],[21.8675,37.8599],[21.8314,37.8536],[21.7736,37.779],[21.7686,37.7387],[21.7895,37.6896],[21.7907,37.5803],[21.8584,37.5718],[21.9502,37.5137],[21.9788,37.4855],[21.9507,37.4672],[21.9293,37.4809],[21.8871,37.4454],[21.8882,37.4179],[21.8528,37.3815],[21.8336,37.3731],[21.8006,37.38],[21.7646,37.3736],[21.6976,37.3849],[21.682,37.379],[21.6816,37.38],[21.6049,37.38],[21.6049,37.3494],[21.4341,37.3494]]],[[[22.7096,39.935],[22.7098,39.935],[22.7098,39.9378],[22.7096,39.935]]],[[[22.7105,39.9475],[22.7437,39.9475],[22.7159,40.022],[22.7105,39.9475]]],[[[22.7422,40.3901],[22.8152,40.476],[22.8953,40.3981],[22.8882,40.3863],[22.9064,40.3873],[23.3442,39.9617],[23.3608,39.9617],[23.3606,39.9611],[23.3644,39.9617],[23.4925,39.9617],[23.548,39.9461],[23.6165,39.9233],[23.7031,39.9127],[23.7479,39.9305],[23.6973,39.9405],[23.676,39.9611],[23.6759,39.9617],[23.899,39.9617],[23.9142,39.9666],[23.9197,39.9564],[23.9912,39.9536],[23.9728,39.9619],[23.9987,39.9748],[23.988,39.99],[23.9884,39.9903],[24.0511,40.0104],[24.14,40.0388],[24.1844,40.0531],[24.2289,40.0673],[24.4066,40.1242],[24.4063,40.1245],[24.4066,40.1246],[24.3815,40.145],[24.3938,40.1525],[24.3833,40.1791],[24.3206,40.228],[24.2663,40.289],[24.2334,40.3169],[24.2223,40.3171],[24.2122,40.3282],[24.1889,40.3388],[24.1799,40.3515],[24.1336,40.3638],[24.0855,40.3856],[24.0293,40.4313],[24.0288,40.4321],[24.0114,40.4492],[24.0076,40.4489],[24.0042,40.4517],[23.9154,40.5239],[23.9092,40.5289],[23.9149,40.5389],[23.8888,40.5638],[23.8663,40.5638],[23.8291,40.5941],[23.7704,40.6418],[23.7443,40.677],[23.7484,40.6932],[23.8291,40.7106],[23.8635,40.718],[23.8635,40.7796],[23.8543,40.7812],[23.8572,40.7883],[23.9373,40.8021],[23.65,40.85],[23.2,40.82],[22.75,40.75],[22.75,40.5],[22.7422,40.3901]]],[[[22.85,39.05],[23.1116,39.05],[23.2027,39.103],[23.2186,39.1039],[23.2855,39.148],[23.3013,39.1514],[23.3438,39.1796],[23.3432,39.1849],[23.3518,39.1899],[23.3515,39.1902],[23.3518,39.1903],[23.331,39.2098],[23.2957,39.2637],[23.287,39.2883],[23.2823,39.2945],[23.2713,39.3229],[23.2468,39.3413],[23.233,39.3595],[23.1441,39.45],[22.85,39.45],[22.85,39.05]]],[[[23.5872,39.2076],[23.6278,39.1473],[23.6342,39.1428],[23.6646,39.0952],[23.6663,39.0948],[23.666,39.0928],[23.7168,39.0772],[23.7295,39.0811],[23.7366,39.0796],[23.7367,39.0797],[23.737,39.0796],[23.7447,39.0858],[23.7603,39.0906],[23.7927,39.1182],[23.7727,39.1293],[23.7488,39.1304],[23.729,39.1404],[23.7305,39.1461],[23.6834,39.1632],[23.6522,39.1788],[23.6013,39.2138],[23.5872,39.2076]]],[[[23.8335,39.1461],[23.8645,39.144],[23.8958,39.1618],[23.8999,39.1677],[23.9386,39.2011],[23.9597,39.244],[23.967,39.2512],[23.971,39.2671],[23.9722,39.2719],[23.9398,39.2798],[23.9017,39.2328],[23.8878,39.2258],[23.8488,39.1592],[23.8335,39.1461]]],[[[24.4348,38.8881],[24.4778,38.878],[24.5051,38.8445],[24.5392,38.8453],[24.5635,38.832],[24.5646,38.8297],[24.5646,38.8196],[24.5504,38.802],[24.5324,38.7961],[24.5398,38.7889],[24.5394,38.7884],[24.5397,38.7884],[24.5394,38.788],[24.5408,38.7878],[24.5667,38.7625],[24.57,38.7781],[24.597,38.7909],[24.6014,38.7919],[24.6138,38.7731],[24.6575,38.7692],[24.6829,38.7842],[24.6765,38.8098],[24.6426,38.8417],[24.6124,38.8568],[24.583,38.8786],[24.574,38.9108],[24.574,38.9326],[24.5667,38.9369],[24.565,38.9429],[24.5175,38.9658],[24.4915,38.981],[24.4885,38.9797],[24.4858,38.981],[24.4857,38.9808],[24.4854,38.981],[24.4834,38.9774],[24.4611,38.9677],[24.4622,38.911],[24.4348,38.8881]]],[[[27.35,40.7686],[27.4,40.8128],[27.4248,40.8313],[27.4465,40.8617],[27.4519,40.8789],[27.6063,40.9908],[27.6754,41.0019],[27.7819,41.0069],[27.8153,41.0026],[27.8607,40.9785],[27.9413,40.9711],[27.9826,41.0161],[27.9833,41.0164],[28.0974,41.0218],[28.1548,41.0245],[28.1835,41.0258],[28.2121,41.0272],[28.4416,41.0379],[28.4607,41.0329],[28.5125,40.9927],[28.5414,40.9896],[28.5603,41.0123],[28.5608,41.0175],[28.6034,41.009],[28.5952,40.978],[28.6253,40.9684],[28.7453,40.9802],[28.822,40.9616],[28.8499,40.9753],[28.8993,40.9843],[28.9353,41.004],[28.946,41.0061],[28.9819,41.0017],[28.9973,41.0399],[29.0422,41.0664],[29.0706,41.1302],[29.0408,41.1643],[29.0693,41.1747],[29.0999,41.2104],[29.1092,41.2353],[29.0452,41.2564],[29.032,41.2449],[28.9576,41.2579],[28.9895,41.3005],[28.9893,41.3006],[28.9895,41.3009],[28.4778,41.489],[28.3499,41.536],[28.286,41.5595],[28.254,41.5712],[28.222,41.583],[28.165,41.6039],[28.1523,41.6086],[28.1448,41.6174],[28.1,41.6702],[28.0883,41.7082],[28.0324,41.8897],[28.0449,41.8902],[28.0168,41.9726],[28.0191,42.0085],[27.9873,42.0517],[27.9866,42.0721],[27.9578,42.0943],[27.944,42.1008],[27.6756,42.5786],[27.7148,42.6556],[27.7395,42.6611],[27.7248,42.6752],[27.729,42.6835],[27.7547,42.7061],[27.7925,42.7122],[27.8411,42.7083],[27.8923,42.7105],[27.8949,42.75],[27.55,42.75],[27.45,42.62],[27.35,42.5],[27.45,42.42],[27.6,42.17],[27.7451,41.9596],[27.8,41.88],[27.95,41.63],[28.1074,41.4883],[28.15,41.45],[28.1762,41.4369],[28.1557,41.4922],[28.1821,41.421],[28.193,41.3553],[28.163,41.2732],[28.1493,41.213],[28.1505,41.2069],[27.95,41.12],[27.35,41.02],[27.35,40.7686]]],[[[29.0076,41.0305],[29.0087,41.028],[29.0114,41.0321],[29.0076,41.0305]]],[[[29.0691,41.1528],[29.0769,41.1485],[29.0782,41.1616],[29.0691,41.1528]]]]}},
{"type":"Feature","properties":{"entityId":"byzantine-empire","from":1423,"to":1424,"certainty":"estimated","source":"유럽 쪽은 Natural Earth 1:10m admin-1(v5.1.2) 현대 행정구역 조각을 그 시기 국경에 맞춰 묶고, 조각이 역사 경계와 다른 곳은 선을 그어 나눈 근사. 유럽 밖(시베리아·중앙아시아·극동)은 대략적인 추정. 운영자 검수 필요"},"geometry":{"type":"MultiPolygon","coordinates":[[[[21.4341,37.3494],[21.4485,37.3188],[21.6702,36.8457],[21.7004,36.8297],[21.7074,36.818],[21.7642,36.795],[21.7654,36.7953],[21.8637,36.7431],[21.874,36.7267],[21.8834,36.7327],[22.4765,36.4184],[22.4797,36.402],[22.5046,36.4045],[22.5023,36.4109],[23.1538,36.4225],[23.1536,36.4229],[23.1538,36.4229],[23.1472,36.4383],[23.1619,36.4462],[23.1961,36.4325],[23.2036,36.4561],[23.1519,36.4873],[23.1346,36.5076],[23.1482,36.5172],[23.1346,36.5554],[23.0913,36.5745],[23.0849,36.5837],[23.0485,36.6689],[23.0533,36.6883],[23.0594,36.6926],[23.0544,36.6926],[23.0665,36.7415],[23.0886,36.7329],[23.1141,36.7813],[23.0806,36.7888],[23.0956,36.807],[23.0868,36.8291],[23.061,36.8501],[23.0602,36.8544],[23.0071,36.9868],[23.0117,36.9868],[22.9998,37.0333],[22.9564,37.0959],[22.9564,37.124],[22.9401,37.1212],[22.91,37.1786],[22.9116,37.1834],[22.8946,37.2079],[22.8514,37.2902],[22.832,37.3136],[23.091,37.3566],[23.1006,37.3573],[23.1619,37.3164],[23.1686,37.2995],[23.2036,37.3027],[23.186,37.3406],[23.278,37.3498],[23.2513,37.3573],[23.241,37.3706],[23.251,37.3766],[23.313,37.3933],[23.4094,37.4093],[23.4092,37.4097],[23.4094,37.4097],[23.4075,37.413],[23.4418,37.4144],[23.5256,37.4392],[23.5256,37.4597],[23.4792,37.4907],[23.4562,37.5],[23.4191,37.5332],[23.422,37.5355],[23.4116,37.54],[23.4094,37.5419],[23.395,37.5801],[23.3938,37.5805],[23.409,37.6259],[23.3987,37.6379],[23.3478,37.6344],[23.3122,37.6174],[23.3406,37.6003],[23.3427,37.5974],[23.3015,37.5965],[23.2648,37.66],[23.2612,37.66],[23.2612,37.6663],[23.259,37.6701],[23.2417,37.7],[23.2245,37.7299],[23.19,37.7896],[23.1824,37.8028],[23.1824,37.8091],[23.1768,37.8125],[23.1146,37.9202],[23.1146,37.9203],[23.1929,37.8978],[23.1929,37.93],[23.1668,37.93],[23.1668,37.9441],[23.1594,37.9405],[23.1108,38.0229],[23.0763,38.0597],[23.0902,38.0625],[23.0902,38.101],[23.0569,38.101],[23.0569,38.1423],[22.9569,38.1423],[22.9569,38.1315],[22.7238,38.1315],[22.7238,38.1795],[22.6904,38.1795],[22.6904,38.1558],[22.6571,38.1558],[22.6571,38.2038],[22.5572,38.2038],[22.5572,38.2163],[22.4573,38.2163],[22.4573,38.2517],[22.4239,38.2517],[22.4239,38.2168],[22.3906,38.2168],[22.3906,38.1774],[22.3573,38.1774],[22.3573,38.163],[22.348,38.1231],[22.3722,38.0898],[22.3278,38],[22.2323,37.9633],[22.2136,37.8783],[22.2355,37.8508],[22.2286,37.8354],[22.1725,37.8181],[22.1464,37.7942],[22.1113,37.7932],[22.1074,37.8074],[22.0542,37.8033],[22.0281,37.7794],[22.0106,37.7789],[21.8755,37.8316],[21.8675,37.8599],[21.8314,37.8536],[21.7736,37.779],[21.7686,37.7387],[21.7895,37.6896],[21.7907,37.5803],[21.8584,37.5718],[21.9502,37.5137],[21.9788,37.4855],[21.9507,37.4672],[21.9293,37.4809],[21.8871,37.4454],[21.8882,37.4179],[21.8528,37.3815],[21.8336,37.3731],[21.8006,37.38],[21.7646,37.3736],[21.6976,37.3849],[21.682,37.379],[21.6816,37.38],[21.6049,37.38],[21.6049,37.3494],[21.4341,37.3494]]],[[[22.85,39.05],[23.1116,39.05],[23.2027,39.103],[23.2186,39.1039],[23.2855,39.148],[23.3013,39.1514],[23.3438,39.1796],[23.3432,39.1849],[23.3518,39.1899],[23.3515,39.1902],[23.3518,39.1903],[23.331,39.2098],[23.2957,39.2637],[23.287,39.2883],[23.2823,39.2945],[23.2713,39.3229],[23.2468,39.3413],[23.233,39.3595],[23.1441,39.45],[22.85,39.45],[22.85,39.05]]],[[[23.5872,39.2076],[23.6278,39.1473],[23.6342,39.1428],[23.6646,39.0952],[23.6663,39.0948],[23.666,39.0928],[23.7168,39.0772],[23.7295,39.0811],[23.7366,39.0796],[23.7367,39.0797],[23.737,39.0796],[23.7447,39.0858],[23.7603,39.0906],[23.7927,39.1182],[23.7727,39.1293],[23.7488,39.1304],[23.729,39.1404],[23.7305,39.1461],[23.6834,39.1632],[23.6522,39.1788],[23.6013,39.2138],[23.5872,39.2076]]],[[[23.8335,39.1461],[23.8645,39.144],[23.8958,39.1618],[23.8999,39.1677],[23.9386,39.2011],[23.9597,39.244],[23.967,39.2512],[23.971,39.2671],[23.9722,39.2719],[23.9398,39.2798],[23.9017,39.2328],[23.8878,39.2258],[23.8488,39.1592],[23.8335,39.1461]]],[[[24.4348,38.8881],[24.4778,38.878],[24.5051,38.8445],[24.5392,38.8453],[24.5635,38.832],[24.5646,38.8297],[24.5646,38.8196],[24.5504,38.802],[24.5324,38.7961],[24.5398,38.7889],[24.5394,38.7884],[24.5397,38.7884],[24.5394,38.788],[24.5408,38.7878],[24.5667,38.7625],[24.57,38.7781],[24.597,38.7909],[24.6014,38.7919],[24.6138,38.7731],[24.6575,38.7692],[24.6829,38.7842],[24.6765,38.8098],[24.6426,38.8417],[24.6124,38.8568],[24.583,38.8786],[24.574,38.9108],[24.574,38.9326],[24.5667,38.9369],[24.565,38.9429],[24.5175,38.9658],[24.4915,38.981],[24.4885,38.9797],[24.4858,38.981],[24.4857,38.9808],[24.4854,38.981],[24.4834,38.9774],[24.4611,38.9677],[24.4622,38.911],[24.4348,38.8881]]],[[[27.35,40.7686],[27.4,40.8128],[27.4248,40.8313],[27.4465,40.8617],[27.4519,40.8789],[27.6063,40.9908],[27.6754,41.0019],[27.7819,41.0069],[27.8153,41.0026],[27.8607,40.9785],[27.9413,40.9711],[27.9826,41.0161],[27.9833,41.0164],[28.0974,41.0218],[28.1548,41.0245],[28.1835,41.0258],[28.2121,41.0272],[28.4416,41.0379],[28.4607,41.0329],[28.5125,40.9927],[28.5414,40.9896],[28.5603,41.0123],[28.5608,41.0175],[28.6034,41.009],[28.5952,40.978],[28.6253,40.9684],[28.7453,40.9802],[28.822,40.9616],[28.8499,40.9753],[28.8993,40.9843],[28.9353,41.004],[28.946,41.0061],[28.9819,41.0017],[28.9973,41.0399],[29.0422,41.0664],[29.0706,41.1302],[29.0408,41.1643],[29.0693,41.1747],[29.0999,41.2104],[29.1092,41.2353],[29.0452,41.2564],[29.032,41.2449],[28.9576,41.2579],[28.9895,41.3005],[28.9893,41.3006],[28.9895,41.3009],[28.4778,41.489],[28.3499,41.536],[28.286,41.5595],[28.254,41.5712],[28.222,41.583],[28.165,41.6039],[28.1523,41.6086],[28.1448,41.6174],[28.1,41.6702],[28.0883,41.7082],[28.0324,41.8897],[28.0449,41.8902],[28.0168,41.9726],[28.0191,42.0085],[27.9873,42.0517],[27.9866,42.0721],[27.9578,42.0943],[27.944,42.1008],[27.6756,42.5786],[27.7148,42.6556],[27.7395,42.6611],[27.7248,42.6752],[27.729,42.6835],[27.7547,42.7061],[27.7925,42.7122],[27.8411,42.7083],[27.8923,42.7105],[27.8949,42.75],[27.55,42.75],[27.45,42.62],[27.35,42.5],[27.45,42.42],[27.6,42.17],[27.7451,41.9596],[27.8,41.88],[27.95,41.63],[28.1074,41.4883],[28.15,41.45],[28.1762,41.4369],[28.1557,41.4922],[28.1821,41.421],[28.193,41.3553],[28.163,41.2732],[28.1493,41.213],[28.1505,41.2069],[27.95,41.12],[27.35,41.02],[27.35,40.7686]]],[[[29.0076,41.0305],[29.0087,41.028],[29.0114,41.0321],[29.0076,41.0305]]],[[[29.0691,41.1528],[29.0769,41.1485],[29.0782,41.1616],[29.0691,41.1528]]]]}},
{"type":"Feature","properties":{"entityId":"byzantine-empire","from":1424,"to":1430,"certainty":"estimated","source":"유럽 쪽은 Natural Earth 1:10m admin-1(v5.1.2) 현대 행정구역 조각을 그 시기 국경에 맞춰 묶고, 조각이 역사 경계와 다른 곳은 선을 그어 나눈 근사. 유럽 밖(시베리아·중앙아시아·극동)은 대략적인 추정. 운영자 검수 필요"},"geometry":{"type":"MultiPolygon","coordinates":[[[[21.4341,37.3494],[21.4485,37.3188],[21.6702,36.8457],[21.7004,36.8297],[21.7074,36.818],[21.7642,36.795],[21.7654,36.7953],[21.8637,36.7431],[21.874,36.7267],[21.8834,36.7327],[22.4765,36.4184],[22.4797,36.402],[22.5046,36.4045],[22.5023,36.4109],[23.1538,36.4225],[23.1536,36.4229],[23.1538,36.4229],[23.1472,36.4383],[23.1619,36.4462],[23.1961,36.4325],[23.2036,36.4561],[23.1519,36.4873],[23.1346,36.5076],[23.1482,36.5172],[23.1346,36.5554],[23.0913,36.5745],[23.0849,36.5837],[23.0485,36.6689],[23.0533,36.6883],[23.0594,36.6926],[23.0544,36.6926],[23.0665,36.7415],[23.0886,36.7329],[23.1141,36.7813],[23.0806,36.7888],[23.0956,36.807],[23.0868,36.8291],[23.061,36.8501],[23.0602,36.8544],[23.0071,36.9868],[23.0117,36.9868],[22.9998,37.0333],[22.9564,37.0959],[22.9564,37.124],[22.9401,37.1212],[22.91,37.1786],[22.9116,37.1834],[22.8946,37.2079],[22.8514,37.2902],[22.832,37.3136],[23.091,37.3566],[23.1006,37.3573],[23.1619,37.3164],[23.1686,37.2995],[23.2036,37.3027],[23.186,37.3406],[23.278,37.3498],[23.2513,37.3573],[23.241,37.3706],[23.251,37.3766],[23.313,37.3933],[23.4094,37.4093],[23.4092,37.4097],[23.4094,37.4097],[23.4075,37.413],[23.4418,37.4144],[23.5256,37.4392],[23.5256,37.4597],[23.4792,37.4907],[23.4562,37.5],[23.4191,37.5332],[23.422,37.5355],[23.4116,37.54],[23.4094,37.5419],[23.395,37.5801],[23.3938,37.5805],[23.409,37.6259],[23.3987,37.6379],[23.3478,37.6344],[23.3122,37.6174],[23.3406,37.6003],[23.3427,37.5974],[23.3015,37.5965],[23.2648,37.66],[23.2612,37.66],[23.2612,37.6663],[23.259,37.6701],[23.2417,37.7],[23.2245,37.7299],[23.19,37.7896],[23.1824,37.8028],[23.1824,37.8091],[23.1768,37.8125],[23.1146,37.9202],[23.1146,37.9203],[23.1929,37.8978],[23.1929,37.93],[23.1668,37.93],[23.1668,37.9441],[23.1594,37.9405],[23.1108,38.0229],[23.0763,38.0597],[23.0902,38.0625],[23.0902,38.101],[23.0569,38.101],[23.0569,38.1423],[22.9569,38.1423],[22.9569,38.1315],[22.7238,38.1315],[22.7238,38.1795],[22.6904,38.1795],[22.6904,38.1558],[22.6571,38.1558],[22.6571,38.2038],[22.5572,38.2038],[22.5572,38.2163],[22.4573,38.2163],[22.4573,38.2517],[22.4239,38.2517],[22.4239,38.2168],[22.3906,38.2168],[22.3906,38.1774],[22.3573,38.1774],[22.3573,38.163],[22.348,38.1231],[22.3722,38.0898],[22.3278,38],[22.2323,37.9633],[22.2136,37.8783],[22.2355,37.8508],[22.2286,37.8354],[22.1725,37.8181],[22.1464,37.7942],[22.1113,37.7932],[22.1074,37.8074],[22.0542,37.8033],[22.0281,37.7794],[22.0106,37.7789],[21.8755,37.8316],[21.8675,37.8599],[21.8314,37.8536],[21.7736,37.779],[21.7686,37.7387],[21.7895,37.6896],[21.7907,37.5803],[21.8584,37.5718],[21.9502,37.5137],[21.9788,37.4855],[21.9507,37.4672],[21.9293,37.4809],[21.8871,37.4454],[21.8882,37.4179],[21.8528,37.3815],[21.8336,37.3731],[21.8006,37.38],[21.7646,37.3736],[21.6976,37.3849],[21.682,37.379],[21.6816,37.38],[21.6049,37.38],[21.6049,37.3494],[21.4341,37.3494]]],[[[28.1493,41.213],[28.1747,41.0808],[28.1835,41.0814],[28.1835,41.0258],[28.2121,41.0272],[28.4416,41.0379],[28.4607,41.0329],[28.5125,40.9927],[28.5414,40.9896],[28.5603,41.0123],[28.5608,41.0175],[28.6034,41.009],[28.5952,40.978],[28.6253,40.9684],[28.7453,40.9802],[28.822,40.9616],[28.8499,40.9753],[28.8993,40.9843],[28.9353,41.004],[28.946,41.0061],[28.9819,41.0017],[28.9973,41.0399],[29.0422,41.0664],[29.0706,41.1302],[29.0408,41.1643],[29.0693,41.1747],[29.0999,41.2104],[29.1092,41.2353],[29.0452,41.2564],[29.032,41.2449],[28.9576,41.2579],[28.9895,41.3005],[28.9893,41.3006],[28.9895,41.3009],[28.4778,41.489],[28.3499,41.536],[28.286,41.5595],[28.254,41.5712],[28.254,41.5384],[28.222,41.5384],[28.222,41.5267],[28.203,41.5402],[28.1557,41.4922],[28.1821,41.421],[28.193,41.3553],[28.163,41.2732],[28.1493,41.213]]],[[[29.0076,41.0305],[29.0087,41.028],[29.0114,41.0321],[29.0076,41.0305]]],[[[29.0691,41.1528],[29.0769,41.1485],[29.0782,41.1616],[29.0691,41.1528]]]]}},
{"type":"Feature","properties":{"entityId":"byzantine-empire","from":1430,"to":1453,"certainty":"estimated","source":"유럽 쪽은 Natural Earth 1:10m admin-1(v5.1.2) 현대 행정구역 조각을 그 시기 국경에 맞춰 묶고, 조각이 역사 경계와 다른 곳은 선을 그어 나눈 근사. 유럽 밖(시베리아·중앙아시아·극동)은 대략적인 추정. 운영자 검수 필요"},"geometry":{"type":"MultiPolygon","coordinates":[[[[21.1062,37.8781],[21.1221,37.8374],[21.2273,37.8119],[21.2365,37.808],[21.2558,37.7955],[21.2958,37.6446],[21.3339,37.5634],[21.3912,37.4411],[21.4198,37.38],[21.4341,37.3494],[21.4485,37.3188],[21.6702,36.8457],[21.7004,36.8297],[21.7074,36.818],[21.7642,36.795],[21.7654,36.7953],[21.8637,36.7431],[21.874,36.7267],[21.8834,36.7327],[22.4765,36.4184],[22.4797,36.402],[22.5046,36.4045],[22.5023,36.4109],[23.1538,36.4225],[23.1536,36.4229],[23.1538,36.4229],[23.1472,36.4383],[23.1619,36.4462],[23.1961,36.4325],[23.2036,36.4561],[23.1519,36.4873],[23.1346,36.5076],[23.1482,36.5172],[23.1346,36.5554],[23.0913,36.5745],[23.0849,36.5837],[23.0485,36.6689],[23.0533,36.6883],[23.0594,36.6926],[23.0544,36.6926],[23.0665,36.7415],[23.0886,36.7329],[23.1141,36.7813],[23.0806,36.7888],[23.0956,36.807],[23.0868,36.8291],[23.061,36.8501],[23.0602,36.8544],[23.0071,36.9868],[23.0117,36.9868],[22.9998,37.0333],[22.9564,37.0959],[22.9564,37.124],[22.9401,37.1212],[22.91,37.1786],[22.9116,37.1834],[22.8946,37.2079],[22.8514,37.2902],[22.832,37.3136],[23.091,37.3566],[23.1006,37.3573],[23.1619,37.3164],[23.1686,37.2995],[23.2036,37.3027],[23.186,37.3406],[23.278,37.3498],[23.2513,37.3573],[23.241,37.3706],[23.251,37.3766],[23.313,37.3933],[23.4094,37.4093],[23.4092,37.4097],[23.4094,37.4097],[23.4075,37.413],[23.4418,37.4144],[23.5256,37.4392],[23.5256,37.4597],[23.4792,37.4907],[23.4562,37.5],[23.4191,37.5332],[23.422,37.5355],[23.4116,37.54],[23.4094,37.5419],[23.395,37.5801],[23.3938,37.5805],[23.409,37.6259],[23.3987,37.6379],[23.3478,37.6344],[23.3122,37.6174],[23.3406,37.6003],[23.3427,37.5974],[23.3015,37.5965],[23.2648,37.66],[23.2612,37.66],[23.2612,37.6663],[23.259,37.6701],[23.2417,37.7],[23.2245,37.7299],[23.19,37.7896],[23.1824,37.8028],[23.1824,37.8091],[23.1768,37.8125],[23.1146,37.9202],[23.1146,37.9203],[23.1929,37.8978],[23.1929,37.93],[23.1668,37.93],[23.1668,37.9441],[23.1594,37.9405],[23.1108,38.0229],[23.0763,38.0597],[23.0902,38.0625],[23.0902,38.101],[23.0569,38.101],[23.0569,38.1423],[22.9569,38.1423],[22.9569,38.1315],[22.7238,38.1315],[22.7238,38.1795],[22.6904,38.1795],[22.6904,38.1558],[22.6571,38.1558],[22.6571,38.2038],[22.5572,38.2038],[22.5572,38.2163],[22.4573,38.2163],[22.4573,38.2517],[22.4239,38.2517],[22.4239,38.2562],[22.2907,38.2562],[22.2907,38.2662],[22.224,38.2662],[22.224,38.2685],[22.1907,38.2685],[22.1907,38.2957],[22.1574,38.2957],[22.1574,38.3098],[22.0908,38.3098],[22.0908,38.32],[21.87,38.32],[21.84,38.34],[21.8,38.34],[21.78,38.32],[21.6,38.3],[21.35,38.24],[21.1441,38.2165],[21.211,37.9644],[21.1611,37.9314],[21.1336,37.9464],[21.1062,37.8781]]],[[[28.1493,41.213],[28.1747,41.0808],[28.1835,41.0814],[28.1835,41.0258],[28.2121,41.0272],[28.4416,41.0379],[28.4607,41.0329],[28.5125,40.9927],[28.5414,40.9896],[28.5603,41.0123],[28.5608,41.0175],[28.6034,41.009],[28.5952,40.978],[28.6253,40.9684],[28.7453,40.9802],[28.822,40.9616],[28.8499,40.9753],[28.8993,40.9843],[28.9353,41.004],[28.946,41.0061],[28.9819,41.0017],[28.9973,41.0399],[29.0422,41.0664],[29.0706,41.1302],[29.0408,41.1643],[29.0693,41.1747],[29.0999,41.2104],[29.1092,41.2353],[29.0452,41.2564],[29.032,41.2449],[28.9576,41.2579],[28.9895,41.3005],[28.9893,41.3006],[28.9895,41.3009],[28.4778,41.489],[28.3499,41.536],[28.286,41.5595],[28.254,41.5712],[28.254,41.5384],[28.222,41.5384],[28.222,41.5267],[28.203,41.5402],[28.1557,41.4922],[28.1821,41.421],[28.193,41.3553],[28.163,41.2732],[28.1493,41.213]]],[[[29.0076,41.0305],[29.0087,41.028],[29.0114,41.0321],[29.0076,41.0305]]],[[[29.0691,41.1528],[29.0769,41.1485],[29.0782,41.1616],[29.0691,41.1528]]]]}}
]}
