{"type":"FeatureCollection","features":[
{"type":"Feature","properties":{"entityId":"candar-beylik","from":1453,"to":1461,"certainty":"estimated","source":"유럽 쪽은 Natural Earth 1:10m admin-1(v5.1.2) 현대 행정구역 조각을 그 시기 국경에 맞춰 묶고, 조각이 역사 경계와 다른 곳은 선을 그어 나눈 근사. 유럽 밖(시베리아·중앙아시아·극동)은 대략적인 추정. 운영자 검수 필요"},"geometry":{"type":"Polygon","coordinates":[[[34.4719,41.3108],[34.4194,41.302],[34.3852,41.2643],[34.3574,41.2094],[34.2871,41.1572],[34.2522,41.0913],[34.2077,41.0393],[34.2264,41.0021],[34.2802,40.9691],[34.2564,40.9194],[34.1145,40.8747],[34.0272,40.8608],[33.9445,40.8687],[33.8796,40.9094],[33.8209,40.9254],[33.7833,40.9738],[33.795,41.0036],[33.8512,41.0573],[33.8409,41.0966],[33.7922,41.094],[33.63,41.0286],[33.5525,41.0177],[33.4475,40.9709],[33.4089,40.9599],[33.3623,40.9712],[33.3255,41.0049],[33.2346,41.0504],[33.1057,41.0613],[33.0692,41.093],[33.038,41.1289],[32.9858,41.147],[32.9297,41.1533],[32.9103,41.2606],[32.9194,41.2944],[32.9647,41.3411],[33.017,41.3804],[33.1154,41.3954],[33.0871,41.4439],[33.0589,41.5328],[32.9861,41.5732],[32.9131,41.5548],[32.8522,41.5477],[32.818,41.5764],[32.8085,41.6478],[32.873,41.6823],[32.8366,41.7551],[32.8083,41.7995],[32.7985,41.8597],[32.7903,41.8596],[32.9455,41.8923],[32.9667,41.8994],[33.0081,41.9173],[33.0586,41.93],[33.2839,42.0052],[33.2916,42.0062],[33.3245,42.019],[33.3609,42.0207],[33.3895,42.0168],[33.4818,42.0106],[33.5143,42.0185],[34.1518,42.027],[34.1995,42.0276],[34.2471,42.0283],[34.3424,42.0295],[34.533,42.0321],[34.9142,42.0371],[34.9419,42.0693],[34.9481,42.0988],[35.0239,42.0925],[35.0488,42.0651],[35.0453,42.0545],[35.1066,42.0397],[35.1588,42.0404],[35.1604,42.0415],[35.1862,42.0425],[35.2076,42.0242],[35.3048,41.985],[35.5166,41.8996],[35.5696,41.8782],[35.5696,41.8321],[35.5696,41.7984],[35.5696,41.7646],[35.5431,41.7646],[35.5431,41.7309],[35.5166,41.7309],[35.5166,41.7255],[35.5166,41.6972],[35.5166,41.6823],[35.5166,41.664],[35.5166,41.639],[35.5001,41.6416],[35.4608,41.5742],[35.456,41.5236],[35.4723,41.4755],[35.4709,41.4171],[35.4895,41.3735],[35.5048,41.2845],[35.4851,41.2728],[35.4338,41.2833],[35.3831,41.2602],[35.3399,41.2545],[35.2963,41.2583],[35.2397,41.2892],[35.1944,41.2934],[35.1958,41.311],[35.1406,41.3415],[35.1328,41.3771],[35.1133,41.3998],[35.1024,41.3853],[35.0239,41.3588],[34.9913,41.3348],[34.9345,41.3179],[34.9418,41.2999],[34.888,41.2698],[34.8761,41.233],[34.8373,41.2016],[34.7239,41.2293],[34.6704,41.2661],[34.641,41.2721],[34.5741,41.2705],[34.5575,41.2846],[34.4985,41.2859],[34.4719,41.3108]]]}}
]}
