{"type":"FeatureCollection","features":[
{"type":"Feature","properties":{"entityId":"castile-county","from":931,"to":1065,"certainty":"estimated","source":"유럽 쪽은 Natural Earth 1:10m admin-1(v5.1.2) 현대 행정구역 조각을 그 시기 국경에 맞춰 묶고, 조각이 역사 경계와 다른 곳은 선을 그어 나눈 근사. 유럽 밖(시베리아·중앙아시아·극동)은 대략적인 추정. 운영자 검수 필요"},"geometry":{"type":"MultiPolygon","coordinates":[[[[-1.8577,41.9548],[-1.8516,41.9061],[-1.816,41.8517],[-1.8459,41.7907],[-1.8085,41.7375],[-1.7855,41.7193],[-1.8073,41.6704],[-1.894,41.6294],[-1.9235,41.603],[-1.9695,41.6077],[-1.9883,41.5955],[-1.9759,41.5427],[-1.9787,41.5076],[-1.9528,41.4578],[-1.9459,41.4155],[-2.0141,41.3881],[-2.0408,41.3947],[-2.0521,41.435],[-2.0997,41.4426],[-2.1196,41.4237],[-2.128,41.3768],[-2.1662,41.346],[-2.1733,41.2946],[-2.1592,41.2692],[-2.1491,41.1939],[-2.1382,41.1815],[-2.0837,41.1719],[-2.0532,41.1504],[-2.0573,41.085],[-2.0729,41.0789],[-2.129,41.1165],[-2.1776,41.0907],[-2.237,41.089],[-2.2884,41.0675],[-2.3269,41.0652],[-2.3645,41.0807],[-2.4092,41.065],[-2.4676,41.0861],[-2.4814,41.1138],[-2.5056,41.1247],[-2.5321,41.1572],[-2.5863,41.1496],[-2.5848,41.1794],[-2.61,41.1917],[-2.586,41.2155],[-2.6395,41.2349],[-2.7092,41.2525],[-2.7281,41.2728],[-2.7813,41.261],[-2.8441,41.2679],[-2.8639,41.2787],[-2.8796,41.3146],[-2.9097,41.3221],[-2.944,41.2991],[-2.9823,41.2872],[-3.0838,41.2808],[-3.1988,41.3012],[-3.3326,41.3771],[-3.3456,41.405],[-3.3369,41.448],[-3.3485,41.4611],[-3.4147,41.4796],[-3.4244,41.5122],[-3.4565,41.5304],[-3.4828,41.5228],[-3.5235,41.5407],[-3.5417,41.5778],[-3.5729,41.5654],[-3.6233,41.5736],[-3.6728,41.5592],[-3.7296,41.505],[-3.7291,41.4577],[-3.7699,41.4601],[-3.786,41.5021],[-3.8358,41.4999],[-3.889,41.5471],[-3.9806,41.5832],[-3.993,41.6087],[-4.0304,41.6306],[-4.0314,41.7011],[-4.0558,41.7408],[-4.041,41.7682],[-4.0379,41.7898],[-4.0901,41.831],[-4.0887,41.8705],[-4.0533,41.8697],[-3.998,41.8857],[-3.9761,41.9301],[-3.9145,41.9427],[-3.8932,41.9628],[-3.9151,41.9929],[-4.006,41.9573],[-4.029,41.9765],[-3.9727,42.0308],[-3.9885,42.0515],[-4.0799,42.0401],[-4.1042,42.0616],[-4.1203,42.1282],[-4.2054,42.1347],[-4.191,42.1811],[-4.2381,42.2144],[-4.235,42.2291],[-4.277,42.3833],[-4.3175,42.3825],[-4.3308,42.4056],[-4.3306,42.4387],[-4.3025,42.4594],[-4.2439,42.4553],[-4.2462,42.492],[-4.2632,42.536],[-4.3042,42.5688],[-4.2826,42.576],[-4.2939,42.6052],[-4.274,42.6169],[-4.285,42.676],[-4.2668,42.7054],[-4.2452,42.6924],[-4.2184,42.7047],[-4.1855,42.7363],[-4.1459,42.7516],[-4.1034,42.7388],[-4.0858,42.7631],[-4.1204,42.789],[-4.1586,42.7935],[-4.1847,42.8235],[-4.1416,42.8345],[-4.1502,42.8622],[-4.1966,42.8441],[-4.2214,42.8502],[-4.2399,42.9502],[-4.3566,42.9854],[-4.4008,43.0333],[-4.4629,43.0509],[-4.5524,43.0239],[-4.7269,43.0159],[-4.7387,43.0481],[-4.7705,43.0786],[-4.8279,43.1081],[-4.836,43.1351],[-4.8319,43.1887],[-4.7427,43.1921],[-4.7279,43.2078],[-4.7157,43.2647],[-4.6432,43.2722],[-4.5926,43.2982],[-4.5512,43.2792],[-4.5235,43.2879],[-4.5187,43.306],[-4.5373,43.3483],[-4.5133,43.3844],[-4.5138,43.4028],[-4.5034,43.3966],[-4.5034,43.4281],[-4.4436,43.4185],[-4.4259,43.4157],[-4.324,43.4149],[-4.3112,43.4148],[-4.016,43.4634],[-3.89,43.4999],[-3.8898,43.4999],[-3.8896,43.4999],[-3.8457,43.4913],[-3.8267,43.497],[-3.7692,43.4792],[-3.7748,43.4774],[-3.7746,43.4773],[-3.6056,43.519],[-3.6053,43.519],[-3.6052,43.519],[-3.5841,43.5172],[-3.5794,43.5183],[-3.5544,43.5169],[-3.5512,43.5144],[-3.5224,43.512],[-3.4552,43.4728],[-3.4366,43.4705],[-3.433,43.46],[-3.4221,43.4536],[-3.1541,43.4483],[-3.1106,43.4474],[-3.1106,43.4012],[-3.1541,43.4012],[-3.1541,43.362],[-3.1506,43.3602],[-3.1495,43.3244],[-3.1602,43.3078],[-3.2035,43.2923],[-3.2352,43.2991],[-3.3229,43.3001],[-3.4309,43.2435],[-3.4416,43.2333],[-3.4409,43.1881],[-3.4238,43.1406],[-3.3624,43.1579],[-3.2785,43.1973],[-3.2297,43.187],[-3.1515,43.1814],[-3.1418,43.1651],[-3.1726,43.1314],[-3.1418,43.1041],[-3.1485,43.0504],[-3.1651,43.0267],[-3.1216,43.0136],[-3.0735,43.014],[-3.0553,43.0431],[-3.0367,43.0497],[-2.9874,43.0089],[-2.9993,42.9895],[-3.0394,42.987],[-3.0123,42.9585],[-2.9834,42.951],[-2.9875,42.9263],[-3.0292,42.9102],[-3.0847,42.9055],[-3.141,42.9161],[-3.1512,42.9343],[-3.1883,42.9467],[-3.2332,42.9382],[-3.2791,42.8872],[-3.2759,42.8747],[-3.2174,42.8297],[-3.2027,42.8551],[-3.1591,42.8646],[-3.1302,42.8886],[-3.1125,42.8683],[-3.1512,42.8176],[-3.1196,42.7687],[-3.0635,42.7853],[-2.9687,42.7378],[-2.8525,42.6654],[-2.8373,42.6441],[-2.9067,42.6263],[-3.0142,42.6409],[-3.0569,42.6373],[-3.0758,42.6257],[-3.0605,42.5994],[-3.1139,42.5484],[-3.1107,42.5368],[-3.07,42.5291],[-3.0832,42.4915],[-3.0492,42.4523],[-3.0582,42.4259],[-3.056,42.3803],[-3.0784,42.3555],[-3.1079,42.349],[-3.0879,42.27],[-3.1022,42.2178],[-3.1204,42.1963],[-3.0778,42.1377],[-3.0552,42.1253],[-3.0263,42.088],[-3.0108,42.0821],[-2.9342,42.0827],[-2.9102,42.0234],[-2.8709,42.0147],[-2.8128,42.0381],[-2.7963,42.056],[-2.7859,42.1011],[-2.7622,42.1181],[-2.7172,42.1142],[-2.7157,42.0799],[-2.7342,42.0641],[-2.7436,42.0225],[-2.6718,42.0005],[-2.5729,42.0002],[-2.5369,42.0526],[-2.5157,42.0688],[-2.5116,42.1051],[-2.4815,42.1082],[-2.4374,42.1319],[-2.3474,42.1422],[-2.2812,42.1299],[-2.2722,42.1019],[-2.2455,42.0895],[-2.1897,42.1041],[-2.1379,42.1016],[-2.1227,42.0907],[-2.149,42.0648],[-2.1462,42.0432],[-2.1166,42.022],[-2.1106,41.9634],[-2.0952,41.9527],[-1.9983,41.9335],[-1.9779,41.9205],[-1.9225,41.9257],[-1.8577,41.9548]],[[-4.0738,42.1338],[-4.0521,42.1435],[-4.0599,42.166],[-4.1008,42.165],[-4.0926,42.1386],[-4.0738,42.1338]]],[[[-2.7528,42.797],[-2.6389,42.7742],[-2.6081,42.7766],[-2.5561,42.7564],[-2.5619,42.7391],[-2.6008,42.7044],[-2.5595,42.6735],[-2.5258,42.6895],[-2.5129,42.6534],[-2.5382,42.6434],[-2.5569,42.6534],[-2.6341,42.6548],[-2.6844,42.6703],[-2.7524,42.6818],[-2.8141,42.7029],[-2.8653,42.7363],[-2.8681,42.7514],[-2.8166,42.794],[-2.7528,42.797]]],[[[-15.3878,27.8867],[-15.3778,27.8523],[-15.407,27.8383],[-15.453,27.7912],[-15.5035,27.7763],[-15.561,27.747],[-15.5613,27.747],[-15.5614,27.747],[-15.5624,27.7471],[-15.578,27.7344],[-15.6072,27.7503],[-15.64,27.7557],[-15.655,27.7574],[-15.6576,27.7586],[-15.6857,27.7633],[-15.786,27.8442],[-15.8151,27.9013],[-15.8218,27.9683],[-15.8161,27.996],[-15.7828,28.0153],[-15.7198,28.0651],[-15.71,28.0892],[-15.7137,28.1059],[-15.6981,28.133],[-15.7062,28.1674],[-15.6508,28.1639],[-15.5981,28.1478],[-15.5933,28.1475],[-15.5213,28.1475],[-15.4876,28.1403],[-15.4534,28.138],[-15.436,28.1505],[-15.4387,28.1749],[-15.4093,28.1798],[-15.3999,28.165],[-15.4077,28.1534],[-15.399,28.1484],[-15.399,28.148],[-15.4062,28.0702],[-15.4043,28.0636],[-15.3916,28.0302],[-15.3636,28.0097],[-15.3767,27.9575],[-15.3636,27.9346],[-15.3873,27.9052],[-15.3878,27.8867]]],[[[-13.9449,28.7427],[-13.8987,28.7539],[-13.8646,28.7442],[-13.8592,28.7389],[-13.8581,28.7386],[-13.8563,28.736],[-13.8355,28.7155],[-13.8332,28.7026],[-13.8257,28.6918],[-13.8257,28.6615],[-13.8212,28.6367],[-13.8257,28.5856],[-13.8257,28.5855],[-13.8257,28.5854],[-13.8287,28.5516],[-13.837,28.5301],[-13.8534,28.4493],[-13.8478,28.3974],[-13.8696,28.3769],[-13.9113,28.2772],[-13.9255,28.2563],[-13.9265,28.2539],[-13.9273,28.2537],[-13.9337,28.2442],[-13.9668,28.228],[-14.0437,28.2169],[-14.1425,28.1858],[-14.152,28.18],[-14.2029,28.1635],[-14.2338,28.138],[-14.3013,28.0679],[-14.3432,28.0507],[-14.369,28.0508],[-14.4286,28.0712],[-14.4949,28.0678],[-14.4904,28.0996],[-14.4921,28.1011],[-14.4918,28.1012],[-14.4919,28.1013],[-14.4921,28.1015],[-14.49,28.1019],[-14.4897,28.1043],[-14.4813,28.1037],[-14.3562,28.1291],[-14.3549,28.1296],[-14.2329,28.2161],[-14.2056,28.282],[-14.2019,28.3039],[-14.1861,28.3289],[-14.1537,28.4071],[-14.1471,28.4181],[-14.1409,28.4349],[-14.1266,28.4522],[-14.0277,28.6171],[-14.0025,28.7074],[-14.0017,28.708],[-13.9999,28.7167],[-13.9726,28.7359],[-13.9599,28.739],[-13.9557,28.7421],[-13.9449,28.7427]]],[[[-13.4238,29.1948],[-13.4388,29.159],[-13.4568,29.1385],[-13.4596,29.1198],[-13.4519,29.086],[-13.4656,29.0581],[-13.4656,29.0239],[-13.4761,29.0083],[-13.4765,29.0056],[-13.4788,29.0043],[-13.482,28.9995],[-13.543,28.9617],[-13.5726,28.9552],[-13.5933,28.9489],[-13.6198,28.9284],[-13.7,28.9161],[-13.7131,28.9121],[-13.7154,28.9106],[-13.7476,28.8796],[-13.7746,28.8396],[-13.7918,28.8486],[-13.8276,28.8592],[-13.8597,28.8594],[-13.8763,28.8888],[-13.8534,28.905],[-13.8441,28.9263],[-13.8374,28.9534],[-13.8321,29.0004],[-13.7985,29.0481],[-13.7939,29.0512],[-13.7901,29.0563],[-13.7794,29.0611],[-13.7506,29.0806],[-13.7261,29.0848],[-13.6497,29.1188],[-13.6484,29.1191],[-13.6368,29.1269],[-13.6002,29.13],[-13.5345,29.1449],[-13.5021,29.2108],[-13.5011,29.2115],[-13.4955,29.2251],[-13.483,29.2399],[-13.4654,29.2433],[-13.4178,29.2089],[-13.4227,29.1971],[-13.4225,29.1969],[-13.4227,29.1967],[-13.4225,29.1965],[-13.4238,29.1948]]],[[[-2.9478,35.3298],[-2.922,35.288],[-2.9132,35.2772],[-2.9129,35.2769],[-2.943,35.2679],[-2.9638,35.2862],[-2.9669,35.3139],[-2.9478,35.3298]]],[[[-3.2992,43.2169],[-3.3042,43.2607],[-3.2861,43.2564],[-3.2674,43.2274],[-3.2992,43.2169]]],[[[-17.9209,27.8479],[-17.8965,27.8403],[-17.8793,27.8145],[-17.9256,27.744],[-17.9264,27.7426],[-17.9302,27.7187],[-17.953,27.6981],[-17.9678,27.6732],[-17.9713,27.6544],[-17.9826,27.6484],[-17.9838,27.6463],[-17.9841,27.6465],[-17.9842,27.6463],[-17.9854,27.6469],[-17.9941,27.6422],[-18.021,27.6646],[-18.0819,27.6948],[-18.1269,27.7003],[-18.1604,27.7224],[-18.1672,27.7576],[-18.1603,27.7605],[-18.1606,27.7609],[-18.1603,27.7609],[-18.1606,27.7613],[-18.158,27.7614],[-18.1405,27.7688],[-18.1096,27.7643],[-18.042,27.7682],[-18.0032,27.7988],[-17.9899,27.8237],[-17.9339,27.852],[-17.9242,27.849],[-17.923,27.8498],[-17.9228,27.8496],[-17.9226,27.8498],[-17.9209,27.8479]]],[[[-17.1304,28.1549],[-17.1161,28.1462],[-17.104,28.1153],[-17.1018,28.1119],[-17.1018,28.1095],[-17.0984,28.1008],[-17.1018,28.0965],[-17.1018,28.0838],[-17.1846,28.0213],[-17.2242,28.0126],[-17.2243,28.0127],[-17.2246,28.0126],[-17.2405,28.0208],[-17.2579,28.0246],[-17.3101,28.0535],[-17.3432,28.0977],[-17.3388,28.171],[-17.3097,28.2071],[-17.2592,28.2177],[-17.2127,28.2054],[-17.133,28.1566],[-17.1306,28.1553],[-17.1304,28.1549]]],[[[-16.6262,28.0143],[-16.6763,27.9971],[-16.7036,28.0137],[-16.7279,28.0786],[-16.7806,28.1279],[-16.7843,28.1374],[-16.7962,28.1497],[-16.8117,28.1824],[-16.8371,28.209],[-16.8434,28.2491],[-16.8521,28.2674],[-16.8712,28.3013],[-16.9042,28.3389],[-16.904,28.339],[-16.9042,28.3393],[-16.9032,28.3399],[-16.9161,28.355],[-16.8374,28.3911],[-16.8028,28.3735],[-16.7562,28.3708],[-16.6642,28.4007],[-16.5846,28.4011],[-16.5645,28.4153],[-16.5071,28.4241],[-16.4204,28.4906],[-16.4083,28.5198],[-16.3634,28.543],[-16.3002,28.5666],[-16.2416,28.565],[-16.1833,28.5701],[-16.1413,28.5834],[-16.1243,28.5753],[-16.123,28.5754],[-16.1226,28.5754],[-16.1225,28.5744],[-16.1177,28.5721],[-16.1215,28.5607],[-16.119,28.5286],[-16.119,28.5282],[-16.335,28.3789],[-16.3582,28.3152],[-16.3581,28.3146],[-16.3589,28.3132],[-16.4178,28.1515],[-16.497,28.0612],[-16.5372,28.0358],[-16.5458,28.024],[-16.5641,28.0274],[-16.6262,28.0143]]],[[[-17.7323,28.7516],[-17.721,28.7306],[-17.7249,28.7259],[-17.7246,28.7247],[-17.7247,28.7246],[-17.7246,28.7243],[-17.7498,28.6879],[-17.7426,28.6154],[-17.7426,28.6153],[-17.7426,28.615],[-17.757,28.5681],[-17.7899,28.5356],[-17.8309,28.4554],[-17.8651,28.4754],[-17.8797,28.5437],[-17.9193,28.5963],[-17.9248,28.6183],[-17.9631,28.6715],[-17.9713,28.7071],[-17.9926,28.7417],[-18.0022,28.7496],[-18.0011,28.7556],[-18.0022,28.7573],[-18.0021,28.7575],[-18.0022,28.7577],[-18.0004,28.7599],[-17.9968,28.7801],[-17.9707,28.8132],[-17.9352,28.8384],[-17.9302,28.8445],[-17.9266,28.8445],[-17.9111,28.8556],[-17.8755,28.8452],[-17.8106,28.8461],[-17.8014,28.8493],[-17.797,28.8463],[-17.7966,28.8463],[-17.796,28.8457],[-17.7558,28.8185],[-17.7573,28.8033],[-17.7426,28.7872],[-17.7323,28.7516]]]]}}
]}
