{"type":"FeatureCollection","features":[
{"type":"Feature","properties":{"entityId":"castile-early","from":1200,"to":1212,"certainty":"estimated","source":"유럽 쪽은 Natural Earth 1:10m admin-1(v5.1.2) 현대 행정구역 조각을 그 시기 국경에 맞춰 묶고, 조각이 역사 경계와 다른 곳은 선을 그어 나눈 근사. 유럽 밖(시베리아·중앙아시아·극동)은 대략적인 추정. 운영자 검수 필요"},"geometry":{"type":"MultiPolygon","coordinates":[[[[-5.0022,42.2892],[-4.9549,42.296],[-4.9425,42.3465],[-4.9796,42.3379],[-4.9727,42.3743],[-4.9113,42.3815],[-4.9127,42.4006],[-4.8881,42.518],[-4.888,42.5369],[-4.9144,42.5448],[-4.8953,42.6216],[-4.8981,42.6691],[-4.8875,42.7116],[-4.9321,42.74],[-4.9037,42.7796],[-4.9019,42.8481],[-4.8657,42.8605],[-4.8476,42.9024],[-4.8134,42.9257],[-4.7892,42.9898],[-4.7269,43.0159],[-4.7387,43.0481],[-4.7705,43.0786],[-4.8279,43.1081],[-4.836,43.1351],[-4.8319,43.1887],[-4.7427,43.1921],[-4.7279,43.2078],[-4.7157,43.2647],[-4.6432,43.2722],[-4.5926,43.2982],[-4.5512,43.2792],[-4.5235,43.2879],[-4.5187,43.306],[-4.5373,43.3483],[-4.5133,43.3844],[-4.5138,43.4028],[-4.5034,43.3966],[-4.5034,43.4281],[-4.4436,43.4185],[-4.4259,43.4157],[-4.324,43.4149],[-4.3112,43.4148],[-4.016,43.4634],[-3.89,43.4999],[-3.8898,43.4999],[-3.8896,43.4999],[-3.8457,43.4913],[-3.8267,43.497],[-3.7692,43.4792],[-3.7748,43.4774],[-3.7746,43.4773],[-3.6056,43.519],[-3.6053,43.519],[-3.6052,43.519],[-3.5841,43.5172],[-3.5794,43.5183],[-3.5544,43.5169],[-3.5512,43.5144],[-3.5224,43.512],[-3.4552,43.4728],[-3.4366,43.4705],[-3.433,43.46],[-3.4221,43.4536],[-3.1541,43.4483],[-3.1106,43.4474],[-3.0672,43.4465],[-2.9803,43.4448],[-2.9256,43.4437],[-2.8748,43.4547],[-2.8746,43.4547],[-2.8744,43.4547],[-2.8064,43.4441],[-2.7558,43.4503],[-2.7397,43.4401],[-2.5533,43.4364],[-2.46,43.4345],[-2.4134,43.4336],[-2.3668,43.4326],[-2.3201,43.4317],[-2.2735,43.4308],[-2.1803,43.4289],[-1.9938,43.4252],[-1.9028,43.4234],[-1.8393,43.4968],[-1.8381,43.4982],[-1.7997,43.5425],[-1.7614,43.5425],[-1.7614,43.4982],[-1.762,43.4982],[-1.762,43.4694],[-1.762,43.4677],[-1.762,43.4406],[-1.762,43.4372],[-1.762,43.4067],[-1.8006,43.4067],[-1.8006,43.3894],[-1.7941,43.386],[-1.7969,43.3411],[-1.7682,43.3309],[-1.7497,43.2948],[-1.7913,43.2774],[-1.8211,43.2386],[-1.8893,43.2116],[-1.9085,43.2183],[-1.9187,43.1922],[-1.9125,43.1351],[-1.9267,43.1144],[-2.0146,43.067],[-2.0406,43.0276],[-2.0427,42.9945],[-2.0947,42.9755],[-2.1329,42.9469],[-2.2141,42.9496],[-2.253,42.9001],[-2.2423,42.8392],[-2.2744,42.791],[-2.2849,42.7447],[-2.3207,42.721],[-2.312,42.6829],[-2.2927,42.6631],[-2.3284,42.643],[-2.3659,42.6379],[-2.4087,42.6602],[-2.4927,42.6093],[-2.4814,42.5859],[-2.4501,42.576],[-2.4213,42.5988],[-2.4059,42.5961],[-2.394,42.565],[-2.4061,42.4971],[-2.3433,42.483],[-2.2784,42.4899],[-2.2387,42.472],[-2.206,42.4464],[-2.172,42.4414],[-2.0765,42.4426],[-2.0553,42.4284],[-2.0696,42.4148],[-2.0324,42.393],[-1.9767,42.393],[-1.9013,42.3254],[-1.8635,42.3049],[-1.8619,42.2842],[-1.8293,42.2776],[-1.7958,42.2565],[-1.6971,42.2158],[-1.6858,42.149],[-1.7131,42.1361],[-1.7541,42.1464],[-1.7742,42.14],[-1.8234,42.1456],[-1.8358,42.1279],[-1.8961,42.0761],[-1.9013,42.0456],[-1.8906,42.0253],[-1.8524,42.0012],[-1.8445,41.982],[-1.8577,41.9548],[-1.8516,41.9061],[-1.816,41.8517],[-1.8459,41.7907],[-1.8085,41.7375],[-1.7855,41.7193],[-1.8073,41.6704],[-1.894,41.6294],[-1.9235,41.603],[-1.9695,41.6077],[-1.9883,41.5955],[-1.9759,41.5427],[-1.9787,41.5076],[-1.9528,41.4578],[-1.9459,41.4155],[-2.0141,41.3881],[-2.0408,41.3947],[-2.0521,41.435],[-2.0997,41.4426],[-2.1196,41.4237],[-2.128,41.3768],[-2.1662,41.346],[-2.1733,41.2946],[-2.1592,41.2692],[-2.1491,41.1939],[-2.1382,41.1815],[-2.0837,41.1719],[-2.0532,41.1504],[-1.9719,41.1699],[-1.9449,41.1644],[-1.8169,41.097],[-1.7673,41.065],[-1.7328,41.026],[-1.6219,40.9468],[-1.6102,40.9277],[-1.6141,40.8867],[-1.601,40.8587],[-1.5446,40.8174],[-1.5388,40.7768],[-1.557,40.7252],[-1.5397,40.6944],[-1.5374,40.663],[-1.5552,40.6142],[-1.5512,40.5951],[-1.5867,40.5706],[-1.6711,40.5893],[-1.6986,40.5424],[-1.6998,40.4933],[-1.75,40.4592],[-1.8083,40.402],[-1.7793,40.3922],[-1.7206,40.3354],[-1.7136,40.2877],[-1.7,40.2948],[-1.6601,40.283],[-1.5551,40.2054],[-1.4444,40.1967],[-1.4485,40.1498],[-1.4523,40.1307],[-1.4169,40.1095],[-1.3783,40.0221],[-1.3695,40.0163],[-1.243,39.9974],[-1.1627,40.0115],[-1.1455,39.9723],[-1.1962,39.9506],[-1.2029,39.8633],[-1.2256,39.7963],[-1.267,39.7435],[-1.2655,39.6938],[-1.2922,39.6727],[-1.3204,39.6714],[-1.372,39.6836],[-1.4275,39.6452],[-1.4632,39.5902],[-1.4944,39.5673],[-1.5045,39.5455],[-1.4984,39.4961],[-1.5182,39.4518],[-1.501,39.422],[-1.7394,39.3211],[-1.77,39.2806],[-1.8451,39.2861],[-1.887,39.3046],[-1.9899,39.2937],[-2.029,39.3379],[-2.0208,39.352],[-2.0907,39.3595],[-2.049,39.2668],[-2.1684,39.281],[-2.2888,39.2267],[-2.3211,39.2837],[-2.3492,39.2789],[-2.3739,39.2329],[-2.5112,39.342],[-2.5294,39.3276],[-2.5678,39.3269],[-2.6193,39.34],[-2.6622,39.3218],[-2.7421,39.318],[-2.7891,39.3976],[-2.8307,39.3551],[-2.8825,39.351],[-2.8966,39.3667],[-2.8698,39.3904],[-2.9072,39.4302],[-2.9312,39.4714],[-2.9779,39.4446],[-3.0225,39.457],[-3.0695,39.4501],[-3.1433,39.4954],[-3.1845,39.4879],[-3.1852,39.4742],[-3.2942,39.4707],[-3.3055,39.4625],[-3.3267,39.4102],[-3.3988,39.405],[-3.4703,39.3722],[-3.4769,39.3431],[-3.5561,39.2991],[-3.5867,39.3077],[-3.679,39.295],[-3.7358,39.2696],[-3.7804,39.2944],[-3.8143,39.2845],[-3.8416,39.2597],[-3.876,39.2621],[-3.9024,39.2803],[-3.9669,39.2985],[-3.9721,39.3523],[-4.0733,39.3654],[-4.0977,39.3454],[-4.1403,39.359],[-4.144,39.3772],[-4.1278,39.409],[-4.1183,39.457],[-4.0798,39.4519],[-4.0598,39.4838],[-4.0755,39.5221],[-4.0385,39.5468],[-4.0417,39.5754],[-4.1244,39.5637],[-4.1587,39.5768],[-4.1927,39.4982],[-4.2421,39.4779],[-4.4268,39.5088],[-4.4509,39.4893],[-4.4761,39.4862],[-4.499,39.5027],[-4.5122,39.5485],[-4.5538,39.5394],[-4.5678,39.4975],[-4.6002,39.4829],[-4.6182,39.4543],[-4.6927,39.4498],[-4.753,39.4182],[-4.7661,39.4344],[-4.7421,39.4777],[-4.7749,39.5194],[-4.8627,39.556],[-4.8985,39.517],[-4.9444,39.3919],[-4.9714,39.4097],[-5.0392,39.4781],[-5.0792,39.4928],[-5.1594,39.5639],[-5.1964,39.5877],[-5.1976,39.5996],[-5.1518,39.663],[-5.1417,39.7203],[-5.1654,39.7472],[-5.1681,39.7929],[-5.2087,39.7927],[-5.2603,39.7523],[-5.3081,39.7583],[-5.3169,39.7719],[-5.3078,39.8269],[-5.2893,39.8617],[-5.3302,39.8889],[-5.3862,39.881],[-5.391,39.9204],[-5.3741,39.9948],[-5.3704,40.0683],[-5.3576,40.1053],[-5.328,40.1159],[-5.3615,40.1648],[-5.3647,40.2097],[-5.3546,40.2552],[-5.4236,40.2431],[-5.4781,40.2042],[-5.5398,40.1974],[-5.6038,40.2194],[-5.627,40.244],[-5.6869,40.2815],[-5.7277,40.294],[-5.6804,40.3474],[-5.6747,40.3714],[-5.6927,40.4046],[-5.6877,40.4246],[-5.617,40.4677],[-5.5752,40.4668],[-5.5733,40.4481],[-5.5346,40.4184],[-5.5091,40.4286],[-5.5154,40.4557],[-5.4784,40.4601],[-5.4596,40.4797],[-5.4365,40.5478],[-5.5118,40.5483],[-5.5173,40.5829],[-5.4474,40.5865],[-5.3855,40.6197],[-5.363,40.6744],[-5.2439,40.74],[-5.2175,40.7724],[-5.1796,40.7929],[-5.1615,40.8185],[-5.1625,40.8681],[-5.1114,40.9148],[-5.1275,40.9542],[-5.104,40.9738],[-5.0958,41.0017],[-5.1111,41.0349],[-5.1472,41.0502],[-5.1515,41.0833],[-5.1251,41.132],[-5.1745,41.1654],[-5.2228,41.1703],[-5.2621,41.1959],[-5.2888,41.1821],[-5.3255,41.178],[-5.3403,41.1941],[-5.3083,41.2182],[-5.2944,41.2528],[-5.3024,41.3055],[-5.329,41.3573],[-5.3212,41.4114],[-5.3393,41.4332],[-5.3315,41.4809],[-5.3065,41.4981],[-5.2644,41.5034],[-5.2287,41.5284],[-5.2898,41.563],[-5.2789,41.5972],[-5.314,41.6142],[-5.3269,41.6703],[-5.3692,41.7194],[-5.3912,41.761],[-5.2796,41.8133],[-5.3079,41.8712],[-5.2967,41.9214],[-5.3039,41.9553],[-5.2805,41.9789],[-5.3763,42.0414],[-5.3874,42.083],[-5.3769,42.1343],[-5.3872,42.1952],[-5.3612,42.225],[-5.3217,42.2042],[-5.2653,42.2182],[-5.2382,42.2643],[-5.1704,42.2679],[-5.124,42.3002],[-5.0938,42.3094],[-5.064,42.2737],[-5.0417,42.2675],[-5.0383,42.2971],[-5.0022,42.2892]]],[[[-15.3878,27.8867],[-15.3778,27.8523],[-15.407,27.8383],[-15.453,27.7912],[-15.5035,27.7763],[-15.561,27.747],[-15.5613,27.747],[-15.5614,27.747],[-15.5624,27.7471],[-15.578,27.7344],[-15.6072,27.7503],[-15.64,27.7557],[-15.655,27.7574],[-15.6576,27.7586],[-15.6857,27.7633],[-15.786,27.8442],[-15.8151,27.9013],[-15.8218,27.9683],[-15.8161,27.996],[-15.7828,28.0153],[-15.7198,28.0651],[-15.71,28.0892],[-15.7137,28.1059],[-15.6981,28.133],[-15.7062,28.1674],[-15.6508,28.1639],[-15.5981,28.1478],[-15.5933,28.1475],[-15.5213,28.1475],[-15.4876,28.1403],[-15.4534,28.138],[-15.436,28.1505],[-15.4387,28.1749],[-15.4093,28.1798],[-15.3999,28.165],[-15.4077,28.1534],[-15.399,28.1484],[-15.399,28.148],[-15.4062,28.0702],[-15.4043,28.0636],[-15.3916,28.0302],[-15.3636,28.0097],[-15.3767,27.9575],[-15.3636,27.9346],[-15.3873,27.9052],[-15.3878,27.8867]]],[[[-13.9449,28.7427],[-13.8987,28.7539],[-13.8646,28.7442],[-13.8592,28.7389],[-13.8581,28.7386],[-13.8563,28.736],[-13.8355,28.7155],[-13.8332,28.7026],[-13.8257,28.6918],[-13.8257,28.6615],[-13.8212,28.6367],[-13.8257,28.5856],[-13.8257,28.5855],[-13.8257,28.5854],[-13.8287,28.5516],[-13.837,28.5301],[-13.8534,28.4493],[-13.8478,28.3974],[-13.8696,28.3769],[-13.9113,28.2772],[-13.9255,28.2563],[-13.9265,28.2539],[-13.9273,28.2537],[-13.9337,28.2442],[-13.9668,28.228],[-14.0437,28.2169],[-14.1425,28.1858],[-14.152,28.18],[-14.2029,28.1635],[-14.2338,28.138],[-14.3013,28.0679],[-14.3432,28.0507],[-14.369,28.0508],[-14.4286,28.0712],[-14.4949,28.0678],[-14.4904,28.0996],[-14.4921,28.1011],[-14.4918,28.1012],[-14.4919,28.1013],[-14.4921,28.1015],[-14.49,28.1019],[-14.4897,28.1043],[-14.4813,28.1037],[-14.3562,28.1291],[-14.3549,28.1296],[-14.2329,28.2161],[-14.2056,28.282],[-14.2019,28.3039],[-14.1861,28.3289],[-14.1537,28.4071],[-14.1471,28.4181],[-14.1409,28.4349],[-14.1266,28.4522],[-14.0277,28.6171],[-14.0025,28.7074],[-14.0017,28.708],[-13.9999,28.7167],[-13.9726,28.7359],[-13.9599,28.739],[-13.9557,28.7421],[-13.9449,28.7427]]],[[[-13.4238,29.1948],[-13.4388,29.159],[-13.4568,29.1385],[-13.4596,29.1198],[-13.4519,29.086],[-13.4656,29.0581],[-13.4656,29.0239],[-13.4761,29.0083],[-13.4765,29.0056],[-13.4788,29.0043],[-13.482,28.9995],[-13.543,28.9617],[-13.5726,28.9552],[-13.5933,28.9489],[-13.6198,28.9284],[-13.7,28.9161],[-13.7131,28.9121],[-13.7154,28.9106],[-13.7476,28.8796],[-13.7746,28.8396],[-13.7918,28.8486],[-13.8276,28.8592],[-13.8597,28.8594],[-13.8763,28.8888],[-13.8534,28.905],[-13.8441,28.9263],[-13.8374,28.9534],[-13.8321,29.0004],[-13.7985,29.0481],[-13.7939,29.0512],[-13.7901,29.0563],[-13.7794,29.0611],[-13.7506,29.0806],[-13.7261,29.0848],[-13.6497,29.1188],[-13.6484,29.1191],[-13.6368,29.1269],[-13.6002,29.13],[-13.5345,29.1449],[-13.5021,29.2108],[-13.5011,29.2115],[-13.4955,29.2251],[-13.483,29.2399],[-13.4654,29.2433],[-13.4178,29.2089],[-13.4227,29.1971],[-13.4225,29.1969],[-13.4227,29.1967],[-13.4225,29.1965],[-13.4238,29.1948]]],[[[-2.9478,35.3298],[-2.922,35.288],[-2.9132,35.2772],[-2.9129,35.2769],[-2.943,35.2679],[-2.9638,35.2862],[-2.9669,35.3139],[-2.9478,35.3298]]],[[[-17.9209,27.8479],[-17.8965,27.8403],[-17.8793,27.8145],[-17.9256,27.744],[-17.9264,27.7426],[-17.9302,27.7187],[-17.953,27.6981],[-17.9678,27.6732],[-17.9713,27.6544],[-17.9826,27.6484],[-17.9838,27.6463],[-17.9841,27.6465],[-17.9842,27.6463],[-17.9854,27.6469],[-17.9941,27.6422],[-18.021,27.6646],[-18.0819,27.6948],[-18.1269,27.7003],[-18.1604,27.7224],[-18.1672,27.7576],[-18.1603,27.7605],[-18.1606,27.7609],[-18.1603,27.7609],[-18.1606,27.7613],[-18.158,27.7614],[-18.1405,27.7688],[-18.1096,27.7643],[-18.042,27.7682],[-18.0032,27.7988],[-17.9899,27.8237],[-17.9339,27.852],[-17.9242,27.849],[-17.923,27.8498],[-17.9228,27.8496],[-17.9226,27.8498],[-17.9209,27.8479]]],[[[-17.1304,28.1549],[-17.1161,28.1462],[-17.104,28.1153],[-17.1018,28.1119],[-17.1018,28.1095],[-17.0984,28.1008],[-17.1018,28.0965],[-17.1018,28.0838],[-17.1846,28.0213],[-17.2242,28.0126],[-17.2243,28.0127],[-17.2246,28.0126],[-17.2405,28.0208],[-17.2579,28.0246],[-17.3101,28.0535],[-17.3432,28.0977],[-17.3388,28.171],[-17.3097,28.2071],[-17.2592,28.2177],[-17.2127,28.2054],[-17.133,28.1566],[-17.1306,28.1553],[-17.1304,28.1549]]],[[[-16.6262,28.0143],[-16.6763,27.9971],[-16.7036,28.0137],[-16.7279,28.0786],[-16.7806,28.1279],[-16.7843,28.1374],[-16.7962,28.1497],[-16.8117,28.1824],[-16.8371,28.209],[-16.8434,28.2491],[-16.8521,28.2674],[-16.8712,28.3013],[-16.9042,28.3389],[-16.904,28.339],[-16.9042,28.3393],[-16.9032,28.3399],[-16.9161,28.355],[-16.8374,28.3911],[-16.8028,28.3735],[-16.7562,28.3708],[-16.6642,28.4007],[-16.5846,28.4011],[-16.5645,28.4153],[-16.5071,28.4241],[-16.4204,28.4906],[-16.4083,28.5198],[-16.3634,28.543],[-16.3002,28.5666],[-16.2416,28.565],[-16.1833,28.5701],[-16.1413,28.5834],[-16.1243,28.5753],[-16.123,28.5754],[-16.1226,28.5754],[-16.1225,28.5744],[-16.1177,28.5721],[-16.1215,28.5607],[-16.119,28.5286],[-16.119,28.5282],[-16.335,28.3789],[-16.3582,28.3152],[-16.3581,28.3146],[-16.3589,28.3132],[-16.4178,28.1515],[-16.497,28.0612],[-16.5372,28.0358],[-16.5458,28.024],[-16.5641,28.0274],[-16.6262,28.0143]]],[[[-17.7323,28.7516],[-17.721,28.7306],[-17.7249,28.7259],[-17.7246,28.7247],[-17.7247,28.7246],[-17.7246,28.7243],[-17.7498,28.6879],[-17.7426,28.6154],[-17.7426,28.6153],[-17.7426,28.615],[-17.757,28.5681],[-17.7899,28.5356],[-17.8309,28.4554],[-17.8651,28.4754],[-17.8797,28.5437],[-17.9193,28.5963],[-17.9248,28.6183],[-17.9631,28.6715],[-17.9713,28.7071],[-17.9926,28.7417],[-18.0022,28.7496],[-18.0011,28.7556],[-18.0022,28.7573],[-18.0021,28.7575],[-18.0022,28.7577],[-18.0004,28.7599],[-17.9968,28.7801],[-17.9707,28.8132],[-17.9352,28.8384],[-17.9302,28.8445],[-17.9266,28.8445],[-17.9111,28.8556],[-17.8755,28.8452],[-17.8106,28.8461],[-17.8014,28.8493],[-17.797,28.8463],[-17.7966,28.8463],[-17.796,28.8457],[-17.7558,28.8185],[-17.7573,28.8033],[-17.7426,28.7872],[-17.7323,28.7516]]],[[[-5.5208,42.097],[-5.4216,42.0308],[-5.4384,41.9673],[-5.4847,41.9844],[-5.4717,42.0064],[-5.5077,42.0575],[-5.5208,42.097]]],[[[-5.3193,42.245],[-5.3372,42.2466],[-5.3483,42.2782],[-5.3092,42.2932],[-5.3032,42.2521],[-5.3193,42.245]]]]}},
{"type":"Feature","properties":{"entityId":"castile-early","from":1212,"to":1214,"certainty":"estimated","source":"유럽 쪽은 Natural Earth 1:10m admin-1(v5.1.2) 현대 행정구역 조각을 그 시기 국경에 맞춰 묶고, 조각이 역사 경계와 다른 곳은 선을 그어 나눈 근사. 유럽 밖(시베리아·중앙아시아·극동)은 대략적인 추정. 운영자 검수 필요"},"geometry":{"type":"MultiPolygon","coordinates":[[[[-5.0022,42.2892],[-4.9549,42.296],[-4.9425,42.3465],[-4.9796,42.3379],[-4.9727,42.3743],[-4.9113,42.3815],[-4.9127,42.4006],[-4.8881,42.518],[-4.888,42.5369],[-4.9144,42.5448],[-4.8953,42.6216],[-4.8981,42.6691],[-4.8875,42.7116],[-4.9321,42.74],[-4.9037,42.7796],[-4.9019,42.8481],[-4.8657,42.8605],[-4.8476,42.9024],[-4.8134,42.9257],[-4.7892,42.9898],[-4.7269,43.0159],[-4.7387,43.0481],[-4.7705,43.0786],[-4.8279,43.1081],[-4.836,43.1351],[-4.8319,43.1887],[-4.7427,43.1921],[-4.7279,43.2078],[-4.7157,43.2647],[-4.6432,43.2722],[-4.5926,43.2982],[-4.5512,43.2792],[-4.5235,43.2879],[-4.5187,43.306],[-4.5373,43.3483],[-4.5133,43.3844],[-4.5138,43.4028],[-4.5034,43.3966],[-4.5034,43.4281],[-4.4436,43.4185],[-4.4259,43.4157],[-4.324,43.4149],[-4.3112,43.4148],[-4.016,43.4634],[-3.89,43.4999],[-3.8898,43.4999],[-3.8896,43.4999],[-3.8457,43.4913],[-3.8267,43.497],[-3.7692,43.4792],[-3.7748,43.4774],[-3.7746,43.4773],[-3.6056,43.519],[-3.6053,43.519],[-3.6052,43.519],[-3.5841,43.5172],[-3.5794,43.5183],[-3.5544,43.5169],[-3.5512,43.5144],[-3.5224,43.512],[-3.4552,43.4728],[-3.4366,43.4705],[-3.433,43.46],[-3.4221,43.4536],[-3.1541,43.4483],[-3.1106,43.4474],[-3.0672,43.4465],[-2.9803,43.4448],[-2.9256,43.4437],[-2.8748,43.4547],[-2.8746,43.4547],[-2.8744,43.4547],[-2.8064,43.4441],[-2.7558,43.4503],[-2.7397,43.4401],[-2.5533,43.4364],[-2.46,43.4345],[-2.4134,43.4336],[-2.3668,43.4326],[-2.3201,43.4317],[-2.2735,43.4308],[-2.1803,43.4289],[-1.9938,43.4252],[-1.9028,43.4234],[-1.8393,43.4968],[-1.8381,43.4982],[-1.7997,43.5425],[-1.7614,43.5425],[-1.7614,43.4982],[-1.762,43.4982],[-1.762,43.4694],[-1.762,43.4677],[-1.762,43.4406],[-1.762,43.4372],[-1.762,43.4067],[-1.8006,43.4067],[-1.8006,43.3894],[-1.7941,43.386],[-1.7969,43.3411],[-1.7682,43.3309],[-1.7497,43.2948],[-1.7913,43.2774],[-1.8211,43.2386],[-1.8893,43.2116],[-1.9085,43.2183],[-1.9187,43.1922],[-1.9125,43.1351],[-1.9267,43.1144],[-2.0146,43.067],[-2.0406,43.0276],[-2.0427,42.9945],[-2.0947,42.9755],[-2.1329,42.9469],[-2.2141,42.9496],[-2.253,42.9001],[-2.2423,42.8392],[-2.2744,42.791],[-2.2849,42.7447],[-2.3207,42.721],[-2.312,42.6829],[-2.2927,42.6631],[-2.3284,42.643],[-2.3659,42.6379],[-2.4087,42.6602],[-2.4927,42.6093],[-2.4814,42.5859],[-2.4501,42.576],[-2.4213,42.5988],[-2.4059,42.5961],[-2.394,42.565],[-2.4061,42.4971],[-2.3433,42.483],[-2.2784,42.4899],[-2.2387,42.472],[-2.206,42.4464],[-2.172,42.4414],[-2.0765,42.4426],[-2.0553,42.4284],[-2.0696,42.4148],[-2.0324,42.393],[-1.9767,42.393],[-1.9013,42.3254],[-1.8635,42.3049],[-1.8619,42.2842],[-1.8293,42.2776],[-1.7958,42.2565],[-1.6971,42.2158],[-1.6858,42.149],[-1.7131,42.1361],[-1.7541,42.1464],[-1.7742,42.14],[-1.8234,42.1456],[-1.8358,42.1279],[-1.8961,42.0761],[-1.9013,42.0456],[-1.8906,42.0253],[-1.8524,42.0012],[-1.8445,41.982],[-1.8577,41.9548],[-1.8516,41.9061],[-1.816,41.8517],[-1.8459,41.7907],[-1.8085,41.7375],[-1.7855,41.7193],[-1.8073,41.6704],[-1.894,41.6294],[-1.9235,41.603],[-1.9695,41.6077],[-1.9883,41.5955],[-1.9759,41.5427],[-1.9787,41.5076],[-1.9528,41.4578],[-1.9459,41.4155],[-2.0141,41.3881],[-2.0408,41.3947],[-2.0521,41.435],[-2.0997,41.4426],[-2.1196,41.4237],[-2.128,41.3768],[-2.1662,41.346],[-2.1733,41.2946],[-2.1592,41.2692],[-2.1491,41.1939],[-2.1382,41.1815],[-2.0837,41.1719],[-2.0532,41.1504],[-1.9719,41.1699],[-1.9449,41.1644],[-1.8169,41.097],[-1.7673,41.065],[-1.7328,41.026],[-1.6219,40.9468],[-1.6102,40.9277],[-1.6141,40.8867],[-1.601,40.8587],[-1.5446,40.8174],[-1.5388,40.7768],[-1.557,40.7252],[-1.5397,40.6944],[-1.5374,40.663],[-1.5552,40.6142],[-1.5512,40.5951],[-1.5867,40.5706],[-1.6711,40.5893],[-1.6986,40.5424],[-1.6998,40.4933],[-1.75,40.4592],[-1.8083,40.402],[-1.7793,40.3922],[-1.7206,40.3354],[-1.7136,40.2877],[-1.7,40.2948],[-1.6601,40.283],[-1.5551,40.2054],[-1.4444,40.1967],[-1.4485,40.1498],[-1.4523,40.1307],[-1.4169,40.1095],[-1.3783,40.0221],[-1.3695,40.0163],[-1.243,39.9974],[-1.1627,40.0115],[-1.1455,39.9723],[-1.1962,39.9506],[-1.2029,39.8633],[-1.2256,39.7963],[-1.267,39.7435],[-1.2655,39.6938],[-1.2922,39.6727],[-1.3204,39.6714],[-1.372,39.6836],[-1.4275,39.6452],[-1.4632,39.5902],[-1.4944,39.5673],[-1.5045,39.5455],[-1.4984,39.4961],[-1.5182,39.4518],[-1.501,39.422],[-1.7394,39.3211],[-1.77,39.2806],[-1.8451,39.2861],[-1.887,39.3046],[-1.9899,39.2937],[-2.029,39.3379],[-2.0208,39.352],[-2.0907,39.3595],[-2.049,39.2668],[-2.1684,39.281],[-2.2888,39.2267],[-2.3211,39.2837],[-2.3492,39.2789],[-2.3739,39.2329],[-2.5112,39.342],[-2.5294,39.3276],[-2.5678,39.3269],[-2.6193,39.34],[-2.6622,39.3218],[-2.7421,39.318],[-2.7222,39.2686],[-2.8427,39.1344],[-2.8098,39.0845],[-2.8074,39.0538],[-2.8798,38.9455],[-2.8706,38.9121],[-2.7995,38.9079],[-2.7624,38.8808],[-2.7492,38.8113],[-2.7318,38.7901],[-2.6818,38.7771],[-2.6507,38.7422],[-2.6453,38.7074],[-2.6793,38.6355],[-2.7285,38.6246],[-2.751,38.6055],[-2.7655,38.5737],[-2.7469,38.5469],[-2.756,38.5331],[-2.7909,38.5071],[-2.8449,38.4834],[-2.879,38.4606],[-2.9235,38.4763],[-2.9508,38.4745],[-2.9927,38.452],[-3.0009,38.4301],[-3.0463,38.4729],[-3.0697,38.4827],[-3.1135,38.4576],[-3.2403,38.4637],[-3.3074,38.4819],[-3.3619,38.4733],[-3.3959,38.4264],[-3.4696,38.4045],[-3.5264,38.4171],[-3.5438,38.4488],[-3.5768,38.4435],[-3.5887,38.4077],[-3.6199,38.4014],[-3.7942,38.4261],[-3.8231,38.4152],[-3.8397,38.3926],[-3.8937,38.3816],[-4.1776,38.3906],[-4.2155,38.4012],[-4.265,38.4014],[-4.2755,38.3509],[-4.3018,38.3501],[-4.4497,38.396],[-4.5171,38.4555],[-4.5704,38.4867],[-4.6105,38.497],[-4.6327,38.5235],[-4.704,38.5594],[-4.728,38.5798],[-4.769,38.5944],[-4.8285,38.6041],[-4.8659,38.635],[-4.8697,38.6739],[-4.883,38.6852],[-4.946,38.6837],[-4.9792,38.6944],[-5.0366,38.7284],[-4.9979,38.7358],[-4.9717,38.7692],[-4.9475,38.8394],[-4.9129,38.8823],[-4.8508,38.8867],[-4.8363,38.9285],[-4.8466,38.946],[-4.9138,38.9597],[-4.9443,39.0097],[-4.9541,39.0456],[-4.9378,39.0531],[-4.8773,39.0326],[-4.8347,39.0476],[-4.8402,39.0686],[-4.864,39.0816],[-4.8674,39.1061],[-4.847,39.1655],[-4.8068,39.1988],[-4.7273,39.1965],[-4.6584,39.1739],[-4.7106,39.2253],[-4.7536,39.2974],[-4.7568,39.3165],[-4.7109,39.3441],[-4.6779,39.4176],[-4.6927,39.4498],[-4.753,39.4182],[-4.767,39.4046],[-4.8801,39.3669],[-4.9444,39.3919],[-4.9714,39.4097],[-5.0392,39.4781],[-5.0792,39.4928],[-5.1594,39.5639],[-5.1964,39.5877],[-5.1976,39.5996],[-5.1518,39.663],[-5.1417,39.7203],[-5.1654,39.7472],[-5.1681,39.7929],[-5.2087,39.7927],[-5.2603,39.7523],[-5.3081,39.7583],[-5.3169,39.7719],[-5.3078,39.8269],[-5.2893,39.8617],[-5.3302,39.8889],[-5.3862,39.881],[-5.391,39.9204],[-5.3741,39.9948],[-5.3704,40.0683],[-5.3576,40.1053],[-5.328,40.1159],[-5.3615,40.1648],[-5.3647,40.2097],[-5.3546,40.2552],[-5.4236,40.2431],[-5.4781,40.2042],[-5.5398,40.1974],[-5.6038,40.2194],[-5.627,40.244],[-5.6869,40.2815],[-5.7277,40.294],[-5.6804,40.3474],[-5.6747,40.3714],[-5.6927,40.4046],[-5.6877,40.4246],[-5.617,40.4677],[-5.5752,40.4668],[-5.5733,40.4481],[-5.5346,40.4184],[-5.5091,40.4286],[-5.5154,40.4557],[-5.4784,40.4601],[-5.4596,40.4797],[-5.4365,40.5478],[-5.5118,40.5483],[-5.5173,40.5829],[-5.4474,40.5865],[-5.3855,40.6197],[-5.363,40.6744],[-5.2439,40.74],[-5.2175,40.7724],[-5.1796,40.7929],[-5.1615,40.8185],[-5.1625,40.8681],[-5.1114,40.9148],[-5.1275,40.9542],[-5.104,40.9738],[-5.0958,41.0017],[-5.1111,41.0349],[-5.1472,41.0502],[-5.1515,41.0833],[-5.1251,41.132],[-5.1745,41.1654],[-5.2228,41.1703],[-5.2621,41.1959],[-5.2888,41.1821],[-5.3255,41.178],[-5.3403,41.1941],[-5.3083,41.2182],[-5.2944,41.2528],[-5.3024,41.3055],[-5.329,41.3573],[-5.3212,41.4114],[-5.3393,41.4332],[-5.3315,41.4809],[-5.3065,41.4981],[-5.2644,41.5034],[-5.2287,41.5284],[-5.2898,41.563],[-5.2789,41.5972],[-5.314,41.6142],[-5.3269,41.6703],[-5.3692,41.7194],[-5.3912,41.761],[-5.2796,41.8133],[-5.3079,41.8712],[-5.2967,41.9214],[-5.3039,41.9553],[-5.2805,41.9789],[-5.3763,42.0414],[-5.3874,42.083],[-5.3769,42.1343],[-5.3872,42.1952],[-5.3612,42.225],[-5.3217,42.2042],[-5.2653,42.2182],[-5.2382,42.2643],[-5.1704,42.2679],[-5.124,42.3002],[-5.0938,42.3094],[-5.064,42.2737],[-5.0417,42.2675],[-5.0383,42.2971],[-5.0022,42.2892]]],[[[-15.3878,27.8867],[-15.3778,27.8523],[-15.407,27.8383],[-15.453,27.7912],[-15.5035,27.7763],[-15.561,27.747],[-15.5613,27.747],[-15.5614,27.747],[-15.5624,27.7471],[-15.578,27.7344],[-15.6072,27.7503],[-15.64,27.7557],[-15.655,27.7574],[-15.6576,27.7586],[-15.6857,27.7633],[-15.786,27.8442],[-15.8151,27.9013],[-15.8218,27.9683],[-15.8161,27.996],[-15.7828,28.0153],[-15.7198,28.0651],[-15.71,28.0892],[-15.7137,28.1059],[-15.6981,28.133],[-15.7062,28.1674],[-15.6508,28.1639],[-15.5981,28.1478],[-15.5933,28.1475],[-15.5213,28.1475],[-15.4876,28.1403],[-15.4534,28.138],[-15.436,28.1505],[-15.4387,28.1749],[-15.4093,28.1798],[-15.3999,28.165],[-15.4077,28.1534],[-15.399,28.1484],[-15.399,28.148],[-15.4062,28.0702],[-15.4043,28.0636],[-15.3916,28.0302],[-15.3636,28.0097],[-15.3767,27.9575],[-15.3636,27.9346],[-15.3873,27.9052],[-15.3878,27.8867]]],[[[-13.9449,28.7427],[-13.8987,28.7539],[-13.8646,28.7442],[-13.8592,28.7389],[-13.8581,28.7386],[-13.8563,28.736],[-13.8355,28.7155],[-13.8332,28.7026],[-13.8257,28.6918],[-13.8257,28.6615],[-13.8212,28.6367],[-13.8257,28.5856],[-13.8257,28.5855],[-13.8257,28.5854],[-13.8287,28.5516],[-13.837,28.5301],[-13.8534,28.4493],[-13.8478,28.3974],[-13.8696,28.3769],[-13.9113,28.2772],[-13.9255,28.2563],[-13.9265,28.2539],[-13.9273,28.2537],[-13.9337,28.2442],[-13.9668,28.228],[-14.0437,28.2169],[-14.1425,28.1858],[-14.152,28.18],[-14.2029,28.1635],[-14.2338,28.138],[-14.3013,28.0679],[-14.3432,28.0507],[-14.369,28.0508],[-14.4286,28.0712],[-14.4949,28.0678],[-14.4904,28.0996],[-14.4921,28.1011],[-14.4918,28.1012],[-14.4919,28.1013],[-14.4921,28.1015],[-14.49,28.1019],[-14.4897,28.1043],[-14.4813,28.1037],[-14.3562,28.1291],[-14.3549,28.1296],[-14.2329,28.2161],[-14.2056,28.282],[-14.2019,28.3039],[-14.1861,28.3289],[-14.1537,28.4071],[-14.1471,28.4181],[-14.1409,28.4349],[-14.1266,28.4522],[-14.0277,28.6171],[-14.0025,28.7074],[-14.0017,28.708],[-13.9999,28.7167],[-13.9726,28.7359],[-13.9599,28.739],[-13.9557,28.7421],[-13.9449,28.7427]]],[[[-13.4238,29.1948],[-13.4388,29.159],[-13.4568,29.1385],[-13.4596,29.1198],[-13.4519,29.086],[-13.4656,29.0581],[-13.4656,29.0239],[-13.4761,29.0083],[-13.4765,29.0056],[-13.4788,29.0043],[-13.482,28.9995],[-13.543,28.9617],[-13.5726,28.9552],[-13.5933,28.9489],[-13.6198,28.9284],[-13.7,28.9161],[-13.7131,28.9121],[-13.7154,28.9106],[-13.7476,28.8796],[-13.7746,28.8396],[-13.7918,28.8486],[-13.8276,28.8592],[-13.8597,28.8594],[-13.8763,28.8888],[-13.8534,28.905],[-13.8441,28.9263],[-13.8374,28.9534],[-13.8321,29.0004],[-13.7985,29.0481],[-13.7939,29.0512],[-13.7901,29.0563],[-13.7794,29.0611],[-13.7506,29.0806],[-13.7261,29.0848],[-13.6497,29.1188],[-13.6484,29.1191],[-13.6368,29.1269],[-13.6002,29.13],[-13.5345,29.1449],[-13.5021,29.2108],[-13.5011,29.2115],[-13.4955,29.2251],[-13.483,29.2399],[-13.4654,29.2433],[-13.4178,29.2089],[-13.4227,29.1971],[-13.4225,29.1969],[-13.4227,29.1967],[-13.4225,29.1965],[-13.4238,29.1948]]],[[[-2.9478,35.3298],[-2.922,35.288],[-2.9132,35.2772],[-2.9129,35.2769],[-2.943,35.2679],[-2.9638,35.2862],[-2.9669,35.3139],[-2.9478,35.3298]]],[[[-17.9209,27.8479],[-17.8965,27.8403],[-17.8793,27.8145],[-17.9256,27.744],[-17.9264,27.7426],[-17.9302,27.7187],[-17.953,27.6981],[-17.9678,27.6732],[-17.9713,27.6544],[-17.9826,27.6484],[-17.9838,27.6463],[-17.9841,27.6465],[-17.9842,27.6463],[-17.9854,27.6469],[-17.9941,27.6422],[-18.021,27.6646],[-18.0819,27.6948],[-18.1269,27.7003],[-18.1604,27.7224],[-18.1672,27.7576],[-18.1603,27.7605],[-18.1606,27.7609],[-18.1603,27.7609],[-18.1606,27.7613],[-18.158,27.7614],[-18.1405,27.7688],[-18.1096,27.7643],[-18.042,27.7682],[-18.0032,27.7988],[-17.9899,27.8237],[-17.9339,27.852],[-17.9242,27.849],[-17.923,27.8498],[-17.9228,27.8496],[-17.9226,27.8498],[-17.9209,27.8479]]],[[[-17.1304,28.1549],[-17.1161,28.1462],[-17.104,28.1153],[-17.1018,28.1119],[-17.1018,28.1095],[-17.0984,28.1008],[-17.1018,28.0965],[-17.1018,28.0838],[-17.1846,28.0213],[-17.2242,28.0126],[-17.2243,28.0127],[-17.2246,28.0126],[-17.2405,28.0208],[-17.2579,28.0246],[-17.3101,28.0535],[-17.3432,28.0977],[-17.3388,28.171],[-17.3097,28.2071],[-17.2592,28.2177],[-17.2127,28.2054],[-17.133,28.1566],[-17.1306,28.1553],[-17.1304,28.1549]]],[[[-16.6262,28.0143],[-16.6763,27.9971],[-16.7036,28.0137],[-16.7279,28.0786],[-16.7806,28.1279],[-16.7843,28.1374],[-16.7962,28.1497],[-16.8117,28.1824],[-16.8371,28.209],[-16.8434,28.2491],[-16.8521,28.2674],[-16.8712,28.3013],[-16.9042,28.3389],[-16.904,28.339],[-16.9042,28.3393],[-16.9032,28.3399],[-16.9161,28.355],[-16.8374,28.3911],[-16.8028,28.3735],[-16.7562,28.3708],[-16.6642,28.4007],[-16.5846,28.4011],[-16.5645,28.4153],[-16.5071,28.4241],[-16.4204,28.4906],[-16.4083,28.5198],[-16.3634,28.543],[-16.3002,28.5666],[-16.2416,28.565],[-16.1833,28.5701],[-16.1413,28.5834],[-16.1243,28.5753],[-16.123,28.5754],[-16.1226,28.5754],[-16.1225,28.5744],[-16.1177,28.5721],[-16.1215,28.5607],[-16.119,28.5286],[-16.119,28.5282],[-16.335,28.3789],[-16.3582,28.3152],[-16.3581,28.3146],[-16.3589,28.3132],[-16.4178,28.1515],[-16.497,28.0612],[-16.5372,28.0358],[-16.5458,28.024],[-16.5641,28.0274],[-16.6262,28.0143]]],[[[-17.7323,28.7516],[-17.721,28.7306],[-17.7249,28.7259],[-17.7246,28.7247],[-17.7247,28.7246],[-17.7246,28.7243],[-17.7498,28.6879],[-17.7426,28.6154],[-17.7426,28.6153],[-17.7426,28.615],[-17.757,28.5681],[-17.7899,28.5356],[-17.8309,28.4554],[-17.8651,28.4754],[-17.8797,28.5437],[-17.9193,28.5963],[-17.9248,28.6183],[-17.9631,28.6715],[-17.9713,28.7071],[-17.9926,28.7417],[-18.0022,28.7496],[-18.0011,28.7556],[-18.0022,28.7573],[-18.0021,28.7575],[-18.0022,28.7577],[-18.0004,28.7599],[-17.9968,28.7801],[-17.9707,28.8132],[-17.9352,28.8384],[-17.9302,28.8445],[-17.9266,28.8445],[-17.9111,28.8556],[-17.8755,28.8452],[-17.8106,28.8461],[-17.8014,28.8493],[-17.797,28.8463],[-17.7966,28.8463],[-17.796,28.8457],[-17.7558,28.8185],[-17.7573,28.8033],[-17.7426,28.7872],[-17.7323,28.7516]]],[[[-5.5208,42.097],[-5.4216,42.0308],[-5.4384,41.9673],[-5.4847,41.9844],[-5.4717,42.0064],[-5.5077,42.0575],[-5.5208,42.097]]],[[[-5.3193,42.245],[-5.3372,42.2466],[-5.3483,42.2782],[-5.3092,42.2932],[-5.3032,42.2521],[-5.3193,42.245]]]]}},
{"type":"Feature","properties":{"entityId":"castile-early","from":1214,"to":1230,"certainty":"estimated","source":"유럽 쪽은 Natural Earth 1:10m admin-1(v5.1.2) 현대 행정구역 조각을 그 시기 국경에 맞춰 묶고, 조각이 역사 경계와 다른 곳은 선을 그어 나눈 근사. 유럽 밖(시베리아·중앙아시아·극동)은 대략적인 추정. 운영자 검수 필요"},"geometry":{"type":"MultiPolygon","coordinates":[[[[-4.6927,39.4498],[-4.753,39.4182],[-4.767,39.4046],[-4.8801,39.3669],[-4.9444,39.3919],[-4.9714,39.4097],[-5.0392,39.4781],[-5.0792,39.4928],[-5.1594,39.5639],[-5.1964,39.5877],[-5.1976,39.5996],[-5.1518,39.663],[-5.1417,39.7203],[-5.1654,39.7472],[-5.1681,39.7929],[-5.2087,39.7927],[-5.2603,39.7523],[-5.3081,39.7583],[-5.3169,39.7719],[-5.3078,39.8269],[-5.2893,39.8617],[-5.3302,39.8889],[-5.3862,39.881],[-5.391,39.9204],[-5.3741,39.9948],[-5.3704,40.0683],[-5.3576,40.1053],[-5.328,40.1159],[-5.3615,40.1648],[-5.3647,40.2097],[-5.3546,40.2552],[-5.4236,40.2431],[-5.4781,40.2042],[-5.5398,40.1974],[-5.6038,40.2194],[-5.627,40.244],[-5.6869,40.2815],[-5.7277,40.294],[-5.6804,40.3474],[-5.6747,40.3714],[-5.6927,40.4046],[-5.6877,40.4246],[-5.617,40.4677],[-5.5752,40.4668],[-5.5733,40.4481],[-5.5346,40.4184],[-5.5091,40.4286],[-5.5154,40.4557],[-5.4784,40.4601],[-5.4596,40.4797],[-5.4365,40.5478],[-5.5118,40.5483],[-5.5173,40.5829],[-5.4474,40.5865],[-5.3855,40.6197],[-5.363,40.6744],[-5.2439,40.74],[-5.2175,40.7724],[-5.1796,40.7929],[-5.1615,40.8185],[-5.1625,40.8681],[-5.1114,40.9148],[-5.1275,40.9542],[-5.104,40.9738],[-5.0958,41.0017],[-5.1111,41.0349],[-5.1472,41.0502],[-5.1515,41.0833],[-5.1251,41.132],[-5.1745,41.1654],[-5.2228,41.1703],[-5.2621,41.1959],[-5.2888,41.1821],[-5.3255,41.178],[-5.3403,41.1941],[-5.3083,41.2182],[-5.2944,41.2528],[-5.3024,41.3055],[-5.329,41.3573],[-5.3212,41.4114],[-5.3393,41.4332],[-5.3315,41.4809],[-5.3065,41.4981],[-5.2644,41.5034],[-5.2287,41.5284],[-5.2898,41.563],[-5.2789,41.5972],[-5.314,41.6142],[-5.3269,41.6703],[-5.3692,41.7194],[-5.3912,41.761],[-5.2796,41.8133],[-5.3079,41.8712],[-5.2967,41.9214],[-5.3039,41.9553],[-5.2805,41.9789],[-5.3763,42.0414],[-5.3874,42.083],[-5.3769,42.1343],[-5.3872,42.1952],[-5.3612,42.225],[-5.3217,42.2042],[-5.2653,42.2182],[-5.2382,42.2643],[-5.1704,42.2679],[-5.124,42.3002],[-5.0938,42.3094],[-5.064,42.2737],[-5.0417,42.2675],[-5.0383,42.2971],[-5.0022,42.2892],[-4.9549,42.296],[-4.9425,42.3465],[-4.9796,42.3379],[-4.9727,42.3743],[-4.9113,42.3815],[-4.9127,42.4006],[-4.8881,42.518],[-4.888,42.5369],[-4.9144,42.5448],[-4.8953,42.6216],[-4.8981,42.6691],[-4.8875,42.7116],[-4.9321,42.74],[-4.9037,42.7796],[-4.9019,42.8481],[-4.8657,42.8605],[-4.8476,42.9024],[-4.8134,42.9257],[-4.7892,42.9898],[-4.7269,43.0159],[-4.7387,43.0481],[-4.7705,43.0786],[-4.8279,43.1081],[-4.836,43.1351],[-4.8319,43.1887],[-4.7427,43.1921],[-4.7279,43.2078],[-4.7157,43.2647],[-4.6432,43.2722],[-4.5926,43.2982],[-4.5512,43.2792],[-4.5235,43.2879],[-4.5187,43.306],[-4.5373,43.3483],[-4.5133,43.3844],[-4.5138,43.4028],[-4.5034,43.3966],[-4.5034,43.4281],[-4.4436,43.4185],[-4.4259,43.4157],[-4.324,43.4149],[-4.3112,43.4148],[-4.016,43.4634],[-3.89,43.4999],[-3.8898,43.4999],[-3.8896,43.4999],[-3.8457,43.4913],[-3.8267,43.497],[-3.7692,43.4792],[-3.7748,43.4774],[-3.7746,43.4773],[-3.6056,43.519],[-3.6053,43.519],[-3.6052,43.519],[-3.5841,43.5172],[-3.5794,43.5183],[-3.5544,43.5169],[-3.5512,43.5144],[-3.5224,43.512],[-3.4552,43.4728],[-3.4366,43.4705],[-3.433,43.46],[-3.4221,43.4536],[-3.1541,43.4483],[-3.1106,43.4474],[-3.0672,43.4465],[-2.9803,43.4448],[-2.9256,43.4437],[-2.8748,43.4547],[-2.8746,43.4547],[-2.8744,43.4547],[-2.8064,43.4441],[-2.7558,43.4503],[-2.7397,43.4401],[-2.5533,43.4364],[-2.46,43.4345],[-2.4134,43.4336],[-2.3668,43.4326],[-2.3201,43.4317],[-2.2735,43.4308],[-2.1803,43.4289],[-1.9938,43.4252],[-1.9028,43.4234],[-1.8393,43.4968],[-1.8381,43.4982],[-1.7997,43.5425],[-1.7614,43.5425],[-1.7614,43.4982],[-1.762,43.4982],[-1.762,43.4694],[-1.762,43.4677],[-1.762,43.4406],[-1.762,43.4372],[-1.762,43.4067],[-1.8006,43.4067],[-1.8006,43.3894],[-1.7941,43.386],[-1.7969,43.3411],[-1.7682,43.3309],[-1.7497,43.2948],[-1.7913,43.2774],[-1.8211,43.2386],[-1.8893,43.2116],[-1.9085,43.2183],[-1.9187,43.1922],[-1.9125,43.1351],[-1.9267,43.1144],[-2.0146,43.067],[-2.0406,43.0276],[-2.0427,42.9945],[-2.0947,42.9755],[-2.1329,42.9469],[-2.2141,42.9496],[-2.253,42.9001],[-2.2423,42.8392],[-2.2744,42.791],[-2.2849,42.7447],[-2.3207,42.721],[-2.312,42.6829],[-2.2927,42.6631],[-2.3284,42.643],[-2.3659,42.6379],[-2.4087,42.6602],[-2.4927,42.6093],[-2.4814,42.5859],[-2.4501,42.576],[-2.4213,42.5988],[-2.4059,42.5961],[-2.394,42.565],[-2.4061,42.4971],[-2.3433,42.483],[-2.2784,42.4899],[-2.2387,42.472],[-2.206,42.4464],[-2.172,42.4414],[-2.0765,42.4426],[-2.0553,42.4284],[-2.0696,42.4148],[-2.0324,42.393],[-1.9767,42.393],[-1.9013,42.3254],[-1.8635,42.3049],[-1.8619,42.2842],[-1.8293,42.2776],[-1.7958,42.2565],[-1.6971,42.2158],[-1.6858,42.149],[-1.7131,42.1361],[-1.7541,42.1464],[-1.7742,42.14],[-1.8234,42.1456],[-1.8358,42.1279],[-1.8961,42.0761],[-1.9013,42.0456],[-1.8906,42.0253],[-1.8524,42.0012],[-1.8445,41.982],[-1.8577,41.9548],[-1.8516,41.9061],[-1.816,41.8517],[-1.8459,41.7907],[-1.8085,41.7375],[-1.7855,41.7193],[-1.8073,41.6704],[-1.894,41.6294],[-1.9235,41.603],[-1.9695,41.6077],[-1.9883,41.5955],[-1.9759,41.5427],[-1.9787,41.5076],[-1.9528,41.4578],[-1.9459,41.4155],[-2.0141,41.3881],[-2.0408,41.3947],[-2.0521,41.435],[-2.0997,41.4426],[-2.1196,41.4237],[-2.128,41.3768],[-2.1662,41.346],[-2.1733,41.2946],[-2.1592,41.2692],[-2.1491,41.1939],[-2.1382,41.1815],[-2.0837,41.1719],[-2.0532,41.1504],[-1.9719,41.1699],[-1.9449,41.1644],[-1.8169,41.097],[-1.7673,41.065],[-1.7328,41.026],[-1.6219,40.9468],[-1.6102,40.9277],[-1.6141,40.8867],[-1.601,40.8587],[-1.5446,40.8174],[-1.5388,40.7768],[-1.557,40.7252],[-1.5397,40.6944],[-1.5374,40.663],[-1.5552,40.6142],[-1.5512,40.5951],[-1.5867,40.5706],[-1.6711,40.5893],[-1.6986,40.5424],[-1.6998,40.4933],[-1.75,40.4592],[-1.8083,40.402],[-1.7793,40.3922],[-1.7206,40.3354],[-1.7136,40.2877],[-1.7,40.2948],[-1.6601,40.283],[-1.5551,40.2054],[-1.4444,40.1967],[-1.4485,40.1498],[-1.4523,40.1307],[-1.4169,40.1095],[-1.3783,40.0221],[-1.3695,40.0163],[-1.243,39.9974],[-1.1627,40.0115],[-1.1455,39.9723],[-1.1962,39.9506],[-1.2029,39.8633],[-1.2256,39.7963],[-1.267,39.7435],[-1.2655,39.6938],[-1.2922,39.6727],[-1.3204,39.6714],[-1.372,39.6836],[-1.4275,39.6452],[-1.4632,39.5902],[-1.4944,39.5673],[-1.5045,39.5455],[-1.4984,39.4961],[-1.5182,39.4518],[-1.501,39.422],[-1.4524,39.3902],[-1.4457,39.3669],[-1.4062,39.3706],[-1.3397,39.3417],[-1.1777,39.3041],[-1.1703,39.2883],[-1.1786,39.2206],[-1.2018,39.1704],[-1.2269,39.1468],[-1.2621,39.0737],[-1.2484,39.0381],[-1.1515,38.9485],[-1.121,38.9326],[-1.0379,38.9373],[-0.9911,38.9512],[-0.9592,38.94],[-0.9209,38.8862],[-0.9262,38.8553],[-0.9133,38.8246],[-0.9306,38.7855],[-0.9537,38.7626],[-0.9423,38.7312],[-0.9035,38.6887],[-0.9396,38.664],[-1.0221,38.6545],[-1.1053,38.7075],[-1.1143,38.7347],[-1.1742,38.7541],[-1.2334,38.7421],[-1.2782,38.7116],[-1.3342,38.6867],[-1.3635,38.7013],[-1.3858,38.6969],[-1.4336,38.6558],[-1.4503,38.6277],[-1.4543,38.5897],[-1.4851,38.5629],[-1.502,38.5349],[-1.4857,38.4837],[-1.4779,38.4037],[-1.4947,38.3731],[-1.5673,38.3262],[-1.6267,38.3114],[-1.6819,38.3316],[-1.6831,38.3624],[-1.7027,38.3736],[-1.7505,38.3803],[-1.7928,38.3651],[-1.7957,38.3539],[-1.8858,38.3062],[-1.9262,38.291],[-1.9848,38.2793],[-2.0234,38.299],[-2.0591,38.2904],[-2.1274,38.2352],[-2.1828,38.2179],[-2.2119,38.1959],[-2.2505,38.1363],[-2.3242,38.0624],[-2.3385,38.0265],[-2.3612,38.0243],[-2.4658,38.0494],[-2.5474,38.0806],[-2.4448,38.1882],[-2.4489,38.2223],[-2.4303,38.2588],[-2.4401,38.2828],[-2.4711,38.2982],[-2.4887,38.3987],[-2.5572,38.4145],[-2.574,38.4346],[-2.5738,38.502],[-2.6428,38.5093],[-2.6752,38.5002],[-2.756,38.5331],[-2.7909,38.5071],[-2.8449,38.4834],[-2.879,38.4606],[-2.9235,38.4763],[-2.9508,38.4745],[-2.9927,38.452],[-3.0009,38.4301],[-3.0463,38.4729],[-3.0697,38.4827],[-3.1135,38.4576],[-3.2403,38.4637],[-3.3074,38.4819],[-3.3619,38.4733],[-3.3959,38.4264],[-3.4696,38.4045],[-3.5264,38.4171],[-3.5438,38.4488],[-3.5768,38.4435],[-3.5887,38.4077],[-3.6199,38.4014],[-3.7942,38.4261],[-3.8231,38.4152],[-3.8397,38.3926],[-3.8937,38.3816],[-4.1776,38.3906],[-4.2155,38.4012],[-4.265,38.4014],[-4.2755,38.3509],[-4.3018,38.3501],[-4.4497,38.396],[-4.5171,38.4555],[-4.5704,38.4867],[-4.6105,38.497],[-4.6327,38.5235],[-4.704,38.5594],[-4.728,38.5798],[-4.769,38.5944],[-4.8285,38.6041],[-4.8659,38.635],[-4.8697,38.6739],[-4.883,38.6852],[-4.946,38.6837],[-4.9792,38.6944],[-5.0366,38.7284],[-4.9979,38.7358],[-4.9717,38.7692],[-4.9475,38.8394],[-4.9129,38.8823],[-4.8508,38.8867],[-4.8363,38.9285],[-4.8466,38.946],[-4.9138,38.9597],[-4.9443,39.0097],[-4.9541,39.0456],[-4.9378,39.0531],[-4.8773,39.0326],[-4.8347,39.0476],[-4.8402,39.0686],[-4.864,39.0816],[-4.8674,39.1061],[-4.847,39.1655],[-4.8068,39.1988],[-4.7273,39.1965],[-4.6584,39.1739],[-4.7106,39.2253],[-4.7536,39.2974],[-4.7568,39.3165],[-4.7109,39.3441],[-4.6779,39.4176],[-4.6927,39.4498]]],[[[-15.3878,27.8867],[-15.3778,27.8523],[-15.407,27.8383],[-15.453,27.7912],[-15.5035,27.7763],[-15.561,27.747],[-15.5613,27.747],[-15.5614,27.747],[-15.5624,27.7471],[-15.578,27.7344],[-15.6072,27.7503],[-15.64,27.7557],[-15.655,27.7574],[-15.6576,27.7586],[-15.6857,27.7633],[-15.786,27.8442],[-15.8151,27.9013],[-15.8218,27.9683],[-15.8161,27.996],[-15.7828,28.0153],[-15.7198,28.0651],[-15.71,28.0892],[-15.7137,28.1059],[-15.6981,28.133],[-15.7062,28.1674],[-15.6508,28.1639],[-15.5981,28.1478],[-15.5933,28.1475],[-15.5213,28.1475],[-15.4876,28.1403],[-15.4534,28.138],[-15.436,28.1505],[-15.4387,28.1749],[-15.4093,28.1798],[-15.3999,28.165],[-15.4077,28.1534],[-15.399,28.1484],[-15.399,28.148],[-15.4062,28.0702],[-15.4043,28.0636],[-15.3916,28.0302],[-15.3636,28.0097],[-15.3767,27.9575],[-15.3636,27.9346],[-15.3873,27.9052],[-15.3878,27.8867]]],[[[-13.9449,28.7427],[-13.8987,28.7539],[-13.8646,28.7442],[-13.8592,28.7389],[-13.8581,28.7386],[-13.8563,28.736],[-13.8355,28.7155],[-13.8332,28.7026],[-13.8257,28.6918],[-13.8257,28.6615],[-13.8212,28.6367],[-13.8257,28.5856],[-13.8257,28.5855],[-13.8257,28.5854],[-13.8287,28.5516],[-13.837,28.5301],[-13.8534,28.4493],[-13.8478,28.3974],[-13.8696,28.3769],[-13.9113,28.2772],[-13.9255,28.2563],[-13.9265,28.2539],[-13.9273,28.2537],[-13.9337,28.2442],[-13.9668,28.228],[-14.0437,28.2169],[-14.1425,28.1858],[-14.152,28.18],[-14.2029,28.1635],[-14.2338,28.138],[-14.3013,28.0679],[-14.3432,28.0507],[-14.369,28.0508],[-14.4286,28.0712],[-14.4949,28.0678],[-14.4904,28.0996],[-14.4921,28.1011],[-14.4918,28.1012],[-14.4919,28.1013],[-14.4921,28.1015],[-14.49,28.1019],[-14.4897,28.1043],[-14.4813,28.1037],[-14.3562,28.1291],[-14.3549,28.1296],[-14.2329,28.2161],[-14.2056,28.282],[-14.2019,28.3039],[-14.1861,28.3289],[-14.1537,28.4071],[-14.1471,28.4181],[-14.1409,28.4349],[-14.1266,28.4522],[-14.0277,28.6171],[-14.0025,28.7074],[-14.0017,28.708],[-13.9999,28.7167],[-13.9726,28.7359],[-13.9599,28.739],[-13.9557,28.7421],[-13.9449,28.7427]]],[[[-13.4238,29.1948],[-13.4388,29.159],[-13.4568,29.1385],[-13.4596,29.1198],[-13.4519,29.086],[-13.4656,29.0581],[-13.4656,29.0239],[-13.4761,29.0083],[-13.4765,29.0056],[-13.4788,29.0043],[-13.482,28.9995],[-13.543,28.9617],[-13.5726,28.9552],[-13.5933,28.9489],[-13.6198,28.9284],[-13.7,28.9161],[-13.7131,28.9121],[-13.7154,28.9106],[-13.7476,28.8796],[-13.7746,28.8396],[-13.7918,28.8486],[-13.8276,28.8592],[-13.8597,28.8594],[-13.8763,28.8888],[-13.8534,28.905],[-13.8441,28.9263],[-13.8374,28.9534],[-13.8321,29.0004],[-13.7985,29.0481],[-13.7939,29.0512],[-13.7901,29.0563],[-13.7794,29.0611],[-13.7506,29.0806],[-13.7261,29.0848],[-13.6497,29.1188],[-13.6484,29.1191],[-13.6368,29.1269],[-13.6002,29.13],[-13.5345,29.1449],[-13.5021,29.2108],[-13.5011,29.2115],[-13.4955,29.2251],[-13.483,29.2399],[-13.4654,29.2433],[-13.4178,29.2089],[-13.4227,29.1971],[-13.4225,29.1969],[-13.4227,29.1967],[-13.4225,29.1965],[-13.4238,29.1948]]],[[[-2.9478,35.3298],[-2.922,35.288],[-2.9132,35.2772],[-2.9129,35.2769],[-2.943,35.2679],[-2.9638,35.2862],[-2.9669,35.3139],[-2.9478,35.3298]]],[[[-17.9209,27.8479],[-17.8965,27.8403],[-17.8793,27.8145],[-17.9256,27.744],[-17.9264,27.7426],[-17.9302,27.7187],[-17.953,27.6981],[-17.9678,27.6732],[-17.9713,27.6544],[-17.9826,27.6484],[-17.9838,27.6463],[-17.9841,27.6465],[-17.9842,27.6463],[-17.9854,27.6469],[-17.9941,27.6422],[-18.021,27.6646],[-18.0819,27.6948],[-18.1269,27.7003],[-18.1604,27.7224],[-18.1672,27.7576],[-18.1603,27.7605],[-18.1606,27.7609],[-18.1603,27.7609],[-18.1606,27.7613],[-18.158,27.7614],[-18.1405,27.7688],[-18.1096,27.7643],[-18.042,27.7682],[-18.0032,27.7988],[-17.9899,27.8237],[-17.9339,27.852],[-17.9242,27.849],[-17.923,27.8498],[-17.9228,27.8496],[-17.9226,27.8498],[-17.9209,27.8479]]],[[[-17.1304,28.1549],[-17.1161,28.1462],[-17.104,28.1153],[-17.1018,28.1119],[-17.1018,28.1095],[-17.0984,28.1008],[-17.1018,28.0965],[-17.1018,28.0838],[-17.1846,28.0213],[-17.2242,28.0126],[-17.2243,28.0127],[-17.2246,28.0126],[-17.2405,28.0208],[-17.2579,28.0246],[-17.3101,28.0535],[-17.3432,28.0977],[-17.3388,28.171],[-17.3097,28.2071],[-17.2592,28.2177],[-17.2127,28.2054],[-17.133,28.1566],[-17.1306,28.1553],[-17.1304,28.1549]]],[[[-16.6262,28.0143],[-16.6763,27.9971],[-16.7036,28.0137],[-16.7279,28.0786],[-16.7806,28.1279],[-16.7843,28.1374],[-16.7962,28.1497],[-16.8117,28.1824],[-16.8371,28.209],[-16.8434,28.2491],[-16.8521,28.2674],[-16.8712,28.3013],[-16.9042,28.3389],[-16.904,28.339],[-16.9042,28.3393],[-16.9032,28.3399],[-16.9161,28.355],[-16.8374,28.3911],[-16.8028,28.3735],[-16.7562,28.3708],[-16.6642,28.4007],[-16.5846,28.4011],[-16.5645,28.4153],[-16.5071,28.4241],[-16.4204,28.4906],[-16.4083,28.5198],[-16.3634,28.543],[-16.3002,28.5666],[-16.2416,28.565],[-16.1833,28.5701],[-16.1413,28.5834],[-16.1243,28.5753],[-16.123,28.5754],[-16.1226,28.5754],[-16.1225,28.5744],[-16.1177,28.5721],[-16.1215,28.5607],[-16.119,28.5286],[-16.119,28.5282],[-16.335,28.3789],[-16.3582,28.3152],[-16.3581,28.3146],[-16.3589,28.3132],[-16.4178,28.1515],[-16.497,28.0612],[-16.5372,28.0358],[-16.5458,28.024],[-16.5641,28.0274],[-16.6262,28.0143]]],[[[-17.7323,28.7516],[-17.721,28.7306],[-17.7249,28.7259],[-17.7246,28.7247],[-17.7247,28.7246],[-17.7246,28.7243],[-17.7498,28.6879],[-17.7426,28.6154],[-17.7426,28.6153],[-17.7426,28.615],[-17.757,28.5681],[-17.7899,28.5356],[-17.8309,28.4554],[-17.8651,28.4754],[-17.8797,28.5437],[-17.9193,28.5963],[-17.9248,28.6183],[-17.9631,28.6715],[-17.9713,28.7071],[-17.9926,28.7417],[-18.0022,28.7496],[-18.0011,28.7556],[-18.0022,28.7573],[-18.0021,28.7575],[-18.0022,28.7577],[-18.0004,28.7599],[-17.9968,28.7801],[-17.9707,28.8132],[-17.9352,28.8384],[-17.9302,28.8445],[-17.9266,28.8445],[-17.9111,28.8556],[-17.8755,28.8452],[-17.8106,28.8461],[-17.8014,28.8493],[-17.797,28.8463],[-17.7966,28.8463],[-17.796,28.8457],[-17.7558,28.8185],[-17.7573,28.8033],[-17.7426,28.7872],[-17.7323,28.7516]]],[[[-5.5208,42.097],[-5.4216,42.0308],[-5.4384,41.9673],[-5.4847,41.9844],[-5.4717,42.0064],[-5.5077,42.0575],[-5.5208,42.097]]],[[[-5.3193,42.245],[-5.3372,42.2466],[-5.3483,42.2782],[-5.3092,42.2932],[-5.3032,42.2521],[-5.3193,42.245]]]]}}
]}
