{"type":"FeatureCollection","features":[
{"type":"Feature","properties":{"entityId":"commagene","from":-26,"to":17,"certainty":"estimated","source":"유럽 쪽은 Natural Earth 1:10m admin-1(v5.1.2) 현대 행정구역 조각을 그 시기 국경에 맞춰 묶고, 조각이 역사 경계와 다른 곳은 선을 그어 나눈 근사. 유럽 밖(시베리아·중앙아시아·극동)은 대략적인 추정. 운영자 검수 필요"},"geometry":{"type":"Polygon","coordinates":[[[38.026,36.835],[37.8197,36.7605],[37.6541,36.7321],[37.5934,36.7105],[37.5221,36.6736],[37.4373,36.7348],[37.272,36.8071],[37.241,36.7916],[37.1997,36.8329],[37.1171,36.9],[37.0396,36.9413],[36.9725,36.9517],[36.9415,37.0085],[36.9053,37.024],[36.8743,37.0033],[36.864,36.9362],[36.7969,36.9],[36.7142,36.869],[36.6596,36.8272],[36.6226,36.8467],[36.5969,36.8802],[36.5171,36.909],[36.4519,36.9607],[36.4762,36.9973],[36.513,37.0254],[36.5827,37.0966],[36.6374,37.1827],[36.6761,37.2296],[36.7212,37.2712],[36.8422,37.3154],[36.8896,37.3667],[36.9377,37.3422],[36.9664,37.2532],[37.0432,37.2333],[37.1342,37.3097],[37.1902,37.3315],[37.3148,37.3493],[37.4492,37.3863],[37.5117,37.393],[37.5748,37.3919],[37.6173,37.4144],[37.6304,37.4596],[37.6251,37.5188],[37.5166,37.5722],[37.4571,37.5896],[37.4217,37.6351],[37.4222,37.6941],[37.4619,37.7338],[37.517,37.7725],[37.5653,37.8205],[37.7076,37.842],[37.796,37.8712],[37.888,37.881],[37.9735,37.8657],[38.0444,37.8887],[38.1276,37.905],[38.1892,37.9485],[38.1909,38.0008],[38.2173,38.0405],[38.295,38.0738],[38.3579,38.149],[38.4309,38.2141],[38.5009,38.2146],[38.5609,38.2284],[38.6187,38.2191],[38.6228,38.1866],[38.5639,38.1467],[38.5714,38.1259],[38.6035,38.1104],[38.6631,38.0982],[38.7334,38.0984],[38.8032,38.0903],[38.932,38.1073],[39.0156,38.1308],[39.0695,38.1515],[39.1149,38.1927],[39.1413,38.1786],[39.2219,38.205],[39.2526,38.1797],[39.2563,38.1531],[39.2247,38.0903],[39.2346,38.0761],[39.189,38.0431],[39.1499,38.0207],[39.0896,38.007],[39.0603,37.9879],[39.0505,37.9397],[39.0272,37.918],[38.9783,37.906],[38.9892,37.878],[38.9709,37.8507],[38.9709,37.8228],[38.9368,37.8296],[38.9085,37.8168],[38.8889,37.7886],[38.9306,37.8075],[38.9539,37.8014],[38.9647,37.7613],[38.9018,37.7527],[38.8889,37.7408],[38.9231,37.7135],[38.8824,37.7149],[38.836,37.6947],[38.8005,37.697],[38.8685,37.6514],[38.6456,37.6242],[38.5154,37.5111],[38.4948,37.5006],[38.3723,37.4839],[38.3408,37.4944],[38.272,37.4764],[38.2499,37.4485],[38.2068,37.4535],[38.1857,37.4129],[38.1702,37.4255],[38.1256,37.4337],[38.0945,37.4535],[38.0655,37.4368],[38.0399,37.446],[37.9897,37.4447],[37.9744,37.4354],[37.8856,37.3506],[37.879,37.3251],[37.8577,37.3129],[37.8406,37.2679],[37.8669,37.2493],[37.8747,37.2133],[37.8525,37.2265],[37.8435,37.1866],[37.8762,37.1308],[37.8682,37.0776],[37.9226,37.0419],[37.9788,37.05],[37.9641,37.014],[37.9669,36.9904],[38.0079,36.9571],[38.0187,36.9042],[38.0406,36.8804],[38.0212,36.8711],[38.026,36.835]]]}},
{"type":"Feature","properties":{"entityId":"commagene","from":38,"to":72,"certainty":"estimated","source":"유럽 쪽은 Natural Earth 1:10m admin-1(v5.1.2) 현대 행정구역 조각을 그 시기 국경에 맞춰 묶고, 조각이 역사 경계와 다른 곳은 선을 그어 나눈 근사. 유럽 밖(시베리아·중앙아시아·극동)은 대략적인 추정. 운영자 검수 필요"},"geometry":{"type":"MultiPolygon","coordinates":[[[[31.8,36.578],[32.2814,36.2591],[32.283,36.2506],[32.3187,36.2286],[32.3655,36.178],[32.4196,36.1595],[32.4373,36.1387],[32.5134,36.103],[32.5452,36.0981],[32.5826,36.0888],[32.6707,36.0467],[32.7606,36.0295],[32.8037,36.0272],[32.8655,36.0678],[32.9279,36.0954],[32.9826,36.0976],[33.0877,36.0828],[33.1071,36.1033],[33.3004,36.1318],[33.3084,36.1322],[33.3093,36.1331],[33.3662,36.1415],[33.3865,36.137],[33.4371,36.1519],[33.4425,36.1527],[33.5215,36.144],[33.5219,36.144],[33.5325,36.1463],[33.5442,36.1445],[33.5523,36.1275],[33.5888,36.1588],[33.661,36.1747],[33.6853,36.1432],[33.7053,36.1817],[33.7177,36.1922],[33.7302,36.1976],[33.9451,36.2134],[33.959,36.2136],[33.9593,36.2145],[34.0259,36.2194],[34.2,36.3651],[34.2,37.1961],[34.1832,37.1879],[34.149,37.155],[34.0786,37.133],[34.0027,37.1288],[33.9668,37.1162],[33.8706,37.0577],[33.7975,37.0471],[33.7366,37.0287],[33.7021,37.0372],[33.6194,37.0318],[33.54,37.0066],[33.4132,36.9972],[33.3719,36.988],[33.27,36.928],[33.2327,36.918],[33.2007,36.8871],[33.1888,36.8426],[33.1673,36.8134],[33.1312,36.8211],[33.1079,36.8464],[33.0336,36.8141],[32.9795,36.8038],[32.982,36.7716],[33.0193,36.7283],[33.0435,36.6727],[33.0684,36.6632],[33.1084,36.6296],[33.1612,36.6185],[33.2068,36.5909],[33.231,36.5607],[33.2048,36.5344],[33.1318,36.5613],[33.1022,36.5535],[33.0762,36.4855],[33.0524,36.4666],[32.9582,36.4644],[32.8994,36.4533],[32.8425,36.4328],[32.7824,36.4316],[32.7173,36.445],[32.6517,36.438],[32.632,36.4703],[32.5587,36.5062],[32.5316,36.5338],[32.4906,36.6016],[32.4562,36.6734],[32.4632,36.7416],[32.4475,36.8083],[32.4264,36.8321],[32.3487,36.8412],[32.3053,36.8542],[32.2903,36.8814],[32.3016,36.9116],[32.3272,36.9276],[32.3235,36.9582],[32.2531,36.9869],[32.1279,37.0762],[32.0832,37.1266],[32.0331,37.1686],[31.963,37.2076],[31.8987,37.2552],[31.8154,37.2985],[31.8,37.301],[31.8,36.578]]],[[[36.4519,36.9607],[36.5171,36.909],[36.5969,36.8802],[36.6226,36.8467],[36.6596,36.8272],[36.7142,36.869],[36.7969,36.9],[36.864,36.9362],[36.8743,37.0033],[36.9053,37.024],[36.9415,37.0085],[36.9725,36.9517],[37.0396,36.9413],[37.1171,36.9],[37.1997,36.8329],[37.241,36.7916],[37.272,36.8071],[37.4373,36.7348],[37.5221,36.6736],[37.5934,36.7105],[37.6541,36.7321],[37.8197,36.7605],[38.026,36.835],[38.0212,36.8711],[38.0406,36.8804],[38.0187,36.9042],[38.0079,36.9571],[37.9669,36.9904],[37.9641,37.014],[37.9788,37.05],[37.9226,37.0419],[37.8682,37.0776],[37.8762,37.1308],[37.8435,37.1866],[37.8525,37.2265],[37.8747,37.2133],[37.8669,37.2493],[37.8406,37.2679],[37.8577,37.3129],[37.879,37.3251],[37.8856,37.3506],[37.9744,37.4354],[37.9897,37.4447],[38.0399,37.446],[38.0655,37.4368],[38.0945,37.4535],[38.1256,37.4337],[38.1702,37.4255],[38.1857,37.4129],[38.2068,37.4535],[38.2499,37.4485],[38.272,37.4764],[38.3408,37.4944],[38.3723,37.4839],[38.4948,37.5006],[38.5154,37.5111],[38.6456,37.6242],[38.8685,37.6514],[38.8005,37.697],[38.836,37.6947],[38.8824,37.7149],[38.9231,37.7135],[38.8889,37.7408],[38.9018,37.7527],[38.9647,37.7613],[38.9539,37.8014],[38.9306,37.8075],[38.8889,37.7886],[38.9085,37.8168],[38.9368,37.8296],[38.9709,37.8228],[38.9709,37.8507],[38.9892,37.878],[38.9783,37.906],[39.0272,37.918],[39.0505,37.9397],[39.0603,37.9879],[39.0896,38.007],[39.1499,38.0207],[39.189,38.0431],[39.2346,38.0761],[39.2247,38.0903],[39.2563,38.1531],[39.2526,38.1797],[39.2219,38.205],[39.1413,38.1786],[39.1149,38.1927],[39.0695,38.1515],[39.0156,38.1308],[38.932,38.1073],[38.8032,38.0903],[38.7334,38.0984],[38.6631,38.0982],[38.6035,38.1104],[38.5714,38.1259],[38.5639,38.1467],[38.6228,38.1866],[38.6187,38.2191],[38.5609,38.2284],[38.5009,38.2146],[38.4309,38.2141],[38.3579,38.149],[38.295,38.0738],[38.2173,38.0405],[38.1909,38.0008],[38.1892,37.9485],[38.1276,37.905],[38.0444,37.8887],[37.9735,37.8657],[37.888,37.881],[37.796,37.8712],[37.7076,37.842],[37.5653,37.8205],[37.517,37.7725],[37.4619,37.7338],[37.4222,37.6941],[37.4217,37.6351],[37.4571,37.5896],[37.5166,37.5722],[37.6251,37.5188],[37.6304,37.4596],[37.6173,37.4144],[37.5748,37.3919],[37.5117,37.393],[37.4492,37.3863],[37.3148,37.3493],[37.1902,37.3315],[37.1342,37.3097],[37.0432,37.2333],[36.9664,37.2532],[36.9377,37.3422],[36.8896,37.3667],[36.8422,37.3154],[36.7212,37.2712],[36.6761,37.2296],[36.6374,37.1827],[36.5827,37.0966],[36.513,37.0254],[36.4762,36.9973],[36.4519,36.9607]]]]}}
]}
