{"type":"FeatureCollection","features":[
{"type":"Feature","properties":{"entityId":"confederation-of-the-rhine","from":1806,"to":1807,"certainty":"estimated","source":"유럽 쪽은 Natural Earth 1:10m admin-1(v5.1.2) 현대 행정구역 조각을 그 시기 국경에 맞춰 묶고, 조각이 역사 경계와 다른 곳은 선을 그어 나눈 근사. 유럽 밖(시베리아·중앙아시아·극동)은 대략적인 추정. 운영자 검수 필요"},"geometry":{"type":"MultiPolygon","coordinates":[[[[6.0971,51.8867],[6.1059,51.8765],[6.1394,51.8535],[6.24,51.82],[6.39,51.755],[6.47,51.69],[6.6,51.645],[6.68,51.57],[6.73,51.47],[6.73,51.42],[6.7157,51.4],[6.68,51.35],[6.74,51.27],[6.76,51.23],[6.8,51.17],[6.86,51.1],[6.95,51.05],[6.98,51],[6.97,50.94],[7,50.82],[7.07,50.78],[7.12,50.73],[7.18,50.68],[7.21,50.64],[7.2148,50.6272],[7.225,50.6],[7.26,50.56],[7.31,50.51],[7.35,50.48],[7.41,50.445],[7.47,50.425],[7.55,50.41],[7.6,50.37],[7.605,50.33],[7.635,50.27],[7.615,50.24],[7.63,50.215],[7.69,50.19],[7.715,50.155],[7.725,50.13],[7.755,50.1],[7.78,50.07],[7.7917,50.0633],[7.7714,50.0535],[7.8498,50.0107],[7.8782,49.9729],[7.9186,49.9739],[8.0097,49.9993],[8.0485,50.0184],[8.1738,50.0458],[8.2281,50.0382],[8.3354,49.9596],[8.3551,49.9256],[8.3401,49.891],[8.3805,49.8426],[8.3898,49.8153],[8.4238,49.7673],[8.4625,49.7711],[8.4738,49.7575],[8.4391,49.7265],[8.3792,49.7104],[8.3623,49.6909],[8.3606,49.6645],[8.4168,49.5795],[8.4084,49.5552],[8.4277,49.5342],[8.4636,49.4658],[8.4425,49.4522],[8.4939,49.4426],[8.4978,49.3765],[8.4599,49.315],[8.4799,49.297],[8.4108,49.2437],[8.3873,49.232],[8.3571,49.1096],[8.2836,49.01],[8.2302,48.9655],[8.1999,48.9583],[8.1481,48.9037],[8.1027,48.8213],[8.0842,48.8041],[8.0273,48.78],[8.023,48.7651],[7.9701,48.7573],[7.9592,48.7214],[7.8806,48.6677],[7.8524,48.6587],[7.8103,48.615],[7.8017,48.5476],[7.8135,48.5195],[7.7765,48.4982],[7.7383,48.4066],[7.752,48.3553],[7.737,48.3267],[7.7025,48.3112],[7.6935,48.2699],[7.6766,48.2384],[7.6134,48.1792],[7.582,48.1214],[7.5726,48.095],[7.5757,48.0537],[7.6189,48.0027],[7.6211,47.9714],[7.5849,47.9404],[7.5808,47.9108],[7.5579,47.8785],[7.562,47.8392],[7.5429,47.8294],[7.5259,47.7832],[7.5378,47.7318],[7.5119,47.7073],[7.5218,47.6704],[7.5501,47.6524],[7.5903,47.6079],[7.586,47.5846],[7.637,47.595],[7.6597,47.5966],[7.6465,47.5715],[7.6359,47.5646],[7.6123,47.5647],[7.6097,47.5647],[7.6469,47.5514],[7.6834,47.5443],[7.7273,47.5504],[7.7856,47.5632],[7.8197,47.5953],[7.8982,47.5878],[7.9122,47.5606],[8.0423,47.5606],[8.0872,47.5674],[8.1221,47.5921],[8.179,47.6158],[8.2511,47.622],[8.2886,47.6158],[8.3063,47.5922],[8.3541,47.581],[8.4211,47.5811],[8.4489,47.5843],[8.4618,47.6061],[8.5224,47.6219],[8.5517,47.5969],[8.5607,47.5894],[8.5763,47.595],[8.5803,47.639],[8.6016,47.6326],[8.5936,47.6582],[8.5682,47.6629],[8.5197,47.6574],[8.4761,47.6404],[8.4583,47.6399],[8.412,47.661],[8.3913,47.6655],[8.3977,47.6763],[8.391,47.6921],[8.4019,47.7071],[8.4379,47.7232],[8.4501,47.7505],[8.4636,47.7639],[8.5365,47.7741],[8.5516,47.7793],[8.5423,47.795],[8.5582,47.8012],[8.6016,47.7946],[8.6076,47.7623],[8.6298,47.7628],[8.635,47.7846],[8.657,47.7881],[8.6819,47.7587],[8.7131,47.7574],[8.7198,47.7473],[8.7004,47.7235],[8.7171,47.6946],[8.7699,47.6951],[8.7617,47.7013],[8.7707,47.7209],[8.7976,47.72],[8.8302,47.7072],[8.8561,47.6907],[8.8377,47.6878],[8.8519,47.6713],[8.9062,47.6518],[8.9818,47.6622],[9.0166,47.6789],[9.1281,47.6704],[9.1834,47.6704],[9.1969,47.6561],[9.2732,47.6501],[9.5475,47.5345],[9.5531,47.5169],[9.5845,47.4807],[9.6503,47.4521],[9.6495,47.4097],[9.601,47.3613],[9.5874,47.3278],[9.5212,47.2628],[9.5303,47.2537],[9.5342,47.2512],[9.5471,47.243],[9.5431,47.2348],[9.5404,47.2291],[9.5448,47.2203],[9.5543,47.2116],[9.5629,47.1977],[9.5619,47.1906],[9.552,47.1756],[9.5521,47.1669],[9.5671,47.1608],[9.5818,47.1549],[9.6056,47.1323],[9.6095,47.1224],[9.6142,47.1107],[9.6157,47.1068],[9.6088,47.0808],[9.6051,47.0776],[9.5883,47.063],[9.5812,47.0569],[9.6691,47.0562],[9.858,47.0155],[9.8668,47.0019],[9.8624,46.9398],[9.8999,46.9144],[10.0069,46.8908],[10.0681,46.8566],[10.1252,46.8468],[10.2014,46.8668],[10.2351,46.9233],[10.2957,46.9227],[10.2962,46.9414],[10.3389,46.9841],[10.3679,46.9955],[10.3947,46.9854],[10.4156,46.9624],[10.4585,46.9366],[10.4638,46.9197],[10.4538,46.8644],[10.4485,46.8322],[10.4172,46.7989],[10.4287,46.7556],[10.3997,46.7355],[10.3944,46.7008],[10.3692,46.6724],[10.3956,46.6388],[10.4382,46.6357],[10.4591,46.6236],[10.4659,46.5785],[10.4518,46.5467],[10.4939,46.4945],[10.5413,46.4895],[10.6247,46.4545],[10.6387,46.4111],[10.6189,46.3754],[10.5634,46.3674],[10.5279,46.3426],[10.5777,46.3127],[10.5902,46.2334],[10.5673,46.1935],[10.5586,46.118],[10.5152,46.082],[10.4908,46.0269],[10.4686,46.0118],[10.4591,45.985],[10.4956,45.9693],[10.5195,45.9167],[10.5072,45.8775],[10.5229,45.8413],[10.559,45.8244],[10.5562,45.8072],[10.5792,45.7947],[10.621,45.8088],[10.6653,45.8115],[10.6874,45.8453],[10.7286,45.8488],[10.7674,45.8416],[10.8124,45.845],[10.8449,45.8341],[10.8846,45.8169],[10.9002,45.7841],[10.8787,45.7614],[10.8703,45.7221],[10.9027,45.7083],[10.9318,45.6819],[10.9791,45.6918],[11.0067,45.7129],[11.0636,45.7126],[11.1307,45.6996],[11.1849,45.7547],[11.1825,45.7784],[11.2005,45.8109],[11.2581,45.8839],[11.2787,45.919],[11.3147,45.9394],[11.359,45.9229],[11.383,45.9448],[11.3926,45.9811],[11.4406,45.9876],[11.4861,46.0099],[11.541,46.016],[11.5788,46.0062],[11.5993,45.9794],[11.6538,45.9754],[11.6848,45.9843],[11.6845,46.0303],[11.7047,46.0534],[11.699,46.0871],[11.7121,46.1011],[11.7998,46.1057],[11.8965,46.1327],[11.9694,46.1963],[11.9204,46.2228],[11.9274,46.2506],[11.8876,46.2727],[11.8535,46.2737],[11.8499,46.3045],[11.8039,46.3453],[11.8029,46.3662],[11.8504,46.3845],[11.8667,46.4324],[11.8957,46.4548],[11.8808,46.4714],[11.8342,46.4838],[11.8322,46.504],[11.8519,46.5142],[12.022,46.5394],[12.0712,46.6131],[12.0803,46.6499],[12.0991,46.6678],[12.1386,46.6443],[12.1779,46.6348],[12.214,46.5961],[12.2531,46.6109],[12.3024,46.6146],[12.3407,46.6282],[12.3825,46.6181],[12.3992,46.6397],[12.4696,46.6758],[12.4999,46.6721],[12.562,46.6512],[12.6202,46.6565],[12.6714,46.6525],[12.7091,46.7052],[12.7243,46.7489],[12.7456,46.7562],[12.8973,46.7759],[12.933,46.7575],[12.9453,46.7752],[12.8852,46.8325],[12.8288,46.876],[12.8069,46.9294],[12.7641,46.9567],[12.735,47.0042],[12.7515,47.0397],[12.7443,47.058],[12.6581,47.0776],[12.6338,47.112],[12.5777,47.1442],[12.4761,47.1558],[12.38,47.1442],[12.3206,47.1049],[12.2039,47.067],[12.1806,47.0852],[12.1331,47.0788],[12.1313,47.1212],[12.1196,47.1451],[12.0843,47.1764],[12.0818,47.2056],[12.0982,47.2597],[12.096,47.2799],[12.1238,47.2897],[12.1685,47.291],[12.2804,47.3182],[12.3155,47.3328],[12.3929,47.3207],[12.4574,47.3334],[12.5018,47.3852],[12.5684,47.393],[12.5988,47.406],[12.6788,47.4989],[12.6571,47.5385],[12.6576,47.5708],[12.5892,47.6115],[12.5634,47.6418],[12.5984,47.6629],[12.6531,47.6751],[12.762,47.6669],[12.7517,47.6494],[12.8132,47.6118],[12.7859,47.6027],[12.7737,47.5795],[12.7789,47.5548],[12.8284,47.5373],[12.8826,47.4986],[12.9425,47.4705],[12.9697,47.4757],[13.0019,47.466],[13.0373,47.493],[13.0281,47.5416],[13.0383,47.584],[13.072,47.6224],[13.0748,47.6467],[13.0446,47.6966],[13.0044,47.7146],[12.964,47.7054],[12.9083,47.7124],[12.892,47.7235],[12.9172,47.7502],[12.9267,47.7774],[12.9912,47.8471],[12.965,47.872],[12.9311,47.9249],[12.862,47.9626],[12.8482,47.9824],[12.8306,48.0155],[12.7602,48.0649],[12.737,48.1],[12.745,48.1206],[12.8221,48.1607],[12.8776,48.202],[12.933,48.2093],[13.0328,48.2636],[13.1364,48.2911],[13.2742,48.3071],[13.3078,48.3196],[13.4056,48.3766],[13.4382,48.441],[13.4364,48.4692],[13.4564,48.5067],[13.4401,48.561],[13.4546,48.5734],[13.5207,48.5846],[13.6244,48.5654],[13.6734,48.5355],[13.7165,48.5217],[13.7339,48.5598],[13.766,48.5638],[13.8024,48.6117],[13.8009,48.6752],[13.8169,48.6956],[13.7859,48.7248],[13.8157,48.7664],[13.7962,48.7798],[13.7247,48.8673],[13.6544,48.8822],[13.6218,48.9091],[13.6087,48.9462],[13.5905,48.9448],[13.5224,48.9693],[13.5021,48.9661],[13.4823,48.9376],[13.4273,48.96],[13.3842,48.993],[13.3724,49.0385],[13.2995,49.0936],[13.2673,49.1056],[13.2068,49.1075],[13.1785,49.1183],[13.1495,49.1548],[13.0558,49.2382],[13.0113,49.2678],[12.9998,49.2949],[12.9229,49.3327],[12.8847,49.3396],[12.8754,49.3239],[12.7978,49.3278],[12.7621,49.3432],[12.7293,49.3911],[12.6435,49.4295],[12.6272,49.4602],[12.623,49.5098],[12.5937,49.515],[12.5623,49.5508],[12.5536,49.5847],[12.502,49.6197],[12.4964,49.67],[12.4196,49.7002],[12.3836,49.7429],[12.3954,49.7579],[12.4527,49.7797],[12.4625,49.8312],[12.4825,49.8272],[12.5129,49.8702],[12.5241,49.905],[12.4627,49.9313],[12.4682,49.9702],[12.2469,50.045],[12.2325,50.0805],[12.1879,50.1028],[12.1792,50.118],[12.1827,50.1707],[12.1393,50.211],[12.0796,50.2427],[12.1091,50.2638],[12.1073,50.2909],[12.0761,50.3152],[12.1013,50.314],[12.1685,50.303],[12.178,50.2688],[12.243,50.253],[12.2325,50.2325],[12.2585,50.2109],[12.2834,50.1622],[12.3144,50.1673],[12.3056,50.1993],[12.3365,50.2586],[12.3672,50.2791],[12.3982,50.3152],[12.469,50.3456],[12.4751,50.3694],[12.5102,50.3888],[12.5505,50.3964],[12.6254,50.3999],[12.6788,50.3937],[12.7542,50.4353],[12.8258,50.4414],[12.9184,50.4054],[12.9606,50.4092],[12.9966,50.4337],[13.0096,50.4927],[13.0698,50.4911],[13.1074,50.499],[13.1601,50.497],[13.1991,50.5253],[13.2323,50.582],[13.2846,50.569],[13.3056,50.5758],[13.3219,50.6024],[13.381,50.6255],[13.407,50.6013],[13.4479,50.5973],[13.4982,50.6292],[13.4933,50.6432],[13.5233,50.6622],[13.5156,50.691],[13.5566,50.7067],[13.6019,50.7122],[13.6918,50.7118],[13.7491,50.7232],[13.8345,50.7237],[13.8822,50.7427],[13.8925,50.7804],[13.9233,50.78],[13.9596,50.8021],[14.0349,50.8026],[14.1908,50.8479],[14.2321,50.8794],[14.2681,50.8841],[14.3465,50.8802],[14.3759,50.896],[14.3819,50.9209],[14.3183,50.9375],[14.2928,50.9535],[14.3038,50.9697],[14.2383,50.9825],[14.2636,51.0214],[14.2875,51.0368],[14.3566,51.0323],[14.3978,51.0131],[14.4621,51.0197],[14.4821,51.0372],[14.4935,51.0167],[14.5423,50.9987],[14.5743,50.9755],[14.5756,50.9507],[14.5504,50.9121],[14.5618,50.9064],[14.6171,50.9209],[14.6346,50.9094],[14.6083,50.8531],[14.7004,50.816],[14.7754,50.813],[14.8104,50.8584],[14.8105,50.8771],[14.8602,50.9168],[14.9553,51.064],[14.9603,51.1046],[14.98,51.1228],[14.9832,51.1609],[15.0049,51.2156],[15.0221,51.2368],[15.0195,51.2717],[14.9638,51.3284],[14.9506,51.3965],[14.9451,51.4492],[14.911,51.469],[14.8414,51.4844],[14.7975,51.5021],[14.7322,51.5158],[14.7068,51.5408],[14.7127,51.5674],[14.7439,51.6066],[14.7423,51.633],[14.7195,51.6756],[14.6484,51.7172],[14.6342,51.769],[14.5858,51.8039],[14.5959,51.8424],[14.6533,51.8786],[14.6956,51.9315],[14.6973,51.9616],[14.6,52.02],[14.3,52.1],[13.95,52.08],[13.75,51.95],[13.55,51.75],[13.55,51.3634],[13.6144,51.3553],[13.5217,51.3669],[13.4577,51.407],[13.4108,51.4214],[13.2522,51.3852],[13.2194,51.4029],[13.1877,51.3852],[13.1739,51.4068],[13.1982,51.4328],[13.189,51.4762],[13.2105,51.4909],[13.196,51.5286],[13.1653,51.5453],[13.1715,51.5662],[13.1409,51.5854],[13.1011,51.5909],[13.0617,51.6151],[13.0823,51.6384],[13.1504,51.6729],[13.1816,51.7086],[13.1573,51.7485],[13.1635,51.789],[13.2368,51.8555],[13.1846,51.8621],[13.1608,51.8444],[13.1323,51.8576],[13.0662,51.8526],[12.9915,51.8816],[12.9512,51.9069],[12.8719,51.9129],[12.8441,51.9417],[12.7948,51.9462],[12.6668,51.9944],[12.6076,51.9654],[12.5615,51.9717],[12.5476,51.9779],[12.5,51.97],[12.4224,51.9021],[12.45,51.88],[12.3,52],[12.1,52.08],[11.9,52],[11.75,51.9],[11.65,51.72],[11.8,51.68],[12,51.68],[12.2662,51.7155],[12.22,51.6],[12.1,51.47],[11.9,51.42],[11.6,51.45],[11.3,51.52],[10.965,51.4721],[10.9718,51.4627],[10.9645,51.4278],[10.9991,51.4087],[11.1538,51.3969],[11.1962,51.3974],[11.3149,51.3833],[11.3672,51.3575],[11.4519,51.2715],[11.4224,51.2437],[11.3524,51.2301],[11.333,51.2163],[11.3886,51.1899],[11.4203,51.1597],[11.4274,51.0988],[11.4264,51.1077],[11.38,51.1],[11.2,51.03],[11.12,50.92],[10.95,50.92],[10.85,50.99],[10.62,51.03],[10.4,51.06],[10.1533,51.0797],[10.1424,51.0552],[10.1691,51.1155],[10.126,51.1361],[10.1736,51.1448],[10.1964,51.1159],[10.2303,51.1843],[10.1728,51.2061],[10.0813,51.2232],[10.0536,51.2517],[10.0491,51.2766],[10,51.2835],[10,51.4083],[10.0457,51.4321],[10.0661,51.4209],[10.0847,51.4311],[10.1497,51.4318],[10.1947,51.4794],[10.2396,51.4721],[10.2945,51.4935],[10.3064,51.5106],[10.3646,51.5424],[10.3749,51.5857],[10.4217,51.5919],[10.4788,51.5747],[10.5142,51.5563],[10.562,51.5574],[10.6104,51.5726],[10.6453,51.5611],[10.6542,51.5782],[10.6292,51.601],[10.6489,51.6197],[10.6976,51.6374],[10.669,51.6699],[10.6641,51.7072],[10.6192,51.7585],[10.5853,51.7779],[10.5802,51.8449],[10.6399,51.8836],[10.6382,51.9068],[10.613,51.9245],[10.6181,51.9434],[10.6446,51.9587],[10.5902,51.9762],[10.5705,52.0012],[10.6216,52.0105],[10.6525,52.0426],[10.7175,52.0502],[10.8503,52.0503],[10.9684,52.0646],[10.9693,52.0835],[10.9477,52.097],[11.0382,52.1317],[11.0543,52.1684],[11.0193,52.1869],[11.0374,52.2115],[11.0829,52.2251],[11.0829,52.2471],[11.0636,52.2437],[11.0141,52.2897],[11.0337,52.3065],[10.9993,52.3425],[11.0638,52.3538],[11.073,52.3722],[11.0107,52.4035],[10.9391,52.4621],[10.9501,52.4925],[11.0017,52.4981],[10.9491,52.5537],[10.9465,52.5836],[10.9743,52.6083],[10.9572,52.6225],[10.9198,52.6195],[10.8849,52.6514],[10.8369,52.7103],[10.801,52.7225],[10.7938,52.7479],[10.7594,52.7817],[10.762,52.8384],[10.7954,52.8463],[10.8855,52.8472],[10.9607,52.8651],[10.9893,52.8821],[11.0147,52.9119],[11.0508,52.9123],[11.1066,52.9006],[11.1653,52.9033],[11.2136,52.8978],[11.2643,52.8775],[11.3129,52.8838],[11.4124,52.9064],[11.4704,52.9401],[11.502,52.9442],[11.4963,52.9694],[11.5068,53.0011],[11.5619,53.01],[11.5813,53.0429],[11.4907,53.0607],[11.4609,53.0794],[11.4169,53.0809],[11.3656,53.064],[11.3276,53.0724],[11.2741,53.1175],[11.2963,53.1191],[11.3196,53.116],[11.3523,53.116],[11.3756,53.1098],[11.3943,53.1082],[11.399,53.1331],[11.4145,53.1378],[11.4472,53.1378],[11.5016,53.1191],[11.5281,53.1207],[11.5483,53.13],[11.5552,53.1461],[11.5509,53.1532],[11.5452,53.177],[11.5321,53.1877],[11.5295,53.1952],[11.5357,53.205],[11.5799,53.2296],[11.5996,53.2373],[11.6541,53.2497],[11.6884,53.2509],[11.7002,53.2484],[11.7319,53.2327],[11.7443,53.2156],[11.7645,53.2234],[11.7863,53.228],[11.8392,53.2265],[11.8361,53.2405],[11.816,53.2501],[11.8336,53.2555],[11.861,53.2514],[11.8843,53.2685],[11.9232,53.2799],[11.9401,53.2827],[11.959,53.2778],[11.9792,53.2902],[11.9963,53.298],[12.0119,53.2996],[12.0212,53.3151],[12.0228,53.3291],[12.0492,53.34],[12.0637,53.3561],[12.0954,53.3637],[12.1185,53.3669],[12.1284,53.3657],[12.1441,53.3553],[12.1593,53.3576],[12.1869,53.369],[12.2036,53.3664],[12.2264,53.3429],[12.2337,53.3408],[12.2965,53.3313],[12.3392,53.3163],[12.3693,53.3021],[12.3867,53.2907],[12.4152,53.281],[12.427,53.2704],[12.4458,53.2664],[12.4815,53.2679],[12.5122,53.2727],[12.6182,53.2563],[12.6373,53.2523],[12.6643,53.2357],[12.7062,53.2287],[12.731,53.228],[12.7397,53.2246],[12.7435,53.1987],[12.7534,53.1937],[12.7655,53.1929],[12.8095,53.1987],[12.8374,53.195],[12.8517,53.1877],[12.8823,53.1863],[12.906,53.1908],[12.9329,53.1909],[12.9492,53.1955],[12.9592,53.189],[12.944,53.1776],[12.9515,53.1711],[12.9754,53.165],[13.001,53.1677],[13.0263,53.183],[13.0471,53.198],[13.0764,53.2092],[13.1019,53.2229],[13.113,53.2408],[13.154,53.2593],[13.1681,53.2566],[13.1901,53.2365],[13.2024,53.2332],[13.2305,53.2332],[13.2365,53.2531],[13.2494,53.2712],[13.2662,53.2829],[13.2823,53.2878],[13.3085,53.2893],[13.3295,53.2867],[13.3699,53.2738],[13.3882,53.2709],[13.4058,53.2747],[13.4584,53.3002],[13.469,53.3023],[13.4935,53.3193],[13.5072,53.3424],[13.5259,53.3666],[13.5314,53.3854],[13.5389,53.3967],[13.553,53.4046],[13.5716,53.4105],[13.6071,53.4114],[13.6297,53.424],[13.6484,53.4443],[13.6985,53.47],[13.7,53.5],[13.72,53.6],[13.65,53.72],[13.5,53.7],[13.3,53.66],[13.1,53.72],[12.85,53.8],[12.95,53.92],[12.75,53.98],[12.55,54.1],[12.44,54.25],[12.42,54.38],[12.4153,54.4201],[11.9573,54.1965],[11.7432,54.157],[11.7288,54.1585],[11.6897,54.1552],[11.6579,54.1422],[11.6569,54.1411],[11.2047,54.0577],[10.9787,54.016],[10.9505,54.0108],[10.9389,54.0087],[10.9401,54.0474],[10.9222,54.0474],[10.9222,53.9614],[10.906,53.9612],[10.9042,53.9313],[10.9203,53.9205],[10.9605,53.9129],[10.9453,53.9052],[10.9129,53.9021],[10.9067,53.9053],[10.9073,53.9155],[10.8852,53.9191],[10.8613,53.9098],[10.8123,53.8827],[10.7726,53.8699],[10.7633,53.8651],[10.7513,53.8431],[10.753,53.8341],[10.7519,53.84],[10.75,53.84],[10.65,53.8],[10.55,53.72],[10.35,53.52],[10.3009,53.461],[10.3126,53.4549],[10.328,53.4327],[10.2661,53.4271],[10.2416,53.4066],[10.1865,53.4044],[10.1536,53.4136],[10.1314,53.4306],[10.0831,53.4509],[10.0387,53.4431],[10.0304,53.4292],[9.9854,53.4151],[9.95,53.422],[9.9093,53.4181],[9.9055,53.4412],[9.8908,53.449],[9.8572,53.4329],[9.8106,53.4624],[9.7684,53.5082],[9.764,53.5477],[9.7818,53.5453],[9.7818,53.5697],[9.7441,53.5724],[9.7441,53.5503],[9.7063,53.5553],[9.7063,53.5775],[9.6685,53.5828],[9.6685,53.5681],[9.6372,53.581],[9.6307,53.5827],[9.5929,53.5928],[9.5671,53.5996],[9.5551,53.6101],[9.5173,53.6433],[9.5173,53.691],[9.4894,53.691],[9.4894,53.7278],[9.4615,53.7387],[9.4569,53.7405],[9.4115,53.7405],[9.4115,53.7815],[9.409,53.7891],[9.3661,53.7891],[9.3661,53.827],[9.3283,53.827],[9.3283,53.8551],[9.2956,53.8719],[9.2905,53.8732],[9.2527,53.8827],[9.2527,53.8651],[9.1393,53.8651],[9.1393,53.8919],[9.1015,53.8924],[9.1015,53.8632],[9.0637,53.8578],[9.0637,53.8772],[9.0259,53.8772],[9.0259,53.8725],[8.9881,53.8725],[8.9881,53.8873],[8.9125,53.8873],[8.9125,53.8902],[8.8369,53.8902],[8.8369,53.8919],[8.7991,53.8919],[8.7991,53.9493],[8.7613,53.9493],[8.7613,53.9565],[8.7235,53.9565],[8.7235,53.9648],[8.6857,53.9372],[8.6101,53.8822],[8.6071,53.8815],[8.5733,53.8577],[8.5715,53.8542],[8.4434,53.7609],[8.3152,53.6676],[8.1614,53.5557],[8.1498,53.5602],[8.1244,53.5836],[8.1276,53.5908],[8.1074,53.5992],[8.0253,53.6747],[8.0314,53.7081],[7.9797,53.717],[7.95,53.45],[7.85,53.2],[7.65,53.05],[7.1914,53.0147],[7.1836,52.9661],[7.1619,52.9326],[7.0799,52.8544],[7.0722,52.8413],[7.0533,52.7906],[7.044,52.6826],[7.0367,52.6474],[7.0185,52.626],[6.9677,52.6367],[6.9184,52.6322],[6.8654,52.642],[6.7705,52.641],[6.7191,52.6268],[6.7018,52.6191],[6.711,52.5766],[6.7438,52.5597],[6.6717,52.5417],[6.684,52.526],[6.6951,52.4756],[6.7412,52.4537],[6.8203,52.4468],[6.9002,52.4319],[6.9515,52.4375],[6.9733,52.4514],[7.0342,52.3908],[7.0482,52.3651],[7.0398,52.3286],[7.0125,52.2849],[7.0266,52.2386],[6.9819,52.214],[6.9477,52.1828],[6.8848,52.1603],[6.8307,52.1129],[6.7716,52.1088],[6.7329,52.092],[6.7114,52.0673],[6.6799,52.0605],[6.675,52.0348],[6.7782,52.0013],[6.804,51.9844],[6.8107,51.9606],[6.7898,51.9511],[6.7438,51.9083],[6.7167,51.8993],[6.6282,51.8975],[6.5286,51.8764],[6.4794,51.853],[6.4555,51.85],[6.4425,51.8484],[6.3785,51.8601],[6.3825,51.8276],[6.345,51.8211],[6.342,51.8367],[6.2874,51.8462],[6.2564,51.8668],[6.2252,51.8625],[6.127,51.8967],[6.0971,51.8867]],[[6.85,51.45],[7,51.53],[7.3,51.56],[7.45,51.65],[7.4,51.75],[7.4269,51.8308],[7.45,51.9],[7.5,52.1],[7.65,52.3],[7.818,52.3672],[7.8293,52.3627],[7.9058,52.3773],[7.9736,52.3121],[7.9292,52.2999],[7.9464,52.277],[7.9163,52.2507],[7.9254,52.2304],[7.9036,52.2004],[7.9475,52.1798],[8.0175,52.1741],[7.9902,52.1232],[7.9222,52.1115],[7.8916,52.0898],[7.9124,52.056],[7.9698,52.0385],[8.0229,52.0662],[8.0746,52.0747],[8.1104,52.0665],[8.181,52.0831],[8.2669,52.1336],[8.3936,52.1113],[8.426,52.141],[8.481,52.1653],[8.4976,52.1892],[8.4639,52.2048],[8.4602,52.3042],[8.4496,52.3381],[8.4277,52.3668],[8.3339,52.3984],[8.3014,52.4511],[8.3669,52.4414],[8.4481,52.4546],[8.4617,52.4862],[8.4967,52.5065],[8.5826,52.5091],[8.6321,52.5239],[8.6762,52.511],[8.7036,52.4802],[8.7067,52.4073],[8.724,52.3956],[8.8267,52.3888],[8.9612,52.4091],[8.9991,52.4628],[9.0256,52.4796],[9.0812,52.4976],[9.1316,52.4767],[9.0986,52.4904],[9.0885,52.4197],[9.0885,52.4197],[9.0792,52.3545],[9.1284,52.4085],[9.0739,52.3487],[9.018,52.3411],[8.9933,52.316],[8.9833,52.265],[8.9927,52.2569],[9.0705,52.2369],[9.0385,52.2186],[9.0476,52.1962],[8.9881,52.1885],[9.0073,52.1495],[8.9965,52.1341],[9.064,52.138],[9.0761,52.137],[9.185,52.0825],[9.1898,52.075],[9.1774,52.0533],[9.1979,52.0194],[9.171,51.986],[9.21,51.9716],[9.2475,51.9836],[9.286,51.9728],[9.2747,51.9375],[9.2553,51.9224],[9.3022,51.9232],[9.3346,51.9058],[9.322,51.8563],[9.4103,51.8603],[9.4552,51.8682],[9.45,51.8673],[9.45,51.8586],[9.4416,51.843],[9.45,51.8381],[9.45,51.8041],[9.4367,51.7705],[9.4053,51.7521],[9.3898,51.7294],[9.39,51.6778],[9.3731,51.6473],[9.3937,51.6401],[9.4401,51.649],[9.4178,51.6271],[9.3331,51.6067],[9.3538,51.5955],[9.336,51.554],[9.2963,51.5176],[9.2243,51.487],[9.2148,51.4587],[9.158,51.4389],[9.1087,51.4429],[9.0843,51.46],[9.0846,51.483],[9.0154,51.5092],[8.9062,51.4809],[8.919,51.4842],[8.85,51.5],[8.55,51.52],[8.3708,51.5774],[8.1,51.5],[7.85,51.45],[7.8,51.3],[7.75,51.1],[7.5,51.08],[7.3,51.25],[7.15,51.32],[6.95,51.38],[6.85,51.45]],[[8.4961,53.224],[8.5187,53.2261],[8.5606,53.2126],[8.5902,53.2154],[8.6179,53.2048],[8.6903,53.1884],[8.7455,53.1916],[8.7566,53.1787],[8.7837,53.169],[8.8239,53.1681],[8.8605,53.1493],[8.895,53.1389],[8.9124,53.1393],[8.9285,53.1611],[8.9394,53.1618],[8.973,53.1395],[8.9616,53.1158],[8.9899,53.0936],[8.9767,53.0756],[8.9727,53.0526],[8.9577,53.0426],[8.9145,53.0246],[8.866,53.0475],[8.866,53.0397],[8.8441,53.0332],[8.8247,53.035],[8.7771,53.0534],[8.7195,53.0479],[8.7024,53.0511],[8.7027,53.0799],[8.638,53.1303],[8.6315,53.1596],[8.611,53.1801],[8.5781,53.1798],[8.5544,53.1896],[8.513,53.1998],[8.4961,53.224]],[[14.15,51.68],[14.15,51.93],[14.55,51.93],[14.55,51.68],[14.15,51.68]]],[[[9.0705,52.2369],[9.0627,52.2389],[9.0617,52.2319],[9.0705,52.2369]]]]}},
{"type":"Feature","properties":{"entityId":"confederation-of-the-rhine","from":1807,"to":1809,"certainty":"estimated","source":"유럽 쪽은 Natural Earth 1:10m admin-1(v5.1.2) 현대 행정구역 조각을 그 시기 국경에 맞춰 묶고, 조각이 역사 경계와 다른 곳은 선을 그어 나눈 근사. 유럽 밖(시베리아·중앙아시아·극동)은 대략적인 추정. 운영자 검수 필요"},"geometry":{"type":"Polygon","coordinates":[[[6.0971,51.8867],[6.1059,51.8765],[6.1394,51.8535],[6.24,51.82],[6.39,51.755],[6.47,51.69],[6.6,51.645],[6.68,51.57],[6.73,51.47],[6.73,51.42],[6.7157,51.4],[6.68,51.35],[6.74,51.27],[6.76,51.23],[6.8,51.17],[6.86,51.1],[6.95,51.05],[6.98,51],[6.97,50.94],[7,50.82],[7.07,50.78],[7.12,50.73],[7.18,50.68],[7.21,50.64],[7.2148,50.6272],[7.225,50.6],[7.26,50.56],[7.31,50.51],[7.35,50.48],[7.41,50.445],[7.47,50.425],[7.55,50.41],[7.6,50.37],[7.605,50.33],[7.635,50.27],[7.615,50.24],[7.63,50.215],[7.69,50.19],[7.715,50.155],[7.725,50.13],[7.755,50.1],[7.78,50.07],[7.7917,50.0633],[7.7714,50.0535],[7.8498,50.0107],[7.8782,49.9729],[7.9186,49.9739],[8.0097,49.9993],[8.0485,50.0184],[8.1738,50.0458],[8.2281,50.0382],[8.3354,49.9596],[8.3551,49.9256],[8.3401,49.891],[8.3805,49.8426],[8.3898,49.8153],[8.4238,49.7673],[8.4625,49.7711],[8.4738,49.7575],[8.4391,49.7265],[8.3792,49.7104],[8.3623,49.6909],[8.3606,49.6645],[8.4168,49.5795],[8.4084,49.5552],[8.4277,49.5342],[8.4636,49.4658],[8.4425,49.4522],[8.4939,49.4426],[8.4978,49.3765],[8.4599,49.315],[8.4799,49.297],[8.4108,49.2437],[8.3873,49.232],[8.3571,49.1096],[8.2836,49.01],[8.2302,48.9655],[8.1999,48.9583],[8.1481,48.9037],[8.1027,48.8213],[8.0842,48.8041],[8.0273,48.78],[8.023,48.7651],[7.9701,48.7573],[7.9592,48.7214],[7.8806,48.6677],[7.8524,48.6587],[7.8103,48.615],[7.8017,48.5476],[7.8135,48.5195],[7.7765,48.4982],[7.7383,48.4066],[7.752,48.3553],[7.737,48.3267],[7.7025,48.3112],[7.6935,48.2699],[7.6766,48.2384],[7.6134,48.1792],[7.582,48.1214],[7.5726,48.095],[7.5757,48.0537],[7.6189,48.0027],[7.6211,47.9714],[7.5849,47.9404],[7.5808,47.9108],[7.5579,47.8785],[7.562,47.8392],[7.5429,47.8294],[7.5259,47.7832],[7.5378,47.7318],[7.5119,47.7073],[7.5218,47.6704],[7.5501,47.6524],[7.5903,47.6079],[7.586,47.5846],[7.637,47.595],[7.6597,47.5966],[7.6465,47.5715],[7.6359,47.5646],[7.6123,47.5647],[7.6097,47.5647],[7.6469,47.5514],[7.6834,47.5443],[7.7273,47.5504],[7.7856,47.5632],[7.8197,47.5953],[7.8982,47.5878],[7.9122,47.5606],[8.0423,47.5606],[8.0872,47.5674],[8.1221,47.5921],[8.179,47.6158],[8.2511,47.622],[8.2886,47.6158],[8.3063,47.5922],[8.3541,47.581],[8.4211,47.5811],[8.4489,47.5843],[8.4618,47.6061],[8.5224,47.6219],[8.5517,47.5969],[8.5607,47.5894],[8.5763,47.595],[8.5803,47.639],[8.6016,47.6326],[8.5936,47.6582],[8.5682,47.6629],[8.5197,47.6574],[8.4761,47.6404],[8.4583,47.6399],[8.412,47.661],[8.3913,47.6655],[8.3977,47.6763],[8.391,47.6921],[8.4019,47.7071],[8.4379,47.7232],[8.4501,47.7505],[8.4636,47.7639],[8.5365,47.7741],[8.5516,47.7793],[8.5423,47.795],[8.5582,47.8012],[8.6016,47.7946],[8.6076,47.7623],[8.6298,47.7628],[8.635,47.7846],[8.657,47.7881],[8.6819,47.7587],[8.7131,47.7574],[8.7198,47.7473],[8.7004,47.7235],[8.7171,47.6946],[8.7699,47.6951],[8.7617,47.7013],[8.7707,47.7209],[8.7976,47.72],[8.8302,47.7072],[8.8561,47.6907],[8.8377,47.6878],[8.8519,47.6713],[8.9062,47.6518],[8.9818,47.6622],[9.0166,47.6789],[9.1281,47.6704],[9.1834,47.6704],[9.1969,47.6561],[9.2732,47.6501],[9.5475,47.5345],[9.5531,47.5169],[9.5845,47.4807],[9.6503,47.4521],[9.6495,47.4097],[9.601,47.3613],[9.5874,47.3278],[9.5212,47.2628],[9.5303,47.2537],[9.5342,47.2512],[9.5471,47.243],[9.5431,47.2348],[9.5404,47.2291],[9.5448,47.2203],[9.5543,47.2116],[9.5629,47.1977],[9.5619,47.1906],[9.552,47.1756],[9.5521,47.1669],[9.5671,47.1608],[9.5818,47.1549],[9.6056,47.1323],[9.6095,47.1224],[9.6142,47.1107],[9.6157,47.1068],[9.6088,47.0808],[9.6051,47.0776],[9.5883,47.063],[9.5812,47.0569],[9.6691,47.0562],[9.858,47.0155],[9.8668,47.0019],[9.8624,46.9398],[9.8999,46.9144],[10.0069,46.8908],[10.0681,46.8566],[10.1252,46.8468],[10.2014,46.8668],[10.2351,46.9233],[10.2957,46.9227],[10.2962,46.9414],[10.3389,46.9841],[10.3679,46.9955],[10.3947,46.9854],[10.4156,46.9624],[10.4585,46.9366],[10.4638,46.9197],[10.4538,46.8644],[10.4485,46.8322],[10.4172,46.7989],[10.4287,46.7556],[10.3997,46.7355],[10.3944,46.7008],[10.3692,46.6724],[10.3956,46.6388],[10.4382,46.6357],[10.4591,46.6236],[10.4659,46.5785],[10.4518,46.5467],[10.4939,46.4945],[10.5413,46.4895],[10.6247,46.4545],[10.6387,46.4111],[10.6189,46.3754],[10.5634,46.3674],[10.5279,46.3426],[10.5777,46.3127],[10.5902,46.2334],[10.5673,46.1935],[10.5586,46.118],[10.5152,46.082],[10.4908,46.0269],[10.4686,46.0118],[10.4591,45.985],[10.4956,45.9693],[10.5195,45.9167],[10.5072,45.8775],[10.5229,45.8413],[10.559,45.8244],[10.5562,45.8072],[10.5792,45.7947],[10.621,45.8088],[10.6653,45.8115],[10.6874,45.8453],[10.7286,45.8488],[10.7674,45.8416],[10.8124,45.845],[10.8449,45.8341],[10.8846,45.8169],[10.9002,45.7841],[10.8787,45.7614],[10.8703,45.7221],[10.9027,45.7083],[10.9318,45.6819],[10.9791,45.6918],[11.0067,45.7129],[11.0636,45.7126],[11.1307,45.6996],[11.1849,45.7547],[11.1825,45.7784],[11.2005,45.8109],[11.2581,45.8839],[11.2787,45.919],[11.3147,45.9394],[11.359,45.9229],[11.383,45.9448],[11.3926,45.9811],[11.4406,45.9876],[11.4861,46.0099],[11.541,46.016],[11.5788,46.0062],[11.5993,45.9794],[11.6538,45.9754],[11.6848,45.9843],[11.6845,46.0303],[11.7047,46.0534],[11.699,46.0871],[11.7121,46.1011],[11.7998,46.1057],[11.8965,46.1327],[11.9694,46.1963],[11.9204,46.2228],[11.9274,46.2506],[11.8876,46.2727],[11.8535,46.2737],[11.8499,46.3045],[11.8039,46.3453],[11.8029,46.3662],[11.8504,46.3845],[11.8667,46.4324],[11.8957,46.4548],[11.8808,46.4714],[11.8342,46.4838],[11.8322,46.504],[11.8519,46.5142],[12.022,46.5394],[12.0712,46.6131],[12.0803,46.6499],[12.0991,46.6678],[12.1386,46.6443],[12.1779,46.6348],[12.214,46.5961],[12.2531,46.6109],[12.3024,46.6146],[12.3407,46.6282],[12.3825,46.6181],[12.3992,46.6397],[12.4696,46.6758],[12.4999,46.6721],[12.562,46.6512],[12.6202,46.6565],[12.6714,46.6525],[12.7091,46.7052],[12.7243,46.7489],[12.7456,46.7562],[12.8973,46.7759],[12.933,46.7575],[12.9453,46.7752],[12.8852,46.8325],[12.8288,46.876],[12.8069,46.9294],[12.7641,46.9567],[12.735,47.0042],[12.7515,47.0397],[12.7443,47.058],[12.6581,47.0776],[12.6338,47.112],[12.5777,47.1442],[12.4761,47.1558],[12.38,47.1442],[12.3206,47.1049],[12.2039,47.067],[12.1806,47.0852],[12.1331,47.0788],[12.1313,47.1212],[12.1196,47.1451],[12.0843,47.1764],[12.0818,47.2056],[12.0982,47.2597],[12.096,47.2799],[12.1238,47.2897],[12.1685,47.291],[12.2804,47.3182],[12.3155,47.3328],[12.3929,47.3207],[12.4574,47.3334],[12.5018,47.3852],[12.5684,47.393],[12.5988,47.406],[12.6788,47.4989],[12.6571,47.5385],[12.6576,47.5708],[12.5892,47.6115],[12.5634,47.6418],[12.5984,47.6629],[12.6531,47.6751],[12.762,47.6669],[12.7517,47.6494],[12.8132,47.6118],[12.7859,47.6027],[12.7737,47.5795],[12.7789,47.5548],[12.8284,47.5373],[12.8826,47.4986],[12.9425,47.4705],[12.9697,47.4757],[13.0019,47.466],[13.0373,47.493],[13.0281,47.5416],[13.0383,47.584],[13.072,47.6224],[13.0748,47.6467],[13.0446,47.6966],[13.0044,47.7146],[12.964,47.7054],[12.9083,47.7124],[12.892,47.7235],[12.9172,47.7502],[12.9267,47.7774],[12.9912,47.8471],[12.965,47.872],[12.9311,47.9249],[12.862,47.9626],[12.8482,47.9824],[12.8306,48.0155],[12.7602,48.0649],[12.737,48.1],[12.745,48.1206],[12.8221,48.1607],[12.8776,48.202],[12.933,48.2093],[13.0328,48.2636],[13.1364,48.2911],[13.2742,48.3071],[13.3078,48.3196],[13.4056,48.3766],[13.4382,48.441],[13.4364,48.4692],[13.4564,48.5067],[13.4401,48.561],[13.4546,48.5734],[13.5207,48.5846],[13.6244,48.5654],[13.6734,48.5355],[13.7165,48.5217],[13.7339,48.5598],[13.766,48.5638],[13.8024,48.6117],[13.8009,48.6752],[13.8169,48.6956],[13.7859,48.7248],[13.8157,48.7664],[13.7962,48.7798],[13.7247,48.8673],[13.6544,48.8822],[13.6218,48.9091],[13.6087,48.9462],[13.5905,48.9448],[13.5224,48.9693],[13.5021,48.9661],[13.4823,48.9376],[13.4273,48.96],[13.3842,48.993],[13.3724,49.0385],[13.2995,49.0936],[13.2673,49.1056],[13.2068,49.1075],[13.1785,49.1183],[13.1495,49.1548],[13.0558,49.2382],[13.0113,49.2678],[12.9998,49.2949],[12.9229,49.3327],[12.8847,49.3396],[12.8754,49.3239],[12.7978,49.3278],[12.7621,49.3432],[12.7293,49.3911],[12.6435,49.4295],[12.6272,49.4602],[12.623,49.5098],[12.5937,49.515],[12.5623,49.5508],[12.5536,49.5847],[12.502,49.6197],[12.4964,49.67],[12.4196,49.7002],[12.3836,49.7429],[12.3954,49.7579],[12.4527,49.7797],[12.4625,49.8312],[12.4825,49.8272],[12.5129,49.8702],[12.5241,49.905],[12.4627,49.9313],[12.4682,49.9702],[12.2469,50.045],[12.2325,50.0805],[12.1879,50.1028],[12.1792,50.118],[12.1827,50.1707],[12.1393,50.211],[12.0796,50.2427],[12.1091,50.2638],[12.1073,50.2909],[12.0761,50.3152],[12.1013,50.314],[12.1685,50.303],[12.178,50.2688],[12.243,50.253],[12.2325,50.2325],[12.2585,50.2109],[12.2834,50.1622],[12.3144,50.1673],[12.3056,50.1993],[12.3365,50.2586],[12.3672,50.2791],[12.3982,50.3152],[12.469,50.3456],[12.4751,50.3694],[12.5102,50.3888],[12.5505,50.3964],[12.6254,50.3999],[12.6788,50.3937],[12.7542,50.4353],[12.8258,50.4414],[12.9184,50.4054],[12.9606,50.4092],[12.9966,50.4337],[13.0096,50.4927],[13.0698,50.4911],[13.1074,50.499],[13.1601,50.497],[13.1991,50.5253],[13.2323,50.582],[13.2846,50.569],[13.3056,50.5758],[13.3219,50.6024],[13.381,50.6255],[13.407,50.6013],[13.4479,50.5973],[13.4982,50.6292],[13.4933,50.6432],[13.5233,50.6622],[13.5156,50.691],[13.5566,50.7067],[13.6019,50.7122],[13.6918,50.7118],[13.7491,50.7232],[13.8345,50.7237],[13.8822,50.7427],[13.8925,50.7804],[13.9233,50.78],[13.9596,50.8021],[14.0349,50.8026],[14.1908,50.8479],[14.2321,50.8794],[14.2681,50.8841],[14.3465,50.8802],[14.3759,50.896],[14.3819,50.9209],[14.3183,50.9375],[14.2928,50.9535],[14.3038,50.9697],[14.2383,50.9825],[14.2636,51.0214],[14.2875,51.0368],[14.3566,51.0323],[14.3978,51.0131],[14.4621,51.0197],[14.4821,51.0372],[14.4935,51.0167],[14.5423,50.9987],[14.5743,50.9755],[14.5756,50.9507],[14.5504,50.9121],[14.5618,50.9064],[14.6171,50.9209],[14.6346,50.9094],[14.6083,50.8531],[14.7004,50.816],[14.7754,50.813],[14.8104,50.8584],[14.8105,50.8771],[14.8602,50.9168],[14.9553,51.064],[14.9603,51.1046],[14.98,51.1228],[14.9832,51.1609],[15.0049,51.2156],[15.0221,51.2368],[15.0195,51.2717],[14.9638,51.3284],[14.9506,51.3965],[14.9451,51.4492],[14.911,51.469],[14.8414,51.4844],[14.7975,51.5021],[14.7322,51.5158],[14.7068,51.5408],[14.7127,51.5674],[14.7439,51.6066],[14.7423,51.633],[14.7195,51.6756],[14.6484,51.7172],[14.6342,51.769],[14.5858,51.8039],[14.5959,51.8424],[14.6533,51.8786],[14.6956,51.9315],[14.6973,51.9616],[14.6,52.02],[14.3,52.1],[13.95,52.08],[13.75,51.95],[13.55,51.75],[13.55,51.3634],[13.6144,51.3553],[13.5217,51.3669],[13.4577,51.407],[13.4108,51.4214],[13.2522,51.3852],[13.2194,51.4029],[13.1877,51.3852],[13.1739,51.4068],[13.1982,51.4328],[13.189,51.4762],[13.2105,51.4909],[13.196,51.5286],[13.1653,51.5453],[13.1715,51.5662],[13.1409,51.5854],[13.1011,51.5909],[13.0617,51.6151],[13.0823,51.6384],[13.1504,51.6729],[13.1816,51.7086],[13.1573,51.7485],[13.1635,51.789],[13.2368,51.8555],[13.1846,51.8621],[13.1608,51.8444],[13.1323,51.8576],[13.0662,51.8526],[12.9915,51.8816],[12.9512,51.9069],[12.8719,51.9129],[12.8441,51.9417],[12.7948,51.9462],[12.6668,51.9944],[12.6076,51.9654],[12.5615,51.9717],[12.5476,51.9779],[12.5,51.97],[12.4224,51.9021],[12.45,51.88],[12.3,52],[12.1,52.08],[11.9,52],[11.75,51.9],[11.8596,51.973],[11.74,52.02],[11.66,52.13],[11.7,52.23],[11.77,52.31],[11.9,52.45],[11.98,52.55],[12,52.67],[12.04,52.79],[12.04,52.86],[11.9795,52.8859],[11.9655,52.8852],[11.8967,52.9017],[11.8319,52.9282],[11.8444,52.946],[11.8158,52.9593],[11.8073,52.9603],[11.798,52.9676],[11.75,52.99],[11.7435,52.992],[11.6942,52.984],[11.6814,53.0106],[11.6696,53.0141],[11.6223,53.0224],[11.623,53.0281],[11.5802,53.041],[11.5619,53.01],[11.5813,53.0429],[11.4907,53.0607],[11.4609,53.0794],[11.4169,53.0809],[11.3656,53.064],[11.3276,53.0724],[11.2741,53.1175],[11.2963,53.1191],[11.3196,53.116],[11.3523,53.116],[11.3756,53.1098],[11.3943,53.1082],[11.399,53.1331],[11.4145,53.1378],[11.4472,53.1378],[11.5016,53.1191],[11.5281,53.1207],[11.5483,53.13],[11.5552,53.1461],[11.5509,53.1532],[11.5452,53.177],[11.5321,53.1877],[11.5295,53.1952],[11.5357,53.205],[11.5799,53.2296],[11.5996,53.2373],[11.6541,53.2497],[11.6884,53.2509],[11.7002,53.2484],[11.7319,53.2327],[11.7443,53.2156],[11.7645,53.2234],[11.7863,53.228],[11.8392,53.2265],[11.8361,53.2405],[11.816,53.2501],[11.8336,53.2555],[11.861,53.2514],[11.8843,53.2685],[11.9232,53.2799],[11.9401,53.2827],[11.959,53.2778],[11.9792,53.2902],[11.9963,53.298],[12.0119,53.2996],[12.0212,53.3151],[12.0228,53.3291],[12.0492,53.34],[12.0637,53.3561],[12.0954,53.3637],[12.1185,53.3669],[12.1284,53.3657],[12.1441,53.3553],[12.1593,53.3576],[12.1869,53.369],[12.2036,53.3664],[12.2264,53.3429],[12.2337,53.3408],[12.2965,53.3313],[12.3392,53.3163],[12.3693,53.3021],[12.3867,53.2907],[12.4152,53.281],[12.427,53.2704],[12.4458,53.2664],[12.4815,53.2679],[12.5122,53.2727],[12.6182,53.2563],[12.6373,53.2523],[12.6643,53.2357],[12.7062,53.2287],[12.731,53.228],[12.7397,53.2246],[12.7435,53.1987],[12.7534,53.1937],[12.7655,53.1929],[12.8095,53.1987],[12.8374,53.195],[12.8517,53.1877],[12.8823,53.1863],[12.906,53.1908],[12.9329,53.1909],[12.9492,53.1955],[12.9592,53.189],[12.944,53.1776],[12.9515,53.1711],[12.9754,53.165],[13.001,53.1677],[13.0263,53.183],[13.0471,53.198],[13.0764,53.2092],[13.1019,53.2229],[13.113,53.2408],[13.154,53.2593],[13.1681,53.2566],[13.1901,53.2365],[13.2024,53.2332],[13.2305,53.2332],[13.2365,53.2531],[13.2494,53.2712],[13.2662,53.2829],[13.2823,53.2878],[13.3085,53.2893],[13.3295,53.2867],[13.3699,53.2738],[13.3882,53.2709],[13.4058,53.2747],[13.4584,53.3002],[13.469,53.3023],[13.4935,53.3193],[13.5072,53.3424],[13.5259,53.3666],[13.5314,53.3854],[13.5389,53.3967],[13.553,53.4046],[13.5716,53.4105],[13.6071,53.4114],[13.6297,53.424],[13.6484,53.4443],[13.6985,53.47],[13.7,53.5],[13.72,53.6],[13.65,53.72],[13.5,53.7],[13.3,53.66],[13.1,53.72],[12.85,53.8],[12.95,53.92],[12.75,53.98],[12.55,54.1],[12.44,54.25],[12.42,54.38],[12.4153,54.4201],[11.9573,54.1965],[11.7432,54.157],[11.7288,54.1585],[11.6897,54.1552],[11.6579,54.1422],[11.6569,54.1411],[11.2047,54.0577],[10.9787,54.016],[10.9505,54.0108],[10.9389,54.0087],[10.9401,54.0474],[10.9222,54.0474],[10.9222,53.9614],[10.906,53.9612],[10.9042,53.9313],[10.9203,53.9205],[10.9605,53.9129],[10.9453,53.9052],[10.9129,53.9021],[10.9067,53.9053],[10.9073,53.9155],[10.8852,53.9191],[10.8613,53.9098],[10.8123,53.8827],[10.7726,53.8699],[10.7633,53.8651],[10.7513,53.8431],[10.753,53.8341],[10.7519,53.84],[10.75,53.84],[10.65,53.8],[10.55,53.72],[10.35,53.52],[10.3009,53.461],[10.3126,53.4549],[10.328,53.4327],[10.2661,53.4271],[10.2416,53.4066],[10.1865,53.4044],[10.1536,53.4136],[10.1314,53.4306],[10.0831,53.4509],[10.0387,53.4431],[10.0304,53.4292],[9.9854,53.4151],[9.95,53.422],[9.9093,53.4181],[9.9055,53.4412],[9.8908,53.449],[9.8572,53.4329],[9.8106,53.4624],[9.7684,53.5082],[9.764,53.5477],[9.7818,53.5453],[9.7818,53.5697],[9.7441,53.5724],[9.7441,53.5503],[9.7063,53.5553],[9.7063,53.5775],[9.6685,53.5828],[9.6685,53.5681],[9.6372,53.581],[9.6307,53.5827],[9.5929,53.5928],[9.5671,53.5996],[9.5551,53.6101],[9.5173,53.6433],[9.5173,53.691],[9.4894,53.691],[9.4894,53.7278],[9.4615,53.7387],[9.4569,53.7405],[9.4115,53.7405],[9.4115,53.7815],[9.409,53.7891],[9.3661,53.7891],[9.3661,53.827],[9.3283,53.827],[9.3283,53.8551],[9.2956,53.8719],[9.2905,53.8732],[9.2527,53.8827],[9.2527,53.8651],[9.1393,53.8651],[9.1393,53.8919],[9.1015,53.8924],[9.1015,53.8632],[9.0637,53.8578],[9.0637,53.8772],[9.0259,53.8772],[9.0259,53.8725],[8.9881,53.8725],[8.9881,53.8873],[8.9125,53.8873],[8.9125,53.8902],[8.8369,53.8902],[8.8369,53.8919],[8.7991,53.8919],[8.7991,53.9493],[8.7613,53.9493],[8.7613,53.9565],[8.7235,53.9565],[8.7235,53.9648],[8.6857,53.9372],[8.6101,53.8822],[8.6071,53.8815],[8.5733,53.8577],[8.5715,53.8542],[8.4434,53.7609],[8.3152,53.6676],[8.1614,53.5557],[8.1498,53.5602],[8.1244,53.5836],[8.1276,53.5908],[8.1074,53.5992],[8.0253,53.6747],[8.0314,53.7081],[7.9797,53.717],[7.95,53.45],[7.85,53.2],[7.65,53.05],[7.1914,53.0147],[7.1836,52.9661],[7.1619,52.9326],[7.0799,52.8544],[7.0722,52.8413],[7.0533,52.7906],[7.044,52.6826],[7.0367,52.6474],[7.0185,52.626],[6.9677,52.6367],[6.9184,52.6322],[6.8654,52.642],[6.7705,52.641],[6.7191,52.6268],[6.7018,52.6191],[6.711,52.5766],[6.7438,52.5597],[6.6717,52.5417],[6.684,52.526],[6.6951,52.4756],[6.7412,52.4537],[6.8203,52.4468],[6.9002,52.4319],[6.9515,52.4375],[6.9733,52.4514],[7.0342,52.3908],[7.0482,52.3651],[7.0398,52.3286],[7.0125,52.2849],[7.0266,52.2386],[6.9819,52.214],[6.9477,52.1828],[6.8848,52.1603],[6.8307,52.1129],[6.7716,52.1088],[6.7329,52.092],[6.7114,52.0673],[6.6799,52.0605],[6.675,52.0348],[6.7782,52.0013],[6.804,51.9844],[6.8107,51.9606],[6.7898,51.9511],[6.7438,51.9083],[6.7167,51.8993],[6.6282,51.8975],[6.5286,51.8764],[6.4794,51.853],[6.4555,51.85],[6.4425,51.8484],[6.3785,51.8601],[6.3825,51.8276],[6.345,51.8211],[6.342,51.8367],[6.2874,51.8462],[6.2564,51.8668],[6.2252,51.8625],[6.127,51.8967],[6.0971,51.8867]],[[8.4961,53.224],[8.5187,53.2261],[8.5606,53.2126],[8.5902,53.2154],[8.6179,53.2048],[8.6903,53.1884],[8.7455,53.1916],[8.7566,53.1787],[8.7837,53.169],[8.8239,53.1681],[8.8605,53.1493],[8.895,53.1389],[8.9124,53.1393],[8.9285,53.1611],[8.9394,53.1618],[8.973,53.1395],[8.9616,53.1158],[8.9899,53.0936],[8.9767,53.0756],[8.9727,53.0526],[8.9577,53.0426],[8.9145,53.0246],[8.866,53.0475],[8.866,53.0397],[8.8441,53.0332],[8.8247,53.035],[8.7771,53.0534],[8.7195,53.0479],[8.7024,53.0511],[8.7027,53.0799],[8.638,53.1303],[8.6315,53.1596],[8.611,53.1801],[8.5781,53.1798],[8.5544,53.1896],[8.513,53.1998],[8.4961,53.224]]]}},
{"type":"Feature","properties":{"entityId":"confederation-of-the-rhine","from":1809,"to":1810,"certainty":"estimated","source":"유럽 쪽은 Natural Earth 1:10m admin-1(v5.1.2) 현대 행정구역 조각을 그 시기 국경에 맞춰 묶고, 조각이 역사 경계와 다른 곳은 선을 그어 나눈 근사. 유럽 밖(시베리아·중앙아시아·극동)은 대략적인 추정. 운영자 검수 필요"},"geometry":{"type":"Polygon","coordinates":[[[6.0971,51.8867],[6.1059,51.8765],[6.1394,51.8535],[6.24,51.82],[6.39,51.755],[6.47,51.69],[6.6,51.645],[6.68,51.57],[6.73,51.47],[6.73,51.42],[6.7157,51.4],[6.68,51.35],[6.74,51.27],[6.76,51.23],[6.8,51.17],[6.86,51.1],[6.95,51.05],[6.98,51],[6.97,50.94],[7,50.82],[7.07,50.78],[7.12,50.73],[7.18,50.68],[7.21,50.64],[7.2148,50.6272],[7.225,50.6],[7.26,50.56],[7.31,50.51],[7.35,50.48],[7.41,50.445],[7.47,50.425],[7.55,50.41],[7.6,50.37],[7.605,50.33],[7.635,50.27],[7.615,50.24],[7.63,50.215],[7.69,50.19],[7.715,50.155],[7.725,50.13],[7.755,50.1],[7.78,50.07],[7.7917,50.0633],[7.7714,50.0535],[7.8498,50.0107],[7.8782,49.9729],[7.9186,49.9739],[8.0097,49.9993],[8.0485,50.0184],[8.1738,50.0458],[8.2281,50.0382],[8.3354,49.9596],[8.3551,49.9256],[8.3401,49.891],[8.3805,49.8426],[8.3898,49.8153],[8.4238,49.7673],[8.4625,49.7711],[8.4738,49.7575],[8.4391,49.7265],[8.3792,49.7104],[8.3623,49.6909],[8.3606,49.6645],[8.4168,49.5795],[8.4084,49.5552],[8.4277,49.5342],[8.4636,49.4658],[8.4425,49.4522],[8.4939,49.4426],[8.4978,49.3765],[8.4599,49.315],[8.4799,49.297],[8.4108,49.2437],[8.3873,49.232],[8.3571,49.1096],[8.2836,49.01],[8.2302,48.9655],[8.1999,48.9583],[8.1481,48.9037],[8.1027,48.8213],[8.0842,48.8041],[8.0273,48.78],[8.023,48.7651],[7.9701,48.7573],[7.9592,48.7214],[7.8806,48.6677],[7.8524,48.6587],[7.8103,48.615],[7.8017,48.5476],[7.8135,48.5195],[7.7765,48.4982],[7.7383,48.4066],[7.752,48.3553],[7.737,48.3267],[7.7025,48.3112],[7.6935,48.2699],[7.6766,48.2384],[7.6134,48.1792],[7.582,48.1214],[7.5726,48.095],[7.5757,48.0537],[7.6189,48.0027],[7.6211,47.9714],[7.5849,47.9404],[7.5808,47.9108],[7.5579,47.8785],[7.562,47.8392],[7.5429,47.8294],[7.5259,47.7832],[7.5378,47.7318],[7.5119,47.7073],[7.5218,47.6704],[7.5501,47.6524],[7.5903,47.6079],[7.586,47.5846],[7.637,47.595],[7.6597,47.5966],[7.6465,47.5715],[7.6359,47.5646],[7.6123,47.5647],[7.6097,47.5647],[7.6469,47.5514],[7.6834,47.5443],[7.7273,47.5504],[7.7856,47.5632],[7.8197,47.5953],[7.8982,47.5878],[7.9122,47.5606],[8.0423,47.5606],[8.0872,47.5674],[8.1221,47.5921],[8.179,47.6158],[8.2511,47.622],[8.2886,47.6158],[8.3063,47.5922],[8.3541,47.581],[8.4211,47.5811],[8.4489,47.5843],[8.4618,47.6061],[8.5224,47.6219],[8.5517,47.5969],[8.5607,47.5894],[8.5763,47.595],[8.5803,47.639],[8.6016,47.6326],[8.5936,47.6582],[8.5682,47.6629],[8.5197,47.6574],[8.4761,47.6404],[8.4583,47.6399],[8.412,47.661],[8.3913,47.6655],[8.3977,47.6763],[8.391,47.6921],[8.4019,47.7071],[8.4379,47.7232],[8.4501,47.7505],[8.4636,47.7639],[8.5365,47.7741],[8.5516,47.7793],[8.5423,47.795],[8.5582,47.8012],[8.6016,47.7946],[8.6076,47.7623],[8.6298,47.7628],[8.635,47.7846],[8.657,47.7881],[8.6819,47.7587],[8.7131,47.7574],[8.7198,47.7473],[8.7004,47.7235],[8.7171,47.6946],[8.7699,47.6951],[8.7617,47.7013],[8.7707,47.7209],[8.7976,47.72],[8.8302,47.7072],[8.8561,47.6907],[8.8377,47.6878],[8.8519,47.6713],[8.9062,47.6518],[8.9818,47.6622],[9.0166,47.6789],[9.1281,47.6704],[9.1834,47.6704],[9.1969,47.6561],[9.2732,47.6501],[9.5475,47.5345],[9.5531,47.5169],[9.5845,47.4807],[9.6503,47.4521],[9.6495,47.4097],[9.601,47.3613],[9.5874,47.3278],[9.5212,47.2628],[9.5303,47.2537],[9.5342,47.2512],[9.5471,47.243],[9.5431,47.2348],[9.5404,47.2291],[9.5448,47.2203],[9.5543,47.2116],[9.5629,47.1977],[9.5619,47.1906],[9.552,47.1756],[9.5521,47.1669],[9.5671,47.1608],[9.5818,47.1549],[9.6056,47.1323],[9.6095,47.1224],[9.6142,47.1107],[9.6157,47.1068],[9.6088,47.0808],[9.6051,47.0776],[9.5883,47.063],[9.5812,47.0569],[9.6691,47.0562],[9.858,47.0155],[9.8668,47.0019],[9.8624,46.9398],[9.8999,46.9144],[10.0069,46.8908],[10.0681,46.8566],[10.1252,46.8468],[10.2014,46.8668],[10.2351,46.9233],[10.2957,46.9227],[10.2962,46.9414],[10.3389,46.9841],[10.3679,46.9955],[10.3947,46.9854],[10.4156,46.9624],[10.4585,46.9366],[10.4638,46.9197],[10.4538,46.8644],[10.4485,46.8322],[10.4172,46.7989],[10.4287,46.7556],[10.3997,46.7355],[10.3944,46.7008],[10.3692,46.6724],[10.3956,46.6388],[10.4382,46.6357],[10.4591,46.6236],[10.4659,46.5785],[10.4518,46.5467],[10.4939,46.4945],[10.5413,46.4895],[10.6247,46.4545],[10.6387,46.4111],[10.6189,46.3754],[10.5634,46.3674],[10.5279,46.3426],[10.5777,46.3127],[10.5902,46.2334],[10.5673,46.1935],[10.5586,46.118],[10.5152,46.082],[10.4908,46.0269],[10.4686,46.0118],[10.4591,45.985],[10.4956,45.9693],[10.5195,45.9167],[10.5072,45.8775],[10.5229,45.8413],[10.559,45.8244],[10.5562,45.8072],[10.5792,45.7947],[10.621,45.8088],[10.6653,45.8115],[10.6874,45.8453],[10.7286,45.8488],[10.7674,45.8416],[10.8124,45.845],[10.8449,45.8341],[10.8846,45.8169],[10.9002,45.7841],[10.8787,45.7614],[10.8703,45.7221],[10.9027,45.7083],[10.9318,45.6819],[10.9791,45.6918],[11.0067,45.7129],[11.0636,45.7126],[11.1307,45.6996],[11.1849,45.7547],[11.1825,45.7784],[11.2005,45.8109],[11.2581,45.8839],[11.2787,45.919],[11.3147,45.9394],[11.359,45.9229],[11.383,45.9448],[11.3926,45.9811],[11.4406,45.9876],[11.4861,46.0099],[11.541,46.016],[11.5788,46.0062],[11.5993,45.9794],[11.6538,45.9754],[11.6848,45.9843],[11.6845,46.0303],[11.7047,46.0534],[11.699,46.0871],[11.7121,46.1011],[11.7998,46.1057],[11.8965,46.1327],[11.9694,46.1963],[11.9204,46.2228],[11.9274,46.2506],[11.8876,46.2727],[11.8535,46.2737],[11.8499,46.3045],[11.8039,46.3453],[11.8029,46.3662],[11.8504,46.3845],[11.8667,46.4324],[11.8957,46.4548],[11.8808,46.4714],[11.8342,46.4838],[11.8322,46.504],[11.8519,46.5142],[12.022,46.5394],[12.0712,46.6131],[12.0803,46.6499],[12.0991,46.6678],[12.1386,46.6443],[12.1779,46.6348],[12.214,46.5961],[12.2531,46.6109],[12.3024,46.6146],[12.3407,46.6282],[12.3825,46.6181],[12.3992,46.6397],[12.4696,46.6758],[12.4999,46.6721],[12.562,46.6512],[12.6202,46.6565],[12.6714,46.6525],[12.7091,46.7052],[12.7243,46.7489],[12.7456,46.7562],[12.8973,46.7759],[12.933,46.7575],[12.9453,46.7752],[12.8852,46.8325],[12.8288,46.876],[12.8069,46.9294],[12.7641,46.9567],[12.735,47.0042],[12.7515,47.0397],[12.7443,47.058],[12.6581,47.0776],[12.6338,47.112],[12.665,47.1365],[12.7724,47.0993],[12.9144,47.076],[12.9942,47.0408],[13.0595,47.0288],[13.1735,47.0375],[13.2261,47.0549],[13.2743,47.0838],[13.3082,47.0872],[13.4397,47.0625],[13.5618,47.0466],[13.6062,47.0442],[13.6672,47.0261],[13.7531,46.9806],[13.7823,46.9542],[13.8206,46.9878],[13.8637,47.0423],[13.8802,47.0727],[13.8799,47.1054],[13.9372,47.1506],[13.9317,47.1694],[13.9018,47.1839],[13.8608,47.222],[13.8482,47.2504],[13.7967,47.3021],[13.6941,47.2745],[13.6307,47.3056],[13.6045,47.3425],[13.5748,47.4099],[13.5652,47.4454],[13.5818,47.4864],[13.5242,47.5112],[13.4889,47.5358],[13.4791,47.5644],[13.5056,47.6029],[13.489,47.6415],[13.5256,47.7175],[13.5132,47.7354],[13.4581,47.7474],[13.4533,47.77],[13.5087,47.7732],[13.521,47.7835],[13.4976,47.7979],[13.3168,47.825],[13.2919,47.8406],[13.2713,47.9122],[13.2763,47.9523],[13.2953,47.9693],[13.3509,47.9655],[13.361,47.9806],[13.3029,48.0099],[13.2347,47.9889],[13.1389,47.9872],[13.0899,48.0003],[13.0359,48.0309],[12.9684,48.0316],[12.9375,48.0213],[12.9271,48.0018],[12.8482,47.9824],[12.8306,48.0155],[12.7602,48.0649],[12.737,48.1],[12.745,48.1206],[12.8221,48.1607],[12.8776,48.202],[12.933,48.2093],[13.0328,48.2636],[13.1364,48.2911],[13.2742,48.3071],[13.3078,48.3196],[13.4056,48.3766],[13.4382,48.441],[13.4364,48.4692],[13.4564,48.5067],[13.4401,48.561],[13.4546,48.5734],[13.5207,48.5846],[13.6244,48.5654],[13.6734,48.5355],[13.7165,48.5217],[13.7339,48.5598],[13.766,48.5638],[13.8024,48.6117],[13.8009,48.6752],[13.8169,48.6956],[13.7859,48.7248],[13.8157,48.7664],[13.7962,48.7798],[13.7247,48.8673],[13.6544,48.8822],[13.6218,48.9091],[13.6087,48.9462],[13.5905,48.9448],[13.5224,48.9693],[13.5021,48.9661],[13.4823,48.9376],[13.4273,48.96],[13.3842,48.993],[13.3724,49.0385],[13.2995,49.0936],[13.2673,49.1056],[13.2068,49.1075],[13.1785,49.1183],[13.1495,49.1548],[13.0558,49.2382],[13.0113,49.2678],[12.9998,49.2949],[12.9229,49.3327],[12.8847,49.3396],[12.8754,49.3239],[12.7978,49.3278],[12.7621,49.3432],[12.7293,49.3911],[12.6435,49.4295],[12.6272,49.4602],[12.623,49.5098],[12.5937,49.515],[12.5623,49.5508],[12.5536,49.5847],[12.502,49.6197],[12.4964,49.67],[12.4196,49.7002],[12.3836,49.7429],[12.3954,49.7579],[12.4527,49.7797],[12.4625,49.8312],[12.4825,49.8272],[12.5129,49.8702],[12.5241,49.905],[12.4627,49.9313],[12.4682,49.9702],[12.2469,50.045],[12.2325,50.0805],[12.1879,50.1028],[12.1792,50.118],[12.1827,50.1707],[12.1393,50.211],[12.0796,50.2427],[12.1091,50.2638],[12.1073,50.2909],[12.0761,50.3152],[12.1013,50.314],[12.1685,50.303],[12.178,50.2688],[12.243,50.253],[12.2325,50.2325],[12.2585,50.2109],[12.2834,50.1622],[12.3144,50.1673],[12.3056,50.1993],[12.3365,50.2586],[12.3672,50.2791],[12.3982,50.3152],[12.469,50.3456],[12.4751,50.3694],[12.5102,50.3888],[12.5505,50.3964],[12.6254,50.3999],[12.6788,50.3937],[12.7542,50.4353],[12.8258,50.4414],[12.9184,50.4054],[12.9606,50.4092],[12.9966,50.4337],[13.0096,50.4927],[13.0698,50.4911],[13.1074,50.499],[13.1601,50.497],[13.1991,50.5253],[13.2323,50.582],[13.2846,50.569],[13.3056,50.5758],[13.3219,50.6024],[13.381,50.6255],[13.407,50.6013],[13.4479,50.5973],[13.4982,50.6292],[13.4933,50.6432],[13.5233,50.6622],[13.5156,50.691],[13.5566,50.7067],[13.6019,50.7122],[13.6918,50.7118],[13.7491,50.7232],[13.8345,50.7237],[13.8822,50.7427],[13.8925,50.7804],[13.9233,50.78],[13.9596,50.8021],[14.0349,50.8026],[14.1908,50.8479],[14.2321,50.8794],[14.2681,50.8841],[14.3465,50.8802],[14.3759,50.896],[14.3819,50.9209],[14.3183,50.9375],[14.2928,50.9535],[14.3038,50.9697],[14.2383,50.9825],[14.2636,51.0214],[14.2875,51.0368],[14.3566,51.0323],[14.3978,51.0131],[14.4621,51.0197],[14.4821,51.0372],[14.4935,51.0167],[14.5423,50.9987],[14.5743,50.9755],[14.5756,50.9507],[14.5504,50.9121],[14.5618,50.9064],[14.6171,50.9209],[14.6346,50.9094],[14.6083,50.8531],[14.7004,50.816],[14.7754,50.813],[14.8104,50.8584],[14.8105,50.8771],[14.8602,50.9168],[14.9553,51.064],[14.9603,51.1046],[14.98,51.1228],[14.9832,51.1609],[15.0049,51.2156],[15.0221,51.2368],[15.0195,51.2717],[14.9638,51.3284],[14.9506,51.3965],[14.9451,51.4492],[14.911,51.469],[14.8414,51.4844],[14.7975,51.5021],[14.7322,51.5158],[14.7068,51.5408],[14.7127,51.5674],[14.7439,51.6066],[14.7423,51.633],[14.7195,51.6756],[14.6484,51.7172],[14.6342,51.769],[14.5858,51.8039],[14.5959,51.8424],[14.6533,51.8786],[14.6956,51.9315],[14.6973,51.9616],[14.6,52.02],[14.3,52.1],[13.95,52.08],[13.75,51.95],[13.55,51.75],[13.55,51.3634],[13.6144,51.3553],[13.5217,51.3669],[13.4577,51.407],[13.4108,51.4214],[13.2522,51.3852],[13.2194,51.4029],[13.1877,51.3852],[13.1739,51.4068],[13.1982,51.4328],[13.189,51.4762],[13.2105,51.4909],[13.196,51.5286],[13.1653,51.5453],[13.1715,51.5662],[13.1409,51.5854],[13.1011,51.5909],[13.0617,51.6151],[13.0823,51.6384],[13.1504,51.6729],[13.1816,51.7086],[13.1573,51.7485],[13.1635,51.789],[13.2368,51.8555],[13.1846,51.8621],[13.1608,51.8444],[13.1323,51.8576],[13.0662,51.8526],[12.9915,51.8816],[12.9512,51.9069],[12.8719,51.9129],[12.8441,51.9417],[12.7948,51.9462],[12.6668,51.9944],[12.6076,51.9654],[12.5615,51.9717],[12.5476,51.9779],[12.5,51.97],[12.4224,51.9021],[12.45,51.88],[12.3,52],[12.1,52.08],[11.9,52],[11.75,51.9],[11.8596,51.973],[11.74,52.02],[11.66,52.13],[11.7,52.23],[11.77,52.31],[11.9,52.45],[11.98,52.55],[12,52.67],[12.04,52.79],[12.04,52.86],[11.9795,52.8859],[11.9655,52.8852],[11.8967,52.9017],[11.8319,52.9282],[11.8444,52.946],[11.8158,52.9593],[11.8073,52.9603],[11.798,52.9676],[11.75,52.99],[11.7435,52.992],[11.6942,52.984],[11.6814,53.0106],[11.6696,53.0141],[11.6223,53.0224],[11.623,53.0281],[11.5802,53.041],[11.5619,53.01],[11.5813,53.0429],[11.4907,53.0607],[11.4609,53.0794],[11.4169,53.0809],[11.3656,53.064],[11.3276,53.0724],[11.2741,53.1175],[11.2963,53.1191],[11.3196,53.116],[11.3523,53.116],[11.3756,53.1098],[11.3943,53.1082],[11.399,53.1331],[11.4145,53.1378],[11.4472,53.1378],[11.5016,53.1191],[11.5281,53.1207],[11.5483,53.13],[11.5552,53.1461],[11.5509,53.1532],[11.5452,53.177],[11.5321,53.1877],[11.5295,53.1952],[11.5357,53.205],[11.5799,53.2296],[11.5996,53.2373],[11.6541,53.2497],[11.6884,53.2509],[11.7002,53.2484],[11.7319,53.2327],[11.7443,53.2156],[11.7645,53.2234],[11.7863,53.228],[11.8392,53.2265],[11.8361,53.2405],[11.816,53.2501],[11.8336,53.2555],[11.861,53.2514],[11.8843,53.2685],[11.9232,53.2799],[11.9401,53.2827],[11.959,53.2778],[11.9792,53.2902],[11.9963,53.298],[12.0119,53.2996],[12.0212,53.3151],[12.0228,53.3291],[12.0492,53.34],[12.0637,53.3561],[12.0954,53.3637],[12.1185,53.3669],[12.1284,53.3657],[12.1441,53.3553],[12.1593,53.3576],[12.1869,53.369],[12.2036,53.3664],[12.2264,53.3429],[12.2337,53.3408],[12.2965,53.3313],[12.3392,53.3163],[12.3693,53.3021],[12.3867,53.2907],[12.4152,53.281],[12.427,53.2704],[12.4458,53.2664],[12.4815,53.2679],[12.5122,53.2727],[12.6182,53.2563],[12.6373,53.2523],[12.6643,53.2357],[12.7062,53.2287],[12.731,53.228],[12.7397,53.2246],[12.7435,53.1987],[12.7534,53.1937],[12.7655,53.1929],[12.8095,53.1987],[12.8374,53.195],[12.8517,53.1877],[12.8823,53.1863],[12.906,53.1908],[12.9329,53.1909],[12.9492,53.1955],[12.9592,53.189],[12.944,53.1776],[12.9515,53.1711],[12.9754,53.165],[13.001,53.1677],[13.0263,53.183],[13.0471,53.198],[13.0764,53.2092],[13.1019,53.2229],[13.113,53.2408],[13.154,53.2593],[13.1681,53.2566],[13.1901,53.2365],[13.2024,53.2332],[13.2305,53.2332],[13.2365,53.2531],[13.2494,53.2712],[13.2662,53.2829],[13.2823,53.2878],[13.3085,53.2893],[13.3295,53.2867],[13.3699,53.2738],[13.3882,53.2709],[13.4058,53.2747],[13.4584,53.3002],[13.469,53.3023],[13.4935,53.3193],[13.5072,53.3424],[13.5259,53.3666],[13.5314,53.3854],[13.5389,53.3967],[13.553,53.4046],[13.5716,53.4105],[13.6071,53.4114],[13.6297,53.424],[13.6484,53.4443],[13.6985,53.47],[13.7,53.5],[13.72,53.6],[13.65,53.72],[13.5,53.7],[13.3,53.66],[13.1,53.72],[12.85,53.8],[12.95,53.92],[12.75,53.98],[12.55,54.1],[12.44,54.25],[12.42,54.38],[12.4153,54.4201],[11.9573,54.1965],[11.7432,54.157],[11.7288,54.1585],[11.6897,54.1552],[11.6579,54.1422],[11.6569,54.1411],[11.2047,54.0577],[10.9787,54.016],[10.9505,54.0108],[10.9389,54.0087],[10.9401,54.0474],[10.9222,54.0474],[10.9222,53.9614],[10.906,53.9612],[10.9042,53.9313],[10.9203,53.9205],[10.9605,53.9129],[10.9453,53.9052],[10.9129,53.9021],[10.9067,53.9053],[10.9073,53.9155],[10.8852,53.9191],[10.8613,53.9098],[10.8123,53.8827],[10.7726,53.8699],[10.7633,53.8651],[10.7513,53.8431],[10.753,53.8341],[10.7519,53.84],[10.75,53.84],[10.65,53.8],[10.55,53.72],[10.35,53.52],[10.3009,53.461],[10.3126,53.4549],[10.328,53.4327],[10.2661,53.4271],[10.2416,53.4066],[10.1865,53.4044],[10.1536,53.4136],[10.1314,53.4306],[10.0831,53.4509],[10.0387,53.4431],[10.0304,53.4292],[9.9854,53.4151],[9.95,53.422],[9.9093,53.4181],[9.9055,53.4412],[9.8908,53.449],[9.8572,53.4329],[9.8106,53.4624],[9.7684,53.5082],[9.764,53.5477],[9.7818,53.5453],[9.7818,53.5697],[9.7441,53.5724],[9.7441,53.5503],[9.7063,53.5553],[9.7063,53.5775],[9.6685,53.5828],[9.6685,53.5681],[9.6372,53.581],[9.6307,53.5827],[9.5929,53.5928],[9.5671,53.5996],[9.5551,53.6101],[9.5173,53.6433],[9.5173,53.691],[9.4894,53.691],[9.4894,53.7278],[9.4615,53.7387],[9.4569,53.7405],[9.4115,53.7405],[9.4115,53.7815],[9.409,53.7891],[9.3661,53.7891],[9.3661,53.827],[9.3283,53.827],[9.3283,53.8551],[9.2956,53.8719],[9.2905,53.8732],[9.2527,53.8827],[9.2527,53.8651],[9.1393,53.8651],[9.1393,53.8919],[9.1015,53.8924],[9.1015,53.8632],[9.0637,53.8578],[9.0637,53.8772],[9.0259,53.8772],[9.0259,53.8725],[8.9881,53.8725],[8.9881,53.8873],[8.9125,53.8873],[8.9125,53.8902],[8.8369,53.8902],[8.8369,53.8919],[8.7991,53.8919],[8.7991,53.9493],[8.7613,53.9493],[8.7613,53.9565],[8.7235,53.9565],[8.7235,53.9648],[8.6857,53.9372],[8.6101,53.8822],[8.6071,53.8815],[8.5733,53.8577],[8.5715,53.8542],[8.4434,53.7609],[8.3152,53.6676],[8.1614,53.5557],[8.1498,53.5602],[8.1244,53.5836],[8.1276,53.5908],[8.1074,53.5992],[8.0253,53.6747],[8.0314,53.7081],[7.9797,53.717],[7.95,53.45],[7.85,53.2],[7.65,53.05],[7.1914,53.0147],[7.1836,52.9661],[7.1619,52.9326],[7.0799,52.8544],[7.0722,52.8413],[7.0533,52.7906],[7.044,52.6826],[7.0367,52.6474],[7.0185,52.626],[6.9677,52.6367],[6.9184,52.6322],[6.8654,52.642],[6.7705,52.641],[6.7191,52.6268],[6.7018,52.6191],[6.711,52.5766],[6.7438,52.5597],[6.6717,52.5417],[6.684,52.526],[6.6951,52.4756],[6.7412,52.4537],[6.8203,52.4468],[6.9002,52.4319],[6.9515,52.4375],[6.9733,52.4514],[7.0342,52.3908],[7.0482,52.3651],[7.0398,52.3286],[7.0125,52.2849],[7.0266,52.2386],[6.9819,52.214],[6.9477,52.1828],[6.8848,52.1603],[6.8307,52.1129],[6.7716,52.1088],[6.7329,52.092],[6.7114,52.0673],[6.6799,52.0605],[6.675,52.0348],[6.7782,52.0013],[6.804,51.9844],[6.8107,51.9606],[6.7898,51.9511],[6.7438,51.9083],[6.7167,51.8993],[6.6282,51.8975],[6.5286,51.8764],[6.4794,51.853],[6.4555,51.85],[6.4425,51.8484],[6.3785,51.8601],[6.3825,51.8276],[6.345,51.8211],[6.342,51.8367],[6.2874,51.8462],[6.2564,51.8668],[6.2252,51.8625],[6.127,51.8967],[6.0971,51.8867]],[[8.4961,53.224],[8.5187,53.2261],[8.5606,53.2126],[8.5902,53.2154],[8.6179,53.2048],[8.6903,53.1884],[8.7455,53.1916],[8.7566,53.1787],[8.7837,53.169],[8.8239,53.1681],[8.8605,53.1493],[8.895,53.1389],[8.9124,53.1393],[8.9285,53.1611],[8.9394,53.1618],[8.973,53.1395],[8.9616,53.1158],[8.9899,53.0936],[8.9767,53.0756],[8.9727,53.0526],[8.9577,53.0426],[8.9145,53.0246],[8.866,53.0475],[8.866,53.0397],[8.8441,53.0332],[8.8247,53.035],[8.7771,53.0534],[8.7195,53.0479],[8.7024,53.0511],[8.7027,53.0799],[8.638,53.1303],[8.6315,53.1596],[8.611,53.1801],[8.5781,53.1798],[8.5544,53.1896],[8.513,53.1998],[8.4961,53.224]]]}},
{"type":"Feature","properties":{"entityId":"confederation-of-the-rhine","from":1810,"to":1814,"certainty":"estimated","source":"유럽 쪽은 Natural Earth 1:10m admin-1(v5.1.2) 현대 행정구역 조각을 그 시기 국경에 맞춰 묶고, 조각이 역사 경계와 다른 곳은 선을 그어 나눈 근사. 유럽 밖(시베리아·중앙아시아·극동)은 대략적인 추정. 운영자 검수 필요"},"geometry":{"type":"MultiPolygon","coordinates":[[[[6.6,51.645],[6.68,51.57],[6.73,51.47],[6.73,51.42],[6.7157,51.4],[6.68,51.35],[6.74,51.27],[6.76,51.23],[6.8,51.17],[6.86,51.1],[6.95,51.05],[6.98,51],[6.97,50.94],[7,50.82],[7.07,50.78],[7.12,50.73],[7.18,50.68],[7.21,50.64],[7.2148,50.6272],[7.225,50.6],[7.26,50.56],[7.31,50.51],[7.35,50.48],[7.41,50.445],[7.47,50.425],[7.55,50.41],[7.6,50.37],[7.605,50.33],[7.635,50.27],[7.615,50.24],[7.63,50.215],[7.69,50.19],[7.715,50.155],[7.725,50.13],[7.755,50.1],[7.78,50.07],[7.7917,50.0633],[7.7714,50.0535],[7.8498,50.0107],[7.8782,49.9729],[7.9186,49.9739],[8.0097,49.9993],[8.0485,50.0184],[8.1738,50.0458],[8.2281,50.0382],[8.3354,49.9596],[8.3551,49.9256],[8.3401,49.891],[8.3805,49.8426],[8.3898,49.8153],[8.4238,49.7673],[8.4625,49.7711],[8.4738,49.7575],[8.4391,49.7265],[8.3792,49.7104],[8.3623,49.6909],[8.3606,49.6645],[8.4168,49.5795],[8.4084,49.5552],[8.4277,49.5342],[8.4636,49.4658],[8.4425,49.4522],[8.4939,49.4426],[8.4978,49.3765],[8.4599,49.315],[8.4799,49.297],[8.4108,49.2437],[8.3873,49.232],[8.3571,49.1096],[8.2836,49.01],[8.2302,48.9655],[8.1999,48.9583],[8.1481,48.9037],[8.1027,48.8213],[8.0842,48.8041],[8.0273,48.78],[8.023,48.7651],[7.9701,48.7573],[7.9592,48.7214],[7.8806,48.6677],[7.8524,48.6587],[7.8103,48.615],[7.8017,48.5476],[7.8135,48.5195],[7.7765,48.4982],[7.7383,48.4066],[7.752,48.3553],[7.737,48.3267],[7.7025,48.3112],[7.6935,48.2699],[7.6766,48.2384],[7.6134,48.1792],[7.582,48.1214],[7.5726,48.095],[7.5757,48.0537],[7.6189,48.0027],[7.6211,47.9714],[7.5849,47.9404],[7.5808,47.9108],[7.5579,47.8785],[7.562,47.8392],[7.5429,47.8294],[7.5259,47.7832],[7.5378,47.7318],[7.5119,47.7073],[7.5218,47.6704],[7.5501,47.6524],[7.5903,47.6079],[7.586,47.5846],[7.637,47.595],[7.6597,47.5966],[7.6465,47.5715],[7.6359,47.5646],[7.6123,47.5647],[7.6097,47.5647],[7.6469,47.5514],[7.6834,47.5443],[7.7273,47.5504],[7.7856,47.5632],[7.8197,47.5953],[7.8982,47.5878],[7.9122,47.5606],[8.0423,47.5606],[8.0872,47.5674],[8.1221,47.5921],[8.179,47.6158],[8.2511,47.622],[8.2886,47.6158],[8.3063,47.5922],[8.3541,47.581],[8.4211,47.5811],[8.4489,47.5843],[8.4618,47.6061],[8.5224,47.6219],[8.5517,47.5969],[8.5607,47.5894],[8.5763,47.595],[8.5803,47.639],[8.6016,47.6326],[8.5936,47.6582],[8.5682,47.6629],[8.5197,47.6574],[8.4761,47.6404],[8.4583,47.6399],[8.412,47.661],[8.3913,47.6655],[8.3977,47.6763],[8.391,47.6921],[8.4019,47.7071],[8.4379,47.7232],[8.4501,47.7505],[8.4636,47.7639],[8.5365,47.7741],[8.5516,47.7793],[8.5423,47.795],[8.5582,47.8012],[8.6016,47.7946],[8.6076,47.7623],[8.6298,47.7628],[8.635,47.7846],[8.657,47.7881],[8.6819,47.7587],[8.7131,47.7574],[8.7198,47.7473],[8.7004,47.7235],[8.7171,47.6946],[8.7699,47.6951],[8.7617,47.7013],[8.7707,47.7209],[8.7976,47.72],[8.8302,47.7072],[8.8561,47.6907],[8.8377,47.6878],[8.8519,47.6713],[8.9062,47.6518],[8.9818,47.6622],[9.0166,47.6789],[9.1281,47.6704],[9.1834,47.6704],[9.1969,47.6561],[9.2732,47.6501],[9.5475,47.5345],[9.5531,47.5169],[9.5845,47.4807],[9.6503,47.4521],[9.6495,47.4097],[9.601,47.3613],[9.5874,47.3278],[9.5212,47.2628],[9.5303,47.2537],[9.5342,47.2512],[9.5471,47.243],[9.5431,47.2348],[9.5404,47.2291],[9.5448,47.2203],[9.5543,47.2116],[9.5629,47.1977],[9.5619,47.1906],[9.552,47.1756],[9.5521,47.1669],[9.5671,47.1608],[9.5818,47.1549],[9.6056,47.1323],[9.6095,47.1224],[9.6142,47.1107],[9.6157,47.1068],[9.6088,47.0808],[9.6051,47.0776],[9.5883,47.063],[9.5812,47.0569],[9.6691,47.0562],[9.858,47.0155],[9.8668,47.0019],[9.8624,46.9398],[9.8999,46.9144],[10.0069,46.8908],[10.0681,46.8566],[10.1252,46.8468],[10.2014,46.8668],[10.2351,46.9233],[10.2957,46.9227],[10.2962,46.9414],[10.3389,46.9841],[10.3679,46.9955],[10.3947,46.9854],[10.4156,46.9624],[10.4585,46.9366],[10.4638,46.9197],[10.4538,46.8644],[10.4485,46.8322],[10.4172,46.7989],[10.4287,46.7556],[10.3997,46.7355],[10.3944,46.7008],[10.3692,46.6724],[10.3956,46.6388],[10.4382,46.6357],[10.4591,46.6236],[10.4659,46.5785],[10.4518,46.5467],[10.4939,46.4945],[10.5413,46.4895],[10.6247,46.4545],[10.6575,46.4495],[10.7452,46.4849],[10.7762,46.4754],[10.7975,46.4469],[10.8399,46.4307],[10.9974,46.4792],[11.0511,46.446],[11.0643,46.458],[11.0553,46.5156],[11.0859,46.5236],[11.1176,46.4938],[11.1454,46.4872],[11.1927,46.5056],[11.2145,46.4693],[11.2018,46.3392],[11.1562,46.284],[11.1615,46.2495],[11.191,46.2271],[11.242,46.2312],[11.2871,46.2591],[11.3282,46.2935],[11.3707,46.269],[11.3876,46.2811],[11.4085,46.3245],[11.4549,46.3348],[11.4766,46.3596],[11.5378,46.3537],[11.5774,46.3681],[11.5953,46.3862],[11.6412,46.4727],[11.6841,46.5077],[11.7158,46.5138],[11.7784,46.5101],[11.8118,46.5303],[11.8322,46.504],[11.8519,46.5142],[12.022,46.5394],[12.0712,46.6131],[12.0803,46.6499],[12.0991,46.6678],[12.1386,46.6443],[12.1779,46.6348],[12.214,46.5961],[12.2531,46.6109],[12.3024,46.6146],[12.3407,46.6282],[12.3825,46.6181],[12.3992,46.6397],[12.4696,46.6758],[12.4999,46.6721],[12.562,46.6512],[12.6202,46.6565],[12.6714,46.6525],[12.7091,46.7052],[12.7243,46.7489],[12.7456,46.7562],[12.8973,46.7759],[12.933,46.7575],[12.9453,46.7752],[12.8852,46.8325],[12.8288,46.876],[12.8069,46.9294],[12.7641,46.9567],[12.735,47.0042],[12.7515,47.0397],[12.7443,47.058],[12.6581,47.0776],[12.6338,47.112],[12.665,47.1365],[12.7724,47.0993],[12.9144,47.076],[12.9942,47.0408],[13.0595,47.0288],[13.1735,47.0375],[13.2261,47.0549],[13.2743,47.0838],[13.3082,47.0872],[13.4397,47.0625],[13.5618,47.0466],[13.6062,47.0442],[13.6672,47.0261],[13.7531,46.9806],[13.7823,46.9542],[13.8206,46.9878],[13.8637,47.0423],[13.8802,47.0727],[13.8799,47.1054],[13.9372,47.1506],[13.9317,47.1694],[13.9018,47.1839],[13.8608,47.222],[13.8482,47.2504],[13.7967,47.3021],[13.6941,47.2745],[13.6307,47.3056],[13.6045,47.3425],[13.5748,47.4099],[13.5652,47.4454],[13.5818,47.4864],[13.5242,47.5112],[13.4889,47.5358],[13.4791,47.5644],[13.5056,47.6029],[13.489,47.6415],[13.5256,47.7175],[13.5132,47.7354],[13.4581,47.7474],[13.4533,47.77],[13.5087,47.7732],[13.521,47.7835],[13.4976,47.7979],[13.3168,47.825],[13.2919,47.8406],[13.2713,47.9122],[13.2763,47.9523],[13.2953,47.9693],[13.3509,47.9655],[13.361,47.9806],[13.3029,48.0099],[13.2347,47.9889],[13.1389,47.9872],[13.0899,48.0003],[13.0359,48.0309],[12.9684,48.0316],[12.9375,48.0213],[12.9271,48.0018],[12.8482,47.9824],[12.8306,48.0155],[12.7602,48.0649],[12.737,48.1],[12.745,48.1206],[12.8221,48.1607],[12.8776,48.202],[12.933,48.2093],[13.0328,48.2636],[13.1364,48.2911],[13.2742,48.3071],[13.3078,48.3196],[13.4056,48.3766],[13.4382,48.441],[13.4364,48.4692],[13.4564,48.5067],[13.4401,48.561],[13.4546,48.5734],[13.5207,48.5846],[13.6244,48.5654],[13.6734,48.5355],[13.7165,48.5217],[13.7339,48.5598],[13.766,48.5638],[13.8024,48.6117],[13.8009,48.6752],[13.8169,48.6956],[13.7859,48.7248],[13.8157,48.7664],[13.7962,48.7798],[13.7247,48.8673],[13.6544,48.8822],[13.6218,48.9091],[13.6087,48.9462],[13.5905,48.9448],[13.5224,48.9693],[13.5021,48.9661],[13.4823,48.9376],[13.4273,48.96],[13.3842,48.993],[13.3724,49.0385],[13.2995,49.0936],[13.2673,49.1056],[13.2068,49.1075],[13.1785,49.1183],[13.1495,49.1548],[13.0558,49.2382],[13.0113,49.2678],[12.9998,49.2949],[12.9229,49.3327],[12.8847,49.3396],[12.8754,49.3239],[12.7978,49.3278],[12.7621,49.3432],[12.7293,49.3911],[12.6435,49.4295],[12.6272,49.4602],[12.623,49.5098],[12.5937,49.515],[12.5623,49.5508],[12.5536,49.5847],[12.502,49.6197],[12.4964,49.67],[12.4196,49.7002],[12.3836,49.7429],[12.3954,49.7579],[12.4527,49.7797],[12.4625,49.8312],[12.4825,49.8272],[12.5129,49.8702],[12.5241,49.905],[12.4627,49.9313],[12.4682,49.9702],[12.2469,50.045],[12.2325,50.0805],[12.1879,50.1028],[12.1792,50.118],[12.1827,50.1707],[12.1393,50.211],[12.0796,50.2427],[12.1091,50.2638],[12.1073,50.2909],[12.0761,50.3152],[12.1013,50.314],[12.1685,50.303],[12.178,50.2688],[12.243,50.253],[12.2325,50.2325],[12.2585,50.2109],[12.2834,50.1622],[12.3144,50.1673],[12.3056,50.1993],[12.3365,50.2586],[12.3672,50.2791],[12.3982,50.3152],[12.469,50.3456],[12.4751,50.3694],[12.5102,50.3888],[12.5505,50.3964],[12.6254,50.3999],[12.6788,50.3937],[12.7542,50.4353],[12.8258,50.4414],[12.9184,50.4054],[12.9606,50.4092],[12.9966,50.4337],[13.0096,50.4927],[13.0698,50.4911],[13.1074,50.499],[13.1601,50.497],[13.1991,50.5253],[13.2323,50.582],[13.2846,50.569],[13.3056,50.5758],[13.3219,50.6024],[13.381,50.6255],[13.407,50.6013],[13.4479,50.5973],[13.4982,50.6292],[13.4933,50.6432],[13.5233,50.6622],[13.5156,50.691],[13.5566,50.7067],[13.6019,50.7122],[13.6918,50.7118],[13.7491,50.7232],[13.8345,50.7237],[13.8822,50.7427],[13.8925,50.7804],[13.9233,50.78],[13.9596,50.8021],[14.0349,50.8026],[14.1908,50.8479],[14.2321,50.8794],[14.2681,50.8841],[14.3465,50.8802],[14.3759,50.896],[14.3819,50.9209],[14.3183,50.9375],[14.2928,50.9535],[14.3038,50.9697],[14.2383,50.9825],[14.2636,51.0214],[14.2875,51.0368],[14.3566,51.0323],[14.3978,51.0131],[14.4621,51.0197],[14.4821,51.0372],[14.4935,51.0167],[14.5423,50.9987],[14.5743,50.9755],[14.5756,50.9507],[14.5504,50.9121],[14.5618,50.9064],[14.6171,50.9209],[14.6346,50.9094],[14.6083,50.8531],[14.7004,50.816],[14.7754,50.813],[14.8104,50.8584],[14.8105,50.8771],[14.8602,50.9168],[14.9553,51.064],[14.9603,51.1046],[14.98,51.1228],[14.9832,51.1609],[15.0049,51.2156],[15.0221,51.2368],[15.0195,51.2717],[14.9638,51.3284],[14.9506,51.3965],[14.9451,51.4492],[14.911,51.469],[14.8414,51.4844],[14.7975,51.5021],[14.7322,51.5158],[14.7068,51.5408],[14.7127,51.5674],[14.7439,51.6066],[14.7423,51.633],[14.7195,51.6756],[14.6484,51.7172],[14.6342,51.769],[14.5858,51.8039],[14.5959,51.8424],[14.6533,51.8786],[14.6956,51.9315],[14.6973,51.9616],[14.6,52.02],[14.3,52.1],[13.95,52.08],[13.75,51.95],[13.55,51.75],[13.55,51.3634],[13.6144,51.3553],[13.5217,51.3669],[13.4577,51.407],[13.4108,51.4214],[13.2522,51.3852],[13.2194,51.4029],[13.1877,51.3852],[13.1739,51.4068],[13.1982,51.4328],[13.189,51.4762],[13.2105,51.4909],[13.196,51.5286],[13.1653,51.5453],[13.1715,51.5662],[13.1409,51.5854],[13.1011,51.5909],[13.0617,51.6151],[13.0823,51.6384],[13.1504,51.6729],[13.1816,51.7086],[13.1573,51.7485],[13.1635,51.789],[13.2368,51.8555],[13.1846,51.8621],[13.1608,51.8444],[13.1323,51.8576],[13.0662,51.8526],[12.9915,51.8816],[12.9512,51.9069],[12.8719,51.9129],[12.8441,51.9417],[12.7948,51.9462],[12.6668,51.9944],[12.6076,51.9654],[12.5615,51.9717],[12.5476,51.9779],[12.5,51.97],[12.4224,51.9021],[12.45,51.88],[12.3,52],[12.1,52.08],[11.9,52],[11.75,51.9],[11.8596,51.973],[11.74,52.02],[11.66,52.13],[11.7,52.23],[11.77,52.31],[11.9,52.45],[11.98,52.55],[12,52.67],[12.04,52.79],[12.04,52.86],[11.9795,52.8859],[11.9655,52.8852],[11.8967,52.9017],[11.8319,52.9282],[11.8444,52.946],[11.8158,52.9593],[11.8073,52.9603],[11.798,52.9676],[11.75,52.99],[11.7435,52.992],[11.6942,52.984],[11.6814,53.0106],[11.6696,53.0141],[11.6223,53.0224],[11.623,53.0281],[11.5802,53.041],[11.5619,53.01],[11.5813,53.0429],[11.4907,53.0607],[11.4609,53.0794],[11.4169,53.0809],[11.3656,53.064],[11.3276,53.0724],[11.2741,53.1175],[11.2963,53.1191],[11.3196,53.116],[11.3523,53.116],[11.3756,53.1098],[11.3943,53.1082],[11.399,53.1331],[11.4145,53.1378],[11.4472,53.1378],[11.5016,53.1191],[11.5281,53.1207],[11.5483,53.13],[11.5552,53.1461],[11.5509,53.1532],[11.5452,53.177],[11.5321,53.1877],[11.5295,53.1952],[11.5357,53.205],[11.5799,53.2296],[11.5996,53.2373],[11.6541,53.2497],[11.6884,53.2509],[11.7002,53.2484],[11.7319,53.2327],[11.7443,53.2156],[11.7645,53.2234],[11.7863,53.228],[11.8392,53.2265],[11.8361,53.2405],[11.816,53.2501],[11.8336,53.2555],[11.861,53.2514],[11.8843,53.2685],[11.9232,53.2799],[11.9401,53.2827],[11.959,53.2778],[11.9792,53.2902],[11.9963,53.298],[12.0119,53.2996],[12.0212,53.3151],[12.0228,53.3291],[12.0492,53.34],[12.0637,53.3561],[12.0954,53.3637],[12.1185,53.3669],[12.1284,53.3657],[12.1441,53.3553],[12.1593,53.3576],[12.1869,53.369],[12.2036,53.3664],[12.2264,53.3429],[12.2337,53.3408],[12.2965,53.3313],[12.3392,53.3163],[12.3693,53.3021],[12.3867,53.2907],[12.4152,53.281],[12.427,53.2704],[12.4458,53.2664],[12.4815,53.2679],[12.5122,53.2727],[12.6182,53.2563],[12.6373,53.2523],[12.6643,53.2357],[12.7062,53.2287],[12.731,53.228],[12.7397,53.2246],[12.7435,53.1987],[12.7534,53.1937],[12.7655,53.1929],[12.8095,53.1987],[12.8374,53.195],[12.8517,53.1877],[12.8823,53.1863],[12.906,53.1908],[12.9329,53.1909],[12.9492,53.1955],[12.9592,53.189],[12.944,53.1776],[12.9515,53.1711],[12.9754,53.165],[13.001,53.1677],[13.0263,53.183],[13.0471,53.198],[13.0764,53.2092],[13.1019,53.2229],[13.113,53.2408],[13.154,53.2593],[13.1681,53.2566],[13.1901,53.2365],[13.2024,53.2332],[13.2305,53.2332],[13.2365,53.2531],[13.2494,53.2712],[13.2662,53.2829],[13.2823,53.2878],[13.3085,53.2893],[13.3295,53.2867],[13.3699,53.2738],[13.3882,53.2709],[13.4058,53.2747],[13.4584,53.3002],[13.469,53.3023],[13.4935,53.3193],[13.5072,53.3424],[13.5259,53.3666],[13.5314,53.3854],[13.5389,53.3967],[13.553,53.4046],[13.5716,53.4105],[13.6071,53.4114],[13.6297,53.424],[13.6484,53.4443],[13.6985,53.47],[13.7,53.5],[13.72,53.6],[13.65,53.72],[13.5,53.7],[13.3,53.66],[13.1,53.72],[12.85,53.8],[12.95,53.92],[12.75,53.98],[12.55,54.1],[12.44,54.25],[12.42,54.38],[12.4153,54.4201],[11.9573,54.1965],[11.7432,54.157],[11.7288,54.1585],[11.6897,54.1552],[11.6579,54.1422],[11.6569,54.1411],[11.2047,54.0577],[10.9787,54.016],[10.9505,54.0108],[10.9389,54.0087],[10.9401,54.0474],[10.9222,54.0474],[10.9222,53.9614],[10.906,53.9612],[10.9042,53.9313],[10.9203,53.9205],[10.9605,53.9129],[10.9453,53.9052],[10.9129,53.9021],[10.9067,53.9053],[10.9073,53.9155],[10.8852,53.9191],[10.8613,53.9098],[10.8123,53.8827],[10.7726,53.8699],[10.7633,53.8651],[10.7513,53.8431],[10.753,53.8341],[10.7615,53.8225],[10.771,53.7933],[10.7674,53.7746],[10.7584,53.7519],[10.7609,53.7467],[10.7781,53.7458],[10.8059,53.7412],[10.8466,53.7085],[10.8655,53.6999],[10.8789,53.702],[10.9146,53.6968],[10.9381,53.6847],[10.9456,53.6771],[10.9465,53.6649],[10.955,53.6555],[10.956,53.6391],[10.9398,53.6287],[10.9406,53.6114],[10.9527,53.5844],[10.953,53.5737],[10.9423,53.5697],[10.9544,53.5661],[10.9381,53.5525],[10.929,53.5485],[10.9115,53.5714],[10.9036,53.5723],[10.8578,53.5682],[10.8414,53.5719],[10.8297,53.5701],[10.8324,53.5441],[10.8239,53.5313],[10.8204,53.5148],[10.8049,53.5094],[10.7602,53.4882],[10.7257,53.4811],[10.7082,53.4794],[10.7017,53.4755],[10.6945,53.4601],[10.6863,53.4568],[10.6611,53.4582],[10.6408,53.451],[10.6354,53.4452],[10.6272,53.4137],[10.6272,53.4015],[10.6222,53.391],[10.6012,53.3718],[10.6755,53.3737],[10.6953,53.3706],[10.62,53.33],[10.45,53.15],[10.15,52.98],[9.85,52.82],[9.5,52.68],[9.2,52.52],[9.1133,52.442],[9.0885,52.4197],[9.0885,52.4197],[9.0373,52.3735],[9.05,52.45],[9.0373,52.3735],[8.9,52.25],[8.55,52.1],[8.2679,52.006],[8.25,52],[8,51.94],[7.75,51.93],[7.55,51.88],[7.4269,51.8308],[7.45,51.9],[7.4269,51.8308],[7.35,51.8],[7.18,51.73],[6.96,51.67],[6.8049,51.6626],[6.7,51.75],[6.8049,51.6626],[6.75,51.66],[6.6,51.645]]],[[[9.0034,52.4655],[9.05,52.45],[9.0034,52.4655],[9.0034,52.4655]]]]}}
]}
