{"type":"FeatureCollection","features":[
{"type":"Feature","properties":{"entityId":"cordoba-caliphate","from":1000,"to":1031,"certainty":"estimated","source":"유럽 쪽은 Natural Earth 1:10m admin-1(v5.1.2) 현대 행정구역 조각을 그 시기 국경에 맞춰 묶고, 조각이 역사 경계와 다른 곳은 선을 그어 나눈 근사. 유럽 밖(시베리아·중앙아시아·극동)은 대략적인 추정. 운영자 검수 필요"},"geometry":{"type":"MultiPolygon","coordinates":[[[[-9.5277,38.738],[-9.5061,38.704],[-9.4247,38.5761],[-9.4122,38.5564],[-9.3953,38.5298],[-9.3443,38.4497],[-9.2865,38.3588],[-9.2108,38.343],[-9.0095,38.301],[-8.8401,38.2657],[-8.8203,38.1359],[-8.8771,37.9661],[-8.8948,37.9525],[-8.8668,37.9387],[-8.8221,37.8713],[-8.8214,37.868],[-8.8141,37.8326],[-8.8067,37.7972],[-8.817,37.7403],[-8.8087,37.7229],[-8.7946,37.7258],[-8.8002,37.6944],[-8.8265,37.6006],[-8.8184,37.5873],[-8.8157,37.4671],[-8.815,37.4371],[-8.8149,37.4308],[-8.825,37.407],[-8.8503,37.347],[-8.8828,37.3099],[-8.8739,37.2912],[-8.9075,37.2117],[-8.9227,37.1997],[-8.9185,37.1859],[-8.9265,37.1669],[-8.9752,37.0765],[-8.9856,37.0634],[-8.9896,37.0499],[-8.9985,37.0333],[-8.9983,37.0332],[-8.9985,37.0329],[-8.9949,37.0319],[-8.9979,37.0215],[-8.9829,37.0266],[-8.946,37.0079],[-8.8789,37.0472],[-8.8643,37.0424],[-8.8977,36.8698],[-8.8976,36.8698],[-8.8977,36.8694],[-8.8973,36.8695],[-8.8973,36.8694],[-8.3827,36.9794],[-7.8573,36.8389],[-7.8572,36.839],[-7.8569,36.8389],[-7.5462,37.0385],[-7.4617,37.0928],[-7.4538,37.0978],[-7.3772,37.0851],[-7.3349,37.078],[-7.2927,37.0709],[-7.2083,37.0569],[-6.8705,37.0004],[-6.5326,36.944],[-6.5217,36.9422],[-6.4844,36.8668],[-6.4567,36.8108],[-6.4429,36.7828],[-6.4291,36.7549],[-6.4333,36.7512],[-6.4315,36.7146],[-6.407,36.6767],[-6.3947,36.6369],[-6.3631,36.6213],[-6.2373,36.3667],[-5.8665,36.0299],[-5.5206,35.9713],[-5.4718,35.963],[-5.4718,35.9832],[-5.423,35.9832],[-5.423,36.0078],[-5.3255,36.0078],[-5.3255,35.9973],[-5.2767,36.0456],[-5.228,36.0938],[-5.2279,36.0939],[-5.1791,36.1421],[-5.1304,36.1903],[-5.1286,36.1921],[-5.0997,36.2207],[-5.0993,36.221],[-4.9948,36.3244],[-4.678,36.5033],[-4.6592,36.5076],[-4.615,36.5306],[-4.6069,36.5434],[-4.5448,36.5785],[-4.5248,36.5807],[-4.5165,36.5945],[-4.3684,36.6781],[-4.0717,36.6723],[-3.8493,36.668],[-3.8215,36.6674],[-3.7937,36.6669],[-3.7659,36.6663],[-3.7381,36.6658],[-3.6269,36.6636],[-3.4148,36.6595],[-3.4144,36.6595],[-3.1821,36.662],[-3.0709,36.6632],[-2.9597,36.6643],[-2.7373,36.6667],[-2.1472,36.673],[-1.8477,36.9983],[-1.6098,37.2566],[-1.5817,37.2871],[-1.5293,37.3441],[-1.4768,37.4011],[-1.438,37.4432],[-1.4029,37.4525],[-0.9582,37.5699],[-0.9252,37.5559],[-0.8757,37.5757],[-0.8661,37.5764],[-0.8364,37.5764],[-0.8272,37.5793],[-0.8224,37.5797],[-0.772,37.5953],[-0.7673,37.5985],[-0.764,37.5996],[-0.7279,37.6034],[-0.7053,37.6195],[-0.7072,37.6362],[-0.682,37.6429],[-0.6471,37.7478],[-0.6286,37.8036],[-0.61,37.8594],[-0.5359,38.0825],[-0.466,38.2928],[-0.1606,38.5289],[-0.1317,38.5353],[-0.0902,38.5353],[-0.06,38.5527],[-0.0563,38.5828],[-0.052,38.5848],[0.0237,38.6297],[0.0604,38.6348],[0.083,38.661],[0.1257,38.6855],[0.145,38.6863],[0.1626,38.7135],[0.1921,38.7304],[0.2277,38.7346],[0.2179,38.7681],[0.1786,38.7915],[0.1744,38.7979],[0.1853,38.8035],[0.154,38.831],[0.111,38.8499],[0.06,38.8583],[0.023,38.871],[0.0188,38.8725],[0.0052,38.8925],[-0.014,38.9208],[-0.0298,38.944],[-0.088,39.0296],[-0.1695,39.1495],[-0.2787,39.3102],[-0.2169,39.4408],[-0.148,39.5865],[-0.1136,39.6593],[-0.0963,39.6957],[-0.0791,39.7321],[0.0587,40.0234],[0.0662,40.0319],[0.117,40.0563],[0.1445,40.0788],[0.1728,40.122],[0.2485,40.1993],[0.2647,40.2098],[0.2988,40.2468],[0.3506,40.2849],[0.4203,40.3883],[0.4461,40.4084],[0.4513,40.4288],[0.4654,40.4469],[0.4977,40.4759],[0.5442,40.5178],[0.5553,40.5277],[0.5913,40.5601],[0.6024,40.5701],[0.6159,40.5535],[0.6771,40.5652],[0.707,40.5834],[0.7564,40.6422],[0.7624,40.6463],[0.8167,40.6683],[0.8483,40.6754],[0.8546,40.6837],[0.8588,40.6854],[0.8912,40.7219],[0.891,40.7221],[0.8912,40.7223],[0.7976,40.8039],[0.7582,40.813],[0.7705,40.8589],[0.7926,40.8762],[0.8156,40.892],[1.0133,41.0477],[1.149,41.0701],[1.1836,41.0626],[1.196,41.0779],[1.5509,41.1364],[1.5953,41.1438],[1.6397,41.1511],[1.6397,41.1957],[1.6244,41.1922],[1.6278,41.218],[1.5739,41.2344],[1.6055,41.259],[1.6086,41.2885],[1.5861,41.301],[1.5661,41.3341],[1.5596,41.3663],[1.5368,41.3852],[1.4853,41.4075],[1.4719,41.4266],[1.4828,41.4766],[1.4047,41.5067],[1.3974,41.5213],[1.4277,41.5524],[1.4311,41.574],[1.3927,41.575],[1.3718,41.5654],[1.2078,41.5723],[1.178,41.5445],[1.1702,41.4954],[1.1574,41.4802],[1.1172,41.4725],[1.073,41.4827],[1.062,41.4516],[1.0237,41.4063],[0.9895,41.3983],[0.9577,41.3545],[0.879,41.342],[0.8335,41.3585],[0.805,41.3313],[0.7585,41.3313],[0.7364,41.3184],[0.6208,41.2987],[0.5619,41.3239],[0.5314,41.2928],[0.5098,41.2885],[0.4728,41.3283],[0.4381,41.3248],[0.4332,41.2761],[0.3858,41.2789],[0.3604,41.2328],[0.3524,41.2792],[0.3773,41.3214],[0.3517,41.3625],[0.3273,41.3701],[0.3383,41.4059],[0.3485,41.4721],[0.4004,41.4965],[0.4412,41.5461],[0.424,41.5929],[0.3652,41.5983],[0.3481,41.6152],[0.3285,41.6774],[0.406,41.753],[0.4542,41.7625],[0.4966,41.8088],[0.5422,41.8267],[0.5976,41.8744],[0.5896,41.9186],[0.5672,41.9327],[0.5762,41.9513],[0.6425,41.9923],[0.6843,42.09],[0.7031,42.1203],[0.7035,42.1679],[0.7194,42.2268],[0.7417,42.264],[0.7457,42.3],[-0.735,42.3],[-0.7401,42.3753],[-0.7554,42.3917],[-0.7802,42.3919],[-0.7727,42.345],[-0.7958,42.3],[-0.898,42.3],[-0.9225,42.2716],[-0.8389,42.3687],[-0.8423,42.4075],[-0.8982,42.4326],[-0.8888,42.4718],[-0.8968,42.4943],[-0.9048,42.6131],[-0.9247,42.6464],[-0.8845,42.6691],[-0.883,42.6888],[-0.9092,42.7069],[-0.9044,42.7426],[-0.9771,42.7057],[-1.0246,42.6961],[-1.0445,42.65],[-1.145,42.6414],[-1.1533,42.6054],[-1.185,42.5846],[-1.2053,42.5581],[-1.2574,42.5532],[-1.2845,42.5166],[-1.2727,42.4876],[-1.342,42.4148],[-1.3504,42.3868],[-1.3345,42.3499],[-1.384,42.3004],[-1.4164,42.2206],[-1.3966,42.178],[-1.3942,42.1276],[-1.3507,42.0727],[-1.3239,42.0673],[-1.316,42.0371],[-1.3612,41.9838],[-1.3831,41.9437],[-1.4193,41.9089],[-1.4833,41.9222],[-1.5559,41.9116],[-1.6219,41.9512],[-1.6572,41.9622],[-1.6946,41.9533],[-1.7236,41.9606],[-1.7766,41.993],[-1.8524,42.0012],[-1.8445,41.982],[-1.8577,41.9548],[-1.8516,41.9061],[-1.816,41.8517],[-1.8459,41.7907],[-1.8085,41.7375],[-1.7855,41.7193],[-1.8073,41.6704],[-1.894,41.6294],[-1.9235,41.603],[-1.9695,41.6077],[-1.9883,41.5955],[-1.9759,41.5427],[-1.9787,41.5076],[-1.9528,41.4578],[-1.9459,41.4155],[-2.0141,41.3881],[-2.0408,41.3947],[-2.0521,41.435],[-2.0997,41.4426],[-2.1196,41.4237],[-2.128,41.3768],[-2.1662,41.346],[-2.1733,41.2946],[-2.1592,41.2692],[-2.1491,41.1939],[-2.1382,41.1815],[-2.0837,41.1719],[-2.0532,41.1504],[-2.0573,41.085],[-2.0729,41.0789],[-2.129,41.1165],[-2.1776,41.0907],[-2.237,41.089],[-2.2884,41.0675],[-2.3269,41.0652],[-2.3645,41.0807],[-2.4092,41.065],[-2.4676,41.0861],[-2.4814,41.1138],[-2.5056,41.1247],[-2.5321,41.1572],[-2.5863,41.1496],[-2.5848,41.1794],[-2.61,41.1917],[-2.586,41.2155],[-2.6395,41.2349],[-2.7092,41.2525],[-2.7281,41.2728],[-2.7813,41.261],[-2.8441,41.2679],[-2.8639,41.2787],[-2.8796,41.3146],[-2.9097,41.3221],[-2.944,41.2991],[-2.9823,41.2872],[-3.0838,41.2808],[-3.1988,41.3012],[-3.3326,41.3771],[-3.3456,41.405],[-3.3369,41.448],[-3.3485,41.4611],[-3.4147,41.4796],[-3.4244,41.5122],[-3.4565,41.5304],[-3.4828,41.5228],[-3.5235,41.5407],[-3.5417,41.5778],[-3.5729,41.5654],[-3.6233,41.5736],[-3.6728,41.5592],[-3.7296,41.505],[-3.7291,41.4577],[-3.7699,41.4601],[-3.786,41.5021],[-3.8358,41.4999],[-3.889,41.5471],[-3.9806,41.5832],[-3.9915,41.5402],[-4.0149,41.5139],[-4.1338,41.48],[-4.1663,41.4775],[-4.2524,41.452],[-4.3242,41.451],[-4.365,41.4388],[-4.4075,41.4419],[-4.4865,41.4089],[-4.5149,41.4096],[-4.4961,41.364],[-4.4956,41.3411],[-4.4714,41.2916],[-4.5342,41.3194],[-4.5575,41.3025],[-4.597,41.3207],[-4.607,41.298],[-4.5791,41.2788],[-4.6508,41.2216],[-4.6505,41.1999],[-4.7015,41.155],[-4.7941,41.136],[-4.8367,41.104],[-4.8853,41.106],[-4.9747,41.1553],[-5.0187,41.1584],[-5.0599,41.1385],[-5.0937,41.1439],[-5.1251,41.132],[-5.1515,41.0833],[-5.1472,41.0502],[-5.1111,41.0349],[-5.0958,41.0017],[-5.104,40.9738],[-5.1275,40.9542],[-5.1114,40.9148],[-5.1625,40.8681],[-5.1615,40.8185],[-5.1796,40.7929],[-5.2175,40.7724],[-5.2439,40.74],[-5.363,40.6744],[-5.3855,40.6197],[-5.4474,40.5865],[-5.5173,40.5829],[-5.5118,40.5483],[-5.4365,40.5478],[-5.4596,40.4797],[-5.4784,40.4601],[-5.5154,40.4557],[-5.5091,40.4286],[-5.5346,40.4184],[-5.5733,40.4481],[-5.5752,40.4668],[-5.617,40.4677],[-5.6877,40.4246],[-5.6927,40.4046],[-5.6747,40.3714],[-5.6804,40.3474],[-5.7277,40.294],[-5.7624,40.2844],[-5.7918,40.296],[-5.7816,40.3234],[-5.8133,40.3408],[-5.8818,40.3175],[-5.9037,40.2843],[-5.9255,40.2815],[-5.9876,40.3032],[-6.023,40.3278],[-6.0963,40.3576],[-6.0691,40.3963],[-6.2067,40.4776],[-6.2462,40.4753],[-6.2802,40.456],[-6.3231,40.4463],[-6.3627,40.4104],[-6.4213,40.3934],[-6.4423,40.3759],[-6.5155,40.3524],[-6.558,40.3216],[-6.5561,40.2871],[-6.5851,40.272],[-6.655,40.262],[-6.6886,40.2497],[-6.7176,40.2589],[-6.7588,40.2448],[-6.8147,40.2444],[-6.8745,40.2792],[-6.8639,40.301],[-6.812,40.3323],[-6.7944,40.3564],[-6.8281,40.3806],[-6.8513,40.4095],[-6.8571,40.4421],[-6.8153,40.5025],[-6.8181,40.5319],[-6.8484,40.5648],[-6.8445,40.5978],[-6.8143,40.6472],[-6.8162,40.6772],[-6.837,40.7433],[-6.8367,40.8402],[-6.8203,40.8442],[-6.8212,40.8701],[-6.847,40.8789],[-6.8852,40.9489],[-6.9306,40.9921],[-6.9425,41.016],[-6.9274,41.0481],[-6.9871,41.0527],[-7.0753,41.0867],[-7.099,41.124],[-7.0927,41.1491],[-7.1263,41.1643],[-7.1126,41.1922],[-7.1701,41.1576],[-7.2225,41.1643],[-7.3007,41.1593],[-7.3597,41.1661],[-7.4022,41.2075],[-7.4323,41.216],[-7.5502,41.1828],[-7.5968,41.1778],[-7.6586,41.1801],[-7.7021,41.1594],[-7.7379,41.1526],[-7.774,41.1571],[-7.8097,41.1819],[-7.8433,41.1844],[-7.896,41.1591],[-7.9402,41.138],[-8.0621,41.1059],[-8.1902,41.1091],[-8.2902,41.0834],[-8.2978,41.0696],[-8.3462,41.044],[-8.3923,41.0397],[-8.3863,41.0162],[-8.4157,41.0226],[-8.4481,41.0555],[-8.4768,41.0212],[-8.4946,41.0166],[-8.5261,41.0322],[-8.5855,41.0151],[-8.6019,41.0231],[-8.6552,41.0167],[-8.6569,41.0283],[-8.7818,41.0283],[-8.7761,40.9176],[-8.7681,40.7609],[-8.8162,40.6225],[-8.8419,40.5487],[-8.8675,40.4749],[-8.9188,40.3273],[-8.9701,40.1798],[-8.9769,40.1601],[-8.9865,40.106],[-8.9997,40.0322],[-9.0489,39.7556],[-9.0693,39.737],[-9.3934,39.4419],[-9.4485,39.3917],[-9.4603,39.2943],[-9.4693,39.2205],[-9.4782,39.1467],[-9.514,38.8516],[-9.5277,38.7384],[-9.5277,38.738]],[[-1.1945,42.4243],[-1.1639,42.4409],[-1.1581,42.426],[-1.1904,42.4028],[-1.1945,42.4243]],[[-1.1342,42.4467],[-1.1061,42.483],[-1.0672,42.4458],[-1.0755,42.4326],[-1.1342,42.4467]]],[[[1.2122,38.9032],[1.2166,38.8851],[1.2599,38.8579],[1.2666,38.8703],[1.3003,38.8705],[1.3078,38.8579],[1.3435,38.8624],[1.3707,38.8318],[1.4031,38.8323],[1.4081,38.8575],[1.4092,38.8574],[1.4092,38.8575],[1.4096,38.8574],[1.4408,38.91],[1.445,38.9132],[1.4587,38.9001],[1.5098,38.9302],[1.5412,38.9678],[1.5762,38.9858],[1.586,39.0055],[1.6103,39.0254],[1.6231,39.0292],[1.621,39.0342],[1.6256,39.0379],[1.6255,39.0382],[1.6256,39.0383],[1.6148,39.0869],[1.5644,39.1217],[1.5641,39.1216],[1.564,39.1217],[1.5393,39.1171],[1.5371,39.118],[1.5292,39.1153],[1.4596,39.1024],[1.4507,39.1018],[1.4474,39.1001],[1.348,39.0817],[1.3214,39.0531],[1.2928,39.0333],[1.2992,38.9824],[1.2544,38.9741],[1.2505,38.9658],[1.2368,38.9652],[1.2122,38.9032]]],[[[1.3828,38.7116],[1.3829,38.6421],[1.4128,38.6464],[1.4455,38.6716],[1.478,38.6716],[1.5234,38.6494],[1.5814,38.6531],[1.5774,38.6628],[1.5932,38.6716],[1.5932,38.7016],[1.496,38.712],[1.4348,38.7693],[1.4347,38.7691],[1.4344,38.7693],[1.4164,38.7397],[1.4078,38.7231],[1.3828,38.7116]]],[[[2.3556,39.5587],[2.3919,39.5237],[2.4373,39.5337],[2.4568,39.531],[2.4736,39.51],[2.469,39.5059],[2.4927,39.4702],[2.5202,39.4728],[2.5449,39.493],[2.5629,39.5217],[2.576,39.531],[2.6335,39.5552],[2.7016,39.5414],[2.7448,39.5101],[2.7496,39.4909],[2.7366,39.4621],[2.7512,39.4548],[2.7617,39.4002],[2.7866,39.3759],[2.8255,39.3636],[2.9126,39.3587],[2.9212,39.3595],[2.997,39.3306],[3.0013,39.3177],[3.0293,39.3046],[3.0608,39.2691],[3.1294,39.3157],[3.221,39.3599],[3.2526,39.3862],[3.2688,39.4276],[3.2825,39.4201],[3.2918,39.4758],[3.2947,39.4802],[3.3324,39.5314],[3.406,39.592],[3.3987,39.6077],[3.4,39.6101],[3.4148,39.6264],[3.4228,39.6385],[3.4432,39.6458],[3.4675,39.6876],[3.4744,39.7497],[3.4527,39.7511],[3.4508,39.7623],[3.3968,39.7779],[3.3428,39.7866],[3.3424,39.7866],[3.2418,39.7571],[3.1449,39.79],[3.1592,39.8365],[3.1875,39.8577],[3.1931,39.8596],[3.2068,39.893],[3.198,39.8911],[3.1664,39.9081],[3.1664,39.9233],[3.1823,39.942],[3.2036,39.9492],[3.1946,39.9565],[3.1988,39.9615],[3.1985,39.9616],[3.1988,39.9619],[3.184,39.9652],[3.1795,39.9688],[3.1745,39.9672],[3.1592,39.9706],[3.1588,39.9706],[2.9032,39.9081],[2.8248,39.8726],[2.8132,39.8726],[2.7756,39.8492],[2.7412,39.8291],[2.7039,39.8142],[2.6782,39.7924],[2.6399,39.7701],[2.6314,39.7701],[2.6259,39.7619],[2.5215,39.7011],[2.5176,39.7001],[2.5122,39.6957],[2.4223,39.6433],[2.3577,39.6119],[2.3556,39.5587]]],[[[3.8034,40.0132],[3.8435,39.9882],[3.8428,39.9758],[3.8428,39.9754],[3.846,39.9732],[3.8307,39.9361],[3.8693,39.9255],[3.9413,39.9368],[4.0151,39.9258],[4.1772,39.8433],[4.2481,39.8165],[4.3001,39.8218],[4.3016,39.858],[4.3137,39.8812],[4.3371,39.8672],[4.3208,39.895],[4.322,39.8973],[4.3219,39.8975],[4.322,39.8977],[4.3148,39.9168],[4.2997,39.9363],[4.298,39.942],[4.2949,39.9426],[4.2717,39.9726],[4.2546,39.9975],[4.2518,39.9982],[4.2248,40.0331],[4.178,40.0449],[4.1765,40.0592],[4.1663,40.0478],[4.1224,40.0588],[4.1051,40.0794],[4.0801,40.0694],[4.0592,40.0747],[4.0588,40.0747],[3.8536,40.0626],[3.8508,40.0526],[3.8219,40.0476],[3.8034,40.0132]]]]}}
]}
