{"type":"FeatureCollection","features":[
{"type":"Feature","properties":{"entityId":"courland","from":1600,"to":1795,"certainty":"estimated","source":"유럽 쪽은 Natural Earth 1:10m admin-1(v5.1.2) 현대 행정구역 조각을 그 시기 국경에 맞춰 묶고, 조각이 역사 경계와 다른 곳은 선을 그어 나눈 근사. 유럽 밖(시베리아·중앙아시아·극동)은 대략적인 추정. 운영자 검수 필요"},"geometry":{"type":"Polygon","coordinates":[[[21.9653,56.3837],[21.7365,56.3237],[21.6845,56.3101],[21.596,56.3079],[21.5589,56.2973],[21.4855,56.2658],[21.4193,56.2374],[21.3583,56.2332],[21.3276,56.2244],[21.2904,56.2069],[21.2549,56.1852],[21.2296,56.1632],[21.2126,56.131],[21.2054,56.1034],[21.1904,56.0845],[21.1502,56.0782],[21.0914,56.0779],[21.0534,56.0726],[21.0427,56.1146],[21.0377,56.1263],[21.0288,56.1474],[20.9841,56.2104],[20.9734,56.232],[20.971,56.2597],[20.9827,56.2908],[20.9815,56.3105],[20.971,56.3498],[20.9706,56.389],[20.9925,56.4179],[21.0054,56.4459],[21.0055,56.4655],[21.0106,56.4757],[21.0033,56.4926],[21.0005,56.5106],[21.0064,56.52],[21.0243,56.5105],[21.0268,56.5063],[21.0277,56.5248],[21.0031,56.53],[20.9963,56.5378],[20.9922,56.5489],[21.0003,56.5577],[21.0105,56.5987],[21.0206,56.615],[21.0329,56.6349],[21.033,56.6362],[21.0636,56.7812],[21.0527,56.8289],[21.0652,56.8463],[21.1472,56.8764],[21.1567,56.8856],[21.174,56.8914],[21.2305,56.9639],[21.2588,57.0001],[21.2588,57.0002],[21.2871,57.0364],[21.2942,57.0455],[21.4143,57.1996],[21.4126,57.2501],[21.4214,57.2887],[21.4495,57.32],[21.4615,57.3253],[21.4978,57.3589],[21.5115,57.3787],[21.5178,57.3876],[21.5666,57.4227],[21.6251,57.4768],[21.6992,57.5553],[21.7297,57.5738],[21.7717,57.5861],[21.8792,57.5901],[21.9438,57.5979],[22.2098,57.6621],[22.4837,57.7425],[22.4946,57.7438],[22.5234,57.7543],[22.5235,57.7542],[22.5238,57.7543],[22.5302,57.7483],[22.5491,57.7506],[22.5858,57.7597],[22.6104,57.7546],[22.6003,57.7438],[22.5915,57.6906],[22.6213,57.6626],[22.6553,57.6306],[22.6888,57.5992],[22.7445,57.5468],[22.7905,57.5228],[22.8789,57.4813],[22.9093,57.4607],[23.0386,57.3931],[23.0408,57.3916],[23.0833,57.3782],[23.1175,57.3739],[23.1302,57.3708],[23.138,57.3432],[23.1602,57.3186],[23.1824,57.2777],[23.1976,57.228],[23.2011,57.2224],[23.2224,57.207],[23.2325,57.1739],[23.2859,57.091],[23.2927,57.0889],[23.2974,57.0859],[23.4432,57.0381],[23.5086,57.0312],[23.5208,57.0256],[23.5393,57.0117],[23.5685,57.0124],[23.5978,57.0132],[23.6271,57.0139],[23.6564,57.0146],[23.7736,57.0176],[23.8908,57.0206],[23.9201,57.0213],[23.9201,57.0045],[23.9269,57.0063],[23.9343,56.997],[23.9545,56.9914],[23.9928,56.9845],[24.001,56.9793],[23.9886,56.9647],[23.9492,56.9468],[23.9427,56.9387],[23.9715,56.9332],[24.0024,56.9237],[24.0266,56.9196],[24.0403,56.91],[24.0621,56.8984],[24.0663,56.8861],[24.0708,56.8725],[24.0881,56.8761],[24.0994,56.8785],[24.1123,56.8926],[24.1554,56.9024],[24.197,56.8821],[24.1768,56.8675],[24.1893,56.8515],[24.2179,56.8282],[24.259,56.8246],[24.3109,56.8246],[24.342,56.8511],[24.3862,56.8421],[24.444,56.8377],[24.4578,56.8375],[24.4759,56.8322],[24.5053,56.8185],[24.5127,56.8171],[24.523,56.7953],[24.537,56.7775],[24.5331,56.7592],[24.5255,56.7524],[24.5219,56.7136],[24.5561,56.707],[24.6009,56.707],[24.6341,56.6769],[24.5897,56.661],[24.5997,56.6207],[24.6299,56.6015],[24.6568,56.5998],[24.6614,56.5883],[24.6972,56.5762],[24.6713,56.5668],[24.6571,56.5436],[24.7325,56.5442],[24.95,56.5786],[25.0422,56.59],[25.0568,56.6013],[25.0495,56.612],[25.0802,56.6215],[25.1181,56.6244],[25.1386,56.6191],[25.1631,56.6129],[25.2153,56.5889],[25.2354,56.5856],[25.2934,56.5911],[25.3302,56.5976],[25.3984,56.6307],[25.4231,56.6273],[25.4648,56.6129],[25.4955,56.6118],[25.4936,56.5891],[25.509,56.5788],[25.5698,56.5767],[25.6015,56.5789],[25.6467,56.5964],[25.6883,56.6008],[25.744,56.6173],[25.7569,56.6123],[25.7561,56.592],[25.7481,56.5664],[25.7692,56.5541],[25.7869,56.5303],[25.8264,56.5272],[25.8207,56.4868],[25.8452,56.4779],[25.8831,56.4757],[25.8766,56.4953],[26.0553,56.4514],[26.0885,56.4064],[26.1089,56.4059],[26.157,56.3803],[26.1638,56.3425],[26.1843,56.3155],[26.1843,56.2909],[26.1979,56.2841],[26.189,56.2347],[26.1935,56.2261],[26.2643,56.2108],[26.3008,56.1833],[26.3283,56.1627],[26.3407,56.1342],[26.3453,56.0935],[26.357,56.0554],[26.3696,56.0438],[26.3655,56.0217],[26.393,55.9777],[26.3726,55.9538],[26.3378,55.9654],[26.2915,55.9406],[26.2865,55.924],[26.3196,55.9075],[26.2766,55.881],[26.3362,55.8397],[26.3494,55.8099],[26.2584,55.8049],[26.2269,55.7969],[26.1786,55.8496],[26.0794,55.8981],[26.0176,55.9374],[25.9613,55.9585],[25.8713,55.9921],[25.7955,56.0401],[25.7663,56.0586],[25.7088,56.081],[25.6878,56.0983],[25.6619,56.1408],[25.6497,56.1438],[25.59,56.1411],[25.5228,56.1566],[25.4548,56.1496],[25.3491,56.1599],[25.1092,56.1831],[25.0731,56.1978],[25.044,56.228],[25.0262,56.2602],[24.9832,56.2905],[24.9621,56.3193],[24.9363,56.3799],[24.9101,56.422],[24.8923,56.4387],[24.871,56.4426],[24.8377,56.4039],[24.8055,56.4085],[24.6786,56.3773],[24.6391,56.36],[24.5728,56.3098],[24.539,56.2876],[24.4472,56.2605],[24.4144,56.2655],[24.3508,56.2916],[24.3185,56.2986],[24.2876,56.2955],[24.1668,56.2603],[24.1404,56.2576],[24.0752,56.2712],[23.9813,56.3124],[23.8711,56.3321],[23.825,56.3349],[23.7561,56.326],[23.725,56.3288],[23.7067,56.3544],[23.6099,56.3538],[23.5176,56.3287],[23.4816,56.3301],[23.378,56.3546],[23.3106,56.3706],[23.2884,56.373],[23.1726,56.358],[23.1542,56.3514],[23.1629,56.341],[23.1127,56.3109],[23.0623,56.3042],[23.0167,56.3239],[22.957,56.402],[22.9245,56.4121],[22.889,56.4084],[22.8596,56.3971],[22.8229,56.3829],[22.6814,56.3503],[22.6491,56.3531],[22.5782,56.387],[22.5117,56.396],[22.2149,56.3904],[22.1391,56.4157],[22.0941,56.4174],[21.9832,56.3884],[21.9653,56.3837]]]}}
]}
