{"type":"FeatureCollection","features":[
{"type":"Feature","properties":{"entityId":"crimean-scythia","from":-149,"to":256,"certainty":"estimated","source":"유럽 쪽은 Natural Earth 1:10m admin-1(v5.1.2) 현대 행정구역 조각을 그 시기 국경에 맞춰 묶고, 조각이 역사 경계와 다른 곳은 선을 그어 나눈 근사. 유럽 밖(시베리아·중앙아시아·극동)은 대략적인 추정. 운영자 검수 필요"},"geometry":{"type":"Polygon","coordinates":[[[32.4523,45.3271],[33.036,45.1709],[33.3278,45.0929],[33.4737,45.0538],[33.5465,45.0343],[33.5403,45.021],[33.4815,44.8954],[33.5293,44.8954],[33.5293,44.8462],[33.5573,44.8462],[33.5573,44.8441],[33.5705,44.8525],[33.5808,44.8193],[33.6173,44.8163],[33.6745,44.7916],[33.6893,44.7542],[33.6114,44.7206],[33.6252,44.6614],[33.7091,44.6664],[33.7505,44.624],[33.713,44.5816],[33.7298,44.5539],[33.7692,44.5559],[33.7771,44.5322],[33.8057,44.5273],[33.8521,44.4316],[33.786,44.4247],[33.7653,44.406],[33.73,44.398],[33.7869,44.3956],[33.8815,44.3606],[33.8817,44.3607],[33.8819,44.3606],[33.9,44.3683],[33.9354,44.3834],[33.9579,44.383],[34.0658,44.4196],[34.1026,44.4251],[34.1475,44.4499],[34.1668,44.4735],[34.2082,44.4967],[34.2298,44.4999],[34.2452,44.5156],[34.3122,44.5442],[34.3228,44.5435],[34.3361,44.5544],[34.9523,44.8172],[35.0284,44.8093],[35.0376,44.7988],[35.0808,44.7938],[35.1084,44.8249],[35.1299,44.8606],[35.1564,44.8969],[35.1813,44.907],[35.2151,44.9144],[35.2244,44.9245],[35.276,44.9454],[35.344,44.9562],[35.3672,44.9433],[35.3653,44.9596],[35.6,44.997],[35.6,45.12],[35.45,45.1],[35.45,45.4394],[35.3052,45.5105],[35.1136,45.6046],[35.1054,45.6134],[35.0232,45.7011],[35.0135,45.7159],[35.0131,45.7205],[35.008,45.7205],[35.0019,45.729],[34.9523,45.722],[34.8707,45.7733],[34.81,45.785],[34.789,45.8037],[34.7843,45.8993],[34.7633,45.932],[34.6886,45.974],[34.642,45.981],[34.5696,45.9763],[34.53,45.981],[34.5043,45.9507],[34.4646,45.9553],[34.4109,45.988],[34.3619,46.0557],[34.3339,46.0697],[34.3013,46.0697],[34.2359,46.0977],[34.2009,46.1],[34.1612,46.0907],[34.1052,46.0954],[34.0259,46.1164],[33.8462,46.1957],[33.8019,46.2027],[33.7552,46.1934],[33.7157,46.1957],[33.6703,46.2181],[33.6616,46.2102],[33.6715,46.173],[33.6604,46.1482],[33.6285,46.1249],[33.632,46.1187],[33.5855,46.1187],[33.5855,45.9969],[33.54,45.9969],[33.54,45.9579],[33.4945,45.9579],[33.4945,45.9608],[33.449,45.9608],[33.4945,45.9247],[33.5018,45.9189],[33.5476,45.8825],[33.4945,45.8532],[33.4911,45.8513],[33.4822,45.8545],[33.41,45.8266],[33.3864,45.8067],[33.2803,45.7654],[33.217,45.7581],[33.1692,45.7844],[33.1592,45.7685],[33.181,45.7552],[33.1798,45.7539],[33.1435,45.7497],[33.0247,45.6911],[32.9368,45.6625],[32.8682,45.6301],[32.8361,45.5981],[32.8267,45.5935],[32.7986,45.5769],[32.7629,45.5644],[32.7578,45.5646],[32.7509,45.5602],[32.6323,45.5188],[32.6263,45.5124],[32.5252,45.4582],[32.4951,45.4355],[32.4816,45.4089],[32.4971,45.3751],[32.4523,45.3275],[32.4526,45.3274],[32.4523,45.3271]]]}}
]}
