{"type":"FeatureCollection","features":[
{"type":"Feature","properties":{"entityId":"croatia-ndh","from":1941,"to":1945,"certainty":"estimated","source":"유럽 쪽은 Natural Earth 1:10m admin-1(v5.1.2) 현대 행정구역 조각을 그 시기 국경에 맞춰 묶고, 조각이 역사 경계와 다른 곳은 선을 그어 나눈 근사. 유럽 밖(시베리아·중앙아시아·극동)은 대략적인 추정. 운영자 검수 필요"},"geometry":{"type":"MultiPolygon","coordinates":[[[[14.2777,45.128],[14.2874,45.1011],[14.3161,45.0766],[14.3405,45.0202],[14.3405,44.9807],[14.303,44.9428],[14.3015,44.9434],[14.3009,44.9407],[14.3009,44.9406],[14.2942,44.9086],[14.3141,44.8938],[14.3298,44.8339],[14.3544,44.8201],[14.3648,44.8004],[14.3745,44.7539],[14.3894,44.7524],[14.3961,44.734],[14.3945,44.7076],[14.4279,44.6566],[14.473,44.6203],[14.5204,44.6215],[14.5139,44.6622],[14.4778,44.7019],[14.4724,44.7135],[14.4739,44.7545],[14.4615,44.7795],[14.4593,44.8018],[14.4666,44.8048],[14.4555,44.8396],[14.4525,44.8694],[14.4626,44.9401],[14.471,44.9539],[14.4661,44.9837],[14.4467,44.9873],[14.3949,45.031],[14.3697,45.0814],[14.3636,45.1302],[14.3641,45.1576],[14.3593,45.1646],[14.3589,45.1682],[14.3585,45.1682],[14.3571,45.168],[14.3562,45.1693],[14.3137,45.1724],[14.295,45.1494],[14.2865,45.1456],[14.2866,45.1453],[14.2865,45.1452],[14.2883,45.1411],[14.2777,45.128]]],[[[14.335,45.2151],[14.5334,45.1666],[14.5213,45.1488],[14.5227,45.1465],[14.4897,45.1279],[14.4671,45.1241],[14.4652,45.1142],[14.4377,45.0987],[14.4379,45.0984],[14.4377,45.0983],[14.4407,45.093],[14.4251,45.0873],[14.4601,45.0524],[14.5105,45.0322],[14.5907,45.0233],[14.5997,45.0268],[14.6141,45.0254],[14.6282,44.9949],[14.6289,44.9782],[14.6824,44.9584],[14.6861,44.956],[14.6864,44.9561],[14.6865,44.956],[14.6882,44.9563],[14.7234,44.9433],[14.7568,44.9487],[14.7487,44.9666],[14.8089,44.9768],[14.815,44.9775],[14.7998,45.0052],[14.7744,45.0218],[14.7405,45.0657],[14.7404,45.0658],[14.7405,45.0731],[14.7283,45.0732],[14.7009,45.09],[14.6669,45.1318],[14.6676,45.1339],[14.8374,45.0924],[14.8553,45.081],[14.8598,45.0713],[14.9022,44.9791],[14.9057,44.9717],[14.8937,44.8869],[14.8838,44.8615],[14.8838,44.7888],[14.8895,44.7626],[14.8923,44.733],[14.8838,44.7236],[14.9014,44.6902],[15.0013,44.5785],[15.0444,44.5553],[15.1305,44.4894],[15.155,44.4667],[15.2938,44.3648],[15.308,44.3544],[15.3562,44.3378],[15.3771,44.3186],[15.3307,44.3014],[15.3086,44.3093],[15.2612,44.3326],[15.3027,44.2991],[15.2883,44.2897],[15.2838,44.2897],[15.2448,44.2772],[15.1981,44.3017],[15.2078,44.2728],[15.2073,44.2724],[15.183,44.2724],[15.1653,44.2679],[15.1576,44.2803],[15.1104,44.2644],[15.1219,44.2564],[15.1218,44.2564],[15.1573,44.2098],[15.1445,44.1955],[15.2127,44.1483],[15.2129,44.131],[15.2783,44.0856],[15.3195,44.0452],[15.3581,44.0257],[15.4661,43.9217],[15.492,43.9158],[15.4998,43.9092],[15.5387,43.8847],[15.5469,43.8766],[15.5741,43.8595],[15.5853,43.8554],[15.6415,43.8201],[15.6174,43.8255],[15.633,43.8105],[15.6821,43.7972],[15.7063,43.7634],[15.7242,43.7625],[15.9201,43.5905],[15.9595,43.5382],[15.9681,43.5403],[15.981,43.5257],[15.9735,43.5031],[16.0128,43.504],[16.0396,43.4908],[16.0924,43.4823],[16.441,43.3687],[16.4286,43.3436],[16.4214,43.3176],[16.4215,43.3176],[16.4214,43.3172],[16.4898,43.2859],[16.4996,43.2847],[16.5007,43.2842],[16.564,43.2701],[16.6283,43.2637],[16.7547,43.2665],[16.9169,43.2136],[16.929,43.2097],[17.0302,43.1468],[16.9169,43.1565],[16.8869,43.1591],[16.8644,43.1689],[16.8484,43.1624],[16.7113,43.1741],[16.6943,43.1793],[16.6745,43.1969],[16.6595,43.216],[16.6038,43.2235],[16.5955,43.2205],[16.5719,43.2232],[16.5628,43.229],[16.5205,43.229],[16.5207,43.2288],[16.3746,43.2134],[16.375,43.2132],[16.3748,43.2132],[16.3751,43.2131],[16.3746,43.213],[16.3973,43.2021],[16.3804,43.202],[16.3716,43.1955],[16.4452,43.1708],[16.5393,43.148],[16.551,43.1436],[16.6806,43.1228],[16.9169,43.1191],[17.0788,43.1165],[17.1231,43.089],[17.1489,43.0729],[17.1747,43.0569],[17.2262,43.0249],[17.2274,43.0241],[17.2258,43.0242],[17.221,43.0259],[17.2094,43.0259],[17.1587,43.031],[17.0733,43.0242],[17.0016,43.0515],[17.0282,43.0242],[17.0275,43.0036],[17.0954,42.9844],[17.1836,42.9843],[17.252,42.9692],[17.2603,42.9667],[17.2807,42.9585],[17.3509,42.9218],[17.3855,42.9163],[17.4284,42.899],[17.442,42.8906],[17.4404,42.8734],[17.4956,42.8572],[17.5086,42.8492],[18.2342,42.5643],[18.2389,42.5591],[18.4119,42.476],[18.4131,42.4619],[18.4745,42.4414],[18.4964,42.4163],[18.4929,42.4424],[18.4677,42.4534],[18.4443,42.4779],[18.4371,42.4934],[18.4364,42.5108],[18.442,42.543],[18.4374,42.5592],[18.459,42.5697],[18.4818,42.5637],[18.4959,42.5709],[18.4867,42.5898],[18.5068,42.5985],[18.5384,42.6183],[18.5428,42.6264],[18.55,42.6681],[18.5397,42.6955],[18.5022,42.7274],[18.4674,42.7692],[18.4437,42.8345],[18.4733,42.8626],[18.434,42.9369],[18.4528,42.9934],[18.483,43.0146],[18.539,43.0239],[18.639,43.0202],[18.6211,43.0964],[18.6211,43.1246],[18.6453,43.1802],[18.6884,43.2245],[18.6643,43.2332],[18.6795,43.2495],[18.8072,43.318],[18.8335,43.3242],[18.8212,43.3414],[18.8991,43.3519],[18.9573,43.3259],[18.9595,43.3035],[18.9895,43.272],[19.0029,43.2739],[19.0225,43.2965],[19.0697,43.3088],[19.0396,43.3507],[19.0099,43.411],[18.9683,43.4481],[18.9463,43.4439],[18.9512,43.4638],[18.9056,43.4906],[18.911,43.5073],[18.9775,43.5462],[19.0002,43.5479],[19.0381,43.511],[19.096,43.5129],[19.1228,43.5359],[19.1953,43.5328],[19.2175,43.5328],[19.2527,43.5886],[19.3009,43.5883],[19.3466,43.6088],[19.3805,43.5856],[19.4107,43.5408],[19.4318,43.5711],[19.4817,43.5608],[19.4756,43.6026],[19.4817,43.6289],[19.5074,43.6472],[19.5057,43.6736],[19.4617,43.7621],[19.3595,43.8422],[19.2754,43.9333],[19.241,43.9524],[19.238,43.9925],[19.2521,44.0075],[19.2873,44.013],[19.3646,43.9733],[19.4471,43.9798],[19.5041,43.9757],[19.5522,43.9834],[19.5934,44.0056],[19.6189,44.0357],[19.5989,44.0626],[19.5802,44.0515],[19.5162,44.0912],[19.4764,44.127],[19.4597,44.1527],[19.4426,44.1432],[19.3624,44.1912],[19.354,44.2243],[19.3243,44.264],[19.2959,44.2758],[19.2637,44.2702],[19.1772,44.287],[19.1389,44.3093],[19.1167,44.3437],[19.1072,44.3827],[19.1414,44.4308],[19.1434,44.4582],[19.1299,44.5183],[19.1796,44.5383],[19.1863,44.5693],[19.2557,44.6456],[19.2776,44.6849],[19.3084,44.7051],[19.3284,44.734],[19.3637,44.8546],[19.3766,44.863],[19.357,44.8959],[19.3249,44.9223],[19.3716,44.9139],[19.4061,44.9416],[19.4739,44.9014],[19.4992,44.9169],[19.5521,44.9005],[19.6003,44.914],[19.6447,44.9127],[19.6735,44.9345],[19.7569,44.9154],[19.7533,44.8921],[19.7006,44.8076],[19.7203,44.7645],[19.7453,44.7522],[19.7966,44.7516],[19.8463,44.7335],[19.914,44.6954],[19.9826,44.6959],[20.0101,44.6889],[19.9308,44.6593],[19.9404,44.6318],[19.9734,44.6412],[20.0455,44.6903],[20.0941,44.7082],[20.1065,44.7607],[20.084,44.7687],[20.0889,44.7896],[20.1217,44.7974],[20.136,44.8442],[20.1636,44.8921],[20.2008,44.8929],[20.2388,44.9142],[20.3247,44.9292],[20.2907,44.9775],[20.3569,45.0345],[20.339,45.0803],[20.2778,45.141],[20.2224,45.1755],[20.185,45.185],[20.0648,45.1755],[19.9856,45.1898],[19.9803,45.1598],[19.9126,45.1426],[19.792,45.1471],[19.7731,45.1671],[19.6988,45.1417],[19.6001,45.1384],[19.5386,45.1505],[19.4609,45.1741],[19.428,45.1461],[19.3939,45.1716],[19.4078,45.2031],[19.3781,45.2296],[19.2898,45.2363],[19.1585,45.2762],[19.1041,45.2987],[19.083,45.3392],[19.0302,45.3451],[18.9775,45.3712],[18.9755,45.3911],[19.0226,45.4024],[19.0313,45.4162],[19.0023,45.4437],[18.9964,45.4738],[19.0179,45.4978],[19.0772,45.4916],[19.1063,45.5116],[19.0951,45.5261],[19.051,45.5389],[19.0181,45.5674],[18.9602,45.5391],[18.9417,45.5389],[18.9036,45.5731],[18.9124,45.6192],[18.9685,45.6687],[18.9627,45.6831],[18.9173,45.7066],[18.9002,45.7649],[18.8487,45.8096],[18.8553,45.8574],[18.8998,45.8614],[18.904,45.8757],[18.8729,45.8952],[18.907,45.9157],[18.9013,45.9312],[18.8225,45.9056],[18.8049,45.9136],[18.786,45.8869],[18.7633,45.884],[18.6743,45.9104],[18.633,45.8919],[18.6222,45.8684],[18.5855,45.8269],[18.5303,45.7909],[18.4818,45.7914],[18.4117,45.7432],[18.3838,45.7432],[18.3672,45.7582],[18.3177,45.7473],[18.2112,45.7854],[18.129,45.7854],[18.0805,45.7717],[17.9754,45.7921],[17.9062,45.7921],[17.858,45.7759],[17.8092,45.8144],[17.6873,45.8406],[17.6547,45.8521],[17.6458,45.8918],[17.5911,45.9362],[17.5119,45.9539],[17.4267,45.9567],[17.4062,45.9437],[17.3892,45.9631],[17.3453,45.9557],[17.3379,45.9846],[17.3066,45.9799],[17.2901,45.9915],[17.3168,45.9977],[17.2759,46.012],[17.2486,46.0802],[17.1973,46.1212],[17.1162,46.1231],[17.0529,46.1535],[17.028,46.1805],[16.9748,46.2106],[16.9407,46.2515],[16.8892,46.2922],[16.8793,46.3121],[16.8594,46.3648],[16.815,46.2844],[16.7914,46.2977],[16.7452,46.3057],[16.7205,46.3114],[16.5856,46.3168],[16.5161,46.3015],[16.4838,46.3018],[16.3613,46.32],[16.3409,46.352],[16.3183,46.3687],[16.2799,46.3787],[16.2756,46.3732],[16.2528,46.3734],[16.2171,46.3674],[16.1918,46.3698],[16.1775,46.3756],[16.1536,46.3914],[16.1316,46.3931],[16.106,46.3737],[16.0887,46.3731],[16.058,46.3775],[16.0574,46.3597],[16.0597,46.3453],[16.0596,46.3323],[16.0524,46.3186],[16.0499,46.3167],[16.0389,46.3084],[16.0192,46.2988],[15.9937,46.2906],[15.9487,46.2842],[15.9189,46.2728],[15.8837,46.2594],[15.8809,46.2593],[15.8793,46.2593],[15.8342,46.2584],[15.8183,46.2555],[15.8031,46.2505],[15.7995,46.2486],[15.7891,46.2431],[15.7689,46.2194],[15.7498,46.2108],[15.678,46.2145],[15.6613,46.2153],[15.6398,46.2077],[15.6266,46.1952],[15.6229,46.1917],[15.6043,46.167],[15.59,46.1387],[15.5899,46.1135],[15.6038,46.091],[15.6235,46.0764],[15.6236,46.0764],[15.6315,46.0706],[15.6437,46.0655],[15.6717,46.0574],[15.6839,46.0511],[15.6929,46.0416],[15.698,46.0362],[15.682,46.0135],[15.6742,45.9932],[15.6754,45.9725],[15.6756,45.9252],[15.6594,45.8888],[15.6755,45.856],[15.6761,45.8417],[15.6661,45.8317],[15.6261,45.8202],[15.5873,45.8192],[15.5497,45.8237],[15.5235,45.8268],[15.4854,45.8102],[15.4513,45.8151],[15.4356,45.8021],[15.4411,45.7822],[15.4298,45.7757],[15.331,45.7525],[15.3038,45.7461],[15.2635,45.7304],[15.2499,45.7137],[15.2509,45.7077],[15.2582,45.7051],[15.2678,45.6985],[15.2778,45.685],[15.2919,45.6756],[15.3049,45.6721],[15.315,45.6809],[15.3308,45.6846],[15.35,45.6696],[15.3683,45.649],[15.3738,45.6402],[15.3531,45.6403],[15.3267,45.6323],[15.2974,45.6257],[15.2879,45.6103],[15.2686,45.6017],[15.2696,45.5934],[15.2822,45.5715],[15.2967,45.523],[15.311,45.5059],[15.3614,45.482],[15.3339,45.4585],[15.314,45.4505],[15.2816,45.451],[15.2258,45.4365],[15.1842,45.4256],[15.1393,45.43],[15.0661,45.4739],[15.0562,45.4799],[15.0074,45.4808],[14.9773,45.4917],[14.9626,45.4931],[14.9454,45.5045],[14.9226,45.5149],[14.9044,45.5144],[14.9008,45.4931],[14.8816,45.4698],[14.8388,45.459],[14.7972,45.4652],[14.7815,45.4931],[14.6883,45.522],[14.6685,45.534],[14.6717,45.5568],[14.6637,45.5702],[14.6503,45.5748],[14.616,45.5941],[14.6031,45.6036],[14.5939,45.6162],[14.5941,45.648],[14.5919,45.6634],[14.5809,45.6678],[14.5691,45.6643],[14.5561,45.6567],[14.5436,45.6364],[14.4986,45.5962],[14.4915,45.5792],[14.4821,45.5424],[14.4689,45.5256],[14.4308,45.5042],[14.43,45.5],[14.4,45.42],[14.37,45.37],[14.445,45.37],[14.445,45.3],[14.37,45.3],[14.37,45.32],[14.335,45.2151]]],[[[14.6579,44.7988],[14.6649,44.7931],[14.6789,44.7702],[14.6977,44.7667],[14.6995,44.7652],[14.7061,44.7651],[14.7617,44.7546],[14.806,44.7357],[14.8496,44.7032],[14.8502,44.7169],[14.8553,44.7147],[14.8552,44.7149],[14.8557,44.7147],[14.8554,44.7152],[14.8557,44.7151],[14.8506,44.7239],[14.8512,44.7373],[14.8224,44.7714],[14.8112,44.7771],[14.7657,44.821],[14.7549,44.8453],[14.7464,44.8457],[14.739,44.8534],[14.7325,44.8465],[14.6901,44.8487],[14.6897,44.8487],[14.6883,44.8468],[14.6858,44.8472],[14.6873,44.8454],[14.6717,44.8244],[14.6609,44.8001],[14.661,44.7999],[14.6609,44.7997],[14.6618,44.7983],[14.6579,44.7988]]],[[[14.7401,44.6973],[14.7513,44.6801],[14.7615,44.6586],[14.8093,44.6177],[14.8841,44.5445],[14.9072,44.4972],[14.8975,44.4909],[14.9158,44.4837],[14.9957,44.4334],[15.039,44.3935],[15.0966,44.3588],[15.1071,44.3506],[15.1104,44.3463],[15.0967,44.34],[15.1288,44.312],[15.1724,44.2991],[15.1309,44.3264],[15.1368,44.3275],[15.1614,44.3084],[15.1616,44.3086],[15.1618,44.3084],[15.1761,44.3242],[15.1989,44.317],[15.2271,44.3264],[15.2061,44.3441],[15.2122,44.3466],[15.2137,44.3468],[15.2351,44.3362],[15.2544,44.34],[15.2394,44.3499],[15.241,44.3501],[15.2407,44.3503],[15.2408,44.3503],[15.2406,44.3504],[15.241,44.3505],[15.1434,44.4164],[15.1005,44.4489],[15.0514,44.4938],[15.0755,44.4841],[15.0412,44.5275],[15.0051,44.5358],[15.0018,44.5382],[14.9663,44.5734],[14.9041,44.61],[14.9004,44.6099],[14.8989,44.6109],[14.8557,44.6179],[14.8053,44.6491],[14.7846,44.6646],[14.78,44.6695],[14.7412,44.7016],[14.7444,44.6947],[14.7405,44.6977],[14.7409,44.6971],[14.7401,44.6977],[14.7406,44.6969],[14.7401,44.6973]]],[[[14.8496,44.1756],[14.8701,44.1408],[14.9044,44.1145],[15.0421,43.9914],[15.0428,43.9904],[15.1066,43.9254],[15.1365,43.903],[15.1386,43.9079],[15.1508,43.9108],[15.1844,43.9016],[15.1955,43.8952],[15.1985,43.8977],[15.201,43.897],[15.201,43.8971],[15.2014,43.897],[15.2029,43.9013],[15.2168,43.9128],[15.1764,43.9334],[15.0266,44.0571],[15.0227,44.0722],[14.9906,44.0868],[14.9529,44.1179],[14.9403,44.1252],[14.9391,44.1271],[14.9102,44.1428],[14.8665,44.1682],[14.8667,44.1678],[14.8661,44.1682],[14.8665,44.1676],[14.8661,44.1678],[14.8671,44.1661],[14.8496,44.1756]]],[[[15.0625,44.1619],[15.0655,44.1573],[15.0646,44.1578],[15.0648,44.1575],[15.0642,44.1578],[15.0645,44.1572],[15.0642,44.1574],[15.075,44.1383],[15.0821,44.1314],[15.0871,44.1237],[15.1218,44.0922],[15.1891,44.0478],[15.2061,44.049],[15.2431,44.0297],[15.2544,44.0179],[15.2471,44.0467],[15.2303,44.0621],[15.2302,44.0623],[15.2298,44.0625],[15.2258,44.0662],[15.0625,44.1619]]],[[[15.2612,44.0111],[15.3027,43.9664],[15.3066,43.9642],[15.309,43.9612],[15.3579,43.9259],[15.3587,43.9194],[15.4071,43.8961],[15.4461,43.8875],[15.4387,43.8988],[15.439,43.8987],[15.4385,43.8992],[15.439,43.8991],[15.4372,43.9011],[15.4188,43.9291],[15.4058,43.9354],[15.3883,43.9545],[15.384,43.9702],[15.3719,43.9724],[15.3706,43.9738],[15.323,43.991],[15.2964,44.0056],[15.2724,44.0093],[15.2698,44.0103],[15.27,44.0101],[15.2694,44.0103],[15.2697,44.0098],[15.2694,44.0099],[15.2695,44.0098],[15.2612,44.0111]]],[[[16.6317,42.9826],[16.659,42.9779],[16.6662,42.9596],[16.6767,42.9501],[16.6384,42.9348],[16.6726,42.9218],[16.6914,42.9282],[16.7191,42.9219],[16.7382,42.9127],[16.8498,42.8953],[16.8502,42.8953],[16.8844,42.9043],[16.8987,42.9058],[16.9729,42.9267],[16.9845,42.9272],[17.0874,42.9144],[17.0878,42.9144],[17.1048,42.9147],[17.1074,42.9143],[17.1145,42.9149],[17.1886,42.9162],[17.1882,42.9166],[17.1886,42.9166],[17.1841,42.9205],[17.2002,42.9218],[17.1318,42.9696],[17.1111,42.9643],[17.0321,42.9826],[16.9917,42.9798],[16.9726,42.9825],[16.9722,42.9825],[16.8356,42.9686],[16.7388,42.9833],[16.7205,42.9901],[16.6861,42.9913],[16.6522,42.9964],[16.6522,42.9963],[16.6518,42.9964],[16.652,42.996],[16.6518,42.996],[16.6532,42.9924],[16.6527,42.9924],[16.6317,42.9826]]],[[[17.3237,42.7908],[17.3738,42.76],[17.3859,42.7709],[17.7489,42.6946],[17.7427,42.701],[17.743,42.7009],[17.7425,42.7012],[17.7428,42.7011],[17.7423,42.7014],[17.7426,42.7013],[17.7423,42.7015],[17.743,42.7013],[17.7417,42.702],[17.7305,42.7134],[17.6699,42.7384],[17.6098,42.769],[17.4334,42.8003],[17.433,42.8003],[17.3898,42.7985],[17.3724,42.7953],[17.3738,42.8026],[17.3237,42.7908]]]]}}
]}
