{"type":"FeatureCollection","features":[
{"type":"Feature","properties":{"entityId":"croatia-duchy","from":800,"to":925,"certainty":"estimated","source":"유럽 쪽은 Natural Earth 1:10m admin-1(v5.1.2) 현대 행정구역 조각을 그 시기 국경에 맞춰 묶고, 조각이 역사 경계와 다른 곳은 선을 그어 나눈 근사. 유럽 밖(시베리아·중앙아시아·극동)은 대략적인 추정. 운영자 검수 필요"},"geometry":{"type":"MultiPolygon","coordinates":[[[[14.1173,45.473],[14.1389,45.4343],[14.2036,45.4039],[14.1995,45.3756],[14.2105,45.3278],[14.1946,45.275],[14.2026,45.1716],[14.2347,45.1546],[14.2477,45.1865],[14.2535,45.2235],[14.2551,45.2297],[14.258,45.2339],[14.5334,45.1666],[14.5213,45.1488],[14.5227,45.1465],[14.4897,45.1279],[14.4671,45.1241],[14.4652,45.1142],[14.4377,45.0987],[14.4379,45.0984],[14.4377,45.0983],[14.4407,45.093],[14.4251,45.0873],[14.4601,45.0524],[14.5105,45.0322],[14.5907,45.0233],[14.5997,45.0268],[14.6141,45.0254],[14.6282,44.9949],[14.6289,44.9782],[14.6824,44.9584],[14.6861,44.956],[14.6864,44.9561],[14.6865,44.956],[14.6882,44.9563],[14.7234,44.9433],[14.7568,44.9487],[14.7487,44.9666],[14.8089,44.9768],[14.815,44.9775],[14.7998,45.0052],[14.7744,45.0218],[14.7405,45.0657],[14.7404,45.0658],[14.7405,45.0731],[14.7283,45.0732],[14.7009,45.09],[14.6669,45.1318],[14.6676,45.1339],[14.8374,45.0924],[14.8553,45.081],[14.8598,45.0713],[14.9022,44.9791],[14.9057,44.9717],[14.8937,44.8869],[14.8838,44.8615],[14.8838,44.7888],[14.8895,44.7626],[14.8923,44.733],[14.8838,44.7236],[14.9014,44.6902],[15.0013,44.5785],[15.0444,44.5553],[15.1305,44.4894],[15.155,44.4667],[15.2938,44.3648],[15.308,44.3544],[15.3501,44.3399],[15.3562,44.3378],[15.3771,44.3186],[15.3769,44.3185],[15.3307,44.3014],[15.3086,44.3093],[15.2612,44.3326],[15.3027,44.2991],[15.2883,44.2897],[15.2838,44.2897],[15.2448,44.2772],[15.1981,44.3017],[15.2078,44.2728],[15.2073,44.2724],[15.183,44.2724],[15.1653,44.2679],[15.1576,44.2803],[15.1104,44.2644],[15.1219,44.2564],[15.1218,44.2564],[15.1573,44.2098],[15.1445,44.1955],[15.2127,44.1483],[15.2129,44.131],[15.2783,44.0856],[15.3195,44.0452],[15.3581,44.0257],[15.4661,43.9217],[15.492,43.9158],[15.4998,43.9092],[15.5387,43.8847],[15.5469,43.8766],[15.5741,43.8595],[15.5853,43.8554],[15.6415,43.8201],[15.6174,43.8255],[15.633,43.8105],[15.6821,43.7972],[15.7063,43.7634],[15.7242,43.7625],[15.9201,43.5905],[15.9595,43.5382],[15.9681,43.5403],[15.981,43.5257],[15.9735,43.5031],[16.0128,43.504],[16.0396,43.4908],[16.0924,43.4823],[16.441,43.3687],[16.4286,43.3436],[16.4214,43.3176],[16.4215,43.3176],[16.4214,43.3172],[16.4898,43.2859],[16.4996,43.2847],[16.5007,43.2842],[16.564,43.2701],[16.6283,43.2637],[16.7547,43.2665],[16.9169,43.2136],[16.929,43.2097],[17.0302,43.1468],[16.9169,43.1565],[16.8869,43.1591],[16.8644,43.1689],[16.8484,43.1624],[16.7113,43.1741],[16.6943,43.1793],[16.6745,43.1969],[16.6595,43.216],[16.6038,43.2235],[16.5955,43.2205],[16.5719,43.2232],[16.5628,43.229],[16.5205,43.229],[16.5207,43.2288],[16.3746,43.2134],[16.375,43.2132],[16.3748,43.2132],[16.3751,43.2131],[16.3746,43.213],[16.3973,43.2021],[16.3804,43.202],[16.3716,43.1955],[16.4452,43.1708],[16.5393,43.148],[16.551,43.1436],[16.6806,43.1228],[16.9169,43.1191],[17.0788,43.1165],[17.1231,43.089],[17.1489,43.0729],[17.1747,43.0569],[17.1747,43.064],[17.2262,43.064],[17.2262,43.0764],[17.3292,43.0764],[17.3292,43.063],[17.3588,43.063],[17.3588,43.0857],[17.3654,43.0792],[17.4063,43.1005],[17.3531,43.1568],[17.3734,43.1511],[17.4063,43.1418],[17.4509,43.1482],[17.4268,43.1657],[17.4002,43.216],[17.3287,43.2604],[17.2899,43.3034],[17.2676,43.3533],[17.2864,43.4374],[17.2705,43.4632],[17.2395,43.4784],[17.1428,43.4893],[17.0623,43.5277],[17.1175,43.5462],[17.1691,43.5462],[17.23,43.5647],[17.2538,43.5595],[17.2724,43.5383],[17.2988,43.5383],[17.3915,43.574],[17.4987,43.5872],[17.5265,43.619],[17.5305,43.6504],[17.4445,43.7395],[17.3915,43.7449],[17.3809,43.7819],[17.3835,43.8415],[17.418,43.8586],[17.4656,43.8428],[17.4593,43.8604],[17.4259,43.9076],[17.3729,43.9102],[17.328,43.9447],[17.2909,44.0174],[17.249,44.0679],[17.2731,44.1432],[17.2631,44.1819],[17.1858,44.2577],[17.1529,44.3249],[17.1443,44.4294],[17.1514,44.458],[17.2273,44.4608],[17.2674,44.4451],[17.4076,44.4415],[17.439,44.4258],[17.4648,44.3943],[17.502,44.3657],[17.6007,44.3643],[17.688,44.3757],[17.7328,44.3753],[17.7652,44.3929],[17.8568,44.4301],[17.9169,44.4701],[17.9154,44.546],[17.8568,44.5874],[17.8353,44.6161],[17.8353,44.639],[17.8883,44.7198],[17.817,44.7059],[17.7799,44.7194],[17.7233,44.816],[17.7222,44.8751],[17.7332,44.9092],[17.7628,44.9293],[17.7632,44.9791],[17.7425,45.024],[17.7399,45.0723],[17.7657,45.111],[17.7145,45.152],[17.6847,45.164],[17.63,45.1573],[17.5724,45.1204],[17.4893,45.1163],[17.4962,45.1417],[17.4478,45.1343],[17.4341,45.1486],[17.3824,45.1396],[17.269,45.1895],[17.2455,45.1554],[17.1871,45.1486],[17.1246,45.1691],[17.0557,45.2004],[17.0363,45.2305],[17.0083,45.2162],[16.9612,45.2509],[16.9473,45.2357],[16.9244,45.2845],[16.8307,45.217],[16.8242,45.1891],[16.7863,45.1788],[16.587,45.2209],[16.5289,45.2223],[16.4819,45.1995],[16.4355,45.1329],[16.3818,45.1076],[16.382,45.0837],[16.346,45.02],[16.3162,45.0012],[16.2793,45.0072],[16.213,45.0315],[16.1041,45.1125],[16.0675,45.1696],[16.0244,45.1843],[16.0292,45.205],[16.0085,45.2182],[15.8789,45.2172],[15.8248,45.211],[15.8026,45.1965],[15.7617,45.21],[15.7049,45.2009],[15.6394,45.2107],[15.6312,45.2395],[15.6616,45.2681],[15.6564,45.2851],[15.6639,45.3396],[15.6796,45.3488],[15.6651,45.3766],[15.6723,45.3982],[15.6568,45.4152],[15.6765,45.4252],[15.716,45.4208],[15.7799,45.3951],[15.8141,45.3987],[15.8372,45.4363],[15.8425,45.4659],[15.8129,45.5234],[15.7799,45.5225],[15.7392,45.5589],[15.7474,45.5952],[15.7316,45.5886],[15.6633,45.6049],[15.6264,45.6214],[15.5936,45.6205],[15.5756,45.6024],[15.5137,45.6324],[15.5131,45.6473],[15.4738,45.6618],[15.4209,45.6953],[15.3829,45.6904],[15.35,45.6696],[15.3683,45.649],[15.3738,45.6402],[15.3531,45.6403],[15.3267,45.6323],[15.2974,45.6257],[15.2879,45.6103],[15.2686,45.6017],[15.2696,45.5934],[15.2822,45.5715],[15.2967,45.523],[15.311,45.5059],[15.3614,45.482],[15.3339,45.4585],[15.314,45.4505],[15.2816,45.451],[15.2258,45.4365],[15.1842,45.4256],[15.1393,45.43],[15.0661,45.4739],[15.0562,45.4799],[15.0074,45.4808],[14.9773,45.4917],[14.9626,45.4931],[14.9454,45.5045],[14.9226,45.5149],[14.9044,45.5144],[14.9008,45.4931],[14.8816,45.4698],[14.8388,45.459],[14.7972,45.4652],[14.7815,45.4931],[14.6883,45.522],[14.6685,45.534],[14.6717,45.5568],[14.6637,45.5702],[14.6503,45.5748],[14.616,45.5941],[14.6031,45.6036],[14.5939,45.6162],[14.5941,45.648],[14.5919,45.6634],[14.5809,45.6678],[14.5691,45.6643],[14.5561,45.6567],[14.5436,45.6364],[14.4986,45.5962],[14.4915,45.5792],[14.4821,45.5424],[14.4689,45.5256],[14.4112,45.4932],[14.3728,45.4778],[14.3268,45.4749],[14.2804,45.4811],[14.2187,45.4972],[14.1455,45.4762],[14.1173,45.473]]],[[[14.2777,45.128],[14.2874,45.1011],[14.3161,45.0766],[14.3405,45.0202],[14.3405,44.9807],[14.303,44.9428],[14.3015,44.9434],[14.3009,44.9407],[14.3009,44.9406],[14.2942,44.9086],[14.3141,44.8938],[14.3298,44.8339],[14.3544,44.8201],[14.3648,44.8004],[14.3745,44.7539],[14.3894,44.7524],[14.3961,44.734],[14.3945,44.7076],[14.4279,44.6566],[14.473,44.6203],[14.5204,44.6215],[14.5139,44.6622],[14.4778,44.7019],[14.4724,44.7135],[14.4739,44.7545],[14.4615,44.7795],[14.4593,44.8018],[14.4666,44.8048],[14.4555,44.8396],[14.4525,44.8694],[14.4626,44.9401],[14.471,44.9539],[14.4661,44.9837],[14.4467,44.9873],[14.3949,45.031],[14.3697,45.0814],[14.3636,45.1302],[14.3641,45.1576],[14.3593,45.1646],[14.3589,45.1682],[14.3585,45.1682],[14.3571,45.168],[14.3562,45.1693],[14.3137,45.1724],[14.295,45.1494],[14.2865,45.1456],[14.2866,45.1453],[14.2865,45.1452],[14.2883,45.1411],[14.2777,45.128]]],[[[14.6579,44.7988],[14.6649,44.7931],[14.6789,44.7702],[14.6977,44.7667],[14.6995,44.7652],[14.7061,44.7651],[14.7617,44.7546],[14.806,44.7357],[14.8496,44.7032],[14.8502,44.7169],[14.8553,44.7147],[14.8552,44.7149],[14.8557,44.7147],[14.8554,44.7152],[14.8557,44.7151],[14.8506,44.7239],[14.8512,44.7373],[14.8224,44.7714],[14.8112,44.7771],[14.7657,44.821],[14.7549,44.8453],[14.7464,44.8457],[14.739,44.8534],[14.7325,44.8465],[14.6901,44.8487],[14.6897,44.8487],[14.6883,44.8468],[14.6858,44.8472],[14.6873,44.8454],[14.6717,44.8244],[14.6609,44.8001],[14.661,44.7999],[14.6609,44.7997],[14.6618,44.7983],[14.6579,44.7988]]],[[[14.7401,44.6973],[14.7513,44.6801],[14.7615,44.6586],[14.8093,44.6177],[14.8841,44.5445],[14.9072,44.4972],[14.8975,44.4909],[14.9158,44.4837],[14.9957,44.4334],[15.039,44.3935],[15.0966,44.3588],[15.1071,44.3506],[15.1104,44.3463],[15.0967,44.34],[15.1288,44.312],[15.1724,44.2991],[15.1309,44.3264],[15.1368,44.3275],[15.1614,44.3084],[15.1616,44.3086],[15.1618,44.3084],[15.1761,44.3242],[15.1989,44.317],[15.2271,44.3264],[15.2061,44.3441],[15.2122,44.3466],[15.2137,44.3468],[15.2351,44.3362],[15.2544,44.34],[15.2394,44.3499],[15.241,44.3501],[15.2407,44.3503],[15.2408,44.3503],[15.2406,44.3504],[15.241,44.3505],[15.1434,44.4164],[15.1005,44.4489],[15.0514,44.4938],[15.0755,44.4841],[15.0412,44.5275],[15.0051,44.5358],[15.0018,44.5382],[14.9663,44.5734],[14.9041,44.61],[14.9004,44.6099],[14.8989,44.6109],[14.8557,44.6179],[14.8053,44.6491],[14.7846,44.6646],[14.78,44.6695],[14.7412,44.7016],[14.7444,44.6947],[14.7405,44.6977],[14.7409,44.6971],[14.7401,44.6977],[14.7406,44.6969],[14.7401,44.6973]]],[[[14.8496,44.1756],[14.8701,44.1408],[14.9044,44.1145],[15.0421,43.9914],[15.0428,43.9904],[15.1066,43.9254],[15.1365,43.903],[15.1386,43.9079],[15.1508,43.9108],[15.1844,43.9016],[15.1955,43.8952],[15.1985,43.8977],[15.201,43.897],[15.201,43.8971],[15.2014,43.897],[15.2029,43.9013],[15.2168,43.9128],[15.1764,43.9334],[15.0266,44.0571],[15.0227,44.0722],[14.9906,44.0868],[14.9529,44.1179],[14.9403,44.1252],[14.9391,44.1271],[14.9102,44.1428],[14.8665,44.1682],[14.8667,44.1678],[14.8661,44.1682],[14.8665,44.1676],[14.8661,44.1678],[14.8671,44.1661],[14.8496,44.1756]]],[[[15.0625,44.1619],[15.0655,44.1573],[15.0646,44.1578],[15.0648,44.1575],[15.0642,44.1578],[15.0645,44.1572],[15.0642,44.1574],[15.075,44.1383],[15.0821,44.1314],[15.0871,44.1237],[15.1218,44.0922],[15.1891,44.0478],[15.2061,44.049],[15.2431,44.0297],[15.2544,44.0179],[15.2471,44.0467],[15.2303,44.0621],[15.2302,44.0623],[15.2298,44.0625],[15.2258,44.0662],[15.0625,44.1619]]],[[[15.2612,44.0111],[15.3027,43.9664],[15.3066,43.9642],[15.309,43.9612],[15.3579,43.9259],[15.3587,43.9194],[15.4071,43.8961],[15.4461,43.8875],[15.4387,43.8988],[15.439,43.8987],[15.4385,43.8992],[15.439,43.8991],[15.4372,43.9011],[15.4188,43.9291],[15.4058,43.9354],[15.3883,43.9545],[15.384,43.9702],[15.3719,43.9724],[15.3706,43.9738],[15.323,43.991],[15.2964,44.0056],[15.2724,44.0093],[15.2698,44.0103],[15.27,44.0101],[15.2694,44.0103],[15.2697,44.0098],[15.2694,44.0099],[15.2695,44.0098],[15.2612,44.0111]]]]}}
]}
