{"type":"FeatureCollection","features":[
{"type":"Feature","properties":{"entityId":"croatia","from":1992,"to":null,"certainty":"estimated","source":"유럽 쪽은 Natural Earth 1:10m admin-1(v5.1.2) 현대 행정구역 조각을 그 시기 국경에 맞춰 묶고, 조각이 역사 경계와 다른 곳은 선을 그어 나눈 근사. 유럽 밖(시베리아·중앙아시아·극동)은 대략적인 추정. 운영자 검수 필요"},"geometry":{"type":"MultiPolygon","coordinates":[[[[15.7995,46.2486],[15.8031,46.2505],[15.8183,46.2555],[15.8342,46.2584],[15.8793,46.2593],[15.8809,46.2593],[15.8837,46.2594],[15.9189,46.2728],[15.9487,46.2842],[15.9937,46.2906],[16.0192,46.2988],[16.0389,46.3084],[16.0499,46.3167],[16.0524,46.3186],[16.0596,46.3323],[16.0597,46.3453],[16.0574,46.3597],[16.058,46.3775],[16.0887,46.3731],[16.106,46.3737],[16.1316,46.3931],[16.1536,46.3914],[16.1775,46.3756],[16.1918,46.3698],[16.2171,46.3674],[16.2528,46.3734],[16.2756,46.3732],[16.2799,46.3787],[16.2741,46.3921],[16.257,46.3999],[16.2482,46.4133],[16.2494,46.4375],[16.2375,46.4651],[16.2342,46.4849],[16.2349,46.4933],[16.2609,46.5136],[16.2639,46.5159],[16.2954,46.5244],[16.3015,46.5271],[16.3107,46.531],[16.33,46.5355],[16.3403,46.5438],[16.3441,46.547],[16.3517,46.5395],[16.3579,46.547],[16.3695,46.5406],[16.4063,46.5395],[16.4152,46.5356],[16.432,46.5232],[16.4404,46.519],[16.4708,46.5203],[16.4911,46.5151],[16.5153,46.5017],[16.5837,46.4707],[16.5943,46.483],[16.6593,46.4642],[16.7124,46.4127],[16.7429,46.3996],[16.7551,46.3819],[16.7693,46.3961],[16.8377,46.3819],[16.8594,46.3648],[16.8793,46.3121],[16.8892,46.2922],[16.9407,46.2515],[16.9748,46.2106],[17.028,46.1805],[17.0529,46.1535],[17.1162,46.1231],[17.1973,46.1212],[17.2486,46.0802],[17.2759,46.012],[17.3168,45.9977],[17.2901,45.9915],[17.3066,45.9799],[17.3379,45.9846],[17.3453,45.9557],[17.3892,45.9631],[17.4062,45.9437],[17.4267,45.9567],[17.5119,45.9539],[17.5911,45.9362],[17.6458,45.8918],[17.6547,45.8521],[17.6873,45.8406],[17.8092,45.8144],[17.858,45.7759],[17.9062,45.7921],[17.9754,45.7921],[18.0805,45.7717],[18.129,45.7854],[18.2112,45.7854],[18.3177,45.7473],[18.3672,45.7582],[18.3838,45.7432],[18.4117,45.7432],[18.4818,45.7914],[18.5303,45.7909],[18.5855,45.8269],[18.6222,45.8684],[18.633,45.8919],[18.6743,45.9104],[18.7633,45.884],[18.786,45.8869],[18.8049,45.9136],[18.8225,45.9056],[18.9013,45.9312],[18.907,45.9157],[18.8729,45.8952],[18.904,45.8757],[18.8998,45.8614],[18.8553,45.8574],[18.8487,45.8096],[18.9002,45.7649],[18.9173,45.7066],[18.9627,45.6831],[18.9685,45.6687],[18.9124,45.6192],[18.9036,45.5731],[18.9417,45.5389],[18.9602,45.5391],[19.0181,45.5674],[19.051,45.5389],[19.0951,45.5261],[19.1063,45.5116],[19.0772,45.4916],[19.0179,45.4978],[18.9964,45.4738],[19.0023,45.4437],[19.0313,45.4162],[19.0226,45.4024],[18.9755,45.3911],[18.9775,45.3712],[19.0302,45.3451],[19.083,45.3392],[19.1041,45.2987],[19.1585,45.2762],[19.2898,45.2363],[19.3781,45.2296],[19.4078,45.2031],[19.3939,45.1716],[19.3043,45.1665],[19.2914,45.1777],[19.2678,45.1658],[19.2259,45.1619],[19.1853,45.168],[19.1558,45.195],[19.1219,45.1958],[19.1417,45.1622],[19.1377,45.146],[19.0601,45.1469],[19.0462,45.1284],[19.0823,45.0849],[19.0954,45.0209],[19.0852,44.9873],[19.0981,44.97],[19.1186,44.9756],[19.1317,44.9532],[19.0787,44.9109],[19.0521,44.907],[19.0184,44.9257],[18.9914,44.9149],[19.0158,44.8656],[18.9749,44.8628],[18.8896,44.8612],[18.8587,44.8685],[18.8421,44.8762],[18.8178,44.8875],[18.7834,44.9137],[18.7726,44.9425],[18.8046,44.9738],[18.789,45.0057],[18.7501,45.0122],[18.7263,45.0261],[18.689,45.0802],[18.6661,45.083],[18.6581,45.0663],[18.6405,45.0654],[18.6167,45.0977],[18.5348,45.0884],[18.5411,45.0553],[18.517,45.0559],[18.4817,45.0669],[18.4518,45.085],[18.412,45.1124],[18.3929,45.1186],[18.3223,45.1229],[18.262,45.1507],[18.2379,45.1575],[18.2023,45.1441],[18.1993,45.119],[18.1749,45.1008],[18.1437,45.0977],[18.0903,45.108],[18.0191,45.1494],[17.9885,45.1438],[17.9277,45.092],[17.9026,45.0778],[17.8357,45.0644],[17.7975,45.082],[17.7657,45.111],[17.7145,45.152],[17.6847,45.164],[17.63,45.1573],[17.5724,45.1204],[17.4893,45.1163],[17.4962,45.1417],[17.4478,45.1343],[17.4341,45.1486],[17.3824,45.1396],[17.269,45.1895],[17.2455,45.1554],[17.1871,45.1486],[17.1246,45.1691],[17.0557,45.2004],[17.0363,45.2305],[17.0083,45.2162],[16.9612,45.2509],[16.9473,45.2357],[16.9244,45.2845],[16.8307,45.217],[16.8242,45.1891],[16.7863,45.1788],[16.587,45.2209],[16.5289,45.2223],[16.4819,45.1995],[16.4355,45.1329],[16.3818,45.1076],[16.382,45.0837],[16.346,45.02],[16.3162,45.0012],[16.2793,45.0072],[16.213,45.0315],[16.1041,45.1125],[16.0675,45.1696],[16.0244,45.1843],[16.0292,45.205],[16.0085,45.2182],[15.8789,45.2172],[15.8248,45.211],[15.8026,45.1965],[15.78,45.1603],[15.7838,45.1009],[15.756,45.0422],[15.7674,44.9932],[15.7341,44.9344],[15.7343,44.9021],[15.7734,44.845],[15.7687,44.8273],[15.7306,44.817],[15.7173,44.7865],[15.7593,44.7342],[15.8057,44.6967],[15.8564,44.7036],[15.8763,44.7248],[15.8956,44.7186],[15.9131,44.6845],[15.9374,44.689],[15.969,44.6392],[16.0283,44.6247],[16.0447,44.5894],[16.0061,44.541],[16.0473,44.5233],[16.0837,44.5349],[16.1165,44.5215],[16.1529,44.4351],[16.1599,44.4007],[16.1388,44.3854],[16.1713,44.3771],[16.2056,44.3505],[16.1876,44.2824],[16.2158,44.2082],[16.2755,44.1574],[16.3269,44.0824],[16.3672,44.0581],[16.404,44.0588],[16.4396,44.014],[16.4835,44.0025],[16.5274,43.9679],[16.5558,43.9375],[16.6048,43.9011],[16.6374,43.8684],[16.6786,43.8407],[16.6982,43.7881],[16.7126,43.7715],[16.8238,43.7073],[17.0623,43.5277],[17.1428,43.4893],[17.2395,43.4784],[17.2705,43.4632],[17.2864,43.4374],[17.2676,43.3533],[17.2899,43.3034],[17.3287,43.2604],[17.4002,43.216],[17.4268,43.1657],[17.4509,43.1482],[17.5874,43.0821],[17.598,43.0729],[17.6284,43.0466],[17.6593,42.9934],[17.6627,42.9657],[17.6345,42.9504],[17.5807,42.9421],[17.587,42.9387],[17.587,42.9283],[17.5612,42.9338],[17.5612,42.9471],[17.5354,42.9538],[17.5354,42.9272],[17.5612,42.9272],[17.5733,42.9272],[17.587,42.921],[17.587,42.9005],[17.6127,42.893],[17.6385,42.8854],[17.6385,42.8976],[17.6533,42.8909],[17.6795,42.9157],[17.7016,42.9195],[17.7867,42.9014],[17.8118,42.9099],[17.8262,42.8886],[17.8272,42.8531],[17.8585,42.817],[17.9045,42.8045],[17.9719,42.755],[18.2241,42.6281],[18.3116,42.6012],[18.3387,42.6025],[18.3698,42.5744],[18.4374,42.5592],[18.442,42.543],[18.4364,42.5108],[18.4371,42.4934],[18.4443,42.4779],[18.4677,42.4534],[18.4929,42.4424],[18.4964,42.4163],[18.4745,42.4414],[18.4131,42.4619],[18.4119,42.476],[18.2389,42.5591],[18.2342,42.5643],[17.5086,42.8492],[17.4956,42.8572],[17.4404,42.8734],[17.442,42.8906],[17.4284,42.899],[17.3855,42.9163],[17.3509,42.9218],[17.2807,42.9585],[17.2603,42.9667],[17.252,42.9692],[17.1836,42.9843],[17.0954,42.9844],[17.0275,43.0036],[17.0282,43.0242],[17.0016,43.0515],[17.0733,43.0242],[17.1587,43.031],[17.2094,43.0259],[17.221,43.0259],[17.2258,43.0242],[17.2274,43.0241],[17.2262,43.0249],[17.1747,43.0569],[17.1489,43.0729],[17.1231,43.089],[17.0788,43.1165],[16.9169,43.1191],[16.6806,43.1228],[16.551,43.1436],[16.5393,43.148],[16.4452,43.1708],[16.3716,43.1955],[16.3804,43.202],[16.3973,43.2021],[16.3746,43.213],[16.3751,43.2131],[16.3748,43.2132],[16.375,43.2132],[16.3746,43.2134],[16.5207,43.2288],[16.5205,43.229],[16.5628,43.229],[16.5719,43.2232],[16.5955,43.2205],[16.6038,43.2235],[16.6595,43.216],[16.6745,43.1969],[16.6943,43.1793],[16.7113,43.1741],[16.8484,43.1624],[16.8644,43.1689],[16.8869,43.1591],[16.9169,43.1565],[17.0302,43.1468],[16.929,43.2097],[16.9169,43.2136],[16.7547,43.2665],[16.6283,43.2637],[16.564,43.2701],[16.5007,43.2842],[16.4996,43.2847],[16.4898,43.2859],[16.4214,43.3172],[16.4215,43.3176],[16.4214,43.3176],[16.4286,43.3436],[16.441,43.3687],[16.0924,43.4823],[16.0396,43.4908],[16.0128,43.504],[15.9735,43.5031],[15.981,43.5257],[15.9681,43.5403],[15.9595,43.5382],[15.9201,43.5905],[15.7242,43.7625],[15.7063,43.7634],[15.6821,43.7972],[15.633,43.8105],[15.6174,43.8255],[15.6415,43.8201],[15.5853,43.8554],[15.5741,43.8595],[15.5469,43.8766],[15.5387,43.8847],[15.4998,43.9092],[15.492,43.9158],[15.4661,43.9217],[15.3581,44.0257],[15.3195,44.0452],[15.2783,44.0856],[15.2129,44.131],[15.2127,44.1483],[15.1445,44.1955],[15.1573,44.2098],[15.1218,44.2564],[15.1219,44.2564],[15.1104,44.2644],[15.1576,44.2803],[15.1653,44.2679],[15.183,44.2724],[15.2073,44.2724],[15.2078,44.2728],[15.1981,44.3017],[15.2448,44.2772],[15.2838,44.2897],[15.2883,44.2897],[15.3027,44.2991],[15.2612,44.3326],[15.3086,44.3093],[15.3307,44.3014],[15.3771,44.3186],[15.3562,44.3378],[15.308,44.3544],[15.2938,44.3648],[15.155,44.4667],[15.1305,44.4894],[15.0444,44.5553],[15.0013,44.5785],[14.9014,44.6902],[14.8838,44.7236],[14.8923,44.733],[14.8895,44.7626],[14.8838,44.7888],[14.8838,44.8615],[14.8937,44.8869],[14.9057,44.9717],[14.9022,44.9791],[14.881,45.0252],[14.8598,45.0713],[14.8553,45.081],[14.8374,45.0924],[14.6676,45.1339],[14.6669,45.1318],[14.7009,45.09],[14.7283,45.0732],[14.7405,45.0731],[14.7404,45.0658],[14.7405,45.0657],[14.7744,45.0218],[14.7998,45.0052],[14.815,44.9775],[14.8089,44.9768],[14.7487,44.9666],[14.7568,44.9487],[14.7234,44.9433],[14.6882,44.9563],[14.6865,44.956],[14.6864,44.9561],[14.6861,44.956],[14.6824,44.9584],[14.6289,44.9782],[14.6282,44.9949],[14.6141,45.0254],[14.5997,45.0268],[14.5907,45.0233],[14.5105,45.0322],[14.4601,45.0524],[14.4251,45.0873],[14.4407,45.093],[14.4377,45.0983],[14.4379,45.0984],[14.4377,45.0987],[14.4652,45.1142],[14.4671,45.1241],[14.4897,45.1279],[14.5227,45.1465],[14.5213,45.1488],[14.5334,45.1666],[14.258,45.2339],[14.2551,45.2297],[14.2535,45.2235],[14.2477,45.1865],[14.2347,45.1546],[14.2092,45.1264],[14.2077,45.1268],[14.1916,45.1088],[14.1931,45.1056],[14.1745,45.0896],[14.1551,45.0678],[14.1662,45.0189],[14.1637,44.9958],[14.1399,44.9713],[14.1133,44.9775],[14.0689,44.9495],[14.0828,44.9839],[14.0421,44.9265],[14.0288,44.9105],[13.9727,44.8314],[13.9727,44.8266],[14,44.8131],[13.9639,44.8118],[13.9597,44.813],[13.9521,44.8024],[13.9519,44.8026],[13.9517,44.8024],[13.9363,44.8199],[13.9039,44.8294],[13.9017,44.8292],[13.9016,44.8292],[13.9013,44.8292],[13.8911,44.8314],[13.918,44.7783],[13.9032,44.7724],[13.897,44.8131],[13.8491,44.8266],[13.8491,44.8472],[13.7993,44.8646],[13.8338,44.8734],[13.8339,44.8736],[13.8237,44.8868],[13.8049,44.8854],[13.8073,44.9079],[13.7493,44.9825],[13.7328,44.9949],[13.6813,45.0464],[13.6232,45.0731],[13.6369,45.0936],[13.6126,45.1179],[13.6238,45.1232],[13.6197,45.1387],[13.6006,45.1373],[13.5994,45.1713],[13.5823,45.1966],[13.5942,45.2208],[13.5882,45.2596],[13.5915,45.264],[13.5774,45.3046],[13.5755,45.3065],[13.5766,45.3069],[13.5703,45.3253],[13.5618,45.3264],[13.5413,45.3461],[13.5549,45.3611],[13.5134,45.4362],[13.5208,45.4573],[13.5046,45.4839],[13.5071,45.5119],[13.5479,45.5005],[13.5895,45.4888],[13.6241,45.4627],[13.6428,45.4594],[13.6429,45.4594],[13.66,45.46],[13.7593,45.4632],[13.8065,45.4421],[13.8199,45.4326],[13.889,45.4236],[13.923,45.449],[13.9698,45.463],[13.9826,45.4753],[13.9615,45.4931],[13.9719,45.5142],[13.9875,45.5119],[14.014,45.508],[14.0667,45.4803],[14.0929,45.4739],[14.1167,45.473],[14.1173,45.473],[14.1455,45.4762],[14.2187,45.4972],[14.2804,45.4811],[14.3268,45.4749],[14.3728,45.4778],[14.4112,45.4932],[14.4689,45.5256],[14.4821,45.5424],[14.4915,45.5792],[14.4986,45.5962],[14.5436,45.6364],[14.5561,45.6567],[14.5691,45.6643],[14.5809,45.6678],[14.5919,45.6634],[14.5941,45.648],[14.5939,45.6162],[14.6031,45.6036],[14.616,45.5941],[14.6503,45.5748],[14.6637,45.5702],[14.6717,45.5568],[14.6685,45.534],[14.6883,45.522],[14.7815,45.4931],[14.7972,45.4652],[14.8388,45.459],[14.8816,45.4698],[14.9008,45.4931],[14.9044,45.5144],[14.9226,45.5149],[14.9454,45.5045],[14.9626,45.4931],[14.9773,45.4917],[15.0074,45.4808],[15.0562,45.4799],[15.0661,45.4739],[15.1393,45.43],[15.1842,45.4256],[15.2258,45.4365],[15.2816,45.451],[15.314,45.4505],[15.3339,45.4585],[15.3614,45.482],[15.311,45.5059],[15.2967,45.523],[15.2822,45.5715],[15.2696,45.5934],[15.2686,45.6017],[15.2879,45.6103],[15.2974,45.6257],[15.3267,45.6323],[15.3531,45.6403],[15.3738,45.6402],[15.3683,45.649],[15.35,45.6696],[15.3308,45.6846],[15.315,45.6809],[15.3049,45.6721],[15.2919,45.6756],[15.2778,45.685],[15.2678,45.6985],[15.2582,45.7051],[15.2509,45.7077],[15.2499,45.7137],[15.2635,45.7304],[15.3038,45.7461],[15.331,45.7525],[15.4298,45.7757],[15.4411,45.7822],[15.4356,45.8021],[15.4513,45.8151],[15.4854,45.8102],[15.5235,45.8268],[15.5497,45.8237],[15.5873,45.8192],[15.6261,45.8202],[15.6661,45.8317],[15.6761,45.8417],[15.6755,45.856],[15.6594,45.8888],[15.6756,45.9252],[15.6754,45.9725],[15.6742,45.9932],[15.682,46.0135],[15.698,46.0362],[15.6929,46.0416],[15.6839,46.0511],[15.6717,46.0574],[15.6437,46.0655],[15.6315,46.0706],[15.6236,46.0764],[15.6235,46.0764],[15.6038,46.091],[15.5899,46.1135],[15.59,46.1387],[15.6043,46.167],[15.6229,46.1917],[15.6266,46.1952],[15.6398,46.2077],[15.6613,46.2153],[15.678,46.2145],[15.7498,46.2108],[15.7689,46.2194],[15.7891,46.2431],[15.7995,46.2486]]],[[[14.6649,44.7931],[14.6579,44.7988],[14.6618,44.7983],[14.6609,44.7997],[14.661,44.7999],[14.6609,44.8001],[14.6717,44.8244],[14.6873,44.8454],[14.6858,44.8472],[14.6883,44.8468],[14.6897,44.8487],[14.6901,44.8487],[14.7325,44.8465],[14.739,44.8534],[14.7464,44.8457],[14.7549,44.8453],[14.7657,44.821],[14.8112,44.7771],[14.8224,44.7714],[14.8512,44.7373],[14.8506,44.7239],[14.8557,44.7151],[14.8554,44.7152],[14.8557,44.7147],[14.8552,44.7149],[14.8553,44.7147],[14.8502,44.7169],[14.8496,44.7032],[14.806,44.7357],[14.7617,44.7546],[14.7061,44.7651],[14.6995,44.7652],[14.6977,44.7667],[14.6789,44.7702],[14.6649,44.7931]]],[[[14.3894,44.7524],[14.3745,44.7539],[14.3648,44.8004],[14.3544,44.8201],[14.3298,44.8339],[14.3141,44.8938],[14.2942,44.9086],[14.3009,44.9406],[14.3009,44.9407],[14.3015,44.9434],[14.303,44.9428],[14.3405,44.9807],[14.3405,45.0202],[14.3161,45.0766],[14.2874,45.1011],[14.2777,45.128],[14.2883,45.1411],[14.2865,45.1452],[14.2866,45.1453],[14.2865,45.1456],[14.295,45.1494],[14.3137,45.1724],[14.3562,45.1693],[14.3571,45.168],[14.3585,45.1682],[14.3589,45.1682],[14.3593,45.1646],[14.3641,45.1576],[14.3636,45.1302],[14.3697,45.0814],[14.3949,45.031],[14.4467,44.9873],[14.4661,44.9837],[14.471,44.9539],[14.4626,44.9401],[14.4525,44.8694],[14.4555,44.8396],[14.4666,44.8048],[14.4593,44.8018],[14.4615,44.7795],[14.4739,44.7545],[14.4724,44.7135],[14.4778,44.7019],[14.5139,44.6622],[14.5204,44.6215],[14.473,44.6203],[14.4279,44.6566],[14.3945,44.7076],[14.3961,44.734],[14.3894,44.7524]]],[[[14.7444,44.6947],[14.7412,44.7016],[14.78,44.6695],[14.7846,44.6646],[14.8053,44.6491],[14.8557,44.6179],[14.8989,44.6109],[14.9004,44.6099],[14.9041,44.61],[14.9663,44.5734],[15.0018,44.5382],[15.0051,44.5358],[15.0412,44.5275],[15.0755,44.4841],[15.0514,44.4938],[15.1005,44.4489],[15.1434,44.4164],[15.241,44.3505],[15.2406,44.3504],[15.2408,44.3503],[15.2407,44.3503],[15.241,44.3501],[15.2394,44.3499],[15.2544,44.34],[15.2351,44.3362],[15.2137,44.3468],[15.2122,44.3466],[15.2061,44.3441],[15.2271,44.3264],[15.1989,44.317],[15.1761,44.3242],[15.1618,44.3084],[15.1616,44.3086],[15.1614,44.3084],[15.1368,44.3275],[15.1309,44.3264],[15.1724,44.2991],[15.1288,44.312],[15.0967,44.34],[15.1104,44.3463],[15.1071,44.3506],[15.0966,44.3588],[15.039,44.3935],[14.9957,44.4334],[14.9158,44.4837],[14.8975,44.4909],[14.9072,44.4972],[14.8841,44.5445],[14.8093,44.6177],[14.7615,44.6586],[14.7513,44.6801],[14.7401,44.6973],[14.7406,44.6969],[14.7401,44.6977],[14.7409,44.6971],[14.7405,44.6977],[14.7444,44.6947]]],[[[15.2697,44.0098],[15.2694,44.0103],[15.27,44.0101],[15.2698,44.0103],[15.2724,44.0093],[15.2964,44.0056],[15.323,43.991],[15.3706,43.9738],[15.3719,43.9724],[15.384,43.9702],[15.3883,43.9545],[15.4058,43.9354],[15.4188,43.9291],[15.4372,43.9011],[15.439,43.8991],[15.4385,43.8992],[15.439,43.8987],[15.4387,43.8988],[15.4461,43.8875],[15.4071,43.8961],[15.3587,43.9194],[15.3579,43.9259],[15.309,43.9612],[15.3066,43.9642],[15.3027,43.9664],[15.2612,44.0111],[15.2695,44.0098],[15.2694,44.0099],[15.2697,44.0098]]],[[[15.2061,44.049],[15.1891,44.0478],[15.1218,44.0922],[15.0871,44.1237],[15.0821,44.1314],[15.075,44.1383],[15.0642,44.1574],[15.0645,44.1572],[15.0642,44.1578],[15.0648,44.1575],[15.0646,44.1578],[15.0655,44.1573],[15.0625,44.1619],[15.2258,44.0662],[15.2298,44.0625],[15.2302,44.0623],[15.2303,44.0621],[15.2471,44.0467],[15.2544,44.0179],[15.2431,44.0297],[15.2061,44.049]]],[[[15.1985,43.8977],[15.1955,43.8952],[15.1844,43.9016],[15.1508,43.9108],[15.1386,43.9079],[15.1365,43.903],[15.1066,43.9254],[15.0428,43.9904],[15.0421,43.9914],[14.9044,44.1145],[14.8701,44.1408],[14.8496,44.1756],[14.8671,44.1661],[14.8661,44.1678],[14.8665,44.1676],[14.8661,44.1682],[14.8667,44.1678],[14.8665,44.1682],[14.9102,44.1428],[14.9391,44.1271],[14.9403,44.1252],[14.9529,44.1179],[14.9906,44.0868],[15.0227,44.0722],[15.0266,44.0571],[15.1764,43.9334],[15.2168,43.9128],[15.2029,43.9013],[15.2014,43.897],[15.201,43.8971],[15.201,43.897],[15.1985,43.8977]]],[[[17.7423,42.7014],[17.7428,42.7011],[17.7425,42.7012],[17.743,42.7009],[17.7427,42.701],[17.7489,42.6946],[17.3859,42.7709],[17.3738,42.76],[17.3237,42.7908],[17.3738,42.8026],[17.3724,42.7953],[17.3898,42.7985],[17.433,42.8003],[17.4331,42.8003],[17.4334,42.8003],[17.6098,42.769],[17.6699,42.7384],[17.7305,42.7134],[17.7417,42.702],[17.743,42.7013],[17.7423,42.7015],[17.7426,42.7013],[17.7423,42.7014]]],[[[17.1145,42.9149],[17.1074,42.9143],[17.1048,42.9147],[17.0878,42.9144],[17.0877,42.9144],[17.0874,42.9144],[16.9845,42.9272],[16.9729,42.9267],[16.8987,42.9058],[16.8844,42.9043],[16.8502,42.8953],[16.8499,42.8953],[16.8498,42.8953],[16.7382,42.9127],[16.7191,42.9219],[16.6914,42.9282],[16.6726,42.9218],[16.6384,42.9348],[16.6767,42.9501],[16.6662,42.9596],[16.659,42.9779],[16.6317,42.9826],[16.6527,42.9924],[16.6532,42.9924],[16.6518,42.996],[16.652,42.996],[16.6518,42.9964],[16.6522,42.9963],[16.6522,42.9964],[16.6861,42.9913],[16.7205,42.9901],[16.7388,42.9833],[16.8356,42.9686],[16.9722,42.9825],[16.9724,42.9825],[16.9726,42.9825],[16.9917,42.9798],[17.0321,42.9826],[17.1111,42.9643],[17.1318,42.9696],[17.2002,42.9218],[17.1841,42.9205],[17.1886,42.9166],[17.1882,42.9166],[17.1884,42.9164],[17.1886,42.9162],[17.1145,42.9149]]]]}}
]}
