{"type":"FeatureCollection","features":[
{"type":"Feature","properties":{"entityId":"croatia-kingdom","from":1000,"to":1091,"certainty":"estimated","source":"유럽 쪽은 Natural Earth 1:10m admin-1(v5.1.2) 현대 행정구역 조각을 그 시기 국경에 맞춰 묶고, 조각이 역사 경계와 다른 곳은 선을 그어 나눈 근사. 유럽 밖(시베리아·중앙아시아·극동)은 대략적인 추정. 운영자 검수 필요"},"geometry":{"type":"MultiPolygon","coordinates":[[[[14.1173,45.473],[14.1389,45.4343],[14.2036,45.4039],[14.1995,45.3756],[14.2105,45.3278],[14.1946,45.275],[14.2026,45.1716],[14.2347,45.1546],[14.2477,45.1865],[14.2535,45.2235],[14.2551,45.2297],[14.258,45.2339],[14.5334,45.1666],[14.5213,45.1488],[14.5227,45.1465],[14.4897,45.1279],[14.4671,45.1241],[14.4652,45.1142],[14.4377,45.0987],[14.4379,45.0984],[14.4377,45.0983],[14.4407,45.093],[14.4251,45.0873],[14.4601,45.0524],[14.5105,45.0322],[14.5907,45.0233],[14.5997,45.0268],[14.6141,45.0254],[14.6282,44.9949],[14.6289,44.9782],[14.6824,44.9584],[14.6861,44.956],[14.6864,44.9561],[14.6865,44.956],[14.6882,44.9563],[14.7234,44.9433],[14.7568,44.9487],[14.7487,44.9666],[14.8089,44.9768],[14.815,44.9775],[14.7998,45.0052],[14.7744,45.0218],[14.7405,45.0657],[14.7404,45.0658],[14.7405,45.0731],[14.7283,45.0732],[14.7009,45.09],[14.6669,45.1318],[14.6676,45.1339],[14.8374,45.0924],[14.8553,45.081],[14.8598,45.0713],[14.9022,44.9791],[14.9057,44.9717],[14.8937,44.8869],[14.8838,44.8615],[14.8838,44.7888],[14.8895,44.7626],[14.8923,44.733],[14.8838,44.7236],[14.9014,44.6902],[15.0013,44.5785],[15.0444,44.5553],[15.1305,44.4894],[15.155,44.4667],[15.2938,44.3648],[15.308,44.3544],[15.3501,44.3399],[15.3562,44.3378],[15.3771,44.3186],[15.3769,44.3185],[15.3307,44.3014],[15.3086,44.3093],[15.2612,44.3326],[15.3027,44.2991],[15.2883,44.2897],[15.2838,44.2897],[15.2448,44.2772],[15.1981,44.3017],[15.2078,44.2728],[15.2073,44.2724],[15.183,44.2724],[15.1653,44.2679],[15.1576,44.2803],[15.1104,44.2644],[15.1219,44.2564],[15.1218,44.2564],[15.1573,44.2098],[15.1445,44.1955],[15.2127,44.1483],[15.2129,44.131],[15.2783,44.0856],[15.3195,44.0452],[15.3581,44.0257],[15.4661,43.9217],[15.492,43.9158],[15.4998,43.9092],[15.5387,43.8847],[15.5469,43.8766],[15.5741,43.8595],[15.5853,43.8554],[15.6415,43.8201],[15.6174,43.8255],[15.633,43.8105],[15.6821,43.7972],[15.7063,43.7634],[15.7242,43.7625],[15.9201,43.5905],[15.9595,43.5382],[15.9681,43.5403],[15.981,43.5257],[15.9735,43.5031],[16.0128,43.504],[16.0396,43.4908],[16.0924,43.4823],[16.441,43.3687],[16.4286,43.3436],[16.4214,43.3176],[16.4215,43.3176],[16.4214,43.3172],[16.4898,43.2859],[16.4996,43.2847],[16.5007,43.2842],[16.564,43.2701],[16.6283,43.2637],[16.7547,43.2665],[16.9169,43.2136],[16.929,43.2097],[17.0302,43.1468],[16.9169,43.1565],[16.8869,43.1591],[16.8644,43.1689],[16.8484,43.1624],[16.7113,43.1741],[16.6943,43.1793],[16.6745,43.1969],[16.6595,43.216],[16.6038,43.2235],[16.5955,43.2205],[16.5719,43.2232],[16.5628,43.229],[16.5205,43.229],[16.5207,43.2288],[16.3746,43.2134],[16.375,43.2132],[16.3748,43.2132],[16.3751,43.2131],[16.3746,43.213],[16.3973,43.2021],[16.3804,43.202],[16.3716,43.1955],[16.4452,43.1708],[16.5393,43.148],[16.551,43.1436],[16.6806,43.1228],[16.9169,43.1191],[17.0788,43.1165],[17.1231,43.089],[17.1489,43.0729],[17.1747,43.0569],[17.1747,43.064],[17.2262,43.064],[17.2262,43.0764],[17.3292,43.0764],[17.3292,43.063],[17.3588,43.063],[17.3588,43.0857],[17.3654,43.0792],[17.4063,43.1005],[17.3531,43.1568],[17.3734,43.1511],[17.4063,43.1418],[17.4509,43.1482],[17.4268,43.1657],[17.4002,43.216],[17.3287,43.2604],[17.2899,43.3034],[17.2676,43.3533],[17.2864,43.4374],[17.2705,43.4632],[17.2395,43.4784],[17.1428,43.4893],[17.0623,43.5277],[17.1175,43.5462],[17.1691,43.5462],[17.23,43.5647],[17.2538,43.5595],[17.2724,43.5383],[17.2988,43.5383],[17.3915,43.574],[17.4987,43.5872],[17.5265,43.619],[17.5305,43.6504],[17.4445,43.7395],[17.3915,43.7449],[17.3809,43.7819],[17.3835,43.8415],[17.418,43.8586],[17.4656,43.8428],[17.4593,43.8604],[17.5251,43.8369],[17.5967,43.8477],[17.6425,43.8393],[17.7163,43.8139],[17.7551,43.8175],[17.8119,43.8392],[17.8905,43.8368],[17.9158,43.7981],[17.9437,43.7763],[18.0069,43.7747],[18.0345,43.7063],[18.0587,43.6809],[18.0961,43.6747],[18.1493,43.6771],[18.182,43.6542],[18.1977,43.6046],[18.2618,43.578],[18.2896,43.5743],[18.3029,43.6021],[18.3827,43.5883],[18.3904,43.5939],[18.4294,43.5879],[18.4684,43.6139],[18.5527,43.6171],[18.583,43.6367],[18.6493,43.5989],[18.6937,43.5832],[18.7609,43.576],[18.8854,43.5917],[18.9626,43.6175],[19.0199,43.6547],[19.0513,43.659],[19.0571,43.6733],[19.0456,43.7019],[19.0284,43.7176],[18.9726,43.7248],[18.9497,43.742],[19.0017,43.7676],[19.0706,43.7838],[19.1436,43.7716],[19.1761,43.7554],[19.2207,43.7514],[19.2409,43.7757],[19.2207,43.8162],[19.2247,43.8527],[19.2166,43.9055],[19.225,43.9215],[19.1274,43.9987],[19.0057,44.0474],[18.9084,44.092],[18.7366,44.1203],[18.7631,44.1488],[18.7867,44.1804],[18.7924,44.2148],[18.7824,44.2462],[18.7523,44.2992],[18.7452,44.3407],[18.7538,44.3578],[18.8067,44.3736],[18.8382,44.4165],[18.9226,44.4265],[19.0199,44.4759],[19.0284,44.4902],[19.0311,44.5675],[19.0993,44.5942],[19.1472,44.575],[19.1796,44.5383],[19.1863,44.5693],[19.2557,44.6456],[19.2776,44.6849],[19.3084,44.7051],[19.3284,44.734],[19.3637,44.8546],[19.3766,44.863],[19.357,44.8959],[19.3102,44.9124],[19.2395,44.9151],[19.2019,44.9084],[19.1743,44.9254],[19.0846,44.879],[19.0158,44.8656],[18.9749,44.8628],[18.8896,44.8612],[18.8587,44.8685],[18.8421,44.8762],[18.8178,44.8875],[18.7834,44.9137],[18.7726,44.9425],[18.8046,44.9738],[18.789,45.0057],[18.7501,45.0122],[18.7263,45.0261],[18.689,45.0802],[18.6661,45.083],[18.6581,45.0663],[18.6405,45.0654],[18.6167,45.0977],[18.5348,45.0884],[18.504,45.1289],[18.5034,45.1555],[18.5369,45.1935],[18.5538,45.192],[18.5679,45.2266],[18.5532,45.2413],[18.5067,45.251],[18.5119,45.2926],[18.5727,45.3052],[18.5897,45.3186],[18.6323,45.3214],[18.655,45.3916],[18.7141,45.4161],[18.7869,45.4136],[18.8019,45.4228],[18.7886,45.4554],[18.8611,45.4813],[18.8822,45.4781],[18.9385,45.4325],[19.0023,45.4437],[18.9964,45.4738],[19.0179,45.4978],[19.0772,45.4916],[19.1063,45.5116],[19.0951,45.5261],[19.051,45.5389],[19.0181,45.5674],[18.9602,45.5391],[18.9417,45.5389],[18.9036,45.5731],[18.9124,45.6192],[18.9685,45.6687],[18.9627,45.6831],[18.9173,45.7066],[18.9002,45.7649],[18.8487,45.8096],[18.8553,45.8574],[18.8998,45.8614],[18.904,45.8757],[18.8729,45.8952],[18.907,45.9157],[18.9013,45.9312],[18.8225,45.9056],[18.8049,45.9136],[18.786,45.8869],[18.7633,45.884],[18.6743,45.9104],[18.633,45.8919],[18.6222,45.8684],[18.5855,45.8269],[18.5303,45.7909],[18.4818,45.7914],[18.4117,45.7432],[18.3838,45.7432],[18.3672,45.7582],[18.3177,45.7473],[18.2112,45.7854],[18.129,45.7854],[18.0805,45.7717],[17.9754,45.7921],[17.9062,45.7921],[17.858,45.7759],[17.8092,45.8144],[17.6873,45.8406],[17.6547,45.8521],[17.6458,45.8918],[17.5911,45.9362],[17.5119,45.9539],[17.4267,45.9567],[17.4062,45.9437],[17.3892,45.9631],[17.3453,45.9557],[17.3379,45.9846],[17.3066,45.9799],[17.2901,45.9915],[17.3168,45.9977],[17.2759,46.012],[17.2486,46.0802],[17.1973,46.1212],[17.1162,46.1231],[17.0529,46.1535],[17.028,46.1805],[16.9748,46.2106],[16.9407,46.2515],[16.8892,46.2922],[16.8793,46.3121],[16.8594,46.3648],[16.8377,46.3819],[16.7693,46.3961],[16.7551,46.3819],[16.7429,46.3996],[16.7124,46.4127],[16.6593,46.4642],[16.5943,46.483],[16.5837,46.4707],[16.5153,46.5017],[16.4911,46.5151],[16.4708,46.5203],[16.4404,46.519],[16.432,46.5232],[16.4152,46.5356],[16.4063,46.5395],[16.3695,46.5406],[16.3579,46.547],[16.3517,46.5395],[16.3441,46.547],[16.3403,46.5438],[16.33,46.5355],[16.3107,46.531],[16.3015,46.5271],[16.2954,46.5244],[16.2639,46.5159],[16.2609,46.5136],[16.2349,46.4933],[16.2342,46.4849],[16.2375,46.4651],[16.2494,46.4375],[16.2482,46.4133],[16.257,46.3999],[16.2741,46.3921],[16.2799,46.3787],[16.2756,46.3732],[16.2528,46.3734],[16.2171,46.3674],[16.1918,46.3698],[16.1775,46.3756],[16.1536,46.3914],[16.1316,46.3931],[16.106,46.3737],[16.0887,46.3731],[16.058,46.3775],[16.0574,46.3597],[16.0597,46.3453],[16.0596,46.3323],[16.0524,46.3186],[16.0499,46.3167],[16.0389,46.3084],[16.0192,46.2988],[15.9937,46.2906],[15.9487,46.2842],[15.9189,46.2728],[15.8837,46.2594],[15.8809,46.2593],[15.8793,46.2593],[15.8342,46.2584],[15.8183,46.2555],[15.8031,46.2505],[15.7995,46.2486],[15.7891,46.2431],[15.7689,46.2194],[15.7498,46.2108],[15.678,46.2145],[15.6613,46.2153],[15.6398,46.2077],[15.6266,46.1952],[15.6229,46.1917],[15.6043,46.167],[15.59,46.1387],[15.5899,46.1135],[15.6038,46.091],[15.6235,46.0764],[15.6236,46.0764],[15.6315,46.0706],[15.6437,46.0655],[15.6717,46.0574],[15.6839,46.0511],[15.6929,46.0416],[15.698,46.0362],[15.682,46.0135],[15.6742,45.9932],[15.6754,45.9725],[15.6756,45.9252],[15.6594,45.8888],[15.6755,45.856],[15.6761,45.8417],[15.6661,45.8317],[15.6261,45.8202],[15.5873,45.8192],[15.5497,45.8237],[15.5235,45.8268],[15.4854,45.8102],[15.4513,45.8151],[15.4356,45.8021],[15.4411,45.7822],[15.4298,45.7757],[15.331,45.7525],[15.3038,45.7461],[15.2635,45.7304],[15.2499,45.7137],[15.2509,45.7077],[15.2582,45.7051],[15.2678,45.6985],[15.2778,45.685],[15.2919,45.6756],[15.3049,45.6721],[15.315,45.6809],[15.3308,45.6846],[15.35,45.6696],[15.3683,45.649],[15.3738,45.6402],[15.3531,45.6403],[15.3267,45.6323],[15.2974,45.6257],[15.2879,45.6103],[15.2686,45.6017],[15.2696,45.5934],[15.2822,45.5715],[15.2967,45.523],[15.311,45.5059],[15.3614,45.482],[15.3339,45.4585],[15.314,45.4505],[15.2816,45.451],[15.2258,45.4365],[15.1842,45.4256],[15.1393,45.43],[15.0661,45.4739],[15.0562,45.4799],[15.0074,45.4808],[14.9773,45.4917],[14.9626,45.4931],[14.9454,45.5045],[14.9226,45.5149],[14.9044,45.5144],[14.9008,45.4931],[14.8816,45.4698],[14.8388,45.459],[14.7972,45.4652],[14.7815,45.4931],[14.6883,45.522],[14.6685,45.534],[14.6717,45.5568],[14.6637,45.5702],[14.6503,45.5748],[14.616,45.5941],[14.6031,45.6036],[14.5939,45.6162],[14.5941,45.648],[14.5919,45.6634],[14.5809,45.6678],[14.5691,45.6643],[14.5561,45.6567],[14.5436,45.6364],[14.4986,45.5962],[14.4915,45.5792],[14.4821,45.5424],[14.4689,45.5256],[14.4112,45.4932],[14.3728,45.4778],[14.3268,45.4749],[14.2804,45.4811],[14.2187,45.4972],[14.1455,45.4762],[14.1173,45.473]]],[[[14.2777,45.128],[14.2874,45.1011],[14.3161,45.0766],[14.3405,45.0202],[14.3405,44.9807],[14.303,44.9428],[14.3015,44.9434],[14.3009,44.9407],[14.3009,44.9406],[14.2942,44.9086],[14.3141,44.8938],[14.3298,44.8339],[14.3544,44.8201],[14.3648,44.8004],[14.3745,44.7539],[14.3894,44.7524],[14.3961,44.734],[14.3945,44.7076],[14.4279,44.6566],[14.473,44.6203],[14.5204,44.6215],[14.5139,44.6622],[14.4778,44.7019],[14.4724,44.7135],[14.4739,44.7545],[14.4615,44.7795],[14.4593,44.8018],[14.4666,44.8048],[14.4555,44.8396],[14.4525,44.8694],[14.4626,44.9401],[14.471,44.9539],[14.4661,44.9837],[14.4467,44.9873],[14.3949,45.031],[14.3697,45.0814],[14.3636,45.1302],[14.3641,45.1576],[14.3593,45.1646],[14.3589,45.1682],[14.3585,45.1682],[14.3571,45.168],[14.3562,45.1693],[14.3137,45.1724],[14.295,45.1494],[14.2865,45.1456],[14.2866,45.1453],[14.2865,45.1452],[14.2883,45.1411],[14.2777,45.128]]],[[[14.6579,44.7988],[14.6649,44.7931],[14.6789,44.7702],[14.6977,44.7667],[14.6995,44.7652],[14.7061,44.7651],[14.7617,44.7546],[14.806,44.7357],[14.8496,44.7032],[14.8502,44.7169],[14.8553,44.7147],[14.8552,44.7149],[14.8557,44.7147],[14.8554,44.7152],[14.8557,44.7151],[14.8506,44.7239],[14.8512,44.7373],[14.8224,44.7714],[14.8112,44.7771],[14.7657,44.821],[14.7549,44.8453],[14.7464,44.8457],[14.739,44.8534],[14.7325,44.8465],[14.6901,44.8487],[14.6897,44.8487],[14.6883,44.8468],[14.6858,44.8472],[14.6873,44.8454],[14.6717,44.8244],[14.6609,44.8001],[14.661,44.7999],[14.6609,44.7997],[14.6618,44.7983],[14.6579,44.7988]]],[[[14.7401,44.6973],[14.7513,44.6801],[14.7615,44.6586],[14.8093,44.6177],[14.8841,44.5445],[14.9072,44.4972],[14.8975,44.4909],[14.9158,44.4837],[14.9957,44.4334],[15.039,44.3935],[15.0966,44.3588],[15.1071,44.3506],[15.1104,44.3463],[15.0967,44.34],[15.1288,44.312],[15.1724,44.2991],[15.1309,44.3264],[15.1368,44.3275],[15.1614,44.3084],[15.1616,44.3086],[15.1618,44.3084],[15.1761,44.3242],[15.1989,44.317],[15.2271,44.3264],[15.2061,44.3441],[15.2122,44.3466],[15.2137,44.3468],[15.2351,44.3362],[15.2544,44.34],[15.2394,44.3499],[15.241,44.3501],[15.2407,44.3503],[15.2408,44.3503],[15.2406,44.3504],[15.241,44.3505],[15.1434,44.4164],[15.1005,44.4489],[15.0514,44.4938],[15.0755,44.4841],[15.0412,44.5275],[15.0051,44.5358],[15.0018,44.5382],[14.9663,44.5734],[14.9041,44.61],[14.9004,44.6099],[14.8989,44.6109],[14.8557,44.6179],[14.8053,44.6491],[14.7846,44.6646],[14.78,44.6695],[14.7412,44.7016],[14.7444,44.6947],[14.7405,44.6977],[14.7409,44.6971],[14.7401,44.6977],[14.7406,44.6969],[14.7401,44.6973]]],[[[14.8496,44.1756],[14.8701,44.1408],[14.9044,44.1145],[15.0421,43.9914],[15.0428,43.9904],[15.1066,43.9254],[15.1365,43.903],[15.1386,43.9079],[15.1508,43.9108],[15.1844,43.9016],[15.1955,43.8952],[15.1985,43.8977],[15.201,43.897],[15.201,43.8971],[15.2014,43.897],[15.2029,43.9013],[15.2168,43.9128],[15.1764,43.9334],[15.0266,44.0571],[15.0227,44.0722],[14.9906,44.0868],[14.9529,44.1179],[14.9403,44.1252],[14.9391,44.1271],[14.9102,44.1428],[14.8665,44.1682],[14.8667,44.1678],[14.8661,44.1682],[14.8665,44.1676],[14.8661,44.1678],[14.8671,44.1661],[14.8496,44.1756]]],[[[15.0625,44.1619],[15.0655,44.1573],[15.0646,44.1578],[15.0648,44.1575],[15.0642,44.1578],[15.0645,44.1572],[15.0642,44.1574],[15.075,44.1383],[15.0821,44.1314],[15.0871,44.1237],[15.1218,44.0922],[15.1891,44.0478],[15.2061,44.049],[15.2431,44.0297],[15.2544,44.0179],[15.2471,44.0467],[15.2303,44.0621],[15.2302,44.0623],[15.2298,44.0625],[15.2258,44.0662],[15.0625,44.1619]]],[[[15.2612,44.0111],[15.3027,43.9664],[15.3066,43.9642],[15.309,43.9612],[15.3579,43.9259],[15.3587,43.9194],[15.4071,43.8961],[15.4461,43.8875],[15.4387,43.8988],[15.439,43.8987],[15.4385,43.8992],[15.439,43.8991],[15.4372,43.9011],[15.4188,43.9291],[15.4058,43.9354],[15.3883,43.9545],[15.384,43.9702],[15.3719,43.9724],[15.3706,43.9738],[15.323,43.991],[15.2964,44.0056],[15.2724,44.0093],[15.2698,44.0103],[15.27,44.0101],[15.2694,44.0103],[15.2697,44.0098],[15.2694,44.0099],[15.2695,44.0098],[15.2612,44.0111]]]]}},
{"type":"Feature","properties":{"entityId":"croatia-kingdom","from":1091,"to":1102,"certainty":"estimated","source":"유럽 쪽은 Natural Earth 1:10m admin-1(v5.1.2) 현대 행정구역 조각을 그 시기 국경에 맞춰 묶고, 조각이 역사 경계와 다른 곳은 선을 그어 나눈 근사. 유럽 밖(시베리아·중앙아시아·극동)은 대략적인 추정. 운영자 검수 필요"},"geometry":{"type":"MultiPolygon","coordinates":[[[[14.1173,45.473],[14.1389,45.4343],[14.2036,45.4039],[14.1995,45.3756],[14.2105,45.3278],[14.1946,45.275],[14.2026,45.1716],[14.2347,45.1546],[14.2477,45.1865],[14.2535,45.2235],[14.2551,45.2297],[14.258,45.2339],[14.5334,45.1666],[14.5213,45.1488],[14.5227,45.1465],[14.4897,45.1279],[14.4671,45.1241],[14.4652,45.1142],[14.4377,45.0987],[14.4379,45.0984],[14.4377,45.0983],[14.4407,45.093],[14.4251,45.0873],[14.4601,45.0524],[14.5105,45.0322],[14.5907,45.0233],[14.5997,45.0268],[14.6141,45.0254],[14.6282,44.9949],[14.6289,44.9782],[14.6824,44.9584],[14.6861,44.956],[14.6864,44.9561],[14.6865,44.956],[14.6882,44.9563],[14.7234,44.9433],[14.7568,44.9487],[14.7487,44.9666],[14.8089,44.9768],[14.815,44.9775],[14.7998,45.0052],[14.7744,45.0218],[14.7405,45.0657],[14.7404,45.0658],[14.7405,45.0731],[14.7283,45.0732],[14.7009,45.09],[14.6669,45.1318],[14.6676,45.1339],[14.8374,45.0924],[14.8553,45.081],[14.8598,45.0713],[14.9022,44.9791],[14.9057,44.9717],[14.8937,44.8869],[14.8838,44.8615],[14.8838,44.7888],[14.8895,44.7626],[14.8923,44.733],[14.8838,44.7236],[14.9014,44.6902],[15.0013,44.5785],[15.0444,44.5553],[15.1305,44.4894],[15.155,44.4667],[15.2938,44.3648],[15.308,44.3544],[15.3501,44.3399],[15.3562,44.3378],[15.3771,44.3186],[15.3769,44.3185],[15.3307,44.3014],[15.3086,44.3093],[15.2612,44.3326],[15.3027,44.2991],[15.2883,44.2897],[15.2838,44.2897],[15.2448,44.2772],[15.1981,44.3017],[15.2078,44.2728],[15.2073,44.2724],[15.183,44.2724],[15.1653,44.2679],[15.1576,44.2803],[15.1104,44.2644],[15.1219,44.2564],[15.1218,44.2564],[15.1573,44.2098],[15.1445,44.1955],[15.2127,44.1483],[15.2129,44.131],[15.2783,44.0856],[15.3195,44.0452],[15.3581,44.0257],[15.4661,43.9217],[15.492,43.9158],[15.4998,43.9092],[15.5387,43.8847],[15.5469,43.8766],[15.5741,43.8595],[15.5853,43.8554],[15.6415,43.8201],[15.6174,43.8255],[15.633,43.8105],[15.6821,43.7972],[15.7063,43.7634],[15.7242,43.7625],[15.9201,43.5905],[15.9595,43.5382],[15.9681,43.5403],[15.981,43.5257],[15.9735,43.5031],[16.0128,43.504],[16.0396,43.4908],[16.0924,43.4823],[16.441,43.3687],[16.4286,43.3436],[16.4214,43.3176],[16.4215,43.3176],[16.4214,43.3172],[16.4898,43.2859],[16.4996,43.2847],[16.5007,43.2842],[16.564,43.2701],[16.6283,43.2637],[16.7547,43.2665],[16.9169,43.2136],[16.929,43.2097],[17.0302,43.1468],[16.9169,43.1565],[16.8869,43.1591],[16.8644,43.1689],[16.8484,43.1624],[16.7113,43.1741],[16.6943,43.1793],[16.6745,43.1969],[16.6595,43.216],[16.6038,43.2235],[16.5955,43.2205],[16.5719,43.2232],[16.5628,43.229],[16.5205,43.229],[16.5207,43.2288],[16.3746,43.2134],[16.375,43.2132],[16.3748,43.2132],[16.3751,43.2131],[16.3746,43.213],[16.3973,43.2021],[16.3804,43.202],[16.3716,43.1955],[16.4452,43.1708],[16.5393,43.148],[16.551,43.1436],[16.6806,43.1228],[16.9169,43.1191],[17.0788,43.1165],[17.1231,43.089],[17.1489,43.0729],[17.1747,43.0569],[17.1747,43.064],[17.2262,43.064],[17.2262,43.0764],[17.3292,43.0764],[17.3292,43.063],[17.3588,43.063],[17.3588,43.0857],[17.3654,43.0792],[17.4063,43.1005],[17.3531,43.1568],[17.3734,43.1511],[17.4063,43.1418],[17.4509,43.1482],[17.4268,43.1657],[17.4002,43.216],[17.3287,43.2604],[17.2899,43.3034],[17.2676,43.3533],[17.2864,43.4374],[17.2705,43.4632],[17.2395,43.4784],[17.1428,43.4893],[17.0623,43.5277],[17.1175,43.5462],[17.1691,43.5462],[17.23,43.5647],[17.2538,43.5595],[17.2724,43.5383],[17.2988,43.5383],[17.3915,43.574],[17.4987,43.5872],[17.5265,43.619],[17.5305,43.6504],[17.4445,43.7395],[17.3915,43.7449],[17.3809,43.7819],[17.3835,43.8415],[17.418,43.8586],[17.4656,43.8428],[17.4593,43.8604],[17.5251,43.8369],[17.5967,43.8477],[17.6425,43.8393],[17.7163,43.8139],[17.7551,43.8175],[17.8119,43.8392],[17.8905,43.8368],[17.9158,43.7981],[17.9437,43.7763],[18.0069,43.7747],[18.0345,43.7063],[18.0587,43.6809],[18.0961,43.6747],[18.1493,43.6771],[18.182,43.6542],[18.1977,43.6046],[18.2618,43.578],[18.2896,43.5743],[18.3029,43.6021],[18.3827,43.5883],[18.3904,43.5939],[18.4294,43.5879],[18.4684,43.6139],[18.5527,43.6171],[18.583,43.6367],[18.6493,43.5989],[18.6937,43.5832],[18.7609,43.576],[18.8854,43.5917],[18.9626,43.6175],[19.0199,43.6547],[19.0513,43.659],[19.0571,43.6733],[19.0456,43.7019],[19.0284,43.7176],[18.9726,43.7248],[18.9497,43.742],[19.0017,43.7676],[19.0706,43.7838],[19.1436,43.7716],[19.1761,43.7554],[19.2207,43.7514],[19.2409,43.7757],[19.2207,43.8162],[19.2247,43.8527],[19.2166,43.9055],[19.225,43.9215],[19.1274,43.9987],[19.0057,44.0474],[18.9084,44.092],[18.7366,44.1203],[18.7631,44.1488],[18.7867,44.1804],[18.7924,44.2148],[18.7824,44.2462],[18.7523,44.2992],[18.7452,44.3407],[18.7538,44.3578],[18.8067,44.3736],[18.8382,44.4165],[18.9226,44.4265],[19.0199,44.4759],[19.0284,44.4902],[19.0311,44.5675],[19.0993,44.5942],[19.1472,44.575],[19.1796,44.5383],[19.1863,44.5693],[19.2557,44.6456],[19.2776,44.6849],[19.3084,44.7051],[19.3284,44.734],[19.3637,44.8546],[19.3766,44.863],[19.357,44.8959],[19.3102,44.9124],[19.2395,44.9151],[19.2019,44.9084],[19.1743,44.9254],[19.0846,44.879],[19.0158,44.8656],[18.9749,44.8628],[18.8896,44.8612],[18.8587,44.8685],[18.8421,44.8762],[18.8178,44.8875],[18.7834,44.9137],[18.7726,44.9425],[18.8046,44.9738],[18.789,45.0057],[18.7501,45.0122],[18.7263,45.0261],[18.689,45.0802],[18.6661,45.083],[18.6581,45.0663],[18.6405,45.0654],[18.6167,45.0977],[18.5348,45.0884],[18.5411,45.0553],[18.517,45.0559],[18.4817,45.0669],[18.4518,45.085],[18.412,45.1124],[18.3929,45.1186],[18.3223,45.1229],[18.262,45.1507],[18.2379,45.1575],[18.2023,45.1441],[18.1993,45.119],[18.1749,45.1008],[18.1437,45.0977],[18.0903,45.108],[18.0191,45.1494],[17.9885,45.1438],[17.9277,45.092],[17.9026,45.0778],[17.8357,45.0644],[17.7975,45.082],[17.7657,45.111],[17.7145,45.152],[17.6847,45.164],[17.63,45.1573],[17.5724,45.1204],[17.4893,45.1163],[17.4962,45.1417],[17.4478,45.1343],[17.4341,45.1486],[17.3824,45.1396],[17.269,45.1895],[17.2455,45.1554],[17.1871,45.1486],[17.1246,45.1691],[17.0557,45.2004],[17.0363,45.2305],[17.0083,45.2162],[16.9612,45.2509],[16.9473,45.2357],[16.9244,45.2845],[16.8307,45.217],[16.8242,45.1891],[16.7863,45.1788],[16.587,45.2209],[16.5289,45.2223],[16.4819,45.1995],[16.4355,45.1329],[16.3818,45.1076],[16.382,45.0837],[16.346,45.02],[16.3162,45.0012],[16.2793,45.0072],[16.213,45.0315],[16.1041,45.1125],[16.0675,45.1696],[16.0244,45.1843],[16.0292,45.205],[16.0085,45.2182],[15.8789,45.2172],[15.8248,45.211],[15.8026,45.1965],[15.7617,45.21],[15.7049,45.2009],[15.6394,45.2107],[15.6312,45.2395],[15.6616,45.2681],[15.6564,45.2851],[15.6639,45.3396],[15.6796,45.3488],[15.6651,45.3766],[15.6723,45.3982],[15.6568,45.4152],[15.6765,45.4252],[15.716,45.4208],[15.7799,45.3951],[15.8141,45.3987],[15.8372,45.4363],[15.8425,45.4659],[15.8129,45.5234],[15.7799,45.5225],[15.7392,45.5589],[15.7474,45.5952],[15.7316,45.5886],[15.6633,45.6049],[15.6264,45.6214],[15.5936,45.6205],[15.5756,45.6024],[15.5137,45.6324],[15.5131,45.6473],[15.4738,45.6618],[15.4209,45.6953],[15.3829,45.6904],[15.35,45.6696],[15.3683,45.649],[15.3738,45.6402],[15.3531,45.6403],[15.3267,45.6323],[15.2974,45.6257],[15.2879,45.6103],[15.2686,45.6017],[15.2696,45.5934],[15.2822,45.5715],[15.2967,45.523],[15.311,45.5059],[15.3614,45.482],[15.3339,45.4585],[15.314,45.4505],[15.2816,45.451],[15.2258,45.4365],[15.1842,45.4256],[15.1393,45.43],[15.0661,45.4739],[15.0562,45.4799],[15.0074,45.4808],[14.9773,45.4917],[14.9626,45.4931],[14.9454,45.5045],[14.9226,45.5149],[14.9044,45.5144],[14.9008,45.4931],[14.8816,45.4698],[14.8388,45.459],[14.7972,45.4652],[14.7815,45.4931],[14.6883,45.522],[14.6685,45.534],[14.6717,45.5568],[14.6637,45.5702],[14.6503,45.5748],[14.616,45.5941],[14.6031,45.6036],[14.5939,45.6162],[14.5941,45.648],[14.5919,45.6634],[14.5809,45.6678],[14.5691,45.6643],[14.5561,45.6567],[14.5436,45.6364],[14.4986,45.5962],[14.4915,45.5792],[14.4821,45.5424],[14.4689,45.5256],[14.4112,45.4932],[14.3728,45.4778],[14.3268,45.4749],[14.2804,45.4811],[14.2187,45.4972],[14.1455,45.4762],[14.1173,45.473]]],[[[14.2777,45.128],[14.2874,45.1011],[14.3161,45.0766],[14.3405,45.0202],[14.3405,44.9807],[14.303,44.9428],[14.3015,44.9434],[14.3009,44.9407],[14.3009,44.9406],[14.2942,44.9086],[14.3141,44.8938],[14.3298,44.8339],[14.3544,44.8201],[14.3648,44.8004],[14.3745,44.7539],[14.3894,44.7524],[14.3961,44.734],[14.3945,44.7076],[14.4279,44.6566],[14.473,44.6203],[14.5204,44.6215],[14.5139,44.6622],[14.4778,44.7019],[14.4724,44.7135],[14.4739,44.7545],[14.4615,44.7795],[14.4593,44.8018],[14.4666,44.8048],[14.4555,44.8396],[14.4525,44.8694],[14.4626,44.9401],[14.471,44.9539],[14.4661,44.9837],[14.4467,44.9873],[14.3949,45.031],[14.3697,45.0814],[14.3636,45.1302],[14.3641,45.1576],[14.3593,45.1646],[14.3589,45.1682],[14.3585,45.1682],[14.3571,45.168],[14.3562,45.1693],[14.3137,45.1724],[14.295,45.1494],[14.2865,45.1456],[14.2866,45.1453],[14.2865,45.1452],[14.2883,45.1411],[14.2777,45.128]]],[[[14.6579,44.7988],[14.6649,44.7931],[14.6789,44.7702],[14.6977,44.7667],[14.6995,44.7652],[14.7061,44.7651],[14.7617,44.7546],[14.806,44.7357],[14.8496,44.7032],[14.8502,44.7169],[14.8553,44.7147],[14.8552,44.7149],[14.8557,44.7147],[14.8554,44.7152],[14.8557,44.7151],[14.8506,44.7239],[14.8512,44.7373],[14.8224,44.7714],[14.8112,44.7771],[14.7657,44.821],[14.7549,44.8453],[14.7464,44.8457],[14.739,44.8534],[14.7325,44.8465],[14.6901,44.8487],[14.6897,44.8487],[14.6883,44.8468],[14.6858,44.8472],[14.6873,44.8454],[14.6717,44.8244],[14.6609,44.8001],[14.661,44.7999],[14.6609,44.7997],[14.6618,44.7983],[14.6579,44.7988]]],[[[14.7401,44.6973],[14.7513,44.6801],[14.7615,44.6586],[14.8093,44.6177],[14.8841,44.5445],[14.9072,44.4972],[14.8975,44.4909],[14.9158,44.4837],[14.9957,44.4334],[15.039,44.3935],[15.0966,44.3588],[15.1071,44.3506],[15.1104,44.3463],[15.0967,44.34],[15.1288,44.312],[15.1724,44.2991],[15.1309,44.3264],[15.1368,44.3275],[15.1614,44.3084],[15.1616,44.3086],[15.1618,44.3084],[15.1761,44.3242],[15.1989,44.317],[15.2271,44.3264],[15.2061,44.3441],[15.2122,44.3466],[15.2137,44.3468],[15.2351,44.3362],[15.2544,44.34],[15.2394,44.3499],[15.241,44.3501],[15.2407,44.3503],[15.2408,44.3503],[15.2406,44.3504],[15.241,44.3505],[15.1434,44.4164],[15.1005,44.4489],[15.0514,44.4938],[15.0755,44.4841],[15.0412,44.5275],[15.0051,44.5358],[15.0018,44.5382],[14.9663,44.5734],[14.9041,44.61],[14.9004,44.6099],[14.8989,44.6109],[14.8557,44.6179],[14.8053,44.6491],[14.7846,44.6646],[14.78,44.6695],[14.7412,44.7016],[14.7444,44.6947],[14.7405,44.6977],[14.7409,44.6971],[14.7401,44.6977],[14.7406,44.6969],[14.7401,44.6973]]],[[[14.8496,44.1756],[14.8701,44.1408],[14.9044,44.1145],[15.0421,43.9914],[15.0428,43.9904],[15.1066,43.9254],[15.1365,43.903],[15.1386,43.9079],[15.1508,43.9108],[15.1844,43.9016],[15.1955,43.8952],[15.1985,43.8977],[15.201,43.897],[15.201,43.8971],[15.2014,43.897],[15.2029,43.9013],[15.2168,43.9128],[15.1764,43.9334],[15.0266,44.0571],[15.0227,44.0722],[14.9906,44.0868],[14.9529,44.1179],[14.9403,44.1252],[14.9391,44.1271],[14.9102,44.1428],[14.8665,44.1682],[14.8667,44.1678],[14.8661,44.1682],[14.8665,44.1676],[14.8661,44.1678],[14.8671,44.1661],[14.8496,44.1756]]],[[[15.0625,44.1619],[15.0655,44.1573],[15.0646,44.1578],[15.0648,44.1575],[15.0642,44.1578],[15.0645,44.1572],[15.0642,44.1574],[15.075,44.1383],[15.0821,44.1314],[15.0871,44.1237],[15.1218,44.0922],[15.1891,44.0478],[15.2061,44.049],[15.2431,44.0297],[15.2544,44.0179],[15.2471,44.0467],[15.2303,44.0621],[15.2302,44.0623],[15.2298,44.0625],[15.2258,44.0662],[15.0625,44.1619]]],[[[15.2612,44.0111],[15.3027,43.9664],[15.3066,43.9642],[15.309,43.9612],[15.3579,43.9259],[15.3587,43.9194],[15.4071,43.8961],[15.4461,43.8875],[15.4387,43.8988],[15.439,43.8987],[15.4385,43.8992],[15.439,43.8991],[15.4372,43.9011],[15.4188,43.9291],[15.4058,43.9354],[15.3883,43.9545],[15.384,43.9702],[15.3719,43.9724],[15.3706,43.9738],[15.323,43.991],[15.2964,44.0056],[15.2724,44.0093],[15.2698,44.0103],[15.27,44.0101],[15.2694,44.0103],[15.2697,44.0098],[15.2694,44.0099],[15.2695,44.0098],[15.2612,44.0111]]]]}}
]}
