{"type":"FeatureCollection","features":[
{"type":"Feature","properties":{"entityId":"dal-riata","from":476,"to":741,"certainty":"estimated","source":"유럽 쪽은 Natural Earth 1:10m admin-1(v5.1.2) 현대 행정구역 조각을 그 시기 국경에 맞춰 묶고, 조각이 역사 경계와 다른 곳은 선을 그어 나눈 근사. 유럽 밖(시베리아·중앙아시아·극동)은 대략적인 추정. 운영자 검수 필요"},"geometry":{"type":"MultiPolygon","coordinates":[[[[-4.9296,55.8588],[-4.9511,55.8588],[-4.9511,55.824],[-4.9511,55.7892],[-4.9374,55.7892],[-4.9374,55.7557],[-4.9374,55.7222],[-4.9755,55.7222],[-4.9797,55.7257],[-5.0216,55.7607],[-5.0298,55.7495],[-5.0113,55.7377],[-5.0288,55.7233],[-5.0503,55.7495],[-5.0736,55.762],[-5.166,55.6806],[-5.16,55.6762],[-5.1322,55.6184],[-5.1065,55.5738],[-5.0942,55.5666],[-5.0919,55.5441],[-5.1022,55.5419],[-5.0989,55.5175],[-5.0708,55.5093],[-5.093,55.5004],[-5.0782,55.4553],[-5.1178,55.4398],[-5.1636,55.4349],[-5.2631,55.4472],[-5.3457,55.4827],[-5.3539,55.5152],[-5.5185,55.3703],[-5.558,55.3319],[-5.5681,55.3266],[-5.5853,55.3115],[-5.5853,55.3118],[-5.5857,55.3115],[-5.5861,55.3173],[-5.5941,55.3131],[-5.64,55.3039],[-5.6691,55.3109],[-5.7545,55.2973],[-5.7829,55.3135],[-5.7947,55.3564],[-5.7914,55.3986],[-5.7605,55.4187],[-5.7513,55.4436],[-5.7114,55.5489],[-5.7218,55.5646],[-5.6733,55.6406],[-5.6809,55.6745],[-5.6265,55.7006],[-5.6116,55.7194],[-5.6154,55.7793],[-5.6467,55.7875],[-5.668,55.811],[-5.6741,55.8458],[-5.632,55.8818],[-5.6276,55.9053],[-5.6809,55.8867],[-5.6964,55.916],[-5.6279,55.976],[-5.6301,56.0108],[-5.6317,56.0059],[-5.6749,55.9777],[-5.6741,55.9556],[-5.6945,55.9345],[-5.7075,55.9426],[-5.6964,55.9822],[-5.6599,56.0233],[-5.6324,56.0467],[-5.6418,56.1943],[-5.6667,56.2225],[-5.6452,56.2487],[-5.6469,56.2746],[-5.6977,56.326],[-5.7231,56.3516],[-5.8087,56.3189],[-5.8482,56.3136],[-5.8801,56.3256],[-5.8725,56.3308],[-6.0131,56.3112],[-6.0375,56.3052],[-6.066,56.2892],[-6.1024,56.2982],[-6.147,56.2839],[-6.2398,56.2839],[-6.2668,56.2635],[-6.3275,56.2772],[-6.3602,56.3036],[-6.3661,56.3222],[-6.3354,56.3446],[-6.2904,56.3454],[-6.2852,56.3414],[-6.1869,56.3567],[-6.1842,56.3644],[-6.2032,56.3803],[-6.1892,56.3978],[-6.1706,56.4034],[-6.1409,56.488],[-6.1446,56.4917],[-6.2427,56.5279],[-6.2885,56.5323],[-6.3382,56.5521],[-6.3151,56.5617],[-6.3201,56.5698],[-6.32,56.57],[-6.3201,56.5702],[-6.3099,56.5911],[-6.3252,56.6061],[-6.2669,56.6181],[-6.2203,56.632],[-6.2203,56.6323],[-6.1907,56.6449],[-6.119,56.6539],[-6.0583,56.6402],[-6.0624,56.6267],[-6.0474,56.6195],[-6.0335,56.6188],[-6.0088,56.5987],[-5.9944,56.5798],[-5.9453,56.5355],[-5.932,56.534],[-5.9008,56.5305],[-5.9008,56.5242],[-5.8696,56.5242],[-5.8696,56.5575],[-5.8544,56.5505],[-5.8383,56.5486],[-5.8383,56.516],[-5.8295,56.5108],[-5.8071,56.5123],[-5.8071,56.5321],[-5.7759,56.5321],[-5.7523,56.5321],[-5.7447,56.5297],[-5.7447,56.4976],[-5.7134,56.4976],[-5.6822,56.4976],[-5.6822,56.4655],[-5.651,56.4655],[-5.6198,56.4655],[-5.5886,56.4655],[-5.5574,56.4655],[-5.5574,56.5004],[-5.5262,56.5004],[-5.5262,56.5352],[-5.495,56.5352],[-5.495,56.57],[-5.4638,56.57],[-5.4326,56.57],[-5.4326,56.6067],[-5.4326,56.6197],[-5.4014,56.6197],[-5.3702,56.6197],[-5.3702,56.628],[-5.3373,56.628],[-5.3257,56.628],[-5.3045,56.6402],[-5.1692,56.6309],[-5.1447,56.6164],[-5.0752,56.6072],[-5.02,56.6409],[-4.9709,56.6442],[-4.9244,56.6594],[-4.864,56.6467],[-4.7908,56.6539],[-4.7572,56.6433],[-4.7086,56.6415],[-4.672,56.6397],[-4.6336,56.6497],[-4.6175,56.6314],[-4.6281,56.6122],[-4.5956,56.6074],[-4.5584,56.5702],[-4.5953,56.5744],[-4.6928,56.548],[-4.6492,56.5192],[-4.6764,56.4916],[-4.6394,56.4718],[-4.6655,56.4603],[-4.7222,56.4539],[-4.7259,56.4374],[-4.7706,56.4269],[-4.8033,56.4083],[-4.837,56.3699],[-4.7758,56.343],[-4.779,56.3183],[-4.7192,56.3282],[-4.6492,56.3208],[-4.6717,56.3002],[-4.6574,56.2811],[-4.6852,56.2484],[-4.6805,56.1984],[-4.6113,56.0883],[-4.5981,56.0778],[-4.599,56.0119],[-4.601,56.0003],[-4.5978,55.9603],[-4.5906,55.9415],[-4.5999,55.9426],[-4.5999,55.9283],[-4.6099,55.9283],[-4.6268,55.9298],[-4.6295,55.93],[-4.6591,55.9326],[-4.6591,55.9567],[-4.6735,55.9619],[-4.6755,55.9633],[-4.6886,55.9633],[-4.7182,55.9633],[-4.7182,55.972],[-4.7477,55.972],[-4.7773,55.972],[-4.7773,55.9547],[-4.7858,55.957],[-4.8069,55.9561],[-4.8181,55.9556],[-4.8364,55.9513],[-4.8364,55.9631],[-4.8659,55.9631],[-4.8955,55.9631],[-4.8955,55.9283],[-4.9045,55.9283],[-4.9296,55.9283],[-4.9296,55.8936],[-4.9296,55.8588]]],[[[-6.2189,55.6165],[-6.2228,55.6055],[-6.2619,55.5838],[-6.3112,55.5832],[-6.3252,55.6055],[-6.3192,55.6282],[-6.2911,55.64],[-6.2698,55.6708],[-6.2904,55.7071],[-6.3252,55.7154],[-6.321,55.7335],[-6.2955,55.7491],[-6.2878,55.7731],[-6.302,55.78],[-6.3341,55.7747],[-6.359,55.7598],[-6.3866,55.7223],[-6.4186,55.7096],[-6.463,55.6745],[-6.5035,55.6813],[-6.4946,55.7032],[-6.4965,55.7105],[-6.4964,55.7106],[-6.4965,55.7109],[-6.4908,55.7226],[-6.4932,55.7392],[-6.4753,55.7543],[-6.4677,55.7699],[-6.4664,55.784],[-6.4822,55.7905],[-6.4648,55.8008],[-6.4641,55.8081],[-6.458,55.8163],[-6.4528,55.8409],[-6.4091,55.8636],[-6.3314,55.89],[-6.3352,55.8689],[-6.3127,55.8568],[-6.3017,55.8623],[-6.297,55.8672],[-6.252,55.8871],[-6.2244,55.9009],[-6.2043,55.9166],[-6.1401,55.9414],[-6.1202,55.9294],[-6.1088,55.8596],[-6.0929,55.8029],[-6.0887,55.7936],[-6.0498,55.7663],[-6.0583,55.7427],[-6.0304,55.7291],[-6.0235,55.6819],[-6.0644,55.6676],[-6.1055,55.6402],[-6.16,55.6267],[-6.1859,55.6267],[-6.2189,55.6165]]],[[[-5.953,55.834],[-5.9621,55.8048],[-5.9875,55.7946],[-6.0266,55.7961],[-6.0624,55.8095],[-6.0781,55.8349],[-6.0869,55.883],[-6.0752,55.916],[-5.9974,55.9517],[-5.9654,55.9553],[-5.9148,55.9742],[-5.9807,55.9699],[-5.9956,55.986],[-5.9833,56.0089],[-5.9421,56.0419],[-5.9385,56.046],[-5.9349,56.0476],[-5.9244,56.056],[-5.9021,56.0622],[-5.8318,56.0935],[-5.7976,56.1126],[-5.7159,56.1531],[-5.6945,56.1474],[-5.6893,56.1118],[-5.7402,56.0765],[-5.7802,56.0207],[-5.8645,55.9267],[-5.8863,55.8867],[-5.8968,55.8889],[-5.9118,55.8795],[-5.953,55.834]]],[[[-6.6175,56.6293],[-6.5914,56.6518],[-6.5736,56.6588],[-6.5685,56.6622],[-6.5621,56.6633],[-6.5058,56.6854],[-6.4623,56.6912],[-6.4592,56.6781],[-6.4897,56.6402],[-6.5273,56.6265],[-6.5641,56.5987],[-6.6163,56.5752],[-6.6689,56.5778],[-6.6779,56.5583],[-6.7019,56.5856],[-6.6648,56.5975],[-6.6175,56.6293]]],[[[-5.9279,56.5586],[-5.9008,56.5586],[-5.9008,56.5312],[-5.9279,56.5586]]]]}}
]}
