{"type":"FeatureCollection","features":[
{"type":"Feature","properties":{"entityId":"danishmendids","from":1071,"to":1103,"certainty":"estimated","source":"유럽 쪽은 Natural Earth 1:10m admin-1(v5.1.2) 현대 행정구역 조각을 그 시기 국경에 맞춰 묶고, 조각이 역사 경계와 다른 곳은 선을 그어 나눈 근사. 유럽 밖(시베리아·중앙아시아·극동)은 대략적인 추정. 운영자 검수 필요"},"geometry":{"type":"Polygon","coordinates":[[[35.5696,41.8782],[35.5961,41.8675],[35.6225,41.8569],[35.7284,41.8142],[35.9403,41.7287],[35.9568,41.7363],[35.9466,41.7262],[35.9627,41.7197],[35.9779,41.7297],[36.033,41.6914],[36.0387,41.689],[36.0449,41.7015],[36.071,41.676],[36.8731,41.3526],[36.9132,41.3364],[37.0736,41.2931],[37.1238,41.2796],[37.1489,41.2728],[37.1739,41.2661],[37.1739,41.2497],[37.1489,41.2497],[37.1489,41.2199],[37.1489,41.1833],[37.1489,41.1468],[37.1517,41.1468],[37.0984,41.0866],[37.0423,41.0418],[36.9991,40.9797],[36.9203,40.9458],[36.8807,40.9124],[36.8284,40.8878],[36.746,40.875],[36.7052,40.8625],[36.6875,40.836],[36.6989,40.8068],[36.7565,40.792],[36.8118,40.7661],[36.8954,40.7447],[36.9468,40.7203],[37.0134,40.6989],[37.0846,40.6943],[37.1525,40.7019],[37.2197,40.6977],[37.4488,40.5759],[37.5841,40.5694],[37.617,40.5212],[37.6349,40.4612],[37.6901,40.3794],[37.7669,40.3319],[37.8019,40.3357],[37.8614,40.3839],[37.8977,40.4041],[37.9802,40.4013],[38.0016,40.4116],[37.998,40.4688],[38.0084,40.481],[38.0952,40.4922],[38.1583,40.5235],[38.2405,40.2852],[38.2382,40.2286],[38.2748,40.1861],[38.3311,40.1647],[38.3923,40.1283],[38.4542,40.0999],[38.5563,40.1194],[38.661,40.0935],[38.7616,40.0549],[38.7585,40.0038],[38.7372,39.9655],[38.6456,39.9715],[38.5932,39.9627],[38.5464,39.937],[38.4977,39.9431],[38.4511,39.9708],[38.4067,39.9507],[38.3692,39.8679],[38.3772,39.8363],[38.4462,39.8382],[38.5192,39.852],[38.5402,39.8328],[38.5297,39.8052],[38.49,39.8026],[38.4527,39.7872],[38.3786,39.7035],[38.3671,39.5991],[38.3442,39.5648],[38.3556,39.5265],[38.4238,39.4841],[38.4467,39.4599],[38.4385,39.444],[38.403,39.426],[38.3667,39.3886],[38.3689,39.3374],[38.3875,39.2791],[38.3817,39.2427],[38.3926,39.211],[38.384,39.1773],[38.3617,39.1503],[38.2839,39.1297],[38.2123,39.0876],[38.1477,39.0726],[38.0802,39.0802],[38.01,39.0637],[37.932,39.0623],[37.7858,38.9983],[37.7022,38.9843],[37.6176,39.017],[37.5736,39.0082],[37.5516,38.9694],[37.5614,38.9222],[37.5969,38.8343],[37.5805,38.7968],[37.5098,38.7366],[37.4447,38.7082],[37.3936,38.6613],[37.3429,38.6249],[37.2844,38.6036],[37.0597,38.5881],[37.0088,38.6105],[36.8789,38.625],[36.7475,38.5994],[36.7137,38.583],[36.694,38.5523],[36.682,38.4999],[36.65,38.4591],[36.5055,38.3229],[36.4626,38.358],[36.4373,38.4097],[36.4001,38.4566],[36.348,38.4747],[36.2669,38.4578],[36.19,38.4235],[36.1459,38.3951],[36.1033,38.3122],[36.0756,38.2819],[36.0331,38.2133],[35.979,38.155],[35.6077,37.9538],[35.6296,37.7702],[35.5772,37.7505],[35.4536,37.7888],[35.3632,37.8073],[35.1906,37.8181],[35.2075,37.8792],[35.2125,37.9308],[35.2589,37.954],[35.2282,38.0248],[35.2228,38.0673],[35.2325,38.1099],[35.2056,38.1766],[35.044,38.1781],[34.9849,38.2275],[34.915,38.3794],[34.9416,38.4212],[34.9825,38.455],[35.071,38.5658],[35.0754,38.6126],[35.0652,38.6584],[35.0691,38.7049],[34.9997,38.7759],[34.9527,38.8481],[34.9808,38.8993],[35.0013,38.9533],[35.0036,39.0019],[35.0278,39.0411],[34.9999,39.0902],[34.9873,39.1341],[34.9961,39.1576],[34.9735,39.1878],[34.8931,39.2267],[34.8806,39.2663],[34.8608,39.2968],[34.8293,39.3097],[34.8035,39.3339],[34.7833,39.3871],[34.7371,39.4003],[34.7113,39.4468],[34.6681,39.4761],[34.6174,39.4825],[34.5737,39.5052],[34.4357,39.6361],[34.395,39.7007],[34.3163,39.7014],[34.2705,39.7135],[34.1678,39.7949],[34.1135,39.7956],[34.0733,39.8257],[34.0525,39.9076],[34.0509,39.9586],[34.0976,40.0243],[34.1013,40.0569],[34.0845,40.1091],[34.0164,40.1467],[33.9752,40.218],[33.9642,40.2655],[33.8705,40.2723],[33.5952,40.3396],[33.4597,40.3736],[33.3982,40.3962],[33.36,40.3913],[33.3447,40.338],[33.2714,40.3311],[33.2056,40.3705],[33.1943,40.4048],[33.1726,40.4303],[33.0434,40.5018],[33.0104,40.5306],[32.9586,40.594],[32.6651,40.6979],[32.5862,40.7076],[32.5071,40.7052],[32.5262,40.7887],[32.6305,40.8256],[32.7483,40.8974],[32.7962,40.963],[32.8326,40.9792],[32.9295,40.9711],[33.0265,41.0115],[33.0692,41.093],[33.038,41.1289],[32.9858,41.147],[32.9297,41.1533],[32.9103,41.2606],[32.9194,41.2944],[32.9647,41.3411],[33.017,41.3804],[33.1154,41.3954],[33.0871,41.4439],[33.0589,41.5328],[32.9861,41.5732],[32.9131,41.5548],[32.8522,41.5477],[32.818,41.5764],[32.8085,41.6478],[32.873,41.6823],[32.8366,41.7551],[32.8083,41.7995],[32.7985,41.8597],[32.7903,41.8596],[32.9455,41.8923],[32.9667,41.8994],[33.0081,41.9173],[33.0586,41.93],[33.2839,42.0052],[33.2916,42.0062],[33.3245,42.019],[33.3609,42.0207],[33.3895,42.0168],[33.4818,42.0106],[33.5143,42.0185],[34.1518,42.027],[34.1995,42.0276],[34.1995,41.9925],[34.1995,41.9619],[34.2161,41.9601],[34.2209,41.9035],[34.1926,41.8451],[34.1422,41.8002],[34.1404,41.7671],[34.2051,41.7478],[34.2842,41.7453],[34.3443,41.7325],[34.4661,41.7275],[34.5325,41.7132],[34.5879,41.6575],[34.5533,41.5912],[34.4918,41.5523],[34.472,41.5185],[34.4629,41.4798],[34.4798,41.4416],[34.4719,41.3108],[34.4985,41.2859],[34.5575,41.2846],[34.5741,41.2705],[34.641,41.2721],[34.6704,41.2661],[34.7239,41.2293],[34.8373,41.2016],[34.8761,41.233],[34.888,41.2698],[34.9418,41.2999],[34.9345,41.3179],[34.9913,41.3348],[35.0239,41.3588],[35.1024,41.3853],[35.1133,41.3998],[35.1328,41.3771],[35.1406,41.3415],[35.1958,41.311],[35.1944,41.2934],[35.2397,41.2892],[35.2963,41.2583],[35.3399,41.2545],[35.3831,41.2602],[35.4338,41.2833],[35.4851,41.2728],[35.5048,41.2845],[35.4895,41.3735],[35.4709,41.4171],[35.4723,41.4755],[35.456,41.5236],[35.4608,41.5742],[35.5001,41.6416],[35.5166,41.639],[35.5166,41.664],[35.5166,41.6823],[35.5166,41.6972],[35.5166,41.7255],[35.5166,41.7309],[35.5431,41.7309],[35.5431,41.7646],[35.5696,41.7646],[35.5696,41.7984],[35.5696,41.8321],[35.5696,41.8782]]]}},
{"type":"Feature","properties":{"entityId":"danishmendids","from":1103,"to":1175,"certainty":"estimated","source":"유럽 쪽은 Natural Earth 1:10m admin-1(v5.1.2) 현대 행정구역 조각을 그 시기 국경에 맞춰 묶고, 조각이 역사 경계와 다른 곳은 선을 그어 나눈 근사. 유럽 밖(시베리아·중앙아시아·극동)은 대략적인 추정. 운영자 검수 필요"},"geometry":{"type":"Polygon","coordinates":[[[35.5696,41.8782],[35.5961,41.8675],[35.6225,41.8569],[35.7284,41.8142],[35.9403,41.7287],[35.9568,41.7363],[35.9466,41.7262],[35.9627,41.7197],[35.9779,41.7297],[36.033,41.6914],[36.0387,41.689],[36.0449,41.7015],[36.071,41.676],[36.8731,41.3526],[36.9132,41.3364],[37.0736,41.2931],[37.1238,41.2796],[37.1489,41.2728],[37.1739,41.2661],[37.1739,41.2497],[37.1489,41.2497],[37.1489,41.2199],[37.1489,41.1833],[37.1489,41.1468],[37.1517,41.1468],[37.0984,41.0866],[37.0423,41.0418],[36.9991,40.9797],[36.9203,40.9458],[36.8807,40.9124],[36.8284,40.8878],[36.746,40.875],[36.7052,40.8625],[36.6875,40.836],[36.6989,40.8068],[36.7565,40.792],[36.8118,40.7661],[36.8954,40.7447],[36.9468,40.7203],[37.0134,40.6989],[37.0846,40.6943],[37.1525,40.7019],[37.2197,40.6977],[37.4488,40.5759],[37.5841,40.5694],[37.617,40.5212],[37.6349,40.4612],[37.6901,40.3794],[37.7669,40.3319],[37.8019,40.3357],[37.8614,40.3839],[37.8977,40.4041],[37.9802,40.4013],[38.0016,40.4116],[37.998,40.4688],[38.0084,40.481],[38.0952,40.4922],[38.1583,40.5235],[38.2405,40.2852],[38.2382,40.2286],[38.2748,40.1861],[38.3311,40.1647],[38.3923,40.1283],[38.4542,40.0999],[38.5563,40.1194],[38.661,40.0935],[38.7616,40.0549],[38.7585,40.0038],[38.7372,39.9655],[38.6456,39.9715],[38.5932,39.9627],[38.5464,39.937],[38.4977,39.9431],[38.4511,39.9708],[38.4067,39.9507],[38.3692,39.8679],[38.3772,39.8363],[38.4462,39.8382],[38.5192,39.852],[38.5402,39.8328],[38.5297,39.8052],[38.49,39.8026],[38.4527,39.7872],[38.3786,39.7035],[38.3671,39.5991],[38.3442,39.5648],[38.3556,39.5265],[38.4238,39.4841],[38.4467,39.4599],[38.4385,39.444],[38.403,39.426],[38.3667,39.3886],[38.3689,39.3374],[38.3875,39.2791],[38.3817,39.2427],[38.3926,39.211],[38.384,39.1773],[38.3617,39.1503],[38.4409,39.1195],[38.5356,39.1159],[38.6236,39.0822],[38.6879,39.023],[38.6168,39.0203],[38.5893,38.9922],[38.5899,38.9508],[38.6194,38.8959],[38.6239,38.8126],[38.6357,38.7817],[38.6187,38.7482],[38.5089,38.7568],[38.4713,38.7408],[38.4781,38.7254],[38.4604,38.6924],[38.4024,38.6734],[38.3757,38.6452],[38.3489,38.5956],[38.3735,38.5365],[38.403,38.508],[38.4256,38.5124],[38.4566,38.4849],[38.4817,38.4759],[38.5667,38.4646],[38.6078,38.4534],[38.6889,38.4207],[38.7177,38.4186],[38.8105,38.4403],[38.8269,38.4186],[38.861,38.3988],[38.8855,38.364],[38.9111,38.3607],[38.9572,38.3305],[38.9922,38.326],[39.0734,38.3479],[39.1149,38.3435],[39.145,38.3078],[39.1485,38.2842],[39.1149,38.1927],[39.0695,38.1515],[39.0156,38.1308],[38.932,38.1073],[38.8032,38.0903],[38.7334,38.0984],[38.6631,38.0982],[38.6035,38.1104],[38.5714,38.1259],[38.5639,38.1467],[38.6228,38.1866],[38.6187,38.2191],[38.5609,38.2284],[38.5009,38.2146],[38.4309,38.2141],[38.3579,38.149],[38.295,38.0738],[38.2173,38.0405],[38.1909,38.0008],[38.1892,37.9485],[38.1276,37.905],[38.0444,37.8887],[37.9735,37.8657],[37.888,37.881],[37.796,37.8712],[37.7076,37.842],[37.5653,37.8205],[37.6069,37.8795],[37.6582,38.0267],[37.7152,38.0927],[37.7213,38.1226],[37.7762,38.2372],[37.7823,38.2784],[37.7336,38.3462],[37.6552,38.3747],[37.5872,38.39],[37.4597,38.4496],[37.3107,38.4749],[37.2371,38.4672],[37.2259,38.5263],[37.2844,38.6036],[37.0597,38.5881],[37.0088,38.6105],[36.8789,38.625],[36.7475,38.5994],[36.7137,38.583],[36.694,38.5523],[36.682,38.4999],[36.65,38.4591],[36.5055,38.3229],[36.4626,38.358],[36.4373,38.4097],[36.4001,38.4566],[36.348,38.4747],[36.2669,38.4578],[36.19,38.4235],[36.1459,38.3951],[36.1033,38.3122],[36.0756,38.2819],[36.0331,38.2133],[35.979,38.155],[35.6077,37.9538],[35.6296,37.7702],[35.5772,37.7505],[35.4536,37.7888],[35.3632,37.8073],[35.1906,37.8181],[35.2075,37.8792],[35.2125,37.9308],[35.2589,37.954],[35.2282,38.0248],[35.2228,38.0673],[35.2325,38.1099],[35.2056,38.1766],[35.044,38.1781],[34.9849,38.2275],[34.915,38.3794],[34.9416,38.4212],[34.9825,38.455],[35.071,38.5658],[35.0754,38.6126],[35.0652,38.6584],[35.0691,38.7049],[34.9997,38.7759],[34.9527,38.8481],[34.9808,38.8993],[35.0013,38.9533],[35.0036,39.0019],[35.0278,39.0411],[34.9999,39.0902],[34.9873,39.1341],[34.9961,39.1576],[34.9735,39.1878],[34.8931,39.2267],[34.8806,39.2663],[34.8608,39.2968],[34.8293,39.3097],[34.8035,39.3339],[34.7833,39.3871],[34.7371,39.4003],[34.7113,39.4468],[34.6681,39.4761],[34.6174,39.4825],[34.5737,39.5052],[34.4357,39.6361],[34.395,39.7007],[34.3163,39.7014],[34.2705,39.7135],[34.1678,39.7949],[34.1135,39.7956],[34.0733,39.8257],[34.0525,39.9076],[34.0509,39.9586],[34.0976,40.0243],[34.1013,40.0569],[34.0845,40.1091],[34.0164,40.1467],[33.9752,40.218],[33.9642,40.2655],[33.8705,40.2723],[33.5952,40.3396],[33.4597,40.3736],[33.3982,40.3962],[33.36,40.3913],[33.3447,40.338],[33.2714,40.3311],[33.2056,40.3705],[33.1943,40.4048],[33.1726,40.4303],[33.0434,40.5018],[33.0104,40.5306],[32.9586,40.594],[32.6651,40.6979],[32.5862,40.7076],[32.5071,40.7052],[32.5262,40.7887],[32.6305,40.8256],[32.7483,40.8974],[32.7962,40.963],[32.8326,40.9792],[32.9295,40.9711],[33.0265,41.0115],[33.0692,41.093],[33.038,41.1289],[32.9858,41.147],[32.9297,41.1533],[32.9103,41.2606],[32.9194,41.2944],[32.9647,41.3411],[33.017,41.3804],[33.1154,41.3954],[33.0871,41.4439],[33.0589,41.5328],[32.9861,41.5732],[32.9131,41.5548],[32.8522,41.5477],[32.818,41.5764],[32.8085,41.6478],[32.873,41.6823],[32.8366,41.7551],[32.8083,41.7995],[32.7985,41.8597],[32.7903,41.8596],[32.9455,41.8923],[32.9667,41.8994],[33.0081,41.9173],[33.0586,41.93],[33.2839,42.0052],[33.2916,42.0062],[33.3245,42.019],[33.3609,42.0207],[33.3895,42.0168],[33.4818,42.0106],[33.5143,42.0185],[34.1518,42.027],[34.1995,42.0276],[34.1995,41.9925],[34.1995,41.9619],[34.2161,41.9601],[34.2209,41.9035],[34.1926,41.8451],[34.1422,41.8002],[34.1404,41.7671],[34.2051,41.7478],[34.2842,41.7453],[34.3443,41.7325],[34.4661,41.7275],[34.5325,41.7132],[34.5879,41.6575],[34.5533,41.5912],[34.4918,41.5523],[34.472,41.5185],[34.4629,41.4798],[34.4798,41.4416],[34.4719,41.3108],[34.4985,41.2859],[34.5575,41.2846],[34.5741,41.2705],[34.641,41.2721],[34.6704,41.2661],[34.7239,41.2293],[34.8373,41.2016],[34.8761,41.233],[34.888,41.2698],[34.9418,41.2999],[34.9345,41.3179],[34.9913,41.3348],[35.0239,41.3588],[35.1024,41.3853],[35.1133,41.3998],[35.1328,41.3771],[35.1406,41.3415],[35.1958,41.311],[35.1944,41.2934],[35.2397,41.2892],[35.2963,41.2583],[35.3399,41.2545],[35.3831,41.2602],[35.4338,41.2833],[35.4851,41.2728],[35.5048,41.2845],[35.4895,41.3735],[35.4709,41.4171],[35.4723,41.4755],[35.456,41.5236],[35.4608,41.5742],[35.5001,41.6416],[35.5166,41.639],[35.5166,41.664],[35.5166,41.6823],[35.5166,41.6972],[35.5166,41.7255],[35.5166,41.7309],[35.5431,41.7309],[35.5431,41.7646],[35.5696,41.7646],[35.5696,41.7984],[35.5696,41.8321],[35.5696,41.8782]]]}},
{"type":"Feature","properties":{"entityId":"danishmendids","from":1175,"to":1178,"certainty":"estimated","source":"유럽 쪽은 Natural Earth 1:10m admin-1(v5.1.2) 현대 행정구역 조각을 그 시기 국경에 맞춰 묶고, 조각이 역사 경계와 다른 곳은 선을 그어 나눈 근사. 유럽 밖(시베리아·중앙아시아·극동)은 대략적인 추정. 운영자 검수 필요"},"geometry":{"type":"Polygon","coordinates":[[[38.3617,39.1503],[38.4409,39.1195],[38.5356,39.1159],[38.6236,39.0822],[38.6879,39.023],[38.6168,39.0203],[38.5893,38.9922],[38.5899,38.9508],[38.6194,38.8959],[38.6239,38.8126],[38.6357,38.7817],[38.6187,38.7482],[38.5089,38.7568],[38.4713,38.7408],[38.4781,38.7254],[38.4604,38.6924],[38.4024,38.6734],[38.3757,38.6452],[38.3489,38.5956],[38.3735,38.5365],[38.403,38.508],[38.4256,38.5124],[38.4566,38.4849],[38.4817,38.4759],[38.5667,38.4646],[38.6078,38.4534],[38.6889,38.4207],[38.7177,38.4186],[38.8105,38.4403],[38.8269,38.4186],[38.861,38.3988],[38.8855,38.364],[38.9111,38.3607],[38.9572,38.3305],[38.9922,38.326],[39.0734,38.3479],[39.1149,38.3435],[39.145,38.3078],[39.1485,38.2842],[39.1149,38.1927],[39.0695,38.1515],[39.0156,38.1308],[38.932,38.1073],[38.8032,38.0903],[38.7334,38.0984],[38.6631,38.0982],[38.6035,38.1104],[38.5714,38.1259],[38.5639,38.1467],[38.6228,38.1866],[38.6187,38.2191],[38.5609,38.2284],[38.5009,38.2146],[38.4309,38.2141],[38.3579,38.149],[38.295,38.0738],[38.2173,38.0405],[38.1909,38.0008],[38.1892,37.9485],[38.1276,37.905],[38.0444,37.8887],[37.9735,37.8657],[37.888,37.881],[37.796,37.8712],[37.7076,37.842],[37.5653,37.8205],[37.6069,37.8795],[37.6582,38.0267],[37.7152,38.0927],[37.7213,38.1226],[37.7762,38.2372],[37.7823,38.2784],[37.7336,38.3462],[37.6552,38.3747],[37.5872,38.39],[37.4597,38.4496],[37.3107,38.4749],[37.2371,38.4672],[37.2259,38.5263],[37.2844,38.6036],[37.3429,38.6249],[37.3936,38.6613],[37.4447,38.7082],[37.5098,38.7366],[37.5805,38.7968],[37.5969,38.8343],[37.5614,38.9222],[37.5516,38.9694],[37.5736,39.0082],[37.6176,39.017],[37.7022,38.9843],[37.7858,38.9983],[37.932,39.0623],[38.01,39.0637],[38.0802,39.0802],[38.1477,39.0726],[38.2123,39.0876],[38.2839,39.1297],[38.3617,39.1503]]]}}
]}
