{"type":"FeatureCollection","features":[
{"type":"Feature","properties":{"entityId":"danzig","from":1807,"to":1814,"certainty":"estimated","source":"유럽 쪽은 Natural Earth 1:10m admin-1(v5.1.2) 현대 행정구역 조각을 그 시기 국경에 맞춰 묶고, 조각이 역사 경계와 다른 곳은 선을 그어 나눈 근사. 유럽 밖(시베리아·중앙아시아·극동)은 대략적인 추정. 운영자 검수 필요"},"geometry":{"type":"MultiPolygon","coordinates":[[[[18.45,54.2],[18.95,54.2],[18.95,54.4354],[18.697,54.4385],[18.6214,54.6823],[18.4614,54.7094],[18.45,54.727],[18.45,54.2]]],[[[18.45,54.7447],[18.5022,54.7418],[18.6786,54.6654],[18.7659,54.6419],[18.784,54.6235],[18.8176,54.5981],[18.8343,54.6167],[18.814,54.6432],[18.7517,54.6901],[18.6743,54.7169],[18.535,54.77],[18.45,54.7971],[18.45,54.7447]]]]}}
]}
