{"type":"FeatureCollection","features":[
{"type":"Feature","properties":{"entityId":"denmark-early","from":800,"to":958,"certainty":"estimated","source":"유럽 쪽은 Natural Earth 1:10m admin-1(v5.1.2) 현대 행정구역 조각을 그 시기 국경에 맞춰 묶고, 조각이 역사 경계와 다른 곳은 선을 그어 나눈 근사. 유럽 밖(시베리아·중앙아시아·극동)은 대략적인 추정. 운영자 검수 필요"},"geometry":{"type":"MultiPolygon","coordinates":[[[[8.0909,56.5403],[8.0973,56.3133],[8.1073,55.9564],[8.1099,55.8672],[8.1111,55.8226],[8.1124,55.7779],[8.1174,55.5994],[8.094,55.5639],[8.1106,55.5402],[8.1191,55.5387],[8.1197,55.518],[8.294,55.28],[8.2991,55.2731],[8.3967,55.1399],[8.4383,55.0832],[8.4455,55.0733],[8.4617,55.0512],[8.4511,55.0545],[8.4513,55.0547],[8.4501,55.0548],[8.4158,55.0653],[8.4058,55.0581],[8.4045,55.0582],[8.4041,55.0582],[8.4021,55.0554],[8.3737,55.035],[8.298,54.9125],[8.2969,54.91],[8.2961,54.9089],[8.296,54.9081],[8.2886,54.8913],[8.277,54.7828],[8.2907,54.7453],[8.2983,54.7769],[8.2982,54.7782],[8.3073,54.787],[8.3469,54.8477],[8.5349,54.8605],[8.5437,54.7548],[8.5434,54.7548],[8.5089,54.7613],[8.5085,54.7613],[8.4689,54.7578],[8.4481,54.75],[8.4368,54.7485],[8.4301,54.7432],[8.4185,54.7388],[8.4098,54.727],[8.3945,54.7148],[8.4246,54.704],[8.4545,54.6915],[8.5481,54.688],[8.5485,54.688],[8.5491,54.6884],[8.5733,54.3958],[8.6065,54.3409],[8.5999,54.3381],[8.6027,54.3121],[8.6361,54.2868],[8.9,54.3],[9.1,54.37],[9.3,54.3],[9.5,54.28],[9.67,54.3],[9.85,54.35],[10,54.38],[10.15,54.42],[10.3,54.5],[10.3193,54.5096],[10.0275,54.577],[10.0376,54.6191],[10.0335,54.6729],[10.0204,54.675],[9.9925,54.7012],[10.0182,54.7012],[9.9841,54.7285],[9.9705,54.7626],[9.9312,54.7829],[9.9304,54.8027],[9.9291,54.837],[9.9279,54.8698],[9.968,54.8595],[10.022,54.8793],[10.0645,54.881],[10.0651,54.8908],[10.058,54.902],[10.0569,54.9089],[10.0336,54.9405],[10.0114,54.9755],[10.0028,54.9822],[9.9993,54.987],[9.9937,54.9894],[9.9609,55.015],[9.929,55.0262],[9.8964,55.0322],[9.8531,55.1093],[9.8454,55.1231],[9.6914,55.3972],[9.6552,55.4618],[9.6577,55.47],[9.6602,55.478],[9.6581,55.4786],[9.749,55.5694],[9.7577,55.5716],[9.7855,55.5919],[9.8538,55.6267],[9.8075,55.6279],[9.8332,55.6535],[9.8656,55.6859],[9.8702,55.6889],[9.9817,55.7094],[10.0182,55.7086],[10.0068,55.725],[10.0598,55.7495],[10.0212,55.7641],[10.018,55.7668],[10.0457,55.814],[10.0357,55.8184],[10.0024,55.8225],[10.0546,55.8747],[10.1069,55.8737],[10.1306,55.8646],[10.1511,55.8381],[10.1821,55.8337],[10.1994,55.8507],[10.1849,55.8715],[10.1861,55.8755],[10.2454,55.9146],[10.2525,55.9862],[10.2727,56.0248],[10.2313,56.017],[10.2315,56.0175],[10.2615,56.0544],[10.2601,56.08],[10.37,56.1898],[10.3754,56.1878],[10.4087,56.1649],[10.4278,56.1688],[10.4989,56.1431],[10.4912,56.14],[10.5085,56.111],[10.531,56.1002],[10.5737,56.1126],[10.5722,56.1165],[10.6685,56.0816],[10.6686,56.0817],[10.6689,56.0816],[10.7144,56.1517],[10.7386,56.1545],[10.7526,56.185],[10.7507,56.2077],[10.7738,56.2433],[10.8196,56.2609],[10.9116,56.3341],[10.9226,56.3563],[10.9285,56.4065],[10.9641,56.4484],[10.9021,56.4832],[10.8699,56.5147],[10.8223,56.5342],[10.7891,56.5364],[10.6728,56.5262],[10.3701,56.6101],[10.3554,56.6449],[10.3577,56.6487],[10.3528,56.6818],[10.3342,56.7038],[10.3309,56.7029],[10.3271,56.7117],[10.3406,56.7174],[10.32,56.7365],[10.3078,56.7575],[10.2981,56.7805],[10.2873,56.8236],[10.2919,56.9354],[10.5465,57.2156],[10.5779,57.7136],[10.5966,57.7263],[10.6489,57.737],[10.596,57.7512],[10.5391,57.7438],[10.4725,57.717],[10.4136,57.6842],[10.267,57.6209],[10.255,57.6167],[10.0739,57.5943],[10.0154,57.5966],[9.967,57.5914],[9.9299,57.5675],[9.9017,57.5381],[9.8711,57.5169],[9.8264,57.4899],[9.7884,57.4593],[9.7778,57.4486],[9.7757,57.4479],[9.4232,57.1722],[9.4218,57.1719],[9.1347,57.152],[9.0626,57.1545],[8.9805,57.161],[8.9602,57.1506],[8.9513,57.1501],[8.9013,57.1358],[8.6684,57.1197],[8.6538,57.1225],[8.618,57.1229],[8.6031,57.1152],[8.5445,57.1111],[8.41,56.9704],[8.3634,56.9266],[8.2704,56.8432],[8.2479,56.8124],[8.2392,56.7816],[8.2212,56.7524],[8.2031,56.7231],[8.1671,56.6646],[8.0951,56.5475],[8.0909,56.5407],[8.0909,56.5403]]],[[[9.6763,55.4957],[9.7134,55.491],[9.8122,55.4411],[9.7863,55.4372],[9.7302,55.4615],[9.7035,55.4621],[9.7373,55.4382],[9.791,55.4318],[9.8196,55.4138],[9.7855,55.4138],[9.8401,55.4001],[9.8301,55.3889],[9.7781,55.3803],[9.8298,55.3523],[9.8619,55.3503],[9.8817,55.3149],[9.8817,55.3144],[9.8954,55.2803],[9.884,55.2535],[9.924,55.2239],[9.9429,55.2201],[9.9665,55.2053],[9.9738,55.1913],[9.972,55.1847],[9.9888,55.1518],[9.9855,55.1278],[10.0256,55.1257],[10.0291,55.1424],[10.013,55.1566],[10.1338,55.1219],[10.0659,55.0922],[10.1584,55.0867],[10.197,55.0643],[10.2053,55.0937],[10.2342,55.0922],[10.3128,55.0637],[10.3626,55.0627],[10.4107,55.0469],[10.4776,55.0439],[10.5383,55.0297],[10.576,55.0517],[10.6257,55.0526],[10.6454,55.0625],[10.6663,55.0643],[10.7056,55.0626],[10.7337,55.0718],[10.7834,55.1242],[10.8152,55.2141],[10.8053,55.2504],[10.786,55.2723],[10.8072,55.3029],[10.8343,55.2903],[10.8184,55.3191],[10.8201,55.3216],[10.82,55.3218],[10.8201,55.322],[10.8,55.3523],[10.7966,55.3585],[10.7951,55.3597],[10.7373,55.447],[10.722,55.4808],[10.7424,55.4875],[10.7381,55.5093],[10.7092,55.527],[10.7041,55.5503],[10.6569,55.5949],[10.6562,55.5952],[10.6437,55.6102],[10.6221,55.6137],[10.6217,55.6137],[10.6152,55.6105],[10.6086,55.613],[10.6093,55.6077],[10.5065,55.5581],[10.4363,55.5596],[10.4074,55.583],[10.3384,55.6101],[10.2938,55.6161],[10.2908,55.6096],[10.2873,55.6102],[10.2869,55.6102],[10.2669,55.6051],[10.2127,55.6007],[10.1686,55.5823],[10.0393,55.5578],[9.9748,55.5327],[9.8627,55.5166],[9.8401,55.5236],[9.8274,55.5484],[9.7551,55.5441],[9.6763,55.4957]]],[[[10.2005,54.9623],[10.2084,54.9509],[10.2114,54.9394],[10.3835,54.8308],[10.4063,54.8247],[10.4382,54.8405],[10.4769,54.8464],[10.5186,54.852],[10.4992,54.8746],[10.4502,54.8998],[10.4594,54.8781],[10.4133,54.8967],[10.4028,54.8981],[10.3888,54.9203],[10.391,54.8997],[10.3485,54.9054],[10.3086,54.9263],[10.2887,54.9407],[10.269,54.9471],[10.2657,54.9488],[10.2595,54.9501],[10.2039,54.9681],[10.2056,54.9617],[10.2009,54.9627],[10.201,54.9626],[10.2005,54.9627],[10.2008,54.9622],[10.2005,54.9623]]],[[[10.5154,55.9512],[10.5225,55.948],[10.5424,55.9069],[10.5209,55.8481],[10.5209,55.8473],[10.5173,55.8455],[10.5203,55.7886],[10.5471,55.7652],[10.5822,55.7598],[10.6146,55.7768],[10.6244,55.7943],[10.627,55.8284],[10.6293,55.8338],[10.6547,55.8678],[10.6693,55.88],[10.661,55.8762],[10.6617,55.8772],[10.6616,55.8774],[10.6617,55.8776],[10.6365,55.914],[10.5594,55.9809],[10.5568,55.9958],[10.5477,55.9911],[10.5465,55.9921],[10.5463,55.9919],[10.5461,55.9921],[10.5432,55.9888],[10.5186,55.9761],[10.5154,55.9512]]],[[[10.6011,54.8383],[10.6352,54.817],[10.6707,54.7706],[10.6819,54.7448],[10.6939,54.7353],[10.7313,54.7401],[10.7411,54.7524],[10.7634,54.795],[10.7661,54.7991],[10.8689,54.9732],[10.8899,54.9974],[10.9089,55.0302],[10.9209,55.0612],[10.9567,55.1537],[10.9494,55.1557],[10.9497,55.1567],[10.9496,55.1567],[10.9497,55.1571],[10.9419,55.1577],[10.9343,55.1597],[10.9329,55.1583],[10.9245,55.1589],[10.9241,55.1589],[10.9077,55.1335],[10.8955,55.1215],[10.862,55.0721],[10.8582,55.0569],[10.8557,55.053],[10.7369,54.9627],[10.7326,54.9568],[10.697,54.9313],[10.683,54.9073],[10.6963,54.9073],[10.6937,54.9037],[10.6217,54.8516],[10.6218,54.8513],[10.6217,54.8512],[10.6245,54.8412],[10.6011,54.8383]]],[[[10.855,57.2646],[10.8888,57.2453],[10.9518,57.2337],[10.9979,57.1979],[11.0288,57.2019],[11.0911,57.2528],[11.0942,57.269],[11.0815,57.2792],[11.1216,57.2986],[11.1432,57.3014],[11.1891,57.2943],[11.1973,57.3134],[11.1699,57.3327],[11.1423,57.3323],[11.1259,57.3275],[11.0865,57.3306],[11.0861,57.3306],[10.9349,57.308],[10.9066,57.2871],[10.855,57.2646]]],[[[10.8755,55.7427],[10.8914,55.7313],[10.92,55.7284],[10.9407,55.6671],[10.9299,55.6676],[10.9299,55.6601],[10.9437,55.658],[11.0429,55.364],[11.232,55.2623],[11.2419,55.2518],[11.242,55.2487],[11.2445,55.2491],[11.2542,55.2389],[11.2385,55.2424],[11.261,55.2006],[11.3205,55.1946],[11.3138,55.1991],[11.3413,55.2035],[11.7276,54.9956],[11.7413,54.9727],[11.7413,54.9618],[11.7114,54.9482],[11.7413,54.9259],[11.7413,54.9154],[11.7439,54.9124],[11.7497,54.8731],[11.7935,54.8446],[11.8091,54.8049],[11.8828,54.7564],[11.8758,54.7297],[11.9102,54.7217],[11.8706,54.6804],[11.8692,54.6596],[11.9282,54.584],[11.969,54.5698],[11.9714,54.6056],[11.9607,54.6941],[12.028,54.7436],[12.0671,54.7868],[12.1702,54.8383],[12.1702,54.8446],[12.1399,54.8666],[12.1603,54.8943],[12.1787,54.889],[12.2268,54.8926],[12.2714,54.9278],[12.3402,54.9554],[12.3727,54.9611],[12.4477,54.9551],[12.5028,54.9482],[12.5427,54.9512],[12.5537,54.9681],[12.5376,55.0024],[12.5047,55.0198],[12.4316,55.0285],[12.4185,55.0321],[12.3105,55.0408],[12.2883,55.0558],[12.2833,55.0609],[12.446,55.2812],[12.465,55.2903],[12.4611,55.3015],[12.5456,55.4159],[12.5878,55.4731],[12.6301,55.5303],[12.6885,55.6094],[12.6884,55.6096],[12.6885,55.6098],[12.5942,55.759],[12.6022,55.7973],[12.576,55.8292],[12.5545,55.8829],[12.5315,55.9038],[12.5266,55.919],[12.5445,55.9588],[12.6075,56.0313],[12.6219,56.0438],[12.5833,56.0621],[12.5805,56.0651],[12.5295,56.0832],[12.4861,56.099],[12.4626,56.099],[12.4293,56.1067],[12.3581,56.1173],[12.3285,56.1269],[12.2451,56.1287],[12.1654,56.1037],[12.1216,56.0828],[12.0401,56.0529],[11.9783,56.0225],[11.8475,55.9931],[11.8133,55.9854],[11.779,55.9777],[11.7105,55.9623],[11.6415,55.9468],[11.6265,55.9574],[11.6261,55.9574],[11.5735,55.9526],[11.4269,55.9655],[11.4006,55.962],[11.2726,55.9966],[11.3045,55.9678],[11.3843,55.9508],[11.4742,55.9417],[11.4605,55.9071],[11.4605,55.9067],[11.4606,55.9062],[10.9025,55.7807],[10.9026,55.7803],[10.9025,55.7803],[10.9164,55.7392],[10.8755,55.7427]]],[[[10.9992,54.7868],[11.0305,54.7606],[11.1189,54.7446],[11.3462,54.6669],[11.3587,54.6605],[11.4518,54.6284],[11.4744,54.6261],[11.4996,54.6398],[11.5803,54.6603],[11.588,54.6619],[11.6801,54.6533],[11.6805,54.6533],[11.6903,54.6562],[11.7661,54.6466],[11.8107,54.6551],[11.8426,54.6762],[11.8464,54.6978],[11.807,54.708],[11.8452,54.7319],[11.8486,54.7732],[11.7876,54.8069],[11.7258,54.8734],[11.6494,54.9135],[11.6563,54.8663],[11.5947,54.8589],[11.5728,54.848],[11.5833,54.8303],[11.5401,54.829],[11.3609,54.8912],[11.3389,54.9191],[11.2685,54.9467],[11.2593,54.9523],[11.2589,54.9523],[11.255,54.9521],[11.2317,54.9612],[11.0881,54.9442],[11.074,54.9482],[11.0646,54.9405],[11.0573,54.9401],[11.0551,54.9328],[11.0188,54.9034],[11.0252,54.8795],[11.0414,54.8678],[11.038,54.812],[11.0308,54.8122],[10.9992,54.7868]]],[[[11.7291,57.5522],[11.7462,57.5203],[11.7881,57.4424],[11.8246,57.3928],[11.8613,57.3429],[12.2732,56.7827],[12.3558,56.6704],[12.3972,56.6142],[12.4178,56.5861],[12.4385,56.558],[12.6038,56.3332],[12.6233,56.3067],[12.6396,56.2589],[12.5481,56.281],[12.5085,56.2925],[12.5081,56.2925],[12.5019,56.2922],[12.4514,56.3044],[12.4761,56.2909],[12.4721,56.2907],[12.4725,56.2903],[12.4721,56.2903],[12.5225,56.2452],[12.5446,56.2104],[12.5537,56.1815],[12.5895,56.1398],[12.5909,56.1376],[12.5955,56.1328],[12.6095,56.1165],[12.6151,56.1124],[12.7298,55.9928],[12.9144,55.4487],[12.8937,55.4221],[12.8594,55.4349],[12.8288,55.4001],[12.8328,55.3826],[12.8867,55.3933],[12.9326,55.388],[12.9347,55.389],[12.9437,55.3623],[12.9441,55.3623],[13.1581,55.3707],[13.1681,55.3692],[13.2805,55.3454],[13.3814,55.346],[13.4109,55.3523],[13.4496,55.3674],[13.5658,55.3869],[13.9947,55.4038],[14.0293,55.3994],[14.0354,55.3971],[14.0941,55.3874],[14.1812,55.3908],[14.219,55.4138],[14.2649,55.4612],[14.2947,55.4755],[14.363,55.5236],[14.3582,55.5637],[14.2777,55.6336],[14.2761,55.6363],[14.276,55.6364],[14.2749,55.6519],[14.4081,55.8374],[14.4874,55.9478],[14.5143,55.9853],[14.5389,56.0196],[14.5409,56.0223],[14.5599,56.0488],[14.5603,56.0489],[14.5674,56.0467],[14.6205,56.03],[14.6238,56.0245],[14.6115,56.0111],[14.673,56.0053],[14.7057,56.017],[14.7155,56.0023],[14.7678,56.0307],[14.7453,56.0582],[14.7154,56.1342],[14.7837,56.1619],[14.7875,56.162],[14.8303,56.1426],[14.8482,56.164],[14.906,56.1612],[14.9324,56.1677],[14.9714,56.1693],[15.049,56.1536],[15.0403,56.1705],[15.0842,56.1671],[15.0852,56.1646],[15.1309,56.1611],[15.1365,56.1629],[15.1757,56.1598],[15.1924,56.1529],[15.2229,56.156],[15.322,56.1481],[15.321,56.1396],[15.3656,56.1411],[15.3683,56.1444],[15.6648,56.1208],[15.6423,56.1046],[15.6511,56.09],[15.7022,56.0767],[15.7053,56.1164],[15.6958,56.1184],[15.7918,56.1107],[15.7887,56.1064],[15.8517,56.0864],[15.8744,56.1027],[15.8755,56.1041],[15.8814,56.1036],[15.8818,56.1036],[15.9019,56.137],[15.9321,56.1747],[16.0044,56.2194],[16.0383,56.2551],[16.0662,56.3359],[16.031,56.3263],[15.98,56.3262],[15.8596,56.3506],[15.8002,56.3749],[15.7246,56.4282],[15.6681,56.4571],[15.5973,56.5017],[15.5495,56.5091],[15.5125,56.4876],[15.4192,56.5029],[15.363,56.4821],[15.3426,56.4693],[15.247,56.4675],[15.2157,56.4431],[15.1883,56.4439],[15.104,56.4628],[14.9957,56.4474],[14.9828,56.4258],[14.9152,56.3819],[14.8696,56.3791],[14.7251,56.402],[14.7,56.4098],[14.5963,56.4645],[14.5407,56.4775],[14.3591,56.5072],[14.2778,56.5239],[14.1623,56.5233],[14.0947,56.5412],[14.0633,56.5255],[14.0419,56.4927],[13.9933,56.4792],[13.5767,56.4238],[13.5014,56.4238],[13.4718,56.4477],[13.4516,56.492],[13.4488,56.5591],[13.4187,56.603],[13.3523,56.6705],[13.3082,56.7019],[13.3213,56.8321],[13.3521,56.8676],[13.4187,56.879],[13.4858,56.8792],[13.5386,56.8936],[13.6218,56.9068],[13.6771,56.9343],[13.698,56.9646],[13.6937,56.9834],[13.6398,57.001],[13.607,57.0214],[13.5924,57.0678],[13.4876,57.1081],[13.3947,57.1206],[13.2395,57.0975],[13.2238,57.0789],[13.1515,57.038],[13.1381,57.0412],[13.1011,57.0838],[13.0899,57.11],[13.1,57.146],[13.1166,57.157],[13.0558,57.1679],[13.019,57.193],[12.9532,57.1996],[12.9307,57.2327],[12.9543,57.2675],[12.9444,57.2775],[12.8642,57.284],[12.8199,57.3022],[12.7844,57.2961],[12.7482,57.3025],[12.7023,57.3358],[12.6742,57.3467],[12.5946,57.3506],[12.5508,57.3284],[12.5148,57.2981],[12.4579,57.2913],[12.4345,57.3059],[12.4028,57.3538],[12.3932,57.3835],[12.4155,57.4359],[12.3368,57.4908],[12.3306,57.5067],[12.3319,57.5838],[12.3019,57.6164],[12.1455,57.5806],[12.0693,57.5726],[11.9562,57.5864],[11.9128,57.5829],[11.9145,57.5679],[11.8246,57.5679],[11.8246,57.5522],[11.7291,57.5522]]],[[[14.6825,55.1029],[14.6847,55.1021],[14.6842,55.1013],[14.7808,55.0511],[14.8586,55.0382],[14.9273,55.0137],[14.9829,55.001],[15.0727,54.9916],[15.1132,55.0183],[15.1066,55.0447],[15.1447,55.0871],[15.1377,55.1195],[15.1514,55.1332],[15.1334,55.139],[15.133,55.145],[14.9812,55.2081],[14.9734,55.2161],[14.9622,55.216],[14.7979,55.2843],[14.7609,55.3093],[14.7057,55.2257],[14.7024,55.1864],[14.6825,55.1033],[14.6826,55.1033],[14.6825,55.1029]]]]}}
]}
