{"type":"FeatureCollection","features":[
{"type":"Feature","properties":{"entityId":"dongye","from":-107,"to":313,"certainty":"estimated","source":"중고등학교 한국사 교과서 시대별 지도의 일반적인 경계를 따른 대략적인 추정. 운영자 검수 필요"},"geometry":{"type":"Polygon","coordinates":[[[126.9,37.8],[127.5,37.75],[127.75,37.2],[128.3,37.2],[128.3,36.85],[128.4,36.85],[128.9,36.6],[129.4,36.4],[130,36.4],[129.9333,36.2],[130.1211,36.2],[130.5,37.2286],[130.5,38.8],[129.5955,38.8],[129.5,39.5],[127.9,39.6],[127.2,39.6],[127.2,38.6],[127,37.9],[126.9,37.8]]]}}
]}
