{
 "type": "FeatureCollection",
 "features": [
  {
   "type": "Feature",
   "properties": {
    "entityId": "dongnyeong",
    "from": 1270,
    "to": 1290,
    "certainty": "estimated",
    "source": "중고등학교 한국사 교과서 시대별 지도의 일반적인 경계를 따른 대략적인 추정. 운영자 검수 필요"
   },
   "geometry": {
    "type": "Polygon",
    "coordinates": [
     [
      [
       124.9,
       38.3
      ],
      [
       125.5,
       38.45
      ],
      [
       126.1,
       38.55
      ],
      [
       126.6,
       38.8
      ],
      [
       127,
       39.3
      ],
      [
       127,
       39.6
      ],
      [
       127,
       39.95
      ],
      [
       126.3,
       40.2
      ],
      [
       125.4,
       40.35
      ],
      [
       124.4,
       40
      ],
      [
       124,
       39.6
      ],
      [
       124.2,
       38.4
      ],
      [
       124.9,
       38.3
      ]
     ]
    ]
   }
  }
 ]
}
