{
 "type": "FeatureCollection",
 "features": [
  {
   "type": "Feature",
   "properties": {
    "entityId": "dprk",
    "from": 1948,
    "to": 1953,
    "certainty": "estimated",
    "source": "중고등학교 한국사 교과서 시대별 지도의 일반적인 경계를 따른 대략적인 추정. 운영자 검수 필요"
   },
   "geometry": {
    "type": "MultiPolygon",
    "coordinates": [
     [
      [
       [
        124,
        39.6
       ],
       [
        124.9,
        39.4
       ],
       [
        124.5,
        39
       ],
       [
        124.6,
        38.6
       ],
       [
        124.3,
        38.4
       ],
       [
        124.35,
        38
       ],
       [
        129.2,
        38
       ],
       [
        128.5,
        39.2
       ],
       [
        127.8,
        39.3
       ],
       [
        127.9,
        39.6
       ],
       [
        127.8,
        39.7
       ],
       [
        129.2,
        40
       ],
       [
        130.2,
        41
       ],
       [
        131,
        42.1
       ],
       [
        130.7,
        42.3
       ],
       [
        130.4,
        42.6
       ],
       [
        130,
        42.9
       ],
       [
        129.7,
        42.45
       ],
       [
        128.9,
        42.05
       ],
       [
        128.2,
        41.5
       ],
       [
        126.8,
        41.6
       ],
       [
        126,
        41
       ],
       [
        125.3,
        40.6
       ],
       [
        124.4,
        40
       ],
       [
        124,
        39.6
       ]
      ]
     ],
     [
      [
       [
        130,
        37.6
       ],
       [
        131,
        37.6909
       ],
       [
        131,
        36.4
       ],
       [
        132.2,
        37
       ],
       [
        132.2,
        37.8
       ],
       [
        130,
        37.6
       ]
      ]
     ]
    ]
   }
  },
  {
   "type": "Feature",
   "properties": {
    "entityId": "dprk",
    "from": 1953,
    "to": null,
    "certainty": "estimated",
    "source": "중고등학교 한국사 교과서 시대별 지도의 일반적인 경계를 따른 대략적인 추정. 운영자 검수 필요"
   },
   "geometry": {
    "type": "MultiPolygon",
    "coordinates": [
     [
      [
       [
        124,
        39.6
       ],
       [
        124.9,
        39.4
       ],
       [
        124.5,
        39
       ],
       [
        124.6,
        38.6
       ],
       [
        124.3,
        38.4
       ],
       [
        124.4,
        37.6
       ],
       [
        124.5286,
        37.5714
       ],
       [
        125.9,
        37.6
       ],
       [
        126.35,
        37.78
       ],
       [
        126.68,
        37.95
       ],
       [
        127,
        38.1
       ],
       [
        127.3,
        38.3
       ],
       [
        127.6,
        38.3
       ],
       [
        127.9,
        38.32
       ],
       [
        128.3,
        38.5
       ],
       [
        128.37,
        38.62
       ],
       [
        128.8383,
        38.62
       ],
       [
        128.5,
        39.2
       ],
       [
        127.8,
        39.3
       ],
       [
        127.9,
        39.6
       ],
       [
        127.8,
        39.7
       ],
       [
        129.2,
        40
       ],
       [
        130.2,
        41
       ],
       [
        131,
        42.1
       ],
       [
        130.7,
        42.3
       ],
       [
        130.4,
        42.6
       ],
       [
        130,
        42.9
       ],
       [
        129.7,
        42.45
       ],
       [
        128.9,
        42.05
       ],
       [
        128.2,
        41.5
       ],
       [
        126.8,
        41.6
       ],
       [
        126,
        41
       ],
       [
        125.3,
        40.6
       ],
       [
        124.4,
        40
       ],
       [
        124,
        39.6
       ]
      ],
      [
       [
        124.55,
        37.6
       ],
       [
        124.55,
        38
       ],
       [
        124.8,
        38
       ],
       [
        124.8,
        37.6
       ],
       [
        124.55,
        37.6
       ]
      ]
     ],
     [
      [
       [
        130,
        37.6
       ],
       [
        131,
        37.6909
       ],
       [
        131,
        36.4
       ],
       [
        132.2,
        37
       ],
       [
        132.2,
        37.8
       ],
       [
        130,
        37.6
       ]
      ]
     ]
    ]
   }
  }
 ]
}
