{"type":"FeatureCollection","features":[
{"type":"Feature","properties":{"entityId":"ducal-prussia","from":1600,"to":1618,"certainty":"estimated","source":"유럽 쪽은 Natural Earth 1:10m admin-1(v5.1.2) 현대 행정구역 조각을 그 시기 국경에 맞춰 묶고, 조각이 역사 경계와 다른 곳은 선을 그어 나눈 근사. 유럽 밖(시베리아·중앙아시아·극동)은 대략적인 추정. 운영자 검수 필요"},"geometry":{"type":"MultiPolygon","coordinates":[[[[18.86,53.6],[19.1681,53.6],[19.2759,53.7193],[19.1283,53.5559],[19.2148,53.4552],[19.2396,53.4122],[19.2855,53.3645],[19.4045,53.3429],[19.5115,53.3043],[19.6256,53.2864],[19.6813,53.263],[19.7329,53.1846],[19.7479,53.0931],[19.8112,53.1129],[19.8371,53.1437],[19.8768,53.1511],[19.9248,53.1273],[20.2406,53.098],[20.3158,53.1063],[20.3719,53.1337],[20.3889,53.1675],[20.4198,53.182],[20.4948,53.1861],[20.6346,53.2346],[20.704,53.2759],[20.7756,53.2754],[20.8391,53.2834],[20.9123,53.3086],[21.0079,53.3084],[21.0979,53.3256],[21.1737,53.3796],[21.2626,53.3746],[21.308,53.3788],[21.3488,53.3961],[21.3774,53.4299],[21.402,53.4379],[21.523,53.4435],[21.5957,53.4626],[21.7388,53.4576],[21.8016,53.4708],[21.8626,53.4927],[21.9373,53.4993],[22.1099,53.5699],[22.207,53.6352],[22.4856,53.7379],[22.543,53.7739],[22.5779,53.8322],[22.6185,53.8782],[22.6221,53.9248],[22.516,54.0124],[22.4652,54.0417],[22.4491,54.0992],[22.3481,54.1786],[22.4422,54.257],[22.6653,54.2753],[22.7317,54.3017],[22.7887,54.3366],[22.8113,54.3926],[22.7672,54.3563],[22.707,54.4187],[22.6804,54.4532],[22.6746,54.4923],[22.6817,54.5699],[22.7081,54.6356],[22.7051,54.6865],[22.727,54.7053],[22.7248,54.7234],[22.7648,54.7371],[22.8328,54.7787],[22.8484,54.8138],[22.8293,54.8727],[22.8089,54.8938],[22.7492,54.9099],[22.7521,54.9311],[22.7155,54.9514],[22.6335,54.9579],[22.6084,54.9924],[22.5916,55.0376],[22.5712,55.064],[22.5411,55.0758],[22.4363,55.0578],[22.5303,55.0739],[22.3,55.12],[22.05,55.25],[21.85,55.35],[21.6,55.46],[21.45,55.6],[21.33,55.72],[21.17,55.85],[21.05,55.88],[21.0447,55.88],[21.0447,55.8737],[21.0606,55.7893],[21.0744,55.7449],[21.1213,55.7047],[21.1501,55.6525],[21.2166,55.3893],[21.1834,55.3462],[21.1888,55.3386],[21.2027,55.3462],[21.2022,55.3446],[21.2023,55.3444],[21.2022,55.3442],[21.2278,55.2867],[21.2346,55.2714],[21.2328,55.2449],[21.2301,55.2031],[21.2229,55.2015],[21.2017,55.2144],[21.1813,55.1933],[21.186,55.171],[20.6948,55.0559],[20.7736,55.1145],[20.8237,55.1431],[20.884,55.1981],[20.9131,55.2332],[20.9894,55.2731],[20.9889,55.2913],[21.0379,55.3286],[21.0735,55.3918],[21.1062,55.4212],[21.0872,55.4411],[21.1199,55.4894],[21.1199,55.527],[21.1336,55.5683],[21.1315,55.6556],[21.1174,55.6998],[21.0852,55.7228],[21.0935,55.6955],[21.0907,55.6331],[21.0994,55.613],[21.0966,55.594],[21.087,55.5824],[21.0582,55.4766],[21.015,55.4019],[20.9488,55.336],[20.9403,55.3276],[20.9066,55.2941],[20.8998,55.2873],[20.8458,55.2318],[20.8262,55.2166],[20.6802,55.1033],[20.674,55.0991],[20.5659,55.0257],[20.2632,54.9547],[20.2514,54.9549],[20.2058,54.9584],[20.1844,54.9561],[20.1082,54.9575],[20.1078,54.9575],[20.0939,54.9537],[20.075,54.9544],[20.0337,54.9482],[19.9959,54.9681],[19.9767,54.9646],[19.9408,54.9344],[19.9207,54.8896],[19.9267,54.8758],[19.8882,54.8668],[19.7801,54.657],[19.7291,54.558],[19.7076,54.5163],[19.6519,54.4857],[19.6133,54.4645],[19.6133,54.4588],[19.6095,54.4567],[19.6803,54.4367],[19.7583,54.4343],[20.3521,54.4157],[19.975,54.4275],[20.05,54.36],[20.4,54.22],[20.6,54.2],[21,54.1],[21.2,54.12],[21.28,54],[21.15,53.88],[21,53.78],[20.8,53.7],[20.55,53.66],[20.35,53.68],[20.2,53.75],[20.15,53.88],[20.1,54],[19.95,54.05],[19.75,54.1],[19.6,54.1],[19.55,53.95],[19.3708,53.95],[19.3892,53.9352],[19.3698,53.8958],[19.4054,53.8855],[19.5044,53.8903],[19.5544,53.8822],[19.5504,53.8493],[19.5201,53.8251],[19.5,53.7873],[19.5,53.88],[18.86,53.88],[18.86,53.6]]],[[[22.562,55.0676],[22.5712,55.064],[22.575,55.065],[22.562,55.0676]]]]}}
]}
