{"type":"FeatureCollection","features":[
{"type":"Feature","properties":{"entityId":"duchy-of-warsaw","from":1807,"to":1809,"certainty":"estimated","source":"유럽 쪽은 Natural Earth 1:10m admin-1(v5.1.2) 현대 행정구역 조각을 그 시기 국경에 맞춰 묶고, 조각이 역사 경계와 다른 곳은 선을 그어 나눈 근사. 유럽 밖(시베리아·중앙아시아·극동)은 대략적인 추정. 운영자 검수 필요"},"geometry":{"type":"Polygon","coordinates":[[[15.8257,52.6497],[15.8296,52.5938],[15.8649,52.5348],[15.885,52.4633],[15.8849,52.4333],[15.8366,52.4242],[15.899,52.3485],[15.9012,52.287],[15.8687,52.2281],[15.8498,52.169],[15.857,52.1037],[15.9079,52.0649],[15.963,52.0468],[16.0039,51.9896],[16.0394,51.9676],[16.0939,51.9718],[16.1105,51.9654],[16.0984,51.8917],[16.1132,51.8649],[16.1562,51.8467],[16.2015,51.8375],[16.2747,51.8682],[16.3399,51.8237],[16.3711,51.7492],[16.4585,51.7596],[16.4991,51.7529],[16.6118,51.7149],[16.6295,51.6897],[16.6328,51.6571],[16.6761,51.6095],[16.7731,51.5759],[16.8277,51.5383],[16.943,51.5127],[17.1496,51.5354],[17.1874,51.5889],[17.2293,51.5943],[17.3468,51.594],[17.4573,51.5751],[17.5566,51.535],[17.5328,51.4816],[17.4952,51.4503],[17.5007,51.407],[17.5239,51.3703],[17.583,51.3617],[17.6443,51.3694],[17.6824,51.3628],[17.7184,51.3447],[17.6902,51.3026],[17.7016,51.2],[17.7146,51.1502],[17.7492,51.1514],[17.7822,51.1407],[17.8012,51.0948],[17.8537,51.068],[17.9174,51.0658],[18.0358,51.0932],[18.1501,51.1361],[18.1726,51.1108],[18.202,51.0959],[18.4257,51.0596],[18.4964,51.0608],[18.5305,51.0826],[18.5806,51.0334],[18.6556,50.9952],[18.6356,50.9505],[18.68,50.93],[19.03,50.58],[19.1,50.3],[19.17,50.235],[19.32,50.27],[19.3437,50.2656],[19.4036,50.26],[19.447,50.2997],[19.5017,50.3611],[19.5571,50.3407],[19.6081,50.3445],[19.6967,50.3885],[19.7515,50.394],[19.8392,50.3943],[19.9656,50.4449],[19.9563,50.4845],[19.8603,50.498],[19.8253,50.5096],[19.8453,50.5373],[19.9143,50.5743],[19.9544,50.5781],[19.9069,50.615],[19.879,50.6545],[19.8445,50.6712],[19.7692,50.6849],[19.7417,50.7057],[19.7793,50.7509],[19.8478,50.758],[19.8486,50.7894],[19.7506,50.8043],[19.7738,50.829],[19.8374,50.8607],[19.8544,50.8907],[19.8511,50.9542],[19.8639,50.9864],[19.8994,50.9905],[20.0315,50.9294],[20.0541,50.9463],[20.0621,50.979],[20.0523,51.0125],[20.0214,51.0281],[19.9758,51.0717],[20.0006,51.1321],[20.0251,51.1523],[20.0563,51.1595],[20.1669,51.1498],[20.199,51.1556],[20.2685,51.1971],[20.3666,51.2196],[20.4034,51.2766],[20.4321,51.2899],[20.4287,51.3194],[20.4414,51.3466],[20.5054,51.3841],[20.5222,51.4116],[20.5223,51.4437],[20.4725,51.4639],[20.4514,51.5428],[20.4216,51.5872],[20.4369,51.5644],[20.58,51.62],[20.5959,51.6225],[20.6581,51.6171],[20.6736,51.6574],[20.6643,51.6332],[20.9,51.67],[21.19,51.78],[21.22,51.8],[21.2,51.95],[21.1,52.1],[21.05,52.22],[21.03,52.26],[20.97,52.32],[20.85,52.38],[20.72,52.43],[20.85,52.47],[21.06,52.51],[21.46,52.59],[21.86,52.7],[22.03,52.7],[22.32,52.67],[22.5151,52.5151],[22.5176,52.5294],[22.4119,52.6006],[22.4118,52.6597],[22.3997,52.695],[22.3942,52.7413],[22.4,52.75],[22.5,53.05],[22.42,53.19],[22.74,53.49],[23.1,53.68],[23.4,53.75],[23.4863,53.9227],[23.4856,53.9393],[23.4904,53.9506],[23.4629,53.9725],[23.4593,53.9923],[23.4965,54.022],[23.4962,54.0446],[23.4739,54.1126],[23.4325,54.1693],[23.3823,54.1879],[23.336,54.2263],[23.3487,54.277],[23.3474,54.3038],[23.3695,54.3404],[23.4014,54.3604],[23.4661,54.3722],[23.4481,54.3892],[23.4651,54.4011],[23.5408,54.418],[23.542,54.4556],[23.557,54.4686],[23.641,54.5078],[23.6613,54.5073],[23.7045,54.478],[23.7563,54.4698],[23.7763,54.4902],[23.7596,54.5374],[23.7161,54.5459],[23.6646,54.5757],[23.6845,54.6004],[23.6767,54.6125],[23.6236,54.6321],[23.6756,54.6528],[23.6821,54.6716],[23.6633,54.718],[23.6657,54.7382],[23.6418,54.7757],[23.6155,54.7862],[23.6478,54.8106],[23.6242,54.8749],[23.5755,54.9003],[23.5426,54.9066],[23.4945,54.8962],[23.4723,54.9372],[23.4521,54.9507],[23.4033,54.958],[23.4063,54.975],[23.4425,54.987],[23.5024,54.9864],[23.5361,55.0143],[23.5753,55.0221],[23.5512,55.05],[23.4843,55.0507],[23.4123,55.0787],[23.3198,55.0712],[23.0017,55.1054],[22.9254,55.0835],[22.871,55.0923],[22.8201,55.0884],[22.7287,55.0659],[22.6442,55.0571],[22.5993,55.0715],[22.5712,55.064],[22.5916,55.0376],[22.6084,54.9924],[22.6335,54.9579],[22.7155,54.9514],[22.7521,54.9311],[22.7492,54.9099],[22.8089,54.8938],[22.8293,54.8727],[22.8484,54.8138],[22.8328,54.7787],[22.7648,54.7371],[22.7248,54.7234],[22.727,54.7053],[22.7051,54.6865],[22.7081,54.6356],[22.6817,54.5699],[22.6746,54.4923],[22.6804,54.4532],[22.707,54.4187],[22.7672,54.3563],[22.8113,54.3926],[22.7887,54.3366],[22.7317,54.3017],[22.6653,54.2753],[22.4422,54.257],[22.3481,54.1786],[22.4491,54.0992],[22.4652,54.0417],[22.516,54.0124],[22.6221,53.9248],[22.6185,53.8782],[22.5779,53.8322],[22.543,53.7739],[22.4856,53.7379],[22.207,53.6352],[22.1099,53.5699],[21.9373,53.4993],[21.8626,53.4927],[21.8016,53.4708],[21.7388,53.4576],[21.5957,53.4626],[21.523,53.4435],[21.402,53.4379],[21.3774,53.4299],[21.3488,53.3961],[21.308,53.3788],[21.2626,53.3746],[21.1737,53.3796],[21.0979,53.3256],[21.0079,53.3084],[20.9123,53.3086],[20.8391,53.2834],[20.7756,53.2754],[20.704,53.2759],[20.6346,53.2346],[20.4948,53.1861],[20.4198,53.182],[20.3889,53.1675],[20.3719,53.1337],[20.3158,53.1063],[20.2406,53.098],[19.9248,53.1273],[19.8768,53.1511],[19.8371,53.1437],[19.8112,53.1129],[19.7479,53.0931],[19.7329,53.1846],[19.7096,53.22],[19.6813,53.263],[19.6256,53.2864],[19.5115,53.3043],[19.4045,53.3429],[19.2855,53.3645],[19.2396,53.4122],[19.2148,53.4552],[19.1283,53.5559],[19.0741,53.5416],[18.9601,53.5375],[18.8746,53.5623],[18.8088,53.6027],[18.7594,53.6252],[18.6779,53.6321],[18.583,53.6053],[18.4978,53.6354],[18.3179,53.6532],[18.2557,53.6942],[18.2205,53.696],[18.0511,53.681],[17.9241,53.6956],[17.8971,53.6832],[17.8564,53.6388],[17.7877,53.6236],[17.7556,53.6058],[17.7455,53.5573],[17.6832,53.5424],[17.5445,53.5639],[17.5076,53.5616],[17.4554,53.5069],[17.4252,53.444],[17.3972,53.4338],[17.3528,53.4656],[17.2993,53.4831],[17.0957,53.4881],[17.0372,53.5093],[16.9958,53.5529],[16.9477,53.5882],[16.8722,53.5946],[16.8365,53.5852],[16.7908,53.525],[16.7653,53.4612],[16.7351,53.4577],[16.5511,53.4606],[16.5285,53.4415],[16.5296,53.4017],[16.5451,53.366],[16.6078,53.3296],[16.6833,53.318],[16.7204,53.3064],[16.7516,53.2824],[16.7579,53.2537],[16.7036,53.2058],[16.6747,53.1893],[16.601,53.1755],[16.4562,53.1247],[16.3753,53.0482],[16.2788,52.9932],[16.2174,52.9787],[16.155,52.9736],[16.0938,52.9956],[16.0385,53.0067],[16.0186,52.9491],[16.0219,52.8853],[15.9246,52.8096],[15.9553,52.7923],[15.9768,52.7431],[15.9479,52.7198],[15.8311,52.6933],[15.8257,52.6497]]]}},
{"type":"Feature","properties":{"entityId":"duchy-of-warsaw","from":1809,"to":1815,"certainty":"estimated","source":"유럽 쪽은 Natural Earth 1:10m admin-1(v5.1.2) 현대 행정구역 조각을 그 시기 국경에 맞춰 묶고, 조각이 역사 경계와 다른 곳은 선을 그어 나눈 근사. 유럽 밖(시베리아·중앙아시아·극동)은 대략적인 추정. 운영자 검수 필요"},"geometry":{"type":"Polygon","coordinates":[[[15.8257,52.6497],[15.8296,52.5938],[15.8649,52.5348],[15.885,52.4633],[15.8849,52.4333],[15.8366,52.4242],[15.899,52.3485],[15.9012,52.287],[15.8687,52.2281],[15.8498,52.169],[15.857,52.1037],[15.9079,52.0649],[15.963,52.0468],[16.0039,51.9896],[16.0394,51.9676],[16.0939,51.9718],[16.1105,51.9654],[16.0984,51.8917],[16.1132,51.8649],[16.1562,51.8467],[16.2015,51.8375],[16.2747,51.8682],[16.3399,51.8237],[16.3711,51.7492],[16.4585,51.7596],[16.4991,51.7529],[16.6118,51.7149],[16.6295,51.6897],[16.6328,51.6571],[16.6761,51.6095],[16.7731,51.5759],[16.8277,51.5383],[16.943,51.5127],[17.1496,51.5354],[17.1874,51.5889],[17.2293,51.5943],[17.3468,51.594],[17.4573,51.5751],[17.5566,51.535],[17.5328,51.4816],[17.4952,51.4503],[17.5007,51.407],[17.5239,51.3703],[17.583,51.3617],[17.6443,51.3694],[17.6824,51.3628],[17.7184,51.3447],[17.6902,51.3026],[17.7016,51.2],[17.7146,51.1502],[17.7492,51.1514],[17.7822,51.1407],[17.8012,51.0948],[17.8537,51.068],[17.9174,51.0658],[18.0358,51.0932],[18.1501,51.1361],[18.1726,51.1108],[18.202,51.0959],[18.4257,51.0596],[18.4964,51.0608],[18.5305,51.0826],[18.5806,51.0334],[18.6556,50.9952],[18.6356,50.9505],[18.68,50.93],[19.03,50.58],[19.1,50.3],[19.17,50.235],[19.19,50.2],[19.22,50.15],[19.23,50.08],[19.2,50.03],[19.2032,50.0294],[19.3,50.01],[19.45,49.99],[19.6,50],[19.75,50.03],[19.88,50.04],[19.95,50.05],[20.15,50.09],[20.35,50.1],[20.5702,50.1755],[20.5021,50.1767],[20.6335,50.1744],[20.6797,50.2179],[20.6716,50.2103],[20.7,50.22],[21.2142,50.22],[21.2162,50.2382],[21.2535,50.2795],[21.284,50.3267],[21.2953,50.4108],[21.3601,50.4457],[21.4043,50.4439],[21.4489,50.4662],[21.4352,50.4867],[21.5308,50.514],[21.5949,50.5245],[21.644,50.558],[21.6688,50.6085],[21.7163,50.6444],[21.745,50.6747],[21.8062,50.6914],[21.8405,50.7399],[21.8486,50.7792],[21.8443,50.8298],[21.9764,50.7728],[22.0513,50.7704],[22.1174,50.7998],[22.1568,50.8009],[22.1951,50.7917],[22.2624,50.7599],[22.203,50.6801],[22.2215,50.6596],[22.4547,50.622],[22.6121,50.5681],[22.6227,50.5315],[22.6579,50.479],[22.6305,50.4689],[22.5681,50.4646],[22.5266,50.4229],[22.5339,50.3981],[22.5598,50.3725],[22.5949,50.3621],[22.7343,50.3797],[22.7611,50.3679],[22.7114,50.3567],[22.7212,50.342],[22.8581,50.3171],[23.0828,50.3125],[23.1584,50.3227],[23.2231,50.3562],[23.3055,50.4158],[23.3889,50.4267],[23.4626,50.4215],[23.5255,50.3957],[23.558,50.3647],[23.6587,50.327],[23.6957,50.3768],[23.7475,50.3894],[23.9287,50.3908],[23.9813,50.4048],[24.0032,50.4377],[24.0107,50.4928],[24.075,50.5143],[24.1077,50.5408],[24.0954,50.5569],[24.0853,50.6044],[24.1082,50.6303],[24.0749,50.6902],[24.081,50.713],[24.0269,50.728],[24.0128,50.7433],[24.0259,50.767],[23.9743,50.7762],[23.9576,50.808],[23.9699,50.8252],[24.0205,50.8386],[24.0469,50.8291],[24.1309,50.8391],[24.1302,50.8689],[24.0469,50.898],[23.9793,50.9375],[23.9551,50.9836],[23.9117,51.0068],[23.9042,51.0627],[23.8545,51.1215],[23.8747,51.1361],[23.816,51.1788],[23.7652,51.199],[23.7427,51.2163],[23.6873,51.2924],[23.6352,51.3047],[23.634,51.3393],[23.6839,51.3703],[23.6789,51.3941],[23.6976,51.4044],[23.6487,51.454],[23.6628,51.4802],[23.6148,51.4972],[23.6062,51.5174],[23.5728,51.5397],[23.574,51.5553],[23.5399,51.6071],[23.5438,51.6438],[23.5324,51.659],[23.5604,51.672],[23.5466,51.7136],[23.5604,51.7545],[23.6175,51.7865],[23.6287,51.8098],[23.5946,51.8433],[23.6214,51.8956],[23.6222,51.9279],[23.6476,51.9741],[23.6764,51.9941],[23.6375,52.0845],[23.5794,52.1215],[23.5125,52.1244],[23.4847,52.1586],[23.4505,52.1859],[23.4367,52.1757],[23.3885,52.1842],[23.3958,52.1996],[23.2123,52.2317],[23.1897,52.2405],[23.1945,52.2715],[23.1761,52.2851],[23.1502,52.2816],[23.087,52.2923],[23.039,52.2892],[23.0521,52.3096],[23.0058,52.337],[22.9845,52.3301],[22.9751,52.3528],[22.9228,52.3723],[22.8446,52.3656],[22.689,52.3854],[22.6119,52.3873],[22.5627,52.4041],[22.5388,52.4294],[22.5448,52.4625],[22.5198,52.4733],[22.5114,52.4946],[22.5151,52.5151],[22.5176,52.5294],[22.4119,52.6006],[22.4118,52.6597],[22.3997,52.695],[22.3942,52.7413],[22.4,52.75],[22.5,53.05],[22.42,53.19],[22.74,53.49],[23.1,53.68],[23.4,53.75],[23.4863,53.9227],[23.4856,53.9393],[23.4904,53.9506],[23.4629,53.9725],[23.4593,53.9923],[23.4965,54.022],[23.4962,54.0446],[23.4739,54.1126],[23.4325,54.1693],[23.3823,54.1879],[23.336,54.2263],[23.3487,54.277],[23.3474,54.3038],[23.3695,54.3404],[23.4014,54.3604],[23.4661,54.3722],[23.4481,54.3892],[23.4651,54.4011],[23.5408,54.418],[23.542,54.4556],[23.557,54.4686],[23.641,54.5078],[23.6613,54.5073],[23.7045,54.478],[23.7563,54.4698],[23.7763,54.4902],[23.7596,54.5374],[23.7161,54.5459],[23.6646,54.5757],[23.6845,54.6004],[23.6767,54.6125],[23.6236,54.6321],[23.6756,54.6528],[23.6821,54.6716],[23.6633,54.718],[23.6657,54.7382],[23.6418,54.7757],[23.6155,54.7862],[23.6478,54.8106],[23.6242,54.8749],[23.5755,54.9003],[23.5426,54.9066],[23.4945,54.8962],[23.4723,54.9372],[23.4521,54.9507],[23.4033,54.958],[23.4063,54.975],[23.4425,54.987],[23.5024,54.9864],[23.5361,55.0143],[23.5753,55.0221],[23.5512,55.05],[23.4843,55.0507],[23.4123,55.0787],[23.3198,55.0712],[23.0017,55.1054],[22.9254,55.0835],[22.871,55.0923],[22.8201,55.0884],[22.7287,55.0659],[22.6442,55.0571],[22.5993,55.0715],[22.5712,55.064],[22.5916,55.0376],[22.6084,54.9924],[22.6335,54.9579],[22.7155,54.9514],[22.7521,54.9311],[22.7492,54.9099],[22.8089,54.8938],[22.8293,54.8727],[22.8484,54.8138],[22.8328,54.7787],[22.7648,54.7371],[22.7248,54.7234],[22.727,54.7053],[22.7051,54.6865],[22.7081,54.6356],[22.6817,54.5699],[22.6746,54.4923],[22.6804,54.4532],[22.707,54.4187],[22.7672,54.3563],[22.8113,54.3926],[22.7887,54.3366],[22.7317,54.3017],[22.6653,54.2753],[22.4422,54.257],[22.3481,54.1786],[22.4491,54.0992],[22.4652,54.0417],[22.516,54.0124],[22.6221,53.9248],[22.6185,53.8782],[22.5779,53.8322],[22.543,53.7739],[22.4856,53.7379],[22.207,53.6352],[22.1099,53.5699],[21.9373,53.4993],[21.8626,53.4927],[21.8016,53.4708],[21.7388,53.4576],[21.5957,53.4626],[21.523,53.4435],[21.402,53.4379],[21.3774,53.4299],[21.3488,53.3961],[21.308,53.3788],[21.2626,53.3746],[21.1737,53.3796],[21.0979,53.3256],[21.0079,53.3084],[20.9123,53.3086],[20.8391,53.2834],[20.7756,53.2754],[20.704,53.2759],[20.6346,53.2346],[20.4948,53.1861],[20.4198,53.182],[20.3889,53.1675],[20.3719,53.1337],[20.3158,53.1063],[20.2406,53.098],[19.9248,53.1273],[19.8768,53.1511],[19.8371,53.1437],[19.8112,53.1129],[19.7479,53.0931],[19.7329,53.1846],[19.7096,53.22],[19.6813,53.263],[19.6256,53.2864],[19.5115,53.3043],[19.4045,53.3429],[19.2855,53.3645],[19.2396,53.4122],[19.2148,53.4552],[19.1283,53.5559],[19.0741,53.5416],[18.9601,53.5375],[18.8746,53.5623],[18.8088,53.6027],[18.7594,53.6252],[18.6779,53.6321],[18.583,53.6053],[18.4978,53.6354],[18.3179,53.6532],[18.2557,53.6942],[18.2205,53.696],[18.0511,53.681],[17.9241,53.6956],[17.8971,53.6832],[17.8564,53.6388],[17.7877,53.6236],[17.7556,53.6058],[17.7455,53.5573],[17.6832,53.5424],[17.5445,53.5639],[17.5076,53.5616],[17.4554,53.5069],[17.4252,53.444],[17.3972,53.4338],[17.3528,53.4656],[17.2993,53.4831],[17.0957,53.4881],[17.0372,53.5093],[16.9958,53.5529],[16.9477,53.5882],[16.8722,53.5946],[16.8365,53.5852],[16.7908,53.525],[16.7653,53.4612],[16.7351,53.4577],[16.5511,53.4606],[16.5285,53.4415],[16.5296,53.4017],[16.5451,53.366],[16.6078,53.3296],[16.6833,53.318],[16.7204,53.3064],[16.7516,53.2824],[16.7579,53.2537],[16.7036,53.2058],[16.6747,53.1893],[16.601,53.1755],[16.4562,53.1247],[16.3753,53.0482],[16.2788,52.9932],[16.2174,52.9787],[16.155,52.9736],[16.0938,52.9956],[16.0385,53.0067],[16.0186,52.9491],[16.0219,52.8853],[15.9246,52.8096],[15.9553,52.7923],[15.9768,52.7431],[15.9479,52.7198],[15.8311,52.6933],[15.8257,52.6497]]]}}
]}
