{"type":"FeatureCollection","features":[
{"type":"Feature","properties":{"entityId":"duchy-of-athens","from":1300,"to":1394,"certainty":"estimated","source":"유럽 쪽은 Natural Earth 1:10m admin-1(v5.1.2) 현대 행정구역 조각을 그 시기 국경에 맞춰 묶고, 조각이 역사 경계와 다른 곳은 선을 그어 나눈 근사. 유럽 밖(시베리아·중앙아시아·극동)은 대략적인 추정. 운영자 검수 필요"},"geometry":{"type":"MultiPolygon","coordinates":[[[[21.3623,39.1539],[21.3626,39.1211],[21.3963,39.0788],[21.3908,39.0522],[21.3651,39.0142],[21.3693,39.0001],[21.4693,38.9526],[21.4748,38.8945],[21.5233,38.8722],[21.6108,38.8506],[21.6114,38.8369],[21.5368,38.8023],[21.5306,38.773],[21.5607,38.731],[21.6475,38.6904],[21.737,38.6957],[21.7451,38.6674],[21.8036,38.6929],[21.8086,38.7332],[21.8609,38.7295],[21.958,38.7692],[21.9984,38.7427],[21.9825,38.7032],[21.987,38.6753],[21.9744,38.6496],[21.9783,38.619],[21.9656,38.5933],[21.9954,38.5676],[21.9787,38.5397],[21.9827,38.5091],[21.9534,38.4882],[21.9168,38.4819],[21.8757,38.4543],[21.8551,38.4241],[21.8512,38.388],[21.8576,38.3866],[21.8576,38.3623],[21.8909,38.3623],[21.8909,38.3686],[21.9575,38.3686],[21.9575,38.3585],[22.0242,38.3585],[22.0242,38.3542],[22.0908,38.3542],[22.0908,38.3098],[22.1574,38.3098],[22.1574,38.2957],[22.1907,38.2957],[22.1907,38.2685],[22.224,38.2685],[22.224,38.2662],[22.2907,38.2662],[22.2907,38.2562],[22.4239,38.2562],[22.4239,38.2517],[22.4573,38.2517],[22.4573,38.2163],[22.5572,38.2163],[22.5572,38.2038],[22.6571,38.2038],[22.6571,38.1558],[22.6904,38.1558],[22.6904,38.1795],[22.7238,38.1795],[22.7238,38.1315],[22.9569,38.1315],[22.9569,38.1423],[23.0569,38.1423],[23.0569,38.101],[23.0902,38.101],[23.0902,38.0625],[23.0763,38.0597],[23.1108,38.0229],[23.1594,37.9405],[23.1668,37.9441],[23.1668,37.93],[23.1929,37.93],[23.1929,37.8978],[23.219,37.8903],[23.3233,37.8603],[23.532,37.8004],[23.9493,37.6805],[23.9497,37.6774],[24.0327,37.6515],[24.0367,37.6554],[24.039,37.6547],[24.039,37.6548],[24.0394,37.6547],[24.0394,37.6551],[24.0393,37.6579],[24.0721,37.6895],[24.0594,37.6993],[24.0731,37.7272],[24.0594,37.7335],[24.0819,37.7525],[24.0874,37.7852],[24.077,37.8111],[24.0608,37.8191],[24.0588,37.8286],[24.0669,37.8371],[24.0532,37.8781],[24.048,37.8798],[24.0426,37.9058],[24.0433,37.9164],[24.0401,37.9173],[24.0322,37.9551],[24.031,37.9882],[24.0306,38.0037],[24.0327,38.0078],[24.0304,38.011],[24.0272,38.1361],[24.0532,38.1453],[24.0806,38.166],[24.069,38.2047],[23.9912,38.2542],[23.951,38.2909],[23.9124,38.2982],[23.8639,38.3151],[23.7187,38.4003],[23.7007,38.4108],[23.71,38.4125],[23.7466,38.4053],[23.7582,38.4008],[23.7694,38.4008],[23.779,38.3989],[23.7971,38.4008],[23.8683,38.4008],[23.9124,38.392],[23.9535,38.3961],[24.039,38.3904],[24.0426,38.3748],[24.0584,38.3468],[24.0254,38.3305],[24.0794,38.3254],[24.1047,38.3159],[24.1144,38.2976],[24.1009,38.2753],[24.1094,38.2563],[24.13,38.268],[24.1416,38.2463],[24.1311,38.2358],[24.1661,38.2243],[24.1902,38.2047],[24.1938,38.1508],[24.1952,38.1482],[24.186,38.1274],[24.208,38.1248],[24.2108,38.1197],[24.2108,38.0978],[24.2515,38.0961],[24.2853,38.0775],[24.2922,38.0699],[24.304,38.0673],[24.3162,38.0606],[24.3182,38.0587],[24.327,38.0425],[24.3138,38.0292],[24.3386,37.9967],[24.3718,37.9719],[24.4021,37.9879],[24.3864,37.9965],[24.4203,38.0158],[24.4458,38.005],[24.4587,37.9925],[24.4769,37.9625],[24.5093,37.9626],[24.5667,37.9879],[24.5786,38.0199],[24.5794,38.0206],[24.5796,38.0225],[24.5945,38.0624],[24.5853,38.0762],[24.5902,38.1231],[24.5902,38.1235],[24.5846,38.1289],[24.5877,38.1592],[24.4992,38.1466],[24.4642,38.146],[24.4069,38.1555],[24.3926,38.164],[24.3698,38.1617],[24.3598,38.1634],[24.277,38.2207],[24.2576,38.2605],[24.2525,38.2924],[24.228,38.3211],[24.2194,38.3387],[24.2117,38.3683],[24.2108,38.3777],[24.2086,38.3802],[24.1994,38.416],[24.2039,38.4187],[24.1967,38.4264],[24.1871,38.4634],[24.2122,38.5032],[24.2121,38.5035],[24.2122,38.5036],[24.2106,38.5093],[24.2315,38.5224],[24.2161,38.5395],[24.1798,38.5634],[24.1546,38.5887],[24.1351,38.6358],[24.1556,38.6527],[24.1039,38.6694],[24.1006,38.672],[24.0949,38.6724],[24.0731,38.6794],[24.0057,38.678],[23.9842,38.6862],[23.9771,38.6797],[23.8774,38.6859],[23.742,38.7424],[23.7385,38.7494],[23.7026,38.7651],[23.6932,38.7628],[23.6902,38.764],[23.6362,38.771],[23.5937,38.7875],[23.594,38.7893],[23.5851,38.7909],[23.5552,38.8025],[23.5247,38.8232],[23.4984,38.8321],[23.4706,38.8508],[23.4372,38.9173],[23.4256,38.9543],[23.4174,38.9569],[23.4166,38.9585],[23.3832,38.9829],[23.3816,39.0015],[23.3285,39.023],[23.3122,39.0349],[23.3118,39.0349],[23.31,39.0348],[23.2991,39.0425],[23.273,39.0388],[23.25,39.0295],[23.1679,39.009],[23.138,39.009],[23.0944,38.9879],[23.0911,38.9734],[23.0183,38.9335],[22.9857,38.9604],[22.9967,38.9634],[22.966,38.9742],[22.9271,38.9602],[22.8694,38.957],[22.8394,38.9803],[22.7863,38.9819],[22.7144,38.9942],[22.6308,39.0327],[22.5546,39.0263],[22.516,39.0287],[22.4926,39.0509],[22.4939,39.1192],[22.4285,39.114],[22.413,39.1242],[22.4054,39.169],[22.3547,39.1975],[22.2844,39.2175],[22.2359,39.2402],[22.147,39.1611],[22.1167,39.1048],[22.0958,39.091],[22.0392,39.0763],[22.0126,39.0523],[21.97,39.0358],[21.9157,39.0316],[21.9134,39.0866],[21.8991,39.1021],[21.8309,39.1324],[21.813,39.1319],[21.7564,39.1006],[21.72,39.0969],[21.697,39.1216],[21.6986,39.1624],[21.6662,39.1774],[21.6608,39.2191],[21.6377,39.2437],[21.5521,39.2268],[21.5089,39.191],[21.4776,39.2112],[21.4228,39.1877],[21.3757,39.1496],[21.3623,39.1539]]],[[[22.8997,36.3282],[22.9055,36.3132],[22.9113,36.2331],[22.9087,36.206],[22.9496,36.165],[23.0025,36.1466],[23.052,36.1448],[23.0539,36.1905],[23.0852,36.2318],[23.1039,36.2372],[23.0962,36.2468],[23.0961,36.2469],[23.0769,36.2707],[23.0476,36.2876],[22.999,36.3284],[22.9825,36.348],[22.9564,36.3835],[22.9529,36.3832],[22.9522,36.384],[22.952,36.3838],[22.9518,36.384],[22.9506,36.383],[22.9326,36.3813],[22.8997,36.3282]]],[[[23.2612,37.66],[23.2648,37.66],[23.2612,37.6663],[23.2612,37.66]]]]}},
{"type":"Feature","properties":{"entityId":"duchy-of-athens","from":1394,"to":1395,"certainty":"estimated","source":"유럽 쪽은 Natural Earth 1:10m admin-1(v5.1.2) 현대 행정구역 조각을 그 시기 국경에 맞춰 묶고, 조각이 역사 경계와 다른 곳은 선을 그어 나눈 근사. 유럽 밖(시베리아·중앙아시아·극동)은 대략적인 추정. 운영자 검수 필요"},"geometry":{"type":"MultiPolygon","coordinates":[[[[22.55,38.33],[22.6,38.25],[22.837,38.1315],[22.9569,38.1315],[22.9569,38.1423],[23.0569,38.1423],[23.0569,38.101],[23.0902,38.101],[23.0902,38.0625],[23.0763,38.0597],[23.1108,38.0229],[23.1594,37.9405],[23.1668,37.9441],[23.1668,37.93],[23.1929,37.93],[23.1929,37.8978],[23.219,37.8903],[23.3233,37.8603],[23.532,37.8004],[23.9493,37.6805],[23.9497,37.6774],[24.0327,37.6515],[24.0367,37.6554],[24.039,37.6547],[24.039,37.6548],[24.0394,37.6547],[24.0394,37.6551],[24.0393,37.6579],[24.0721,37.6895],[24.0594,37.6993],[24.0731,37.7272],[24.0594,37.7335],[24.0819,37.7525],[24.0874,37.7852],[24.077,37.8111],[24.0608,37.8191],[24.0588,37.8286],[24.0669,37.8371],[24.0532,37.8781],[24.048,37.8798],[24.0426,37.9058],[24.0433,37.9164],[24.0401,37.9173],[24.0322,37.9551],[24.031,37.9882],[24.0306,38.0037],[24.0327,38.0078],[24.0304,38.011],[24.0272,38.1361],[24.0532,38.1453],[24.0806,38.166],[24.069,38.2047],[23.9912,38.2542],[23.951,38.2909],[23.9124,38.2982],[23.8639,38.3151],[23.755,38.379],[23.755,38.3413],[23.74,38.355],[23.665,38.4],[23.62,38.43],[23.593,38.455],[23.5976,38.4713],[23.5968,38.4718],[23.5978,38.4723],[23.5988,38.4756],[23.5849,38.4845],[23.5,38.51],[23.42,38.52],[23.3,38.62],[23.15,38.62],[23,38.58],[22.75,38.58],[22.55,38.52],[22.55,38.33]],[[23.755,38.3406],[23.7668,38.3416],[23.7589,38.3377],[23.7556,38.3407],[23.755,38.3406]]],[[[22.8997,36.3282],[22.9055,36.3132],[22.9113,36.2331],[22.9087,36.206],[22.9496,36.165],[23.0025,36.1466],[23.052,36.1448],[23.0539,36.1905],[23.0852,36.2318],[23.1039,36.2372],[23.0962,36.2468],[23.0961,36.2469],[23.0769,36.2707],[23.0476,36.2876],[22.999,36.3284],[22.9825,36.348],[22.9564,36.3835],[22.9529,36.3832],[22.9522,36.384],[22.952,36.3838],[22.9518,36.384],[22.9506,36.383],[22.9326,36.3813],[22.8997,36.3282]]],[[[23.2612,37.66],[23.2648,37.66],[23.2612,37.6663],[23.2612,37.66]]]]}},
{"type":"Feature","properties":{"entityId":"duchy-of-athens","from":1395,"to":1405,"certainty":"estimated","source":"유럽 쪽은 Natural Earth 1:10m admin-1(v5.1.2) 현대 행정구역 조각을 그 시기 국경에 맞춰 묶고, 조각이 역사 경계와 다른 곳은 선을 그어 나눈 근사. 유럽 밖(시베리아·중앙아시아·극동)은 대략적인 추정. 운영자 검수 필요"},"geometry":{"type":"Polygon","coordinates":[[[22.55,38.33],[22.6,38.25],[22.837,38.1315],[22.9569,38.1315],[22.9569,38.1423],[23.0902,38.1423],[23.0902,38.1363],[23.1568,38.1363],[23.1568,38.1683],[23.1901,38.1636],[23.2134,38.1603],[23.1717,38.1797],[23.2623,38.1743],[23.2756,38.1861],[23.2828,38.2317],[23.3158,38.2517],[23.353,38.2602],[23.3787,38.2347],[23.3655,38.2091],[23.3806,38.1988],[23.4317,38.1915],[23.4704,38.1477],[23.5523,38.1223],[23.6154,38.1653],[23.6242,38.26],[23.645,38.2872],[23.6793,38.3124],[23.7356,38.3262],[23.7589,38.3377],[23.7556,38.3407],[23.755,38.3406],[23.755,38.3413],[23.74,38.355],[23.665,38.4],[23.62,38.43],[23.593,38.455],[23.5976,38.4713],[23.5968,38.4718],[23.5978,38.4723],[23.5988,38.4756],[23.5849,38.4845],[23.5,38.51],[23.42,38.52],[23.3,38.62],[23.15,38.62],[23,38.58],[22.75,38.58],[22.55,38.52],[22.55,38.33]]]}},
{"type":"Feature","properties":{"entityId":"duchy-of-athens","from":1405,"to":1456,"certainty":"estimated","source":"유럽 쪽은 Natural Earth 1:10m admin-1(v5.1.2) 현대 행정구역 조각을 그 시기 국경에 맞춰 묶고, 조각이 역사 경계와 다른 곳은 선을 그어 나눈 근사. 유럽 밖(시베리아·중앙아시아·극동)은 대략적인 추정. 운영자 검수 필요"},"geometry":{"type":"MultiPolygon","coordinates":[[[[22.55,38.33],[22.6,38.25],[22.837,38.1315],[22.9569,38.1315],[22.9569,38.1423],[23.0569,38.1423],[23.0569,38.101],[23.0902,38.101],[23.0902,38.0625],[23.0763,38.0597],[23.1108,38.0229],[23.1594,37.9405],[23.1668,37.9441],[23.1668,37.93],[23.1929,37.93],[23.1929,37.8978],[23.219,37.8903],[23.3233,37.8603],[23.532,37.8004],[23.9493,37.6805],[23.9497,37.6774],[24.0327,37.6515],[24.0367,37.6554],[24.039,37.6547],[24.039,37.6548],[24.0394,37.6547],[24.0394,37.6551],[24.0393,37.6579],[24.0721,37.6895],[24.0594,37.6993],[24.0731,37.7272],[24.0594,37.7335],[24.0819,37.7525],[24.0874,37.7852],[24.077,37.8111],[24.0608,37.8191],[24.0588,37.8286],[24.0669,37.8371],[24.0532,37.8781],[24.048,37.8798],[24.0426,37.9058],[24.0433,37.9164],[24.0401,37.9173],[24.0322,37.9551],[24.031,37.9882],[24.0306,38.0037],[24.0327,38.0078],[24.0304,38.011],[24.0272,38.1361],[24.0532,38.1453],[24.0806,38.166],[24.069,38.2047],[23.9912,38.2542],[23.951,38.2909],[23.9124,38.2982],[23.8639,38.3151],[23.755,38.379],[23.755,38.3413],[23.74,38.355],[23.665,38.4],[23.62,38.43],[23.593,38.455],[23.5976,38.4713],[23.5968,38.4718],[23.5978,38.4723],[23.5988,38.4756],[23.5849,38.4845],[23.5,38.51],[23.42,38.52],[23.3,38.62],[23.15,38.62],[23,38.58],[22.75,38.58],[22.55,38.52],[22.55,38.33]],[[23.755,38.3406],[23.7668,38.3416],[23.7589,38.3377],[23.7556,38.3407],[23.755,38.3406]]],[[[22.8997,36.3282],[22.9055,36.3132],[22.9113,36.2331],[22.9087,36.206],[22.9496,36.165],[23.0025,36.1466],[23.052,36.1448],[23.0539,36.1905],[23.0852,36.2318],[23.1039,36.2372],[23.0962,36.2468],[23.0961,36.2469],[23.0769,36.2707],[23.0476,36.2876],[22.999,36.3284],[22.9825,36.348],[22.9564,36.3835],[22.9529,36.3832],[22.9522,36.384],[22.952,36.3838],[22.9518,36.384],[22.9506,36.383],[22.9326,36.3813],[22.8997,36.3282]]],[[[23.2612,37.66],[23.2648,37.66],[23.2612,37.6663],[23.2612,37.66]]]]}}
]}
