{"type":"FeatureCollection","features":[
{"type":"Feature","properties":{"entityId":"dulkadir-beylik","from":1515,"to":1522,"certainty":"estimated","source":"유럽 쪽은 Natural Earth 1:10m admin-1(v5.1.2) 현대 행정구역 조각을 그 시기 국경에 맞춰 묶고, 조각이 역사 경계와 다른 곳은 선을 그어 나눈 근사. 유럽 밖(시베리아·중앙아시아·극동)은 대략적인 추정. 운영자 검수 필요"},"geometry":{"type":"Polygon","coordinates":[[[36.5055,38.3229],[36.65,38.4591],[36.682,38.4999],[36.694,38.5523],[36.7137,38.583],[36.7475,38.5994],[36.8789,38.625],[37.0088,38.6105],[37.0597,38.5881],[37.2844,38.6036],[37.2259,38.5263],[37.2371,38.4672],[37.3107,38.4749],[37.4597,38.4496],[37.5872,38.39],[37.6552,38.3747],[37.7336,38.3462],[37.7823,38.2784],[37.7762,38.2372],[37.7213,38.1226],[37.7152,38.0927],[37.6582,38.0267],[37.6069,37.8795],[37.5653,37.8205],[37.517,37.7725],[37.4619,37.7338],[37.4222,37.6941],[37.4217,37.6351],[37.4571,37.5896],[37.5166,37.5722],[37.6251,37.5188],[37.6304,37.4596],[37.6173,37.4144],[37.5748,37.3919],[37.5117,37.393],[37.4492,37.3863],[37.3148,37.3493],[37.1902,37.3315],[37.1342,37.3097],[37.0432,37.2333],[36.9664,37.2532],[36.9377,37.3422],[36.8896,37.3667],[36.8422,37.3154],[36.7212,37.2712],[36.6781,37.3225],[36.5888,37.3818],[36.5506,37.3897],[36.4411,37.3723],[36.3707,37.3563],[36.3541,37.3709],[36.3036,37.3491],[36.262,37.389],[36.2575,37.4553],[36.2328,37.4783],[36.2202,37.5064],[36.2286,37.5368],[36.2795,37.591],[36.2799,37.6691],[36.3071,37.6975],[36.3597,37.7318],[36.3623,37.7726],[36.3308,37.8343],[36.3257,37.912],[36.3386,37.9777],[36.3684,38.0421],[36.4181,38.2188],[36.4493,38.2809],[36.5055,38.3229]]]}}
]}
