{
 "type": "FeatureCollection",
 "features": [
  {
   "type": "Feature",
   "properties": {
    "entityId": "eastern-wei",
    "from": 534,
    "to": 550,
    "certainty": "estimated",
    "source": "중고등학교 한국사 교과서 시대별 지도의 일반적인 경계를 따른 대략적인 추정. 운영자 검수 필요"
   },
   "geometry": {
    "type": "Polygon",
    "coordinates": [
     [
      [
       111,
       33
      ],
      [
       122.5833,
       33
      ],
      [
       122.5,
       33.5
      ],
      [
       123,
       37.2
      ],
      [
       121,
       38.3
      ],
      [
       120.5,
       39.5
      ],
      [
       121.9,
       40.5
      ],
      [
       122.25,
       40.85
      ],
      [
       122.5,
       41.5
      ],
      [
       121,
       42
      ],
      [
       118.5,
       41.5
      ],
      [
       116,
       41.2
      ],
      [
       113.5,
       41
      ],
      [
       111,
       41
      ],
      [
       111,
       33
      ]
     ]
    ]
   }
  }
 ]
}
