{"type":"FeatureCollection","features":[
{"type":"Feature","properties":{"entityId":"eastern-hungarian-kingdom","from":1526,"to":1547,"certainty":"estimated","source":"유럽 쪽은 Natural Earth 1:10m admin-1(v5.1.2) 현대 행정구역 조각을 그 시기 국경에 맞춰 묶고, 조각이 역사 경계와 다른 곳은 선을 그어 나눈 근사. 유럽 밖(시베리아·중앙아시아·극동)은 대략적인 추정. 운영자 검수 필요"},"geometry":{"type":"Polygon","coordinates":[[[20.7741,47.6723],[20.8192,47.6794],[20.8921,47.6843],[20.9422,47.7186],[20.979,47.773],[21.0339,47.7798],[21.0285,47.8163],[21.0584,47.855],[21.0564,47.8905],[21.1062,47.9381],[21.1137,47.9605],[21.1378,48.0068],[21.1813,48.0263],[21.2226,48.029],[21.2529,48.0475],[21.2843,48.0263],[21.3733,48.027],[21.4324,48.0506],[21.4427,48.0818],[21.4263,48.1124],[21.4469,48.1579],[21.4761,48.1771],[21.6128,48.1803],[21.6521,48.1678],[21.6902,48.1674],[21.7662,48.1994],[21.7945,48.202],[21.846,48.2324],[21.9092,48.235],[21.9432,48.2478],[22.0053,48.3032],[22.0515,48.3],[22.0792,48.3115],[22.1372,48.3869],[22.1583,48.4022],[22.1328,48.4048],[22.1338,48.4768],[22.1483,48.5088],[22.1367,48.5493],[22.1537,48.5859],[22.219,48.6209],[22.2555,48.6568],[22.2943,48.6676],[22.3225,48.7003],[22.3308,48.7564],[22.3657,48.7944],[22.3623,48.8443],[22.3708,48.8582],[22.4118,48.8878],[22.4149,48.9117],[22.449,48.9714],[22.5205,48.9929],[22.5248,49.0329],[22.5396,49.0722],[22.5808,49.0814],[22.6429,49.0432],[22.7553,49.0447],[22.784,49.0214],[22.8553,48.994],[22.865,49.0132],[22.9024,48.9833],[22.892,48.9354],[22.926,48.9041],[22.9612,48.8843],[22.9821,48.859],[23.0117,48.8547],[23.105,48.8713],[23.1376,48.8522],[23.1798,48.7903],[23.2016,48.7771],[23.2576,48.7722],[23.2982,48.7812],[23.3085,48.7502],[23.3505,48.772],[23.378,48.7371],[23.4458,48.7267],[23.4985,48.7312],[23.5329,48.7237],[23.6124,48.7038],[23.6745,48.6545],[23.709,48.643],[23.7715,48.6447],[23.7817,48.6034],[23.8471,48.5628],[23.8949,48.5496],[23.9168,48.5154],[23.9074,48.4887],[23.9427,48.4704],[24.0015,48.5001],[24.0462,48.5051],[24.1138,48.5322],[24.137,48.5275],[24.1407,48.4712],[24.1312,48.4345],[24.1408,48.3799],[24.1777,48.3546],[24.2341,48.3505],[24.2707,48.3572],[24.3054,48.3883],[24.3317,48.3748],[24.3458,48.3402],[24.3916,48.3311],[24.4949,48.2666],[24.5415,48.2128],[24.5216,48.1711],[24.5384,48.1345],[24.6068,48.0886],[24.6393,48.0476],[24.5882,47.9959],[24.5698,47.9373],[24.6085,47.9219],[24.6493,47.8952],[24.6615,47.8539],[24.7128,47.8259],[24.7937,47.8045],[24.8207,47.7841],[24.8778,47.7187],[24.9289,47.7139],[24.9424,47.7156],[24.9788,47.6626],[25.0219,47.6322],[25.0323,47.6123],[25.0158,47.5965],[24.9562,47.5823],[25.0461,47.5297],[25.0842,47.4938],[25.0905,47.4715],[25.0726,47.4495],[25.0373,47.4302],[25.0494,47.3999],[25.007,47.3926],[25.004,47.3792],[25.0404,47.3429],[25.0568,47.3153],[25.0292,47.2576],[25.0391,47.2372],[25.0765,47.2283],[25.0632,47.1728],[25.0686,47.103],[25.1589,47.0914],[25.2047,47.0764],[25.2419,47.0663],[25.2826,47.0704],[25.3118,47.123],[25.3725,47.1403],[25.4069,47.1348],[25.5189,47.0824],[25.5521,47.0559],[25.5836,47.0473],[25.6713,47.0579],[25.7371,47.039],[25.7627,47.0125],[25.7918,46.9661],[25.8658,46.9128],[25.8668,46.8837],[25.832,46.8853],[25.8165,46.8592],[25.8282,46.6936],[25.8409,46.6702],[25.889,46.6348],[25.915,46.6356],[25.907,46.6748],[25.9271,46.6819],[26.0088,46.668],[26.012,46.5936],[26.0289,46.5485],[26.0691,46.4986],[26.0699,46.4872],[26.0325,46.4683],[26.0189,46.4268],[26.0387,46.4033],[26.1326,46.3907],[26.1619,46.3731],[26.1682,46.35],[26.1595,46.3125],[26.1823,46.3057],[26.2471,46.3266],[26.2927,46.3197],[26.3002,46.302],[26.2869,46.2762],[26.2799,46.2265],[26.259,46.1881],[26.2516,46.1503],[26.2932,46.1601],[26.325,46.1794],[26.4001,46.1445],[26.4149,46.128],[26.4021,46.0943],[26.4406,46.0748],[26.4681,46.0274],[26.4848,46.0212],[26.4209,45.9505],[26.4048,45.9175],[26.3804,45.8029],[26.395,45.7498],[26.3667,45.6852],[26.3427,45.6553],[26.3286,45.6181],[26.2847,45.6028],[26.2346,45.6256],[26.2156,45.6122],[26.2075,45.5832],[26.1889,45.5745],[26.1005,45.5644],[26.046,45.4823],[25.9989,45.4886],[25.9458,45.5102],[25.9028,45.5006],[25.8913,45.4654],[25.8627,45.4416],[25.8231,45.4455],[25.7904,45.4733],[25.7502,45.4659],[25.6933,45.4794],[25.6278,45.4847],[25.4588,45.4636],[25.4298,45.4523],[25.4027,45.4392],[25.3703,45.3994],[25.3092,45.3885],[25.2759,45.4165],[25.2208,45.5034],[25.0951,45.5696],[24.9839,45.58],[24.8687,45.5739],[24.8388,45.5631],[24.8004,45.595],[24.7719,45.6029],[24.7091,45.5988],[24.5272,45.5618],[24.3218,45.563],[24.1689,45.537],[24.0683,45.4964],[23.9606,45.5122],[23.794,45.508],[23.7526,45.4861],[23.7097,45.4798],[23.6469,45.4505],[23.6261,45.4519],[23.5842,45.4473],[23.5808,45.4323],[23.5999,45.3819],[23.5858,45.3526],[23.5237,45.3379],[23.4304,45.3038],[23.3984,45.3182],[23.3575,45.3215],[23.2441,45.2952],[23.1895,45.2718],[23.0908,45.2794],[23.027,45.2597],[22.9761,45.2748],[22.9334,45.2767],[22.8814,45.2949],[22.6691,45.2405],[22.601,45.1977],[22.5727,45.1708],[22.5661,45.1388],[22.6346,45.1275],[22.6411,45.0924],[22.5989,45.0602],[22.5666,45.0239],[22.5337,44.9342],[22.4918,44.8846],[22.467,44.8393],[22.4418,44.7694],[22.4212,44.7521],[22.3878,44.7537],[22.3542,44.7777],[22.3112,44.7779],[22.2626,44.8083],[22.2219,44.8062],[22.2057,44.7613],[22.1653,44.7022],[22.1608,44.6644],[22.1727,44.6339],[22.169,44.609],[22.1499,44.5977],[22.0888,44.6032],[22.0342,44.5962],[22.0043,44.6515],[21.8554,44.6985],[21.7568,44.6773],[21.7052,44.6771],[21.6563,44.6877],[21.6197,44.7139],[21.5956,44.766],[21.5584,44.7817],[21.4972,44.778],[21.3959,44.7902],[21.3598,44.8267],[21.2695,44.8137],[21.1888,44.7782],[21.1638,44.7478],[21.1123,44.7448],[21.0779,44.7265],[21.0368,44.722],[20.9896,44.7168],[20.8832,44.6727],[20.8265,44.6609],[20.7948,44.6647],[20.7636,44.6684],[20.7203,44.6962],[20.672,44.744],[20.6333,44.7652],[20.6282,44.7886],[20.6364,44.8494],[20.595,44.858],[20.6001,44.8886],[20.5732,44.9103],[20.527,44.9254],[20.4988,44.9484],[20.4974,44.9648],[20.4522,44.9851],[20.3985,45.0314],[20.3952,45.0652],[20.339,45.0803],[20.2778,45.141],[20.2224,45.1755],[20.185,45.185],[20.0648,45.1755],[19.9856,45.1898],[19.9803,45.1598],[19.9126,45.1426],[19.792,45.1471],[19.7731,45.1671],[19.6988,45.1417],[19.6001,45.1384],[19.5386,45.1505],[19.4609,45.1741],[19.428,45.1461],[19.3939,45.1716],[19.4078,45.2031],[19.3781,45.2296],[19.2898,45.2363],[19.1585,45.2762],[19.1041,45.2987],[19.083,45.3392],[19.0302,45.3451],[18.9775,45.3712],[18.9755,45.3911],[19.0226,45.4024],[19.0313,45.4162],[19.0023,45.4437],[18.9964,45.4738],[19.0179,45.4978],[19.0772,45.4916],[19.1063,45.5116],[19.0951,45.5261],[19.051,45.5389],[19.0181,45.5674],[18.9602,45.5391],[18.9417,45.5389],[18.9036,45.5731],[18.9124,45.6192],[18.9685,45.6687],[18.9627,45.6831],[18.9173,45.7066],[18.9002,45.7649],[18.8487,45.8096],[18.8553,45.8574],[18.8998,45.8614],[18.904,45.8757],[18.8729,45.8952],[18.907,45.9157],[18.9013,45.9312],[18.8225,45.9056],[18.8015,45.92],[18.8241,45.9402],[18.8524,46.0112],[18.8447,46.0499],[18.822,46.0989],[18.7858,46.0997],[18.8292,46.1229],[18.8072,46.1314],[18.8026,46.1614],[18.8335,46.1618],[18.8539,46.1932],[18.8233,46.2063],[18.8417,46.2257],[18.8984,46.234],[18.9144,46.2457],[18.9133,46.3306],[18.8922,46.3784],[18.8989,46.4143],[18.9227,46.4686],[18.9201,46.4988],[18.8772,46.5912],[18.8581,46.6148],[18.8853,46.6352],[18.9529,46.6561],[18.9816,46.6763],[19.0018,46.7085],[18.9847,46.7756],[18.9276,46.8271],[18.9267,46.8484],[18.9309,46.8771],[18.9488,46.9039],[18.9665,46.9172],[18.9669,46.9358],[18.9605,46.9774],[18.9552,46.9947],[18.968,47.0332],[18.9031,47.0816],[18.8792,47.1492],[18.8869,47.2081],[18.9076,47.2374],[18.9188,47.2871],[18.9028,47.3038],[18.8683,47.3071],[18.8561,47.3179],[18.8483,47.3324],[18.8194,47.3563],[18.7804,47.4105],[18.787,47.439],[18.7756,47.4645],[18.7246,47.5076],[18.685,47.5619],[18.7104,47.5787],[18.7259,47.605],[18.775,47.6381],[18.7591,47.6648],[18.8113,47.6702],[18.8637,47.6661],[18.853,47.7171],[18.8938,47.7268],[18.9165,47.7217],[18.9157,47.7712],[18.8833,47.8122],[18.8149,47.8322],[18.7488,47.8707],[18.7422,47.8895],[18.7548,47.9518],[18.7432,47.9711],[18.7942,47.9931],[18.8385,48.04],[18.9336,48.0543],[18.9672,48.0223],[18.9701,47.9756],[18.9353,47.9547],[18.9589,47.9194],[19.0829,47.8601],[19.1637,47.8615],[19.3772,47.8342],[19.416,47.8222],[19.449,47.7717],[19.4586,47.706],[19.5189,47.7294],[19.5807,47.7372],[19.6199,47.7156],[19.6019,47.6894],[19.6592,47.6251],[19.6748,47.5959],[19.7288,47.6128],[19.7832,47.6165],[19.8179,47.6028],[19.8898,47.6643],[19.9125,47.6601],[19.9607,47.6704],[19.9998,47.6616],[20.0239,47.5829],[20.0772,47.5583],[20.1265,47.5673],[20.1013,47.5891],[20.1959,47.6068],[20.2394,47.5561],[20.2776,47.5422],[20.2944,47.5106],[20.2882,47.4885],[20.3169,47.4556],[20.3744,47.4297],[20.421,47.4304],[20.4483,47.4509],[20.4981,47.4678],[20.5124,47.4968],[20.6893,47.5779],[20.7098,47.6279],[20.75,47.6427],[20.7741,47.6723]]]}},
{"type":"Feature","properties":{"entityId":"eastern-hungarian-kingdom","from":1547,"to":1562,"certainty":"estimated","source":"유럽 쪽은 Natural Earth 1:10m admin-1(v5.1.2) 현대 행정구역 조각을 그 시기 국경에 맞춰 묶고, 조각이 역사 경계와 다른 곳은 선을 그어 나눈 근사. 유럽 밖(시베리아·중앙아시아·극동)은 대략적인 추정. 운영자 검수 필요"},"geometry":{"type":"Polygon","coordinates":[[[20.7874,46.2634],[20.7492,46.3015],[20.7591,46.3495],[20.7308,46.3836],[20.702,46.3938],[20.6494,46.3843],[20.5993,46.3845],[20.617,46.4121],[20.5849,46.4062],[20.5856,46.4481],[20.5892,46.481],[20.6242,46.5388],[20.595,46.5478],[20.5792,46.5679],[20.5757,46.6423],[20.5894,46.6899],[20.5865,46.7537],[20.5545,46.774],[20.4232,46.8033],[20.3548,46.7821],[20.3225,46.7644],[20.2858,46.7715],[20.25,46.7945],[20.1347,46.7683],[20.0613,46.8007],[20.0159,46.8034],[19.998,46.8249],[20.0275,46.8748],[20.0919,46.8824],[20.1063,46.9011],[20.0864,46.9258],[20.1362,46.9122],[20.154,46.937],[20.112,46.9456],[20.1119,46.9617],[20.1464,46.9793],[20.2021,47.0076],[20.1391,47.0245],[20.0835,47.0581],[20.0511,47.1036],[20.0564,47.152],[20.0829,47.1975],[20.0475,47.2372],[20.0224,47.2491],[20.0048,47.2677],[20.0067,47.3149],[19.9986,47.3289],[19.758,47.4922],[19.7529,47.5271],[19.7154,47.5246],[19.6837,47.5387],[19.6646,47.5663],[19.6748,47.5959],[19.7288,47.6128],[19.7832,47.6165],[19.8179,47.6028],[19.8898,47.6643],[19.9125,47.6601],[19.9607,47.6704],[19.9998,47.6616],[20.0239,47.5829],[20.0772,47.5583],[20.1265,47.5673],[20.1013,47.5891],[20.1959,47.6068],[20.2394,47.5561],[20.2776,47.5422],[20.2944,47.5106],[20.2882,47.4885],[20.3169,47.4556],[20.3744,47.4297],[20.421,47.4304],[20.4483,47.4509],[20.4981,47.4678],[20.5124,47.4968],[20.6893,47.5779],[20.7098,47.6279],[20.75,47.6427],[20.7741,47.6723],[20.8192,47.6794],[20.8921,47.6843],[20.9422,47.7186],[20.979,47.773],[21.0339,47.7798],[21.0285,47.8163],[21.0584,47.855],[21.0564,47.8905],[21.1062,47.9381],[21.1137,47.9605],[21.1378,48.0068],[21.1813,48.0263],[21.2226,48.029],[21.2529,48.0475],[21.2843,48.0263],[21.3733,48.027],[21.4324,48.0506],[21.4427,48.0818],[21.4263,48.1124],[21.4469,48.1579],[21.4761,48.1771],[21.6128,48.1803],[21.6521,48.1678],[21.6902,48.1674],[21.7662,48.1994],[21.7945,48.202],[21.846,48.2324],[21.9092,48.235],[21.9432,48.2478],[22.0053,48.3032],[22.0515,48.3],[22.0792,48.3115],[22.1372,48.3869],[22.1583,48.4022],[22.1328,48.4048],[22.1338,48.4768],[22.1483,48.5088],[22.1367,48.5493],[22.1537,48.5859],[22.219,48.6209],[22.2555,48.6568],[22.2943,48.6676],[22.3225,48.7003],[22.3308,48.7564],[22.3657,48.7944],[22.3623,48.8443],[22.3708,48.8582],[22.4118,48.8878],[22.4149,48.9117],[22.449,48.9714],[22.5205,48.9929],[22.5248,49.0329],[22.5396,49.0722],[22.5808,49.0814],[22.6429,49.0432],[22.7553,49.0447],[22.784,49.0214],[22.8553,48.994],[22.865,49.0132],[22.9024,48.9833],[22.892,48.9354],[22.926,48.9041],[22.9612,48.8843],[22.9821,48.859],[23.0117,48.8547],[23.105,48.8713],[23.1376,48.8522],[23.1798,48.7903],[23.2016,48.7771],[23.2576,48.7722],[23.2982,48.7812],[23.3085,48.7502],[23.3505,48.772],[23.378,48.7371],[23.4458,48.7267],[23.4985,48.7312],[23.5329,48.7237],[23.6124,48.7038],[23.6745,48.6545],[23.709,48.643],[23.7715,48.6447],[23.7817,48.6034],[23.8471,48.5628],[23.8949,48.5496],[23.9168,48.5154],[23.9074,48.4887],[23.9427,48.4704],[24.0015,48.5001],[24.0462,48.5051],[24.1138,48.5322],[24.137,48.5275],[24.1407,48.4712],[24.1312,48.4345],[24.1408,48.3799],[24.1777,48.3546],[24.2341,48.3505],[24.2707,48.3572],[24.3054,48.3883],[24.3317,48.3748],[24.3458,48.3402],[24.3916,48.3311],[24.4949,48.2666],[24.5415,48.2128],[24.5216,48.1711],[24.5384,48.1345],[24.6068,48.0886],[24.6393,48.0476],[24.5882,47.9959],[24.5698,47.9373],[24.6085,47.9219],[24.6493,47.8952],[24.6615,47.8539],[24.7128,47.8259],[24.7937,47.8045],[24.8207,47.7841],[24.8778,47.7187],[24.9289,47.7139],[24.9424,47.7156],[24.9788,47.6626],[25.0219,47.6322],[25.0323,47.6123],[25.0158,47.5965],[24.9562,47.5823],[25.0461,47.5297],[25.0842,47.4938],[25.0905,47.4715],[25.0726,47.4495],[25.0373,47.4302],[25.0494,47.3999],[25.007,47.3926],[25.004,47.3792],[25.0404,47.3429],[25.0568,47.3153],[25.0292,47.2576],[25.0391,47.2372],[25.0765,47.2283],[25.0632,47.1728],[25.0686,47.103],[25.1589,47.0914],[25.2047,47.0764],[25.2419,47.0663],[25.2826,47.0704],[25.3118,47.123],[25.3725,47.1403],[25.4069,47.1348],[25.5189,47.0824],[25.5521,47.0559],[25.5836,47.0473],[25.6713,47.0579],[25.7371,47.039],[25.7627,47.0125],[25.7918,46.9661],[25.8658,46.9128],[25.8668,46.8837],[25.832,46.8853],[25.8165,46.8592],[25.8282,46.6936],[25.8409,46.6702],[25.889,46.6348],[25.915,46.6356],[25.907,46.6748],[25.9271,46.6819],[26.0088,46.668],[26.012,46.5936],[26.0289,46.5485],[26.0691,46.4986],[26.0699,46.4872],[26.0325,46.4683],[26.0189,46.4268],[26.0387,46.4033],[26.1326,46.3907],[26.1619,46.3731],[26.1682,46.35],[26.1595,46.3125],[26.1823,46.3057],[26.2471,46.3266],[26.2927,46.3197],[26.3002,46.302],[26.2869,46.2762],[26.2799,46.2265],[26.259,46.1881],[26.2516,46.1503],[26.2932,46.1601],[26.325,46.1794],[26.4001,46.1445],[26.4149,46.128],[26.4021,46.0943],[26.4406,46.0748],[26.4681,46.0274],[26.4848,46.0212],[26.4209,45.9505],[26.4048,45.9175],[26.3804,45.8029],[26.395,45.7498],[26.3667,45.6852],[26.3427,45.6553],[26.3286,45.6181],[26.2847,45.6028],[26.2346,45.6256],[26.2156,45.6122],[26.2075,45.5832],[26.1889,45.5745],[26.1005,45.5644],[26.046,45.4823],[25.9989,45.4886],[25.9458,45.5102],[25.9028,45.5006],[25.8913,45.4654],[25.8627,45.4416],[25.8231,45.4455],[25.7904,45.4733],[25.7502,45.4659],[25.6933,45.4794],[25.6278,45.4847],[25.4588,45.4636],[25.4298,45.4523],[25.4027,45.4392],[25.3703,45.3994],[25.3092,45.3885],[25.2759,45.4165],[25.2208,45.5034],[25.0951,45.5696],[24.9839,45.58],[24.8687,45.5739],[24.8388,45.5631],[24.8004,45.595],[24.7719,45.6029],[24.7091,45.5988],[24.5272,45.5618],[24.3218,45.563],[24.1689,45.537],[24.0683,45.4964],[23.9606,45.5122],[23.794,45.508],[23.7526,45.4861],[23.7097,45.4798],[23.6469,45.4505],[23.6261,45.4519],[23.5842,45.4473],[23.5808,45.4323],[23.5999,45.3819],[23.5858,45.3526],[23.5237,45.3379],[23.4304,45.3038],[23.3984,45.3182],[23.3575,45.3215],[23.2441,45.2952],[23.1895,45.2718],[23.0908,45.2794],[23.027,45.2597],[22.9761,45.2748],[22.9334,45.2767],[22.8814,45.2949],[22.6691,45.2405],[22.601,45.1977],[22.5727,45.1708],[22.5661,45.1388],[22.6346,45.1275],[22.6411,45.0924],[22.5989,45.0602],[22.5666,45.0239],[22.5337,44.9342],[22.4918,44.8846],[22.467,44.8393],[22.4418,44.7694],[22.4212,44.7521],[22.3878,44.7537],[22.3542,44.7777],[22.3112,44.7779],[22.2626,44.8083],[22.2219,44.8062],[22.2057,44.7613],[22.1653,44.7022],[22.1608,44.6644],[22.1727,44.6339],[22.169,44.609],[22.1499,44.5977],[22.0888,44.6032],[22.0342,44.5962],[22.0043,44.6515],[21.8554,44.6985],[21.7568,44.6773],[21.7052,44.6771],[21.6563,44.6877],[21.6197,44.7139],[21.5956,44.766],[21.5584,44.7817],[21.4972,44.778],[21.3959,44.7902],[21.3598,44.8267],[21.2695,44.8137],[21.1888,44.7782],[21.1638,44.7478],[21.1123,44.7448],[21.0779,44.7265],[21.0368,44.722],[20.9896,44.7168],[20.8832,44.6727],[20.8265,44.6609],[20.7948,44.6647],[20.7636,44.6684],[20.7203,44.6962],[20.672,44.744],[20.6333,44.7652],[20.6282,44.7886],[20.6364,44.8494],[20.595,44.858],[20.6001,44.8886],[20.5732,44.9103],[20.527,44.9254],[20.4988,44.9484],[20.4974,44.9648],[20.4522,44.9851],[20.3985,45.0314],[20.3952,45.0652],[20.339,45.0803],[20.2778,45.141],[20.2888,45.1837],[20.3165,45.1957],[20.3014,45.2585],[20.2524,45.287],[20.2361,45.3064],[20.264,45.3406],[20.2019,45.3952],[20.2298,45.443],[20.2065,45.4656],[20.113,45.5272],[20.0989,45.5492],[20.1262,45.587],[20.1113,45.6019],[20.0629,45.6034],[20.1019,45.6531],[20.1049,45.6746],[20.092,45.7174],[20.1142,45.7243],[20.0825,45.7477],[20.0041,45.7547],[19.9466,45.7696],[19.8606,45.7722],[19.8346,45.8279],[19.8132,45.8277],[19.7938,45.8712],[19.7649,45.9024],[19.8056,45.9196],[19.7992,45.9874],[19.8088,46.0176],[19.8464,46.049],[19.8593,46.0949],[19.8515,46.1174],[19.8802,46.1423],[19.8736,46.153],[19.9292,46.1635],[19.9931,46.1594],[20.035,46.143],[20.0634,46.1453],[20.0886,46.1541],[20.1148,46.1522],[20.1454,46.1371],[20.1885,46.1404],[20.2428,46.1081],[20.2832,46.1438],[20.4442,46.1469],[20.4685,46.1741],[20.549,46.1561],[20.6076,46.1295],[20.6835,46.1447],[20.7044,46.1685],[20.7178,46.19],[20.7448,46.2003],[20.7393,46.2375],[20.7874,46.2634]]]}},
{"type":"Feature","properties":{"entityId":"eastern-hungarian-kingdom","from":1562,"to":1568,"certainty":"estimated","source":"유럽 쪽은 Natural Earth 1:10m admin-1(v5.1.2) 현대 행정구역 조각을 그 시기 국경에 맞춰 묶고, 조각이 역사 경계와 다른 곳은 선을 그어 나눈 근사. 유럽 밖(시베리아·중앙아시아·극동)은 대략적인 추정. 운영자 검수 필요"},"geometry":{"type":"Polygon","coordinates":[[[21.1137,47.9605],[21.1378,48.0068],[21.1813,48.0263],[21.2226,48.029],[21.2529,48.0475],[21.2843,48.0263],[21.3733,48.027],[21.4324,48.0506],[21.4427,48.0818],[21.4263,48.1124],[21.4469,48.1579],[21.4761,48.1771],[21.6128,48.1803],[21.6521,48.1678],[21.6902,48.1674],[21.7662,48.1994],[21.7945,48.202],[21.846,48.2324],[21.9092,48.235],[21.9432,48.2478],[22.0053,48.3032],[22.0515,48.3],[22.0792,48.3115],[22.1372,48.3869],[22.1583,48.4022],[22.1328,48.4048],[22.1338,48.4768],[22.1483,48.5088],[22.1367,48.5493],[22.1537,48.5859],[22.219,48.6209],[22.2555,48.6568],[22.2943,48.6676],[22.3225,48.7003],[22.3308,48.7564],[22.3657,48.7944],[22.3623,48.8443],[22.3708,48.8582],[22.4118,48.8878],[22.4149,48.9117],[22.449,48.9714],[22.5205,48.9929],[22.5248,49.0329],[22.5396,49.0722],[22.5808,49.0814],[22.6429,49.0432],[22.7553,49.0447],[22.784,49.0214],[22.8553,48.994],[22.865,49.0132],[22.9024,48.9833],[22.892,48.9354],[22.926,48.9041],[22.9612,48.8843],[22.9821,48.859],[23.0117,48.8547],[23.105,48.8713],[23.1376,48.8522],[23.1798,48.7903],[23.2016,48.7771],[23.2576,48.7722],[23.2982,48.7812],[23.3085,48.7502],[23.3505,48.772],[23.378,48.7371],[23.4458,48.7267],[23.4985,48.7312],[23.5329,48.7237],[23.6124,48.7038],[23.6745,48.6545],[23.709,48.643],[23.7715,48.6447],[23.7817,48.6034],[23.8471,48.5628],[23.8949,48.5496],[23.9168,48.5154],[23.9074,48.4887],[23.9427,48.4704],[24.0015,48.5001],[24.0462,48.5051],[24.1138,48.5322],[24.137,48.5275],[24.1407,48.4712],[24.1312,48.4345],[24.1408,48.3799],[24.1777,48.3546],[24.2341,48.3505],[24.2707,48.3572],[24.3054,48.3883],[24.3317,48.3748],[24.3458,48.3402],[24.3916,48.3311],[24.4949,48.2666],[24.5415,48.2128],[24.5216,48.1711],[24.5384,48.1345],[24.6068,48.0886],[24.6393,48.0476],[24.5882,47.9959],[24.5698,47.9373],[24.6085,47.9219],[24.6493,47.8952],[24.6615,47.8539],[24.7128,47.8259],[24.7937,47.8045],[24.8207,47.7841],[24.8778,47.7187],[24.9289,47.7139],[24.9424,47.7156],[24.9788,47.6626],[25.0219,47.6322],[25.0323,47.6123],[25.0158,47.5965],[24.9562,47.5823],[25.0461,47.5297],[25.0842,47.4938],[25.0905,47.4715],[25.0726,47.4495],[25.0373,47.4302],[25.0494,47.3999],[25.007,47.3926],[25.004,47.3792],[25.0404,47.3429],[25.0568,47.3153],[25.0292,47.2576],[25.0391,47.2372],[25.0765,47.2283],[25.0632,47.1728],[25.0686,47.103],[25.1589,47.0914],[25.2047,47.0764],[25.2419,47.0663],[25.2826,47.0704],[25.3118,47.123],[25.3725,47.1403],[25.4069,47.1348],[25.5189,47.0824],[25.5521,47.0559],[25.5836,47.0473],[25.6713,47.0579],[25.7371,47.039],[25.7627,47.0125],[25.7918,46.9661],[25.8658,46.9128],[25.8668,46.8837],[25.832,46.8853],[25.8165,46.8592],[25.8282,46.6936],[25.8409,46.6702],[25.889,46.6348],[25.915,46.6356],[25.907,46.6748],[25.9271,46.6819],[26.0088,46.668],[26.012,46.5936],[26.0289,46.5485],[26.0691,46.4986],[26.0699,46.4872],[26.0325,46.4683],[26.0189,46.4268],[26.0387,46.4033],[26.1326,46.3907],[26.1619,46.3731],[26.1682,46.35],[26.1595,46.3125],[26.1823,46.3057],[26.2471,46.3266],[26.2927,46.3197],[26.3002,46.302],[26.2869,46.2762],[26.2799,46.2265],[26.259,46.1881],[26.2516,46.1503],[26.2932,46.1601],[26.325,46.1794],[26.4001,46.1445],[26.4149,46.128],[26.4021,46.0943],[26.4406,46.0748],[26.4681,46.0274],[26.4848,46.0212],[26.4209,45.9505],[26.4048,45.9175],[26.3804,45.8029],[26.395,45.7498],[26.3667,45.6852],[26.3427,45.6553],[26.3286,45.6181],[26.2847,45.6028],[26.2346,45.6256],[26.2156,45.6122],[26.2075,45.5832],[26.1889,45.5745],[26.1005,45.5644],[26.046,45.4823],[25.9989,45.4886],[25.9458,45.5102],[25.9028,45.5006],[25.8913,45.4654],[25.8627,45.4416],[25.8231,45.4455],[25.7904,45.4733],[25.7502,45.4659],[25.6933,45.4794],[25.6278,45.4847],[25.4588,45.4636],[25.4298,45.4523],[25.4027,45.4392],[25.3703,45.3994],[25.3092,45.3885],[25.2759,45.4165],[25.2208,45.5034],[25.0951,45.5696],[24.9839,45.58],[24.8687,45.5739],[24.8388,45.5631],[24.8004,45.595],[24.7719,45.6029],[24.7091,45.5988],[24.5272,45.5618],[24.3218,45.563],[24.1689,45.537],[24.0683,45.4964],[23.9606,45.5122],[23.794,45.508],[23.7526,45.4861],[23.7097,45.4798],[23.6469,45.4505],[23.6261,45.4519],[23.5842,45.4473],[23.5808,45.4323],[23.5999,45.3819],[23.5858,45.3526],[23.5237,45.3379],[23.4304,45.3038],[23.3984,45.3182],[23.3575,45.3215],[23.2441,45.2952],[23.1895,45.2718],[23.0908,45.2794],[23.027,45.2597],[22.9761,45.2748],[22.9334,45.2767],[22.8814,45.2949],[22.6691,45.2405],[22.6771,45.2755],[22.7069,45.3223],[22.6753,45.3739],[22.698,45.413],[22.6784,45.4925],[22.6533,45.5202],[22.5761,45.5671],[22.5424,45.57],[22.5374,45.5973],[22.4834,45.6115],[22.4536,45.6401],[22.4454,45.6629],[22.4616,45.6738],[22.4811,45.7191],[22.5411,45.7613],[22.5298,45.7799],[22.5025,45.774],[22.486,45.786],[22.4494,45.8372],[22.4125,45.8627],[22.3891,45.9247],[22.3549,45.9499],[22.4015,45.9917],[22.4196,46.0253],[22.4072,46.0713],[22.4296,46.1142],[22.4336,46.1761],[22.4702,46.212],[22.502,46.2189],[22.5579,46.2095],[22.6007,46.2109],[22.6403,46.2314],[22.6897,46.3002],[22.7553,46.3338],[22.7067,46.3687],[22.6176,46.3693],[22.5413,46.3806],[22.4507,46.3819],[22.4203,46.3902],[22.3929,46.4269],[22.318,46.4466],[22.2705,46.4749],[22.2094,46.4949],[22.1822,46.524],[22.1455,46.5827],[22.1122,46.601],[22.0668,46.6107],[21.9786,46.6132],[21.9119,46.6376],[21.8799,46.6382],[21.8258,46.6581],[21.492,46.6452],[21.4235,46.6582],[21.396,46.6264],[21.3744,46.6184],[21.3162,46.6166],[21.301,46.6039],[21.2913,46.5467],[21.2476,46.4975],[21.2451,46.4769],[21.2744,46.4384],[21.2807,46.4164],[21.2575,46.4042],[21.1956,46.3981],[21.1687,46.3628],[21.1645,46.3183],[21.1349,46.2785],[21.0992,46.2764],[21.0515,46.2361],[21.0335,46.2313],[21.007,46.2489],[20.9617,46.2483],[20.9066,46.2622],[20.867,46.2571],[20.8397,46.2711],[20.7874,46.2634],[20.7492,46.3015],[20.7591,46.3495],[20.7308,46.3836],[20.702,46.3938],[20.6494,46.3843],[20.5993,46.3845],[20.617,46.4121],[20.5849,46.4062],[20.5856,46.4481],[20.5892,46.481],[20.6242,46.5388],[20.595,46.5478],[20.5792,46.5679],[20.5757,46.6423],[20.5894,46.6899],[20.5865,46.7537],[20.5545,46.774],[20.4232,46.8033],[20.4079,46.8364],[20.4187,46.8654],[20.4579,46.889],[20.5269,46.8856],[20.5553,46.9129],[20.5842,46.9074],[20.6074,46.9212],[20.6353,46.9022],[20.7057,46.9237],[20.7163,46.9535],[20.7005,47.0143],[20.7388,47.0456],[20.7343,47.0648],[20.8214,47.1368],[20.8614,47.1375],[20.8984,47.1598],[20.9174,47.1854],[20.9419,47.1917],[20.9752,47.2293],[20.9945,47.236],[21.0229,47.286],[21.0279,47.3495],[21.0017,47.4441],[20.9899,47.5288],[20.9766,47.5689],[20.9457,47.5889],[20.8811,47.6017],[20.8426,47.6286],[20.8192,47.6794],[20.8921,47.6843],[20.9422,47.7186],[20.979,47.773],[21.0339,47.7798],[21.0285,47.8163],[21.0584,47.855],[21.0564,47.8905],[21.1062,47.9381],[21.1137,47.9605]]]}},
{"type":"Feature","properties":{"entityId":"eastern-hungarian-kingdom","from":1568,"to":1570,"certainty":"estimated","source":"유럽 쪽은 Natural Earth 1:10m admin-1(v5.1.2) 현대 행정구역 조각을 그 시기 국경에 맞춰 묶고, 조각이 역사 경계와 다른 곳은 선을 그어 나눈 근사. 유럽 밖(시베리아·중앙아시아·극동)은 대략적인 추정. 운영자 검수 필요"},"geometry":{"type":"Polygon","coordinates":[[[21.4235,46.6582],[21.4362,46.6737],[21.4836,46.6849],[21.5052,46.7232],[21.4705,46.743],[21.5029,46.8053],[21.5366,46.835],[21.5731,46.8418],[21.5918,46.8607],[21.5944,46.91],[21.6485,46.943],[21.6675,46.9924],[21.6343,47.0194],[21.5668,47.0012],[21.4987,46.9537],[21.4564,46.9542],[21.3868,46.9408],[21.335,46.9583],[21.3439,46.9827],[21.3013,46.9998],[21.2883,47.0158],[21.2914,47.1164],[21.2711,47.1454],[21.2059,47.1673],[21.1181,47.181],[20.9945,47.236],[21.0229,47.286],[21.0279,47.3495],[21.0017,47.4441],[20.9899,47.5288],[20.9766,47.5689],[20.9457,47.5889],[20.8811,47.6017],[20.8426,47.6286],[20.8192,47.6794],[20.8921,47.6843],[20.9422,47.7186],[20.979,47.773],[21.0339,47.7798],[21.0285,47.8163],[21.0584,47.855],[21.0564,47.8905],[21.1062,47.9381],[21.1137,47.9605],[21.1378,48.0068],[21.1813,48.0263],[21.2226,48.029],[21.2529,48.0475],[21.2843,48.0263],[21.3733,48.027],[21.4324,48.0506],[21.4427,48.0818],[21.4263,48.1124],[21.4469,48.1579],[21.4761,48.1771],[21.6128,48.1803],[21.6521,48.1678],[21.6902,48.1674],[21.7662,48.1994],[21.7945,48.202],[21.846,48.2324],[21.9092,48.235],[21.9432,48.2478],[22.0053,48.3032],[22.0515,48.3],[22.0792,48.3115],[22.1372,48.3869],[22.1583,48.4022],[22.1328,48.4048],[22.1338,48.4768],[22.1483,48.5088],[22.1367,48.5493],[22.1537,48.5859],[22.219,48.6209],[22.2555,48.6568],[22.2943,48.6676],[22.3225,48.7003],[22.3308,48.7564],[22.3657,48.7944],[22.3623,48.8443],[22.3708,48.8582],[22.4118,48.8878],[22.4149,48.9117],[22.449,48.9714],[22.5205,48.9929],[22.5248,49.0329],[22.5396,49.0722],[22.5808,49.0814],[22.6429,49.0432],[22.7553,49.0447],[22.784,49.0214],[22.8553,48.994],[22.865,49.0132],[22.9024,48.9833],[22.892,48.9354],[22.926,48.9041],[22.9612,48.8843],[22.9821,48.859],[23.0117,48.8547],[23.105,48.8713],[23.1376,48.8522],[23.1798,48.7903],[23.2016,48.7771],[23.2576,48.7722],[23.2982,48.7812],[23.3085,48.7502],[23.3505,48.772],[23.378,48.7371],[23.4458,48.7267],[23.4985,48.7312],[23.5329,48.7237],[23.6124,48.7038],[23.6745,48.6545],[23.709,48.643],[23.7715,48.6447],[23.7817,48.6034],[23.8471,48.5628],[23.8949,48.5496],[23.9168,48.5154],[23.9074,48.4887],[23.9427,48.4704],[24.0015,48.5001],[24.0462,48.5051],[24.1138,48.5322],[24.137,48.5275],[24.1407,48.4712],[24.1312,48.4345],[24.1408,48.3799],[24.1777,48.3546],[24.2341,48.3505],[24.2707,48.3572],[24.3054,48.3883],[24.3317,48.3748],[24.3458,48.3402],[24.3916,48.3311],[24.4949,48.2666],[24.5415,48.2128],[24.5216,48.1711],[24.5384,48.1345],[24.6068,48.0886],[24.6393,48.0476],[24.5882,47.9959],[24.5698,47.9373],[24.6085,47.9219],[24.6493,47.8952],[24.6615,47.8539],[24.7128,47.8259],[24.7937,47.8045],[24.8207,47.7841],[24.8778,47.7187],[24.9289,47.7139],[24.9424,47.7156],[24.9788,47.6626],[25.0219,47.6322],[25.0323,47.6123],[25.0158,47.5965],[24.9562,47.5823],[25.0461,47.5297],[25.0842,47.4938],[25.0905,47.4715],[25.0726,47.4495],[25.0373,47.4302],[25.0494,47.3999],[25.007,47.3926],[25.004,47.3792],[25.0404,47.3429],[25.0568,47.3153],[25.0292,47.2576],[25.0391,47.2372],[25.0765,47.2283],[25.0632,47.1728],[25.0686,47.103],[25.1589,47.0914],[25.2047,47.0764],[25.2419,47.0663],[25.2826,47.0704],[25.3118,47.123],[25.3725,47.1403],[25.4069,47.1348],[25.5189,47.0824],[25.5521,47.0559],[25.5836,47.0473],[25.6713,47.0579],[25.7371,47.039],[25.7627,47.0125],[25.7918,46.9661],[25.8658,46.9128],[25.8668,46.8837],[25.832,46.8853],[25.8165,46.8592],[25.8282,46.6936],[25.8409,46.6702],[25.889,46.6348],[25.915,46.6356],[25.907,46.6748],[25.9271,46.6819],[26.0088,46.668],[26.012,46.5936],[26.0289,46.5485],[26.0691,46.4986],[26.0699,46.4872],[26.0325,46.4683],[26.0189,46.4268],[26.0387,46.4033],[26.1326,46.3907],[26.1619,46.3731],[26.1682,46.35],[26.1595,46.3125],[26.1823,46.3057],[26.2471,46.3266],[26.2927,46.3197],[26.3002,46.302],[26.2869,46.2762],[26.2799,46.2265],[26.259,46.1881],[26.2516,46.1503],[26.2932,46.1601],[26.325,46.1794],[26.4001,46.1445],[26.4149,46.128],[26.4021,46.0943],[26.4406,46.0748],[26.4681,46.0274],[26.4848,46.0212],[26.4209,45.9505],[26.4048,45.9175],[26.3804,45.8029],[26.395,45.7498],[26.3667,45.6852],[26.3427,45.6553],[26.3286,45.6181],[26.2847,45.6028],[26.2346,45.6256],[26.2156,45.6122],[26.2075,45.5832],[26.1889,45.5745],[26.1005,45.5644],[26.046,45.4823],[25.9989,45.4886],[25.9458,45.5102],[25.9028,45.5006],[25.8913,45.4654],[25.8627,45.4416],[25.8231,45.4455],[25.7904,45.4733],[25.7502,45.4659],[25.6933,45.4794],[25.6278,45.4847],[25.4588,45.4636],[25.4298,45.4523],[25.4027,45.4392],[25.3703,45.3994],[25.3092,45.3885],[25.2759,45.4165],[25.2208,45.5034],[25.0951,45.5696],[24.9839,45.58],[24.8687,45.5739],[24.8388,45.5631],[24.8004,45.595],[24.7719,45.6029],[24.7091,45.5988],[24.5272,45.5618],[24.3218,45.563],[24.1689,45.537],[24.0683,45.4964],[23.9606,45.5122],[23.794,45.508],[23.7526,45.4861],[23.7097,45.4798],[23.6469,45.4505],[23.6261,45.4519],[23.5842,45.4473],[23.5808,45.4323],[23.5999,45.3819],[23.5858,45.3526],[23.5237,45.3379],[23.4304,45.3038],[23.3984,45.3182],[23.3575,45.3215],[23.2441,45.2952],[23.1895,45.2718],[23.0908,45.2794],[23.027,45.2597],[22.9761,45.2748],[22.9334,45.2767],[22.8814,45.2949],[22.6691,45.2405],[22.6771,45.2755],[22.7069,45.3223],[22.6753,45.3739],[22.698,45.413],[22.6784,45.4925],[22.6533,45.5202],[22.5761,45.5671],[22.5424,45.57],[22.5374,45.5973],[22.4834,45.6115],[22.4536,45.6401],[22.4454,45.6629],[22.4616,45.6738],[22.4811,45.7191],[22.5411,45.7613],[22.5298,45.7799],[22.5025,45.774],[22.486,45.786],[22.4494,45.8372],[22.4125,45.8627],[22.3891,45.9247],[22.3549,45.9499],[22.4015,45.9917],[22.4196,46.0253],[22.4072,46.0713],[22.4296,46.1142],[22.4336,46.1761],[22.4702,46.212],[22.502,46.2189],[22.5579,46.2095],[22.6007,46.2109],[22.6403,46.2314],[22.6897,46.3002],[22.7553,46.3338],[22.7067,46.3687],[22.6176,46.3693],[22.5413,46.3806],[22.4507,46.3819],[22.4203,46.3902],[22.3929,46.4269],[22.318,46.4466],[22.2705,46.4749],[22.2094,46.4949],[22.1822,46.524],[22.1455,46.5827],[22.1122,46.601],[22.0668,46.6107],[21.9786,46.6132],[21.9119,46.6376],[21.8799,46.6382],[21.8258,46.6581],[21.492,46.6452],[21.4235,46.6582]]]}}
]}
