{"type":"FeatureCollection","features":[
{"type":"Feature","properties":{"entityId":"epirus-despotate","from":1400,"to":1430,"certainty":"estimated","source":"유럽 쪽은 Natural Earth 1:10m admin-1(v5.1.2) 현대 행정구역 조각을 그 시기 국경에 맞춰 묶고, 조각이 역사 경계와 다른 곳은 선을 그어 나눈 근사. 유럽 밖(시베리아·중앙아시아·극동)은 대략적인 추정. 운영자 검수 필요"},"geometry":{"type":"Polygon","coordinates":[[[19.9998,39.6935],[20.003,39.6928],[20.003,39.6843],[20.0285,39.6741],[20.0817,39.6527],[20.084,39.6518],[20.1006,39.6403],[20.1624,39.5747],[20.1625,39.5742],[20.1467,39.5707],[20.1336,39.5297],[20.1727,39.5297],[20.2158,39.3405],[20.5789,38.9382],[20.657,38.9382],[20.657,38.8885],[20.683,38.8885],[20.683,38.9089],[20.7318,38.9089],[20.7318,38.9382],[20.7578,38.9382],[20.7575,38.9401],[20.7594,38.943],[20.7594,38.9683],[20.7727,38.9783],[20.7903,38.9723],[20.7903,38.9382],[20.8384,38.9382],[20.852,38.9489],[20.852,38.9815],[20.8829,38.9815],[20.8829,39.0248],[20.9138,39.0248],[20.9138,39.0044],[20.9447,39.0044],[20.9447,38.9745],[20.9755,38.9745],[20.9755,38.9713],[21.0373,38.9713],[21.0373,38.9694],[21.099,38.9694],[21.099,39.0006],[21.0969,39.0006],[21.0969,39.0318],[21.0506,39.0318],[21.0603,39.039],[21.0692,39.0766],[21.1048,39.0942],[21.2294,39.096],[21.2865,39.1138],[21.3398,39.1484],[21.3623,39.1539],[21.3331,39.2012],[21.3851,39.2797],[21.3459,39.3308],[21.2752,39.3337],[21.2403,39.3543],[21.226,39.3888],[21.1787,39.4189],[21.1749,39.4521],[21.1531,39.4847],[21.169,39.5102],[21.1661,39.5652],[21.1601,39.5701],[21.1232,39.6003],[21.1104,39.6592],[21.1432,39.68],[21.2162,39.6687],[21.1984,39.7556],[21.2151,39.7837],[21.2639,39.8108],[21.2912,39.8048],[21.2906,39.8186],[21.2249,39.8482],[21.1892,39.8496],[21.0949,39.8277],[21.0779,39.8325],[21.0588,39.862],[21.0453,39.9182],[21.0139,39.941],[21.0403,39.9817],[21.0429,40.0115],[21.027,40.0215],[20.9879,40.0068],[20.9611,40.0345],[20.9482,40.077],[20.9323,40.087],[20.9608,40.1384],[20.9479,40.1809],[20.9208,40.225],[20.8784,40.2653],[20.8439,40.3266],[20.8064,40.3199],[20.7732,40.299],[20.7396,40.3092],[20.707,40.2881],[20.6946,40.2556],[20.6964,40.2151],[20.6853,40.1912],[20.6599,40.1727],[20.6682,40.1381],[20.6476,40.094],[20.6154,40.081],[20.5778,40.0673],[20.4999,40.0715],[20.466,40.0608],[20.4328,40.0638],[20.4004,40.0453],[20.3765,39.9937],[20.31,39.9899],[20.303,39.9791],[20.318,39.9184],[20.3469,39.8943],[20.393,39.8355],[20.389,39.7981],[20.3716,39.7843],[20.2996,39.8051],[20.273,39.7965],[20.2757,39.7601],[20.2995,39.7282],[20.2827,39.7044],[20.249,39.6848],[20.246,39.6629],[20.2042,39.6603],[20.1999,39.6401],[20.1638,39.6443],[20.0893,39.6828],[20.0161,39.7014],[19.9998,39.6935]]]}},
{"type":"Feature","properties":{"entityId":"epirus-despotate","from":1430,"to":1449,"certainty":"estimated","source":"유럽 쪽은 Natural Earth 1:10m admin-1(v5.1.2) 현대 행정구역 조각을 그 시기 국경에 맞춰 묶고, 조각이 역사 경계와 다른 곳은 선을 그어 나눈 근사. 유럽 밖(시베리아·중앙아시아·극동)은 대략적인 추정. 운영자 검수 필요"},"geometry":{"type":"Polygon","coordinates":[[[20.96,39.15],[21,39.05],[20.9623,38.9745],[20.9755,38.9745],[20.9755,38.9713],[21.0373,38.9713],[21.0373,38.9694],[21.099,38.9694],[21.099,39.0006],[21.0969,39.0006],[21.0969,39.0318],[21.0506,39.0318],[21.0603,39.039],[21.0692,39.0766],[21.1048,39.0942],[21.2294,39.096],[21.2865,39.1138],[21.3398,39.1484],[21.3623,39.1539],[21.3331,39.2012],[21.3851,39.2797],[21.3459,39.3308],[21.2752,39.3337],[21.2403,39.3543],[21.226,39.3888],[21.1787,39.4189],[21.1749,39.4521],[21.1531,39.4847],[21.169,39.5102],[21.1661,39.5652],[21.1601,39.5701],[21,39.25],[20.96,39.15]]]}}
]}
