{"type":"FeatureCollection","features":[
{"type":"Feature","properties":{"entityId":"eretnids","from":1335,"to":1354,"certainty":"estimated","source":"유럽 쪽은 Natural Earth 1:10m admin-1(v5.1.2) 현대 행정구역 조각을 그 시기 국경에 맞춰 묶고, 조각이 역사 경계와 다른 곳은 선을 그어 나눈 근사. 유럽 밖(시베리아·중앙아시아·극동)은 대략적인 추정. 운영자 검수 필요"},"geometry":{"type":"Polygon","coordinates":[[[36.7052,40.8625],[36.6875,40.836],[36.6989,40.8068],[36.7565,40.792],[36.8118,40.7661],[36.8954,40.7447],[36.9468,40.7203],[37.0134,40.6989],[37.0846,40.6943],[37.1525,40.7019],[37.2197,40.6977],[37.4488,40.5759],[37.5841,40.5694],[37.617,40.5212],[37.6349,40.4612],[37.6901,40.3794],[37.7669,40.3319],[37.8019,40.3357],[37.8614,40.3839],[37.8977,40.4041],[37.9802,40.4013],[38.0016,40.4116],[37.998,40.4688],[38.0084,40.481],[38.0952,40.4922],[38.1583,40.5235],[38.2405,40.2852],[38.2382,40.2286],[38.2748,40.1861],[38.3311,40.1647],[38.3923,40.1283],[38.4542,40.0999],[38.5563,40.1194],[38.661,40.0935],[38.7616,40.0549],[38.7585,40.0038],[38.7372,39.9655],[38.6456,39.9715],[38.5932,39.9627],[38.5464,39.937],[38.4977,39.9431],[38.4511,39.9708],[38.4067,39.9507],[38.3692,39.8679],[38.3772,39.8363],[38.4462,39.8382],[38.5192,39.852],[38.5402,39.8328],[38.5297,39.8052],[38.49,39.8026],[38.4527,39.7872],[38.3786,39.7035],[38.3671,39.5991],[38.3442,39.5648],[38.3556,39.5265],[38.4238,39.4841],[38.4467,39.4599],[38.4385,39.444],[38.403,39.426],[38.3667,39.3886],[38.3689,39.3374],[38.3875,39.2791],[38.3817,39.2427],[38.3926,39.211],[38.384,39.1773],[38.3617,39.1503],[38.2839,39.1297],[38.2123,39.0876],[38.1477,39.0726],[38.0802,39.0802],[38.01,39.0637],[37.932,39.0623],[37.7858,38.9983],[37.7022,38.9843],[37.6176,39.017],[37.5736,39.0082],[37.5516,38.9694],[37.5614,38.9222],[37.5969,38.8343],[37.5805,38.7968],[37.5098,38.7366],[37.4447,38.7082],[37.3936,38.6613],[37.3429,38.6249],[37.2844,38.6036],[37.0597,38.5881],[37.0088,38.6105],[36.8789,38.625],[36.7475,38.5994],[36.7137,38.583],[36.694,38.5523],[36.682,38.4999],[36.65,38.4591],[36.5055,38.3229],[36.4626,38.358],[36.4373,38.4097],[36.4001,38.4566],[36.348,38.4747],[36.2669,38.4578],[36.19,38.4235],[36.1459,38.3951],[36.1033,38.3122],[36.0756,38.2819],[36.0331,38.2133],[35.979,38.155],[35.6077,37.9538],[35.6296,37.7702],[35.5772,37.7505],[35.4536,37.7888],[35.3632,37.8073],[35.1906,37.8181],[35.0597,37.7135],[34.9619,37.7007],[34.9106,37.7136],[34.8597,37.7166],[34.8278,37.6802],[34.8326,37.6299],[34.8652,37.553],[34.8499,37.5106],[34.7946,37.4572],[34.7916,37.3877],[34.7215,37.4014],[34.5875,37.3533],[34.5122,37.352],[34.4891,37.3949],[34.4272,37.4432],[34.3891,37.4865],[34.3941,37.5611],[34.4329,37.6086],[34.4568,37.6603],[34.4455,37.7171],[34.4128,37.7531],[34.3733,37.7835],[34.3005,37.8753],[34.2063,37.9099],[34.1731,37.9506],[34.1598,38.0023],[34.0849,38.0118],[34.0094,37.9981],[33.9321,37.9736],[33.8538,37.9578],[33.7746,37.9608],[33.6189,37.9521],[33.4997,37.9318],[33.4561,37.9332],[33.4155,37.9637],[33.3485,38.0292],[33.3251,38.1088],[33.3012,38.1271],[33.2647,38.2045],[33.2721,38.286],[33.294,38.3571],[33.3177,38.4098],[33.353,38.4526],[33.3675,38.5315],[33.3895,38.5649],[33.4474,38.6161],[33.4666,38.6436],[33.4449,38.6837],[33.4134,38.7197],[33.3662,38.7987],[33.3638,38.8568],[33.3796,38.9687],[33.3744,39.0226],[33.3206,39.1199],[33.2227,39.1752],[33.1661,39.1889],[33.1048,39.2221],[33.0624,39.2221],[33.0321,39.1755],[33.0236,39.1236],[33.0091,39.1051],[32.9658,39.1105],[32.908,39.1449],[32.86,39.1572],[32.7579,39.0921],[32.7218,39.0544],[32.6761,39.0338],[32.6015,39.0584],[32.538,39.0356],[32.4787,38.9972],[32.436,39],[32.3676,39.0413],[32.2823,39.0635],[32.2321,39.059],[32.127,39.0342],[32.0906,39.0435],[31.9482,39.1364],[31.8614,39.1714],[31.9383,39.2045],[31.9561,39.2255],[31.9999,39.2327],[32.0427,39.2751],[32.0358,39.3053],[32.0043,39.3223],[31.9833,39.3482],[31.9752,39.4049],[31.9905,39.4652],[31.9912,39.4959],[31.9651,39.5349],[31.9469,39.5865],[31.897,39.6206],[31.8473,39.7259],[31.8408,39.7758],[31.8817,39.8118],[31.8795,39.8383],[31.845,39.8761],[31.7823,39.8905],[31.757,39.9203],[31.7261,39.9941],[31.727,40.0235],[31.6812,40.0184],[31.6403,40.0401],[31.6041,40.03],[31.5315,40.0291],[31.4926,40.0221],[31.4598,40.0301],[31.4308,40.0236],[31.3891,40.0569],[31.3389,40.0483],[31.2469,40.0577],[31.1911,40.0241],[31.1399,40.0436],[31.0816,40.0481],[30.9865,40.0165],[30.9221,40.02],[30.9067,40.1006],[30.8636,40.1428],[30.9254,40.2057],[31.0072,40.2416],[31.0382,40.2922],[31.0341,40.3524],[31.0439,40.3899],[31.0692,40.4113],[31.163,40.3869],[31.2509,40.346],[31.4197,40.3597],[31.4524,40.332],[31.5356,40.3116],[31.5679,40.3085],[31.6577,40.3361],[31.6965,40.34],[31.8214,40.3384],[31.9061,40.3534],[31.9751,40.3771],[32.0931,40.3989],[32.1349,40.421],[32.1768,40.4313],[32.3154,40.4152],[32.3961,40.4483],[32.4239,40.4856],[32.4767,40.539],[32.439,40.619],[32.4427,40.673],[32.4713,40.6939],[32.5071,40.7052],[32.5862,40.7076],[32.6651,40.6979],[32.9586,40.594],[33.0104,40.5306],[33.0434,40.5018],[33.1726,40.4303],[33.1943,40.4048],[33.2056,40.3705],[33.2714,40.3311],[33.3447,40.338],[33.36,40.3913],[33.3982,40.3962],[33.4597,40.3736],[33.5952,40.3396],[33.8705,40.2723],[33.9642,40.2655],[34.043,40.2999],[34.0818,40.3102],[34.1336,40.3897],[34.1502,40.423],[34.1316,40.4749],[34.0914,40.5311],[34.0787,40.5687],[34.0746,40.6391],[34.0505,40.6763],[34.0442,40.7191],[34.0766,40.7982],[34.0272,40.8608],[34.1145,40.8747],[34.2564,40.9194],[34.2802,40.9691],[34.2264,41.0021],[34.2077,41.0393],[34.2522,41.0913],[34.2871,41.1572],[34.3574,41.2094],[34.3852,41.2643],[34.4194,41.302],[34.4719,41.3108],[34.4985,41.2859],[34.5575,41.2846],[34.5741,41.2705],[34.641,41.2721],[34.6704,41.2661],[34.7239,41.2293],[34.8373,41.2016],[34.8761,41.233],[34.888,41.2698],[34.9395,41.2003],[34.959,41.1248],[34.9748,41.0874],[35.0516,41.0942],[35.0893,41.0869],[35.4,41.0207],[35.4611,41.0294],[35.4941,41.015],[35.6388,40.931],[35.673,40.886],[35.7061,40.8788],[35.7823,40.8831],[35.8208,40.8772],[35.9532,40.8759],[36.0314,40.8474],[36.0735,40.8548],[36.1548,40.9014],[36.1855,40.9422],[36.2031,40.9878],[36.2429,41.007],[36.2792,40.9969],[36.3071,40.9738],[36.3355,40.9292],[36.4431,40.8704],[36.5526,40.8902],[36.6,40.9068],[36.6529,40.9056],[36.6872,40.8866],[36.7052,40.8625]]]}},
{"type":"Feature","properties":{"entityId":"eretnids","from":1354,"to":1392,"certainty":"estimated","source":"유럽 쪽은 Natural Earth 1:10m admin-1(v5.1.2) 현대 행정구역 조각을 그 시기 국경에 맞춰 묶고, 조각이 역사 경계와 다른 곳은 선을 그어 나눈 근사. 유럽 밖(시베리아·중앙아시아·극동)은 대략적인 추정. 운영자 검수 필요"},"geometry":{"type":"Polygon","coordinates":[[[36.7052,40.8625],[36.6875,40.836],[36.6989,40.8068],[36.7565,40.792],[36.8118,40.7661],[36.8954,40.7447],[36.9468,40.7203],[37.0134,40.6989],[37.0846,40.6943],[37.1525,40.7019],[37.2197,40.6977],[37.4488,40.5759],[37.5841,40.5694],[37.617,40.5212],[37.6349,40.4612],[37.6901,40.3794],[37.7669,40.3319],[37.8019,40.3357],[37.8614,40.3839],[37.8977,40.4041],[37.9802,40.4013],[38.0016,40.4116],[37.998,40.4688],[38.0084,40.481],[38.0952,40.4922],[38.1583,40.5235],[38.2405,40.2852],[38.2382,40.2286],[38.2748,40.1861],[38.3311,40.1647],[38.3923,40.1283],[38.4542,40.0999],[38.5563,40.1194],[38.661,40.0935],[38.7616,40.0549],[38.7585,40.0038],[38.7372,39.9655],[38.6456,39.9715],[38.5932,39.9627],[38.5464,39.937],[38.4977,39.9431],[38.4511,39.9708],[38.4067,39.9507],[38.3692,39.8679],[38.3772,39.8363],[38.4462,39.8382],[38.5192,39.852],[38.5402,39.8328],[38.5297,39.8052],[38.49,39.8026],[38.4527,39.7872],[38.3786,39.7035],[38.3671,39.5991],[38.3442,39.5648],[38.3556,39.5265],[38.4238,39.4841],[38.4467,39.4599],[38.4385,39.444],[38.403,39.426],[38.3667,39.3886],[38.3689,39.3374],[38.3875,39.2791],[38.3817,39.2427],[38.3926,39.211],[38.384,39.1773],[38.3617,39.1503],[38.2839,39.1297],[38.2123,39.0876],[38.1477,39.0726],[38.0802,39.0802],[38.01,39.0637],[37.932,39.0623],[37.7858,38.9983],[37.7022,38.9843],[37.6176,39.017],[37.5736,39.0082],[37.5516,38.9694],[37.5614,38.9222],[37.5969,38.8343],[37.5805,38.7968],[37.5098,38.7366],[37.4447,38.7082],[37.3936,38.6613],[37.3429,38.6249],[37.2844,38.6036],[37.0597,38.5881],[37.0088,38.6105],[36.8789,38.625],[36.7475,38.5994],[36.7137,38.583],[36.694,38.5523],[36.682,38.4999],[36.65,38.4591],[36.5055,38.3229],[36.4626,38.358],[36.4373,38.4097],[36.4001,38.4566],[36.348,38.4747],[36.2669,38.4578],[36.19,38.4235],[36.1459,38.3951],[36.1033,38.3122],[36.0756,38.2819],[36.0331,38.2133],[35.979,38.155],[35.6077,37.9538],[35.6296,37.7702],[35.5772,37.7505],[35.4536,37.7888],[35.3632,37.8073],[35.1906,37.8181],[35.0597,37.7135],[34.9619,37.7007],[34.9106,37.7136],[34.8597,37.7166],[34.8278,37.6802],[34.8326,37.6299],[34.8652,37.553],[34.8499,37.5106],[34.7946,37.4572],[34.7916,37.3877],[34.7215,37.4014],[34.5875,37.3533],[34.5122,37.352],[34.4891,37.3949],[34.4272,37.4432],[34.3891,37.4865],[34.3941,37.5611],[34.4329,37.6086],[34.4568,37.6603],[34.4455,37.7171],[34.4128,37.7531],[34.3733,37.7835],[34.3005,37.8753],[34.2063,37.9099],[34.1731,37.9506],[34.1598,38.0023],[34.0849,38.0118],[34.0094,37.9981],[33.9321,37.9736],[33.8538,37.9578],[33.7746,37.9608],[33.6189,37.9521],[33.4997,37.9318],[33.4561,37.9332],[33.4155,37.9637],[33.3485,38.0292],[33.3251,38.1088],[33.3012,38.1271],[33.2647,38.2045],[33.2721,38.286],[33.294,38.3571],[33.3177,38.4098],[33.353,38.4526],[33.3675,38.5315],[33.3895,38.5649],[33.4474,38.6161],[33.4666,38.6436],[33.5535,38.662],[33.6354,38.6987],[33.7224,38.7176],[33.8116,38.7154],[33.8497,38.7301],[33.9333,38.7923],[33.9366,38.8504],[33.8967,38.935],[33.9301,39.0011],[33.9374,39.0347],[33.8753,39.0526],[33.8288,39.0745],[33.7761,39.0777],[33.7393,39.1089],[33.6575,39.1556],[33.545,39.2109],[33.5245,39.2668],[33.6366,39.4187],[33.7989,39.5204],[33.8676,39.6042],[33.9128,39.7069],[34.0733,39.8257],[34.0525,39.9076],[34.0509,39.9586],[34.0976,40.0243],[34.1013,40.0569],[34.0845,40.1091],[34.0164,40.1467],[33.9752,40.218],[33.9642,40.2655],[34.043,40.2999],[34.0818,40.3102],[34.1336,40.3897],[34.1502,40.423],[34.1316,40.4749],[34.0914,40.5311],[34.0787,40.5687],[34.0746,40.6391],[34.0505,40.6763],[34.0442,40.7191],[34.0766,40.7982],[34.0272,40.8608],[34.1145,40.8747],[34.2564,40.9194],[34.2802,40.9691],[34.2264,41.0021],[34.2077,41.0393],[34.2522,41.0913],[34.2871,41.1572],[34.3574,41.2094],[34.3852,41.2643],[34.4194,41.302],[34.4719,41.3108],[34.4985,41.2859],[34.5575,41.2846],[34.5741,41.2705],[34.641,41.2721],[34.6704,41.2661],[34.7239,41.2293],[34.8373,41.2016],[34.8761,41.233],[34.888,41.2698],[34.9395,41.2003],[34.959,41.1248],[34.9748,41.0874],[35.0516,41.0942],[35.0893,41.0869],[35.4,41.0207],[35.4611,41.0294],[35.4941,41.015],[35.6388,40.931],[35.673,40.886],[35.7061,40.8788],[35.7823,40.8831],[35.8208,40.8772],[35.9532,40.8759],[36.0314,40.8474],[36.0735,40.8548],[36.1548,40.9014],[36.1855,40.9422],[36.2031,40.9878],[36.2429,41.007],[36.2792,40.9969],[36.3071,40.9738],[36.3355,40.9292],[36.4431,40.8704],[36.5526,40.8902],[36.6,40.9068],[36.6529,40.9056],[36.6872,40.8866],[36.7052,40.8625]]]}},
{"type":"Feature","properties":{"entityId":"eretnids","from":1392,"to":1398,"certainty":"estimated","source":"유럽 쪽은 Natural Earth 1:10m admin-1(v5.1.2) 현대 행정구역 조각을 그 시기 국경에 맞춰 묶고, 조각이 역사 경계와 다른 곳은 선을 그어 나눈 근사. 유럽 밖(시베리아·중앙아시아·극동)은 대략적인 추정. 운영자 검수 필요"},"geometry":{"type":"Polygon","coordinates":[[[34.5122,37.352],[34.4891,37.3949],[34.4272,37.4432],[34.3891,37.4865],[34.3941,37.5611],[34.4329,37.6086],[34.4568,37.6603],[34.4455,37.7171],[34.4128,37.7531],[34.3733,37.7835],[34.3005,37.8753],[34.2063,37.9099],[34.1731,37.9506],[34.1598,38.0023],[34.0849,38.0118],[34.0094,37.9981],[33.9321,37.9736],[33.8538,37.9578],[33.7746,37.9608],[33.6189,37.9521],[33.4997,37.9318],[33.4561,37.9332],[33.4155,37.9637],[33.3485,38.0292],[33.3251,38.1088],[33.3012,38.1271],[33.2647,38.2045],[33.2721,38.286],[33.294,38.3571],[33.3177,38.4098],[33.353,38.4526],[33.3675,38.5315],[33.3895,38.5649],[33.4474,38.6161],[33.4666,38.6436],[33.5535,38.662],[33.6354,38.6987],[33.7224,38.7176],[33.8116,38.7154],[33.8497,38.7301],[33.9333,38.7923],[33.9366,38.8504],[33.8967,38.935],[33.9301,39.0011],[33.9374,39.0347],[33.8753,39.0526],[33.8288,39.0745],[33.7761,39.0777],[33.7393,39.1089],[33.6575,39.1556],[33.545,39.2109],[33.5245,39.2668],[33.6366,39.4187],[33.7989,39.5204],[33.8676,39.6042],[33.9128,39.7069],[34.0733,39.8257],[34.0525,39.9076],[34.109,39.9286],[34.2658,39.9427],[34.3613,39.9762],[34.4585,40.0007],[34.6117,39.9799],[34.6711,39.9977],[34.7916,39.9977],[34.9415,40.0539],[35.0266,40.0348],[35.0726,40.039],[35.151,40.0754],[35.1779,40.1025],[35.1941,40.161],[35.1811,40.1722],[35.1914,40.2174],[35.2871,40.2228],[35.3273,40.234],[35.3631,40.2006],[35.4604,40.2003],[35.5098,40.1886],[35.5492,40.2527],[35.5785,40.2774],[35.6864,40.3105],[35.7422,40.3658],[35.7714,40.4059],[35.816,40.4813],[35.8423,40.5052],[35.9251,40.5104],[36.0058,40.4937],[36.0309,40.4774],[36.1358,40.4437],[36.1972,40.4661],[36.3103,40.5241],[36.3166,40.575],[36.3973,40.588],[36.4417,40.6361],[36.442,40.6732],[36.459,40.7062],[36.4938,40.7456],[36.4735,40.7852],[36.421,40.8145],[36.4149,40.8585],[36.4431,40.8704],[36.5526,40.8902],[36.6,40.9068],[36.6529,40.9056],[36.6872,40.8866],[36.7052,40.8625],[36.6875,40.836],[36.6989,40.8068],[36.7565,40.792],[36.8118,40.7661],[36.8954,40.7447],[36.9468,40.7203],[37.0134,40.6989],[37.0846,40.6943],[37.1525,40.7019],[37.2197,40.6977],[37.4488,40.5759],[37.5841,40.5694],[37.617,40.5212],[37.6349,40.4612],[37.6901,40.3794],[37.7669,40.3319],[37.8019,40.3357],[37.8614,40.3839],[37.8977,40.4041],[37.9802,40.4013],[38.0016,40.4116],[37.998,40.4688],[38.0084,40.481],[38.0952,40.4922],[38.1583,40.5235],[38.2405,40.2852],[38.2382,40.2286],[38.2748,40.1861],[38.3311,40.1647],[38.3923,40.1283],[38.4542,40.0999],[38.5563,40.1194],[38.661,40.0935],[38.7616,40.0549],[38.7585,40.0038],[38.7372,39.9655],[38.6456,39.9715],[38.5932,39.9627],[38.5464,39.937],[38.4977,39.9431],[38.4511,39.9708],[38.4067,39.9507],[38.3692,39.8679],[38.3772,39.8363],[38.4462,39.8382],[38.5192,39.852],[38.5402,39.8328],[38.5297,39.8052],[38.49,39.8026],[38.4527,39.7872],[38.3786,39.7035],[38.3671,39.5991],[38.3442,39.5648],[38.3556,39.5265],[38.4238,39.4841],[38.4467,39.4599],[38.4385,39.444],[38.403,39.426],[38.3667,39.3886],[38.3689,39.3374],[38.3875,39.2791],[38.3817,39.2427],[38.3926,39.211],[38.384,39.1773],[38.3617,39.1503],[38.2839,39.1297],[38.2123,39.0876],[38.1477,39.0726],[38.0802,39.0802],[38.01,39.0637],[37.932,39.0623],[37.7858,38.9983],[37.7022,38.9843],[37.6176,39.017],[37.5736,39.0082],[37.5516,38.9694],[37.5614,38.9222],[37.5969,38.8343],[37.5805,38.7968],[37.5098,38.7366],[37.4447,38.7082],[37.3936,38.6613],[37.3429,38.6249],[37.2844,38.6036],[37.0597,38.5881],[37.0088,38.6105],[36.8789,38.625],[36.7475,38.5994],[36.7137,38.583],[36.694,38.5523],[36.682,38.4999],[36.65,38.4591],[36.5055,38.3229],[36.4626,38.358],[36.4373,38.4097],[36.4001,38.4566],[36.348,38.4747],[36.2669,38.4578],[36.19,38.4235],[36.1459,38.3951],[36.1033,38.3122],[36.0756,38.2819],[36.0331,38.2133],[35.979,38.155],[35.6077,37.9538],[35.6296,37.7702],[35.5772,37.7505],[35.4536,37.7888],[35.3632,37.8073],[35.1906,37.8181],[35.0597,37.7135],[34.9619,37.7007],[34.9106,37.7136],[34.8597,37.7166],[34.8278,37.6802],[34.8326,37.6299],[34.8652,37.553],[34.8499,37.5106],[34.7946,37.4572],[34.7916,37.3877],[34.7215,37.4014],[34.5875,37.3533],[34.5122,37.352]]]}}
]}
