{
 "type": "FeatureCollection",
 "features": [
  {
   "type": "Feature",
   "properties": {
    "entityId": "former-qin",
    "from": 351,
    "to": 370,
    "certainty": "estimated",
    "source": "중고등학교 한국사 교과서 시대별 지도의 일반적인 경계를 따른 대략적인 추정. 운영자 검수 필요"
   },
   "geometry": {
    "type": "Polygon",
    "coordinates": [
     [
      [
       93,
       39.5
      ],
      [
       98,
       38.5
      ],
      [
       101.5,
       36.8
      ],
      [
       102.5,
       35.5
      ],
      [
       102.2,
       33
      ],
      [
       111,
       33
      ],
      [
       111,
       41
      ],
      [
       108.5,
       41.3
      ],
      [
       106.5,
       40.5
      ],
      [
       104.5,
       39
      ],
      [
       102.5,
       38
      ],
      [
       100,
       39.2
      ],
      [
       98,
       40.1
      ],
      [
       95,
       40.6
      ],
      [
       93,
       41
      ],
      [
       93,
       39.5
      ]
     ]
    ]
   }
  },
  {
   "type": "Feature",
   "properties": {
    "entityId": "former-qin",
    "from": 370,
    "to": 385,
    "certainty": "estimated",
    "source": "중고등학교 한국사 교과서 시대별 지도의 일반적인 경계를 따른 대략적인 추정. 운영자 검수 필요"
   },
   "geometry": {
    "type": "Polygon",
    "coordinates": [
     [
      [
       93,
       39.5
      ],
      [
       98,
       38.5
      ],
      [
       101.5,
       36.8
      ],
      [
       102.5,
       35.5
      ],
      [
       102.2,
       33
      ],
      [
       122.5833,
       33
      ],
      [
       122.5,
       33.5
      ],
      [
       123,
       37.2
      ],
      [
       121,
       38.3
      ],
      [
       120.5,
       39.5
      ],
      [
       121.9,
       40.5
      ],
      [
       120.9,
       39.2
      ],
      [
       121,
       38.5
      ],
      [
       122.5,
       38.6
      ],
      [
       123,
       39
      ],
      [
       124,
       39.6
      ],
      [
       124.4,
       40
      ],
      [
       125,
       40.8
      ],
      [
       125,
       41.8
      ],
      [
       124.3,
       42.6
      ],
      [
       123.7,
       43.2
      ],
      [
       122.9,
       42.2
      ],
      [
       122.5,
       41.5
      ],
      [
       121,
       42
      ],
      [
       118.5,
       41.5
      ],
      [
       116,
       41.2
      ],
      [
       113.5,
       41
      ],
      [
       111,
       41
      ],
      [
       108.5,
       41.3
      ],
      [
       106.5,
       40.5
      ],
      [
       104.5,
       39
      ],
      [
       102.5,
       38
      ],
      [
       100,
       39.2
      ],
      [
       98,
       40.1
      ],
      [
       95,
       40.6
      ],
      [
       93,
       41
      ],
      [
       93,
       39.5
      ]
     ]
    ]
   }
  }
 ]
}
