{"type":"FeatureCollection","features":[
{"type":"Feature","properties":{"entityId":"fr-yugoslavia","from":1992,"to":1999,"certainty":"estimated","source":"유럽 쪽은 Natural Earth 1:10m admin-1(v5.1.2) 현대 행정구역 조각을 그 시기 국경에 맞춰 묶고, 조각이 역사 경계와 다른 곳은 선을 그어 나눈 근사. 유럽 밖(시베리아·중앙아시아·극동)은 대략적인 추정. 운영자 검수 필요"},"geometry":{"type":"Polygon","coordinates":[[[20.1527,42.4934],[20.1355,42.5096],[20.0856,42.53],[20.065,42.5468],[20.0392,42.5578],[20.0177,42.5462],[19.9818,42.5108],[19.9563,42.5053],[19.9075,42.5064],[19.8733,42.4868],[19.8291,42.4687],[19.8014,42.4681],[19.7516,42.4934],[19.7343,42.5244],[19.7339,42.5626],[19.7469,42.5889],[19.7375,42.6244],[19.7221,42.6461],[19.6993,42.6548],[19.676,42.6467],[19.658,42.6346],[19.605,42.5848],[19.5937,42.5448],[19.5493,42.5086],[19.5178,42.458],[19.4817,42.4345],[19.4172,42.3741],[19.4004,42.3259],[19.3046,42.2151],[19.2834,42.198],[19.272,42.1807],[19.2978,42.1517],[19.355,42.12],[19.37,42.1065],[19.3749,42.0947],[19.3566,42.0648],[19.3506,42.0278],[19.3542,42.0087],[19.371,41.9866],[19.3658,41.9697],[19.3464,41.9615],[19.3529,41.9385],[19.3453,41.9103],[19.3649,41.889],[19.3651,41.8524],[19.3469,41.864],[19.3394,41.8702],[19.2679,41.9071],[19.2202,41.9189],[19.1703,41.938],[19.1623,41.9479],[19.1616,41.9553],[19.161,41.9555],[19.1075,42.0174],[19.0976,42.0289],[19.0539,42.0795],[19.0157,42.1237],[18.9811,42.1637],[18.9465,42.2038],[18.9133,42.2222],[18.9017,42.2375],[18.9001,42.2449],[18.8946,42.2495],[18.8332,42.2795],[18.8314,42.2775],[18.8256,42.2832],[18.8136,42.2891],[18.7887,42.276],[18.7786,42.2715],[18.7625,42.2912],[18.7295,42.3116],[18.7145,42.3253],[18.7141,42.3377],[18.6535,42.3674],[18.6532,42.3663],[18.6384,42.3703],[18.6167,42.3681],[18.5949,42.3837],[18.5706,42.393],[18.5781,42.4004],[18.553,42.4136],[18.5452,42.4236],[18.5476,42.4291],[18.5197,42.4332],[18.5103,42.4053],[18.4964,42.4163],[18.4929,42.4424],[18.4677,42.4534],[18.4443,42.4779],[18.4371,42.4934],[18.4364,42.5108],[18.442,42.543],[18.4374,42.5592],[18.459,42.5697],[18.4818,42.5637],[18.4959,42.5709],[18.4867,42.5898],[18.5068,42.5985],[18.5384,42.6183],[18.5428,42.6264],[18.55,42.6681],[18.5397,42.6955],[18.5022,42.7274],[18.4674,42.7692],[18.4437,42.8345],[18.4733,42.8626],[18.434,42.9369],[18.4528,42.9934],[18.483,43.0146],[18.539,43.0239],[18.639,43.0202],[18.6211,43.0964],[18.6211,43.1246],[18.6453,43.1802],[18.6884,43.2245],[18.6643,43.2332],[18.6795,43.2495],[18.8072,43.318],[18.8335,43.3242],[18.8212,43.3414],[18.8991,43.3519],[18.9573,43.3259],[18.9595,43.3035],[18.9895,43.272],[19.0029,43.2739],[19.0225,43.2965],[19.0697,43.3088],[19.0396,43.3507],[19.0099,43.411],[18.9683,43.4481],[18.9463,43.4439],[18.9512,43.4638],[18.9056,43.4906],[18.911,43.5073],[18.9775,43.5462],[19.0002,43.5479],[19.0381,43.511],[19.096,43.5129],[19.1228,43.5359],[19.1953,43.5328],[19.2175,43.5328],[19.2527,43.5886],[19.3009,43.5883],[19.3466,43.6088],[19.3805,43.5856],[19.4107,43.5408],[19.4318,43.5711],[19.4817,43.5608],[19.4756,43.6026],[19.4817,43.6289],[19.5074,43.6472],[19.5057,43.6736],[19.4617,43.7621],[19.3595,43.8422],[19.2754,43.9333],[19.241,43.9524],[19.238,43.9925],[19.2521,44.0075],[19.2873,44.013],[19.3646,43.9733],[19.4471,43.9798],[19.5041,43.9757],[19.5522,43.9834],[19.5934,44.0056],[19.6189,44.0357],[19.5989,44.0626],[19.5802,44.0515],[19.5162,44.0912],[19.4764,44.127],[19.4597,44.1527],[19.4426,44.1432],[19.3624,44.1912],[19.354,44.2243],[19.3243,44.264],[19.2959,44.2758],[19.2637,44.2702],[19.1772,44.287],[19.1389,44.3093],[19.1167,44.3437],[19.1072,44.3827],[19.1414,44.4308],[19.1434,44.4582],[19.1299,44.5183],[19.1796,44.5383],[19.1863,44.5693],[19.2557,44.6456],[19.2776,44.6849],[19.3084,44.7051],[19.3284,44.734],[19.3637,44.8546],[19.3766,44.863],[19.357,44.8959],[19.3102,44.9124],[19.2395,44.9151],[19.2019,44.9084],[19.1743,44.9254],[19.0846,44.879],[19.0158,44.8656],[18.9914,44.9149],[19.0184,44.9257],[19.0521,44.907],[19.0787,44.9109],[19.1317,44.9532],[19.1186,44.9756],[19.0981,44.97],[19.0852,44.9873],[19.0954,45.0209],[19.0823,45.0849],[19.0462,45.1284],[19.0601,45.1469],[19.1377,45.146],[19.1417,45.1622],[19.1219,45.1958],[19.1558,45.195],[19.1853,45.168],[19.2259,45.1619],[19.2678,45.1658],[19.2914,45.1777],[19.3043,45.1665],[19.3939,45.1716],[19.4078,45.2031],[19.3781,45.2296],[19.2898,45.2363],[19.1585,45.2762],[19.1041,45.2987],[19.083,45.3392],[19.0302,45.3451],[18.9775,45.3712],[18.9755,45.3911],[19.0226,45.4024],[19.0313,45.4162],[19.0023,45.4437],[18.9964,45.4738],[19.0179,45.4978],[19.0772,45.4916],[19.1063,45.5116],[19.0951,45.5261],[19.051,45.5389],[19.0181,45.5674],[18.9602,45.5391],[18.9417,45.5389],[18.9036,45.5731],[18.9124,45.6192],[18.9685,45.6687],[18.9627,45.6831],[18.9173,45.7066],[18.9002,45.7649],[18.8487,45.8096],[18.8553,45.8574],[18.8998,45.8614],[18.904,45.8757],[18.8729,45.8952],[18.907,45.9157],[18.9013,45.9312],[18.9818,45.9218],[18.9818,45.9508],[19.0056,45.9626],[19.0486,45.9634],[19.0497,45.9931],[19.0654,46.012],[19.111,46.013],[19.148,45.9841],[19.2357,45.9777],[19.2635,45.9814],[19.2983,46.0221],[19.3789,46.0337],[19.4047,46.0602],[19.4369,46.068],[19.473,46.0987],[19.4993,46.1086],[19.4875,46.1342],[19.5499,46.1642],[19.6478,46.1739],[19.7119,46.1587],[19.7905,46.1291],[19.8736,46.153],[19.9292,46.1635],[19.9931,46.1594],[20.035,46.143],[20.0634,46.1453],[20.0886,46.1541],[20.1148,46.1522],[20.1454,46.1371],[20.1885,46.1404],[20.2428,46.1081],[20.3057,46.0536],[20.3386,45.9928],[20.371,45.9678],[20.4291,45.9467],[20.4817,45.9127],[20.538,45.9037],[20.5721,45.8877],[20.6053,45.8461],[20.6297,45.8333],[20.6435,45.7951],[20.6881,45.7431],[20.7134,45.7333],[20.7652,45.7668],[20.7857,45.7526],[20.78,45.6717],[20.7544,45.6056],[20.758,45.5893],[20.8002,45.5305],[20.7976,45.5165],[20.7607,45.4933],[20.7671,45.4793],[20.816,45.4629],[20.863,45.4187],[20.9276,45.3775],[20.9662,45.3416],[21.0167,45.3215],[21.064,45.3063],[21.0916,45.2881],[21.1394,45.3037],[21.2061,45.2459],[21.2571,45.2241],[21.2993,45.2232],[21.4055,45.1997],[21.4594,45.174],[21.4844,45.1527],[21.4941,45.1193],[21.4424,45.0929],[21.4438,45.0729],[21.4219,45.0314],[21.3634,45.0165],[21.3535,44.9898],[21.3839,44.9867],[21.4084,44.9583],[21.4565,44.9523],[21.5163,44.9339],[21.5391,44.9085],[21.5221,44.8808],[21.4534,44.8696],[21.3953,44.8716],[21.3685,44.8649],[21.3428,44.8319],[21.3598,44.8267],[21.3959,44.7902],[21.4972,44.778],[21.5584,44.7817],[21.5956,44.766],[21.6197,44.7139],[21.6563,44.6877],[21.7052,44.6771],[21.7568,44.6773],[21.8554,44.6985],[22.0043,44.6515],[22.0342,44.5962],[22.0362,44.5895],[22.0452,44.5692],[22.0763,44.5507],[22.1043,44.5096],[22.1482,44.5009],[22.1851,44.5151],[22.3197,44.6853],[22.3807,44.7005],[22.4261,44.7337],[22.4837,44.724],[22.5533,44.6692],[22.6212,44.6374],[22.7001,44.6306],[22.7652,44.5828],[22.7417,44.5519],[22.7001,44.5418],[22.6212,44.5692],[22.5656,44.5554],[22.5567,44.5215],[22.5355,44.5075],[22.4841,44.4998],[22.477,44.464],[22.501,44.4419],[22.5051,44.4041],[22.5494,44.349],[22.5828,44.3284],[22.6815,44.3053],[22.6895,44.2917],[22.6916,44.2284],[22.6488,44.214],[22.6062,44.1746],[22.5991,44.1303],[22.6047,44.0794],[22.593,44.0639],[22.5342,44.0572],[22.5037,44.0199],[22.4659,44.0176],[22.4118,44.0069],[22.3996,43.9933],[22.3945,43.9363],[22.379,43.9135],[22.3771,43.8835],[22.3495,43.8079],[22.3626,43.7808],[22.3885,43.7583],[22.3905,43.7124],[22.4265,43.6682],[22.4559,43.6564],[22.4729,43.6359],[22.4814,43.6006],[22.4785,43.5592],[22.5189,43.4742],[22.5658,43.4533],[22.5868,43.4344],[22.6285,43.4283],[22.6589,43.4013],[22.7243,43.3861],[22.8045,43.329],[22.8332,43.2746],[22.8838,43.2306],[22.9155,43.2122],[22.9814,43.199],[22.9829,43.1873],[22.974,43.1412],[22.9353,43.0856],[22.8967,43.0627],[22.8842,43.0367],[22.8288,42.9934],[22.7764,42.9797],[22.7396,42.8989],[22.727,42.8869],[22.6662,42.8719],[22.5909,42.8869],[22.5448,42.8717],[22.506,42.8701],[22.4814,42.8467],[22.4304,42.8171],[22.4531,42.7636],[22.4814,42.7398],[22.4421,42.6817],[22.4413,42.6329],[22.4253,42.5729],[22.5249,42.5077],[22.5365,42.4784],[22.5088,42.4049],[22.4698,42.3917],[22.424,42.3259],[22.345,42.3134],[22.3076,42.3193],[22.2769,42.3412],[22.2733,42.3655],[22.2598,42.3691],[22.2334,42.3489],[22.1381,42.3191],[22.0955,42.3058],[22.0609,42.3011],[22.0454,42.3024],[21.995,42.3126],[21.9415,42.3331],[21.9183,42.3313],[21.8844,42.3095],[21.8172,42.3051],[21.7195,42.261],[21.6769,42.2349],[21.6247,42.2428],[21.575,42.242],[21.5641,42.2463],[21.5199,42.239],[21.4993,42.2387],[21.4815,42.2478],[21.472,42.2391],[21.4572,42.237],[21.4363,42.2469],[21.4199,42.2401],[21.4298,42.2158],[21.4191,42.215],[21.3843,42.2249],[21.3606,42.2201],[21.3538,42.216],[21.295,42.149],[21.3003,42.1209],[21.3008,42.0984],[21.2993,42.0914],[21.2889,42.0897],[21.2457,42.0962],[21.2293,42.1038],[21.1999,42.1412],[21.1644,42.167],[21.1264,42.1889],[21.0985,42.196],[21.0744,42.1845],[21.0409,42.16],[21.0292,42.1514],[21.0039,42.142],[20.9751,42.1347],[20.9042,42.1167],[20.8105,42.0929],[20.7849,42.082],[20.7654,42.0643],[20.7554,42.0428],[20.7431,41.9935],[20.7418,41.9708],[20.7514,41.9403],[20.7544,41.9309],[20.7511,41.9102],[20.74,41.888],[20.7233,41.8666],[20.7144,41.8592],[20.6815,41.844],[20.6528,41.8693],[20.637,41.8704],[20.6187,41.8505],[20.5903,41.8547],[20.5671,41.8732],[20.5625,41.9001],[20.5993,41.9479],[20.5897,41.9936],[20.5583,42.0551],[20.5522,42.0738],[20.5494,42.1235],[20.5386,42.1501],[20.5008,42.2112],[20.4737,42.2371],[20.457,42.2505],[20.3334,42.3179],[20.2496,42.3186],[20.2296,42.3267],[20.2212,42.3637],[20.1975,42.3874],[20.1997,42.4278],[20.1808,42.4431],[20.1527,42.4934]]]}},
{"type":"Feature","properties":{"entityId":"fr-yugoslavia","from":1999,"to":2003,"certainty":"estimated","source":"유럽 쪽은 Natural Earth 1:10m admin-1(v5.1.2) 현대 행정구역 조각을 그 시기 국경에 맞춰 묶고, 조각이 역사 경계와 다른 곳은 선을 그어 나눈 근사. 유럽 밖(시베리아·중앙아시아·극동)은 대략적인 추정. 운영자 검수 필요"},"geometry":{"type":"Polygon","coordinates":[[[19.2834,42.198],[19.272,42.1807],[19.2978,42.1517],[19.355,42.12],[19.37,42.1065],[19.3749,42.0947],[19.3566,42.0648],[19.3506,42.0278],[19.3542,42.0087],[19.371,41.9866],[19.3658,41.9697],[19.3464,41.9615],[19.3529,41.9385],[19.3453,41.9103],[19.3649,41.889],[19.3651,41.8524],[19.3469,41.864],[19.3394,41.8702],[19.2679,41.9071],[19.2202,41.9189],[19.1703,41.938],[19.1623,41.9479],[19.1616,41.9553],[19.161,41.9555],[19.1075,42.0174],[19.0976,42.0289],[19.0539,42.0795],[19.0157,42.1237],[18.9811,42.1637],[18.9465,42.2038],[18.9133,42.2222],[18.9017,42.2375],[18.9001,42.2449],[18.8946,42.2495],[18.8332,42.2795],[18.8314,42.2775],[18.8256,42.2832],[18.8136,42.2891],[18.7887,42.276],[18.7786,42.2715],[18.7625,42.2912],[18.7295,42.3116],[18.7145,42.3253],[18.7141,42.3377],[18.6535,42.3674],[18.6532,42.3663],[18.6384,42.3703],[18.6167,42.3681],[18.5949,42.3837],[18.5706,42.393],[18.5781,42.4004],[18.553,42.4136],[18.5452,42.4236],[18.5476,42.4291],[18.5197,42.4332],[18.5103,42.4053],[18.4964,42.4163],[18.4929,42.4424],[18.4677,42.4534],[18.4443,42.4779],[18.4371,42.4934],[18.4364,42.5108],[18.442,42.543],[18.4374,42.5592],[18.459,42.5697],[18.4818,42.5637],[18.4959,42.5709],[18.4867,42.5898],[18.5068,42.5985],[18.5384,42.6183],[18.5428,42.6264],[18.55,42.6681],[18.5397,42.6955],[18.5022,42.7274],[18.4674,42.7692],[18.4437,42.8345],[18.4733,42.8626],[18.434,42.9369],[18.4528,42.9934],[18.483,43.0146],[18.539,43.0239],[18.639,43.0202],[18.6211,43.0964],[18.6211,43.1246],[18.6453,43.1802],[18.6884,43.2245],[18.6643,43.2332],[18.6795,43.2495],[18.8072,43.318],[18.8335,43.3242],[18.8212,43.3414],[18.8991,43.3519],[18.9573,43.3259],[18.9595,43.3035],[18.9895,43.272],[19.0029,43.2739],[19.0225,43.2965],[19.0697,43.3088],[19.0396,43.3507],[19.0099,43.411],[18.9683,43.4481],[18.9463,43.4439],[18.9512,43.4638],[18.9056,43.4906],[18.911,43.5073],[18.9775,43.5462],[19.0002,43.5479],[19.0381,43.511],[19.096,43.5129],[19.1228,43.5359],[19.1953,43.5328],[19.2175,43.5328],[19.2527,43.5886],[19.3009,43.5883],[19.3466,43.6088],[19.3805,43.5856],[19.4107,43.5408],[19.4318,43.5711],[19.4817,43.5608],[19.4756,43.6026],[19.4817,43.6289],[19.5074,43.6472],[19.5057,43.6736],[19.4617,43.7621],[19.3595,43.8422],[19.2754,43.9333],[19.241,43.9524],[19.238,43.9925],[19.2521,44.0075],[19.2873,44.013],[19.3646,43.9733],[19.4471,43.9798],[19.5041,43.9757],[19.5522,43.9834],[19.5934,44.0056],[19.6189,44.0357],[19.5989,44.0626],[19.5802,44.0515],[19.5162,44.0912],[19.4764,44.127],[19.4597,44.1527],[19.4426,44.1432],[19.3624,44.1912],[19.354,44.2243],[19.3243,44.264],[19.2959,44.2758],[19.2637,44.2702],[19.1772,44.287],[19.1389,44.3093],[19.1167,44.3437],[19.1072,44.3827],[19.1414,44.4308],[19.1434,44.4582],[19.1299,44.5183],[19.1796,44.5383],[19.1863,44.5693],[19.2557,44.6456],[19.2776,44.6849],[19.3084,44.7051],[19.3284,44.734],[19.3637,44.8546],[19.3766,44.863],[19.357,44.8959],[19.3102,44.9124],[19.2395,44.9151],[19.2019,44.9084],[19.1743,44.9254],[19.0846,44.879],[19.0158,44.8656],[18.9914,44.9149],[19.0184,44.9257],[19.0521,44.907],[19.0787,44.9109],[19.1317,44.9532],[19.1186,44.9756],[19.0981,44.97],[19.0852,44.9873],[19.0954,45.0209],[19.0823,45.0849],[19.0462,45.1284],[19.0601,45.1469],[19.1377,45.146],[19.1417,45.1622],[19.1219,45.1958],[19.1558,45.195],[19.1853,45.168],[19.2259,45.1619],[19.2678,45.1658],[19.2914,45.1777],[19.3043,45.1665],[19.3939,45.1716],[19.4078,45.2031],[19.3781,45.2296],[19.2898,45.2363],[19.1585,45.2762],[19.1041,45.2987],[19.083,45.3392],[19.0302,45.3451],[18.9775,45.3712],[18.9755,45.3911],[19.0226,45.4024],[19.0313,45.4162],[19.0023,45.4437],[18.9964,45.4738],[19.0179,45.4978],[19.0772,45.4916],[19.1063,45.5116],[19.0951,45.5261],[19.051,45.5389],[19.0181,45.5674],[18.9602,45.5391],[18.9417,45.5389],[18.9036,45.5731],[18.9124,45.6192],[18.9685,45.6687],[18.9627,45.6831],[18.9173,45.7066],[18.9002,45.7649],[18.8487,45.8096],[18.8553,45.8574],[18.8998,45.8614],[18.904,45.8757],[18.8729,45.8952],[18.907,45.9157],[18.9013,45.9312],[18.9818,45.9218],[18.9818,45.9508],[19.0056,45.9626],[19.0486,45.9634],[19.0497,45.9931],[19.0654,46.012],[19.111,46.013],[19.148,45.9841],[19.2357,45.9777],[19.2635,45.9814],[19.2983,46.0221],[19.3789,46.0337],[19.4047,46.0602],[19.4369,46.068],[19.473,46.0987],[19.4993,46.1086],[19.4875,46.1342],[19.5499,46.1642],[19.6478,46.1739],[19.7119,46.1587],[19.7905,46.1291],[19.8736,46.153],[19.9292,46.1635],[19.9931,46.1594],[20.035,46.143],[20.0634,46.1453],[20.0886,46.1541],[20.1148,46.1522],[20.1454,46.1371],[20.1885,46.1404],[20.2428,46.1081],[20.3057,46.0536],[20.3386,45.9928],[20.371,45.9678],[20.4291,45.9467],[20.4817,45.9127],[20.538,45.9037],[20.5721,45.8877],[20.6053,45.8461],[20.6297,45.8333],[20.6435,45.7951],[20.6881,45.7431],[20.7134,45.7333],[20.7652,45.7668],[20.7857,45.7526],[20.78,45.6717],[20.7544,45.6056],[20.758,45.5893],[20.8002,45.5305],[20.7976,45.5165],[20.7607,45.4933],[20.7671,45.4793],[20.816,45.4629],[20.863,45.4187],[20.9276,45.3775],[20.9662,45.3416],[21.0167,45.3215],[21.064,45.3063],[21.0916,45.2881],[21.1394,45.3037],[21.2061,45.2459],[21.2571,45.2241],[21.2993,45.2232],[21.4055,45.1997],[21.4594,45.174],[21.4844,45.1527],[21.4941,45.1193],[21.4424,45.0929],[21.4438,45.0729],[21.4219,45.0314],[21.3634,45.0165],[21.3535,44.9898],[21.3839,44.9867],[21.4084,44.9583],[21.4565,44.9523],[21.5163,44.9339],[21.5391,44.9085],[21.5221,44.8808],[21.4534,44.8696],[21.3953,44.8716],[21.3685,44.8649],[21.3428,44.8319],[21.3598,44.8267],[21.3959,44.7902],[21.4972,44.778],[21.5584,44.7817],[21.5956,44.766],[21.6197,44.7139],[21.6563,44.6877],[21.7052,44.6771],[21.7568,44.6773],[21.8554,44.6985],[22.0043,44.6515],[22.0342,44.5962],[22.0362,44.5895],[22.0452,44.5692],[22.0763,44.5507],[22.1043,44.5096],[22.1482,44.5009],[22.1851,44.5151],[22.3197,44.6853],[22.3807,44.7005],[22.4261,44.7337],[22.4837,44.724],[22.5533,44.6692],[22.6212,44.6374],[22.7001,44.6306],[22.7652,44.5828],[22.7417,44.5519],[22.7001,44.5418],[22.6212,44.5692],[22.5656,44.5554],[22.5567,44.5215],[22.5355,44.5075],[22.4841,44.4998],[22.477,44.464],[22.501,44.4419],[22.5051,44.4041],[22.5494,44.349],[22.5828,44.3284],[22.6815,44.3053],[22.6895,44.2917],[22.6916,44.2284],[22.6488,44.214],[22.6062,44.1746],[22.5991,44.1303],[22.6047,44.0794],[22.593,44.0639],[22.5342,44.0572],[22.5037,44.0199],[22.4659,44.0176],[22.4118,44.0069],[22.3996,43.9933],[22.3945,43.9363],[22.379,43.9135],[22.3771,43.8835],[22.3495,43.8079],[22.3626,43.7808],[22.3885,43.7583],[22.3905,43.7124],[22.4265,43.6682],[22.4559,43.6564],[22.4729,43.6359],[22.4814,43.6006],[22.4785,43.5592],[22.5189,43.4742],[22.5658,43.4533],[22.5868,43.4344],[22.6285,43.4283],[22.6589,43.4013],[22.7243,43.3861],[22.8045,43.329],[22.8332,43.2746],[22.8838,43.2306],[22.9155,43.2122],[22.9814,43.199],[22.9829,43.1873],[22.974,43.1412],[22.9353,43.0856],[22.8967,43.0627],[22.8842,43.0367],[22.8288,42.9934],[22.7764,42.9797],[22.7396,42.8989],[22.727,42.8869],[22.6662,42.8719],[22.5909,42.8869],[22.5448,42.8717],[22.506,42.8701],[22.4814,42.8467],[22.4304,42.8171],[22.4531,42.7636],[22.4814,42.7398],[22.4421,42.6817],[22.4413,42.6329],[22.4253,42.5729],[22.5249,42.5077],[22.5365,42.4784],[22.5088,42.4049],[22.4698,42.3917],[22.424,42.3259],[22.345,42.3134],[22.3076,42.3193],[22.2769,42.3412],[22.2733,42.3655],[22.2598,42.3691],[22.2334,42.3489],[22.1381,42.3191],[22.0955,42.3058],[22.0609,42.3011],[22.0454,42.3024],[21.995,42.3126],[21.9415,42.3331],[21.9183,42.3313],[21.8844,42.3095],[21.8172,42.3051],[21.7195,42.261],[21.6769,42.2349],[21.6247,42.2428],[21.575,42.242],[21.5641,42.2463],[21.5539,42.274],[21.5149,42.3178],[21.516,42.3419],[21.5373,42.3586],[21.5966,42.3721],[21.6174,42.3866],[21.6219,42.4022],[21.619,42.4492],[21.6679,42.4901],[21.7177,42.5512],[21.7277,42.5741],[21.7202,42.5939],[21.7347,42.6242],[21.7671,42.6387],[21.7644,42.6696],[21.7443,42.6794],[21.6874,42.6868],[21.6441,42.6723],[21.6127,42.6804],[21.5652,42.7202],[21.4795,42.7323],[21.4055,42.7353],[21.3787,42.7441],[21.3871,42.755],[21.4083,42.8207],[21.4084,42.8417],[21.3989,42.8546],[21.3467,42.8608],[21.295,42.8844],[21.2605,42.8866],[21.2324,42.9109],[21.2253,42.9736],[21.2098,42.9959],[21.1931,42.9979],[21.1654,42.9851],[21.1393,43.0058],[21.124,43.0583],[21.1085,43.0816],[21.0926,43.0907],[21.0258,43.0934],[20.9934,43.1041],[20.9125,43.1388],[20.8386,43.1705],[20.84,43.2121],[20.8647,43.2173],[20.8384,43.2459],[20.8097,43.2596],[20.7695,43.2608],[20.7453,43.2529],[20.667,43.2097],[20.6123,43.2023],[20.5975,43.185],[20.6321,43.1173],[20.6692,43.1098],[20.6649,43.0854],[20.6438,43.0523],[20.6173,43.0221],[20.5964,43.0071],[20.5624,43.0095],[20.5305,42.9752],[20.4764,42.9664],[20.4595,42.95],[20.451,42.922],[20.4889,42.8992],[20.4944,42.8875],[20.4988,42.8779],[20.4763,42.8555],[20.428,42.8406],[20.3454,42.8274],[20.3192,42.8241],[20.2644,42.8173],[20.2261,42.8068],[20.2092,42.7917],[20.2084,42.7633],[20.1834,42.7425],[20.1495,42.7499],[20.1121,42.7665],[20.0763,42.7734],[20.0556,42.7639],[20.0265,42.7432],[20.0248,42.7234],[20.037,42.7074],[20.0942,42.667],[20.1039,42.6531],[20.0757,42.6031],[20.077,42.5599],[20.065,42.5468],[20.0392,42.5578],[20.0177,42.5462],[19.9818,42.5108],[19.9563,42.5053],[19.9075,42.5064],[19.8733,42.4868],[19.8291,42.4687],[19.8014,42.4681],[19.7516,42.4934],[19.7343,42.5244],[19.7339,42.5626],[19.7469,42.5889],[19.7375,42.6244],[19.7221,42.6461],[19.6993,42.6548],[19.676,42.6467],[19.658,42.6346],[19.605,42.5848],[19.5937,42.5448],[19.5493,42.5086],[19.5178,42.458],[19.4817,42.4345],[19.4172,42.3741],[19.4004,42.3259],[19.3046,42.2151],[19.2834,42.198]]]}}
]}
