{"type":"FeatureCollection","features":[
{"type":"Feature","properties":{"entityId":"france-italian-occupied","from":1942,"to":1943,"certainty":"estimated","source":"유럽 쪽은 Natural Earth 1:10m admin-1(v5.1.2) 현대 행정구역 조각을 그 시기 국경에 맞춰 묶고, 조각이 역사 경계와 다른 곳은 선을 그어 나눈 근사. 유럽 밖(시베리아·중앙아시아·극동)은 대략적인 추정. 운영자 검수 필요"},"geometry":{"type":"MultiPolygon","coordinates":[[[[4.6575,44.3268],[4.6578,44.2817],[4.6856,44.2403],[4.6881,44.2194],[4.7213,44.1902],[4.719,44.1247],[4.7295,44.0859],[4.7779,44.0843],[4.8444,44.0221],[4.8475,44.0022],[4.8209,44.0004],[4.822,43.9758],[4.8064,43.9529],[4.7728,43.9328],[4.9059,43.8955],[4.9685,43.8667],[5.0872,43.7868],[5.1926,43.7491],[5.2546,43.7493],[5.3366,43.7398],[5.4136,43.6952],[5.5309,43.6693],[5.5825,43.666],[5.6444,43.6949],[5.7109,43.7061],[5.7538,43.7321],[5.774,43.726],[5.8132,43.6891],[5.7908,43.6612],[5.7073,43.6435],[5.6809,43.6108],[5.682,43.5838],[5.7251,43.5514],[5.7107,43.498],[5.7134,43.4767],[5.7789,43.4101],[5.7057,43.4067],[5.6827,43.3991],[5.7009,43.3585],[5.691,43.313],[5.7203,43.3132],[5.761,43.2786],[5.7455,43.2622],[5.6919,43.2357],[5.6722,43.1804],[5.6752,43.1763],[5.6963,43.1469],[5.741,43.1321],[5.7515,43.1317],[5.8085,43.0984],[5.8089,43.0984],[5.817,43.0985],[5.7819,43.0791],[5.819,43.0535],[5.8566,43.0448],[5.8753,43.0688],[5.9403,43.0709],[5.9514,43.08],[5.9106,43.0932],[5.9038,43.0992],[5.9985,43.0999],[6.0165,43.0989],[6.027,43.0782],[6.0846,43.0824],[6.1145,43.0724],[6.1147,43.0725],[6.1149,43.0724],[6.1175,43.0733],[6.1321,43.0526],[6.0977,43.0313],[6.1801,43.0359],[6.1528,43.0481],[6.162,43.0887],[6.245,43.1174],[6.2804,43.1187],[6.3423,43.0908],[6.3754,43.0908],[6.3661,43.1186],[6.3785,43.1361],[6.4038,43.1455],[6.5285,43.1285],[6.5289,43.1285],[6.6061,43.1766],[6.6099,43.1734],[6.6798,43.2016],[6.6745,43.2192],[6.7673,43.2771],[6.9335,43.3806],[6.9373,43.383],[7.0118,43.4294],[7.049,43.4526],[7.0863,43.4758],[7.1073,43.4889],[7.2,43.5466],[7.2773,43.5948],[7.3624,43.6479],[7.4029,43.6731],[7.3624,43.6731],[7.3624,43.7192],[7.3658,43.7227],[7.3673,43.7341],[7.3727,43.7458],[7.3875,43.7579],[7.407,43.7635],[7.4262,43.7555],[7.4375,43.7434],[7.4474,43.7488],[7.4474,43.744],[7.4899,43.744],[7.4899,43.7033],[7.5324,43.7107],[7.5324,43.744],[7.515,43.744],[7.515,43.86],[7.4797,43.86],[7.5023,43.7922],[7.4779,43.8655],[7.4935,43.8862],[7.5569,43.9441],[7.6309,43.9935],[7.6348,44.0015],[7.62,44],[7.52,44.03],[7.43,44.08],[7.43,44.1331],[7.3808,44.1229],[7.3406,44.1237],[7.3093,44.1475],[7.2513,44.16],[7.145,44.2072],[7.0335,44.2429],[6.9961,44.2378],[6.9734,44.2494],[6.9592,44.2774],[6.9212,44.3022],[6.8784,44.3546],[6.8661,44.3721],[6.8772,44.4144],[6.9178,44.4363],[6.8613,44.4749],[6.8388,44.5029],[6.8464,44.5475],[6.8973,44.5754],[6.9456,44.6254],[6.9383,44.658],[6.9828,44.6922],[7.0552,44.6849],[7.0388,44.7121],[7.019,44.7389],[6.9984,44.7938],[7.0071,44.8221],[6.9828,44.847],[6.9327,44.8617],[6.866,44.8557],[6.7782,44.8876],[6.7279,44.9287],[6.7299,44.9847],[6.7235,45.0134],[6.6972,45.0269],[6.6622,45.0292],[6.6397,45.0504],[6.6366,45.0745],[6.6027,45.1035],[6.6294,45.1235],[6.6674,45.1396],[6.6944,45.1403],[6.7364,45.1573],[6.7715,45.1532],[6.8441,45.1301],[6.8767,45.1412],[6.8813,45.1684],[6.9138,45.1702],[6.9587,45.2098],[7.0297,45.2282],[7.0502,45.215],[7.1084,45.2592],[7.0926,45.324],[7.1301,45.3571],[7.1607,45.4109],[7.0968,45.4354],[7.0754,45.4663],[6.9828,45.5111],[6.9698,45.567],[6.9549,45.5862],[6.9695,45.6258],[6.9634,45.6407],[6.9186,45.6526],[6.8826,45.6755],[6.8431,45.6827],[6.7959,45.7181],[6.7839,45.765],[6.7827,45.7953],[6.8008,45.8265],[6.8434,45.8386],[6.8707,45.8283],[6.8735,45.8448],[6.9051,45.8454],[6.9692,45.8698],[6.9972,45.9113],[7.0221,45.9253],[6.9828,45.9954],[6.9151,46.0486],[6.8924,46.0556],[6.8509,46.0496],[6.8513,46.086],[6.8692,46.1123],[6.8539,46.1226],[6.7743,46.1348],[6.7657,46.1516],[6.7922,46.2217],[6.8277,46.2695],[6.7504,46.3455],[6.7821,46.3785],[6.7881,46.405],[6.7627,46.4293],[6.6137,46.4559],[6.547,46.4574],[6.4829,46.4486],[6.3977,46.4082],[6.3016,46.3945],[6.2691,46.375],[6.2195,46.3291],[6.2166,46.3095],[6.2376,46.2679],[6.2523,46.2599],[6.276,46.2631],[6.2812,46.2401],[6.2554,46.2211],[6.1914,46.1917],[6.1403,46.1502],[6.1079,46.1386],[6.0739,46.1492],[6.0283,46.1479],[5.9829,46.1404],[5.9588,46.1305],[5.9055,46.1226],[5.8716,46.0933],[5.8459,46.111],[5.8252,46.0953],[5.8242,46.0502],[5.8404,45.9388],[5.8319,45.8982],[5.7841,45.7973],[5.7752,45.749],[5.7517,45.715],[5.6941,45.6871],[5.6605,45.6571],[5.6199,45.6437],[5.6005,45.6556],[5.547,45.7196],[5.4777,45.7641],[5.4502,45.793],[5.4302,45.8443],[5.369,45.88],[5.3335,45.868],[5.2729,45.7998],[5.2392,45.7857],[5.1338,45.8227],[5.1024,45.8262],[5.0713,45.778],[5.0826,45.7504],[5.1458,45.725],[5.1545,45.7003],[5.1031,45.6901],[5.057,45.6602],[5.0348,45.6222],[5.0143,45.6124],[4.8197,45.6004],[4.8024,45.593],[4.87,45.5497],[4.8547,45.515],[4.7864,45.4731],[4.76,45.4445],[4.7554,45.4021],[4.7698,45.3657],[4.7759,45.3372],[4.8114,45.2963],[4.8141,45.1974],[4.8273,45.1579],[4.8228,45.1112],[4.8447,45.101],[4.8584,45.0656],[4.851,45.0215],[4.8926,44.9495],[4.8686,44.8848],[4.8306,44.8509],[4.8283,44.837],[4.7776,44.7954],[4.769,44.7547],[4.7964,44.6964],[4.7895,44.6585],[4.74,44.6063],[4.7213,44.5734],[4.7034,44.4747],[4.677,44.4372],[4.6575,44.3268]]],[[[8.5445,42.2568],[8.5771,42.1613],[8.5691,42.155],[8.5863,42.1335],[8.5867,42.1335],[8.6384,41.9822],[8.6317,41.9754],[8.5863,41.969],[8.6144,41.9441],[8.6143,41.9008],[8.6633,41.9094],[8.7118,41.7675],[8.7092,41.7636],[8.6551,41.7499],[8.703,41.7425],[8.6956,41.7294],[8.7235,41.7335],[8.7749,41.5832],[8.7949,41.5742],[8.7918,41.5612],[8.8533,41.5439],[8.8396,41.5308],[8.8737,41.5234],[8.9357,41.4892],[8.9785,41.4852],[9.0017,41.477],[9.1113,41.4221],[9.0964,41.4035],[9.1691,41.3862],[9.1939,41.3691],[9.2232,41.3725],[9.2272,41.3806],[9.2285,41.38],[9.2286,41.3802],[9.2289,41.38],[9.2431,41.4132],[9.2503,41.4278],[9.2492,41.4272],[9.2661,41.4666],[9.2708,41.4687],[9.2791,41.4916],[9.2774,41.493],[9.3016,41.5494],[9.3411,41.5693],[9.3451,41.6045],[9.3229,41.5991],[9.3325,41.6214],[9.3467,41.6196],[9.3452,41.6403],[9.3731,41.6452],[9.3675,41.6719],[9.3729,41.6784],[9.3738,41.6805],[9.4016,41.7064],[9.403,41.7797],[9.4025,41.7848],[9.4195,41.8243],[9.4365,41.8639],[9.4704,41.943],[9.5384,42.1013],[9.5527,42.113],[9.5596,42.1466],[9.5589,42.149],[9.5601,42.1519],[9.56,42.1522],[9.5601,42.1523],[9.5554,42.176],[9.5539,42.1969],[9.5596,42.2946],[9.5432,42.342],[9.5387,42.4028],[9.5459,42.4351],[9.535,42.4536],[9.5331,42.4788],[9.5322,42.5444],[9.5186,42.581],[9.4896,42.6126],[9.4978,42.5953],[9.4737,42.6162],[9.464,42.6396],[9.4577,42.6712],[9.478,42.7886],[9.4828,42.8023],[9.4844,42.8324],[9.4655,42.9235],[9.4701,42.9423],[9.4603,42.9553],[9.4629,42.9804],[9.4629,42.9808],[9.4611,42.9824],[9.464,42.9901],[9.4224,43.0174],[9.4219,43.0173],[9.4161,43.0225],[9.4157,43.0225],[9.3617,43.0173],[9.3561,43.0047],[9.3418,42.9907],[9.3441,42.9829],[8.7461,42.6279],[8.6861,42.5177],[8.6675,42.5097],[8.6597,42.4771],[8.6635,42.4761],[8.6358,42.4252],[8.6307,42.421],[8.6187,42.4196],[8.6075,42.4018],[8.5877,42.3854],[8.5877,42.3853],[8.5705,42.3818],[8.5521,42.3867],[8.5596,42.3464],[8.583,42.349],[8.5913,42.345],[8.5922,42.345],[8.5445,42.2572],[8.5446,42.257],[8.5445,42.2568]]]]}}
]}
