{"type":"FeatureCollection","features":[
{"type":"Feature","properties":{"entityId":"france","from":1815,"to":1860,"certainty":"estimated","source":"유럽 쪽은 Natural Earth 1:10m admin-1(v5.1.2) 현대 행정구역 조각을 그 시기 국경에 맞춰 묶고, 조각이 역사 경계와 다른 곳은 선을 그어 나눈 근사. 유럽 밖(시베리아·중앙아시아·극동)은 대략적인 추정. 운영자 검수 필요"},"geometry":{"type":"MultiPolygon","coordinates":[[[[-4.7834,48.3764],[-4.755,48.342],[-4.7045,48.3416],[-4.6908,48.3623],[-4.6876,48.3621],[-4.6189,48.3485],[-4.5476,48.3629],[-4.5445,48.3402],[-4.5595,48.3387],[-4.575,48.2907],[-4.5767,48.2899],[-4.6263,48.2871],[-4.6263,48.2665],[-4.5573,48.263],[-4.5547,48.2596],[-4.5612,48.225],[-4.5438,48.2051],[-4.5575,48.1772],[-4.5316,48.1831],[-4.5241,48.1928],[-4.5109,48.0973],[-4.5128,48.0968],[-4.628,48.0864],[-4.6417,48.0736],[-4.6837,48.0673],[-4.6974,48.0749],[-4.7281,48.0406],[-4.653,48.0263],[-4.6321,48.026],[-4.5804,48.0114],[-4.572,48.0059],[-4.5681,48.008],[-4.4957,47.9875],[-4.4912,47.9556],[-4.4078,47.9345],[-4.376,47.8777],[-4.3474,47.8532],[-4.3476,47.8383],[-4.3734,47.8287],[-4.3718,47.8072],[-4.2252,47.8024],[-4.1852,47.8134],[-4.1696,47.8235],[-4.0697,47.8482],[-4.0648,47.8478],[-3.6498,47.7429],[-3.5824,47.7258],[-3.5487,47.7173],[-3.5151,47.7088],[-3.3805,47.6748],[-3.1642,47.6201],[-3.1412,47.598],[-3.1339,47.5439],[-3.1438,47.507],[-3.1317,47.4782],[-3.0845,47.4782],[-3.1233,47.519],[-3.1289,47.5476],[-3.112,47.5992],[-3.0738,47.5765],[-3.0424,47.5881],[-3.0034,47.5787],[-3.003,47.5794],[-2.9648,47.5697],[-2.8435,47.4865],[-2.7637,47.4318],[-2.7238,47.4045],[-2.684,47.3772],[-2.6458,47.351],[-2.365,47.1585],[-2.3168,47.1254],[-2.2491,47.079],[-2.2382,47.0715],[-2.2268,47.0637],[-2.2098,47.0464],[-2.2079,47.0445],[-2.1814,47.0175],[-2.1532,46.9889],[-2.1137,46.9487],[-2.098,46.9328],[-2.1022,46.9307],[-2.0963,46.9165],[-2.122,46.9037],[-2.1313,46.8718],[-2.1188,46.82],[-2.0503,46.7921],[-2.0022,46.7575],[-1.9921,46.7485],[-1.965,46.7104],[-1.9398,46.7019],[-1.9208,46.685],[-1.8213,46.558],[-1.8048,46.5036],[-1.7817,46.4954],[-1.7854,46.514],[-1.7742,46.5093],[-1.7684,46.5002],[-1.6868,46.4609],[-1.6459,46.4558],[-1.6321,46.4501],[-1.6256,46.4311],[-1.5988,46.425],[-1.598,46.425],[-1.5344,46.3603],[-1.5025,46.3279],[-1.4706,46.2956],[-1.4421,46.2666],[-1.4136,46.2377],[-1.4905,46.2244],[-1.508,46.2456],[-1.4739,46.2381],[-1.4679,46.2499],[-1.4981,46.2619],[-1.5558,46.2518],[-1.5043,46.2077],[-1.4329,46.2108],[-1.3506,46.1737],[-1.3432,46.1662],[-1.2496,46.0712],[-1.1936,46.0143],[-1.2021,45.9262],[-1.2198,45.9431],[-1.2194,45.9439],[-1.2336,45.9917],[-1.2738,45.9976],[-1.3399,46.0378],[-1.3829,46.048],[-1.3876,46.0501],[-1.3876,46.0499],[-1.388,46.0501],[-1.388,46.0492],[-1.4049,46.0532],[-1.3833,46.0155],[-1.375,45.9858],[-1.3783,45.976],[-1.3402,45.9387],[-1.2778,45.8942],[-1.2457,45.8546],[-1.2269,45.8198],[-1.2127,45.8153],[-1.2147,45.7949],[-1.2303,45.7924],[-1.2473,45.7099],[-1.2228,45.71],[-1.23,45.6345],[-1.2337,45.5966],[-1.2373,45.5588],[-1.2518,45.4074],[-1.2808,45.1045],[-1.3388,44.4988],[-1.3458,44.4252],[-1.3529,44.3516],[-1.367,44.2044],[-1.3844,44.0225],[-1.4818,43.9099],[-1.6848,43.6753],[-1.7231,43.6311],[-1.7997,43.5425],[-1.7614,43.5425],[-1.7614,43.4982],[-1.762,43.4982],[-1.762,43.4067],[-1.8006,43.4067],[-1.8006,43.3894],[-1.7941,43.386],[-1.7969,43.3411],[-1.7682,43.3309],[-1.7497,43.2948],[-1.6739,43.3042],[-1.645,43.2924],[-1.639,43.2557],[-1.5876,43.2516],[-1.559,43.2841],[-1.5081,43.2768],[-1.4664,43.2608],[-1.4322,43.265],[-1.4035,43.2433],[-1.3997,43.2067],[-1.4258,43.1353],[-1.4878,43.0818],[-1.4753,43.0601],[-1.435,43.0357],[-1.3831,43.0292],[-1.3576,43.0468],[-1.3483,43.0931],[-1.3086,43.1136],[-1.3106,43.0695],[-1.2749,43.0468],[-1.2169,43.0393],[-1.1499,43.0057],[-1.1124,43.0083],[-1.0797,42.9934],[-1.0285,42.9867],[-0.9815,42.957],[-0.9432,42.9479],[-0.8635,42.9431],[-0.7864,42.9533],[-0.7597,42.9465],[-0.745,42.9187],[-0.7459,42.8939],[-0.7301,42.8775],[-0.7004,42.8764],[-0.6483,42.8498],[-0.6095,42.8114],[-0.5829,42.7958],[-0.5787,42.7773],[-0.5356,42.7842],[-0.5339,42.808],[-0.5084,42.8075],[-0.4545,42.7889],[-0.4239,42.7907],[-0.3228,42.8425],[-0.3051,42.8308],[-0.247,42.8048],[-0.2351,42.7862],[-0.2084,42.7839],[-0.1614,42.7953],[-0.1636,42.778],[-0.119,42.7169],[-0.0389,42.6851],[-0.0043,42.6875],[0.0728,42.7085],[0.1342,42.7152],[0.1692,42.7265],[0.2384,42.7104],[0.2754,42.6687],[0.2902,42.6703],[0.336,42.7127],[0.3542,42.7175],[0.3893,42.6851],[0.4669,42.6904],[0.4835,42.6853],[0.6082,42.688],[0.6436,42.6845],[0.6634,42.6962],[0.6665,42.7148],[0.6335,42.7448],[0.6537,42.8027],[0.6563,42.8384],[0.7243,42.8453],[0.7763,42.8325],[0.8129,42.8316],[0.8561,42.8128],[0.9211,42.7844],[0.9587,42.7937],[0.9829,42.7804],[1.0682,42.7761],[1.1067,42.7596],[1.1343,42.716],[1.1625,42.7057],[1.1959,42.7136],[1.3191,42.7134],[1.3611,42.6867],[1.398,42.6436],[1.4293,42.5954],[1.4514,42.6021],[1.4668,42.6415],[1.4984,42.6402],[1.5278,42.6485],[1.5431,42.6494],[1.5973,42.6219],[1.6083,42.6181],[1.722,42.6099],[1.7133,42.5895],[1.7294,42.582],[1.7527,42.5767],[1.7611,42.5676],[1.7651,42.5634],[1.74,42.5616],[1.7217,42.5485],[1.7171,42.5399],[1.7106,42.5277],[1.707,42.5028],[1.7122,42.4937],[1.7927,42.4817],[1.8698,42.4468],[1.9275,42.4369],[1.9637,42.3672],[1.9957,42.3487],[2.0517,42.3524],[2.104,42.3848],[2.137,42.4162],[2.1842,42.4118],[2.2774,42.4286],[2.3755,42.3893],[2.4225,42.3837],[2.4649,42.3406],[2.5253,42.3259],[2.5481,42.3522],[2.6134,42.341],[2.6622,42.339],[2.6403,42.3728],[2.6904,42.4062],[2.7285,42.414],[2.7886,42.412],[2.8508,42.4484],[2.9008,42.4513],[2.9337,42.4702],[2.9661,42.461],[2.9831,42.4693],[3.0296,42.4657],[3.0656,42.432],[3.1117,42.425],[3.181,42.4315],[3.1801,42.4358],[3.2108,42.4358],[3.1988,42.4617],[3.1911,42.471],[3.0908,42.5919],[3.087,42.6117],[3.0604,42.7524],[3.0502,42.806],[3.0535,42.8228],[3.0602,42.858],[3.0669,42.8931],[3.0789,42.9558],[3.1628,43.0811],[3.1703,43.0896],[3.1721,43.09],[3.1851,43.0929],[3.2652,43.1108],[3.3053,43.1198],[3.3453,43.1287],[3.4254,43.1466],[3.8117,43.233],[3.9569,43.2654],[4.0052,43.2762],[4.102,43.2978],[4.1503,43.3086],[4.1987,43.3194],[4.2471,43.3303],[4.2955,43.3411],[4.3922,43.3627],[4.5558,43.3993],[4.5808,43.3958],[4.5663,43.3711],[4.5923,43.3599],[4.6659,43.3475],[4.8203,43.3464],[4.8224,43.3626],[4.846,43.3594],[4.8558,43.3418],[4.8792,43.3548],[5.0519,43.3311],[5.0648,43.328],[5.0748,43.328],[5.3541,43.2897],[5.3573,43.2803],[5.3692,43.2704],[5.347,43.2159],[5.4398,43.2076],[5.5174,43.2074],[5.542,43.2028],[5.5727,43.1691],[5.6124,43.1604],[5.6329,43.1856],[5.6717,43.1783],[5.6752,43.1763],[5.6963,43.1469],[5.741,43.1321],[5.7515,43.1317],[5.8085,43.0984],[5.8089,43.0984],[5.817,43.0985],[5.7819,43.0791],[5.819,43.0535],[5.8566,43.0448],[5.8753,43.0688],[5.9403,43.0709],[5.9514,43.08],[5.9106,43.0932],[5.9038,43.0992],[5.9985,43.0999],[6.0165,43.0989],[6.027,43.0782],[6.0846,43.0824],[6.1145,43.0724],[6.1147,43.0725],[6.1149,43.0724],[6.1175,43.0733],[6.1321,43.0526],[6.0977,43.0313],[6.1801,43.0359],[6.1528,43.0481],[6.162,43.0887],[6.245,43.1174],[6.2804,43.1187],[6.3423,43.0908],[6.3754,43.0908],[6.3661,43.1186],[6.3785,43.1361],[6.4038,43.1455],[6.5285,43.1285],[6.5289,43.1285],[6.6061,43.1766],[6.6099,43.1734],[6.6798,43.2016],[6.6745,43.2192],[6.7673,43.2771],[6.9335,43.3806],[6.9373,43.383],[7.0118,43.4294],[7.049,43.4526],[7.0863,43.4758],[7.1073,43.4889],[7.2,43.5466],[7.2,43.64],[7.19,43.76],[7.17,43.83],[6.98,43.86],[6.9115,43.8943],[6.9423,43.8972],[6.9155,43.9212],[6.8582,43.9555],[6.8187,44.0067],[6.7576,44.0373],[6.7454,44.0998],[6.695,44.1531],[6.7023,44.1885],[6.7308,44.2459],[6.799,44.3184],[6.8784,44.3546],[6.8661,44.3721],[6.8772,44.4144],[6.9178,44.4363],[6.8613,44.4749],[6.8388,44.5029],[6.8464,44.5475],[6.8973,44.5754],[6.9456,44.6254],[6.9383,44.658],[6.9828,44.6922],[7.0552,44.6849],[7.0388,44.7121],[7.019,44.7389],[6.9984,44.7938],[7.0071,44.8221],[6.9828,44.847],[6.9327,44.8617],[6.866,44.8557],[6.7782,44.8876],[6.7279,44.9287],[6.7299,44.9847],[6.7235,45.0134],[6.6972,45.0269],[6.6622,45.0292],[6.6397,45.0504],[6.6366,45.0745],[6.6027,45.1035],[6.6294,45.1235],[6.5978,45.121],[6.5609,45.1048],[6.52,45.104],[6.4955,45.0708],[6.4594,45.0536],[6.3937,45.0704],[6.3571,45.1078],[6.2828,45.1153],[6.2664,45.1248],[6.2566,45.143],[6.1699,45.1523],[6.156,45.1617],[6.154,45.1931],[6.1309,45.2612],[6.1443,45.2984],[6.1895,45.3299],[6.1875,45.3776],[6.1254,45.4351],[6.045,45.4435],[5.9839,45.4833],[5.9482,45.4895],[5.9153,45.4765],[5.9108,45.3942],[5.7562,45.4393],[5.7411,45.4509],[5.6237,45.6133],[5.6005,45.6556],[5.6199,45.6437],[5.6605,45.6571],[5.6941,45.6871],[5.7517,45.715],[5.7752,45.749],[5.7841,45.7973],[5.8319,45.8982],[5.8404,45.9388],[5.8242,46.0502],[5.8252,46.0953],[5.8459,46.111],[5.8716,46.0933],[5.9055,46.1226],[5.9588,46.1305],[5.9829,46.1708],[5.9548,46.1999],[5.9585,46.212],[5.9829,46.2227],[6.0429,46.2431],[6.0677,46.2416],[6.0897,46.2464],[6.1007,46.3014],[6.1186,46.3318],[6.1351,46.3704],[6.1082,46.3965],[6.059,46.4174],[6.0642,46.4711],[6.1457,46.5516],[6.138,46.5576],[6.1184,46.5835],[6.1319,46.5956],[6.2663,46.6804],[6.3379,46.7074],[6.3742,46.7336],[6.4292,46.7608],[6.4326,46.786],[6.4186,46.807],[6.4431,46.8515],[6.4484,46.8716],[6.4278,46.9091],[6.4426,46.9442],[6.4911,46.9634],[6.5987,46.9865],[6.6654,47.0213],[6.6883,47.0438],[6.6763,47.0624],[6.6991,47.0846],[6.746,47.1039],[6.7448,47.1211],[6.7748,47.1282],[6.8381,47.1681],[6.8883,47.2113],[6.9562,47.2452],[6.9586,47.2906],[7.0443,47.3405],[7.004,47.3681],[6.9856,47.3621],[6.8666,47.3542],[6.8988,47.3957],[6.9245,47.406],[6.9392,47.4268],[6.991,47.4522],[6.9733,47.4891],[7.0008,47.4977],[7.0539,47.4904],[7.1037,47.4963],[7.1422,47.4877],[7.1808,47.4883],[7.1626,47.4599],[7.1683,47.4436],[7.2448,47.4177],[7.2826,47.4289],[7.3369,47.4319],[7.3882,47.4333],[7.4206,47.4509],[7.4276,47.4707],[7.4144,47.484],[7.426,47.4925],[7.446,47.4869],[7.4674,47.4819],[7.4858,47.4988],[7.4769,47.5149],[7.5011,47.5173],[7.5052,47.533],[7.4827,47.5423],[7.5209,47.5634],[7.5263,47.5665],[7.5503,47.5755],[7.5855,47.5845],[7.586,47.5846],[7.5903,47.6079],[7.5501,47.6524],[7.5218,47.6704],[7.5119,47.7073],[7.5378,47.7318],[7.5259,47.7832],[7.5429,47.8294],[7.562,47.8392],[7.5579,47.8785],[7.5808,47.9108],[7.5849,47.9404],[7.6211,47.9714],[7.6189,48.0027],[7.5757,48.0537],[7.5726,48.095],[7.582,48.1214],[7.6134,48.1792],[7.6766,48.2384],[7.6935,48.2699],[7.7025,48.3112],[7.737,48.3267],[7.752,48.3553],[7.7383,48.4066],[7.7765,48.4982],[7.8135,48.5195],[7.8017,48.5476],[7.8103,48.615],[7.8524,48.6587],[7.8806,48.6677],[7.9592,48.7214],[7.9701,48.7573],[8.023,48.7651],[8.0273,48.78],[8.0842,48.8041],[8.1027,48.8213],[8.1481,48.9037],[8.1999,48.9583],[8.1887,48.9657],[8.0904,48.9792],[7.9319,49.0348],[7.8569,49.0323],[7.7737,49.0481],[7.7269,49.0357],[7.6851,49.0428],[7.6449,49.0363],[7.6086,49.062],[7.5209,49.0837],[7.471,49.1283],[7.4761,49.1515],[7.4148,49.1578],[7.4105,49.1689],[7.3716,49.1662],[7.3265,49.1318],[7.2971,49.1281],[7.2681,49.1056],[7.2412,49.1139],[7.155,49.1144],[7.0853,49.1415],[7.0732,49.1203],[7.0425,49.1076],[7.0205,49.119],[7.009,49.1464],[7.0095,49.1817],[6.9879,49.1824],[6.9254,49.2056],[6.8435,49.2111],[6.8277,49.1956],[6.839,49.1628],[6.8091,49.1458],[6.7701,49.1553],[6.7256,49.1556],[6.701,49.1729],[6.7025,49.2136],[6.6806,49.2075],[6.6638,49.2439],[6.6397,49.2712],[6.5732,49.3131],[6.5501,49.338],[6.5743,49.3618],[6.5257,49.3955],[6.4945,49.4355],[6.4027,49.4655],[6.3453,49.4553],[6.2988,49.4662],[6.2511,49.4895],[6.1936,49.4994],[6.1361,49.4953],[6.0998,49.4646],[6.0633,49.4485],[5.9607,49.4413],[5.9281,49.4823],[5.8647,49.4922],[5.8221,49.5105],[5.7907,49.5378],[5.7571,49.5484],[5.7103,49.5311],[5.6446,49.5438],[5.6023,49.5137],[5.5476,49.5234],[5.4777,49.4952],[5.4499,49.5078],[5.4502,49.5458],[5.3912,49.6088],[5.3349,49.6258],[5.2979,49.6133],[5.2994,49.6625],[5.2592,49.6913],[5.1925,49.6828],[5.1364,49.7053],[5.0819,49.7527],[5.0263,49.7667],[4.9684,49.797],[4.8842,49.7841],[4.849,49.7942],[4.8492,49.8316],[4.8369,49.848],[4.8594,49.8917],[4.8446,49.9317],[4.7973,49.9443],[4.7883,49.9743],[4.8267,50.036],[4.8272,50.0641],[4.846,50.0907],[4.8629,50.0841],[4.8719,50.1398],[4.8201,50.1464],[4.8156,50.1613],[4.7886,50.1534],[4.6819,50.0839],[4.6729,50.0164],[4.6567,49.9891],[4.6042,49.9802],[4.4648,49.9356],[4.4277,49.9336],[4.2776,49.9602],[4.2159,49.9544],[4.1877,49.9555],[4.1317,49.975],[4.1373,50.0251],[4.21,50.0602],[4.1806,50.1272],[4.1258,50.1282],[4.1573,50.2127],[4.2037,50.252],[4.1628,50.273],[4.1437,50.2516],[4.1253,50.2571],[4.0979,50.2948],[4.0227,50.3381],[3.9821,50.3426],[3.8959,50.3253],[3.8402,50.3452],[3.7987,50.3485],[3.7415,50.3431],[3.6969,50.2982],[3.6617,50.3193],[3.6529,50.3602],[3.6444,50.4455],[3.6083,50.4765],[3.5637,50.4865],[3.4991,50.4868],[3.4915,50.5171],[3.4629,50.5191],[3.4292,50.5018],[3.3854,50.4916],[3.3436,50.4929],[3.2999,50.5075],[3.271,50.5269],[3.2643,50.5702],[3.2298,50.6554],[3.2438,50.6721],[3.2244,50.7052],[3.1969,50.7092],[3.1628,50.7499],[3.1292,50.7791],[3.1033,50.7841],[3.0238,50.7683],[2.9714,50.7578],[2.9302,50.7362],[2.9001,50.7031],[2.8667,50.7001],[2.7682,50.7332],[2.7438,50.7662],[2.7066,50.7888],[2.6919,50.8088],[2.6204,50.8165],[2.59,50.842],[2.5967,50.8676],[2.5769,50.9115],[2.6117,50.9412],[2.6085,50.9611],[2.557,51.0012],[2.537,51.0646],[2.5218,51.0875],[2.5226,51.0877],[2.5226,51.1502],[2.5144,51.1482],[2.4793,51.1401],[2.1333,51.0605],[2.0901,51.0505],[2.0468,51.0405],[1.9603,51.0206],[1.6396,50.9468],[1.6143,50.8782],[1.5806,50.8688],[1.5946,50.8248],[1.512,50.6011],[1.4707,50.4893],[1.4501,50.4334],[1.4398,50.4055],[1.4294,50.3775],[1.3696,50.2153],[1.3489,50.1593],[1.3372,50.1276],[1.2877,50.111],[1.268,50.1044],[1.1871,50.0772],[1.0252,50.0229],[0.0541,49.6971],[-0.1077,49.6428],[-0.1887,49.6156],[-0.2696,49.5885],[-0.31,49.5749],[-0.3505,49.5613],[-0.4314,49.5342],[-0.5933,49.4799],[-0.887,49.3813],[-0.9169,49.3864],[-0.9404,49.3923],[-0.9543,49.3928],[-0.9592,49.3936],[-0.9596,49.3936],[-0.9698,49.3933],[-1.0723,49.3968],[-1.084,49.3909],[-1.158,49.4245],[-1.1847,49.4366],[-1.1932,49.4457],[-1.212,49.4688],[-1.2328,49.4943],[-1.263,49.5914],[-1.2533,49.6123],[-1.2278,49.6241],[-1.2322,49.6414],[-1.258,49.6792],[-1.258,49.68],[-1.2587,49.6802],[-1.2711,49.6984],[-1.3913,49.7127],[-1.4557,49.7022],[-1.4752,49.6884],[-1.5894,49.6679],[-1.7044,49.6818],[-1.7249,49.682],[-1.7251,49.682],[-1.9348,49.7772],[-1.9347,49.777],[-1.9352,49.7772],[-1.9351,49.7767],[-1.9352,49.7768],[-1.9208,49.7253],[-1.9352,49.7241],[-1.9456,49.678],[-1.9051,49.6693],[-1.8704,49.5452],[-1.8847,49.5309],[-1.8602,49.5086],[-1.7352,49.0619],[-1.6727,48.8386],[-1.6415,48.727],[-1.6266,48.6738],[-1.6185,48.645],[-1.6404,48.6483],[-1.6719,48.6532],[-1.735,48.6628],[-1.8466,48.68],[-1.8363,48.6911],[-1.8437,48.7121],[-1.9484,48.6956],[-2.022,48.7069],[-2.0588,48.7125],[-2.0956,48.7182],[-2.2427,48.7407],[-2.537,48.7859],[-3.0915,48.8709],[-3.0915,48.8713],[-3.0928,48.8711],[-3.2956,48.9022],[-3.296,48.9022],[-3.4676,48.8733],[-3.655,48.8417],[-3.7018,48.8338],[-3.7487,48.8259],[-3.8424,48.8101],[-4.592,48.6838],[-4.5919,48.6834],[-4.592,48.6834],[-4.5807,48.6022],[-4.6077,48.603],[-4.5976,48.5914],[-4.6277,48.5788],[-4.6425,48.5819],[-4.722,48.5682],[-4.7646,48.5202],[-4.7746,48.4913],[-4.7493,48.4788],[-4.7799,48.4549],[-4.7834,48.4174],[-4.7648,48.3776],[-4.7834,48.3764]]],[[[8.5445,42.2568],[8.5771,42.1613],[8.5691,42.155],[8.5863,42.1335],[8.5867,42.1335],[8.6384,41.9822],[8.6317,41.9754],[8.5863,41.969],[8.6144,41.9441],[8.6143,41.9008],[8.6633,41.9094],[8.7118,41.7675],[8.7092,41.7636],[8.6551,41.7499],[8.703,41.7425],[8.6956,41.7294],[8.7235,41.7335],[8.7749,41.5832],[8.7949,41.5742],[8.7918,41.5612],[8.8533,41.5439],[8.8396,41.5308],[8.8737,41.5234],[8.9357,41.4892],[8.9785,41.4852],[9.0017,41.477],[9.1113,41.4221],[9.0964,41.4035],[9.1691,41.3862],[9.1939,41.3691],[9.2232,41.3725],[9.2272,41.3806],[9.2285,41.38],[9.2286,41.3802],[9.2289,41.38],[9.2431,41.4132],[9.2503,41.4278],[9.2492,41.4272],[9.2661,41.4666],[9.2708,41.4687],[9.2791,41.4916],[9.2774,41.493],[9.3016,41.5494],[9.3411,41.5693],[9.3451,41.6045],[9.3229,41.5991],[9.3325,41.6214],[9.3467,41.6196],[9.3452,41.6403],[9.3731,41.6452],[9.3675,41.6719],[9.3729,41.6784],[9.3738,41.6805],[9.4016,41.7064],[9.403,41.7797],[9.4025,41.7848],[9.4195,41.8243],[9.4365,41.8639],[9.4704,41.943],[9.5384,42.1013],[9.5527,42.113],[9.5596,42.1466],[9.5589,42.149],[9.5601,42.1519],[9.56,42.1522],[9.5601,42.1523],[9.5554,42.176],[9.5539,42.1969],[9.5596,42.2946],[9.5432,42.342],[9.5387,42.4028],[9.5459,42.4351],[9.535,42.4536],[9.5331,42.4788],[9.5322,42.5444],[9.5186,42.581],[9.4896,42.6126],[9.4978,42.5953],[9.4737,42.6162],[9.464,42.6396],[9.4577,42.6712],[9.478,42.7886],[9.4828,42.8023],[9.4844,42.8324],[9.4655,42.9235],[9.4701,42.9423],[9.4603,42.9553],[9.4629,42.9804],[9.4629,42.9808],[9.4611,42.9824],[9.464,42.9901],[9.4224,43.0174],[9.4219,43.0173],[9.4161,43.0225],[9.4157,43.0225],[9.3617,43.0173],[9.3561,43.0047],[9.3418,42.9907],[9.3441,42.9829],[8.7461,42.6279],[8.6861,42.5177],[8.6675,42.5097],[8.6597,42.4771],[8.6635,42.4761],[8.6358,42.4252],[8.6307,42.421],[8.6187,42.4196],[8.6075,42.4018],[8.5877,42.3854],[8.5877,42.3853],[8.5705,42.3818],[8.5521,42.3867],[8.5596,42.3464],[8.583,42.349],[8.5913,42.345],[8.5922,42.345],[8.5445,42.2572],[8.5446,42.257],[8.5445,42.2568]]]]}},
{"type":"Feature","properties":{"entityId":"france","from":1860,"to":1871,"certainty":"estimated","source":"유럽 쪽은 Natural Earth 1:10m admin-1(v5.1.2) 현대 행정구역 조각을 그 시기 국경에 맞춰 묶고, 조각이 역사 경계와 다른 곳은 선을 그어 나눈 근사. 유럽 밖(시베리아·중앙아시아·극동)은 대략적인 추정. 운영자 검수 필요"},"geometry":{"type":"MultiPolygon","coordinates":[[[[-4.7834,48.3764],[-4.755,48.342],[-4.7045,48.3416],[-4.6908,48.3623],[-4.6876,48.3621],[-4.6189,48.3485],[-4.5476,48.3629],[-4.5445,48.3402],[-4.5595,48.3387],[-4.575,48.2907],[-4.5767,48.2899],[-4.6263,48.2871],[-4.6263,48.2665],[-4.5573,48.263],[-4.5547,48.2596],[-4.5612,48.225],[-4.5438,48.2051],[-4.5575,48.1772],[-4.5316,48.1831],[-4.5241,48.1928],[-4.5109,48.0973],[-4.5128,48.0968],[-4.628,48.0864],[-4.6417,48.0736],[-4.6837,48.0673],[-4.6974,48.0749],[-4.7281,48.0406],[-4.653,48.0263],[-4.6321,48.026],[-4.5804,48.0114],[-4.572,48.0059],[-4.5681,48.008],[-4.4957,47.9875],[-4.4912,47.9556],[-4.4078,47.9345],[-4.376,47.8777],[-4.3474,47.8532],[-4.3476,47.8383],[-4.3734,47.8287],[-4.3718,47.8072],[-4.2252,47.8024],[-4.1852,47.8134],[-4.1696,47.8235],[-4.0697,47.8482],[-4.0648,47.8478],[-3.6498,47.7429],[-3.5824,47.7258],[-3.5487,47.7173],[-3.5151,47.7088],[-3.3805,47.6748],[-3.1642,47.6201],[-3.1412,47.598],[-3.1339,47.5439],[-3.1438,47.507],[-3.1317,47.4782],[-3.0845,47.4782],[-3.1233,47.519],[-3.1289,47.5476],[-3.112,47.5992],[-3.0738,47.5765],[-3.0424,47.5881],[-3.0034,47.5787],[-3.003,47.5794],[-2.9648,47.5697],[-2.8435,47.4865],[-2.7637,47.4318],[-2.7238,47.4045],[-2.684,47.3772],[-2.6458,47.351],[-2.365,47.1585],[-2.3168,47.1254],[-2.2491,47.079],[-2.2382,47.0715],[-2.2268,47.0637],[-2.2098,47.0464],[-2.2079,47.0445],[-2.1814,47.0175],[-2.1532,46.9889],[-2.1137,46.9487],[-2.098,46.9328],[-2.1022,46.9307],[-2.0963,46.9165],[-2.122,46.9037],[-2.1313,46.8718],[-2.1188,46.82],[-2.0503,46.7921],[-2.0022,46.7575],[-1.9921,46.7485],[-1.965,46.7104],[-1.9398,46.7019],[-1.9208,46.685],[-1.8213,46.558],[-1.8048,46.5036],[-1.7817,46.4954],[-1.7854,46.514],[-1.7742,46.5093],[-1.7684,46.5002],[-1.6868,46.4609],[-1.6459,46.4558],[-1.6321,46.4501],[-1.6256,46.4311],[-1.5988,46.425],[-1.598,46.425],[-1.5344,46.3603],[-1.5025,46.3279],[-1.4706,46.2956],[-1.4421,46.2666],[-1.4136,46.2377],[-1.4905,46.2244],[-1.508,46.2456],[-1.4739,46.2381],[-1.4679,46.2499],[-1.4981,46.2619],[-1.5558,46.2518],[-1.5043,46.2077],[-1.4329,46.2108],[-1.3506,46.1737],[-1.3432,46.1662],[-1.2496,46.0712],[-1.1936,46.0143],[-1.2021,45.9262],[-1.2198,45.9431],[-1.2194,45.9439],[-1.2336,45.9917],[-1.2738,45.9976],[-1.3399,46.0378],[-1.3829,46.048],[-1.3876,46.0501],[-1.3876,46.0499],[-1.388,46.0501],[-1.388,46.0492],[-1.4049,46.0532],[-1.3833,46.0155],[-1.375,45.9858],[-1.3783,45.976],[-1.3402,45.9387],[-1.2778,45.8942],[-1.2457,45.8546],[-1.2269,45.8198],[-1.2127,45.8153],[-1.2147,45.7949],[-1.2303,45.7924],[-1.2473,45.7099],[-1.2228,45.71],[-1.23,45.6345],[-1.2337,45.5966],[-1.2373,45.5588],[-1.2518,45.4074],[-1.2808,45.1045],[-1.3388,44.4988],[-1.3458,44.4252],[-1.3529,44.3516],[-1.367,44.2044],[-1.3844,44.0225],[-1.4818,43.9099],[-1.6848,43.6753],[-1.7231,43.6311],[-1.7997,43.5425],[-1.7614,43.5425],[-1.7614,43.4982],[-1.762,43.4982],[-1.762,43.4067],[-1.8006,43.4067],[-1.8006,43.3894],[-1.7941,43.386],[-1.7969,43.3411],[-1.7682,43.3309],[-1.7497,43.2948],[-1.6739,43.3042],[-1.645,43.2924],[-1.639,43.2557],[-1.5876,43.2516],[-1.559,43.2841],[-1.5081,43.2768],[-1.4664,43.2608],[-1.4322,43.265],[-1.4035,43.2433],[-1.3997,43.2067],[-1.4258,43.1353],[-1.4878,43.0818],[-1.4753,43.0601],[-1.435,43.0357],[-1.3831,43.0292],[-1.3576,43.0468],[-1.3483,43.0931],[-1.3086,43.1136],[-1.3106,43.0695],[-1.2749,43.0468],[-1.2169,43.0393],[-1.1499,43.0057],[-1.1124,43.0083],[-1.0797,42.9934],[-1.0285,42.9867],[-0.9815,42.957],[-0.9432,42.9479],[-0.8635,42.9431],[-0.7864,42.9533],[-0.7597,42.9465],[-0.745,42.9187],[-0.7459,42.8939],[-0.7301,42.8775],[-0.7004,42.8764],[-0.6483,42.8498],[-0.6095,42.8114],[-0.5829,42.7958],[-0.5787,42.7773],[-0.5356,42.7842],[-0.5339,42.808],[-0.5084,42.8075],[-0.4545,42.7889],[-0.4239,42.7907],[-0.3228,42.8425],[-0.3051,42.8308],[-0.247,42.8048],[-0.2351,42.7862],[-0.2084,42.7839],[-0.1614,42.7953],[-0.1636,42.778],[-0.119,42.7169],[-0.0389,42.6851],[-0.0043,42.6875],[0.0728,42.7085],[0.1342,42.7152],[0.1692,42.7265],[0.2384,42.7104],[0.2754,42.6687],[0.2902,42.6703],[0.336,42.7127],[0.3542,42.7175],[0.3893,42.6851],[0.4669,42.6904],[0.4835,42.6853],[0.6082,42.688],[0.6436,42.6845],[0.6634,42.6962],[0.6665,42.7148],[0.6335,42.7448],[0.6537,42.8027],[0.6563,42.8384],[0.7243,42.8453],[0.7763,42.8325],[0.8129,42.8316],[0.8561,42.8128],[0.9211,42.7844],[0.9587,42.7937],[0.9829,42.7804],[1.0682,42.7761],[1.1067,42.7596],[1.1343,42.716],[1.1625,42.7057],[1.1959,42.7136],[1.3191,42.7134],[1.3611,42.6867],[1.398,42.6436],[1.4293,42.5954],[1.4514,42.6021],[1.4668,42.6415],[1.4984,42.6402],[1.5278,42.6485],[1.5431,42.6494],[1.5973,42.6219],[1.6083,42.6181],[1.722,42.6099],[1.7133,42.5895],[1.7294,42.582],[1.7527,42.5767],[1.7611,42.5676],[1.7651,42.5634],[1.74,42.5616],[1.7217,42.5485],[1.7171,42.5399],[1.7106,42.5277],[1.707,42.5028],[1.7122,42.4937],[1.7927,42.4817],[1.8698,42.4468],[1.9275,42.4369],[1.9637,42.3672],[1.9957,42.3487],[2.0517,42.3524],[2.104,42.3848],[2.137,42.4162],[2.1842,42.4118],[2.2774,42.4286],[2.3755,42.3893],[2.4225,42.3837],[2.4649,42.3406],[2.5253,42.3259],[2.5481,42.3522],[2.6134,42.341],[2.6622,42.339],[2.6403,42.3728],[2.6904,42.4062],[2.7285,42.414],[2.7886,42.412],[2.8508,42.4484],[2.9008,42.4513],[2.9337,42.4702],[2.9661,42.461],[2.9831,42.4693],[3.0296,42.4657],[3.0656,42.432],[3.1117,42.425],[3.181,42.4315],[3.1801,42.4358],[3.2108,42.4358],[3.1988,42.4617],[3.1911,42.471],[3.0908,42.5919],[3.087,42.6117],[3.0604,42.7524],[3.0502,42.806],[3.0535,42.8228],[3.0602,42.858],[3.0669,42.8931],[3.0789,42.9558],[3.1628,43.0811],[3.1703,43.0896],[3.1721,43.09],[3.1851,43.0929],[3.2652,43.1108],[3.3053,43.1198],[3.3453,43.1287],[3.4254,43.1466],[3.8117,43.233],[3.9569,43.2654],[4.0052,43.2762],[4.102,43.2978],[4.1503,43.3086],[4.1987,43.3194],[4.2471,43.3303],[4.2955,43.3411],[4.3922,43.3627],[4.5558,43.3993],[4.5808,43.3958],[4.5663,43.3711],[4.5923,43.3599],[4.6659,43.3475],[4.8203,43.3464],[4.8224,43.3626],[4.846,43.3594],[4.8558,43.3418],[4.8792,43.3548],[5.0519,43.3311],[5.0648,43.328],[5.0748,43.328],[5.3541,43.2897],[5.3573,43.2803],[5.3692,43.2704],[5.347,43.2159],[5.4398,43.2076],[5.5174,43.2074],[5.542,43.2028],[5.5727,43.1691],[5.6124,43.1604],[5.6329,43.1856],[5.6717,43.1783],[5.6752,43.1763],[5.6963,43.1469],[5.741,43.1321],[5.7515,43.1317],[5.8085,43.0984],[5.8089,43.0984],[5.817,43.0985],[5.7819,43.0791],[5.819,43.0535],[5.8566,43.0448],[5.8753,43.0688],[5.9403,43.0709],[5.9514,43.08],[5.9106,43.0932],[5.9038,43.0992],[5.9985,43.0999],[6.0165,43.0989],[6.027,43.0782],[6.0846,43.0824],[6.1145,43.0724],[6.1147,43.0725],[6.1149,43.0724],[6.1175,43.0733],[6.1321,43.0526],[6.0977,43.0313],[6.1801,43.0359],[6.1528,43.0481],[6.162,43.0887],[6.245,43.1174],[6.2804,43.1187],[6.3423,43.0908],[6.3754,43.0908],[6.3661,43.1186],[6.3785,43.1361],[6.4038,43.1455],[6.5285,43.1285],[6.5289,43.1285],[6.6061,43.1766],[6.6099,43.1734],[6.6798,43.2016],[6.6745,43.2192],[6.7673,43.2771],[6.9335,43.3806],[6.9373,43.383],[7.0118,43.4294],[7.049,43.4526],[7.0863,43.4758],[7.1073,43.4889],[7.2773,43.5948],[7.3624,43.6479],[7.4029,43.6731],[7.3624,43.6731],[7.3624,43.7192],[7.3658,43.7227],[7.3673,43.7341],[7.3727,43.7458],[7.3875,43.7579],[7.407,43.7635],[7.4262,43.7555],[7.4375,43.7434],[7.4474,43.7488],[7.4474,43.744],[7.4899,43.744],[7.4899,43.7885],[7.5023,43.7922],[7.4779,43.8655],[7.4935,43.8862],[7.5569,43.9441],[7.6309,43.9935],[7.6348,44.0015],[7.62,44],[7.52,44.03],[7.43,44.08],[7.43,44.1331],[7.3808,44.1229],[7.3406,44.1237],[7.3093,44.1475],[7.2513,44.16],[7.145,44.2072],[7.0335,44.2429],[6.9961,44.2378],[6.9734,44.2494],[6.9592,44.2774],[6.9212,44.3022],[6.8784,44.3546],[6.8661,44.3721],[6.8772,44.4144],[6.9178,44.4363],[6.8613,44.4749],[6.8388,44.5029],[6.8464,44.5475],[6.8973,44.5754],[6.9456,44.6254],[6.9383,44.658],[6.9828,44.6922],[7.0552,44.6849],[7.0388,44.7121],[7.019,44.7389],[6.9984,44.7938],[7.0071,44.8221],[6.9828,44.847],[6.9327,44.8617],[6.866,44.8557],[6.7782,44.8876],[6.7279,44.9287],[6.7299,44.9847],[6.7235,45.0134],[6.6972,45.0269],[6.6622,45.0292],[6.6397,45.0504],[6.6366,45.0745],[6.6027,45.1035],[6.6294,45.1235],[6.6674,45.1396],[6.6944,45.1403],[6.7364,45.1573],[6.7715,45.1532],[6.8441,45.1301],[6.8767,45.1412],[6.8813,45.1684],[6.9138,45.1702],[6.9587,45.2098],[7.0297,45.2282],[7.0502,45.215],[7.1084,45.2592],[7.0926,45.324],[7.1301,45.3571],[7.1607,45.4109],[7.0968,45.4354],[7.0754,45.4663],[6.9828,45.5111],[6.9698,45.567],[6.9549,45.5862],[6.9695,45.6258],[6.9634,45.6407],[6.9186,45.6526],[6.8826,45.6755],[6.8431,45.6827],[6.7959,45.7181],[6.7839,45.765],[6.7827,45.7953],[6.8008,45.8265],[6.8434,45.8386],[6.8707,45.8283],[6.8735,45.8448],[6.9051,45.8454],[6.9692,45.8698],[6.9972,45.9113],[7.0221,45.9253],[6.9828,45.9954],[6.9151,46.0486],[6.8924,46.0556],[6.8509,46.0496],[6.8513,46.086],[6.8692,46.1123],[6.8539,46.1226],[6.7743,46.1348],[6.7657,46.1516],[6.7922,46.2217],[6.8277,46.2695],[6.7504,46.3455],[6.7821,46.3785],[6.7881,46.405],[6.7627,46.4293],[6.6137,46.4559],[6.547,46.4574],[6.4829,46.4486],[6.3977,46.4082],[6.3016,46.3945],[6.2691,46.375],[6.2195,46.3291],[6.2166,46.3095],[6.2376,46.2679],[6.2523,46.2599],[6.276,46.2631],[6.2812,46.2401],[6.2554,46.2211],[6.1914,46.1917],[6.1403,46.1502],[6.1079,46.1386],[6.0739,46.1492],[6.0283,46.1479],[5.9829,46.1404],[5.9588,46.1305],[5.9829,46.1708],[5.9548,46.1999],[5.9585,46.212],[5.9829,46.2227],[6.0429,46.2431],[6.0677,46.2416],[6.0897,46.2464],[6.1007,46.3014],[6.1186,46.3318],[6.1351,46.3704],[6.1082,46.3965],[6.059,46.4174],[6.0642,46.4711],[6.1457,46.5516],[6.138,46.5576],[6.1184,46.5835],[6.1319,46.5956],[6.2663,46.6804],[6.3379,46.7074],[6.3742,46.7336],[6.4292,46.7608],[6.4326,46.786],[6.4186,46.807],[6.4431,46.8515],[6.4484,46.8716],[6.4278,46.9091],[6.4426,46.9442],[6.4911,46.9634],[6.5987,46.9865],[6.6654,47.0213],[6.6883,47.0438],[6.6763,47.0624],[6.6991,47.0846],[6.746,47.1039],[6.7448,47.1211],[6.7748,47.1282],[6.8381,47.1681],[6.8883,47.2113],[6.9562,47.2452],[6.9586,47.2906],[7.0443,47.3405],[7.004,47.3681],[6.9856,47.3621],[6.8666,47.3542],[6.8988,47.3957],[6.9245,47.406],[6.9392,47.4268],[6.991,47.4522],[6.9733,47.4891],[7.0008,47.4977],[7.0539,47.4904],[7.1037,47.4963],[7.1422,47.4877],[7.1808,47.4883],[7.1626,47.4599],[7.1683,47.4436],[7.2448,47.4177],[7.2826,47.4289],[7.3369,47.4319],[7.3882,47.4333],[7.4206,47.4509],[7.4276,47.4707],[7.4144,47.484],[7.426,47.4925],[7.446,47.4869],[7.4674,47.4819],[7.4858,47.4988],[7.4769,47.5149],[7.5011,47.5173],[7.5052,47.533],[7.4827,47.5423],[7.5209,47.5634],[7.5263,47.5665],[7.5503,47.5755],[7.5855,47.5845],[7.586,47.5846],[7.5903,47.6079],[7.5501,47.6524],[7.5218,47.6704],[7.5119,47.7073],[7.5378,47.7318],[7.5259,47.7832],[7.5429,47.8294],[7.562,47.8392],[7.5579,47.8785],[7.5808,47.9108],[7.5849,47.9404],[7.6211,47.9714],[7.6189,48.0027],[7.5757,48.0537],[7.5726,48.095],[7.582,48.1214],[7.6134,48.1792],[7.6766,48.2384],[7.6935,48.2699],[7.7025,48.3112],[7.737,48.3267],[7.752,48.3553],[7.7383,48.4066],[7.7765,48.4982],[7.8135,48.5195],[7.8017,48.5476],[7.8103,48.615],[7.8524,48.6587],[7.8806,48.6677],[7.9592,48.7214],[7.9701,48.7573],[8.023,48.7651],[8.0273,48.78],[8.0842,48.8041],[8.1027,48.8213],[8.1481,48.9037],[8.1999,48.9583],[8.1887,48.9657],[8.0904,48.9792],[7.9319,49.0348],[7.8569,49.0323],[7.7737,49.0481],[7.7269,49.0357],[7.6851,49.0428],[7.6449,49.0363],[7.6086,49.062],[7.5209,49.0837],[7.471,49.1283],[7.4761,49.1515],[7.4148,49.1578],[7.4105,49.1689],[7.3716,49.1662],[7.3265,49.1318],[7.2971,49.1281],[7.2681,49.1056],[7.2412,49.1139],[7.155,49.1144],[7.0853,49.1415],[7.0732,49.1203],[7.0425,49.1076],[7.0205,49.119],[7.009,49.1464],[7.0095,49.1817],[6.9879,49.1824],[6.9254,49.2056],[6.8435,49.2111],[6.8277,49.1956],[6.839,49.1628],[6.8091,49.1458],[6.7701,49.1553],[6.7256,49.1556],[6.701,49.1729],[6.7025,49.2136],[6.6806,49.2075],[6.6638,49.2439],[6.6397,49.2712],[6.5732,49.3131],[6.5501,49.338],[6.5743,49.3618],[6.5257,49.3955],[6.4945,49.4355],[6.4027,49.4655],[6.3453,49.4553],[6.2988,49.4662],[6.2511,49.4895],[6.1936,49.4994],[6.1361,49.4953],[6.0998,49.4646],[6.0633,49.4485],[5.9607,49.4413],[5.9281,49.4823],[5.8647,49.4922],[5.8221,49.5105],[5.7907,49.5378],[5.7571,49.5484],[5.7103,49.5311],[5.6446,49.5438],[5.6023,49.5137],[5.5476,49.5234],[5.4777,49.4952],[5.4499,49.5078],[5.4502,49.5458],[5.3912,49.6088],[5.3349,49.6258],[5.2979,49.6133],[5.2994,49.6625],[5.2592,49.6913],[5.1925,49.6828],[5.1364,49.7053],[5.0819,49.7527],[5.0263,49.7667],[4.9684,49.797],[4.8842,49.7841],[4.849,49.7942],[4.8492,49.8316],[4.8369,49.848],[4.8594,49.8917],[4.8446,49.9317],[4.7973,49.9443],[4.7883,49.9743],[4.8267,50.036],[4.8272,50.0641],[4.846,50.0907],[4.8629,50.0841],[4.8719,50.1398],[4.8201,50.1464],[4.8156,50.1613],[4.7886,50.1534],[4.6819,50.0839],[4.6729,50.0164],[4.6567,49.9891],[4.6042,49.9802],[4.4648,49.9356],[4.4277,49.9336],[4.2776,49.9602],[4.2159,49.9544],[4.1877,49.9555],[4.1317,49.975],[4.1373,50.0251],[4.21,50.0602],[4.1806,50.1272],[4.1258,50.1282],[4.1573,50.2127],[4.2037,50.252],[4.1628,50.273],[4.1437,50.2516],[4.1253,50.2571],[4.0979,50.2948],[4.0227,50.3381],[3.9821,50.3426],[3.8959,50.3253],[3.8402,50.3452],[3.7987,50.3485],[3.7415,50.3431],[3.6969,50.2982],[3.6617,50.3193],[3.6529,50.3602],[3.6444,50.4455],[3.6083,50.4765],[3.5637,50.4865],[3.4991,50.4868],[3.4915,50.5171],[3.4629,50.5191],[3.4292,50.5018],[3.3854,50.4916],[3.3436,50.4929],[3.2999,50.5075],[3.271,50.5269],[3.2643,50.5702],[3.2298,50.6554],[3.2438,50.6721],[3.2244,50.7052],[3.1969,50.7092],[3.1628,50.7499],[3.1292,50.7791],[3.1033,50.7841],[3.0238,50.7683],[2.9714,50.7578],[2.9302,50.7362],[2.9001,50.7031],[2.8667,50.7001],[2.7682,50.7332],[2.7438,50.7662],[2.7066,50.7888],[2.6919,50.8088],[2.6204,50.8165],[2.59,50.842],[2.5967,50.8676],[2.5769,50.9115],[2.6117,50.9412],[2.6085,50.9611],[2.557,51.0012],[2.537,51.0646],[2.5218,51.0875],[2.5226,51.0877],[2.5226,51.1502],[2.5144,51.1482],[2.4793,51.1401],[2.1333,51.0605],[2.0901,51.0505],[2.0468,51.0405],[1.9603,51.0206],[1.6396,50.9468],[1.6143,50.8782],[1.5806,50.8688],[1.5946,50.8248],[1.512,50.6011],[1.4707,50.4893],[1.4501,50.4334],[1.4398,50.4055],[1.4294,50.3775],[1.3696,50.2153],[1.3489,50.1593],[1.3372,50.1276],[1.2877,50.111],[1.268,50.1044],[1.1871,50.0772],[1.0252,50.0229],[0.0541,49.6971],[-0.1077,49.6428],[-0.1887,49.6156],[-0.2696,49.5885],[-0.31,49.5749],[-0.3505,49.5613],[-0.4314,49.5342],[-0.5933,49.4799],[-0.887,49.3813],[-0.9169,49.3864],[-0.9404,49.3923],[-0.9543,49.3928],[-0.9592,49.3936],[-0.9596,49.3936],[-0.9698,49.3933],[-1.0723,49.3968],[-1.084,49.3909],[-1.158,49.4245],[-1.1847,49.4366],[-1.1932,49.4457],[-1.212,49.4688],[-1.2328,49.4943],[-1.263,49.5914],[-1.2533,49.6123],[-1.2278,49.6241],[-1.2322,49.6414],[-1.258,49.6792],[-1.258,49.68],[-1.2587,49.6802],[-1.2711,49.6984],[-1.3913,49.7127],[-1.4557,49.7022],[-1.4752,49.6884],[-1.5894,49.6679],[-1.7044,49.6818],[-1.7249,49.682],[-1.7251,49.682],[-1.9348,49.7772],[-1.9347,49.777],[-1.9352,49.7772],[-1.9351,49.7767],[-1.9352,49.7768],[-1.9208,49.7253],[-1.9352,49.7241],[-1.9456,49.678],[-1.9051,49.6693],[-1.8704,49.5452],[-1.8847,49.5309],[-1.8602,49.5086],[-1.7352,49.0619],[-1.6727,48.8386],[-1.6415,48.727],[-1.6266,48.6738],[-1.6185,48.645],[-1.6404,48.6483],[-1.6719,48.6532],[-1.735,48.6628],[-1.8466,48.68],[-1.8363,48.6911],[-1.8437,48.7121],[-1.9484,48.6956],[-2.022,48.7069],[-2.0588,48.7125],[-2.0956,48.7182],[-2.2427,48.7407],[-2.537,48.7859],[-3.0915,48.8709],[-3.0915,48.8713],[-3.0928,48.8711],[-3.2956,48.9022],[-3.296,48.9022],[-3.4676,48.8733],[-3.655,48.8417],[-3.7018,48.8338],[-3.7487,48.8259],[-3.8424,48.8101],[-4.592,48.6838],[-4.5919,48.6834],[-4.592,48.6834],[-4.5807,48.6022],[-4.6077,48.603],[-4.5976,48.5914],[-4.6277,48.5788],[-4.6425,48.5819],[-4.722,48.5682],[-4.7646,48.5202],[-4.7746,48.4913],[-4.7493,48.4788],[-4.7799,48.4549],[-4.7834,48.4174],[-4.7648,48.3776],[-4.7834,48.3764]]],[[[7.4899,43.7033],[7.5324,43.7107],[7.5324,43.744],[7.4899,43.744],[7.4899,43.7033]]],[[[8.5445,42.2568],[8.5771,42.1613],[8.5691,42.155],[8.5863,42.1335],[8.5867,42.1335],[8.6384,41.9822],[8.6317,41.9754],[8.5863,41.969],[8.6144,41.9441],[8.6143,41.9008],[8.6633,41.9094],[8.7118,41.7675],[8.7092,41.7636],[8.6551,41.7499],[8.703,41.7425],[8.6956,41.7294],[8.7235,41.7335],[8.7749,41.5832],[8.7949,41.5742],[8.7918,41.5612],[8.8533,41.5439],[8.8396,41.5308],[8.8737,41.5234],[8.9357,41.4892],[8.9785,41.4852],[9.0017,41.477],[9.1113,41.4221],[9.0964,41.4035],[9.1691,41.3862],[9.1939,41.3691],[9.2232,41.3725],[9.2272,41.3806],[9.2285,41.38],[9.2286,41.3802],[9.2289,41.38],[9.2431,41.4132],[9.2503,41.4278],[9.2492,41.4272],[9.2661,41.4666],[9.2708,41.4687],[9.2791,41.4916],[9.2774,41.493],[9.3016,41.5494],[9.3411,41.5693],[9.3451,41.6045],[9.3229,41.5991],[9.3325,41.6214],[9.3467,41.6196],[9.3452,41.6403],[9.3731,41.6452],[9.3675,41.6719],[9.3729,41.6784],[9.3738,41.6805],[9.4016,41.7064],[9.403,41.7797],[9.4025,41.7848],[9.4195,41.8243],[9.4365,41.8639],[9.4704,41.943],[9.5384,42.1013],[9.5527,42.113],[9.5596,42.1466],[9.5589,42.149],[9.5601,42.1519],[9.56,42.1522],[9.5601,42.1523],[9.5554,42.176],[9.5539,42.1969],[9.5596,42.2946],[9.5432,42.342],[9.5387,42.4028],[9.5459,42.4351],[9.535,42.4536],[9.5331,42.4788],[9.5322,42.5444],[9.5186,42.581],[9.4896,42.6126],[9.4978,42.5953],[9.4737,42.6162],[9.464,42.6396],[9.4577,42.6712],[9.478,42.7886],[9.4828,42.8023],[9.4844,42.8324],[9.4655,42.9235],[9.4701,42.9423],[9.4603,42.9553],[9.4629,42.9804],[9.4629,42.9808],[9.4611,42.9824],[9.464,42.9901],[9.4224,43.0174],[9.4219,43.0173],[9.4161,43.0225],[9.4157,43.0225],[9.3617,43.0173],[9.3561,43.0047],[9.3418,42.9907],[9.3441,42.9829],[8.7461,42.6279],[8.6861,42.5177],[8.6675,42.5097],[8.6597,42.4771],[8.6635,42.4761],[8.6358,42.4252],[8.6307,42.421],[8.6187,42.4196],[8.6075,42.4018],[8.5877,42.3854],[8.5877,42.3853],[8.5705,42.3818],[8.5521,42.3867],[8.5596,42.3464],[8.583,42.349],[8.5913,42.345],[8.5922,42.345],[8.5445,42.2572],[8.5446,42.257],[8.5445,42.2568]]]]}},
{"type":"Feature","properties":{"entityId":"france","from":1871,"to":1919,"certainty":"estimated","source":"유럽 쪽은 Natural Earth 1:10m admin-1(v5.1.2) 현대 행정구역 조각을 그 시기 국경에 맞춰 묶고, 조각이 역사 경계와 다른 곳은 선을 그어 나눈 근사. 유럽 밖(시베리아·중앙아시아·극동)은 대략적인 추정. 운영자 검수 필요"},"geometry":{"type":"MultiPolygon","coordinates":[[[[-4.7834,48.3764],[-4.755,48.342],[-4.7045,48.3416],[-4.6908,48.3623],[-4.6876,48.3621],[-4.6189,48.3485],[-4.5476,48.3629],[-4.5445,48.3402],[-4.5595,48.3387],[-4.575,48.2907],[-4.5767,48.2899],[-4.6263,48.2871],[-4.6263,48.2665],[-4.5573,48.263],[-4.5547,48.2596],[-4.5612,48.225],[-4.5438,48.2051],[-4.5575,48.1772],[-4.5316,48.1831],[-4.5241,48.1928],[-4.5109,48.0973],[-4.5128,48.0968],[-4.628,48.0864],[-4.6417,48.0736],[-4.6837,48.0673],[-4.6974,48.0749],[-4.7281,48.0406],[-4.653,48.0263],[-4.6321,48.026],[-4.5804,48.0114],[-4.572,48.0059],[-4.5681,48.008],[-4.4957,47.9875],[-4.4912,47.9556],[-4.4078,47.9345],[-4.376,47.8777],[-4.3474,47.8532],[-4.3476,47.8383],[-4.3734,47.8287],[-4.3718,47.8072],[-4.2252,47.8024],[-4.1852,47.8134],[-4.1696,47.8235],[-4.0697,47.8482],[-4.0648,47.8478],[-3.6498,47.7429],[-3.5824,47.7258],[-3.5487,47.7173],[-3.5151,47.7088],[-3.3805,47.6748],[-3.1642,47.6201],[-3.1412,47.598],[-3.1339,47.5439],[-3.1438,47.507],[-3.1317,47.4782],[-3.0845,47.4782],[-3.1233,47.519],[-3.1289,47.5476],[-3.112,47.5992],[-3.0738,47.5765],[-3.0424,47.5881],[-3.0034,47.5787],[-3.003,47.5794],[-2.9648,47.5697],[-2.8435,47.4865],[-2.7637,47.4318],[-2.7238,47.4045],[-2.684,47.3772],[-2.6458,47.351],[-2.365,47.1585],[-2.3168,47.1254],[-2.2491,47.079],[-2.2382,47.0715],[-2.2268,47.0637],[-2.2098,47.0464],[-2.2079,47.0445],[-2.1814,47.0175],[-2.1532,46.9889],[-2.1137,46.9487],[-2.098,46.9328],[-2.1022,46.9307],[-2.0963,46.9165],[-2.122,46.9037],[-2.1313,46.8718],[-2.1188,46.82],[-2.0503,46.7921],[-2.0022,46.7575],[-1.9921,46.7485],[-1.965,46.7104],[-1.9398,46.7019],[-1.9208,46.685],[-1.8213,46.558],[-1.8048,46.5036],[-1.7817,46.4954],[-1.7854,46.514],[-1.7742,46.5093],[-1.7684,46.5002],[-1.6868,46.4609],[-1.6459,46.4558],[-1.6321,46.4501],[-1.6256,46.4311],[-1.5988,46.425],[-1.598,46.425],[-1.5344,46.3603],[-1.5025,46.3279],[-1.4706,46.2956],[-1.4421,46.2666],[-1.4136,46.2377],[-1.4905,46.2244],[-1.508,46.2456],[-1.4739,46.2381],[-1.4679,46.2499],[-1.4981,46.2619],[-1.5558,46.2518],[-1.5043,46.2077],[-1.4329,46.2108],[-1.3506,46.1737],[-1.3432,46.1662],[-1.2496,46.0712],[-1.1936,46.0143],[-1.2021,45.9262],[-1.2198,45.9431],[-1.2194,45.9439],[-1.2336,45.9917],[-1.2738,45.9976],[-1.3399,46.0378],[-1.3829,46.048],[-1.3876,46.0501],[-1.3876,46.0499],[-1.388,46.0501],[-1.388,46.0492],[-1.4049,46.0532],[-1.3833,46.0155],[-1.375,45.9858],[-1.3783,45.976],[-1.3402,45.9387],[-1.2778,45.8942],[-1.2457,45.8546],[-1.2269,45.8198],[-1.2127,45.8153],[-1.2147,45.7949],[-1.2303,45.7924],[-1.2473,45.7099],[-1.2228,45.71],[-1.23,45.6345],[-1.2337,45.5966],[-1.2373,45.5588],[-1.2518,45.4074],[-1.2808,45.1045],[-1.3388,44.4988],[-1.3458,44.4252],[-1.3529,44.3516],[-1.367,44.2044],[-1.3844,44.0225],[-1.4818,43.9099],[-1.6848,43.6753],[-1.7231,43.6311],[-1.7997,43.5425],[-1.7614,43.5425],[-1.7614,43.4982],[-1.762,43.4982],[-1.762,43.4067],[-1.8006,43.4067],[-1.8006,43.3894],[-1.7941,43.386],[-1.7969,43.3411],[-1.7682,43.3309],[-1.7497,43.2948],[-1.6739,43.3042],[-1.645,43.2924],[-1.639,43.2557],[-1.5876,43.2516],[-1.559,43.2841],[-1.5081,43.2768],[-1.4664,43.2608],[-1.4322,43.265],[-1.4035,43.2433],[-1.3997,43.2067],[-1.4258,43.1353],[-1.4878,43.0818],[-1.4753,43.0601],[-1.435,43.0357],[-1.3831,43.0292],[-1.3576,43.0468],[-1.3483,43.0931],[-1.3086,43.1136],[-1.3106,43.0695],[-1.2749,43.0468],[-1.2169,43.0393],[-1.1499,43.0057],[-1.1124,43.0083],[-1.0797,42.9934],[-1.0285,42.9867],[-0.9815,42.957],[-0.9432,42.9479],[-0.8635,42.9431],[-0.7864,42.9533],[-0.7597,42.9465],[-0.745,42.9187],[-0.7459,42.8939],[-0.7301,42.8775],[-0.7004,42.8764],[-0.6483,42.8498],[-0.6095,42.8114],[-0.5829,42.7958],[-0.5787,42.7773],[-0.5356,42.7842],[-0.5339,42.808],[-0.5084,42.8075],[-0.4545,42.7889],[-0.4239,42.7907],[-0.3228,42.8425],[-0.3051,42.8308],[-0.247,42.8048],[-0.2351,42.7862],[-0.2084,42.7839],[-0.1614,42.7953],[-0.1636,42.778],[-0.119,42.7169],[-0.0389,42.6851],[-0.0043,42.6875],[0.0728,42.7085],[0.1342,42.7152],[0.1692,42.7265],[0.2384,42.7104],[0.2754,42.6687],[0.2902,42.6703],[0.336,42.7127],[0.3542,42.7175],[0.3893,42.6851],[0.4669,42.6904],[0.4835,42.6853],[0.6082,42.688],[0.6436,42.6845],[0.6634,42.6962],[0.6665,42.7148],[0.6335,42.7448],[0.6537,42.8027],[0.6563,42.8384],[0.7243,42.8453],[0.7763,42.8325],[0.8129,42.8316],[0.8561,42.8128],[0.9211,42.7844],[0.9587,42.7937],[0.9829,42.7804],[1.0682,42.7761],[1.1067,42.7596],[1.1343,42.716],[1.1625,42.7057],[1.1959,42.7136],[1.3191,42.7134],[1.3611,42.6867],[1.398,42.6436],[1.4293,42.5954],[1.4514,42.6021],[1.4668,42.6415],[1.4984,42.6402],[1.5278,42.6485],[1.5431,42.6494],[1.5973,42.6219],[1.6083,42.6181],[1.722,42.6099],[1.7133,42.5895],[1.7294,42.582],[1.7527,42.5767],[1.7611,42.5676],[1.7651,42.5634],[1.74,42.5616],[1.7217,42.5485],[1.7171,42.5399],[1.7106,42.5277],[1.707,42.5028],[1.7122,42.4937],[1.7927,42.4817],[1.8698,42.4468],[1.9275,42.4369],[1.9637,42.3672],[1.9957,42.3487],[2.0517,42.3524],[2.104,42.3848],[2.137,42.4162],[2.1842,42.4118],[2.2774,42.4286],[2.3755,42.3893],[2.4225,42.3837],[2.4649,42.3406],[2.5253,42.3259],[2.5481,42.3522],[2.6134,42.341],[2.6622,42.339],[2.6403,42.3728],[2.6904,42.4062],[2.7285,42.414],[2.7886,42.412],[2.8508,42.4484],[2.9008,42.4513],[2.9337,42.4702],[2.9661,42.461],[2.9831,42.4693],[3.0296,42.4657],[3.0656,42.432],[3.1117,42.425],[3.181,42.4315],[3.1801,42.4358],[3.2108,42.4358],[3.1988,42.4617],[3.1911,42.471],[3.0908,42.5919],[3.087,42.6117],[3.0604,42.7524],[3.0502,42.806],[3.0535,42.8228],[3.0602,42.858],[3.0669,42.8931],[3.0789,42.9558],[3.1628,43.0811],[3.1703,43.0896],[3.1721,43.09],[3.1851,43.0929],[3.2652,43.1108],[3.3053,43.1198],[3.3453,43.1287],[3.4254,43.1466],[3.8117,43.233],[3.9569,43.2654],[4.0052,43.2762],[4.102,43.2978],[4.1503,43.3086],[4.1987,43.3194],[4.2471,43.3303],[4.2955,43.3411],[4.3922,43.3627],[4.5558,43.3993],[4.5808,43.3958],[4.5663,43.3711],[4.5923,43.3599],[4.6659,43.3475],[4.8203,43.3464],[4.8224,43.3626],[4.846,43.3594],[4.8558,43.3418],[4.8792,43.3548],[5.0519,43.3311],[5.0648,43.328],[5.0748,43.328],[5.3541,43.2897],[5.3573,43.2803],[5.3692,43.2704],[5.347,43.2159],[5.4398,43.2076],[5.5174,43.2074],[5.542,43.2028],[5.5727,43.1691],[5.6124,43.1604],[5.6329,43.1856],[5.6717,43.1783],[5.6752,43.1763],[5.6963,43.1469],[5.741,43.1321],[5.7515,43.1317],[5.8085,43.0984],[5.8089,43.0984],[5.817,43.0985],[5.7819,43.0791],[5.819,43.0535],[5.8566,43.0448],[5.8753,43.0688],[5.9403,43.0709],[5.9514,43.08],[5.9106,43.0932],[5.9038,43.0992],[5.9985,43.0999],[6.0165,43.0989],[6.027,43.0782],[6.0846,43.0824],[6.1145,43.0724],[6.1147,43.0725],[6.1149,43.0724],[6.1175,43.0733],[6.1321,43.0526],[6.0977,43.0313],[6.1801,43.0359],[6.1528,43.0481],[6.162,43.0887],[6.245,43.1174],[6.2804,43.1187],[6.3423,43.0908],[6.3754,43.0908],[6.3661,43.1186],[6.3785,43.1361],[6.4038,43.1455],[6.5285,43.1285],[6.5289,43.1285],[6.6061,43.1766],[6.6099,43.1734],[6.6798,43.2016],[6.6745,43.2192],[6.7673,43.2771],[6.9335,43.3806],[6.9373,43.383],[7.0118,43.4294],[7.049,43.4526],[7.0863,43.4758],[7.1073,43.4889],[7.2773,43.5948],[7.3624,43.6479],[7.4029,43.6731],[7.3624,43.6731],[7.3624,43.7192],[7.3658,43.7227],[7.3673,43.7341],[7.3727,43.7458],[7.3875,43.7579],[7.407,43.7635],[7.4262,43.7555],[7.4375,43.7434],[7.4474,43.7488],[7.4474,43.744],[7.4899,43.744],[7.4899,43.7885],[7.5023,43.7922],[7.4779,43.8655],[7.4935,43.8862],[7.5569,43.9441],[7.6309,43.9935],[7.6348,44.0015],[7.62,44],[7.52,44.03],[7.43,44.08],[7.43,44.1331],[7.3808,44.1229],[7.3406,44.1237],[7.3093,44.1475],[7.2513,44.16],[7.145,44.2072],[7.0335,44.2429],[6.9961,44.2378],[6.9734,44.2494],[6.9592,44.2774],[6.9212,44.3022],[6.8784,44.3546],[6.8661,44.3721],[6.8772,44.4144],[6.9178,44.4363],[6.8613,44.4749],[6.8388,44.5029],[6.8464,44.5475],[6.8973,44.5754],[6.9456,44.6254],[6.9383,44.658],[6.9828,44.6922],[7.0552,44.6849],[7.0388,44.7121],[7.019,44.7389],[6.9984,44.7938],[7.0071,44.8221],[6.9828,44.847],[6.9327,44.8617],[6.866,44.8557],[6.7782,44.8876],[6.7279,44.9287],[6.7299,44.9847],[6.7235,45.0134],[6.6972,45.0269],[6.6622,45.0292],[6.6397,45.0504],[6.6366,45.0745],[6.6027,45.1035],[6.6294,45.1235],[6.6674,45.1396],[6.6944,45.1403],[6.7364,45.1573],[6.7715,45.1532],[6.8441,45.1301],[6.8767,45.1412],[6.8813,45.1684],[6.9138,45.1702],[6.9587,45.2098],[7.0297,45.2282],[7.0502,45.215],[7.1084,45.2592],[7.0926,45.324],[7.1301,45.3571],[7.1607,45.4109],[7.0968,45.4354],[7.0754,45.4663],[6.9828,45.5111],[6.9698,45.567],[6.9549,45.5862],[6.9695,45.6258],[6.9634,45.6407],[6.9186,45.6526],[6.8826,45.6755],[6.8431,45.6827],[6.7959,45.7181],[6.7839,45.765],[6.7827,45.7953],[6.8008,45.8265],[6.8434,45.8386],[6.8707,45.8283],[6.8735,45.8448],[6.9051,45.8454],[6.9692,45.8698],[6.9972,45.9113],[7.0221,45.9253],[6.9828,45.9954],[6.9151,46.0486],[6.8924,46.0556],[6.8509,46.0496],[6.8513,46.086],[6.8692,46.1123],[6.8539,46.1226],[6.7743,46.1348],[6.7657,46.1516],[6.7922,46.2217],[6.8277,46.2695],[6.7504,46.3455],[6.7821,46.3785],[6.7881,46.405],[6.7627,46.4293],[6.6137,46.4559],[6.547,46.4574],[6.4829,46.4486],[6.3977,46.4082],[6.3016,46.3945],[6.2691,46.375],[6.2195,46.3291],[6.2166,46.3095],[6.2376,46.2679],[6.2523,46.2599],[6.276,46.2631],[6.2812,46.2401],[6.2554,46.2211],[6.1914,46.1917],[6.1403,46.1502],[6.1079,46.1386],[6.0739,46.1492],[6.0283,46.1479],[5.9829,46.1404],[5.9588,46.1305],[5.9829,46.1708],[5.9548,46.1999],[5.9585,46.212],[5.9829,46.2227],[6.0429,46.2431],[6.0677,46.2416],[6.0897,46.2464],[6.1007,46.3014],[6.1186,46.3318],[6.1351,46.3704],[6.1082,46.3965],[6.059,46.4174],[6.0642,46.4711],[6.1457,46.5516],[6.138,46.5576],[6.1184,46.5835],[6.1319,46.5956],[6.2663,46.6804],[6.3379,46.7074],[6.3742,46.7336],[6.4292,46.7608],[6.4326,46.786],[6.4186,46.807],[6.4431,46.8515],[6.4484,46.8716],[6.4278,46.9091],[6.4426,46.9442],[6.4911,46.9634],[6.5987,46.9865],[6.6654,47.0213],[6.6883,47.0438],[6.6763,47.0624],[6.6991,47.0846],[6.746,47.1039],[6.7448,47.1211],[6.7748,47.1282],[6.8381,47.1681],[6.8883,47.2113],[6.9562,47.2452],[6.9586,47.2906],[7.0443,47.3405],[7.004,47.3681],[6.9856,47.3621],[6.8666,47.3542],[6.8988,47.3957],[6.9245,47.406],[6.9392,47.4268],[6.991,47.4522],[6.9733,47.4891],[7.0008,47.4977],[7.0539,47.4904],[7.1037,47.4963],[7.1422,47.4877],[7.1487,47.532],[7.1342,47.5497],[7.0798,47.5909],[7.0373,47.5959],[7.0234,47.606],[7.0265,47.6236],[7.0531,47.6531],[7.0588,47.6802],[7.0503,47.7156],[7.0237,47.7357],[6.8827,47.791],[6.8689,47.819],[6.9239,47.8432],[6.917,47.883],[6.9344,47.9027],[6.9598,47.9675],[7.0085,48.0103],[7.0869,48.1254],[7.0749,48.1525],[7.2087,48.3034],[7.1885,48.331],[7.1442,48.3321],[7.1099,48.3423],[7.1268,48.4473],[7.1277,48.4841],[7.1489,48.4999],[7.0887,48.5234],[6.9704,48.611],[6.9254,48.6264],[6.8684,48.6201],[6.7069,48.6681],[6.6665,48.6948],[6.5989,48.7157],[6.566,48.7519],[6.5207,48.7545],[6.4332,48.7891],[6.3715,48.7802],[6.3127,48.8331],[6.2983,48.8591],[6.3228,48.909],[6.2875,48.9313],[6.1432,48.9346],[6.1085,48.9663],[6.0634,48.976],[6.0344,49.0201],[5.9674,49.0415],[5.935,49.084],[5.9495,49.1077],[5.9921,49.1185],[6.0155,49.152],[5.9865,49.2007],[6.0197,49.2323],[6.004,49.2931],[5.9701,49.3178],[5.9569,49.3471],[5.9275,49.3701],[5.9249,49.3896],[5.9422,49.4303],[5.9281,49.4823],[5.8647,49.4922],[5.8221,49.5105],[5.7907,49.5378],[5.7571,49.5484],[5.7103,49.5311],[5.6446,49.5438],[5.6023,49.5137],[5.5476,49.5234],[5.4777,49.4952],[5.4499,49.5078],[5.4502,49.5458],[5.3912,49.6088],[5.3349,49.6258],[5.2979,49.6133],[5.2994,49.6625],[5.2592,49.6913],[5.1925,49.6828],[5.1364,49.7053],[5.0819,49.7527],[5.0263,49.7667],[4.9684,49.797],[4.8842,49.7841],[4.849,49.7942],[4.8492,49.8316],[4.8369,49.848],[4.8594,49.8917],[4.8446,49.9317],[4.7973,49.9443],[4.7883,49.9743],[4.8267,50.036],[4.8272,50.0641],[4.846,50.0907],[4.8629,50.0841],[4.8719,50.1398],[4.8201,50.1464],[4.8156,50.1613],[4.7886,50.1534],[4.6819,50.0839],[4.6729,50.0164],[4.6567,49.9891],[4.6042,49.9802],[4.4648,49.9356],[4.4277,49.9336],[4.2776,49.9602],[4.2159,49.9544],[4.1877,49.9555],[4.1317,49.975],[4.1373,50.0251],[4.21,50.0602],[4.1806,50.1272],[4.1258,50.1282],[4.1573,50.2127],[4.2037,50.252],[4.1628,50.273],[4.1437,50.2516],[4.1253,50.2571],[4.0979,50.2948],[4.0227,50.3381],[3.9821,50.3426],[3.8959,50.3253],[3.8402,50.3452],[3.7987,50.3485],[3.7415,50.3431],[3.6969,50.2982],[3.6617,50.3193],[3.6529,50.3602],[3.6444,50.4455],[3.6083,50.4765],[3.5637,50.4865],[3.4991,50.4868],[3.4915,50.5171],[3.4629,50.5191],[3.4292,50.5018],[3.3854,50.4916],[3.3436,50.4929],[3.2999,50.5075],[3.271,50.5269],[3.2643,50.5702],[3.2298,50.6554],[3.2438,50.6721],[3.2244,50.7052],[3.1969,50.7092],[3.1628,50.7499],[3.1292,50.7791],[3.1033,50.7841],[3.0238,50.7683],[2.9714,50.7578],[2.9302,50.7362],[2.9001,50.7031],[2.8667,50.7001],[2.7682,50.7332],[2.7438,50.7662],[2.7066,50.7888],[2.6919,50.8088],[2.6204,50.8165],[2.59,50.842],[2.5967,50.8676],[2.5769,50.9115],[2.6117,50.9412],[2.6085,50.9611],[2.557,51.0012],[2.537,51.0646],[2.5218,51.0875],[2.5226,51.0877],[2.5226,51.1502],[2.5144,51.1482],[2.4793,51.1401],[2.1333,51.0605],[2.0901,51.0505],[2.0468,51.0405],[1.9603,51.0206],[1.6396,50.9468],[1.6143,50.8782],[1.5806,50.8688],[1.5946,50.8248],[1.512,50.6011],[1.4707,50.4893],[1.4501,50.4334],[1.4398,50.4055],[1.4294,50.3775],[1.3696,50.2153],[1.3489,50.1593],[1.3372,50.1276],[1.2877,50.111],[1.268,50.1044],[1.1871,50.0772],[1.0252,50.0229],[0.0541,49.6971],[-0.1077,49.6428],[-0.1887,49.6156],[-0.2696,49.5885],[-0.31,49.5749],[-0.3505,49.5613],[-0.4314,49.5342],[-0.5933,49.4799],[-0.887,49.3813],[-0.9169,49.3864],[-0.9404,49.3923],[-0.9543,49.3928],[-0.9592,49.3936],[-0.9596,49.3936],[-0.9698,49.3933],[-1.0723,49.3968],[-1.084,49.3909],[-1.158,49.4245],[-1.1847,49.4366],[-1.1932,49.4457],[-1.212,49.4688],[-1.2328,49.4943],[-1.263,49.5914],[-1.2533,49.6123],[-1.2278,49.6241],[-1.2322,49.6414],[-1.258,49.6792],[-1.258,49.68],[-1.2587,49.6802],[-1.2711,49.6984],[-1.3913,49.7127],[-1.4557,49.7022],[-1.4752,49.6884],[-1.5894,49.6679],[-1.7044,49.6818],[-1.7249,49.682],[-1.7251,49.682],[-1.9348,49.7772],[-1.9347,49.777],[-1.9352,49.7772],[-1.9351,49.7767],[-1.9352,49.7768],[-1.9208,49.7253],[-1.9352,49.7241],[-1.9456,49.678],[-1.9051,49.6693],[-1.8704,49.5452],[-1.8847,49.5309],[-1.8602,49.5086],[-1.7352,49.0619],[-1.6727,48.8386],[-1.6415,48.727],[-1.6266,48.6738],[-1.6185,48.645],[-1.6404,48.6483],[-1.6719,48.6532],[-1.735,48.6628],[-1.8466,48.68],[-1.8363,48.6911],[-1.8437,48.7121],[-1.9484,48.6956],[-2.022,48.7069],[-2.0588,48.7125],[-2.0956,48.7182],[-2.2427,48.7407],[-2.537,48.7859],[-3.0915,48.8709],[-3.0915,48.8713],[-3.0928,48.8711],[-3.2956,48.9022],[-3.296,48.9022],[-3.4676,48.8733],[-3.655,48.8417],[-3.7018,48.8338],[-3.7487,48.8259],[-3.8424,48.8101],[-4.592,48.6838],[-4.5919,48.6834],[-4.592,48.6834],[-4.5807,48.6022],[-4.6077,48.603],[-4.5976,48.5914],[-4.6277,48.5788],[-4.6425,48.5819],[-4.722,48.5682],[-4.7646,48.5202],[-4.7746,48.4913],[-4.7493,48.4788],[-4.7799,48.4549],[-4.7834,48.4174],[-4.7648,48.3776],[-4.7834,48.3764]]],[[[7.4899,43.7033],[7.5324,43.7107],[7.5324,43.744],[7.4899,43.744],[7.4899,43.7033]]],[[[8.5445,42.2568],[8.5771,42.1613],[8.5691,42.155],[8.5863,42.1335],[8.5867,42.1335],[8.6384,41.9822],[8.6317,41.9754],[8.5863,41.969],[8.6144,41.9441],[8.6143,41.9008],[8.6633,41.9094],[8.7118,41.7675],[8.7092,41.7636],[8.6551,41.7499],[8.703,41.7425],[8.6956,41.7294],[8.7235,41.7335],[8.7749,41.5832],[8.7949,41.5742],[8.7918,41.5612],[8.8533,41.5439],[8.8396,41.5308],[8.8737,41.5234],[8.9357,41.4892],[8.9785,41.4852],[9.0017,41.477],[9.1113,41.4221],[9.0964,41.4035],[9.1691,41.3862],[9.1939,41.3691],[9.2232,41.3725],[9.2272,41.3806],[9.2285,41.38],[9.2286,41.3802],[9.2289,41.38],[9.2431,41.4132],[9.2503,41.4278],[9.2492,41.4272],[9.2661,41.4666],[9.2708,41.4687],[9.2791,41.4916],[9.2774,41.493],[9.3016,41.5494],[9.3411,41.5693],[9.3451,41.6045],[9.3229,41.5991],[9.3325,41.6214],[9.3467,41.6196],[9.3452,41.6403],[9.3731,41.6452],[9.3675,41.6719],[9.3729,41.6784],[9.3738,41.6805],[9.4016,41.7064],[9.403,41.7797],[9.4025,41.7848],[9.4195,41.8243],[9.4365,41.8639],[9.4704,41.943],[9.5384,42.1013],[9.5527,42.113],[9.5596,42.1466],[9.5589,42.149],[9.5601,42.1519],[9.56,42.1522],[9.5601,42.1523],[9.5554,42.176],[9.5539,42.1969],[9.5596,42.2946],[9.5432,42.342],[9.5387,42.4028],[9.5459,42.4351],[9.535,42.4536],[9.5331,42.4788],[9.5322,42.5444],[9.5186,42.581],[9.4896,42.6126],[9.4978,42.5953],[9.4737,42.6162],[9.464,42.6396],[9.4577,42.6712],[9.478,42.7886],[9.4828,42.8023],[9.4844,42.8324],[9.4655,42.9235],[9.4701,42.9423],[9.4603,42.9553],[9.4629,42.9804],[9.4629,42.9808],[9.4611,42.9824],[9.464,42.9901],[9.4224,43.0174],[9.4219,43.0173],[9.4161,43.0225],[9.4157,43.0225],[9.3617,43.0173],[9.3561,43.0047],[9.3418,42.9907],[9.3441,42.9829],[8.7461,42.6279],[8.6861,42.5177],[8.6675,42.5097],[8.6597,42.4771],[8.6635,42.4761],[8.6358,42.4252],[8.6307,42.421],[8.6187,42.4196],[8.6075,42.4018],[8.5877,42.3854],[8.5877,42.3853],[8.5705,42.3818],[8.5521,42.3867],[8.5596,42.3464],[8.583,42.349],[8.5913,42.345],[8.5922,42.345],[8.5445,42.2572],[8.5446,42.257],[8.5445,42.2568]]]]}},
{"type":"Feature","properties":{"entityId":"france","from":1919,"to":1947,"certainty":"estimated","source":"유럽 쪽은 Natural Earth 1:10m admin-1(v5.1.2) 현대 행정구역 조각을 그 시기 국경에 맞춰 묶고, 조각이 역사 경계와 다른 곳은 선을 그어 나눈 근사. 유럽 밖(시베리아·중앙아시아·극동)은 대략적인 추정. 운영자 검수 필요"},"geometry":{"type":"MultiPolygon","coordinates":[[[[-4.7834,48.3764],[-4.755,48.342],[-4.7045,48.3416],[-4.6908,48.3623],[-4.6876,48.3621],[-4.6189,48.3485],[-4.5476,48.3629],[-4.5445,48.3402],[-4.5595,48.3387],[-4.575,48.2907],[-4.5767,48.2899],[-4.6263,48.2871],[-4.6263,48.2665],[-4.5573,48.263],[-4.5547,48.2596],[-4.5612,48.225],[-4.5438,48.2051],[-4.5575,48.1772],[-4.5316,48.1831],[-4.5241,48.1928],[-4.5109,48.0973],[-4.5128,48.0968],[-4.628,48.0864],[-4.6417,48.0736],[-4.6837,48.0673],[-4.6974,48.0749],[-4.7281,48.0406],[-4.653,48.0263],[-4.6321,48.026],[-4.5804,48.0114],[-4.572,48.0059],[-4.5681,48.008],[-4.4957,47.9875],[-4.4912,47.9556],[-4.4078,47.9345],[-4.376,47.8777],[-4.3474,47.8532],[-4.3476,47.8383],[-4.3734,47.8287],[-4.3718,47.8072],[-4.2252,47.8024],[-4.1852,47.8134],[-4.1696,47.8235],[-4.0697,47.8482],[-4.0648,47.8478],[-3.6498,47.7429],[-3.5824,47.7258],[-3.5487,47.7173],[-3.5151,47.7088],[-3.3805,47.6748],[-3.1642,47.6201],[-3.1412,47.598],[-3.1339,47.5439],[-3.1438,47.507],[-3.1317,47.4782],[-3.0845,47.4782],[-3.1233,47.519],[-3.1289,47.5476],[-3.112,47.5992],[-3.0738,47.5765],[-3.0424,47.5881],[-3.0034,47.5787],[-3.003,47.5794],[-2.9648,47.5697],[-2.8435,47.4865],[-2.7637,47.4318],[-2.7238,47.4045],[-2.684,47.3772],[-2.6458,47.351],[-2.365,47.1585],[-2.3168,47.1254],[-2.2491,47.079],[-2.2382,47.0715],[-2.2268,47.0637],[-2.2098,47.0464],[-2.2079,47.0445],[-2.1814,47.0175],[-2.1532,46.9889],[-2.1137,46.9487],[-2.098,46.9328],[-2.1022,46.9307],[-2.0963,46.9165],[-2.122,46.9037],[-2.1313,46.8718],[-2.1188,46.82],[-2.0503,46.7921],[-2.0022,46.7575],[-1.9921,46.7485],[-1.965,46.7104],[-1.9398,46.7019],[-1.9208,46.685],[-1.8213,46.558],[-1.8048,46.5036],[-1.7817,46.4954],[-1.7854,46.514],[-1.7742,46.5093],[-1.7684,46.5002],[-1.6868,46.4609],[-1.6459,46.4558],[-1.6321,46.4501],[-1.6256,46.4311],[-1.5988,46.425],[-1.598,46.425],[-1.5344,46.3603],[-1.5025,46.3279],[-1.4706,46.2956],[-1.4421,46.2666],[-1.4136,46.2377],[-1.4905,46.2244],[-1.508,46.2456],[-1.4739,46.2381],[-1.4679,46.2499],[-1.4981,46.2619],[-1.5558,46.2518],[-1.5043,46.2077],[-1.4329,46.2108],[-1.3506,46.1737],[-1.3432,46.1662],[-1.2496,46.0712],[-1.1936,46.0143],[-1.2021,45.9262],[-1.2198,45.9431],[-1.2194,45.9439],[-1.2336,45.9917],[-1.2738,45.9976],[-1.3399,46.0378],[-1.3829,46.048],[-1.3876,46.0501],[-1.3876,46.0499],[-1.388,46.0501],[-1.388,46.0492],[-1.4049,46.0532],[-1.3833,46.0155],[-1.375,45.9858],[-1.3783,45.976],[-1.3402,45.9387],[-1.2778,45.8942],[-1.2457,45.8546],[-1.2269,45.8198],[-1.2127,45.8153],[-1.2147,45.7949],[-1.2303,45.7924],[-1.2473,45.7099],[-1.2228,45.71],[-1.23,45.6345],[-1.2337,45.5966],[-1.2373,45.5588],[-1.2518,45.4074],[-1.2808,45.1045],[-1.3388,44.4988],[-1.3458,44.4252],[-1.3529,44.3516],[-1.367,44.2044],[-1.3844,44.0225],[-1.4818,43.9099],[-1.6848,43.6753],[-1.7231,43.6311],[-1.7997,43.5425],[-1.7614,43.5425],[-1.7614,43.4982],[-1.762,43.4982],[-1.762,43.4067],[-1.8006,43.4067],[-1.8006,43.3894],[-1.7941,43.386],[-1.7969,43.3411],[-1.7682,43.3309],[-1.7497,43.2948],[-1.6739,43.3042],[-1.645,43.2924],[-1.639,43.2557],[-1.5876,43.2516],[-1.559,43.2841],[-1.5081,43.2768],[-1.4664,43.2608],[-1.4322,43.265],[-1.4035,43.2433],[-1.3997,43.2067],[-1.4258,43.1353],[-1.4878,43.0818],[-1.4753,43.0601],[-1.435,43.0357],[-1.3831,43.0292],[-1.3576,43.0468],[-1.3483,43.0931],[-1.3086,43.1136],[-1.3106,43.0695],[-1.2749,43.0468],[-1.2169,43.0393],[-1.1499,43.0057],[-1.1124,43.0083],[-1.0797,42.9934],[-1.0285,42.9867],[-0.9815,42.957],[-0.9432,42.9479],[-0.8635,42.9431],[-0.7864,42.9533],[-0.7597,42.9465],[-0.745,42.9187],[-0.7459,42.8939],[-0.7301,42.8775],[-0.7004,42.8764],[-0.6483,42.8498],[-0.6095,42.8114],[-0.5829,42.7958],[-0.5787,42.7773],[-0.5356,42.7842],[-0.5339,42.808],[-0.5084,42.8075],[-0.4545,42.7889],[-0.4239,42.7907],[-0.3228,42.8425],[-0.3051,42.8308],[-0.247,42.8048],[-0.2351,42.7862],[-0.2084,42.7839],[-0.1614,42.7953],[-0.1636,42.778],[-0.119,42.7169],[-0.0389,42.6851],[-0.0043,42.6875],[0.0728,42.7085],[0.1342,42.7152],[0.1692,42.7265],[0.2384,42.7104],[0.2754,42.6687],[0.2902,42.6703],[0.336,42.7127],[0.3542,42.7175],[0.3893,42.6851],[0.4669,42.6904],[0.4835,42.6853],[0.6082,42.688],[0.6436,42.6845],[0.6634,42.6962],[0.6665,42.7148],[0.6335,42.7448],[0.6537,42.8027],[0.6563,42.8384],[0.7243,42.8453],[0.7763,42.8325],[0.8129,42.8316],[0.8561,42.8128],[0.9211,42.7844],[0.9587,42.7937],[0.9829,42.7804],[1.0682,42.7761],[1.1067,42.7596],[1.1343,42.716],[1.1625,42.7057],[1.1959,42.7136],[1.3191,42.7134],[1.3611,42.6867],[1.398,42.6436],[1.4293,42.5954],[1.4514,42.6021],[1.4668,42.6415],[1.4984,42.6402],[1.5278,42.6485],[1.5431,42.6494],[1.5973,42.6219],[1.6083,42.6181],[1.722,42.6099],[1.7133,42.5895],[1.7294,42.582],[1.7527,42.5767],[1.7611,42.5676],[1.7651,42.5634],[1.74,42.5616],[1.7217,42.5485],[1.7171,42.5399],[1.7106,42.5277],[1.707,42.5028],[1.7122,42.4937],[1.7927,42.4817],[1.8698,42.4468],[1.9275,42.4369],[1.9637,42.3672],[1.9957,42.3487],[2.0517,42.3524],[2.104,42.3848],[2.137,42.4162],[2.1842,42.4118],[2.2774,42.4286],[2.3755,42.3893],[2.4225,42.3837],[2.4649,42.3406],[2.5253,42.3259],[2.5481,42.3522],[2.6134,42.341],[2.6622,42.339],[2.6403,42.3728],[2.6904,42.4062],[2.7285,42.414],[2.7886,42.412],[2.8508,42.4484],[2.9008,42.4513],[2.9337,42.4702],[2.9661,42.461],[2.9831,42.4693],[3.0296,42.4657],[3.0656,42.432],[3.1117,42.425],[3.181,42.4315],[3.1801,42.4358],[3.2108,42.4358],[3.1988,42.4617],[3.1911,42.471],[3.0908,42.5919],[3.087,42.6117],[3.0604,42.7524],[3.0502,42.806],[3.0535,42.8228],[3.0602,42.858],[3.0669,42.8931],[3.0789,42.9558],[3.1628,43.0811],[3.1703,43.0896],[3.1721,43.09],[3.1851,43.0929],[3.2652,43.1108],[3.3053,43.1198],[3.3453,43.1287],[3.4254,43.1466],[3.8117,43.233],[3.9569,43.2654],[4.0052,43.2762],[4.102,43.2978],[4.1503,43.3086],[4.1987,43.3194],[4.2471,43.3303],[4.2955,43.3411],[4.3922,43.3627],[4.5558,43.3993],[4.5808,43.3958],[4.5663,43.3711],[4.5923,43.3599],[4.6659,43.3475],[4.8203,43.3464],[4.8224,43.3626],[4.846,43.3594],[4.8558,43.3418],[4.8792,43.3548],[5.0519,43.3311],[5.0648,43.328],[5.0748,43.328],[5.3541,43.2897],[5.3573,43.2803],[5.3692,43.2704],[5.347,43.2159],[5.4398,43.2076],[5.5174,43.2074],[5.542,43.2028],[5.5727,43.1691],[5.6124,43.1604],[5.6329,43.1856],[5.6717,43.1783],[5.6752,43.1763],[5.6963,43.1469],[5.741,43.1321],[5.7515,43.1317],[5.8085,43.0984],[5.8089,43.0984],[5.817,43.0985],[5.7819,43.0791],[5.819,43.0535],[5.8566,43.0448],[5.8753,43.0688],[5.9403,43.0709],[5.9514,43.08],[5.9106,43.0932],[5.9038,43.0992],[5.9985,43.0999],[6.0165,43.0989],[6.027,43.0782],[6.0846,43.0824],[6.1145,43.0724],[6.1147,43.0725],[6.1149,43.0724],[6.1175,43.0733],[6.1321,43.0526],[6.0977,43.0313],[6.1801,43.0359],[6.1528,43.0481],[6.162,43.0887],[6.245,43.1174],[6.2804,43.1187],[6.3423,43.0908],[6.3754,43.0908],[6.3661,43.1186],[6.3785,43.1361],[6.4038,43.1455],[6.5285,43.1285],[6.5289,43.1285],[6.6061,43.1766],[6.6099,43.1734],[6.6798,43.2016],[6.6745,43.2192],[6.7673,43.2771],[6.9335,43.3806],[6.9373,43.383],[7.0118,43.4294],[7.049,43.4526],[7.0863,43.4758],[7.1073,43.4889],[7.2773,43.5948],[7.3624,43.6479],[7.4029,43.6731],[7.3624,43.6731],[7.3624,43.7192],[7.3658,43.7227],[7.3673,43.7341],[7.3727,43.7458],[7.3875,43.7579],[7.407,43.7635],[7.4262,43.7555],[7.4375,43.7434],[7.4474,43.7488],[7.4474,43.744],[7.4899,43.744],[7.4899,43.7885],[7.5023,43.7922],[7.4779,43.8655],[7.4935,43.8862],[7.5569,43.9441],[7.6309,43.9935],[7.6348,44.0015],[7.62,44],[7.52,44.03],[7.43,44.08],[7.43,44.1331],[7.3808,44.1229],[7.3406,44.1237],[7.3093,44.1475],[7.2513,44.16],[7.145,44.2072],[7.0335,44.2429],[6.9961,44.2378],[6.9734,44.2494],[6.9592,44.2774],[6.9212,44.3022],[6.8784,44.3546],[6.8661,44.3721],[6.8772,44.4144],[6.9178,44.4363],[6.8613,44.4749],[6.8388,44.5029],[6.8464,44.5475],[6.8973,44.5754],[6.9456,44.6254],[6.9383,44.658],[6.9828,44.6922],[7.0552,44.6849],[7.0388,44.7121],[7.019,44.7389],[6.9984,44.7938],[7.0071,44.8221],[6.9828,44.847],[6.9327,44.8617],[6.866,44.8557],[6.7782,44.8876],[6.7279,44.9287],[6.7299,44.9847],[6.7235,45.0134],[6.6972,45.0269],[6.6622,45.0292],[6.6397,45.0504],[6.6366,45.0745],[6.6027,45.1035],[6.6294,45.1235],[6.6674,45.1396],[6.6944,45.1403],[6.7364,45.1573],[6.7715,45.1532],[6.8441,45.1301],[6.8767,45.1412],[6.8813,45.1684],[6.9138,45.1702],[6.9587,45.2098],[7.0297,45.2282],[7.0502,45.215],[7.1084,45.2592],[7.0926,45.324],[7.1301,45.3571],[7.1607,45.4109],[7.0968,45.4354],[7.0754,45.4663],[6.9828,45.5111],[6.9698,45.567],[6.9549,45.5862],[6.9695,45.6258],[6.9634,45.6407],[6.9186,45.6526],[6.8826,45.6755],[6.8431,45.6827],[6.7959,45.7181],[6.7839,45.765],[6.7827,45.7953],[6.8008,45.8265],[6.8434,45.8386],[6.8707,45.8283],[6.8735,45.8448],[6.9051,45.8454],[6.9692,45.8698],[6.9972,45.9113],[7.0221,45.9253],[6.9828,45.9954],[6.9151,46.0486],[6.8924,46.0556],[6.8509,46.0496],[6.8513,46.086],[6.8692,46.1123],[6.8539,46.1226],[6.7743,46.1348],[6.7657,46.1516],[6.7922,46.2217],[6.8277,46.2695],[6.7504,46.3455],[6.7821,46.3785],[6.7881,46.405],[6.7627,46.4293],[6.6137,46.4559],[6.547,46.4574],[6.4829,46.4486],[6.3977,46.4082],[6.3016,46.3945],[6.2691,46.375],[6.2195,46.3291],[6.2166,46.3095],[6.2376,46.2679],[6.2523,46.2599],[6.276,46.2631],[6.2812,46.2401],[6.2554,46.2211],[6.1914,46.1917],[6.1403,46.1502],[6.1079,46.1386],[6.0739,46.1492],[6.0283,46.1479],[5.9829,46.1404],[5.9588,46.1305],[5.9829,46.1708],[5.9548,46.1999],[5.9585,46.212],[5.9829,46.2227],[6.0429,46.2431],[6.0677,46.2416],[6.0897,46.2464],[6.1007,46.3014],[6.1186,46.3318],[6.1351,46.3704],[6.1082,46.3965],[6.059,46.4174],[6.0642,46.4711],[6.1457,46.5516],[6.138,46.5576],[6.1184,46.5835],[6.1319,46.5956],[6.2663,46.6804],[6.3379,46.7074],[6.3742,46.7336],[6.4292,46.7608],[6.4326,46.786],[6.4186,46.807],[6.4431,46.8515],[6.4484,46.8716],[6.4278,46.9091],[6.4426,46.9442],[6.4911,46.9634],[6.5987,46.9865],[6.6654,47.0213],[6.6883,47.0438],[6.6763,47.0624],[6.6991,47.0846],[6.746,47.1039],[6.7448,47.1211],[6.7748,47.1282],[6.8381,47.1681],[6.8883,47.2113],[6.9562,47.2452],[6.9586,47.2906],[7.0443,47.3405],[7.004,47.3681],[6.9856,47.3621],[6.8666,47.3542],[6.8988,47.3957],[6.9245,47.406],[6.9392,47.4268],[6.991,47.4522],[6.9733,47.4891],[7.0008,47.4977],[7.0539,47.4904],[7.1037,47.4963],[7.1422,47.4877],[7.1808,47.4883],[7.1626,47.4599],[7.1683,47.4436],[7.2448,47.4177],[7.2826,47.4289],[7.3369,47.4319],[7.3882,47.4333],[7.4206,47.4509],[7.4276,47.4707],[7.4144,47.484],[7.426,47.4925],[7.446,47.4869],[7.4674,47.4819],[7.4858,47.4988],[7.4769,47.5149],[7.5011,47.5173],[7.5052,47.533],[7.4827,47.5423],[7.5209,47.5634],[7.5263,47.5665],[7.5503,47.5755],[7.5855,47.5845],[7.586,47.5846],[7.5903,47.6079],[7.5501,47.6524],[7.5218,47.6704],[7.5119,47.7073],[7.5378,47.7318],[7.5259,47.7832],[7.5429,47.8294],[7.562,47.8392],[7.5579,47.8785],[7.5808,47.9108],[7.5849,47.9404],[7.6211,47.9714],[7.6189,48.0027],[7.5757,48.0537],[7.5726,48.095],[7.582,48.1214],[7.6134,48.1792],[7.6766,48.2384],[7.6935,48.2699],[7.7025,48.3112],[7.737,48.3267],[7.752,48.3553],[7.7383,48.4066],[7.7765,48.4982],[7.8135,48.5195],[7.8017,48.5476],[7.8103,48.615],[7.8524,48.6587],[7.8806,48.6677],[7.9592,48.7214],[7.9701,48.7573],[8.023,48.7651],[8.0273,48.78],[8.0842,48.8041],[8.1027,48.8213],[8.1481,48.9037],[8.1999,48.9583],[8.1887,48.9657],[8.0904,48.9792],[7.9319,49.0348],[7.8569,49.0323],[7.7737,49.0481],[7.7269,49.0357],[7.6851,49.0428],[7.6449,49.0363],[7.6086,49.062],[7.5209,49.0837],[7.471,49.1283],[7.4761,49.1515],[7.4148,49.1578],[7.4105,49.1689],[7.3716,49.1662],[7.3265,49.1318],[7.2971,49.1281],[7.2681,49.1056],[7.2412,49.1139],[7.155,49.1144],[7.0853,49.1415],[7.0732,49.1203],[7.0425,49.1076],[7.0205,49.119],[7.009,49.1464],[7.0095,49.1817],[6.9879,49.1824],[6.9254,49.2056],[6.8435,49.2111],[6.8277,49.1956],[6.839,49.1628],[6.8091,49.1458],[6.7701,49.1553],[6.7256,49.1556],[6.701,49.1729],[6.7025,49.2136],[6.6806,49.2075],[6.6638,49.2439],[6.6397,49.2712],[6.5732,49.3131],[6.5501,49.338],[6.5743,49.3618],[6.5257,49.3955],[6.4945,49.4355],[6.4027,49.4655],[6.3453,49.4553],[6.2988,49.4662],[6.2511,49.4895],[6.1936,49.4994],[6.1361,49.4953],[6.0998,49.4646],[6.0633,49.4485],[5.9607,49.4413],[5.9281,49.4823],[5.8647,49.4922],[5.8221,49.5105],[5.7907,49.5378],[5.7571,49.5484],[5.7103,49.5311],[5.6446,49.5438],[5.6023,49.5137],[5.5476,49.5234],[5.4777,49.4952],[5.4499,49.5078],[5.4502,49.5458],[5.3912,49.6088],[5.3349,49.6258],[5.2979,49.6133],[5.2994,49.6625],[5.2592,49.6913],[5.1925,49.6828],[5.1364,49.7053],[5.0819,49.7527],[5.0263,49.7667],[4.9684,49.797],[4.8842,49.7841],[4.849,49.7942],[4.8492,49.8316],[4.8369,49.848],[4.8594,49.8917],[4.8446,49.9317],[4.7973,49.9443],[4.7883,49.9743],[4.8267,50.036],[4.8272,50.0641],[4.846,50.0907],[4.8629,50.0841],[4.8719,50.1398],[4.8201,50.1464],[4.8156,50.1613],[4.7886,50.1534],[4.6819,50.0839],[4.6729,50.0164],[4.6567,49.9891],[4.6042,49.9802],[4.4648,49.9356],[4.4277,49.9336],[4.2776,49.9602],[4.2159,49.9544],[4.1877,49.9555],[4.1317,49.975],[4.1373,50.0251],[4.21,50.0602],[4.1806,50.1272],[4.1258,50.1282],[4.1573,50.2127],[4.2037,50.252],[4.1628,50.273],[4.1437,50.2516],[4.1253,50.2571],[4.0979,50.2948],[4.0227,50.3381],[3.9821,50.3426],[3.8959,50.3253],[3.8402,50.3452],[3.7987,50.3485],[3.7415,50.3431],[3.6969,50.2982],[3.6617,50.3193],[3.6529,50.3602],[3.6444,50.4455],[3.6083,50.4765],[3.5637,50.4865],[3.4991,50.4868],[3.4915,50.5171],[3.4629,50.5191],[3.4292,50.5018],[3.3854,50.4916],[3.3436,50.4929],[3.2999,50.5075],[3.271,50.5269],[3.2643,50.5702],[3.2298,50.6554],[3.2438,50.6721],[3.2244,50.7052],[3.1969,50.7092],[3.1628,50.7499],[3.1292,50.7791],[3.1033,50.7841],[3.0238,50.7683],[2.9714,50.7578],[2.9302,50.7362],[2.9001,50.7031],[2.8667,50.7001],[2.7682,50.7332],[2.7438,50.7662],[2.7066,50.7888],[2.6919,50.8088],[2.6204,50.8165],[2.59,50.842],[2.5967,50.8676],[2.5769,50.9115],[2.6117,50.9412],[2.6085,50.9611],[2.557,51.0012],[2.537,51.0646],[2.5218,51.0875],[2.5226,51.0877],[2.5226,51.1502],[2.5144,51.1482],[2.4793,51.1401],[2.1333,51.0605],[2.0901,51.0505],[2.0468,51.0405],[1.9603,51.0206],[1.6396,50.9468],[1.6143,50.8782],[1.5806,50.8688],[1.5946,50.8248],[1.512,50.6011],[1.4707,50.4893],[1.4501,50.4334],[1.4398,50.4055],[1.4294,50.3775],[1.3696,50.2153],[1.3489,50.1593],[1.3372,50.1276],[1.2877,50.111],[1.268,50.1044],[1.1871,50.0772],[1.0252,50.0229],[0.0541,49.6971],[-0.1077,49.6428],[-0.1887,49.6156],[-0.2696,49.5885],[-0.31,49.5749],[-0.3505,49.5613],[-0.4314,49.5342],[-0.5933,49.4799],[-0.887,49.3813],[-0.9169,49.3864],[-0.9404,49.3923],[-0.9543,49.3928],[-0.9592,49.3936],[-0.9596,49.3936],[-0.9698,49.3933],[-1.0723,49.3968],[-1.084,49.3909],[-1.158,49.4245],[-1.1847,49.4366],[-1.1932,49.4457],[-1.212,49.4688],[-1.2328,49.4943],[-1.263,49.5914],[-1.2533,49.6123],[-1.2278,49.6241],[-1.2322,49.6414],[-1.258,49.6792],[-1.258,49.68],[-1.2587,49.6802],[-1.2711,49.6984],[-1.3913,49.7127],[-1.4557,49.7022],[-1.4752,49.6884],[-1.5894,49.6679],[-1.7044,49.6818],[-1.7249,49.682],[-1.7251,49.682],[-1.9348,49.7772],[-1.9347,49.777],[-1.9352,49.7772],[-1.9351,49.7767],[-1.9352,49.7768],[-1.9208,49.7253],[-1.9352,49.7241],[-1.9456,49.678],[-1.9051,49.6693],[-1.8704,49.5452],[-1.8847,49.5309],[-1.8602,49.5086],[-1.7352,49.0619],[-1.6727,48.8386],[-1.6415,48.727],[-1.6266,48.6738],[-1.6185,48.645],[-1.6404,48.6483],[-1.6719,48.6532],[-1.735,48.6628],[-1.8466,48.68],[-1.8363,48.6911],[-1.8437,48.7121],[-1.9484,48.6956],[-2.022,48.7069],[-2.0588,48.7125],[-2.0956,48.7182],[-2.2427,48.7407],[-2.537,48.7859],[-3.0915,48.8709],[-3.0915,48.8713],[-3.0928,48.8711],[-3.2956,48.9022],[-3.296,48.9022],[-3.4676,48.8733],[-3.655,48.8417],[-3.7018,48.8338],[-3.7487,48.8259],[-3.8424,48.8101],[-4.592,48.6838],[-4.5919,48.6834],[-4.592,48.6834],[-4.5807,48.6022],[-4.6077,48.603],[-4.5976,48.5914],[-4.6277,48.5788],[-4.6425,48.5819],[-4.722,48.5682],[-4.7646,48.5202],[-4.7746,48.4913],[-4.7493,48.4788],[-4.7799,48.4549],[-4.7834,48.4174],[-4.7648,48.3776],[-4.7834,48.3764]]],[[[7.4899,43.7033],[7.5324,43.7107],[7.5324,43.744],[7.4899,43.744],[7.4899,43.7033]]],[[[8.5445,42.2568],[8.5771,42.1613],[8.5691,42.155],[8.5863,42.1335],[8.5867,42.1335],[8.6384,41.9822],[8.6317,41.9754],[8.5863,41.969],[8.6144,41.9441],[8.6143,41.9008],[8.6633,41.9094],[8.7118,41.7675],[8.7092,41.7636],[8.6551,41.7499],[8.703,41.7425],[8.6956,41.7294],[8.7235,41.7335],[8.7749,41.5832],[8.7949,41.5742],[8.7918,41.5612],[8.8533,41.5439],[8.8396,41.5308],[8.8737,41.5234],[8.9357,41.4892],[8.9785,41.4852],[9.0017,41.477],[9.1113,41.4221],[9.0964,41.4035],[9.1691,41.3862],[9.1939,41.3691],[9.2232,41.3725],[9.2272,41.3806],[9.2285,41.38],[9.2286,41.3802],[9.2289,41.38],[9.2431,41.4132],[9.2503,41.4278],[9.2492,41.4272],[9.2661,41.4666],[9.2708,41.4687],[9.2791,41.4916],[9.2774,41.493],[9.3016,41.5494],[9.3411,41.5693],[9.3451,41.6045],[9.3229,41.5991],[9.3325,41.6214],[9.3467,41.6196],[9.3452,41.6403],[9.3731,41.6452],[9.3675,41.6719],[9.3729,41.6784],[9.3738,41.6805],[9.4016,41.7064],[9.403,41.7797],[9.4025,41.7848],[9.4195,41.8243],[9.4365,41.8639],[9.4704,41.943],[9.5384,42.1013],[9.5527,42.113],[9.5596,42.1466],[9.5589,42.149],[9.5601,42.1519],[9.56,42.1522],[9.5601,42.1523],[9.5554,42.176],[9.5539,42.1969],[9.5596,42.2946],[9.5432,42.342],[9.5387,42.4028],[9.5459,42.4351],[9.535,42.4536],[9.5331,42.4788],[9.5322,42.5444],[9.5186,42.581],[9.4896,42.6126],[9.4978,42.5953],[9.4737,42.6162],[9.464,42.6396],[9.4577,42.6712],[9.478,42.7886],[9.4828,42.8023],[9.4844,42.8324],[9.4655,42.9235],[9.4701,42.9423],[9.4603,42.9553],[9.4629,42.9804],[9.4629,42.9808],[9.4611,42.9824],[9.464,42.9901],[9.4224,43.0174],[9.4219,43.0173],[9.4161,43.0225],[9.4157,43.0225],[9.3617,43.0173],[9.3561,43.0047],[9.3418,42.9907],[9.3441,42.9829],[8.7461,42.6279],[8.6861,42.5177],[8.6675,42.5097],[8.6597,42.4771],[8.6635,42.4761],[8.6358,42.4252],[8.6307,42.421],[8.6187,42.4196],[8.6075,42.4018],[8.5877,42.3854],[8.5877,42.3853],[8.5705,42.3818],[8.5521,42.3867],[8.5596,42.3464],[8.583,42.349],[8.5913,42.345],[8.5922,42.345],[8.5445,42.2572],[8.5446,42.257],[8.5445,42.2568]]]]}},
{"type":"Feature","properties":{"entityId":"france","from":1947,"to":null,"certainty":"estimated","source":"유럽 쪽은 Natural Earth 1:10m admin-1(v5.1.2) 현대 행정구역 조각을 그 시기 국경에 맞춰 묶고, 조각이 역사 경계와 다른 곳은 선을 그어 나눈 근사. 유럽 밖(시베리아·중앙아시아·극동)은 대략적인 추정. 운영자 검수 필요"},"geometry":{"type":"MultiPolygon","coordinates":[[[[7.0221,45.9253],[6.9972,45.9113],[6.9692,45.8698],[6.9051,45.8454],[6.8735,45.8448],[6.8707,45.8283],[6.8434,45.8386],[6.8008,45.8265],[6.7827,45.7953],[6.7839,45.765],[6.7959,45.7181],[6.8431,45.6827],[6.8826,45.6755],[6.9186,45.6526],[6.9634,45.6407],[6.9695,45.6258],[6.9549,45.5862],[6.9698,45.567],[6.9828,45.5111],[7.0754,45.4663],[7.0968,45.4354],[7.1607,45.4109],[7.1301,45.3571],[7.0926,45.324],[7.1084,45.2592],[7.0502,45.215],[7.0297,45.2282],[6.9587,45.2098],[6.9138,45.1702],[6.8813,45.1684],[6.8767,45.1412],[6.8441,45.1301],[6.7715,45.1532],[6.7364,45.1573],[6.6944,45.1403],[6.6674,45.1396],[6.6294,45.1235],[6.6027,45.1035],[6.6366,45.0745],[6.6397,45.0504],[6.6622,45.0292],[6.6972,45.0269],[6.7235,45.0134],[6.7299,44.9847],[6.7279,44.9287],[6.7782,44.8876],[6.866,44.8557],[6.9327,44.8617],[6.9828,44.847],[7.0071,44.8221],[6.9984,44.7938],[7.019,44.7389],[7.0388,44.7121],[7.0552,44.6849],[6.9828,44.6922],[6.9383,44.658],[6.9456,44.6254],[6.8973,44.5754],[6.8464,44.5475],[6.8388,44.5029],[6.8613,44.4749],[6.9178,44.4363],[6.8772,44.4144],[6.8661,44.3721],[6.8784,44.3546],[6.9212,44.3022],[6.9592,44.2774],[6.9734,44.2494],[6.9961,44.2378],[7.0335,44.2429],[7.145,44.2072],[7.2513,44.16],[7.3093,44.1475],[7.3406,44.1237],[7.3808,44.1229],[7.5548,44.1591],[7.5836,44.1607],[7.6247,44.1801],[7.6556,44.1761],[7.6419,44.1436],[7.6879,44.0908],[7.6899,44.0673],[7.6534,44.0397],[7.6309,43.9935],[7.5569,43.9441],[7.4935,43.8862],[7.4779,43.8655],[7.5023,43.7922],[7.4899,43.7885],[7.4899,43.744],[7.4474,43.744],[7.4474,43.7488],[7.4375,43.7434],[7.4262,43.7555],[7.407,43.7635],[7.3875,43.7579],[7.3727,43.7458],[7.3673,43.7341],[7.3658,43.7227],[7.3624,43.7192],[7.3624,43.6983],[7.3624,43.6731],[7.4029,43.6731],[7.3624,43.6479],[7.2773,43.5948],[7.1073,43.4889],[7.0863,43.4758],[7.049,43.4526],[7.0118,43.4294],[6.9373,43.383],[6.9335,43.3806],[6.7673,43.2771],[6.6745,43.2192],[6.6798,43.2016],[6.6099,43.1734],[6.6061,43.1766],[6.5289,43.1285],[6.5286,43.1285],[6.5285,43.1285],[6.4038,43.1455],[6.3785,43.1361],[6.3661,43.1186],[6.3754,43.0908],[6.3423,43.0908],[6.2804,43.1187],[6.245,43.1174],[6.162,43.0887],[6.1528,43.0481],[6.1801,43.0359],[6.0977,43.0313],[6.1321,43.0526],[6.1175,43.0733],[6.1149,43.0724],[6.1147,43.0725],[6.1145,43.0724],[6.0846,43.0824],[6.027,43.0782],[6.0165,43.0989],[5.9985,43.0999],[5.9038,43.0992],[5.9106,43.0932],[5.9514,43.08],[5.9403,43.0709],[5.8753,43.0688],[5.8566,43.0448],[5.819,43.0535],[5.7819,43.0791],[5.817,43.0985],[5.8089,43.0984],[5.8085,43.0984],[5.7515,43.1317],[5.741,43.1321],[5.6963,43.1469],[5.6752,43.1763],[5.6717,43.1783],[5.6329,43.1856],[5.6124,43.1604],[5.5727,43.1691],[5.542,43.2028],[5.5174,43.2074],[5.4398,43.2076],[5.347,43.2159],[5.3692,43.2704],[5.3573,43.2803],[5.3541,43.2897],[5.0748,43.328],[5.0648,43.328],[5.0519,43.3311],[4.8792,43.3548],[4.8558,43.3418],[4.846,43.3594],[4.8224,43.3626],[4.8203,43.3464],[4.6659,43.3475],[4.5923,43.3599],[4.5663,43.3711],[4.5808,43.3958],[4.5558,43.3993],[4.3922,43.3627],[4.2955,43.3411],[4.2471,43.3303],[4.1987,43.3194],[4.1503,43.3086],[4.102,43.2978],[4.0052,43.2762],[3.9569,43.2654],[3.9085,43.2546],[3.8117,43.233],[3.4254,43.1466],[3.3453,43.1287],[3.3053,43.1198],[3.2652,43.1108],[3.1851,43.0929],[3.1721,43.09],[3.1703,43.0896],[3.1628,43.0811],[3.0789,42.9558],[3.0669,42.8931],[3.0602,42.858],[3.0535,42.8228],[3.0502,42.806],[3.0604,42.7524],[3.087,42.6117],[3.0908,42.5919],[3.1911,42.471],[3.1988,42.4617],[3.2108,42.4358],[3.1983,42.4358],[3.1801,42.4358],[3.181,42.4315],[3.1117,42.425],[3.0656,42.432],[3.0296,42.4657],[2.9831,42.4693],[2.9661,42.461],[2.9337,42.4702],[2.9008,42.4513],[2.8508,42.4484],[2.7886,42.412],[2.7285,42.414],[2.6904,42.4062],[2.6403,42.3728],[2.6622,42.339],[2.6134,42.341],[2.5481,42.3522],[2.5253,42.3259],[2.4649,42.3406],[2.4225,42.3837],[2.3755,42.3893],[2.2774,42.4286],[2.1842,42.4118],[2.137,42.4162],[2.104,42.3848],[2.0517,42.3524],[1.9957,42.3487],[1.9637,42.3672],[1.9275,42.4369],[1.8698,42.4468],[1.7927,42.4817],[1.7122,42.4937],[1.707,42.5028],[1.7106,42.5277],[1.7171,42.5399],[1.7217,42.5485],[1.74,42.5616],[1.7651,42.5634],[1.7611,42.5676],[1.7527,42.5767],[1.7294,42.582],[1.7133,42.5895],[1.722,42.6099],[1.6083,42.6181],[1.5973,42.6219],[1.5431,42.6494],[1.5278,42.6485],[1.4984,42.6402],[1.4668,42.6415],[1.4514,42.6021],[1.4293,42.5954],[1.398,42.6436],[1.3611,42.6867],[1.3191,42.7134],[1.1959,42.7136],[1.1625,42.7057],[1.1343,42.716],[1.1067,42.7596],[1.0682,42.7761],[0.9829,42.7804],[0.9587,42.7937],[0.9211,42.7844],[0.8561,42.8128],[0.8129,42.8316],[0.7763,42.8325],[0.7243,42.8453],[0.6563,42.8384],[0.6537,42.8027],[0.6335,42.7448],[0.6665,42.7148],[0.6634,42.6962],[0.6436,42.6845],[0.6082,42.688],[0.4835,42.6853],[0.4669,42.6904],[0.3893,42.6851],[0.3542,42.7175],[0.336,42.7127],[0.2902,42.6703],[0.2754,42.6687],[0.2384,42.7104],[0.1692,42.7265],[0.1342,42.7152],[0.0728,42.7085],[-0.0043,42.6875],[-0.0389,42.6851],[-0.119,42.7169],[-0.1636,42.778],[-0.1614,42.7953],[-0.2084,42.7839],[-0.2351,42.7862],[-0.247,42.8048],[-0.3051,42.8308],[-0.3228,42.8425],[-0.4239,42.7907],[-0.4545,42.7889],[-0.5084,42.8075],[-0.5339,42.808],[-0.5356,42.7842],[-0.5787,42.7773],[-0.5829,42.7958],[-0.6095,42.8114],[-0.6483,42.8498],[-0.7004,42.8764],[-0.7301,42.8775],[-0.7459,42.8939],[-0.745,42.9187],[-0.7597,42.9465],[-0.7864,42.9533],[-0.8635,42.9431],[-0.9432,42.9479],[-0.9815,42.957],[-1.0285,42.9867],[-1.0797,42.9934],[-1.1124,43.0083],[-1.1499,43.0057],[-1.2169,43.0393],[-1.2749,43.0468],[-1.3106,43.0695],[-1.3086,43.1136],[-1.3483,43.0931],[-1.3576,43.0468],[-1.3831,43.0292],[-1.435,43.0357],[-1.4753,43.0601],[-1.4878,43.0818],[-1.4258,43.1353],[-1.3997,43.2067],[-1.4035,43.2433],[-1.4322,43.265],[-1.4664,43.2608],[-1.5081,43.2768],[-1.559,43.2841],[-1.5876,43.2516],[-1.639,43.2557],[-1.645,43.2924],[-1.6739,43.3042],[-1.7497,43.2948],[-1.7682,43.3309],[-1.7969,43.3411],[-1.7941,43.386],[-1.8006,43.3894],[-1.8006,43.4067],[-1.762,43.4067],[-1.762,43.4372],[-1.762,43.4406],[-1.762,43.4677],[-1.762,43.4694],[-1.762,43.4982],[-1.7614,43.4982],[-1.7614,43.5425],[-1.7997,43.5425],[-1.7614,43.5868],[-1.7231,43.6311],[-1.6848,43.6753],[-1.4818,43.9099],[-1.3844,44.0225],[-1.367,44.2044],[-1.3529,44.3516],[-1.3458,44.4252],[-1.3423,44.462],[-1.3388,44.4988],[-1.2808,45.1045],[-1.2518,45.4074],[-1.2373,45.5588],[-1.2337,45.5966],[-1.23,45.6345],[-1.2228,45.71],[-1.2473,45.7099],[-1.2303,45.7924],[-1.2147,45.7949],[-1.2127,45.8153],[-1.2269,45.8198],[-1.2457,45.8546],[-1.2778,45.8942],[-1.3402,45.9387],[-1.3783,45.976],[-1.375,45.9858],[-1.3833,46.0155],[-1.4049,46.0532],[-1.388,46.0492],[-1.388,46.0501],[-1.3876,46.0499],[-1.3876,46.0501],[-1.3829,46.048],[-1.3399,46.0378],[-1.2738,45.9976],[-1.2336,45.9917],[-1.2194,45.9439],[-1.2198,45.9431],[-1.2021,45.9262],[-1.1936,46.0143],[-1.2496,46.0712],[-1.3432,46.1662],[-1.3506,46.1737],[-1.4329,46.2108],[-1.5043,46.2077],[-1.5558,46.2518],[-1.4981,46.2619],[-1.4679,46.2499],[-1.4739,46.2381],[-1.508,46.2456],[-1.4905,46.2244],[-1.4136,46.2377],[-1.4421,46.2666],[-1.4706,46.2956],[-1.5025,46.3279],[-1.5344,46.3603],[-1.598,46.425],[-1.5988,46.425],[-1.6256,46.4311],[-1.6321,46.4501],[-1.6459,46.4558],[-1.6868,46.4609],[-1.7684,46.5002],[-1.7742,46.5093],[-1.7854,46.514],[-1.7817,46.4954],[-1.8048,46.5036],[-1.8213,46.558],[-1.9208,46.685],[-1.9398,46.7019],[-1.965,46.7104],[-1.9921,46.7485],[-2.0022,46.7575],[-2.0503,46.7921],[-2.1188,46.82],[-2.1313,46.8718],[-2.122,46.9037],[-2.0963,46.9165],[-2.1022,46.9307],[-2.098,46.9328],[-2.1137,46.9487],[-2.1532,46.9889],[-2.1814,47.0175],[-2.2079,47.0445],[-2.2098,47.0464],[-2.2268,47.0637],[-2.2382,47.0715],[-2.2491,47.079],[-2.3168,47.1254],[-2.365,47.1585],[-2.6458,47.351],[-2.684,47.3772],[-2.7238,47.4045],[-2.7637,47.4318],[-2.8435,47.4865],[-2.9648,47.5697],[-3.003,47.5794],[-3.0034,47.5787],[-3.0424,47.5881],[-3.0738,47.5765],[-3.112,47.5992],[-3.1289,47.5476],[-3.1233,47.519],[-3.0845,47.4782],[-3.1317,47.4782],[-3.1438,47.507],[-3.1339,47.5439],[-3.1412,47.598],[-3.1642,47.6201],[-3.3805,47.6748],[-3.5151,47.7088],[-3.5487,47.7173],[-3.5824,47.7258],[-3.6498,47.7429],[-4.0648,47.8478],[-4.0697,47.8482],[-4.1696,47.8235],[-4.1852,47.8134],[-4.2252,47.8024],[-4.3718,47.8072],[-4.3734,47.8287],[-4.3476,47.8383],[-4.3474,47.8532],[-4.376,47.8777],[-4.4078,47.9345],[-4.4912,47.9556],[-4.4957,47.9875],[-4.5681,48.008],[-4.572,48.0059],[-4.5804,48.0114],[-4.6321,48.026],[-4.653,48.0263],[-4.7281,48.0406],[-4.6974,48.0749],[-4.6837,48.0673],[-4.6417,48.0736],[-4.628,48.0864],[-4.5128,48.0968],[-4.5109,48.0973],[-4.5241,48.1928],[-4.5316,48.1831],[-4.5575,48.1772],[-4.5438,48.2051],[-4.5612,48.225],[-4.5547,48.2596],[-4.5573,48.263],[-4.6263,48.2665],[-4.6263,48.2871],[-4.5767,48.2899],[-4.575,48.2907],[-4.5595,48.3387],[-4.5445,48.3402],[-4.5476,48.3629],[-4.6189,48.3485],[-4.6876,48.3621],[-4.6908,48.3623],[-4.7045,48.3416],[-4.755,48.342],[-4.7834,48.3764],[-4.7648,48.3776],[-4.7834,48.4174],[-4.7799,48.4549],[-4.7493,48.4788],[-4.7746,48.4913],[-4.7646,48.5202],[-4.722,48.5682],[-4.6425,48.5819],[-4.6277,48.5788],[-4.5976,48.5914],[-4.6077,48.603],[-4.5807,48.6022],[-4.592,48.6834],[-4.5919,48.6834],[-4.592,48.6838],[-3.8424,48.8101],[-3.7487,48.8259],[-3.7018,48.8338],[-3.655,48.8417],[-3.5613,48.8575],[-3.4676,48.8733],[-3.296,48.9022],[-3.2958,48.9022],[-3.2956,48.9022],[-3.0928,48.8711],[-3.0915,48.8713],[-3.0915,48.8709],[-2.537,48.7859],[-2.2427,48.7407],[-2.0956,48.7182],[-2.0588,48.7125],[-2.022,48.7069],[-1.9484,48.6956],[-1.8437,48.7121],[-1.8363,48.6911],[-1.8466,48.68],[-1.735,48.6628],[-1.6719,48.6532],[-1.6404,48.6483],[-1.6185,48.645],[-1.6266,48.6738],[-1.6415,48.727],[-1.6727,48.8386],[-1.7352,49.0619],[-1.8602,49.5086],[-1.8847,49.5309],[-1.8704,49.5452],[-1.9051,49.6693],[-1.9456,49.678],[-1.9352,49.7241],[-1.9208,49.7253],[-1.9352,49.7768],[-1.9351,49.7767],[-1.9352,49.7772],[-1.9347,49.777],[-1.9348,49.7772],[-1.7251,49.682],[-1.7249,49.682],[-1.7044,49.6818],[-1.5894,49.6679],[-1.4752,49.6884],[-1.4557,49.7022],[-1.3913,49.7127],[-1.2711,49.6984],[-1.2587,49.6802],[-1.258,49.68],[-1.258,49.6796],[-1.258,49.6792],[-1.2322,49.6414],[-1.2278,49.6241],[-1.2533,49.6123],[-1.263,49.5914],[-1.2328,49.4943],[-1.212,49.4688],[-1.1932,49.4457],[-1.1847,49.4366],[-1.158,49.4245],[-1.121,49.4077],[-1.084,49.3909],[-1.0723,49.3968],[-0.9698,49.3933],[-0.9596,49.3936],[-0.9595,49.3936],[-0.9592,49.3936],[-0.9543,49.3928],[-0.9404,49.3923],[-0.9169,49.3864],[-0.887,49.3813],[-0.5933,49.4799],[-0.4314,49.5342],[-0.3505,49.5613],[-0.31,49.5749],[-0.2696,49.5885],[-0.1887,49.6156],[-0.1077,49.6428],[0.0541,49.6971],[0.3778,49.8057],[1.0252,50.0229],[1.1871,50.0772],[1.268,50.1044],[1.2877,50.111],[1.3372,50.1276],[1.3489,50.1593],[1.3696,50.2153],[1.4294,50.3775],[1.4398,50.4055],[1.4501,50.4334],[1.4707,50.4893],[1.512,50.6011],[1.5946,50.8248],[1.5806,50.8688],[1.6143,50.8782],[1.6396,50.9468],[1.9603,51.0206],[2.0468,51.0405],[2.0901,51.0505],[2.1333,51.0605],[2.3063,51.1003],[2.4793,51.1401],[2.5144,51.1482],[2.5226,51.1502],[2.5226,51.1171],[2.5226,51.0877],[2.5218,51.0875],[2.537,51.0646],[2.557,51.0012],[2.6085,50.9611],[2.6117,50.9412],[2.5769,50.9115],[2.5967,50.8676],[2.59,50.842],[2.6204,50.8165],[2.6919,50.8088],[2.7066,50.7888],[2.7438,50.7662],[2.7682,50.7332],[2.8667,50.7001],[2.9001,50.7031],[2.9302,50.7362],[2.9714,50.7578],[3.0238,50.7683],[3.1033,50.7841],[3.1292,50.7791],[3.1628,50.7499],[3.1969,50.7092],[3.2244,50.7052],[3.2438,50.6721],[3.2298,50.6554],[3.2643,50.5702],[3.271,50.5269],[3.2999,50.5075],[3.3436,50.4929],[3.3854,50.4916],[3.4292,50.5018],[3.4629,50.5191],[3.4915,50.5171],[3.4991,50.4868],[3.5637,50.4865],[3.6083,50.4765],[3.6444,50.4455],[3.6529,50.3602],[3.6617,50.3193],[3.6969,50.2982],[3.7415,50.3431],[3.7987,50.3485],[3.8402,50.3452],[3.8959,50.3253],[3.9821,50.3426],[4.0227,50.3381],[4.0979,50.2948],[4.1253,50.2571],[4.1437,50.2516],[4.1628,50.273],[4.2037,50.252],[4.1573,50.2127],[4.1258,50.1282],[4.1806,50.1272],[4.21,50.0602],[4.1373,50.0251],[4.1317,49.975],[4.1877,49.9555],[4.2159,49.9544],[4.2776,49.9602],[4.4277,49.9336],[4.4648,49.9356],[4.6042,49.9802],[4.6567,49.9891],[4.6729,50.0164],[4.6819,50.0839],[4.7886,50.1534],[4.8156,50.1613],[4.8201,50.1464],[4.8719,50.1398],[4.8629,50.0841],[4.846,50.0907],[4.8272,50.0641],[4.8267,50.036],[4.7883,49.9743],[4.7973,49.9443],[4.8446,49.9317],[4.8594,49.8917],[4.8369,49.848],[4.8492,49.8316],[4.849,49.7942],[4.8842,49.7841],[4.9684,49.797],[5.0263,49.7667],[5.0819,49.7527],[5.1364,49.7053],[5.1925,49.6828],[5.2592,49.6913],[5.2994,49.6625],[5.2979,49.6133],[5.3349,49.6258],[5.3912,49.6088],[5.4502,49.5458],[5.4499,49.5078],[5.4777,49.4952],[5.5476,49.5234],[5.6023,49.5137],[5.6446,49.5438],[5.7103,49.5311],[5.7571,49.5484],[5.7907,49.5378],[5.8221,49.5105],[5.8647,49.4922],[5.9281,49.4823],[5.9607,49.4413],[6.0633,49.4485],[6.0998,49.4646],[6.1361,49.4953],[6.1936,49.4994],[6.2511,49.4895],[6.2988,49.4662],[6.3453,49.4553],[6.4027,49.4655],[6.4945,49.4355],[6.5257,49.3955],[6.5743,49.3618],[6.5501,49.338],[6.5732,49.3131],[6.6397,49.2712],[6.6638,49.2439],[6.6806,49.2075],[6.7025,49.2136],[6.701,49.1729],[6.7256,49.1556],[6.7701,49.1553],[6.8091,49.1458],[6.839,49.1628],[6.8277,49.1956],[6.8435,49.2111],[6.9254,49.2056],[6.9879,49.1824],[7.0095,49.1817],[7.009,49.1464],[7.0205,49.119],[7.0425,49.1076],[7.0732,49.1203],[7.0853,49.1415],[7.155,49.1144],[7.2412,49.1139],[7.2681,49.1056],[7.2971,49.1281],[7.3265,49.1318],[7.3716,49.1662],[7.4105,49.1689],[7.4148,49.1578],[7.4761,49.1515],[7.471,49.1283],[7.5209,49.0837],[7.6086,49.062],[7.6449,49.0363],[7.6851,49.0428],[7.7269,49.0357],[7.7737,49.0481],[7.8569,49.0323],[7.9319,49.0348],[8.0904,48.9792],[8.1887,48.9657],[8.1999,48.9583],[8.1481,48.9037],[8.1027,48.8213],[8.0842,48.8041],[8.0273,48.78],[8.023,48.7651],[7.9701,48.7573],[7.9592,48.7214],[7.8806,48.6677],[7.8524,48.6587],[7.8103,48.615],[7.8017,48.5476],[7.8135,48.5195],[7.7765,48.4982],[7.7383,48.4066],[7.752,48.3553],[7.737,48.3267],[7.7025,48.3112],[7.6935,48.2699],[7.6766,48.2384],[7.6134,48.1792],[7.582,48.1214],[7.5726,48.095],[7.5757,48.0537],[7.6189,48.0027],[7.6211,47.9714],[7.5849,47.9404],[7.5808,47.9108],[7.5579,47.8785],[7.562,47.8392],[7.5429,47.8294],[7.5259,47.7832],[7.5378,47.7318],[7.5119,47.7073],[7.5218,47.6704],[7.5501,47.6524],[7.5903,47.6079],[7.586,47.5846],[7.5855,47.5845],[7.5503,47.5755],[7.5263,47.5665],[7.5209,47.5634],[7.4827,47.5423],[7.5052,47.533],[7.5011,47.5173],[7.4769,47.5149],[7.4858,47.4988],[7.4674,47.4819],[7.446,47.4869],[7.426,47.4925],[7.4144,47.484],[7.4276,47.4707],[7.4206,47.4509],[7.3882,47.4333],[7.3369,47.4319],[7.2826,47.4289],[7.2448,47.4177],[7.1683,47.4436],[7.1626,47.4599],[7.1808,47.4883],[7.1422,47.4877],[7.1037,47.4963],[7.0539,47.4904],[7.0008,47.4977],[6.9733,47.4891],[6.991,47.4522],[6.9392,47.4268],[6.9245,47.406],[6.8988,47.3957],[6.8666,47.3542],[6.9856,47.3621],[7.004,47.3681],[7.0443,47.3405],[6.9586,47.2906],[6.9562,47.2452],[6.8883,47.2113],[6.8381,47.1681],[6.7748,47.1282],[6.7448,47.1211],[6.746,47.1039],[6.6991,47.0846],[6.6763,47.0624],[6.6883,47.0438],[6.6654,47.0213],[6.5987,46.9865],[6.4911,46.9634],[6.4426,46.9442],[6.4278,46.9091],[6.4484,46.8716],[6.4431,46.8515],[6.4186,46.807],[6.4326,46.786],[6.4292,46.7608],[6.3742,46.7336],[6.3379,46.7074],[6.2663,46.6804],[6.1319,46.5956],[6.1184,46.5835],[6.138,46.5576],[6.1457,46.5516],[6.0642,46.4711],[6.059,46.4174],[6.1082,46.3965],[6.1351,46.3704],[6.1186,46.3318],[6.1007,46.3014],[6.0897,46.2464],[6.0677,46.2416],[6.0429,46.2431],[5.9829,46.2227],[5.9585,46.212],[5.9548,46.1999],[5.9829,46.1708],[5.9588,46.1305],[5.9829,46.1404],[6.0283,46.1479],[6.0739,46.1492],[6.1079,46.1386],[6.1403,46.1502],[6.1914,46.1917],[6.2554,46.2211],[6.2812,46.2401],[6.276,46.2631],[6.2523,46.2599],[6.2376,46.2679],[6.2166,46.3095],[6.2195,46.3291],[6.2691,46.375],[6.3016,46.3945],[6.3977,46.4082],[6.4829,46.4486],[6.547,46.4574],[6.6137,46.4559],[6.7627,46.4293],[6.7881,46.405],[6.7821,46.3785],[6.7504,46.3455],[6.8277,46.2695],[6.7922,46.2217],[6.7657,46.1516],[6.7743,46.1348],[6.8539,46.1226],[6.8692,46.1123],[6.8513,46.086],[6.8509,46.0496],[6.8924,46.0556],[6.9151,46.0486],[6.9828,45.9954],[7.0221,45.9253]]],[[[7.4899,43.7033],[7.4899,43.744],[7.5324,43.744],[7.5324,43.7107],[7.4899,43.7033]]],[[[9.4365,41.8639],[9.4195,41.8243],[9.4025,41.7848],[9.403,41.7797],[9.4016,41.7064],[9.3738,41.6805],[9.3729,41.6784],[9.3675,41.6719],[9.3731,41.6452],[9.3452,41.6403],[9.3467,41.6196],[9.3325,41.6214],[9.3229,41.5991],[9.3451,41.6045],[9.3411,41.5693],[9.3016,41.5494],[9.2774,41.493],[9.2791,41.4916],[9.2708,41.4687],[9.2661,41.4666],[9.2492,41.4272],[9.2503,41.4278],[9.2431,41.4132],[9.2289,41.38],[9.2286,41.3802],[9.2285,41.38],[9.2272,41.3806],[9.2232,41.3725],[9.1939,41.3691],[9.1691,41.3862],[9.0964,41.4035],[9.1113,41.4221],[9.0017,41.477],[8.9785,41.4852],[8.9357,41.4892],[8.8737,41.5234],[8.8396,41.5308],[8.8533,41.5439],[8.7918,41.5612],[8.7949,41.5742],[8.7749,41.5832],[8.7235,41.7335],[8.6956,41.7294],[8.703,41.7425],[8.6551,41.7499],[8.7092,41.7636],[8.7118,41.7675],[8.6633,41.9094],[8.6143,41.9008],[8.6144,41.9441],[8.5863,41.969],[8.6317,41.9754],[8.6384,41.9822],[8.5867,42.1335],[8.5863,42.1335],[8.5691,42.155],[8.5771,42.1613],[8.5445,42.2568],[8.5446,42.257],[8.5445,42.2572],[8.5922,42.345],[8.5913,42.345],[8.583,42.349],[8.5596,42.3464],[8.5521,42.3867],[8.5705,42.3818],[8.5877,42.3853],[8.5877,42.3854],[8.6075,42.4018],[8.6187,42.4196],[8.6307,42.421],[8.6358,42.4252],[8.6635,42.4761],[8.6597,42.4771],[8.6675,42.5097],[8.6861,42.5177],[8.7461,42.6279],[9.3441,42.9829],[9.3418,42.9907],[9.3561,43.0047],[9.3617,43.0173],[9.4157,43.0225],[9.4161,43.0225],[9.4219,43.0173],[9.4224,43.0174],[9.464,42.9901],[9.4611,42.9824],[9.4629,42.9808],[9.4629,42.9804],[9.4603,42.9553],[9.4701,42.9423],[9.4655,42.9235],[9.4844,42.8324],[9.4828,42.8023],[9.478,42.7886],[9.4577,42.6712],[9.464,42.6396],[9.4737,42.6162],[9.4978,42.5953],[9.4896,42.6126],[9.5186,42.581],[9.5322,42.5444],[9.5331,42.4788],[9.535,42.4536],[9.5459,42.4351],[9.5387,42.4028],[9.5432,42.342],[9.5596,42.2946],[9.5539,42.1969],[9.5554,42.176],[9.5601,42.1523],[9.56,42.1522],[9.5601,42.1519],[9.5589,42.149],[9.5596,42.1466],[9.5527,42.113],[9.5384,42.1013],[9.4704,41.943],[9.4365,41.8639]]]]}}
]}
