{"type":"FeatureCollection","features":[
{"type":"Feature","properties":{"entityId":"galicia-volhynia","from":1200,"to":1214,"certainty":"estimated","source":"유럽 쪽은 Natural Earth 1:10m admin-1(v5.1.2) 현대 행정구역 조각을 그 시기 국경에 맞춰 묶고, 조각이 역사 경계와 다른 곳은 선을 그어 나눈 근사. 유럽 밖(시베리아·중앙아시아·극동)은 대략적인 추정. 운영자 검수 필요"},"geometry":{"type":"Polygon","coordinates":[[[22.6409,49.5288],[22.6669,49.4784],[22.6796,49.4189],[22.7142,49.3906],[22.7242,49.3671],[22.7378,49.2754],[22.7029,49.195],[22.6817,49.1612],[22.7057,49.1688],[22.7488,49.1456],[22.7781,49.1203],[22.8534,49.0848],[22.8475,49.0337],[22.865,49.0132],[22.9024,48.9833],[22.892,48.9354],[22.926,48.9041],[22.9612,48.8843],[22.9821,48.859],[23.0117,48.8547],[23.105,48.8713],[23.1376,48.8522],[23.1798,48.7903],[23.2016,48.7771],[23.2576,48.7722],[23.2982,48.7812],[23.3085,48.7502],[23.3505,48.772],[23.378,48.7371],[23.4458,48.7267],[23.4985,48.7312],[23.5329,48.7237],[23.6124,48.7038],[23.6745,48.6545],[23.709,48.643],[23.7715,48.6447],[23.7817,48.6034],[23.8471,48.5628],[23.8949,48.5496],[23.9168,48.5154],[23.9074,48.4887],[23.9427,48.4704],[24.0015,48.5001],[24.0462,48.5051],[24.1138,48.5322],[24.137,48.5275],[24.1407,48.4712],[24.1312,48.4345],[24.1408,48.3799],[24.1777,48.3546],[24.2341,48.3505],[24.2707,48.3572],[24.3054,48.3883],[24.3317,48.3748],[24.3458,48.3402],[24.3916,48.3311],[24.4949,48.2666],[24.5415,48.2128],[24.5216,48.1711],[24.5384,48.1345],[24.6068,48.0886],[24.6393,48.0476],[24.5882,47.9959],[24.5698,47.9373],[24.6085,47.9219],[24.6493,47.8952],[24.6615,47.8539],[24.7128,47.8259],[24.7937,47.8045],[24.8207,47.7841],[24.8778,47.7187],[24.9289,47.7139],[24.9424,47.7156],[25.0174,47.7246],[25.0799,47.7429],[25.1219,47.7703],[25.219,47.8785],[25.2617,47.8986],[25.7525,47.9346],[25.8184,47.9526],[25.9181,47.9682],[25.9657,47.9649],[26.0293,47.9778],[26.1025,47.9783],[26.1731,47.9931],[26.2048,48.0374],[26.2553,48.0723],[26.287,48.1247],[26.3035,48.212],[26.3303,48.2085],[26.3739,48.22],[26.3974,48.2262],[26.4447,48.2277],[26.5874,48.2494],[26.6179,48.259],[26.6361,48.2949],[26.6691,48.3088],[26.6798,48.3302],[26.6994,48.3251],[26.7359,48.2918],[26.7546,48.2861],[26.7857,48.2941],[26.7894,48.3259],[26.7775,48.3662],[26.7881,48.376],[26.8169,48.3717],[26.8428,48.3937],[26.876,48.384],[26.9432,48.3513],[26.9906,48.3624],[27.0331,48.3602],[27.0263,48.3971],[27.1758,48.3618],[27.2086,48.3606],[27.2519,48.3783],[27.306,48.4237],[27.3422,48.4361],[27.3898,48.415],[27.4202,48.4171],[27.4809,48.4514],[27.5038,48.4724],[27.4728,48.5472],[27.4382,48.6025],[27.4097,48.6207],[27.3704,48.6297],[27.3218,48.6009],[27.2947,48.6161],[27.2344,48.6185],[27.2618,48.5957],[27.2476,48.5704],[27.2141,48.5701],[27.1814,48.5819],[27.147,48.5819],[27.1134,48.5593],[26.9453,48.5814],[26.9247,48.5751],[26.885,48.5435],[26.8414,48.5463],[26.8226,48.5812],[26.8292,48.6018],[26.8081,48.6091],[26.7831,48.5935],[26.7876,48.5683],[26.7728,48.551],[26.7497,48.5616],[26.7406,48.5889],[26.7172,48.5948],[26.7161,48.5778],[26.7392,48.5577],[26.7218,48.5352],[26.6328,48.5624],[26.6144,48.5402],[26.6709,48.5267],[26.709,48.4969],[26.6436,48.4925],[26.6273,48.5084],[26.607,48.4923],[26.6219,48.4583],[26.5664,48.4574],[26.5399,48.4789],[26.5153,48.5149],[26.4706,48.5381],[26.404,48.5341],[26.3805,48.5171],[26.354,48.5616],[26.3689,48.5761],[26.3067,48.6056],[26.3163,48.6428],[26.285,48.6412],[26.2819,48.6616],[26.2355,48.685],[26.2513,48.7524],[26.2285,48.7792],[26.2642,48.8082],[26.2387,48.8188],[26.2143,48.847],[26.2229,48.8972],[26.1954,48.9],[26.2023,48.935],[26.1891,48.953],[26.1985,48.9845],[26.2212,49.0007],[26.1995,49.0413],[26.2284,49.0669],[26.2109,49.1191],[26.2218,49.148],[26.1992,49.1746],[26.2078,49.2273],[26.2417,49.2412],[26.2563,49.2936],[26.2344,49.3195],[26.2391,49.342],[26.2291,49.397],[26.1985,49.4153],[26.1484,49.5165],[26.1643,49.544],[26.2087,49.5669],[26.2239,49.62],[26.2249,49.6234],[26.2336,49.6356],[26.6,49.66],[27.2,49.62],[27.6,49.68],[27.7625,49.693],[27.769,49.7044],[27.8144,49.704],[27.8364,49.7218],[27.8119,49.7392],[27.8501,49.7451],[27.868,49.7601],[27.6607,49.799],[27.6423,49.8266],[27.6042,49.8608],[27.5881,49.8979],[27.5409,49.9151],[27.5487,49.9436],[27.5801,49.9485],[27.5478,50.0075],[27.5977,50.0027],[27.6637,50.0326],[27.657,50.0612],[27.6212,50.0793],[27.6463,50.1198],[27.6272,50.1379],[27.6496,50.1527],[27.646,50.1691],[27.6059,50.2067],[27.6075,50.2493],[27.5825,50.2546],[27.554,50.2203],[27.4885,50.2238],[27.4719,50.2518],[27.4317,50.2718],[27.4036,50.2747],[27.4038,50.2982],[27.3193,50.3341],[27.2792,50.3713],[27.235,50.3797],[27.2289,50.3949],[27.2484,50.4413],[27.3046,50.478],[27.2604,50.4901],[27.2458,50.5098],[27.1923,50.5412],[27.2356,50.583],[27.1969,50.6052],[27.1924,50.6185],[27.2152,50.6575],[27.2435,50.6818],[27.2717,50.7374],[27.2292,50.7908],[27.2241,50.8245],[27.2399,50.8904],[27.216,50.9159],[27.2328,50.9249],[27.1982,50.9909],[27.2323,51.0304],[27.2945,51.0437],[27.3496,51.0998],[27.3582,51.142],[27.3976,51.1922],[27.4491,51.2279],[27.4503,51.2556],[27.4182,51.2977],[27.4221,51.3073],[27.4779,51.3153],[27.5113,51.3527],[27.4903,51.3671],[27.5021,51.4402],[27.52,51.441],[27.5439,51.4155],[27.5836,51.3937],[27.5999,51.4091],[27.5757,51.4379],[27.5859,51.4723],[27.6661,51.4902],[27.7052,51.5684],[27.6768,51.5948],[27.6206,51.5959],[27.5124,51.6231],[27.5095,51.7056],[27.555,51.7503],[27.5563,51.8059],[27.5031,51.8445],[27.5319,51.9006],[27.5256,51.9426],[27.585,51.9902],[27.5991,52.0185],[27.533,52.0603],[27.5267,52.0727],[27.5208,52.1835],[27.5406,52.2214],[27.5231,52.2368],[27.5,52.245],[27.5,51.6233],[27.4773,51.6237],[27.431,51.5984],[27.3884,51.5907],[27.3291,51.597],[27.2675,51.5875],[27.254,51.5954],[27.2775,51.6511],[27.2036,51.6551],[27.1811,51.6834],[27.1779,51.7471],[27.11,51.7624],[27.0216,51.7645],[26.9208,51.7425],[26.8548,51.7493],[26.6657,51.8014],[26.4456,51.8056],[26.4192,51.8209],[26.4078,51.8506],[26.1753,51.8567],[26.1454,51.8648],[26.0808,51.9007],[25.9811,51.9035],[25.7679,51.9285],[25.6835,51.918],[25.75,51.9263],[25.75,53.3],[26.3911,53.3],[26.3723,53.3193],[26.3765,53.3645],[26.2731,53.3506],[26.2212,53.3629],[26.1357,53.3659],[26.0825,53.3736],[26.0392,53.3693],[25.8981,53.3763],[25.8729,53.3888],[25.8221,53.3874],[25.7884,53.3959],[25.7202,53.3947],[25.6927,53.3813],[25.6479,53.3318],[25.6356,53.2866],[25.5837,53.271],[25.5689,53.2442],[25.601,53.2116],[25.5499,53.1841],[25.5974,53.1461],[25.5993,53.1272],[25.5248,53.0245],[25.4627,52.9997],[25.4051,52.942],[25.364,52.9328],[25.3268,52.9373],[25.297,52.9207],[25.3223,52.8927],[25.3078,52.884],[25.3311,52.8612],[25.3232,52.8408],[25.2688,52.849],[25.259,52.8651],[25.1919,52.8476],[25.1381,52.8496],[25.0832,52.8334],[25.0528,52.8411],[25.0511,52.8759],[25.0661,52.9087],[25.0483,52.9129],[25.0271,52.8921],[25.004,52.8896],[24.9564,52.9043],[24.9609,52.9258],[24.9289,52.9605],[24.8771,52.9646],[24.8515,52.9369],[24.8014,52.9327],[24.7478,52.9406],[24.6859,52.9598],[24.6138,52.9394],[24.607,52.9283],[24.6526,52.9188],[24.6517,52.9077],[24.6015,52.887],[24.5709,52.8654],[24.5871,52.8441],[24.541,52.7953],[24.5548,52.7746],[24.5526,52.7478],[24.5186,52.7393],[24.4685,52.7411],[24.3882,52.7749],[24.316,52.7656],[24.3054,52.7807],[24.2505,52.7716],[24.1771,52.7817],[24.1444,52.7982],[24.0714,52.7682],[23.9386,52.7749],[23.9204,52.7726],[23.9225,52.7426],[23.9088,52.6999],[23.869,52.67],[23.7362,52.6149],[23.569,52.5859],[23.4805,52.5544],[23.3923,52.5096],[23.2705,52.3951],[23.2121,52.3475],[23.1656,52.2894],[23.1761,52.2851],[23.1945,52.2715],[23.1897,52.2405],[23.2123,52.2317],[23.3958,52.1996],[23.3885,52.1842],[23.4367,52.1757],[23.4505,52.1859],[23.4847,52.1586],[23.5125,52.1244],[23.5794,52.1215],[23.6375,52.0845],[23.6764,51.9941],[23.6476,51.9741],[23.6222,51.9279],[23.6214,51.8956],[23.5946,51.8433],[23.6287,51.8098],[23.6175,51.7865],[23.5604,51.7545],[23.5466,51.7136],[23.5604,51.672],[23.5324,51.659],[23.5438,51.6438],[23.5399,51.6071],[23.574,51.5553],[23.5728,51.5397],[23.6062,51.5174],[23.6148,51.4972],[23.6628,51.4802],[23.6487,51.454],[23.6976,51.4044],[23.6789,51.3941],[23.6839,51.3703],[23.634,51.3393],[23.6352,51.3047],[23.6873,51.2924],[23.7427,51.2163],[23.7652,51.199],[23.816,51.1788],[23.8747,51.1361],[23.8545,51.1215],[23.9042,51.0627],[23.9117,51.0068],[23.9551,50.9836],[23.9793,50.9375],[24.0469,50.898],[24.1302,50.8689],[24.1309,50.8391],[24.0469,50.8291],[24.0205,50.8386],[23.9699,50.8252],[23.9576,50.808],[23.9743,50.7762],[24.0259,50.767],[24.0128,50.7433],[24.0269,50.728],[24.081,50.713],[24.0749,50.6902],[24.1082,50.6303],[24.0853,50.6044],[24.0954,50.5569],[24.1077,50.5408],[24.075,50.5143],[24.0107,50.4928],[24.0032,50.4377],[23.9813,50.4048],[23.9287,50.3908],[23.7475,50.3894],[23.6957,50.3768],[23.6587,50.327],[23.5653,50.2578],[23.4364,50.1935],[23.2079,50.034],[23.1778,50.004],[23.1015,49.9571],[22.993,49.8544],[22.9512,49.8266],[22.9244,49.7854],[22.8882,49.7697],[22.8266,49.6974],[22.7773,49.6805],[22.7417,49.6337],[22.6658,49.5674],[22.6409,49.5288]]]}},
{"type":"Feature","properties":{"entityId":"galicia-volhynia","from":1214,"to":1221,"certainty":"estimated","source":"유럽 쪽은 Natural Earth 1:10m admin-1(v5.1.2) 현대 행정구역 조각을 그 시기 국경에 맞춰 묶고, 조각이 역사 경계와 다른 곳은 선을 그어 나눈 근사. 유럽 밖(시베리아·중앙아시아·극동)은 대략적인 추정. 운영자 검수 필요"},"geometry":{"type":"Polygon","coordinates":[[[23.1656,52.2894],[23.1761,52.2851],[23.1945,52.2715],[23.1897,52.2405],[23.2123,52.2317],[23.3958,52.1996],[23.3885,52.1842],[23.4367,52.1757],[23.4505,52.1859],[23.4847,52.1586],[23.5125,52.1244],[23.5794,52.1215],[23.6375,52.0845],[23.6764,51.9941],[23.6476,51.9741],[23.6222,51.9279],[23.6214,51.8956],[23.5946,51.8433],[23.6287,51.8098],[23.6175,51.7865],[23.5604,51.7545],[23.5466,51.7136],[23.5604,51.672],[23.5324,51.659],[23.5438,51.6438],[23.5399,51.6071],[23.574,51.5553],[23.5728,51.5397],[23.6062,51.5174],[23.6148,51.4972],[23.6628,51.4802],[23.6487,51.454],[23.6976,51.4044],[23.6789,51.3941],[23.6839,51.3703],[23.634,51.3393],[23.6352,51.3047],[23.6873,51.2924],[23.7427,51.2163],[23.7652,51.199],[23.816,51.1788],[23.8747,51.1361],[23.8545,51.1215],[23.9042,51.0627],[23.9117,51.0068],[23.9551,50.9836],[23.9793,50.9375],[24.0469,50.898],[24.1302,50.8689],[24.1309,50.8391],[24.0469,50.8291],[24.0205,50.8386],[23.9699,50.8252],[23.9576,50.808],[23.9743,50.7762],[24.0259,50.767],[24.0128,50.7433],[24.0269,50.728],[24.081,50.713],[24.0749,50.6902],[24.1082,50.6303],[24.1259,50.6418],[24.1647,50.6402],[24.2179,50.5892],[24.2479,50.5818],[24.3214,50.5926],[24.3459,50.6089],[24.3795,50.6009],[24.4054,50.5674],[24.4343,50.549],[24.5008,50.5455],[24.5306,50.5241],[24.5354,50.5001],[24.5132,50.4867],[24.4634,50.4788],[24.4567,50.4614],[24.4988,50.4397],[24.5042,50.4106],[24.5418,50.4109],[24.5526,50.4384],[24.591,50.417],[24.6342,50.4134],[24.6394,50.3974],[24.6882,50.3767],[24.7052,50.3496],[24.773,50.3405],[24.8484,50.3549],[24.9114,50.3481],[24.9319,50.3702],[25.0039,50.3457],[25.0489,50.3473],[25.0638,50.3345],[25.0635,50.2948],[25.1041,50.2794],[25.1529,50.2925],[25.1957,50.288],[25.2075,50.2501],[25.1677,50.22],[25.1929,50.1816],[25.1854,50.128],[25.2023,50.095],[25.2959,50.0413],[25.3676,50.0131],[25.3727,49.9965],[25.3898,49.9873],[25.6,49.92],[25.8,49.85],[26,49.75],[26.2,49.62],[26.2239,49.62],[26.2249,49.6234],[26.2336,49.6356],[26.6,49.66],[27.2,49.62],[27.6,49.68],[27.7625,49.693],[27.769,49.7044],[27.8144,49.704],[27.8364,49.7218],[27.8119,49.7392],[27.8501,49.7451],[27.868,49.7601],[27.6607,49.799],[27.6423,49.8266],[27.6042,49.8608],[27.5881,49.8979],[27.5409,49.9151],[27.5487,49.9436],[27.5801,49.9485],[27.5478,50.0075],[27.5977,50.0027],[27.6637,50.0326],[27.657,50.0612],[27.6212,50.0793],[27.6463,50.1198],[27.6272,50.1379],[27.6496,50.1527],[27.646,50.1691],[27.6059,50.2067],[27.6075,50.2493],[27.5825,50.2546],[27.554,50.2203],[27.4885,50.2238],[27.4719,50.2518],[27.4317,50.2718],[27.4036,50.2747],[27.4038,50.2982],[27.3193,50.3341],[27.2792,50.3713],[27.235,50.3797],[27.2289,50.3949],[27.2484,50.4413],[27.3046,50.478],[27.2604,50.4901],[27.2458,50.5098],[27.1923,50.5412],[27.2356,50.583],[27.1969,50.6052],[27.1924,50.6185],[27.2152,50.6575],[27.2435,50.6818],[27.2717,50.7374],[27.2292,50.7908],[27.2241,50.8245],[27.2399,50.8904],[27.216,50.9159],[27.2328,50.9249],[27.1982,50.9909],[27.2323,51.0304],[27.2945,51.0437],[27.3496,51.0998],[27.3582,51.142],[27.3976,51.1922],[27.4491,51.2279],[27.4503,51.2556],[27.4182,51.2977],[27.4221,51.3073],[27.4779,51.3153],[27.5113,51.3527],[27.4903,51.3671],[27.5021,51.4402],[27.52,51.441],[27.5439,51.4155],[27.5836,51.3937],[27.5999,51.4091],[27.5757,51.4379],[27.5859,51.4723],[27.6661,51.4902],[27.7052,51.5684],[27.6768,51.5948],[27.6206,51.5959],[27.5124,51.6231],[27.5095,51.7056],[27.555,51.7503],[27.5563,51.8059],[27.5031,51.8445],[27.5319,51.9006],[27.5256,51.9426],[27.585,51.9902],[27.5991,52.0185],[27.533,52.0603],[27.5267,52.0727],[27.5208,52.1835],[27.5406,52.2214],[27.5231,52.2368],[27.5,52.245],[27.5,51.6233],[27.4773,51.6237],[27.431,51.5984],[27.3884,51.5907],[27.3291,51.597],[27.2675,51.5875],[27.254,51.5954],[27.2775,51.6511],[27.2036,51.6551],[27.1811,51.6834],[27.1779,51.7471],[27.11,51.7624],[27.0216,51.7645],[26.9208,51.7425],[26.8548,51.7493],[26.6657,51.8014],[26.4456,51.8056],[26.4192,51.8209],[26.4078,51.8506],[26.1753,51.8567],[26.1454,51.8648],[26.0808,51.9007],[25.9811,51.9035],[25.7679,51.9285],[25.6835,51.918],[25.75,51.9263],[25.75,53.3],[26.3911,53.3],[26.3723,53.3193],[26.3765,53.3645],[26.2731,53.3506],[26.2212,53.3629],[26.1357,53.3659],[26.0825,53.3736],[26.0392,53.3693],[25.8981,53.3763],[25.8729,53.3888],[25.8221,53.3874],[25.7884,53.3959],[25.7202,53.3947],[25.6927,53.3813],[25.6479,53.3318],[25.6356,53.2866],[25.5837,53.271],[25.5689,53.2442],[25.601,53.2116],[25.5499,53.1841],[25.5974,53.1461],[25.5993,53.1272],[25.5248,53.0245],[25.4627,52.9997],[25.4051,52.942],[25.364,52.9328],[25.3268,52.9373],[25.297,52.9207],[25.3223,52.8927],[25.3078,52.884],[25.3311,52.8612],[25.3232,52.8408],[25.2688,52.849],[25.259,52.8651],[25.1919,52.8476],[25.1381,52.8496],[25.0832,52.8334],[25.0528,52.8411],[25.0511,52.8759],[25.0661,52.9087],[25.0483,52.9129],[25.0271,52.8921],[25.004,52.8896],[24.9564,52.9043],[24.9609,52.9258],[24.9289,52.9605],[24.8771,52.9646],[24.8515,52.9369],[24.8014,52.9327],[24.7478,52.9406],[24.6859,52.9598],[24.6138,52.9394],[24.607,52.9283],[24.6526,52.9188],[24.6517,52.9077],[24.6015,52.887],[24.5709,52.8654],[24.5871,52.8441],[24.541,52.7953],[24.5548,52.7746],[24.5526,52.7478],[24.5186,52.7393],[24.4685,52.7411],[24.3882,52.7749],[24.316,52.7656],[24.3054,52.7807],[24.2505,52.7716],[24.1771,52.7817],[24.1444,52.7982],[24.0714,52.7682],[23.9386,52.7749],[23.9204,52.7726],[23.9225,52.7426],[23.9088,52.6999],[23.869,52.67],[23.7362,52.6149],[23.569,52.5859],[23.4805,52.5544],[23.3923,52.5096],[23.2705,52.3951],[23.2121,52.3475],[23.1656,52.2894]]]}},
{"type":"Feature","properties":{"entityId":"galicia-volhynia","from":1221,"to":1242,"certainty":"estimated","source":"유럽 쪽은 Natural Earth 1:10m admin-1(v5.1.2) 현대 행정구역 조각을 그 시기 국경에 맞춰 묶고, 조각이 역사 경계와 다른 곳은 선을 그어 나눈 근사. 유럽 밖(시베리아·중앙아시아·극동)은 대략적인 추정. 운영자 검수 필요"},"geometry":{"type":"Polygon","coordinates":[[[22.6409,49.5288],[22.6669,49.4784],[22.6796,49.4189],[22.7142,49.3906],[22.7242,49.3671],[22.7378,49.2754],[22.7029,49.195],[22.6817,49.1612],[22.7057,49.1688],[22.7488,49.1456],[22.7781,49.1203],[22.8534,49.0848],[22.8475,49.0337],[22.865,49.0132],[22.9024,48.9833],[22.892,48.9354],[22.926,48.9041],[22.9612,48.8843],[22.9821,48.859],[23.0117,48.8547],[23.105,48.8713],[23.1376,48.8522],[23.1798,48.7903],[23.2016,48.7771],[23.2576,48.7722],[23.2982,48.7812],[23.3085,48.7502],[23.3505,48.772],[23.378,48.7371],[23.4458,48.7267],[23.4985,48.7312],[23.5329,48.7237],[23.6124,48.7038],[23.6745,48.6545],[23.709,48.643],[23.7715,48.6447],[23.7817,48.6034],[23.8471,48.5628],[23.8949,48.5496],[23.9168,48.5154],[23.9074,48.4887],[23.9427,48.4704],[24.0015,48.5001],[24.0462,48.5051],[24.1138,48.5322],[24.137,48.5275],[24.1407,48.4712],[24.1312,48.4345],[24.1408,48.3799],[24.1777,48.3546],[24.2341,48.3505],[24.2707,48.3572],[24.3054,48.3883],[24.3317,48.3748],[24.3458,48.3402],[24.3916,48.3311],[24.4949,48.2666],[24.5415,48.2128],[24.5216,48.1711],[24.5384,48.1345],[24.6068,48.0886],[24.6393,48.0476],[24.5882,47.9959],[24.5698,47.9373],[24.6085,47.9219],[24.6493,47.8952],[24.6615,47.8539],[24.7128,47.8259],[24.7937,47.8045],[24.8207,47.7841],[24.8778,47.7187],[24.9289,47.7139],[24.9424,47.7156],[25.0174,47.7246],[25.0799,47.7429],[25.1219,47.7703],[25.219,47.8785],[25.2617,47.8986],[25.7525,47.9346],[25.8184,47.9526],[25.9181,47.9682],[25.9657,47.9649],[26.0293,47.9778],[26.1025,47.9783],[26.1731,47.9931],[26.2048,48.0374],[26.2553,48.0723],[26.287,48.1247],[26.3035,48.212],[26.3303,48.2085],[26.3739,48.22],[26.3974,48.2262],[26.4447,48.2277],[26.5874,48.2494],[26.6179,48.259],[26.6361,48.2949],[26.6691,48.3088],[26.6798,48.3302],[26.6994,48.3251],[26.7359,48.2918],[26.7546,48.2861],[26.7857,48.2941],[26.7894,48.3259],[26.7775,48.3662],[26.7881,48.376],[26.8169,48.3717],[26.8428,48.3937],[26.876,48.384],[26.9432,48.3513],[26.9906,48.3624],[27.0331,48.3602],[27.0263,48.3971],[27.1758,48.3618],[27.2086,48.3606],[27.2519,48.3783],[27.306,48.4237],[27.3422,48.4361],[27.3898,48.415],[27.4202,48.4171],[27.4809,48.4514],[27.5038,48.4724],[27.4728,48.5472],[27.4382,48.6025],[27.4097,48.6207],[27.3704,48.6297],[27.3218,48.6009],[27.2947,48.6161],[27.2344,48.6185],[27.2618,48.5957],[27.2476,48.5704],[27.2141,48.5701],[27.1814,48.5819],[27.147,48.5819],[27.1134,48.5593],[26.9453,48.5814],[26.9247,48.5751],[26.885,48.5435],[26.8414,48.5463],[26.8226,48.5812],[26.8292,48.6018],[26.8081,48.6091],[26.7831,48.5935],[26.7876,48.5683],[26.7728,48.551],[26.7497,48.5616],[26.7406,48.5889],[26.7172,48.5948],[26.7161,48.5778],[26.7392,48.5577],[26.7218,48.5352],[26.6328,48.5624],[26.6144,48.5402],[26.6709,48.5267],[26.709,48.4969],[26.6436,48.4925],[26.6273,48.5084],[26.607,48.4923],[26.6219,48.4583],[26.5664,48.4574],[26.5399,48.4789],[26.5153,48.5149],[26.4706,48.5381],[26.404,48.5341],[26.3805,48.5171],[26.354,48.5616],[26.3689,48.5761],[26.3067,48.6056],[26.3163,48.6428],[26.285,48.6412],[26.2819,48.6616],[26.2355,48.685],[26.2513,48.7524],[26.2285,48.7792],[26.2642,48.8082],[26.2387,48.8188],[26.2143,48.847],[26.2229,48.8972],[26.1954,48.9],[26.2023,48.935],[26.1891,48.953],[26.1985,48.9845],[26.2212,49.0007],[26.1995,49.0413],[26.2284,49.0669],[26.2109,49.1191],[26.2218,49.148],[26.1992,49.1746],[26.2078,49.2273],[26.2417,49.2412],[26.2563,49.2936],[26.2344,49.3195],[26.2391,49.342],[26.2291,49.397],[26.1985,49.4153],[26.1484,49.5165],[26.1643,49.544],[26.2087,49.5669],[26.2239,49.62],[26.2249,49.6234],[26.2336,49.6356],[26.6,49.66],[27.2,49.62],[27.6,49.68],[27.7625,49.693],[27.769,49.7044],[27.8144,49.704],[27.8364,49.7218],[27.8119,49.7392],[27.8501,49.7451],[27.868,49.7601],[27.6607,49.799],[27.6423,49.8266],[27.6042,49.8608],[27.5881,49.8979],[27.5409,49.9151],[27.5487,49.9436],[27.5801,49.9485],[27.5478,50.0075],[27.5977,50.0027],[27.6637,50.0326],[27.657,50.0612],[27.6212,50.0793],[27.6463,50.1198],[27.6272,50.1379],[27.6496,50.1527],[27.646,50.1691],[27.6059,50.2067],[27.6075,50.2493],[27.5825,50.2546],[27.554,50.2203],[27.4885,50.2238],[27.4719,50.2518],[27.4317,50.2718],[27.4036,50.2747],[27.4038,50.2982],[27.3193,50.3341],[27.2792,50.3713],[27.235,50.3797],[27.2289,50.3949],[27.2484,50.4413],[27.3046,50.478],[27.2604,50.4901],[27.2458,50.5098],[27.1923,50.5412],[27.2356,50.583],[27.1969,50.6052],[27.1924,50.6185],[27.2152,50.6575],[27.2435,50.6818],[27.2717,50.7374],[27.2292,50.7908],[27.2241,50.8245],[27.2399,50.8904],[27.216,50.9159],[27.2328,50.9249],[27.1982,50.9909],[27.2323,51.0304],[27.2945,51.0437],[27.3496,51.0998],[27.3582,51.142],[27.3976,51.1922],[27.4491,51.2279],[27.4503,51.2556],[27.4182,51.2977],[27.4221,51.3073],[27.4779,51.3153],[27.5113,51.3527],[27.4903,51.3671],[27.5021,51.4402],[27.52,51.441],[27.5439,51.4155],[27.5836,51.3937],[27.5999,51.4091],[27.5757,51.4379],[27.5859,51.4723],[27.6661,51.4902],[27.7052,51.5684],[27.6768,51.5948],[27.6206,51.5959],[27.5124,51.6231],[27.5095,51.7056],[27.555,51.7503],[27.5563,51.8059],[27.5031,51.8445],[27.5319,51.9006],[27.5256,51.9426],[27.585,51.9902],[27.5991,52.0185],[27.533,52.0603],[27.5267,52.0727],[27.5208,52.1835],[27.5406,52.2214],[27.5231,52.2368],[27.5,52.245],[27.5,51.6233],[27.4773,51.6237],[27.431,51.5984],[27.3884,51.5907],[27.3291,51.597],[27.2675,51.5875],[27.254,51.5954],[27.2775,51.6511],[27.2036,51.6551],[27.1811,51.6834],[27.1779,51.7471],[27.11,51.7624],[27.0216,51.7645],[26.9208,51.7425],[26.8548,51.7493],[26.6657,51.8014],[26.4456,51.8056],[26.4192,51.8209],[26.4078,51.8506],[26.1753,51.8567],[26.1454,51.8648],[26.0808,51.9007],[25.9811,51.9035],[25.7679,51.9285],[25.6835,51.918],[25.75,51.9263],[25.75,53.3],[26.3911,53.3],[26.3723,53.3193],[26.3765,53.3645],[26.2731,53.3506],[26.2212,53.3629],[26.1357,53.3659],[26.0825,53.3736],[26.0392,53.3693],[25.8981,53.3763],[25.8729,53.3888],[25.8221,53.3874],[25.7884,53.3959],[25.7202,53.3947],[25.6927,53.3813],[25.6479,53.3318],[25.6356,53.2866],[25.5837,53.271],[25.5689,53.2442],[25.601,53.2116],[25.5499,53.1841],[25.5974,53.1461],[25.5993,53.1272],[25.5248,53.0245],[25.4627,52.9997],[25.4051,52.942],[25.364,52.9328],[25.3268,52.9373],[25.297,52.9207],[25.3223,52.8927],[25.3078,52.884],[25.3311,52.8612],[25.3232,52.8408],[25.2688,52.849],[25.259,52.8651],[25.1919,52.8476],[25.1381,52.8496],[25.0832,52.8334],[25.0528,52.8411],[25.0511,52.8759],[25.0661,52.9087],[25.0483,52.9129],[25.0271,52.8921],[25.004,52.8896],[24.9564,52.9043],[24.9609,52.9258],[24.9289,52.9605],[24.8771,52.9646],[24.8515,52.9369],[24.8014,52.9327],[24.7478,52.9406],[24.6859,52.9598],[24.6138,52.9394],[24.607,52.9283],[24.6526,52.9188],[24.6517,52.9077],[24.6015,52.887],[24.5709,52.8654],[24.5871,52.8441],[24.541,52.7953],[24.5548,52.7746],[24.5526,52.7478],[24.5186,52.7393],[24.4685,52.7411],[24.3882,52.7749],[24.316,52.7656],[24.3054,52.7807],[24.2505,52.7716],[24.1771,52.7817],[24.1444,52.7982],[24.0714,52.7682],[23.9386,52.7749],[23.9204,52.7726],[23.9225,52.7426],[23.9088,52.6999],[23.869,52.67],[23.7362,52.6149],[23.569,52.5859],[23.4805,52.5544],[23.3923,52.5096],[23.2705,52.3951],[23.2121,52.3475],[23.1656,52.2894],[23.1761,52.2851],[23.1945,52.2715],[23.1897,52.2405],[23.2123,52.2317],[23.3958,52.1996],[23.3885,52.1842],[23.4367,52.1757],[23.4505,52.1859],[23.4847,52.1586],[23.5125,52.1244],[23.5794,52.1215],[23.6375,52.0845],[23.6764,51.9941],[23.6476,51.9741],[23.6222,51.9279],[23.6214,51.8956],[23.5946,51.8433],[23.6287,51.8098],[23.6175,51.7865],[23.5604,51.7545],[23.5466,51.7136],[23.5604,51.672],[23.5324,51.659],[23.5438,51.6438],[23.5399,51.6071],[23.574,51.5553],[23.5728,51.5397],[23.6062,51.5174],[23.6148,51.4972],[23.6628,51.4802],[23.6487,51.454],[23.6976,51.4044],[23.6789,51.3941],[23.6839,51.3703],[23.634,51.3393],[23.6352,51.3047],[23.6873,51.2924],[23.7427,51.2163],[23.7652,51.199],[23.816,51.1788],[23.8747,51.1361],[23.8545,51.1215],[23.9042,51.0627],[23.9117,51.0068],[23.9551,50.9836],[23.9793,50.9375],[24.0469,50.898],[24.1302,50.8689],[24.1309,50.8391],[24.0469,50.8291],[24.0205,50.8386],[23.9699,50.8252],[23.9576,50.808],[23.9743,50.7762],[24.0259,50.767],[24.0128,50.7433],[24.0269,50.728],[24.081,50.713],[24.0749,50.6902],[24.1082,50.6303],[24.0853,50.6044],[24.0954,50.5569],[24.1077,50.5408],[24.075,50.5143],[24.0107,50.4928],[24.0032,50.4377],[23.9813,50.4048],[23.9287,50.3908],[23.7475,50.3894],[23.6957,50.3768],[23.6587,50.327],[23.5653,50.2578],[23.4364,50.1935],[23.2079,50.034],[23.1778,50.004],[23.1015,49.9571],[22.993,49.8544],[22.9512,49.8266],[22.9244,49.7854],[22.8882,49.7697],[22.8266,49.6974],[22.7773,49.6805],[22.7417,49.6337],[22.6658,49.5674],[22.6409,49.5288]]]}},
{"type":"Feature","properties":{"entityId":"galicia-volhynia","from":1242,"to":1320,"certainty":"estimated","source":"유럽 쪽은 Natural Earth 1:10m admin-1(v5.1.2) 현대 행정구역 조각을 그 시기 국경에 맞춰 묶고, 조각이 역사 경계와 다른 곳은 선을 그어 나눈 근사. 유럽 밖(시베리아·중앙아시아·극동)은 대략적인 추정. 운영자 검수 필요"},"geometry":{"type":"Polygon","coordinates":[[[22.6409,49.5288],[22.6669,49.4784],[22.6796,49.4189],[22.7142,49.3906],[22.7242,49.3671],[22.7378,49.2754],[22.7029,49.195],[22.6817,49.1612],[22.7057,49.1688],[22.7488,49.1456],[22.7781,49.1203],[22.8534,49.0848],[22.8475,49.0337],[22.865,49.0132],[22.9024,48.9833],[22.892,48.9354],[22.926,48.9041],[22.9612,48.8843],[22.9821,48.859],[23.0117,48.8547],[23.105,48.8713],[23.1376,48.8522],[23.1798,48.7903],[23.2016,48.7771],[23.2576,48.7722],[23.2982,48.7812],[23.3085,48.7502],[23.3505,48.772],[23.378,48.7371],[23.4458,48.7267],[23.4985,48.7312],[23.5329,48.7237],[23.6124,48.7038],[23.6745,48.6545],[23.709,48.643],[23.7715,48.6447],[23.7817,48.6034],[23.8471,48.5628],[23.8949,48.5496],[23.9168,48.5154],[23.9074,48.4887],[23.9427,48.4704],[24.0015,48.5001],[24.0462,48.5051],[24.1138,48.5322],[24.137,48.5275],[24.1407,48.4712],[24.1312,48.4345],[24.1408,48.3799],[24.1777,48.3546],[24.2341,48.3505],[24.2707,48.3572],[24.3054,48.3883],[24.3317,48.3748],[24.3458,48.3402],[24.3916,48.3311],[24.4949,48.2666],[24.5415,48.2128],[24.5216,48.1711],[24.5384,48.1345],[24.6068,48.0886],[24.6393,48.0476],[24.5882,47.9959],[24.5698,47.9373],[24.6085,47.9219],[24.6493,47.8952],[24.6615,47.8539],[24.7128,47.8259],[24.7937,47.8045],[24.8207,47.7841],[24.8778,47.7187],[24.9289,47.7139],[24.9341,47.7572],[24.9809,47.8284],[24.9826,47.8519],[24.9629,47.9125],[24.9348,47.9474],[24.9276,47.9896],[24.9345,48.0135],[24.9797,48.0707],[24.9892,48.1002],[25.0174,48.1186],[25.0545,48.1286],[25.1063,48.1695],[25.137,48.1793],[25.1364,48.2276],[25.1961,48.2568],[25.2926,48.3402],[25.3696,48.3802],[25.4474,48.4],[25.5132,48.4029],[25.5637,48.389],[25.5851,48.3929],[25.6004,48.4326],[25.6044,48.5324],[25.5777,48.5808],[25.565,48.621],[25.5724,48.6385],[25.6362,48.6781],[25.7151,48.6645],[25.7312,48.6352],[25.7533,48.6326],[25.7666,48.6576],[25.7935,48.6701],[25.8596,48.6187],[25.863,48.6008],[25.9116,48.5881],[25.9602,48.5964],[25.9856,48.6235],[26.0247,48.6214],[26.0491,48.6477],[26.0623,48.6284],[26.0526,48.5717],[26.0798,48.5473],[26.1172,48.5419],[26.1297,48.5546],[26.1058,48.5809],[26.1049,48.6111],[26.1458,48.5964],[26.1495,48.5396],[26.1809,48.5267],[26.2567,48.5334],[26.3266,48.5116],[26.3805,48.5171],[26.354,48.5616],[26.3689,48.5761],[26.3067,48.6056],[26.3163,48.6428],[26.285,48.6412],[26.2819,48.6616],[26.2355,48.685],[26.2513,48.7524],[26.2285,48.7792],[26.2642,48.8082],[26.2387,48.8188],[26.2143,48.847],[26.2229,48.8972],[26.1954,48.9],[26.2023,48.935],[26.1891,48.953],[26.1985,48.9845],[26.2212,49.0007],[26.1995,49.0413],[26.2284,49.0669],[26.2109,49.1191],[26.2218,49.148],[26.1992,49.1746],[26.2078,49.2273],[26.2417,49.2412],[26.2563,49.2936],[26.2344,49.3195],[26.2391,49.342],[26.2291,49.397],[26.1985,49.4153],[26.1484,49.5165],[26.1643,49.544],[26.2087,49.5669],[26.2239,49.62],[26.2249,49.6234],[26.2336,49.6356],[26.6,49.66],[27.2,49.62],[27.6,49.68],[27.7625,49.693],[27.769,49.7044],[27.8144,49.704],[27.8364,49.7218],[27.8119,49.7392],[27.8501,49.7451],[27.868,49.7601],[27.6607,49.799],[27.6423,49.8266],[27.6042,49.8608],[27.5881,49.8979],[27.5409,49.9151],[27.5487,49.9436],[27.5801,49.9485],[27.5478,50.0075],[27.5977,50.0027],[27.6637,50.0326],[27.657,50.0612],[27.6212,50.0793],[27.6463,50.1198],[27.6272,50.1379],[27.6496,50.1527],[27.646,50.1691],[27.6059,50.2067],[27.6075,50.2493],[27.5825,50.2546],[27.554,50.2203],[27.4885,50.2238],[27.4719,50.2518],[27.4317,50.2718],[27.4036,50.2747],[27.4038,50.2982],[27.3193,50.3341],[27.2792,50.3713],[27.235,50.3797],[27.2289,50.3949],[27.2484,50.4413],[27.3046,50.478],[27.2604,50.4901],[27.2458,50.5098],[27.1923,50.5412],[27.2356,50.583],[27.1969,50.6052],[27.1924,50.6185],[27.2152,50.6575],[27.2435,50.6818],[27.2717,50.7374],[27.2292,50.7908],[27.2241,50.8245],[27.2399,50.8904],[27.216,50.9159],[27.2328,50.9249],[27.1982,50.9909],[27.2323,51.0304],[27.2945,51.0437],[27.3496,51.0998],[27.3582,51.142],[27.3976,51.1922],[27.4491,51.2279],[27.4503,51.2556],[27.4182,51.2977],[27.4221,51.3073],[27.4779,51.3153],[27.5113,51.3527],[27.4903,51.3671],[27.5021,51.4402],[27.52,51.441],[27.5439,51.4155],[27.5836,51.3937],[27.5999,51.4091],[27.5757,51.4379],[27.5859,51.4723],[27.6661,51.4902],[27.7052,51.5684],[27.6768,51.5948],[27.6206,51.5959],[27.5124,51.6231],[27.5095,51.7056],[27.555,51.7503],[27.5563,51.8059],[27.5031,51.8445],[27.5319,51.9006],[27.5256,51.9426],[27.585,51.9902],[27.5991,52.0185],[27.533,52.0603],[27.5267,52.0727],[27.5208,52.1835],[27.5406,52.2214],[27.5231,52.2368],[27.5,52.245],[27.5,51.6233],[27.4773,51.6237],[27.431,51.5984],[27.3884,51.5907],[27.3291,51.597],[27.2675,51.5875],[27.254,51.5954],[27.2775,51.6511],[27.2036,51.6551],[27.1811,51.6834],[27.1779,51.7471],[27.11,51.7624],[27.0216,51.7645],[26.9208,51.7425],[26.8548,51.7493],[26.6657,51.8014],[26.4456,51.8056],[26.4192,51.8209],[26.4078,51.8506],[26.1753,51.8567],[26.1454,51.8648],[26.0808,51.9007],[25.9811,51.9035],[25.7679,51.9285],[25.6835,51.918],[25.75,51.9263],[25.75,53.3],[26.3911,53.3],[26.3723,53.3193],[26.3765,53.3645],[26.2731,53.3506],[26.2212,53.3629],[26.1357,53.3659],[26.0825,53.3736],[26.0392,53.3693],[25.8981,53.3763],[25.8729,53.3888],[25.8221,53.3874],[25.7884,53.3959],[25.7202,53.3947],[25.6927,53.3813],[25.6479,53.3318],[25.6356,53.2866],[25.5837,53.271],[25.5689,53.2442],[25.601,53.2116],[25.5499,53.1841],[25.5974,53.1461],[25.5993,53.1272],[25.5248,53.0245],[25.4627,52.9997],[25.4051,52.942],[25.364,52.9328],[25.3268,52.9373],[25.297,52.9207],[25.3223,52.8927],[25.3078,52.884],[25.3311,52.8612],[25.3232,52.8408],[25.2688,52.849],[25.259,52.8651],[25.1919,52.8476],[25.1381,52.8496],[25.0832,52.8334],[25.0528,52.8411],[25.0511,52.8759],[25.0661,52.9087],[25.0483,52.9129],[25.0271,52.8921],[25.004,52.8896],[24.9564,52.9043],[24.9609,52.9258],[24.9289,52.9605],[24.8771,52.9646],[24.8515,52.9369],[24.8014,52.9327],[24.7478,52.9406],[24.6859,52.9598],[24.6138,52.9394],[24.607,52.9283],[24.6526,52.9188],[24.6517,52.9077],[24.6015,52.887],[24.5709,52.8654],[24.5871,52.8441],[24.541,52.7953],[24.5548,52.7746],[24.5526,52.7478],[24.5186,52.7393],[24.4685,52.7411],[24.3882,52.7749],[24.316,52.7656],[24.3054,52.7807],[24.2505,52.7716],[24.1771,52.7817],[24.1444,52.7982],[24.0714,52.7682],[23.9386,52.7749],[23.9204,52.7726],[23.9225,52.7426],[23.9088,52.6999],[23.869,52.67],[23.7362,52.6149],[23.569,52.5859],[23.4805,52.5544],[23.3923,52.5096],[23.2705,52.3951],[23.2121,52.3475],[23.1656,52.2894],[23.1761,52.2851],[23.1945,52.2715],[23.1897,52.2405],[23.2123,52.2317],[23.3958,52.1996],[23.3885,52.1842],[23.4367,52.1757],[23.4505,52.1859],[23.4847,52.1586],[23.5125,52.1244],[23.5794,52.1215],[23.6375,52.0845],[23.6764,51.9941],[23.6476,51.9741],[23.6222,51.9279],[23.6214,51.8956],[23.5946,51.8433],[23.6287,51.8098],[23.6175,51.7865],[23.5604,51.7545],[23.5466,51.7136],[23.5604,51.672],[23.5324,51.659],[23.5438,51.6438],[23.5399,51.6071],[23.574,51.5553],[23.5728,51.5397],[23.6062,51.5174],[23.6148,51.4972],[23.6628,51.4802],[23.6487,51.454],[23.6976,51.4044],[23.6789,51.3941],[23.6839,51.3703],[23.634,51.3393],[23.6352,51.3047],[23.6873,51.2924],[23.7427,51.2163],[23.7652,51.199],[23.816,51.1788],[23.8747,51.1361],[23.8545,51.1215],[23.9042,51.0627],[23.9117,51.0068],[23.9551,50.9836],[23.9793,50.9375],[24.0469,50.898],[24.1302,50.8689],[24.1309,50.8391],[24.0469,50.8291],[24.0205,50.8386],[23.9699,50.8252],[23.9576,50.808],[23.9743,50.7762],[24.0259,50.767],[24.0128,50.7433],[24.0269,50.728],[24.081,50.713],[24.0749,50.6902],[24.1082,50.6303],[24.0853,50.6044],[24.0954,50.5569],[24.1077,50.5408],[24.075,50.5143],[24.0107,50.4928],[24.0032,50.4377],[23.9813,50.4048],[23.9287,50.3908],[23.7475,50.3894],[23.6957,50.3768],[23.6587,50.327],[23.5653,50.2578],[23.4364,50.1935],[23.2079,50.034],[23.1778,50.004],[23.1015,49.9571],[22.993,49.8544],[22.9512,49.8266],[22.9244,49.7854],[22.8882,49.7697],[22.8266,49.6974],[22.7773,49.6805],[22.7417,49.6337],[22.6658,49.5674],[22.6409,49.5288]]]}},
{"type":"Feature","properties":{"entityId":"galicia-volhynia","from":1320,"to":1340,"certainty":"estimated","source":"유럽 쪽은 Natural Earth 1:10m admin-1(v5.1.2) 현대 행정구역 조각을 그 시기 국경에 맞춰 묶고, 조각이 역사 경계와 다른 곳은 선을 그어 나눈 근사. 유럽 밖(시베리아·중앙아시아·극동)은 대략적인 추정. 운영자 검수 필요"},"geometry":{"type":"Polygon","coordinates":[[[22.6409,49.5288],[22.6669,49.4784],[22.6796,49.4189],[22.7142,49.3906],[22.7242,49.3671],[22.7378,49.2754],[22.7029,49.195],[22.6817,49.1612],[22.7057,49.1688],[22.7488,49.1456],[22.7781,49.1203],[22.8534,49.0848],[22.8475,49.0337],[22.865,49.0132],[22.9024,48.9833],[22.892,48.9354],[22.926,48.9041],[22.9612,48.8843],[22.9821,48.859],[23.0117,48.8547],[23.105,48.8713],[23.1376,48.8522],[23.1798,48.7903],[23.2016,48.7771],[23.2576,48.7722],[23.2982,48.7812],[23.3085,48.7502],[23.3505,48.772],[23.378,48.7371],[23.4458,48.7267],[23.4985,48.7312],[23.5329,48.7237],[23.6124,48.7038],[23.6745,48.6545],[23.709,48.643],[23.7715,48.6447],[23.7817,48.6034],[23.8471,48.5628],[23.8949,48.5496],[23.9168,48.5154],[23.9074,48.4887],[23.9427,48.4704],[24.0015,48.5001],[24.0462,48.5051],[24.1138,48.5322],[24.137,48.5275],[24.1407,48.4712],[24.1312,48.4345],[24.1408,48.3799],[24.1777,48.3546],[24.2341,48.3505],[24.2707,48.3572],[24.3054,48.3883],[24.3317,48.3748],[24.3458,48.3402],[24.3916,48.3311],[24.4949,48.2666],[24.5415,48.2128],[24.5216,48.1711],[24.5384,48.1345],[24.6068,48.0886],[24.6393,48.0476],[24.5882,47.9959],[24.5698,47.9373],[24.6085,47.9219],[24.6493,47.8952],[24.6615,47.8539],[24.7128,47.8259],[24.7937,47.8045],[24.8207,47.7841],[24.8778,47.7187],[24.9289,47.7139],[24.9341,47.7572],[24.9809,47.8284],[24.9826,47.8519],[24.9629,47.9125],[24.9348,47.9474],[24.9276,47.9896],[24.9345,48.0135],[24.9797,48.0707],[24.9892,48.1002],[25.0174,48.1186],[25.0545,48.1286],[25.1063,48.1695],[25.137,48.1793],[25.1364,48.2276],[25.1961,48.2568],[25.2926,48.3402],[25.3696,48.3802],[25.4474,48.4],[25.5132,48.4029],[25.5637,48.389],[25.5851,48.3929],[25.6004,48.4326],[25.6044,48.5324],[25.5777,48.5808],[25.565,48.621],[25.5724,48.6385],[25.6362,48.6781],[25.7151,48.6645],[25.7312,48.6352],[25.7533,48.6326],[25.7666,48.6576],[25.7935,48.6701],[25.8596,48.6187],[25.863,48.6008],[25.9116,48.5881],[25.9602,48.5964],[25.9856,48.6235],[26.0247,48.6214],[26.0491,48.6477],[26.0623,48.6284],[26.0526,48.5717],[26.0798,48.5473],[26.1172,48.5419],[26.1297,48.5546],[26.1058,48.5809],[26.1049,48.6111],[26.1458,48.5964],[26.1495,48.5396],[26.1809,48.5267],[26.2567,48.5334],[26.3266,48.5116],[26.3805,48.5171],[26.354,48.5616],[26.3689,48.5761],[26.3067,48.6056],[26.3163,48.6428],[26.285,48.6412],[26.2819,48.6616],[26.2355,48.685],[26.2513,48.7524],[26.2285,48.7792],[26.2642,48.8082],[26.2387,48.8188],[26.2143,48.847],[26.2229,48.8972],[26.1954,48.9],[26.2023,48.935],[26.1891,48.953],[26.1985,48.9845],[26.2212,49.0007],[26.1995,49.0413],[26.2284,49.0669],[26.2109,49.1191],[26.2218,49.148],[26.1992,49.1746],[26.2078,49.2273],[26.2417,49.2412],[26.2563,49.2936],[26.2344,49.3195],[26.2391,49.342],[26.2291,49.397],[26.1985,49.4153],[26.1484,49.5165],[26.1643,49.544],[26.2087,49.5669],[26.2239,49.62],[26.2249,49.6234],[26.2336,49.6356],[26.6,49.66],[27.2,49.62],[27.6,49.68],[27.7625,49.693],[27.769,49.7044],[27.8144,49.704],[27.8364,49.7218],[27.8119,49.7392],[27.8501,49.7451],[27.868,49.7601],[27.6607,49.799],[27.6423,49.8266],[27.6042,49.8608],[27.5881,49.8979],[27.5409,49.9151],[27.5487,49.9436],[27.5801,49.9485],[27.5478,50.0075],[27.5977,50.0027],[27.6637,50.0326],[27.657,50.0612],[27.6212,50.0793],[27.6463,50.1198],[27.6272,50.1379],[27.6496,50.1527],[27.646,50.1691],[27.6059,50.2067],[27.6075,50.2493],[27.5825,50.2546],[27.554,50.2203],[27.4885,50.2238],[27.4719,50.2518],[27.4317,50.2718],[27.4036,50.2747],[27.4038,50.2982],[27.3193,50.3341],[27.2792,50.3713],[27.235,50.3797],[27.2289,50.3949],[27.2484,50.4413],[27.3046,50.478],[27.2604,50.4901],[27.2458,50.5098],[27.1923,50.5412],[27.2356,50.583],[27.1969,50.6052],[27.1924,50.6185],[27.2152,50.6575],[27.2435,50.6818],[27.2717,50.7374],[27.2292,50.7908],[27.2241,50.8245],[27.2399,50.8904],[27.216,50.9159],[27.2328,50.9249],[27.1982,50.9909],[27.2323,51.0304],[27.2945,51.0437],[27.3496,51.0998],[27.3582,51.142],[27.3976,51.1922],[27.4491,51.2279],[27.4503,51.2556],[27.4182,51.2977],[27.4221,51.3073],[27.4779,51.3153],[27.5113,51.3527],[27.4903,51.3671],[27.5021,51.4402],[27.52,51.441],[27.5439,51.4155],[27.5836,51.3937],[27.5999,51.4091],[27.5757,51.4379],[27.5859,51.4723],[27.6661,51.4902],[27.7052,51.5684],[27.6768,51.5948],[27.6206,51.5959],[27.5124,51.6231],[27.4773,51.6237],[27.431,51.5984],[27.3884,51.5907],[27.3291,51.597],[27.2675,51.5875],[27.254,51.5954],[27.2775,51.6511],[27.2036,51.6551],[27.1811,51.6834],[27.1779,51.7471],[27.11,51.7624],[27.0216,51.7645],[26.9208,51.7425],[26.8548,51.7493],[26.6657,51.8014],[26.4456,51.8056],[26.4192,51.8209],[26.4078,51.8506],[26.1753,51.8567],[26.1454,51.8648],[26.0808,51.9007],[25.9811,51.9035],[25.7679,51.9285],[25.6835,51.918],[25.5474,51.9194],[25.352,51.9215],[25.1833,51.9498],[25.0927,51.9398],[25.0027,51.9105],[24.7218,51.8823],[24.6398,51.8921],[24.3908,51.88],[24.3479,51.8612],[24.2961,51.8081],[24.2723,51.7429],[24.2441,51.7182],[24.1308,51.6698],[23.9813,51.586],[23.9413,51.5819],[23.8849,51.6199],[23.7497,51.6445],[23.7262,51.6449],[23.629,51.629],[23.5944,51.605],[23.6263,51.5409],[23.6241,51.5159],[23.6062,51.5174],[23.6148,51.4972],[23.6628,51.4802],[23.6487,51.454],[23.6976,51.4044],[23.6789,51.3941],[23.6839,51.3703],[23.634,51.3393],[23.6352,51.3047],[23.6873,51.2924],[23.7427,51.2163],[23.7652,51.199],[23.816,51.1788],[23.8747,51.1361],[23.8545,51.1215],[23.9042,51.0627],[23.9117,51.0068],[23.9551,50.9836],[23.9793,50.9375],[24.0469,50.898],[24.1302,50.8689],[24.1309,50.8391],[24.0469,50.8291],[24.0205,50.8386],[23.9699,50.8252],[23.9576,50.808],[23.9743,50.7762],[24.0259,50.767],[24.0128,50.7433],[24.0269,50.728],[24.081,50.713],[24.0749,50.6902],[24.1082,50.6303],[24.0853,50.6044],[24.0954,50.5569],[24.1077,50.5408],[24.075,50.5143],[24.0107,50.4928],[24.0032,50.4377],[23.9813,50.4048],[23.9287,50.3908],[23.7475,50.3894],[23.6957,50.3768],[23.6587,50.327],[23.5653,50.2578],[23.4364,50.1935],[23.2079,50.034],[23.1778,50.004],[23.1015,49.9571],[22.993,49.8544],[22.9512,49.8266],[22.9244,49.7854],[22.8882,49.7697],[22.8266,49.6974],[22.7773,49.6805],[22.7417,49.6337],[22.6658,49.5674],[22.6409,49.5288]]]}},
{"type":"Feature","properties":{"entityId":"galicia-volhynia","from":1340,"to":1349,"certainty":"estimated","source":"유럽 쪽은 Natural Earth 1:10m admin-1(v5.1.2) 현대 행정구역 조각을 그 시기 국경에 맞춰 묶고, 조각이 역사 경계와 다른 곳은 선을 그어 나눈 근사. 유럽 밖(시베리아·중앙아시아·극동)은 대략적인 추정. 운영자 검수 필요"},"geometry":{"type":"Polygon","coordinates":[[[22.6409,49.5288],[22.6669,49.4784],[22.6796,49.4189],[22.7142,49.3906],[22.7242,49.3671],[22.7378,49.2754],[22.7029,49.195],[22.6817,49.1612],[22.7057,49.1688],[22.7488,49.1456],[22.7781,49.1203],[22.8534,49.0848],[22.8475,49.0337],[22.865,49.0132],[22.9024,48.9833],[22.892,48.9354],[22.926,48.9041],[22.9612,48.8843],[22.9821,48.859],[23.0117,48.8547],[23.105,48.8713],[23.1376,48.8522],[23.1798,48.7903],[23.2016,48.7771],[23.2576,48.7722],[23.2982,48.7812],[23.3085,48.7502],[23.3505,48.772],[23.378,48.7371],[23.4458,48.7267],[23.4985,48.7312],[23.5329,48.7237],[23.6124,48.7038],[23.6745,48.6545],[23.709,48.643],[23.7715,48.6447],[23.7817,48.6034],[23.8471,48.5628],[23.8949,48.5496],[23.9168,48.5154],[23.9074,48.4887],[23.9427,48.4704],[24.0015,48.5001],[24.0462,48.5051],[24.1138,48.5322],[24.137,48.5275],[24.1407,48.4712],[24.1312,48.4345],[24.1408,48.3799],[24.1777,48.3546],[24.2341,48.3505],[24.2707,48.3572],[24.3054,48.3883],[24.3317,48.3748],[24.3458,48.3402],[24.3916,48.3311],[24.4949,48.2666],[24.5415,48.2128],[24.5216,48.1711],[24.5384,48.1345],[24.6068,48.0886],[24.6393,48.0476],[24.5882,47.9959],[24.5698,47.9373],[24.6085,47.9219],[24.6493,47.8952],[24.6615,47.8539],[24.7128,47.8259],[24.7937,47.8045],[24.8207,47.7841],[24.8778,47.7187],[24.9289,47.7139],[24.9341,47.7572],[24.9809,47.8284],[24.9826,47.8519],[24.9629,47.9125],[24.9348,47.9474],[24.9276,47.9896],[24.9345,48.0135],[24.9797,48.0707],[24.9892,48.1002],[25.0174,48.1186],[25.0545,48.1286],[25.1063,48.1695],[25.137,48.1793],[25.1364,48.2276],[25.1961,48.2568],[25.2926,48.3402],[25.3696,48.3802],[25.4474,48.4],[25.5132,48.4029],[25.5637,48.389],[25.5851,48.3929],[25.6004,48.4326],[25.6044,48.5324],[25.5777,48.5808],[25.565,48.621],[25.5724,48.6385],[25.6362,48.6781],[25.7151,48.6645],[25.7312,48.6352],[25.7533,48.6326],[25.7666,48.6576],[25.7935,48.6701],[25.8596,48.6187],[25.863,48.6008],[25.9116,48.5881],[25.9602,48.5964],[25.9856,48.6235],[26.0247,48.6214],[26.0491,48.6477],[26.0623,48.6284],[26.0526,48.5717],[26.0798,48.5473],[26.1172,48.5419],[26.1297,48.5546],[26.1058,48.5809],[26.1049,48.6111],[26.1458,48.5964],[26.1495,48.5396],[26.1809,48.5267],[26.2567,48.5334],[26.3266,48.5116],[26.3805,48.5171],[26.354,48.5616],[26.3689,48.5761],[26.3067,48.6056],[26.3163,48.6428],[26.285,48.6412],[26.2819,48.6616],[26.2355,48.685],[26.2513,48.7524],[26.2285,48.7792],[26.2642,48.8082],[26.2387,48.8188],[26.2143,48.847],[26.2229,48.8972],[26.1954,48.9],[26.2023,48.935],[26.1891,48.953],[26.1985,48.9845],[26.2212,49.0007],[26.1995,49.0413],[26.2284,49.0669],[26.2109,49.1191],[26.2218,49.148],[26.1992,49.1746],[26.2078,49.2273],[26.2417,49.2412],[26.2563,49.2936],[26.2344,49.3195],[26.2391,49.342],[26.2291,49.397],[26.1985,49.4153],[26.1484,49.5165],[26.1643,49.544],[26.2087,49.5669],[26.2239,49.62],[26.2,49.62],[26,49.75],[25.8,49.85],[25.6,49.92],[25.3898,49.9873],[25.4038,49.9797],[25.3727,49.9965],[25.3676,50.0131],[25.2959,50.0413],[25.2023,50.095],[25.1854,50.128],[25.1929,50.1816],[25.1677,50.22],[25.2075,50.2501],[25.1957,50.288],[25.1529,50.2925],[25.1041,50.2794],[25.0635,50.2948],[25.0638,50.3345],[25.0489,50.3473],[25.0039,50.3457],[24.9319,50.3702],[24.9114,50.3481],[24.8484,50.3549],[24.773,50.3405],[24.7052,50.3496],[24.6882,50.3767],[24.6394,50.3974],[24.6342,50.4134],[24.591,50.417],[24.5526,50.4384],[24.5418,50.4109],[24.5042,50.4106],[24.4988,50.4397],[24.4567,50.4614],[24.4634,50.4788],[24.5132,50.4867],[24.5354,50.5001],[24.5306,50.5241],[24.5008,50.5455],[24.4343,50.549],[24.4054,50.5674],[24.3795,50.6009],[24.3459,50.6089],[24.3214,50.5926],[24.2479,50.5818],[24.2179,50.5892],[24.1647,50.6402],[24.1259,50.6418],[24.1082,50.6303],[24.0853,50.6044],[24.0954,50.5569],[24.1077,50.5408],[24.075,50.5143],[24.0107,50.4928],[24.0032,50.4377],[23.9813,50.4048],[23.9287,50.3908],[23.7475,50.3894],[23.6957,50.3768],[23.6587,50.327],[23.5653,50.2578],[23.4364,50.1935],[23.2079,50.034],[23.1778,50.004],[23.1015,49.9571],[22.993,49.8544],[22.9512,49.8266],[22.9244,49.7854],[22.8882,49.7697],[22.8266,49.6974],[22.7773,49.6805],[22.7417,49.6337],[22.6658,49.5674],[22.6409,49.5288]]]}}
]}
