{
 "type": "FeatureCollection",
 "features": [
  {
   "type": "Feature",
   "properties": {
    "entityId": "gando-disputed",
    "from": 1883,
    "to": 1909,
    "certainty": "disputed",
    "source": "중고등학교 한국사 교과서 시대별 지도의 일반적인 경계를 따른 대략적인 추정. 운영자 검수 필요"
   },
   "geometry": {
    "type": "Polygon",
    "coordinates": [
     [
      [
       127.95,
       42
      ],
      [
       128.2,
       41.5
      ],
      [
       128.9,
       42.05
      ],
      [
       129.7,
       42.45
      ],
      [
       130,
       42.9
      ],
      [
       130.4,
       42.6
      ],
      [
       130.62,
       42.45
      ],
      [
       130.85,
       43
      ],
      [
       130.5,
       43.6
      ],
      [
       129.5,
       43.8
      ],
      [
       128.5,
       43.5
      ],
      [
       128,
       42.8
      ],
      [
       127.95,
       42
      ]
     ]
    ]
   }
  }
 ]
}
