{"type":"FeatureCollection","features":[
{"type":"Feature","properties":{"entityId":"general-government","from":1939,"to":1941,"certainty":"estimated","source":"유럽 쪽은 Natural Earth 1:10m admin-1(v5.1.2) 현대 행정구역 조각을 그 시기 국경에 맞춰 묶고, 조각이 역사 경계와 다른 곳은 선을 그어 나눈 근사. 유럽 밖(시베리아·중앙아시아·극동)은 대략적인 추정. 운영자 검수 필요"},"geometry":{"type":"Polygon","coordinates":[[[19.03,50.85],[19.1,50.72],[19.35,50.62],[19.45,50.55],[19.6,50.45],[19.7,50.3],[19.72,50.15],[19.65,50],[19.6,49.85],[19.65,49.65],[19.6083,49.4415],[19.6348,49.4413],[19.627,49.4019],[19.6845,49.3891],[19.7693,49.3931],[19.7836,49.3576],[19.7895,49.3092],[19.7832,49.29],[19.8068,49.2752],[19.7518,49.2191],[19.7607,49.1942],[19.832,49.1859],[19.8683,49.2008],[19.9059,49.2228],[19.9657,49.2157],[20.0173,49.1839],[20.0505,49.1732],[20.07,49.1831],[20.086,49.243],[20.1302,49.3039],[20.1604,49.3056],[20.2072,49.3342],[20.2844,49.3386],[20.3074,49.3866],[20.3295,49.3918],[20.3705,49.3817],[20.4221,49.383],[20.4375,49.4025],[20.5221,49.3744],[20.5677,49.3764],[20.6053,49.4],[20.6895,49.4005],[20.7783,49.3312],[20.8493,49.3205],[20.9006,49.2926],[20.9424,49.2959],[21.0172,49.3524],[21.0725,49.3572],[21.0685,49.3814],[21.0333,49.3997],[21.0535,49.4145],[21.1249,49.4237],[21.1726,49.3983],[21.2112,49.4111],[21.2425,49.4413],[21.2744,49.4473],[21.3304,49.4278],[21.4279,49.4098],[21.5144,49.4172],[21.6012,49.4265],[21.6663,49.4018],[21.6917,49.4022],[21.7576,49.3489],[21.7994,49.3748],[21.8196,49.3772],[21.8746,49.3484],[21.9284,49.3308],[21.9645,49.3086],[21.9932,49.2782],[22.0124,49.2111],[22.0408,49.1975],[22.1115,49.1886],[22.1557,49.1715],[22.198,49.172],[22.2159,49.14],[22.2629,49.1306],[22.3394,49.1265],[22.3901,49.093],[22.4268,49.0856],[22.505,49.0834],[22.5396,49.0722],[22.5808,49.0814],[22.6429,49.0432],[22.7553,49.0447],[22.784,49.0214],[22.8531,48.9948],[22.7775,49.1208],[22.7488,49.1456],[22.7057,49.1688],[22.6817,49.1612],[22.7029,49.195],[22.7155,49.2241],[22.7,49.25],[22.45,49.4],[22.33,49.47],[22.2,49.56],[22.24,49.81],[22.39,49.82],[22.65,49.77],[22.77,49.78],[22.85,49.95],[23,50.15],[23.35,50.35],[23.5191,50.3983],[23.5255,50.3957],[23.558,50.3647],[23.6587,50.327],[23.6957,50.3768],[23.7475,50.3894],[23.9287,50.3908],[23.9813,50.4048],[24.0032,50.4377],[24.0107,50.4928],[24.075,50.5143],[24.1077,50.5408],[24.0954,50.5569],[24.0853,50.6044],[24.1082,50.6303],[24.0749,50.6902],[24.081,50.713],[24.0269,50.728],[24.0128,50.7433],[24.0259,50.767],[23.9743,50.7762],[23.9576,50.808],[23.9699,50.8252],[24.0205,50.8386],[24.0469,50.8291],[24.1309,50.8391],[24.1302,50.8689],[24.0469,50.898],[23.9793,50.9375],[23.9551,50.9836],[23.9117,51.0068],[23.9042,51.0627],[23.8545,51.1215],[23.8747,51.1361],[23.816,51.1788],[23.7652,51.199],[23.7427,51.2163],[23.6873,51.2924],[23.6352,51.3047],[23.634,51.3393],[23.6839,51.3703],[23.6789,51.3941],[23.6976,51.4044],[23.6487,51.454],[23.6628,51.4802],[23.6148,51.4972],[23.6062,51.5174],[23.5728,51.5397],[23.574,51.5553],[23.5399,51.6071],[23.5438,51.6438],[23.5324,51.659],[23.5604,51.672],[23.5466,51.7136],[23.5604,51.7545],[23.6175,51.7865],[23.6287,51.8098],[23.5946,51.8433],[23.6214,51.8956],[23.6222,51.9279],[23.6476,51.9741],[23.6764,51.9941],[23.6375,52.0845],[23.5794,52.1215],[23.5125,52.1244],[23.4847,52.1586],[23.4505,52.1859],[23.4367,52.1757],[23.3885,52.1842],[23.3958,52.1996],[23.2123,52.2317],[23.1897,52.2405],[23.1945,52.2715],[23.1761,52.2851],[23.1502,52.2816],[23.087,52.2923],[23.039,52.2892],[23.0521,52.3096],[23.0058,52.337],[22.9845,52.3301],[22.9751,52.3528],[22.9228,52.3723],[22.8446,52.3656],[22.689,52.3854],[22.6119,52.3873],[22.5627,52.4041],[22.5388,52.4294],[22.5448,52.4625],[22.5198,52.4733],[22.5114,52.4946],[22.5176,52.5294],[22.4119,52.6006],[22.4118,52.6597],[22.3997,52.695],[22.3935,52.7471],[22.3779,52.7941],[22.3199,52.7842],[22.2636,52.7671],[22.2073,52.8017],[22.2231,52.8569],[22.1747,52.879],[22.1248,52.8464],[22.0489,52.8396],[21.9776,52.862],[21.9511,52.8912],[21.9263,52.9453],[21.6,52.88],[21.3,52.66],[21,52.48],[20.6,52.38],[20.3,52.3],[20,52.3],[19.9185,52.2674],[19.75,52.2],[19.65,52],[19.8,51.85],[19.85,51.6],[19.6,51.35],[19.55,51.15],[19.25,51],[19.1914,50.9601],[19.03,50.85]]]}},
{"type":"Feature","properties":{"entityId":"general-government","from":1941,"to":1944,"certainty":"estimated","source":"유럽 쪽은 Natural Earth 1:10m admin-1(v5.1.2) 현대 행정구역 조각을 그 시기 국경에 맞춰 묶고, 조각이 역사 경계와 다른 곳은 선을 그어 나눈 근사. 유럽 밖(시베리아·중앙아시아·극동)은 대략적인 추정. 운영자 검수 필요"},"geometry":{"type":"Polygon","coordinates":[[[19.03,50.85],[19.1,50.72],[19.35,50.62],[19.45,50.55],[19.6,50.45],[19.7,50.3],[19.72,50.15],[19.65,50],[19.6,49.85],[19.65,49.65],[19.6083,49.4415],[19.6348,49.4413],[19.627,49.4019],[19.6845,49.3891],[19.7693,49.3931],[19.7836,49.3576],[19.7895,49.3092],[19.7832,49.29],[19.8068,49.2752],[19.7518,49.2191],[19.7607,49.1942],[19.832,49.1859],[19.8683,49.2008],[19.9059,49.2228],[19.9657,49.2157],[20.0173,49.1839],[20.0505,49.1732],[20.07,49.1831],[20.086,49.243],[20.1302,49.3039],[20.1604,49.3056],[20.2072,49.3342],[20.2844,49.3386],[20.3074,49.3866],[20.3295,49.3918],[20.3705,49.3817],[20.4221,49.383],[20.4375,49.4025],[20.5221,49.3744],[20.5677,49.3764],[20.6053,49.4],[20.6895,49.4005],[20.7783,49.3312],[20.8493,49.3205],[20.9006,49.2926],[20.9424,49.2959],[21.0172,49.3524],[21.0725,49.3572],[21.0685,49.3814],[21.0333,49.3997],[21.0535,49.4145],[21.1249,49.4237],[21.1726,49.3983],[21.2112,49.4111],[21.2425,49.4413],[21.2744,49.4473],[21.3304,49.4278],[21.4279,49.4098],[21.5144,49.4172],[21.6012,49.4265],[21.6663,49.4018],[21.6917,49.4022],[21.7576,49.3489],[21.7994,49.3748],[21.8196,49.3772],[21.8746,49.3484],[21.9284,49.3308],[21.9645,49.3086],[21.9932,49.2782],[22.0124,49.2111],[22.0408,49.1975],[22.1115,49.1886],[22.1557,49.1715],[22.198,49.172],[22.2159,49.14],[22.2629,49.1306],[22.3394,49.1265],[22.3901,49.093],[22.4268,49.0856],[22.505,49.0834],[22.5396,49.0722],[22.5808,49.0814],[22.6429,49.0432],[22.7553,49.0447],[22.784,49.0214],[22.8531,48.9948],[22.8553,48.994],[22.865,49.0132],[22.9024,48.9833],[22.892,48.9354],[22.926,48.9041],[22.9612,48.8843],[22.9821,48.859],[23.0117,48.8547],[23.105,48.8713],[23.1376,48.8522],[23.1798,48.7903],[23.2016,48.7771],[23.2576,48.7722],[23.2982,48.7812],[23.3085,48.7502],[23.3505,48.772],[23.378,48.7371],[23.4458,48.7267],[23.4985,48.7312],[23.5329,48.7237],[23.6124,48.7038],[23.6745,48.6545],[23.709,48.643],[23.7715,48.6447],[23.7817,48.6034],[23.8471,48.5628],[23.8949,48.5496],[23.9168,48.5154],[23.9074,48.4887],[23.9427,48.4704],[24.0015,48.5001],[24.0462,48.5051],[24.1138,48.5322],[24.137,48.5275],[24.1407,48.4712],[24.1312,48.4345],[24.1408,48.3799],[24.1777,48.3546],[24.2341,48.3505],[24.2707,48.3572],[24.3054,48.3883],[24.3317,48.3748],[24.3458,48.3402],[24.3916,48.3311],[24.4949,48.2666],[24.5415,48.2128],[24.5216,48.1711],[24.5384,48.1345],[24.6068,48.0886],[24.6393,48.0476],[24.5882,47.9959],[24.5698,47.9373],[24.6085,47.9219],[24.6493,47.8952],[24.6615,47.8539],[24.7128,47.8259],[24.7937,47.8045],[24.8207,47.7841],[24.8778,47.7187],[24.9289,47.7139],[24.9341,47.7572],[24.9809,47.8284],[24.9826,47.8519],[24.9629,47.9125],[24.9348,47.9474],[24.9276,47.9896],[24.9345,48.0135],[24.9797,48.0707],[24.9892,48.1002],[25.0174,48.1186],[25.0545,48.1286],[25.1063,48.1695],[25.137,48.1793],[25.1364,48.2276],[25.1961,48.2568],[25.2926,48.3402],[25.3696,48.3802],[25.4474,48.4],[25.5132,48.4029],[25.5637,48.389],[25.5851,48.3929],[25.6004,48.4326],[25.6044,48.5324],[25.5777,48.5808],[25.565,48.621],[25.5724,48.6385],[25.6362,48.6781],[25.7151,48.6645],[25.7312,48.6352],[25.7533,48.6326],[25.7666,48.6576],[25.7935,48.6701],[25.8596,48.6187],[25.863,48.6008],[25.9116,48.5881],[25.9602,48.5964],[25.9856,48.6235],[26.0247,48.6214],[26.0491,48.6477],[26.0623,48.6284],[26.0526,48.5717],[26.0798,48.5473],[26.1172,48.5419],[26.1297,48.5546],[26.1058,48.5809],[26.1049,48.6111],[26.1458,48.5964],[26.1495,48.5396],[26.1809,48.5267],[26.2567,48.5334],[26.3266,48.5116],[26.3805,48.5171],[26.354,48.5616],[26.3689,48.5761],[26.3067,48.6056],[26.3163,48.6428],[26.285,48.6412],[26.2819,48.6616],[26.2355,48.685],[26.2513,48.7524],[26.2285,48.7792],[26.2642,48.8082],[26.2387,48.8188],[26.2143,48.847],[26.2229,48.8972],[26.1954,48.9],[26.2023,48.935],[26.1891,48.953],[26.1985,48.9845],[26.2212,49.0007],[26.1995,49.0413],[26.2284,49.0669],[26.2109,49.1191],[26.2218,49.148],[26.1992,49.1746],[26.2078,49.2273],[26.2417,49.2412],[26.2563,49.2936],[26.2344,49.3195],[26.2391,49.342],[26.2291,49.397],[26.1985,49.4153],[26.1484,49.5165],[26.1643,49.544],[26.2087,49.5669],[26.2239,49.62],[26.2,49.62],[26,49.75],[25.8,49.85],[25.6,49.92],[25.3898,49.9873],[25.4038,49.9797],[25.3727,49.9965],[25.3676,50.0131],[25.2959,50.0413],[25.2023,50.095],[25.1854,50.128],[25.1929,50.1816],[25.1677,50.22],[25.2075,50.2501],[25.1957,50.288],[25.1529,50.2925],[25.1041,50.2794],[25.0635,50.2948],[25.0638,50.3345],[25.0489,50.3473],[25.0039,50.3457],[24.9319,50.3702],[24.9114,50.3481],[24.8484,50.3549],[24.773,50.3405],[24.7052,50.3496],[24.6882,50.3767],[24.6394,50.3974],[24.6342,50.4134],[24.591,50.417],[24.5526,50.4384],[24.5418,50.4109],[24.5042,50.4106],[24.4988,50.4397],[24.4567,50.4614],[24.4634,50.4788],[24.5132,50.4867],[24.5354,50.5001],[24.5306,50.5241],[24.5008,50.5455],[24.4343,50.549],[24.4054,50.5674],[24.3795,50.6009],[24.3459,50.6089],[24.3214,50.5926],[24.2479,50.5818],[24.2179,50.5892],[24.1647,50.6402],[24.1259,50.6418],[24.1082,50.6303],[24.0749,50.6902],[24.081,50.713],[24.0269,50.728],[24.0128,50.7433],[24.0259,50.767],[23.9743,50.7762],[23.9576,50.808],[23.9699,50.8252],[24.0205,50.8386],[24.0469,50.8291],[24.1309,50.8391],[24.1302,50.8689],[24.0469,50.898],[23.9793,50.9375],[23.9551,50.9836],[23.9117,51.0068],[23.9042,51.0627],[23.8545,51.1215],[23.8747,51.1361],[23.816,51.1788],[23.7652,51.199],[23.7427,51.2163],[23.6873,51.2924],[23.6352,51.3047],[23.634,51.3393],[23.6839,51.3703],[23.6789,51.3941],[23.6976,51.4044],[23.6487,51.454],[23.6628,51.4802],[23.6148,51.4972],[23.6062,51.5174],[23.5728,51.5397],[23.574,51.5553],[23.5399,51.6071],[23.5438,51.6438],[23.5324,51.659],[23.5604,51.672],[23.5466,51.7136],[23.5604,51.7545],[23.6175,51.7865],[23.6287,51.8098],[23.5946,51.8433],[23.6214,51.8956],[23.6222,51.9279],[23.6476,51.9741],[23.6764,51.9941],[23.6375,52.0845],[23.5794,52.1215],[23.5125,52.1244],[23.4847,52.1586],[23.4505,52.1859],[23.4367,52.1757],[23.3885,52.1842],[23.3958,52.1996],[23.2123,52.2317],[23.1897,52.2405],[23.1945,52.2715],[23.1761,52.2851],[23.1502,52.2816],[23.087,52.2923],[23.039,52.2892],[23.0521,52.3096],[23.0058,52.337],[22.9845,52.3301],[22.9751,52.3528],[22.9228,52.3723],[22.8446,52.3656],[22.689,52.3854],[22.6119,52.3873],[22.5627,52.4041],[22.5388,52.4294],[22.5448,52.4625],[22.5198,52.4733],[22.5114,52.4946],[22.5176,52.5294],[22.4119,52.6006],[22.4118,52.6597],[22.3997,52.695],[22.3935,52.7471],[22.3779,52.7941],[22.3199,52.7842],[22.2636,52.7671],[22.2073,52.8017],[22.2231,52.8569],[22.1747,52.879],[22.1248,52.8464],[22.0489,52.8396],[21.9776,52.862],[21.9511,52.8912],[21.9263,52.9453],[21.6,52.88],[21.3,52.66],[21,52.48],[20.6,52.38],[20.3,52.3],[20,52.3],[19.9185,52.2674],[19.75,52.2],[19.65,52],[19.8,51.85],[19.85,51.6],[19.6,51.35],[19.55,51.15],[19.25,51],[19.1914,50.9601],[19.03,50.85]]]}},
{"type":"Feature","properties":{"entityId":"general-government","from":1944,"to":1945,"certainty":"estimated","source":"유럽 쪽은 Natural Earth 1:10m admin-1(v5.1.2) 현대 행정구역 조각을 그 시기 국경에 맞춰 묶고, 조각이 역사 경계와 다른 곳은 선을 그어 나눈 근사. 유럽 밖(시베리아·중앙아시아·극동)은 대략적인 추정. 운영자 검수 필요"},"geometry":{"type":"Polygon","coordinates":[[[19.03,50.85],[19.1,50.72],[19.35,50.62],[19.45,50.55],[19.6,50.45],[19.7,50.3],[19.72,50.15],[19.65,50],[19.6,49.85],[19.65,49.65],[19.6083,49.4415],[19.6348,49.4413],[19.627,49.4019],[19.6845,49.3891],[19.7693,49.3931],[19.7836,49.3576],[19.7895,49.3092],[19.7832,49.29],[19.8068,49.2752],[19.7518,49.2191],[19.7607,49.1942],[19.832,49.1859],[19.8683,49.2008],[19.9059,49.2228],[19.9657,49.2157],[20.0173,49.1839],[20.0505,49.1732],[20.07,49.1831],[20.086,49.243],[20.1302,49.3039],[20.1604,49.3056],[20.2072,49.3342],[20.2844,49.3386],[20.3074,49.3866],[20.3295,49.3918],[20.3705,49.3817],[20.4221,49.383],[20.4375,49.4025],[20.5221,49.3744],[20.5677,49.3764],[20.6053,49.4],[20.6895,49.4005],[20.7783,49.3312],[20.8493,49.3205],[20.9006,49.2926],[20.9424,49.2959],[21.0172,49.3524],[21.0725,49.3572],[21.0685,49.3814],[21.0333,49.3997],[21.0535,49.4145],[21.1249,49.4237],[21.1726,49.3983],[21.2112,49.4111],[21.2425,49.4413],[21.2744,49.4473],[21.3304,49.4278],[21.4279,49.4098],[21.5144,49.4172],[21.4772,49.4868],[21.4588,49.5597],[21.4609,49.6299],[21.4263,49.6997],[21.3662,49.7417],[21.2586,49.7715],[21.229,49.7891],[21.2463,49.8139],[21.3455,49.8635],[21.3322,49.8921],[21.2662,49.9066],[21.228,49.9482],[21.237,50.0312],[21.2101,50.1821],[21.2162,50.2382],[21.2535,50.2795],[21.284,50.3267],[21.2953,50.4108],[21.3601,50.4457],[21.4043,50.4439],[21.4489,50.4662],[21.4352,50.4867],[21.5308,50.514],[21.5949,50.5245],[21.644,50.558],[21.6688,50.6085],[21.7163,50.6444],[21.745,50.6747],[21.8062,50.6914],[21.8405,50.7399],[21.8486,50.7792],[21.8443,50.8298],[21.8098,50.9253],[21.8005,50.9297],[21.8131,50.9929],[21.7915,51.0211],[21.8194,51.0416],[21.8154,51.0551],[21.7909,51.0936],[21.7716,51.1515],[21.8035,51.2484],[21.836,51.2705],[21.8342,51.2914],[21.8524,51.3504],[21.8124,51.3803],[21.8145,51.4047],[21.8622,51.4375],[21.8625,51.45],[21.85,51.45],[21.85,51.4793],[21.8324,51.4804],[21.8476,51.4984],[21.8262,51.5282],[21.8212,51.5626],[21.7962,51.5697],[21.7541,51.5618],[21.6748,51.5766],[21.6473,51.6009],[21.6563,51.6367],[21.6925,51.6427],[21.7282,51.6336],[21.7568,51.6309],[21.6,51.75],[21.35,51.87],[21.2,52],[21.1,52.12],[21.05,52.22],[21,52.3],[20.95,52.37],[20.9158,52.4589],[21,52.48],[20.6,52.38],[20.3,52.3],[20,52.3],[19.9185,52.2674],[19.75,52.2],[19.65,52],[19.8,51.85],[19.85,51.6],[19.6,51.35],[19.55,51.15],[19.25,51],[19.1914,50.9601],[19.03,50.85]]]}}
]}
