{"type":"FeatureCollection","features":[
{"type":"Feature","properties":{"entityId":"genoa","from":1600,"to":1768,"certainty":"estimated","source":"유럽 쪽은 Natural Earth 1:10m admin-1(v5.1.2) 현대 행정구역 조각을 그 시기 국경에 맞춰 묶고, 조각이 역사 경계와 다른 곳은 선을 그어 나눈 근사. 유럽 밖(시베리아·중앙아시아·극동)은 대략적인 추정. 운영자 검수 필요"},"geometry":{"type":"MultiPolygon","coordinates":[[[[7.4779,43.8655],[7.4797,43.86],[7.515,43.86],[7.515,43.744],[7.5324,43.744],[7.5324,43.7107],[7.6174,43.7257],[7.8501,43.7666],[7.9575,43.8525],[7.9597,43.8529],[8.0314,43.8875],[8.0677,43.8967],[8.0892,43.9199],[8.1302,43.9403],[8.168,43.9565],[8.1527,43.9832],[8.1691,44.0067],[8.2163,44.0452],[8.2217,44.0639],[8.2219,44.0641],[8.3543,44.17],[8.3694,44.1735],[8.4082,44.1935],[8.4106,44.215],[8.4297,44.2303],[8.5276,44.2591],[8.6446,44.2934],[8.6739,44.3021],[8.7032,44.3107],[8.7617,44.3279],[8.8787,44.3622],[8.8903,44.3656],[9.3468,44.1805],[9.4347,44.1448],[9.4639,44.133],[9.5809,44.0855],[9.7037,44.0357],[9.8149,44.0099],[9.9319,43.9828],[9.9904,43.9693],[9.9904,44.0075],[10.0196,44.0075],[10.0196,44.0516],[10.0285,44.0493],[10.0569,44.0944],[10.0268,44.1143],[9.9945,44.1152],[9.9815,44.1501],[9.9541,44.1643],[9.9008,44.165],[9.9083,44.1913],[9.8805,44.2026],[9.8657,44.1856],[9.8521,44.2526],[9.7518,44.3056],[9.7163,44.3299],[9.6898,44.3577],[9.6514,44.4062],[9.5985,44.4272],[9.5124,44.429],[9.4764,44.4125],[9.4361,44.4199],[9.451,44.4687],[9.4936,44.5117],[9.4913,44.551],[9.441,44.5734],[9.4142,44.5941],[9.3518,44.5831],[9.3018,44.606],[9.2638,44.6041],[9.2251,44.6203],[9.2031,44.6138],[9.1993,44.5993],[9.1485,44.5811],[9.1158,44.5894],[9.0891,44.6193],[9.041,44.6322],[8.9592,44.6826],[8.9231,44.6828],[8.878,44.64],[8.9079,44.6082],[8.9075,44.5695],[8.8961,44.5604],[8.8257,44.5588],[8.8183,44.5409],[8.7761,44.5031],[8.7648,44.5297],[8.7246,44.5786],[8.613,44.5875],[8.6014,44.5493],[8.5642,44.5162],[8.4141,44.5161],[8.3596,44.481],[8.2655,44.5217],[8.2498,44.5346],[8.2209,44.5181],[8.1956,44.4746],[8.211,44.4457],[8.2058,44.4224],[8.1691,44.4036],[8.1354,44.3502],[8.0716,44.3115],[8.0781,44.2875],[8.0695,44.2257],[8.0775,44.1858],[8.0453,44.158],[8.0066,44.1645],[7.9818,44.1419],[8.0021,44.1184],[7.9876,44.1129],[7.8996,44.1234],[7.8074,44.129],[7.7575,44.1438],[7.7296,44.1183],[7.738,44.0994],[7.6879,44.0908],[7.6899,44.0673],[7.6534,44.0397],[7.6309,43.9935],[7.5569,43.9441],[7.4935,43.8862],[7.4779,43.8655]]],[[[8.5445,42.2568],[8.5771,42.1613],[8.5691,42.155],[8.5863,42.1335],[8.5867,42.1335],[8.6384,41.9822],[8.6317,41.9754],[8.5863,41.969],[8.6144,41.9441],[8.6143,41.9008],[8.6633,41.9094],[8.7118,41.7675],[8.7092,41.7636],[8.6551,41.7499],[8.703,41.7425],[8.6956,41.7294],[8.7235,41.7335],[8.7749,41.5832],[8.7949,41.5742],[8.7918,41.5612],[8.8533,41.5439],[8.8396,41.5308],[8.8737,41.5234],[8.9357,41.4892],[8.9785,41.4852],[9.0017,41.477],[9.1113,41.4221],[9.0964,41.4035],[9.1691,41.3862],[9.1939,41.3691],[9.2232,41.3725],[9.2272,41.3806],[9.2285,41.38],[9.2286,41.3802],[9.2289,41.38],[9.2431,41.4132],[9.2503,41.4278],[9.2492,41.4272],[9.2661,41.4666],[9.2708,41.4687],[9.2791,41.4916],[9.2774,41.493],[9.3016,41.5494],[9.3411,41.5693],[9.3451,41.6045],[9.3229,41.5991],[9.3325,41.6214],[9.3467,41.6196],[9.3452,41.6403],[9.3731,41.6452],[9.3675,41.6719],[9.3729,41.6784],[9.3738,41.6805],[9.4016,41.7064],[9.403,41.7797],[9.4025,41.7848],[9.4195,41.8243],[9.4365,41.8639],[9.4704,41.943],[9.5384,42.1013],[9.5527,42.113],[9.5596,42.1466],[9.5589,42.149],[9.5601,42.1519],[9.56,42.1522],[9.5601,42.1523],[9.5554,42.176],[9.5539,42.1969],[9.5596,42.2946],[9.5432,42.342],[9.5387,42.4028],[9.5459,42.4351],[9.535,42.4536],[9.5331,42.4788],[9.5322,42.5444],[9.5186,42.581],[9.4896,42.6126],[9.4978,42.5953],[9.4737,42.6162],[9.464,42.6396],[9.4577,42.6712],[9.478,42.7886],[9.4828,42.8023],[9.4844,42.8324],[9.4655,42.9235],[9.4701,42.9423],[9.4603,42.9553],[9.4629,42.9804],[9.4629,42.9808],[9.4611,42.9824],[9.464,42.9901],[9.4224,43.0174],[9.4219,43.0173],[9.4161,43.0225],[9.4157,43.0225],[9.3617,43.0173],[9.3561,43.0047],[9.3418,42.9907],[9.3441,42.9829],[8.7461,42.6279],[8.6861,42.5177],[8.6675,42.5097],[8.6597,42.4771],[8.6635,42.4761],[8.6358,42.4252],[8.6307,42.421],[8.6187,42.4196],[8.6075,42.4018],[8.5877,42.3854],[8.5877,42.3853],[8.5705,42.3818],[8.5521,42.3867],[8.5596,42.3464],[8.583,42.349],[8.5913,42.345],[8.5922,42.345],[8.5445,42.2572],[8.5446,42.257],[8.5445,42.2568]]]]}},
{"type":"Feature","properties":{"entityId":"genoa","from":1768,"to":1797,"certainty":"estimated","source":"유럽 쪽은 Natural Earth 1:10m admin-1(v5.1.2) 현대 행정구역 조각을 그 시기 국경에 맞춰 묶고, 조각이 역사 경계와 다른 곳은 선을 그어 나눈 근사. 유럽 밖(시베리아·중앙아시아·극동)은 대략적인 추정. 운영자 검수 필요"},"geometry":{"type":"Polygon","coordinates":[[[7.4779,43.8655],[7.4797,43.86],[7.515,43.86],[7.515,43.744],[7.5324,43.744],[7.5324,43.7107],[7.6174,43.7257],[7.8501,43.7666],[7.9575,43.8525],[7.9597,43.8529],[8.0314,43.8875],[8.0677,43.8967],[8.0892,43.9199],[8.1302,43.9403],[8.168,43.9565],[8.1527,43.9832],[8.1691,44.0067],[8.2163,44.0452],[8.2217,44.0639],[8.2219,44.0641],[8.3543,44.17],[8.3694,44.1735],[8.4082,44.1935],[8.4106,44.215],[8.4297,44.2303],[8.5276,44.2591],[8.6446,44.2934],[8.6739,44.3021],[8.7032,44.3107],[8.7617,44.3279],[8.8787,44.3622],[8.8903,44.3656],[9.3468,44.1805],[9.4347,44.1448],[9.4639,44.133],[9.5809,44.0855],[9.7037,44.0357],[9.8149,44.0099],[9.9319,43.9828],[9.9904,43.9693],[9.9904,44.0075],[10.0196,44.0075],[10.0196,44.0516],[10.0285,44.0493],[10.0569,44.0944],[10.0268,44.1143],[9.9945,44.1152],[9.9815,44.1501],[9.9541,44.1643],[9.9008,44.165],[9.9083,44.1913],[9.8805,44.2026],[9.8657,44.1856],[9.8521,44.2526],[9.7518,44.3056],[9.7163,44.3299],[9.6898,44.3577],[9.6514,44.4062],[9.5985,44.4272],[9.5124,44.429],[9.4764,44.4125],[9.4361,44.4199],[9.451,44.4687],[9.4936,44.5117],[9.4913,44.551],[9.441,44.5734],[9.4142,44.5941],[9.3518,44.5831],[9.3018,44.606],[9.2638,44.6041],[9.2251,44.6203],[9.2031,44.6138],[9.1993,44.5993],[9.1485,44.5811],[9.1158,44.5894],[9.0891,44.6193],[9.041,44.6322],[8.9592,44.6826],[8.9231,44.6828],[8.878,44.64],[8.9079,44.6082],[8.9075,44.5695],[8.8961,44.5604],[8.8257,44.5588],[8.8183,44.5409],[8.7761,44.5031],[8.7648,44.5297],[8.7246,44.5786],[8.613,44.5875],[8.6014,44.5493],[8.5642,44.5162],[8.4141,44.5161],[8.3596,44.481],[8.2655,44.5217],[8.2498,44.5346],[8.2209,44.5181],[8.1956,44.4746],[8.211,44.4457],[8.2058,44.4224],[8.1691,44.4036],[8.1354,44.3502],[8.0716,44.3115],[8.0781,44.2875],[8.0695,44.2257],[8.0775,44.1858],[8.0453,44.158],[8.0066,44.1645],[7.9818,44.1419],[8.0021,44.1184],[7.9876,44.1129],[7.8996,44.1234],[7.8074,44.129],[7.7575,44.1438],[7.7296,44.1183],[7.738,44.0994],[7.6879,44.0908],[7.6899,44.0673],[7.6534,44.0397],[7.6309,43.9935],[7.5569,43.9441],[7.4935,43.8862],[7.4779,43.8655]]]}}
]}
