{"type":"FeatureCollection","features":[
{"type":"Feature","properties":{"entityId":"georgia","from":1992,"to":1993,"certainty":"estimated","source":"유럽 쪽은 Natural Earth 1:10m admin-1(v5.1.2) 현대 행정구역 조각을 그 시기 국경에 맞춰 묶고, 조각이 역사 경계와 다른 곳은 선을 그어 나눈 근사. 유럽 밖(시베리아·중앙아시아·극동)은 대략적인 추정. 운영자 검수 필요"},"geometry":{"type":"Polygon","coordinates":[[[39.986,43.389],[40.0176,43.3825],[40.322,43.1285],[40.8764,43.0134],[41.0947,42.8735],[41.1047,42.8466],[41.1502,42.7956],[41.2031,42.8041],[41.4524,42.6444],[41.5065,42.4979],[41.5348,42.4213],[41.549,42.383],[41.5632,42.3446],[41.6198,42.1913],[41.6481,42.1147],[41.6622,42.0764],[41.6764,42.038],[41.6906,41.9997],[41.7043,41.9625],[41.7039,41.9613],[41.6903,41.923],[41.6768,41.8847],[41.5681,41.5782],[41.558,41.5644],[41.5229,41.53],[41.5325,41.53],[41.5208,41.5142],[41.6273,41.4805],[41.7026,41.489],[41.7185,41.4596],[41.761,41.4535],[41.813,41.4218],[41.8627,41.4518],[41.894,41.4855],[41.948,41.5056],[42.0196,41.4851],[42.0835,41.5001],[42.1118,41.4935],[42.1584,41.4999],[42.1893,41.4817],[42.2625,41.4823],[42.4379,41.4309],[42.451,41.4314],[42.4838,41.4422],[42.5455,41.5096],[42.555,41.5503],[42.5866,41.5791],[42.661,41.5883],[42.8009,41.5792],[42.8199,41.5723],[42.8027,41.5341],[42.7665,41.5043],[42.83,41.4725],[42.868,41.5002],[42.889,41.47],[42.9261,41.4591],[42.9577,41.437],[43.0021,41.3827],[43.0756,41.3449],[43.1239,41.3129],[43.1854,41.2938],[43.1572,41.2697],[43.1031,41.2488],[43.172,41.2423],[43.1922,41.225],[43.2162,41.1805],[43.2306,41.1726],[43.3226,41.1921],[43.3833,41.1872],[43.4376,41.1562],[43.4518,41.1326],[43.4404,41.1066],[43.4701,41.1062],[43.5241,41.1228],[43.5666,41.1241],[43.7297,41.1067],[43.7737,41.1145],[43.8204,41.1455],[43.8632,41.159],[43.9778,41.1645],[43.9782,41.1646],[44.0413,41.1826],[44.1036,41.1752],[44.1601,41.1979],[44.1684,41.2236],[44.191,41.23],[44.2665,41.1962],[44.3085,41.1938],[44.3573,41.2122],[44.4106,41.1877],[44.4549,41.1805],[44.5166,41.2068],[44.531,41.1815],[44.5515,41.177],[44.5914,41.2158],[44.6129,41.2231],[44.6749,41.2085],[44.8215,41.2062],[44.8538,41.2235],[44.8095,41.2444],[44.8207,41.2733],[44.9172,41.2618],[44.9552,41.2627],[45.0024,41.2905],[45.0978,41.3499],[45.2496,41.4445],[45.2817,41.4529],[45.3331,41.4444],[45.3812,41.4256],[45.4648,41.4302],[45.5118,41.3946],[45.6556,41.3524],[45.7207,41.3424],[45.7453,41.3292],[45.7081,41.3171],[45.6859,41.2962],[45.7097,41.2677],[45.7703,41.2321],[45.8207,41.2088],[45.9692,41.1683],[46.0174,41.1638],[46.0876,41.1837],[46.1354,41.1999],[46.2286,41.1954],[46.2734,41.1563],[46.3323,41.1159],[46.4127,41.0919],[46.457,41.0524],[46.4968,41.0448],[46.5224,41.087],[46.5435,41.097],[46.6018,41.094],[46.6155,41.1087],[46.6445,41.208],[46.6716,41.2365],[46.6885,41.2844],[46.6298,41.3461],[46.6074,41.345],[46.5916,41.3729],[46.5425,41.395],[46.4451,41.4259],[46.3983,41.4587],[46.3662,41.4666],[46.3139,41.4937],[46.2967,41.5104],[46.2799,41.5712],[46.2539,41.6159],[46.2197,41.5933],[46.1928,41.6102],[46.18,41.6552],[46.1795,41.7059],[46.189,41.7401],[46.2083,41.7555],[46.2978,41.7508],[46.3283,41.7664],[46.3713,41.8057],[46.4309,41.8904],[46.3821,41.9252],[46.3226,41.929],[46.2942,41.9386],[46.2243,41.9935],[46.1299,41.9845],[46.075,41.9935],[46.0585,42.0203],[46.0267,42.0168],[45.9952,42.0335],[45.9476,42.0229],[45.9235,42.0396],[45.8952,42.0919],[45.8814,42.102],[45.8116,42.1155],[45.7018,42.1728],[45.6314,42.2012],[45.6214,42.2245],[45.7364,42.4475],[45.7395,42.4706],[45.6987,42.5076],[45.6207,42.5304],[45.5368,42.5414],[45.4793,42.5423],[45.3986,42.5244],[45.356,42.52],[45.3227,42.5301],[45.3016,42.5598],[45.2827,42.5864],[45.1842,42.6748],[45.123,42.7023],[45.076,42.6914],[45.0481,42.6859],[45.0121,42.6953],[44.903,42.7531],[44.8594,42.7595],[44.8337,42.7341],[44.7985,42.6717],[44.7823,42.6167],[44.7611,42.6192],[44.7364,42.6776],[44.6794,42.7237],[44.6388,42.7401],[44.5583,42.7531],[44.4792,42.7443],[44.4014,42.7135],[44.3607,42.7038],[44.3102,42.703],[44.35,42.52],[44.45,42.42],[44.58,42.32],[44.63,42.18],[44.6,42.05],[44.55,42.02],[44.42,42],[44.18,42.16],[44.08,42.22],[43.98,42.205],[43.88,42.22],[43.78,42.28],[43.68,42.36],[43.58,42.45],[43.48,42.58],[43.4,42.75],[43.7912,42.75],[43.756,42.7631],[43.6628,42.7798],[43.5863,42.8356],[43.5174,42.8605],[43.3862,42.8869],[43.1943,42.9268],[43.1752,42.9345],[43.1556,42.9424],[43.0483,43.017],[42.9898,43.0527],[43.0001,43.0987],[42.9148,43.1219],[42.8298,43.1688],[42.7515,43.177],[42.6736,43.1659],[42.6294,43.1413],[42.5959,43.14],[42.5349,43.1651],[42.4797,43.2009],[42.4229,43.229],[42.3626,43.2352],[42.1854,43.2255],[42.1543,43.2175],[42.0753,43.1853],[42.0113,43.1819],[41.9483,43.2001],[41.89,43.207],[41.8203,43.2012],[41.6874,43.2202],[41.6141,43.213],[41.5506,43.2263],[41.5061,43.2598],[41.4276,43.2832],[41.3807,43.3348],[41.3503,43.3434],[41.2788,43.3332],[41.1808,43.3747],[41.1467,43.3799],[41.0425,43.3698],[41.0118,43.3754],[40.875,43.4556],[40.8427,43.4694],[40.7402,43.4953],[40.69,43.5231],[40.6519,43.539],[40.6155,43.5358],[40.5508,43.5112],[40.4798,43.5087],[40.2331,43.5758],[40.1643,43.5758],[40.0967,43.5626],[40.0592,43.5352],[39.9913,43.4063],[39.986,43.389]]]}},
{"type":"Feature","properties":{"entityId":"georgia","from":1993,"to":null,"certainty":"estimated","source":"유럽 쪽은 Natural Earth 1:10m admin-1(v5.1.2) 현대 행정구역 조각을 그 시기 국경에 맞춰 묶고, 조각이 역사 경계와 다른 곳은 선을 그어 나눈 근사. 유럽 밖(시베리아·중앙아시아·극동)은 대략적인 추정. 운영자 검수 필요"},"geometry":{"type":"Polygon","coordinates":[[[41.5208,41.5142],[41.6273,41.4805],[41.7026,41.489],[41.7185,41.4596],[41.761,41.4535],[41.813,41.4218],[41.8627,41.4518],[41.894,41.4855],[41.948,41.5056],[42.0196,41.4851],[42.0835,41.5001],[42.1118,41.4935],[42.1584,41.4999],[42.1893,41.4817],[42.2625,41.4823],[42.4379,41.4309],[42.451,41.4314],[42.4838,41.4422],[42.5455,41.5096],[42.555,41.5503],[42.5866,41.5791],[42.661,41.5883],[42.8009,41.5792],[42.8199,41.5723],[42.8027,41.5341],[42.7665,41.5043],[42.83,41.4725],[42.868,41.5002],[42.889,41.47],[42.9261,41.4591],[42.9577,41.437],[43.0021,41.3827],[43.0756,41.3449],[43.1239,41.3129],[43.1854,41.2938],[43.1572,41.2697],[43.1031,41.2488],[43.172,41.2423],[43.1922,41.225],[43.2162,41.1805],[43.2306,41.1726],[43.3226,41.1921],[43.3833,41.1872],[43.4376,41.1562],[43.4518,41.1326],[43.4404,41.1066],[43.4701,41.1062],[43.5241,41.1228],[43.5666,41.1241],[43.7297,41.1067],[43.7737,41.1145],[43.8204,41.1455],[43.8632,41.159],[43.9778,41.1645],[43.9782,41.1646],[44.0413,41.1826],[44.1036,41.1752],[44.1601,41.1979],[44.1684,41.2236],[44.191,41.23],[44.2665,41.1962],[44.3085,41.1938],[44.3573,41.2122],[44.4106,41.1877],[44.4549,41.1805],[44.5166,41.2068],[44.531,41.1815],[44.5515,41.177],[44.5914,41.2158],[44.6129,41.2231],[44.6749,41.2085],[44.8215,41.2062],[44.8538,41.2235],[44.8095,41.2444],[44.8207,41.2733],[44.9172,41.2618],[44.9552,41.2627],[45.0024,41.2905],[45.0978,41.3499],[45.2496,41.4445],[45.2817,41.4529],[45.3331,41.4444],[45.3812,41.4256],[45.4648,41.4302],[45.5118,41.3946],[45.6556,41.3524],[45.7207,41.3424],[45.7453,41.3292],[45.7081,41.3171],[45.6859,41.2962],[45.7097,41.2677],[45.7703,41.2321],[45.8207,41.2088],[45.9692,41.1683],[46.0174,41.1638],[46.0876,41.1837],[46.1354,41.1999],[46.2286,41.1954],[46.2734,41.1563],[46.3323,41.1159],[46.4127,41.0919],[46.457,41.0524],[46.4968,41.0448],[46.5224,41.087],[46.5435,41.097],[46.6018,41.094],[46.6155,41.1087],[46.6445,41.208],[46.6716,41.2365],[46.6885,41.2844],[46.6298,41.3461],[46.6074,41.345],[46.5916,41.3729],[46.5425,41.395],[46.4451,41.4259],[46.3983,41.4587],[46.3662,41.4666],[46.3139,41.4937],[46.2967,41.5104],[46.2799,41.5712],[46.2539,41.6159],[46.2197,41.5933],[46.1928,41.6102],[46.18,41.6552],[46.1795,41.7059],[46.189,41.7401],[46.2083,41.7555],[46.2978,41.7508],[46.3283,41.7664],[46.3713,41.8057],[46.4309,41.8904],[46.3821,41.9252],[46.3226,41.929],[46.2942,41.9386],[46.2243,41.9935],[46.1299,41.9845],[46.075,41.9935],[46.0585,42.0203],[46.0267,42.0168],[45.9952,42.0335],[45.9476,42.0229],[45.9235,42.0396],[45.8952,42.0919],[45.8814,42.102],[45.8116,42.1155],[45.7018,42.1728],[45.6314,42.2012],[45.6214,42.2245],[45.7364,42.4475],[45.7395,42.4706],[45.6987,42.5076],[45.6207,42.5304],[45.5368,42.5414],[45.4793,42.5423],[45.3986,42.5244],[45.356,42.52],[45.3227,42.5301],[45.3016,42.5598],[45.2827,42.5864],[45.1842,42.6748],[45.123,42.7023],[45.076,42.6914],[45.0481,42.6859],[45.0121,42.6953],[44.903,42.7531],[44.8594,42.7595],[44.8337,42.7341],[44.7985,42.6717],[44.7823,42.6167],[44.7611,42.6192],[44.7364,42.6776],[44.6794,42.7237],[44.6388,42.7401],[44.5583,42.7531],[44.4792,42.7443],[44.4014,42.7135],[44.3607,42.7038],[44.3102,42.703],[44.35,42.52],[44.45,42.42],[44.58,42.32],[44.63,42.18],[44.6,42.05],[44.55,42.02],[44.42,42],[44.18,42.16],[44.08,42.22],[43.98,42.205],[43.88,42.22],[43.78,42.28],[43.68,42.36],[43.58,42.45],[43.48,42.58],[43.4,42.75],[43.7912,42.75],[43.756,42.7631],[43.6628,42.7798],[43.5863,42.8356],[43.5174,42.8605],[43.3862,42.8869],[43.1943,42.9268],[43.1752,42.9345],[43.1556,42.9424],[43.0483,43.017],[42.9898,43.0527],[43.0001,43.0987],[42.9148,43.1219],[42.8298,43.1688],[42.7515,43.177],[42.6736,43.1659],[42.6294,43.1413],[42.5959,43.14],[42.5349,43.1651],[42.4797,43.2009],[42.4229,43.229],[42.3626,43.2352],[42.1854,43.2255],[42.1543,43.2175],[42.1293,43.1679],[42.1335,43.1114],[42.1194,43.0832],[42.0573,43.0169],[42.0051,43.0005],[41.908,42.9872],[41.8845,42.9646],[41.9022,42.9479],[41.9309,42.8606],[41.8923,42.8308],[41.9095,42.7649],[41.9122,42.7146],[41.9404,42.679],[41.9471,42.6358],[41.9384,42.618],[41.8037,42.5222],[41.7143,42.4838],[41.6649,42.4714],[41.6292,42.4384],[41.5512,42.4065],[41.548,42.4213],[41.5348,42.4213],[41.549,42.383],[41.5632,42.3446],[41.6198,42.1913],[41.6481,42.1147],[41.6622,42.0764],[41.6764,42.038],[41.6906,41.9997],[41.7043,41.9625],[41.7039,41.9613],[41.6903,41.923],[41.6768,41.8847],[41.5681,41.5782],[41.558,41.5644],[41.5229,41.53],[41.5325,41.53],[41.5208,41.5142]]]}}
]}
