{"type":"FeatureCollection","features":[
{"type":"Feature","properties":{"entityId":"georgia-kingdom","from":1300,"to":1330,"certainty":"estimated","source":"유럽 쪽은 Natural Earth 1:10m admin-1(v5.1.2) 현대 행정구역 조각을 그 시기 국경에 맞춰 묶고, 조각이 역사 경계와 다른 곳은 선을 그어 나눈 근사. 유럽 밖(시베리아·중앙아시아·극동)은 대략적인 추정. 운영자 검수 필요"},"geometry":{"type":"Polygon","coordinates":[[[45.0024,41.2905],[44.9552,41.2627],[44.9172,41.2618],[44.8207,41.2733],[44.8095,41.2444],[44.8538,41.2235],[44.8215,41.2062],[44.6749,41.2085],[44.6129,41.2231],[44.5914,41.2158],[44.5515,41.177],[44.531,41.1815],[44.5166,41.2068],[44.4549,41.1805],[44.4106,41.1877],[44.3573,41.2122],[44.3085,41.1938],[44.2665,41.1962],[44.191,41.23],[44.1684,41.2236],[44.1601,41.1979],[44.1036,41.1752],[44.0413,41.1826],[43.9782,41.1646],[43.9778,41.1645],[43.8632,41.159],[43.8204,41.1455],[43.7737,41.1145],[43.7297,41.1067],[43.5666,41.1241],[43.5241,41.1228],[43.4701,41.1062],[43.4404,41.1066],[43.4518,41.1326],[43.4376,41.1562],[43.3833,41.1872],[43.3226,41.1921],[43.2306,41.1726],[43.2162,41.1805],[43.1922,41.225],[43.172,41.2423],[43.1031,41.2488],[43.1572,41.2697],[43.1854,41.2938],[43.1239,41.3129],[43.0756,41.3449],[43.0021,41.3827],[42.9577,41.437],[42.9261,41.4591],[42.889,41.47],[42.868,41.5002],[42.83,41.4725],[42.7665,41.5043],[42.8027,41.5341],[42.8199,41.5723],[42.8009,41.5792],[42.661,41.5883],[42.5866,41.5791],[42.5473,41.6355],[42.4977,41.6743],[42.4812,41.701],[42.495,41.733],[42.4959,41.7677],[42.4817,41.7987],[42.5312,41.8027],[42.5761,41.7936],[42.6017,41.8217],[42.6496,41.8334],[42.7114,41.8059],[42.8171,41.8261],[42.903,41.8124],[42.9481,41.8118],[42.9909,41.8252],[43.0936,41.832],[43.1274,41.8254],[43.4262,41.9166],[43.4335,41.9554],[43.4695,41.9793],[43.4847,42.0151],[43.4889,42.0574],[43.549,42.0963],[43.5807,42.1511],[43.6082,42.1702],[43.6077,42.2281],[43.6159,42.2578],[43.6835,42.2935],[43.7602,42.309],[43.7728,42.374],[43.7501,42.394],[43.6617,42.3743],[43.6228,42.3787],[43.5874,42.3947],[43.669,42.4433],[43.808,42.4515],[43.8271,42.4582],[43.8489,42.4874],[43.9022,42.5156],[43.9082,42.5662],[43.9397,42.5522],[43.9732,42.564],[44.0115,42.6003],[44.0551,42.6153],[44.1508,42.6187],[44.1858,42.6265],[44.2301,42.6538],[44.272,42.7024],[44.3607,42.7038],[44.4014,42.7135],[44.4792,42.7443],[44.5583,42.7531],[44.6388,42.7401],[44.6794,42.7237],[44.7364,42.6776],[44.7611,42.6192],[44.7823,42.6167],[44.7985,42.6717],[44.8337,42.7341],[44.8594,42.7595],[44.903,42.7531],[45.0121,42.6953],[45.0481,42.6859],[45.076,42.6914],[45.123,42.7023],[45.1842,42.6748],[45.2827,42.5864],[45.3016,42.5598],[45.3227,42.5301],[45.356,42.52],[45.3986,42.5244],[45.4793,42.5423],[45.5368,42.5414],[45.6207,42.5304],[45.6987,42.5076],[45.7395,42.4706],[45.7364,42.4475],[45.6214,42.2245],[45.6314,42.2012],[45.7018,42.1728],[45.8116,42.1155],[45.8814,42.102],[45.8952,42.0919],[45.9235,42.0396],[45.9476,42.0229],[45.9952,42.0335],[46.0267,42.0168],[46.0585,42.0203],[46.075,41.9935],[46.1299,41.9845],[46.2243,41.9935],[46.2942,41.9386],[46.3226,41.929],[46.3821,41.9252],[46.4309,41.8904],[46.3713,41.8057],[46.3283,41.7664],[46.2978,41.7508],[46.2083,41.7555],[46.189,41.7401],[46.1795,41.7059],[46.18,41.6552],[46.1928,41.6102],[46.2197,41.5933],[46.2539,41.6159],[46.2799,41.5712],[46.2967,41.5104],[46.3139,41.4937],[46.3662,41.4666],[46.3983,41.4587],[46.4451,41.4259],[46.5425,41.395],[46.5916,41.3729],[46.6074,41.345],[46.6298,41.3461],[46.6885,41.2844],[46.6716,41.2365],[46.6445,41.208],[46.6155,41.1087],[46.6018,41.094],[46.5435,41.097],[46.5224,41.087],[46.4968,41.0448],[46.457,41.0524],[46.4127,41.0919],[46.3323,41.1159],[46.2734,41.1563],[46.2286,41.1954],[46.1354,41.1999],[46.0876,41.1837],[46.0174,41.1638],[45.9692,41.1683],[45.8207,41.2088],[45.7703,41.2321],[45.7097,41.2677],[45.6859,41.2962],[45.7081,41.3171],[45.7453,41.3292],[45.7207,41.3424],[45.6556,41.3524],[45.5118,41.3946],[45.4648,41.4302],[45.3812,41.4256],[45.3331,41.4444],[45.2817,41.4529],[45.2496,41.4445],[45.0978,41.3499],[45.0024,41.2905]]]}},
{"type":"Feature","properties":{"entityId":"georgia-kingdom","from":1330,"to":1490,"certainty":"estimated","source":"유럽 쪽은 Natural Earth 1:10m admin-1(v5.1.2) 현대 행정구역 조각을 그 시기 국경에 맞춰 묶고, 조각이 역사 경계와 다른 곳은 선을 그어 나눈 근사. 유럽 밖(시베리아·중앙아시아·극동)은 대략적인 추정. 운영자 검수 필요"},"geometry":{"type":"Polygon","coordinates":[[[39.986,43.389],[40.0176,43.3825],[40.322,43.1285],[40.8764,43.0134],[41.0947,42.8735],[41.1047,42.8466],[41.1502,42.7956],[41.2031,42.8041],[41.4524,42.6444],[41.5065,42.4979],[41.5348,42.4213],[41.549,42.383],[41.5632,42.3446],[41.6092,42.22],[41.78,42.22],[41.78,42.136],[41.7551,42.1325],[41.737,42.0856],[41.7324,42.08],[41.6609,42.08],[41.6622,42.0764],[41.6764,42.038],[41.6906,41.9997],[41.7043,41.9625],[41.7039,41.9613],[41.6903,41.923],[41.6768,41.8847],[41.5681,41.5782],[41.558,41.5644],[41.5229,41.53],[41.5325,41.53],[41.5208,41.5142],[41.6273,41.4805],[41.7026,41.489],[41.7185,41.4596],[41.761,41.4535],[41.813,41.4218],[41.8627,41.4518],[41.894,41.4855],[41.948,41.5056],[42.0196,41.4851],[42.0835,41.5001],[42.1118,41.4935],[42.1584,41.4999],[42.1893,41.4817],[42.2625,41.4823],[42.4379,41.4309],[42.451,41.4314],[42.4838,41.4422],[42.5455,41.5096],[42.555,41.5503],[42.5866,41.5791],[42.661,41.5883],[42.8009,41.5792],[42.8199,41.5723],[42.8027,41.5341],[42.7665,41.5043],[42.83,41.4725],[42.868,41.5002],[42.889,41.47],[42.9261,41.4591],[42.9577,41.437],[43.0021,41.3827],[43.0756,41.3449],[43.1239,41.3129],[43.1854,41.2938],[43.1572,41.2697],[43.1031,41.2488],[43.172,41.2423],[43.1922,41.225],[43.2162,41.1805],[43.2306,41.1726],[43.3226,41.1921],[43.3833,41.1872],[43.4376,41.1562],[43.4518,41.1326],[43.4404,41.1066],[43.4701,41.1062],[43.5241,41.1228],[43.5666,41.1241],[43.7297,41.1067],[43.7737,41.1145],[43.8204,41.1455],[43.8632,41.159],[43.9778,41.1645],[43.9782,41.1646],[44.0413,41.1826],[44.1036,41.1752],[44.1601,41.1979],[44.1684,41.2236],[44.191,41.23],[44.2665,41.1962],[44.3085,41.1938],[44.3573,41.2122],[44.4106,41.1877],[44.4549,41.1805],[44.5166,41.2068],[44.531,41.1815],[44.5515,41.177],[44.5914,41.2158],[44.6129,41.2231],[44.6749,41.2085],[44.8215,41.2062],[44.8538,41.2235],[44.8095,41.2444],[44.8207,41.2733],[44.9172,41.2618],[44.9552,41.2627],[45.0024,41.2905],[45.0978,41.3499],[45.2496,41.4445],[45.2817,41.4529],[45.3331,41.4444],[45.3812,41.4256],[45.4648,41.4302],[45.5118,41.3946],[45.6556,41.3524],[45.7207,41.3424],[45.7453,41.3292],[45.7081,41.3171],[45.6859,41.2962],[45.7097,41.2677],[45.7703,41.2321],[45.8207,41.2088],[45.9692,41.1683],[46.0174,41.1638],[46.0876,41.1837],[46.1354,41.1999],[46.2286,41.1954],[46.2734,41.1563],[46.3323,41.1159],[46.4127,41.0919],[46.457,41.0524],[46.4968,41.0448],[46.5224,41.087],[46.5435,41.097],[46.6018,41.094],[46.6155,41.1087],[46.6445,41.208],[46.6716,41.2365],[46.6885,41.2844],[46.6298,41.3461],[46.6074,41.345],[46.5916,41.3729],[46.5425,41.395],[46.4451,41.4259],[46.3983,41.4587],[46.3662,41.4666],[46.3139,41.4937],[46.2967,41.5104],[46.2799,41.5712],[46.2539,41.6159],[46.2197,41.5933],[46.1928,41.6102],[46.18,41.6552],[46.1795,41.7059],[46.189,41.7401],[46.2083,41.7555],[46.2978,41.7508],[46.3283,41.7664],[46.3713,41.8057],[46.4309,41.8904],[46.3821,41.9252],[46.3226,41.929],[46.2942,41.9386],[46.2243,41.9935],[46.1299,41.9845],[46.075,41.9935],[46.0585,42.0203],[46.0267,42.0168],[45.9952,42.0335],[45.9476,42.0229],[45.9235,42.0396],[45.8952,42.0919],[45.8814,42.102],[45.8116,42.1155],[45.7018,42.1728],[45.6314,42.2012],[45.6214,42.2245],[45.7364,42.4475],[45.7395,42.4706],[45.6987,42.5076],[45.6207,42.5304],[45.5368,42.5414],[45.4793,42.5423],[45.3986,42.5244],[45.356,42.52],[45.3227,42.5301],[45.3016,42.5598],[45.2827,42.5864],[45.1842,42.6748],[45.123,42.7023],[45.076,42.6914],[45.0481,42.6859],[45.0121,42.6953],[44.903,42.7531],[44.8594,42.7595],[44.8337,42.7341],[44.7985,42.6717],[44.7823,42.6167],[44.7611,42.6192],[44.7364,42.6776],[44.6794,42.7237],[44.6388,42.7401],[44.5583,42.7531],[44.4792,42.7443],[44.4014,42.7135],[44.3607,42.7038],[44.272,42.7024],[44.2301,42.6538],[44.1858,42.6265],[44.1508,42.6187],[44.0551,42.6153],[44.0115,42.6003],[43.9732,42.564],[43.9397,42.5522],[43.9082,42.5662],[43.8854,42.5792],[43.7511,42.5987],[43.7226,42.6249],[43.7257,42.6544],[43.7887,42.6931],[43.8118,42.7173],[43.8006,42.7465],[43.756,42.7631],[43.6628,42.7798],[43.5863,42.8356],[43.5174,42.8605],[43.3862,42.8869],[43.1943,42.9268],[43.1752,42.9345],[43.1556,42.9424],[43.0483,43.017],[42.9898,43.0527],[43.0001,43.0987],[42.9148,43.1219],[42.8298,43.1688],[42.7515,43.177],[42.6736,43.1659],[42.6294,43.1413],[42.5959,43.14],[42.5349,43.1651],[42.4797,43.2009],[42.4229,43.229],[42.3626,43.2352],[42.1854,43.2255],[42.1543,43.2175],[42.0753,43.1853],[42.0113,43.1819],[41.9483,43.2001],[41.89,43.207],[41.8203,43.2012],[41.6874,43.2202],[41.6141,43.213],[41.5506,43.2263],[41.5061,43.2598],[41.4276,43.2832],[41.3807,43.3348],[41.3503,43.3434],[41.2788,43.3332],[41.1808,43.3747],[41.1467,43.3799],[41.0425,43.3698],[41.0118,43.3754],[40.875,43.4556],[40.8427,43.4694],[40.7402,43.4953],[40.69,43.5231],[40.6519,43.539],[40.6155,43.5358],[40.5508,43.5112],[40.4798,43.5087],[40.2331,43.5758],[40.1643,43.5758],[40.0967,43.5626],[40.0592,43.5352],[39.9913,43.4063],[39.986,43.389]]]}}
]}
