{"type":"FeatureCollection","features":[
{"type":"Feature","properties":{"entityId":"germany-zone-fr","from":1945,"to":1947,"certainty":"estimated","source":"유럽 쪽은 Natural Earth 1:10m admin-1(v5.1.2) 현대 행정구역 조각을 그 시기 국경에 맞춰 묶고, 조각이 역사 경계와 다른 곳은 선을 그어 나눈 근사. 유럽 밖(시베리아·중앙아시아·극동)은 대략적인 추정. 운영자 검수 필요"},"geometry":{"type":"MultiPolygon","coordinates":[[[[6.0964,50.0486],[6.1138,50.0364],[6.1172,50.0044],[6.1619,49.9425],[6.1727,49.9562],[6.2227,49.8871],[6.2868,49.861],[6.2956,49.8486],[6.3026,49.8349],[6.3344,49.8402],[6.3801,49.8156],[6.4145,49.8055],[6.4625,49.8055],[6.5001,49.7945],[6.4863,49.7427],[6.4997,49.7122],[6.4917,49.7008],[6.4182,49.6699],[6.4027,49.6558],[6.4179,49.6391],[6.3976,49.6139],[6.3715,49.593],[6.3508,49.5666],[6.3488,49.5253],[6.3423,49.493],[6.3453,49.4553],[6.4027,49.4655],[6.4945,49.4355],[6.5257,49.3955],[6.5743,49.3618],[6.5501,49.338],[6.5732,49.3131],[6.6397,49.2712],[6.6638,49.2439],[6.6806,49.2075],[6.7025,49.2136],[6.701,49.1729],[6.7256,49.1556],[6.7701,49.1553],[6.8091,49.1458],[6.839,49.1628],[6.8277,49.1956],[6.8435,49.2111],[6.9254,49.2056],[6.9879,49.1824],[7.0095,49.1817],[7.009,49.1464],[7.0205,49.119],[7.0425,49.1076],[7.0732,49.1203],[7.0853,49.1415],[7.155,49.1144],[7.2412,49.1139],[7.2681,49.1056],[7.2971,49.1281],[7.3265,49.1318],[7.3716,49.1662],[7.4105,49.1689],[7.4148,49.1578],[7.4761,49.1515],[7.471,49.1283],[7.5209,49.0837],[7.6086,49.062],[7.6449,49.0363],[7.6851,49.0428],[7.7269,49.0357],[7.7737,49.0481],[7.8569,49.0323],[7.9319,49.0348],[8.0904,48.9792],[8.1887,48.9657],[8.1999,48.9583],[8.2302,48.9655],[8.2836,49.01],[8.3571,49.1096],[8.3873,49.232],[8.4108,49.2437],[8.4799,49.297],[8.4599,49.315],[8.4978,49.3765],[8.4939,49.4426],[8.4425,49.4522],[8.4636,49.4658],[8.4277,49.5342],[8.4084,49.5552],[8.4168,49.5795],[8.3606,49.6645],[8.3623,49.6909],[8.3792,49.7104],[8.4391,49.7265],[8.4738,49.7575],[8.4625,49.7711],[8.4238,49.7673],[8.3898,49.8153],[8.3805,49.8426],[8.3401,49.891],[8.3551,49.9256],[8.3354,49.9596],[8.2281,50.0382],[8.1738,50.0458],[8.0485,50.0184],[8.0097,49.9993],[7.9186,49.9739],[7.8782,49.9729],[7.8498,50.0107],[7.7714,50.0535],[7.8428,50.0882],[7.8592,50.1187],[7.8963,50.1207],[7.9217,50.1088],[7.9305,50.1363],[7.8968,50.155],[7.9222,50.2001],[7.9933,50.2284],[8.0231,50.2159],[8.042,50.2338],[8.0457,50.2633],[8.0961,50.262],[8.1227,50.2779],[8.1007,50.3195],[8.08,50.3303],[8.0495,50.3713],[8.0223,50.3891],[7.9801,50.3958],[8.0004,50.4403],[8.0192,50.4549],[7.9979,50.4758],[8.0045,50.5207],[8.0416,50.5445],[8.0704,50.5444],[8.1101,50.5271],[8.1387,50.5434],[8.1638,50.5858],[8.1439,50.6026],[8.1216,50.6458],[8.1345,50.684],[8.0895,50.6968],[8.0563,50.6909],[8.0338,50.726],[7.9811,50.7735],[7.9839,50.803],[7.9703,50.837],[7.9425,50.832],[7.8856,50.8669],[7.8446,50.882],[7.8597,50.9225],[7.8016,50.9327],[7.7575,50.9113],[7.7677,50.8365],[7.7406,50.842],[7.6756,50.81],[7.6989,50.7816],[7.6134,50.7494],[7.5995,50.7334],[7.5633,50.7328],[7.5324,50.721],[7.4486,50.7062],[7.3869,50.7037],[7.3715,50.6426],[7.3405,50.6289],[7.2826,50.6188],[7.2263,50.6214],[7.1969,50.6363],[7.1546,50.6011],[7.1218,50.6042],[7.1052,50.5891],[7.0518,50.5903],[6.9989,50.5666],[6.9393,50.5548],[6.9133,50.5294],[6.8852,50.5218],[6.8878,50.4767],[6.8736,50.4622],[6.8462,50.4629],[6.8206,50.486],[6.7601,50.4707],[6.7525,50.4368],[6.7763,50.4262],[6.795,50.3556],[6.7182,50.3416],[6.6633,50.3621],[6.6195,50.3509],[6.6163,50.3695],[6.5856,50.3774],[6.5322,50.3695],[6.4581,50.341],[6.4447,50.3593],[6.3976,50.3832],[6.3917,50.3722],[6.4257,50.3324],[6.3734,50.3231],[6.362,50.307],[6.2995,50.3089],[6.2694,50.2865],[6.2534,50.2568],[6.1896,50.2427],[6.1468,50.214],[6.1651,50.1819],[6.1232,50.1649],[6.1175,50.1205],[6.0964,50.0486]]],[[[7.5119,47.7073],[7.5218,47.6704],[7.5501,47.6524],[7.5903,47.6079],[7.586,47.5846],[7.637,47.595],[7.6597,47.5966],[7.6465,47.5715],[7.6359,47.5646],[7.6123,47.5647],[7.6097,47.5647],[7.6469,47.5514],[7.6834,47.5443],[7.7273,47.5504],[7.7856,47.5632],[7.8197,47.5953],[7.8982,47.5878],[7.9122,47.5606],[8.0423,47.5606],[8.0872,47.5674],[8.1221,47.5921],[8.179,47.6158],[8.2511,47.622],[8.2886,47.6158],[8.3063,47.5922],[8.3541,47.581],[8.4211,47.5811],[8.4489,47.5843],[8.4618,47.6061],[8.5224,47.6219],[8.5517,47.5969],[8.5607,47.5894],[8.5763,47.595],[8.5803,47.639],[8.6016,47.6326],[8.5936,47.6582],[8.5682,47.6629],[8.5197,47.6574],[8.4761,47.6404],[8.4583,47.6399],[8.412,47.661],[8.3913,47.6655],[8.3977,47.6763],[8.391,47.6921],[8.4019,47.7071],[8.4379,47.7232],[8.4501,47.7505],[8.4636,47.7639],[8.5365,47.7741],[8.5516,47.7793],[8.5423,47.795],[8.5582,47.8012],[8.6016,47.7946],[8.6076,47.7623],[8.6298,47.7628],[8.635,47.7846],[8.657,47.7881],[8.6819,47.7587],[8.7131,47.7574],[8.7198,47.7473],[8.7004,47.7235],[8.7171,47.6946],[8.7699,47.6951],[8.7617,47.7013],[8.7707,47.7209],[8.7976,47.72],[8.8302,47.7072],[8.8561,47.6907],[8.8377,47.6878],[8.8519,47.6713],[8.9062,47.6518],[8.9818,47.6622],[9.0166,47.6789],[9.1281,47.6704],[9.1834,47.6704],[9.1969,47.6561],[9.2732,47.6501],[9.5475,47.5345],[9.5541,47.5327],[9.6126,47.5219],[9.6767,47.5226],[9.704,47.5314],[9.7527,47.5821],[9.7821,47.5884],[9.808,47.5763],[9.8131,47.5418],[9.9188,47.5322],[9.9459,47.5408],[9.9487,47.5242],[9.97,47.5016],[9.97,47.6637],[9.9533,47.6595],[10.0339,47.68],[10.0578,47.6782],[10.0757,47.6497],[10.0934,47.6797],[10.1215,47.6739],[10.1314,47.6879],[10.114,47.7673],[10.0802,47.787],[10.0893,47.8017],[10.1295,47.8165],[10.0982,47.8779],[10.1095,47.9378],[10.0855,47.9701],[10.1007,47.9796],[10.1302,48.0349],[10.1401,48.0836],[10.1362,48.1073],[10.1093,48.148],[10.07,48.269],[10.0541,48.3049],[10.0072,48.3639],[9.9,48.38],[9.6,48.57],[9.3,48.68],[9,48.75],[8.75,48.85],[8.5,48.9],[8.222,48.9635],[8.1999,48.9583],[8.1481,48.9037],[8.1027,48.8213],[8.0842,48.8041],[8.0273,48.78],[8.023,48.7651],[7.9701,48.7573],[7.9592,48.7214],[7.8806,48.6677],[7.8524,48.6587],[7.8103,48.615],[7.8017,48.5476],[7.8135,48.5195],[7.7765,48.4982],[7.7383,48.4066],[7.752,48.3553],[7.737,48.3267],[7.7025,48.3112],[7.6935,48.2699],[7.6766,48.2384],[7.6134,48.1792],[7.582,48.1214],[7.5726,48.095],[7.5757,48.0537],[7.6189,48.0027],[7.6211,47.9714],[7.5849,47.9404],[7.5808,47.9108],[7.5579,47.8785],[7.562,47.8392],[7.5429,47.8294],[7.5259,47.7832],[7.5378,47.7318],[7.5119,47.7073]]]]}},
{"type":"Feature","properties":{"entityId":"germany-zone-fr","from":1947,"to":1949,"certainty":"estimated","source":"유럽 쪽은 Natural Earth 1:10m admin-1(v5.1.2) 현대 행정구역 조각을 그 시기 국경에 맞춰 묶고, 조각이 역사 경계와 다른 곳은 선을 그어 나눈 근사. 유럽 밖(시베리아·중앙아시아·극동)은 대략적인 추정. 운영자 검수 필요"},"geometry":{"type":"MultiPolygon","coordinates":[[[[6.0964,50.0486],[6.1138,50.0364],[6.1172,50.0044],[6.1619,49.9425],[6.1727,49.9562],[6.2227,49.8871],[6.2868,49.861],[6.2956,49.8486],[6.3026,49.8349],[6.3344,49.8402],[6.3801,49.8156],[6.4145,49.8055],[6.4625,49.8055],[6.5001,49.7945],[6.4863,49.7427],[6.4997,49.7122],[6.4917,49.7008],[6.4182,49.6699],[6.4027,49.6558],[6.4179,49.6391],[6.3976,49.6139],[6.3715,49.593],[6.3508,49.5666],[6.3488,49.5253],[6.49,49.5338],[6.6051,49.5302],[6.6698,49.5494],[6.7123,49.5503],[6.8597,49.5945],[6.9364,49.6272],[6.9711,49.6187],[6.9988,49.6295],[7.072,49.6035],[7.1328,49.602],[7.2191,49.5635],[7.2675,49.5785],[7.3085,49.4854],[7.2461,49.4461],[7.2523,49.431],[7.3012,49.3848],[7.3852,49.3697],[7.3873,49.3368],[7.3567,49.3127],[7.3167,49.2519],[7.2869,49.2308],[7.2947,49.2052],[7.3491,49.1687],[7.3716,49.1662],[7.4105,49.1689],[7.4148,49.1578],[7.4761,49.1515],[7.471,49.1283],[7.5209,49.0837],[7.6086,49.062],[7.6449,49.0363],[7.6851,49.0428],[7.7269,49.0357],[7.7737,49.0481],[7.8569,49.0323],[7.9319,49.0348],[8.0904,48.9792],[8.1887,48.9657],[8.1999,48.9583],[8.2302,48.9655],[8.2836,49.01],[8.3571,49.1096],[8.3873,49.232],[8.4108,49.2437],[8.4799,49.297],[8.4599,49.315],[8.4978,49.3765],[8.4939,49.4426],[8.4425,49.4522],[8.4636,49.4658],[8.4277,49.5342],[8.4084,49.5552],[8.4168,49.5795],[8.3606,49.6645],[8.3623,49.6909],[8.3792,49.7104],[8.4391,49.7265],[8.4738,49.7575],[8.4625,49.7711],[8.4238,49.7673],[8.3898,49.8153],[8.3805,49.8426],[8.3401,49.891],[8.3551,49.9256],[8.3354,49.9596],[8.2281,50.0382],[8.1738,50.0458],[8.0485,50.0184],[8.0097,49.9993],[7.9186,49.9739],[7.8782,49.9729],[7.8498,50.0107],[7.7714,50.0535],[7.8428,50.0882],[7.8592,50.1187],[7.8963,50.1207],[7.9217,50.1088],[7.9305,50.1363],[7.8968,50.155],[7.9222,50.2001],[7.9933,50.2284],[8.0231,50.2159],[8.042,50.2338],[8.0457,50.2633],[8.0961,50.262],[8.1227,50.2779],[8.1007,50.3195],[8.08,50.3303],[8.0495,50.3713],[8.0223,50.3891],[7.9801,50.3958],[8.0004,50.4403],[8.0192,50.4549],[7.9979,50.4758],[8.0045,50.5207],[8.0416,50.5445],[8.0704,50.5444],[8.1101,50.5271],[8.1387,50.5434],[8.1638,50.5858],[8.1439,50.6026],[8.1216,50.6458],[8.1345,50.684],[8.0895,50.6968],[8.0563,50.6909],[8.0338,50.726],[7.9811,50.7735],[7.9839,50.803],[7.9703,50.837],[7.9425,50.832],[7.8856,50.8669],[7.8446,50.882],[7.8597,50.9225],[7.8016,50.9327],[7.7575,50.9113],[7.7677,50.8365],[7.7406,50.842],[7.6756,50.81],[7.6989,50.7816],[7.6134,50.7494],[7.5995,50.7334],[7.5633,50.7328],[7.5324,50.721],[7.4486,50.7062],[7.3869,50.7037],[7.3715,50.6426],[7.3405,50.6289],[7.2826,50.6188],[7.2263,50.6214],[7.1969,50.6363],[7.1546,50.6011],[7.1218,50.6042],[7.1052,50.5891],[7.0518,50.5903],[6.9989,50.5666],[6.9393,50.5548],[6.9133,50.5294],[6.8852,50.5218],[6.8878,50.4767],[6.8736,50.4622],[6.8462,50.4629],[6.8206,50.486],[6.7601,50.4707],[6.7525,50.4368],[6.7763,50.4262],[6.795,50.3556],[6.7182,50.3416],[6.6633,50.3621],[6.6195,50.3509],[6.6163,50.3695],[6.5856,50.3774],[6.5322,50.3695],[6.4581,50.341],[6.4447,50.3593],[6.3976,50.3832],[6.3917,50.3722],[6.4257,50.3324],[6.3734,50.3231],[6.362,50.307],[6.2995,50.3089],[6.2694,50.2865],[6.2534,50.2568],[6.1896,50.2427],[6.1468,50.214],[6.1651,50.1819],[6.1232,50.1649],[6.1175,50.1205],[6.0964,50.0486]]],[[[7.5119,47.7073],[7.5218,47.6704],[7.5501,47.6524],[7.5903,47.6079],[7.586,47.5846],[7.637,47.595],[7.6597,47.5966],[7.6465,47.5715],[7.6359,47.5646],[7.6123,47.5647],[7.6097,47.5647],[7.6469,47.5514],[7.6834,47.5443],[7.7273,47.5504],[7.7856,47.5632],[7.8197,47.5953],[7.8982,47.5878],[7.9122,47.5606],[8.0423,47.5606],[8.0872,47.5674],[8.1221,47.5921],[8.179,47.6158],[8.2511,47.622],[8.2886,47.6158],[8.3063,47.5922],[8.3541,47.581],[8.4211,47.5811],[8.4489,47.5843],[8.4618,47.6061],[8.5224,47.6219],[8.5517,47.5969],[8.5607,47.5894],[8.5763,47.595],[8.5803,47.639],[8.6016,47.6326],[8.5936,47.6582],[8.5682,47.6629],[8.5197,47.6574],[8.4761,47.6404],[8.4583,47.6399],[8.412,47.661],[8.3913,47.6655],[8.3977,47.6763],[8.391,47.6921],[8.4019,47.7071],[8.4379,47.7232],[8.4501,47.7505],[8.4636,47.7639],[8.5365,47.7741],[8.5516,47.7793],[8.5423,47.795],[8.5582,47.8012],[8.6016,47.7946],[8.6076,47.7623],[8.6298,47.7628],[8.635,47.7846],[8.657,47.7881],[8.6819,47.7587],[8.7131,47.7574],[8.7198,47.7473],[8.7004,47.7235],[8.7171,47.6946],[8.7699,47.6951],[8.7617,47.7013],[8.7707,47.7209],[8.7976,47.72],[8.8302,47.7072],[8.8561,47.6907],[8.8377,47.6878],[8.8519,47.6713],[8.9062,47.6518],[8.9818,47.6622],[9.0166,47.6789],[9.1281,47.6704],[9.1834,47.6704],[9.1969,47.6561],[9.2732,47.6501],[9.5475,47.5345],[9.5541,47.5327],[9.6126,47.5219],[9.6767,47.5226],[9.704,47.5314],[9.7527,47.5821],[9.7821,47.5884],[9.808,47.5763],[9.8131,47.5418],[9.9188,47.5322],[9.9459,47.5408],[9.9487,47.5242],[9.97,47.5016],[9.97,47.6637],[9.9533,47.6595],[10.0339,47.68],[10.0578,47.6782],[10.0757,47.6497],[10.0934,47.6797],[10.1215,47.6739],[10.1314,47.6879],[10.114,47.7673],[10.0802,47.787],[10.0893,47.8017],[10.1295,47.8165],[10.0982,47.8779],[10.1095,47.9378],[10.0855,47.9701],[10.1007,47.9796],[10.1302,48.0349],[10.1401,48.0836],[10.1362,48.1073],[10.1093,48.148],[10.07,48.269],[10.0541,48.3049],[10.0072,48.3639],[9.9,48.38],[9.6,48.57],[9.3,48.68],[9,48.75],[8.75,48.85],[8.5,48.9],[8.222,48.9635],[8.1999,48.9583],[8.1481,48.9037],[8.1027,48.8213],[8.0842,48.8041],[8.0273,48.78],[8.023,48.7651],[7.9701,48.7573],[7.9592,48.7214],[7.8806,48.6677],[7.8524,48.6587],[7.8103,48.615],[7.8017,48.5476],[7.8135,48.5195],[7.7765,48.4982],[7.7383,48.4066],[7.752,48.3553],[7.737,48.3267],[7.7025,48.3112],[7.6935,48.2699],[7.6766,48.2384],[7.6134,48.1792],[7.582,48.1214],[7.5726,48.095],[7.5757,48.0537],[7.6189,48.0027],[7.6211,47.9714],[7.5849,47.9404],[7.5808,47.9108],[7.5579,47.8785],[7.562,47.8392],[7.5429,47.8294],[7.5259,47.7832],[7.5378,47.7318],[7.5119,47.7073]]]]}}
]}
