{"type":"FeatureCollection","features":[
{"type":"Feature","properties":{"entityId":"germany-zone-uk","from":1945,"to":1949,"certainty":"estimated","source":"유럽 쪽은 Natural Earth 1:10m admin-1(v5.1.2) 현대 행정구역 조각을 그 시기 국경에 맞춰 묶고, 조각이 역사 경계와 다른 곳은 선을 그어 나눈 근사. 유럽 밖(시베리아·중앙아시아·극동)은 대략적인 추정. 운영자 검수 필요"},"geometry":{"type":"MultiPolygon","coordinates":[[[[9.9291,54.837],[9.9304,54.8027],[9.9312,54.7829],[9.9705,54.7626],[9.9841,54.7285],[10.0182,54.7012],[9.9925,54.7012],[10.0204,54.675],[10.0335,54.6729],[10.0376,54.6191],[10.0275,54.577],[10.913,54.3726],[10.9353,54.3795],[11.0188,54.3859],[11.0339,54.3676],[11.1042,54.3929],[11.1355,54.3859],[11.0774,54.3422],[11.0945,54.2835],[11.0871,54.2709],[11.0945,54.2251],[11.0666,54.1839],[10.9505,54.1395],[10.9427,54.1336],[10.9414,54.0905],[10.9401,54.0474],[10.9222,54.0474],[10.9222,54.0044],[10.9222,54.0043],[10.9222,53.9614],[10.906,53.9612],[10.9042,53.9313],[10.9203,53.9205],[10.9605,53.9129],[10.9453,53.9052],[10.9129,53.9021],[10.9067,53.9053],[10.9073,53.9155],[10.8852,53.9191],[10.8613,53.9098],[10.8123,53.8827],[10.7726,53.8699],[10.7633,53.8651],[10.7513,53.8431],[10.753,53.8341],[10.7615,53.8225],[10.771,53.7933],[10.7674,53.7746],[10.7584,53.7519],[10.7609,53.7467],[10.7781,53.7458],[10.8059,53.7412],[10.8466,53.7085],[10.8655,53.6999],[10.8789,53.702],[10.9146,53.6968],[10.9381,53.6847],[10.9456,53.6771],[10.9465,53.6649],[10.955,53.6555],[10.956,53.6391],[10.9398,53.6287],[10.9406,53.6114],[10.9527,53.5844],[10.953,53.5737],[10.9423,53.5697],[10.9544,53.5661],[10.9381,53.5525],[10.929,53.5485],[10.9115,53.5714],[10.9036,53.5723],[10.8578,53.5682],[10.8414,53.5719],[10.8297,53.5701],[10.8324,53.5441],[10.8239,53.5313],[10.8204,53.5148],[10.8049,53.5094],[10.7602,53.4882],[10.7257,53.4811],[10.7082,53.4794],[10.7017,53.4755],[10.6945,53.4601],[10.6863,53.4568],[10.6611,53.4582],[10.6408,53.451],[10.6354,53.4452],[10.6272,53.4137],[10.6272,53.4015],[10.6222,53.391],[10.6012,53.3718],[10.6755,53.3737],[10.7097,53.3683],[10.7316,53.352],[10.7346,53.3217],[10.7394,53.3085],[10.7558,53.3029],[10.7751,53.3002],[10.7868,53.2934],[10.8073,53.2756],[10.8393,53.2601],[10.9302,53.2285],[11.0401,53.1664],[11.0681,53.1555],[11.0894,53.1442],[11.1093,53.1558],[11.1434,53.1727],[11.1645,53.1709],[11.1943,53.1409],[11.2014,53.1405],[11.2247,53.153],[11.2397,53.142],[11.2558,53.1362],[11.2741,53.1175],[11.3276,53.0724],[11.3656,53.064],[11.4169,53.0809],[11.4609,53.0794],[11.4907,53.0607],[11.5813,53.0429],[11.5619,53.01],[11.5068,53.0011],[11.4963,52.9694],[11.502,52.9442],[11.4704,52.9401],[11.4124,52.9064],[11.3129,52.8838],[11.2643,52.8775],[11.2136,52.8978],[11.1653,52.9033],[11.1066,52.9006],[11.0508,52.9123],[11.0147,52.9119],[10.9893,52.8821],[10.9607,52.8651],[10.8855,52.8472],[10.7954,52.8463],[10.762,52.8384],[10.7594,52.7817],[10.7938,52.7479],[10.801,52.7225],[10.8369,52.7103],[10.8849,52.6514],[10.9198,52.6195],[10.9572,52.6225],[10.9743,52.6083],[10.9465,52.5836],[10.9491,52.5537],[11.0017,52.4981],[10.9501,52.4925],[10.9391,52.4621],[11.0107,52.4035],[11.073,52.3722],[11.0638,52.3538],[10.9993,52.3425],[11.0337,52.3065],[11.0141,52.2897],[11.0636,52.2437],[11.0829,52.2471],[11.0829,52.2251],[11.0374,52.2115],[11.0193,52.1869],[11.0543,52.1684],[11.0382,52.1317],[10.9477,52.097],[10.9693,52.0835],[10.9684,52.0646],[10.8503,52.0503],[10.7175,52.0502],[10.6525,52.0426],[10.6216,52.0105],[10.5705,52.0012],[10.5902,51.9762],[10.6446,51.9587],[10.6181,51.9434],[10.613,51.9245],[10.6382,51.9068],[10.6399,51.8836],[10.5802,51.8449],[10.5853,51.7779],[10.6192,51.7585],[10.6641,51.7072],[10.669,51.6699],[10.6976,51.6374],[10.6489,51.6197],[10.6292,51.601],[10.6542,51.5782],[10.6453,51.5611],[10.6104,51.5726],[10.562,51.5574],[10.5142,51.5563],[10.4788,51.5747],[10.4217,51.5919],[10.3749,51.5857],[10.3646,51.5424],[10.3064,51.5106],[10.2945,51.4935],[10.2396,51.4721],[10.1947,51.4794],[10.1497,51.4318],[10.0847,51.4311],[10.0661,51.4209],[10.0457,51.4321],[9.9492,51.3818],[9.9058,51.4037],[9.9042,51.417],[9.8628,51.4087],[9.8755,51.3847],[9.8564,51.3721],[9.826,51.4009],[9.8017,51.3972],[9.7137,51.3638],[9.7545,51.3309],[9.7843,51.3359],[9.7621,51.3093],[9.7115,51.2915],[9.6826,51.315],[9.5694,51.3423],[9.5347,51.3666],[9.5709,51.3614],[9.5636,51.3845],[9.5821,51.3988],[9.6325,51.4009],[9.6387,51.468],[9.5968,51.5116],[9.6197,51.5525],[9.6451,51.5517],[9.644,51.5719],[9.6713,51.5593],[9.6861,51.5719],[9.6508,51.6112],[9.6234,51.6295],[9.5926,51.6257],[9.5493,51.6403],[9.5326,51.6303],[9.4944,51.6321],[9.4904,51.6493],[9.4401,51.649],[9.4178,51.6271],[9.3331,51.6067],[9.3538,51.5955],[9.336,51.554],[9.2963,51.5176],[9.2243,51.487],[9.2148,51.4587],[9.158,51.4389],[9.1087,51.4429],[9.0843,51.46],[9.0846,51.483],[9.0154,51.5092],[8.9062,51.4809],[8.8981,51.4667],[8.9162,51.4229],[8.9495,51.4089],[8.9351,51.3913],[8.8936,51.39],[8.858,51.3754],[8.8146,51.3817],[8.7277,51.3731],[8.6855,51.3634],[8.5939,51.296],[8.58,51.2649],[8.6079,51.2413],[8.7169,51.2711],[8.7317,51.2498],[8.7522,51.1878],[8.7502,51.1728],[8.6957,51.1305],[8.7044,51.1047],[8.6584,51.0884],[8.6272,51.0936],[8.5247,51.0933],[8.5449,51.0207],[8.4696,50.9438],[8.4638,50.9145],[8.4441,50.916],[8.3641,50.8616],[8.3145,50.8645],[8.2996,50.8809],[8.1972,50.8271],[8.1872,50.8115],[8.1393,50.785],[8.145,50.7623],[8.1751,50.7421],[8.1669,50.7079],[8.1345,50.684],[8.0895,50.6968],[8.0563,50.6909],[8.0338,50.726],[7.9811,50.7735],[7.9839,50.803],[7.9703,50.837],[7.9425,50.832],[7.8856,50.8669],[7.8446,50.882],[7.8597,50.9225],[7.8016,50.9327],[7.7575,50.9113],[7.7677,50.8365],[7.7406,50.842],[7.6756,50.81],[7.6989,50.7816],[7.6134,50.7494],[7.5995,50.7334],[7.5633,50.7328],[7.5324,50.721],[7.4486,50.7062],[7.3869,50.7037],[7.3715,50.6426],[7.3405,50.6289],[7.2826,50.6188],[7.2263,50.6214],[7.1969,50.6363],[7.1546,50.6011],[7.1218,50.6042],[7.1052,50.5891],[7.0518,50.5903],[6.9989,50.5666],[6.9393,50.5548],[6.9133,50.5294],[6.8852,50.5218],[6.8878,50.4767],[6.8736,50.4622],[6.8462,50.4629],[6.8206,50.486],[6.7601,50.4707],[6.7525,50.4368],[6.7763,50.4262],[6.795,50.3556],[6.7182,50.3416],[6.6633,50.3621],[6.6195,50.3509],[6.6163,50.3695],[6.5856,50.3774],[6.5322,50.3695],[6.4581,50.341],[6.4447,50.3593],[6.3976,50.3832],[6.3917,50.3722],[6.4257,50.3324],[6.3734,50.3231],[6.3377,50.3681],[6.3512,50.4336],[6.3233,50.466],[6.3369,50.481],[6.2556,50.4946],[6.1992,50.4904],[6.1708,50.518],[6.1607,50.5436],[6.1791,50.562],[6.2329,50.5871],[6.2491,50.6144],[6.18,50.6155],[6.1478,50.6368],[6.1611,50.6422],[6.081,50.7135],[6.0248,50.7076],[6.0076,50.7169],[5.9949,50.7499],[5.973,50.7818],[6.0036,50.8126],[6.0005,50.8304],[6.0456,50.8442],[6.0631,50.8709],[6.0637,50.9075],[5.9999,50.9294],[6.0037,50.9737],[5.9277,50.9777],[5.8746,50.9654],[5.8736,50.9906],[5.8525,51.0428],[5.8805,51.0521],[5.9196,51.0297],[5.9503,51.0395],[5.9829,51.0747],[6.0754,51.1204],[6.1324,51.1398],[6.1473,51.1523],[6.1263,51.1646],[6.1571,51.1793],[6.1341,51.1842],[6.0843,51.1627],[6.0537,51.1894],[6.0652,51.2316],[6.0965,51.2588],[6.1478,51.3182],[6.1936,51.3445],[6.2078,51.3877],[6.1927,51.399],[6.2053,51.4584],[6.1933,51.5093],[6.0865,51.5955],[6.0992,51.6445],[6.0315,51.663],[6.0086,51.6812],[6.022,51.7095],[5.9783,51.7298],[5.9393,51.7319],[5.9461,51.7463],[5.9641,51.7766],[5.928,51.8067],[5.9481,51.823],[5.9889,51.8275],[6.0433,51.8469],[6.084,51.8537],[6.1561,51.8421],[6.093,51.8853],[6.127,51.8967],[6.2252,51.8625],[6.2564,51.8668],[6.2874,51.8462],[6.342,51.8367],[6.345,51.8211],[6.3825,51.8276],[6.3785,51.8601],[6.4425,51.8484],[6.4794,51.853],[6.5286,51.8764],[6.6282,51.8975],[6.7167,51.8993],[6.7438,51.9083],[6.7898,51.9511],[6.8107,51.9606],[6.804,51.9844],[6.7782,52.0013],[6.675,52.0348],[6.6799,52.0605],[6.7114,52.0673],[6.7329,52.092],[6.7716,52.1088],[6.8307,52.1129],[6.8848,52.1603],[6.9477,52.1828],[6.9819,52.214],[7.0266,52.2386],[7.0125,52.2849],[7.0398,52.3286],[7.0482,52.3651],[7.0342,52.3908],[6.9733,52.4514],[6.9515,52.4375],[6.9002,52.4319],[6.8203,52.4468],[6.7412,52.4537],[6.6951,52.4756],[6.684,52.526],[6.6717,52.5417],[6.7438,52.5597],[6.711,52.5766],[6.7018,52.6191],[6.7191,52.6268],[6.7705,52.641],[6.8654,52.642],[6.9184,52.6322],[6.9677,52.6367],[7.0185,52.626],[7.0367,52.6474],[7.044,52.6826],[7.0533,52.7906],[7.0722,52.8413],[7.0799,52.8544],[7.1619,52.9326],[7.1836,52.9661],[7.1944,53.0338],[7.1851,53.1054],[7.1727,53.1258],[7.1985,53.2006],[7.1946,53.245],[7.1962,53.246],[7.1962,53.2903],[7.1656,53.2903],[7.1656,53.293],[7.1351,53.293],[7.1045,53.293],[7.1045,53.3028],[7.074,53.3028],[7.044,53.3028],[7.0434,53.303],[7.0434,53.3345],[7.0129,53.3345],[6.9823,53.3345],[6.9823,53.3487],[6.9494,53.3487],[6.9494,53.3796],[6.9494,53.4105],[6.9494,53.4413],[6.9518,53.4413],[6.9518,53.4722],[6.9212,53.4722],[6.9212,53.4982],[6.9256,53.503],[6.954,53.5339],[6.9823,53.5647],[7.1009,53.6938],[7.2267,53.702],[7.4711,53.7178],[7.9361,53.748],[7.9365,53.748],[7.9599,53.7204],[8.0314,53.7081],[8.0253,53.6747],[8.1074,53.5992],[8.1276,53.5908],[8.1244,53.5836],[8.1498,53.5602],[8.1614,53.5557],[8.3152,53.6676],[8.4434,53.7609],[8.5715,53.8542],[8.5733,53.8577],[8.6071,53.8815],[8.6101,53.8822],[8.6857,53.9372],[8.7235,53.9648],[8.7613,53.9923],[8.7835,54.0084],[8.7999,54.0204],[8.7715,54.0675],[8.6417,54.2826],[8.6027,54.3121],[8.5999,54.3381],[8.6065,54.3409],[8.5733,54.3958],[8.5491,54.6884],[8.5485,54.688],[8.5481,54.688],[8.4545,54.6915],[8.4246,54.704],[8.3945,54.7148],[8.4098,54.727],[8.4185,54.7388],[8.4301,54.7432],[8.4368,54.7485],[8.4481,54.75],[8.4689,54.7578],[8.5085,54.7613],[8.5086,54.7613],[8.5089,54.7613],[8.5434,54.7548],[8.5437,54.7548],[8.5349,54.8605],[8.3469,54.8477],[8.3073,54.787],[8.2982,54.7782],[8.2983,54.7769],[8.2907,54.7453],[8.277,54.7828],[8.2886,54.8913],[8.296,54.9081],[8.2961,54.9089],[8.2969,54.91],[8.298,54.9125],[8.3737,55.035],[8.4021,55.0554],[8.4041,55.0582],[8.4045,55.0582],[8.4058,55.0581],[8.4158,55.0653],[8.4501,55.0548],[8.4513,55.0547],[8.4511,55.0545],[8.4617,55.0512],[8.4455,55.0733],[8.4799,55.0733],[8.4839,55.0676],[8.4943,55.0687],[8.4943,55.0532],[8.5412,55.0532],[8.5412,55.0078],[8.5412,54.9623],[8.5784,54.9623],[8.5784,54.9269],[8.6159,54.9269],[8.6159,54.9274],[8.6533,54.9274],[8.6533,54.9184],[8.6533,54.8936],[8.6545,54.8936],[8.6533,54.8931],[8.6533,54.8746],[8.6608,54.8963],[8.7328,54.8891],[8.8242,54.9059],[8.9041,54.8979],[8.9827,54.8793],[9.1948,54.8504],[9.2115,54.8418],[9.2264,54.8059],[9.332,54.8032],[9.385,54.8194],[9.4375,54.8104],[9.4716,54.8185],[9.4716,54.8445],[9.5057,54.8445],[9.5057,54.8695],[9.5398,54.8695],[9.5739,54.8695],[9.5739,54.8761],[9.608,54.8761],[9.608,54.8505],[9.608,54.8478],[9.6421,54.8478],[9.6421,54.8196],[9.6762,54.8185],[9.693,54.818],[9.7102,54.8125],[9.7102,54.8386],[9.7168,54.8386],[9.7196,54.8358],[9.7447,54.836],[9.7459,54.836],[9.7458,54.8386],[9.7792,54.8386],[9.7792,54.8217],[9.8137,54.8217],[9.8482,54.8217],[9.8482,54.837],[9.8897,54.837],[9.9291,54.837]],[[8.5395,53.5441],[8.565,53.5441],[8.5572,53.5199],[8.573,53.5019],[8.6028,53.4905],[8.6391,53.5167],[8.6419,53.5393],[8.6202,53.5876],[8.6253,53.605],[8.5843,53.6039],[8.513,53.6171],[8.5223,53.6061],[8.5133,53.6061],[8.4871,53.6061],[8.4871,53.5805],[8.5133,53.5805],[8.5133,53.5751],[8.5395,53.5751],[8.5395,53.5441]],[[8.5187,53.2261],[8.4961,53.224],[8.513,53.1998],[8.5544,53.1896],[8.5781,53.1798],[8.611,53.1801],[8.6315,53.1596],[8.638,53.1303],[8.7027,53.0799],[8.7024,53.0511],[8.7195,53.0479],[8.7771,53.0534],[8.8247,53.035],[8.8441,53.0332],[8.866,53.0397],[8.866,53.0475],[8.9145,53.0246],[8.9577,53.0426],[8.9727,53.0526],[8.9767,53.0756],[8.9899,53.0936],[8.9616,53.1158],[8.973,53.1395],[8.9394,53.1618],[8.9285,53.1611],[8.9124,53.1393],[8.895,53.1389],[8.8605,53.1493],[8.8239,53.1681],[8.7837,53.169],[8.7566,53.1787],[8.7455,53.1916],[8.6903,53.1884],[8.6179,53.2048],[8.5902,53.2154],[8.5606,53.2126],[8.5187,53.2261]]],[[[6.7293,53.582],[6.7346,53.5752],[6.6771,53.5756],[6.6739,53.5799],[6.6441,53.5787],[6.6437,53.5787],[6.6441,53.5791],[6.6437,53.5791],[6.6611,53.597],[6.6595,53.5991],[6.6641,53.6001],[6.6689,53.6051],[6.7553,53.626],[6.8025,53.626],[6.8022,53.6258],[6.8023,53.6258],[6.802,53.6256],[6.8025,53.6256],[6.7879,53.6163],[6.7981,53.6044],[6.7576,53.5971],[6.7341,53.5822],[6.7293,53.582]]],[[[11.1805,54.4161],[11.179,54.4142],[11.1126,54.4152],[11.1064,54.4314],[11.0739,54.4539],[11.0581,54.4553],[11.0325,54.4473],[11.0057,54.4685],[11.0337,54.5089],[11.0405,54.5128],[11.0429,54.5165],[11.0571,54.5222],[11.0729,54.5312],[11.0815,54.5321],[11.0861,54.5339],[11.0864,54.5338],[11.0865,54.5339],[11.0907,54.533],[11.1213,54.536],[11.2066,54.5145],[11.2213,54.5038],[11.2341,54.5009],[11.2448,54.4866],[11.2556,54.4787],[11.3142,54.4138],[11.2802,54.4172],[11.1805,54.4161]]]]}}
]}
