{
 "type": "FeatureCollection",
 "features": [
  {
   "type": "Feature",
   "properties": {
    "entityId": "goguryeo",
    "from": -36,
    "to": 56,
    "certainty": "estimated",
    "source": "중고등학교 한국사 교과서 시대별 지도의 일반적인 경계를 따른 대략적인 추정. 운영자 검수 필요"
   },
   "geometry": {
    "type": "MultiPolygon",
    "coordinates": [
     [
      [
       [
        123.52,
        39.4
       ],
       [
        124.9,
        39.4
       ],
       [
        125.3,
        39.65
       ],
       [
        126,
        39.8
       ],
       [
        126.8,
        39.75
       ],
       [
        127.35,
        39.6
       ],
       [
        127.3,
        41.3
       ],
       [
        127.9529,
        41.5176
       ],
       [
        126.8,
        41.6
       ],
       [
        127,
        41.586
       ],
       [
        126.8,
        42.3
       ],
       [
        125.8,
        42.4
       ],
       [
        124.8783,
        41.9391
       ],
       [
        125,
        41.8
       ],
       [
        125,
        40.8
       ],
       [
        124.4,
        40
       ],
       [
        123.6,
        39.5
       ],
       [
        123.52,
        39.4
       ]
      ]
     ],
     [
      [
       [
        129.5,
        39.5
       ],
       [
        131.4088,
        40.6453
       ],
       [
        131.5,
        41
       ],
       [
        129.5,
        39.5
       ]
      ]
     ],
     [
      [
       [
        129.963,
        42.8444
       ],
       [
        130.0317,
        42.8762
       ],
       [
        130,
        42.9
       ],
       [
        129.963,
        42.8444
       ]
      ]
     ]
    ]
   }
  },
  {
   "type": "Feature",
   "properties": {
    "entityId": "goguryeo",
    "from": 56,
    "to": 313,
    "certainty": "estimated",
    "source": "중고등학교 한국사 교과서 시대별 지도의 일반적인 경계를 따른 대략적인 추정. 운영자 검수 필요"
   },
   "geometry": {
    "type": "Polygon",
    "coordinates": [
     [
      [
       123.7,
       43.2
      ],
      [
       124.3,
       42.6
      ],
      [
       125,
       41.8
      ],
      [
       125,
       40.8
      ],
      [
       124.4,
       40
      ],
      [
       124,
       39.6
      ],
      [
       124,
       39.4
      ],
      [
       124.9,
       39.4
      ],
      [
       125.3,
       39.65
      ],
      [
       126,
       39.8
      ],
      [
       126.8,
       39.75
      ],
      [
       127.35,
       39.6
      ],
      [
       127.9,
       39.6
      ],
      [
       129.2714,
       39.5143
      ],
      [
       131.5,
       41
      ],
      [
       131.3,
       42.6
      ],
      [
       130.3,
       43.4
      ],
      [
       128.8,
       43.7
      ],
      [
       127,
       43.3
      ],
      [
       125,
       43
      ],
      [
       124.5,
       43.0769
      ],
      [
       124.4999,
       43.0769
      ],
      [
       123.7,
       43.2
      ]
     ]
    ]
   }
  },
  {
   "type": "Feature",
   "properties": {
    "entityId": "goguryeo",
    "from": 313,
    "to": 369,
    "certainty": "estimated",
    "source": "중고등학교 한국사 교과서 시대별 지도의 일반적인 경계를 따른 대략적인 추정. 운영자 검수 필요"
   },
   "geometry": {
    "type": "Polygon",
    "coordinates": [
     [
      [
       123,
       39.4
      ],
      [
       123.5,
       37.6
      ],
      [
       125.8,
       37.5
      ],
      [
       126.5,
       37.75
      ],
      [
       126.9,
       37.8
      ],
      [
       127.5,
       37.75
      ],
      [
       127.75,
       37.2
      ],
      [
       128.3,
       37.2
      ],
      [
       128.3,
       36.85
      ],
      [
       128.4,
       36.85
      ],
      [
       128.9,
       36.6
      ],
      [
       129.4,
       36.4
      ],
      [
       130,
       36.4
      ],
      [
       129.9333,
       36.2
      ],
      [
       130.1211,
       36.2
      ],
      [
       130.5,
       37.2286
      ],
      [
       130.5,
       38.8
      ],
      [
       129.5955,
       38.8
      ],
      [
       129.5,
       39.5
      ],
      [
       129.2714,
       39.5143
      ],
      [
       131.5,
       41
      ],
      [
       131.3,
       42.6
      ],
      [
       130.3,
       43.4
      ],
      [
       128.8,
       43.7
      ],
      [
       127,
       43.3
      ],
      [
       125,
       43
      ],
      [
       124.5,
       43.0769
      ],
      [
       124.4999,
       43.0769
      ],
      [
       123.7,
       43.2
      ],
      [
       124.3,
       42.6
      ],
      [
       125,
       41.8
      ],
      [
       125,
       40.8
      ],
      [
       124.4,
       40
      ],
      [
       124,
       39.6
      ],
      [
       124,
       39.4
      ],
      [
       123,
       39.4
      ]
     ]
    ]
   }
  },
  {
   "type": "Feature",
   "properties": {
    "entityId": "goguryeo",
    "from": 369,
    "to": 396,
    "certainty": "estimated",
    "source": "중고등학교 한국사 교과서 시대별 지도의 일반적인 경계를 따른 대략적인 추정. 운영자 검수 필요"
   },
   "geometry": {
    "type": "Polygon",
    "coordinates": [
     [
      [
       123,
       39.4
      ],
      [
       123.5,
       37.6
      ],
      [
       125.76,
       37.6
      ],
      [
       125.76,
       37.9475
      ],
      [
       125.9,
       37.95
      ],
      [
       126.4,
       38.1
      ],
      [
       127,
       38.3
      ],
      [
       127.1212,
       38.3242
      ],
      [
       127,
       37.9
      ],
      [
       127.2,
       38.6
      ],
      [
       128,
       37.9
      ],
      [
       128.9,
       37.2
      ],
      [
       128.3,
       37.6667
      ],
      [
       128.3,
       36.85
      ],
      [
       128.4,
       36.85
      ],
      [
       128.9,
       36.6
      ],
      [
       129.4,
       36.4
      ],
      [
       130,
       36.4
      ],
      [
       129.9333,
       36.2
      ],
      [
       130.1211,
       36.2
      ],
      [
       130.5,
       37.2286
      ],
      [
       130.5,
       38.8
      ],
      [
       129.5955,
       38.8
      ],
      [
       129.5,
       39.5
      ],
      [
       129.2714,
       39.5143
      ],
      [
       131.5,
       41
      ],
      [
       131.3,
       42.6
      ],
      [
       130.3,
       43.4
      ],
      [
       128.8,
       43.7
      ],
      [
       127,
       43.3
      ],
      [
       125,
       43
      ],
      [
       124.5,
       43.0769
      ],
      [
       124.4999,
       43.0769
      ],
      [
       123.7,
       43.2
      ],
      [
       124.3,
       42.6
      ],
      [
       125,
       41.8
      ],
      [
       125,
       40.8
      ],
      [
       124.4,
       40
      ],
      [
       124,
       39.6
      ],
      [
       124,
       39.4
      ],
      [
       123,
       39.4
      ]
     ]
    ]
   }
  },
  {
   "type": "Feature",
   "properties": {
    "entityId": "goguryeo",
    "from": 396,
    "to": 405,
    "certainty": "estimated",
    "source": "중고등학교 한국사 교과서 시대별 지도의 일반적인 경계를 따른 대략적인 추정. 운영자 검수 필요"
   },
   "geometry": {
    "type": "Polygon",
    "coordinates": [
     [
      [
       123,
       39.4
      ],
      [
       123.5,
       37.6
      ],
      [
       125.8,
       37.5
      ],
      [
       126.5,
       37.75
      ],
      [
       126.9,
       37.8
      ],
      [
       127.5,
       37.75
      ],
      [
       127.75,
       37.2
      ],
      [
       128.3,
       37.2
      ],
      [
       128.3,
       36.85
      ],
      [
       128.4,
       36.85
      ],
      [
       128.9,
       36.6
      ],
      [
       129.4,
       36.4
      ],
      [
       130,
       36.4
      ],
      [
       129.9333,
       36.2
      ],
      [
       130.1211,
       36.2
      ],
      [
       130.5,
       37.2286
      ],
      [
       130.5,
       38.8
      ],
      [
       129.5955,
       38.8
      ],
      [
       129.5,
       39.5
      ],
      [
       129.2714,
       39.5143
      ],
      [
       131.5,
       41
      ],
      [
       131.3,
       42.6
      ],
      [
       130.3,
       43.4
      ],
      [
       128.8,
       43.7
      ],
      [
       127,
       43.3
      ],
      [
       125,
       43
      ],
      [
       124.5,
       43.0769
      ],
      [
       124.4999,
       43.0769
      ],
      [
       123.7,
       43.2
      ],
      [
       124.3,
       42.6
      ],
      [
       125,
       41.8
      ],
      [
       125,
       40.8
      ],
      [
       124.4,
       40
      ],
      [
       124,
       39.6
      ],
      [
       124,
       39.4
      ],
      [
       123,
       39.4
      ]
     ]
    ]
   }
  },
  {
   "type": "Feature",
   "properties": {
    "entityId": "goguryeo",
    "from": 405,
    "to": 475,
    "certainty": "estimated",
    "source": "중고등학교 한국사 교과서 시대별 지도의 일반적인 경계를 따른 대략적인 추정. 운영자 검수 필요"
   },
   "geometry": {
    "type": "Polygon",
    "coordinates": [
     [
      [
       120.9,
       39.2
      ],
      [
       121,
       38.5
      ],
      [
       122.5,
       38.6
      ],
      [
       123,
       39
      ],
      [
       123.0952,
       39.0571
      ],
      [
       123.5,
       37.6
      ],
      [
       125.8,
       37.5
      ],
      [
       126.5,
       37.75
      ],
      [
       126.9,
       37.8
      ],
      [
       127.5,
       37.75
      ],
      [
       127.75,
       37.2
      ],
      [
       128.3,
       37.2
      ],
      [
       128.3,
       36.85
      ],
      [
       128.4,
       36.85
      ],
      [
       128.9,
       36.6
      ],
      [
       129.4,
       36.4
      ],
      [
       130,
       36.4
      ],
      [
       129.9333,
       36.2
      ],
      [
       130.1211,
       36.2
      ],
      [
       130.5,
       37.2286
      ],
      [
       130.5,
       38.8
      ],
      [
       129.5955,
       38.8
      ],
      [
       129.5,
       39.5
      ],
      [
       129.2714,
       39.5143
      ],
      [
       131.5,
       41
      ],
      [
       131.3,
       42.6
      ],
      [
       130.3,
       43.4
      ],
      [
       128.8,
       43.7
      ],
      [
       127,
       43.3
      ],
      [
       125,
       43
      ],
      [
       124.5,
       43.0769
      ],
      [
       124.4999,
       43.0769
      ],
      [
       123.7,
       43.2
      ],
      [
       122.9,
       42.2
      ],
      [
       122.5,
       41.5
      ],
      [
       122.25,
       40.85
      ],
      [
       121.9,
       40.5
      ],
      [
       120.9,
       39.2
      ]
     ]
    ]
   }
  },
  {
   "type": "Feature",
   "properties": {
    "entityId": "goguryeo",
    "from": 475,
    "to": 494,
    "certainty": "estimated",
    "source": "중고등학교 한국사 교과서 시대별 지도의 일반적인 경계를 따른 대략적인 추정. 운영자 검수 필요"
   },
   "geometry": {
    "type": "Polygon",
    "coordinates": [
     [
      [
       120.9,
       39.2
      ],
      [
       121,
       38.5
      ],
      [
       122.5,
       38.6
      ],
      [
       123,
       39
      ],
      [
       123.0952,
       39.0571
      ],
      [
       123.5,
       37.6
      ],
      [
       123.5,
       37.5
      ],
      [
       123.634,
       37.0979
      ],
      [
       126.75,
       37.05
      ],
      [
       126.9,
       36.9
      ],
      [
       127.5,
       36.75
      ],
      [
       127.9,
       36.85
      ],
      [
       128.4,
       36.85
      ],
      [
       128.9,
       36.6
      ],
      [
       129.4,
       36.4
      ],
      [
       130,
       36.4
      ],
      [
       129.9333,
       36.2
      ],
      [
       130.1211,
       36.2
      ],
      [
       130.5,
       37.2286
      ],
      [
       130.5,
       38.8
      ],
      [
       129.5955,
       38.8
      ],
      [
       129.5,
       39.5
      ],
      [
       129.2714,
       39.5143
      ],
      [
       131.5,
       41
      ],
      [
       131.3,
       42.6
      ],
      [
       130.3,
       43.4
      ],
      [
       128.8,
       43.7
      ],
      [
       127,
       43.3
      ],
      [
       125,
       43
      ],
      [
       124.5,
       43.0769
      ],
      [
       124.4999,
       43.0769
      ],
      [
       123.7,
       43.2
      ],
      [
       122.9,
       42.2
      ],
      [
       122.5,
       41.5
      ],
      [
       122.25,
       40.85
      ],
      [
       121.9,
       40.5
      ],
      [
       120.9,
       39.2
      ]
     ]
    ]
   }
  },
  {
   "type": "Feature",
   "properties": {
    "entityId": "goguryeo",
    "from": 494,
    "to": 512,
    "certainty": "estimated",
    "source": "중고등학교 한국사 교과서 시대별 지도의 일반적인 경계를 따른 대략적인 추정. 운영자 검수 필요"
   },
   "geometry": {
    "type": "Polygon",
    "coordinates": [
     [
      [
       120.9,
       39.2
      ],
      [
       121,
       38.5
      ],
      [
       122.5,
       38.6
      ],
      [
       123,
       39
      ],
      [
       123.0952,
       39.0571
      ],
      [
       123.5,
       37.6
      ],
      [
       123.5,
       37.5
      ],
      [
       123.634,
       37.0979
      ],
      [
       126.75,
       37.05
      ],
      [
       126.9,
       36.9
      ],
      [
       127.5,
       36.75
      ],
      [
       127.9,
       36.85
      ],
      [
       128.4,
       36.85
      ],
      [
       128.9,
       36.6
      ],
      [
       129.4,
       36.4
      ],
      [
       130,
       36.4
      ],
      [
       129.9333,
       36.2
      ],
      [
       130.1211,
       36.2
      ],
      [
       130.5,
       37.2286
      ],
      [
       130.5,
       38.8
      ],
      [
       129.5955,
       38.8
      ],
      [
       129.5,
       39.5
      ],
      [
       129.2714,
       39.5143
      ],
      [
       131.5,
       41
      ],
      [
       131.3,
       42.6
      ],
      [
       130.3,
       43.4
      ],
      [
       128.8,
       43.7
      ],
      [
       128.8,
       45.5
      ],
      [
       127,
       46.3
      ],
      [
       124.5,
       45.8
      ],
      [
       123.5,
       43.5
      ],
      [
       124.5,
       43.0769
      ],
      [
       124.4999,
       43.0769
      ],
      [
       123.7,
       43.2
      ],
      [
       122.9,
       42.2
      ],
      [
       122.5,
       41.5
      ],
      [
       122.25,
       40.85
      ],
      [
       121.9,
       40.5
      ],
      [
       120.9,
       39.2
      ]
     ]
    ]
   }
  },
  {
   "type": "Feature",
   "properties": {
    "entityId": "goguryeo",
    "from": 512,
    "to": 551,
    "certainty": "estimated",
    "source": "중고등학교 한국사 교과서 시대별 지도의 일반적인 경계를 따른 대략적인 추정. 운영자 검수 필요"
   },
   "geometry": {
    "type": "Polygon",
    "coordinates": [
     [
      [
       120.9,
       39.2
      ],
      [
       121,
       38.5
      ],
      [
       122.5,
       38.6
      ],
      [
       123,
       39
      ],
      [
       123.0952,
       39.0571
      ],
      [
       123.5,
       37.6
      ],
      [
       123.5,
       37.5
      ],
      [
       123.634,
       37.0979
      ],
      [
       126.75,
       37.05
      ],
      [
       126.9,
       36.9
      ],
      [
       127.5,
       36.75
      ],
      [
       127.9,
       36.85
      ],
      [
       128.4,
       36.85
      ],
      [
       128.6,
       36.75
      ],
      [
       128.6,
       37.95
      ],
      [
       130,
       37.95
      ],
      [
       130,
       36.4
      ],
      [
       129.9333,
       36.2
      ],
      [
       130.1211,
       36.2
      ],
      [
       130.5,
       37.2286
      ],
      [
       130.5,
       38.8
      ],
      [
       129.5955,
       38.8
      ],
      [
       129.5,
       39.5
      ],
      [
       129.2714,
       39.5143
      ],
      [
       131.5,
       41
      ],
      [
       131.3,
       42.6
      ],
      [
       130.3,
       43.4
      ],
      [
       128.8,
       43.7
      ],
      [
       128.8,
       45.5
      ],
      [
       127,
       46.3
      ],
      [
       124.5,
       45.8
      ],
      [
       123.5,
       43.5
      ],
      [
       124.5,
       43.0769
      ],
      [
       124.4999,
       43.0769
      ],
      [
       123.7,
       43.2
      ],
      [
       122.9,
       42.2
      ],
      [
       122.5,
       41.5
      ],
      [
       122.25,
       40.85
      ],
      [
       121.9,
       40.5
      ],
      [
       120.9,
       39.2
      ]
     ]
    ]
   }
  },
  {
   "type": "Feature",
   "properties": {
    "entityId": "goguryeo",
    "from": 551,
    "to": 668,
    "certainty": "estimated",
    "source": "중고등학교 한국사 교과서 시대별 지도의 일반적인 경계를 따른 대략적인 추정. 운영자 검수 필요"
   },
   "geometry": {
    "type": "Polygon",
    "coordinates": [
     [
      [
       121.9,
       40.5
      ],
      [
       122.25,
       40.85
      ],
      [
       122.5,
       41.5
      ],
      [
       122.9,
       42.2
      ],
      [
       123.7,
       43.2
      ],
      [
       124.6,
       44.2
      ],
      [
       125.5,
       45
      ],
      [
       127,
       45.3
      ],
      [
       129,
       44.8
      ],
      [
       130.5,
       43.8
      ],
      [
       131.2,
       43
      ],
      [
       131.4,
       42.6
      ],
      [
       131.8,
       42.2
      ],
      [
       130.5,
       41.3
      ],
      [
       129.8,
       40.3
      ],
      [
       128.5,
       39.2
      ],
      [
       127.95,
       39.05
      ],
      [
       127.7,
       38.8
      ],
      [
       127.4,
       38.4
      ],
      [
       127,
       38
      ],
      [
       126.55,
       37.75
      ],
      [
       125.9,
       37.6
      ],
      [
       125.3,
       37.4
      ],
      [
       124.4,
       37.6
      ],
      [
       124.3,
       38.4
      ],
      [
       124,
       39.2
      ],
      [
       123,
       39
      ],
      [
       122.5,
       38.6
      ],
      [
       121,
       38.5
      ],
      [
       120.9,
       39.2
      ],
      [
       121.9,
       40.5
      ]
     ]
    ]
   }
  }
 ]
}
