{"type":"FeatureCollection","features":[
{"type":"Feature","properties":{"entityId":"gojoseon","from":-2332,"to":-281,"certainty":"disputed","source":"중고등학교 한국사 교과서 시대별 지도의 일반적인 경계를 따른 대략적인 추정. 운영자 검수 필요"},"geometry":{"type":"Polygon","coordinates":[[[119.9,39.6],[120.3,41.2],[121.3,42.3],[123.2,43.3],[125,43.2],[126.6,42.7],[127.3,41.9],[127,40.6],[126.9,39.7],[126.8,39],[126.3,38.3],[125.3,37.9],[124.3,38.3],[123,39],[121,38.6],[120.8,39.5],[119.9,39.6]]]}},
{"type":"Feature","properties":{"entityId":"gojoseon","from":-281,"to":-193,"certainty":"estimated","source":"중고등학교 한국사 교과서 시대별 지도의 일반적인 경계를 따른 대략적인 추정. 운영자 검수 필요"},"geometry":{"type":"Polygon","coordinates":[[[123.5,37.6],[125.8,37.5],[126.5,37.75],[126.9,37.8],[127,37.9],[127.2,38.6],[127.2,39.6],[127.3,41.4],[126.8,41.6],[126,41],[126.5,40.6],[126.3,40.2],[125.9,39.8],[125.5,39.55],[124.8,39.2],[123.5,39.2867],[123.5,37.6]]]}},
{"type":"Feature","properties":{"entityId":"gojoseon","from":-193,"to":-107,"certainty":"estimated","source":"중고등학교 한국사 교과서 시대별 지도의 일반적인 경계를 따른 대략적인 추정. 운영자 검수 필요"},"geometry":{"type":"Polygon","coordinates":[[[123.5,37.6],[125.8,37.5],[126.5,37.75],[126.9,37.8],[127,37.9],[127.2,38.6],[128,37.9],[128.9,37.2],[129.8,37.3],[129.5,39.5],[129.3,40.5],[128.2,40.6],[127.3,41.4],[126.8,41.6],[126,41],[125.3,40.6],[124.4,40],[123.6,39.5],[123.5,39.375],[123.5,37.6]]]}}
]}
