{
 "type": "FeatureCollection",
 "features": [
  {
   "type": "Feature",
   "properties": {
    "entityId": "gokturk",
    "from": 552,
    "to": 583,
    "certainty": "estimated",
    "source": "중고등학교 한국사 교과서 시대별 지도의 일반적인 경계를 따른 대략적인 추정. 운영자 검수 필요"
   },
   "geometry": {
    "type": "Polygon",
    "coordinates": [
     [
      [
       90,
       49.5
      ],
      [
       92,
       47
      ],
      [
       96,
       44
      ],
      [
       101,
       42.5
      ],
      [
       104.5,
       39
      ],
      [
       106.5,
       40.5
      ],
      [
       108.5,
       41.3
      ],
      [
       111,
       41
      ],
      [
       113.5,
       41
      ],
      [
       116,
       41.2
      ],
      [
       118.5,
       41.5
      ],
      [
       118.5,
       47.25
      ],
      [
       114,
       49.5
      ],
      [
       102,
       51.5
      ],
      [
       95,
       51
      ],
      [
       90,
       49.5
      ]
     ]
    ]
   }
  }
 ]
}
