{
 "type": "FeatureCollection",
 "features": [
  {
   "type": "Feature",
   "properties": {
    "entityId": "goryeo",
    "from": 918,
    "to": 935,
    "certainty": "estimated",
    "source": "중고등학교 한국사 교과서 시대별 지도의 일반적인 경계를 따른 대략적인 추정. 운영자 검수 필요"
   },
   "geometry": {
    "type": "Polygon",
    "coordinates": [
     [
      [
       124.6,
       38.6
      ],
      [
       125.2,
       38.75
      ],
      [
       125.8,
       38.95
      ],
      [
       126.5,
       39.1
      ],
      [
       127.2,
       39.2
      ],
      [
       127.8,
       39.3
      ],
      [
       128.5,
       39.2
      ],
      [
       129.2,
       38
      ],
      [
       129.7,
       37
      ],
      [
       129.3,
       36.95
      ],
      [
       128.5,
       36.9
      ],
      [
       128,
       36.6
      ],
      [
       127.5,
       36.55
      ],
      [
       127.1,
       36.6
      ],
      [
       126.7,
       36.7
      ],
      [
       125.95,
       36.7
      ],
      [
       125.3,
       37.4
      ],
      [
       124.4,
       37.6
      ],
      [
       124.3,
       38.4
      ],
      [
       124.6,
       38.6
      ]
     ]
    ]
   }
  },
  {
   "type": "Feature",
   "properties": {
    "entityId": "goryeo",
    "from": 935,
    "to": 936,
    "certainty": "estimated",
    "source": "중고등학교 한국사 교과서 시대별 지도의 일반적인 경계를 따른 대략적인 추정. 운영자 검수 필요"
   },
   "geometry": {
    "type": "Polygon",
    "coordinates": [
     [
      [
       124.3,
       38.4
      ],
      [
       124.4,
       37.6
      ],
      [
       125.3,
       37.4
      ],
      [
       125.95,
       36.7
      ],
      [
       126.7,
       36.7
      ],
      [
       127.1,
       36.6
      ],
      [
       127.5,
       36.55
      ],
      [
       128,
       36.6
      ],
      [
       127.95,
       36.2
      ],
      [
       127.95,
       35.9
      ],
      [
       128.1,
       35.6
      ],
      [
       128,
       35.2
      ],
      [
       128.1,
       34.4
      ],
      [
       128.5,
       34.5
      ],
      [
       129.4,
       35
      ],
      [
       129.8,
       35.8
      ],
      [
       132.2,
       37
      ],
      [
       132.2,
       37.8
      ],
      [
       130,
       37.6
      ],
      [
       129.7,
       37
      ],
      [
       129.2,
       38
      ],
      [
       128.5,
       39.2
      ],
      [
       127.8,
       39.3
      ],
      [
       127.2,
       39.2
      ],
      [
       126.5,
       39.1
      ],
      [
       125.8,
       38.95
      ],
      [
       125.2,
       38.75
      ],
      [
       124.6,
       38.6
      ],
      [
       124.3,
       38.4
      ]
     ]
    ]
   }
  },
  {
   "type": "Feature",
   "properties": {
    "entityId": "goryeo",
    "from": 936,
    "to": 994,
    "certainty": "estimated",
    "source": "중고등학교 한국사 교과서 시대별 지도의 일반적인 경계를 따른 대략적인 추정. 운영자 검수 필요"
   },
   "geometry": {
    "type": "Polygon",
    "coordinates": [
     [
      [
       124.3,
       38.4
      ],
      [
       124.4,
       37.6
      ],
      [
       125.3,
       37.4
      ],
      [
       125.95,
       36.7
      ],
      [
       125.8,
       36.5
      ],
      [
       125.5,
       35
      ],
      [
       125.8,
       34.2
      ],
      [
       126.8,
       34
      ],
      [
       127.8,
       34.4
      ],
      [
       128.1,
       34.4
      ],
      [
       128.5,
       34.5
      ],
      [
       129.4,
       35
      ],
      [
       129.8,
       35.8
      ],
      [
       132.2,
       37
      ],
      [
       132.2,
       37.8
      ],
      [
       130,
       37.6
      ],
      [
       129.7,
       37
      ],
      [
       129.2,
       38
      ],
      [
       128.5,
       39.2
      ],
      [
       127.8,
       39.3
      ],
      [
       127.9,
       39.6
      ],
      [
       127.35,
       39.6
      ],
      [
       126.8,
       39.75
      ],
      [
       126,
       39.8
      ],
      [
       125.3,
       39.65
      ],
      [
       124.9,
       39.4
      ],
      [
       124.5,
       39
      ],
      [
       124.6,
       38.6
      ],
      [
       124.3,
       38.4
      ]
     ]
    ]
   }
  },
  {
   "type": "Feature",
   "properties": {
    "entityId": "goryeo",
    "from": 994,
    "to": 1105,
    "certainty": "estimated",
    "source": "중고등학교 한국사 교과서 시대별 지도의 일반적인 경계를 따른 대략적인 추정. 운영자 검수 필요"
   },
   "geometry": {
    "type": "Polygon",
    "coordinates": [
     [
      [
       124,
       39.6
      ],
      [
       124.9,
       39.4
      ],
      [
       124.5,
       39
      ],
      [
       124.6,
       38.6
      ],
      [
       124.3,
       38.4
      ],
      [
       124.4,
       37.6
      ],
      [
       125.3,
       37.4
      ],
      [
       125.95,
       36.7
      ],
      [
       125.8,
       36.5
      ],
      [
       125.5,
       35
      ],
      [
       125.8,
       34.2
      ],
      [
       126.8,
       34
      ],
      [
       127.8,
       34.4
      ],
      [
       128.1,
       34.4
      ],
      [
       128.5,
       34.5
      ],
      [
       129.4,
       35
      ],
      [
       129.8,
       35.8
      ],
      [
       132.2,
       37
      ],
      [
       132.2,
       37.8
      ],
      [
       130,
       37.6
      ],
      [
       129.7,
       37
      ],
      [
       129.2,
       38
      ],
      [
       128.5,
       39.2
      ],
      [
       127.8,
       39.3
      ],
      [
       127.9,
       39.6
      ],
      [
       127.8,
       39.7
      ],
      [
       127.4,
       39.8
      ],
      [
       127,
       39.95
      ],
      [
       126.3,
       40.2
      ],
      [
       125.4,
       40.35
      ],
      [
       124.4,
       40
      ],
      [
       124,
       39.6
      ]
     ]
    ]
   }
  },
  {
   "type": "Feature",
   "properties": {
    "entityId": "goryeo",
    "from": 1105,
    "to": 1107,
    "certainty": "estimated",
    "source": "중고등학교 한국사 교과서 시대별 지도의 일반적인 경계를 따른 대략적인 추정. 운영자 검수 필요"
   },
   "geometry": {
    "type": "MultiPolygon",
    "coordinates": [
     [
      [
       [
        124,
        39.6
       ],
       [
        124.9,
        39.4
       ],
       [
        124.5,
        39
       ],
       [
        124.6,
        38.6
       ],
       [
        124.3,
        38.4
       ],
       [
        124.4,
        37.6
       ],
       [
        125.3,
        37.4
       ],
       [
        125.95,
        36.7
       ],
       [
        125.8,
        36.5
       ],
       [
        125.5,
        35
       ],
       [
        125.8,
        34.2
       ],
       [
        126.8,
        34
       ],
       [
        127.8,
        34.4
       ],
       [
        128.1,
        34.4
       ],
       [
        128.5,
        34.5
       ],
       [
        129.4,
        35
       ],
       [
        129.8,
        35.8
       ],
       [
        132.2,
        37
       ],
       [
        132.2,
        37.8
       ],
       [
        130,
        37.6
       ],
       [
        129.7,
        37
       ],
       [
        129.2,
        38
       ],
       [
        128.5,
        39.2
       ],
       [
        127.8,
        39.3
       ],
       [
        127.9,
        39.6
       ],
       [
        127.8,
        39.7
       ],
       [
        127.4,
        39.8
       ],
       [
        127,
        39.95
       ],
       [
        126.3,
        40.2
       ],
       [
        125.4,
        40.35
       ],
       [
        124.4,
        40
       ],
       [
        124,
        39.6
       ]
      ]
     ],
     [
      [
       [
        125.9,
        32.9
       ],
       [
        127.2,
        32.9
       ],
       [
        127.2,
        33.7
       ],
       [
        125.9,
        33.7
       ],
       [
        125.9,
        32.9
       ]
      ]
     ]
    ]
   }
  },
  {
   "type": "Feature",
   "properties": {
    "entityId": "goryeo",
    "from": 1107,
    "to": 1109,
    "certainty": "estimated",
    "source": "중고등학교 한국사 교과서 시대별 지도의 일반적인 경계를 따른 대략적인 추정. 운영자 검수 필요"
   },
   "geometry": {
    "type": "MultiPolygon",
    "coordinates": [
     [
      [
       [
        124,
        39.6
       ],
       [
        124.9,
        39.4
       ],
       [
        124.5,
        39
       ],
       [
        124.6,
        38.6
       ],
       [
        124.3,
        38.4
       ],
       [
        124.4,
        37.6
       ],
       [
        125.3,
        37.4
       ],
       [
        125.95,
        36.7
       ],
       [
        125.8,
        36.5
       ],
       [
        125.5,
        35
       ],
       [
        125.8,
        34.2
       ],
       [
        126.8,
        34
       ],
       [
        127.8,
        34.4
       ],
       [
        128.1,
        34.4
       ],
       [
        128.5,
        34.5
       ],
       [
        129.4,
        35
       ],
       [
        129.8,
        35.8
       ],
       [
        132.2,
        37
       ],
       [
        132.2,
        37.8
       ],
       [
        130,
        37.6
       ],
       [
        129.7,
        37
       ],
       [
        129.2,
        38
       ],
       [
        128.5,
        39.2
       ],
       [
        127.8,
        39.3
       ],
       [
        127.9,
        39.6
       ],
       [
        127.8,
        39.7
       ],
       [
        129.3,
        40.3
       ],
       [
        128.3,
        40.8
       ],
       [
        127.5,
        40.6
       ],
       [
        126.9,
        40.5
       ],
       [
        126.3,
        40.2
       ],
       [
        125.4,
        40.35
       ],
       [
        124.4,
        40
       ],
       [
        124,
        39.6
       ]
      ]
     ],
     [
      [
       [
        125.9,
        32.9
       ],
       [
        127.2,
        32.9
       ],
       [
        127.2,
        33.7
       ],
       [
        125.9,
        33.7
       ],
       [
        125.9,
        32.9
       ]
      ]
     ]
    ]
   }
  },
  {
   "type": "Feature",
   "properties": {
    "entityId": "goryeo",
    "from": 1109,
    "to": 1258,
    "certainty": "estimated",
    "source": "중고등학교 한국사 교과서 시대별 지도의 일반적인 경계를 따른 대략적인 추정. 운영자 검수 필요"
   },
   "geometry": {
    "type": "MultiPolygon",
    "coordinates": [
     [
      [
       [
        124,
        39.6
       ],
       [
        124.9,
        39.4
       ],
       [
        124.5,
        39
       ],
       [
        124.6,
        38.6
       ],
       [
        124.3,
        38.4
       ],
       [
        124.4,
        37.6
       ],
       [
        125.3,
        37.4
       ],
       [
        125.95,
        36.7
       ],
       [
        125.8,
        36.5
       ],
       [
        125.5,
        35
       ],
       [
        125.8,
        34.2
       ],
       [
        126.8,
        34
       ],
       [
        127.8,
        34.4
       ],
       [
        128.1,
        34.4
       ],
       [
        128.5,
        34.5
       ],
       [
        129.4,
        35
       ],
       [
        129.8,
        35.8
       ],
       [
        132.2,
        37
       ],
       [
        132.2,
        37.8
       ],
       [
        130,
        37.6
       ],
       [
        129.7,
        37
       ],
       [
        129.2,
        38
       ],
       [
        128.5,
        39.2
       ],
       [
        127.8,
        39.3
       ],
       [
        127.9,
        39.6
       ],
       [
        127.8,
        39.7
       ],
       [
        127.4,
        39.8
       ],
       [
        127,
        39.95
       ],
       [
        126.3,
        40.2
       ],
       [
        125.4,
        40.35
       ],
       [
        124.4,
        40
       ],
       [
        124,
        39.6
       ]
      ]
     ],
     [
      [
       [
        125.9,
        32.9
       ],
       [
        127.2,
        32.9
       ],
       [
        127.2,
        33.7
       ],
       [
        125.9,
        33.7
       ],
       [
        125.9,
        32.9
       ]
      ]
     ]
    ]
   }
  },
  {
   "type": "Feature",
   "properties": {
    "entityId": "goryeo",
    "from": 1258,
    "to": 1270,
    "certainty": "estimated",
    "source": "중고등학교 한국사 교과서 시대별 지도의 일반적인 경계를 따른 대략적인 추정. 운영자 검수 필요"
   },
   "geometry": {
    "type": "MultiPolygon",
    "coordinates": [
     [
      [
       [
        124,
        39.6
       ],
       [
        124.9,
        39.4
       ],
       [
        124.5,
        39
       ],
       [
        124.6,
        38.6
       ],
       [
        124.3,
        38.4
       ],
       [
        124.4,
        37.6
       ],
       [
        125.3,
        37.4
       ],
       [
        125.95,
        36.7
       ],
       [
        125.8,
        36.5
       ],
       [
        125.5,
        35
       ],
       [
        125.8,
        34.2
       ],
       [
        126.8,
        34
       ],
       [
        127.8,
        34.4
       ],
       [
        128.1,
        34.4
       ],
       [
        128.5,
        34.5
       ],
       [
        129.4,
        35
       ],
       [
        129.8,
        35.8
       ],
       [
        132.2,
        37
       ],
       [
        132.2,
        37.8
       ],
       [
        130,
        37.6
       ],
       [
        129.7,
        37
       ],
       [
        129.2,
        38
       ],
       [
        128.5,
        39.2
       ],
       [
        127.9976,
        39.2718
       ],
       [
        128.1,
        39.05
       ],
       [
        127.55,
        38.95
       ],
       [
        127.3,
        39.2
       ],
       [
        127,
        39.6
       ],
       [
        127,
        39.95
       ],
       [
        126.3,
        40.2
       ],
       [
        125.4,
        40.35
       ],
       [
        124.4,
        40
       ],
       [
        124,
        39.6
       ]
      ]
     ],
     [
      [
       [
        125.9,
        32.9
       ],
       [
        127.2,
        32.9
       ],
       [
        127.2,
        33.7
       ],
       [
        125.9,
        33.7
       ],
       [
        125.9,
        32.9
       ]
      ]
     ],
     [
      [
       [
        127.8,
        39.7
       ],
       [
        127.8774,
        39.5323
       ],
       [
        127.9,
        39.6
       ],
       [
        127.8,
        39.7
       ]
      ]
     ]
    ]
   }
  },
  {
   "type": "Feature",
   "properties": {
    "entityId": "goryeo",
    "from": 1270,
    "to": 1273,
    "certainty": "estimated",
    "source": "중고등학교 한국사 교과서 시대별 지도의 일반적인 경계를 따른 대략적인 추정. 운영자 검수 필요"
   },
   "geometry": {
    "type": "MultiPolygon",
    "coordinates": [
     [
      [
       [
        124.3018,
        38.3855
       ],
       [
        124.4,
        37.6
       ],
       [
        125.3,
        37.4
       ],
       [
        125.95,
        36.7
       ],
       [
        125.8,
        36.5
       ],
       [
        125.5,
        35
       ],
       [
        125.8,
        34.2
       ],
       [
        126.8,
        34
       ],
       [
        127.8,
        34.4
       ],
       [
        128.1,
        34.4
       ],
       [
        128.5,
        34.5
       ],
       [
        129.4,
        35
       ],
       [
        129.8,
        35.8
       ],
       [
        132.2,
        37
       ],
       [
        132.2,
        37.8
       ],
       [
        130,
        37.6
       ],
       [
        129.7,
        37
       ],
       [
        129.2,
        38
       ],
       [
        128.5,
        39.2
       ],
       [
        127.9976,
        39.2718
       ],
       [
        128.1,
        39.05
       ],
       [
        127.55,
        38.95
       ],
       [
        127.3,
        39.2
       ],
       [
        127,
        39.6
       ],
       [
        127,
        39.3
       ],
       [
        126.6,
        38.8
       ],
       [
        126.1,
        38.55
       ],
       [
        125.5,
        38.45
       ],
       [
        124.9,
        38.3
       ],
       [
        124.3018,
        38.3855
       ]
      ]
     ],
     [
      [
       [
        125.9,
        32.9
       ],
       [
        127.2,
        32.9
       ],
       [
        127.2,
        33.7
       ],
       [
        125.9,
        33.7
       ],
       [
        125.9,
        32.9
       ]
      ]
     ],
     [
      [
       [
        127.8,
        39.7
       ],
       [
        127.8774,
        39.5323
       ],
       [
        127.9,
        39.6
       ],
       [
        127.8,
        39.7
       ]
      ]
     ]
    ]
   }
  },
  {
   "type": "Feature",
   "properties": {
    "entityId": "goryeo",
    "from": 1273,
    "to": 1290,
    "certainty": "estimated",
    "source": "중고등학교 한국사 교과서 시대별 지도의 일반적인 경계를 따른 대략적인 추정. 운영자 검수 필요"
   },
   "geometry": {
    "type": "MultiPolygon",
    "coordinates": [
     [
      [
       [
        124.3018,
        38.3855
       ],
       [
        124.4,
        37.6
       ],
       [
        125.3,
        37.4
       ],
       [
        125.95,
        36.7
       ],
       [
        125.8,
        36.5
       ],
       [
        125.5,
        35
       ],
       [
        125.8,
        34.2
       ],
       [
        126.8,
        34
       ],
       [
        127.8,
        34.4
       ],
       [
        128.1,
        34.4
       ],
       [
        128.5,
        34.5
       ],
       [
        129.4,
        35
       ],
       [
        129.8,
        35.8
       ],
       [
        132.2,
        37
       ],
       [
        132.2,
        37.8
       ],
       [
        130,
        37.6
       ],
       [
        129.7,
        37
       ],
       [
        129.2,
        38
       ],
       [
        128.5,
        39.2
       ],
       [
        127.9976,
        39.2718
       ],
       [
        128.1,
        39.05
       ],
       [
        127.55,
        38.95
       ],
       [
        127.3,
        39.2
       ],
       [
        127,
        39.6
       ],
       [
        127,
        39.3
       ],
       [
        126.6,
        38.8
       ],
       [
        126.1,
        38.55
       ],
       [
        125.5,
        38.45
       ],
       [
        124.9,
        38.3
       ],
       [
        124.3018,
        38.3855
       ]
      ]
     ],
     [
      [
       [
        127.8,
        39.7
       ],
       [
        127.8774,
        39.5323
       ],
       [
        127.9,
        39.6
       ],
       [
        127.8,
        39.7
       ]
      ]
     ]
    ]
   }
  },
  {
   "type": "Feature",
   "properties": {
    "entityId": "goryeo",
    "from": 1290,
    "to": 1294,
    "certainty": "estimated",
    "source": "중고등학교 한국사 교과서 시대별 지도의 일반적인 경계를 따른 대략적인 추정. 운영자 검수 필요"
   },
   "geometry": {
    "type": "MultiPolygon",
    "coordinates": [
     [
      [
       [
        124,
        39.6
       ],
       [
        124.9,
        39.4
       ],
       [
        124.5,
        39
       ],
       [
        124.6,
        38.6
       ],
       [
        124.3,
        38.4
       ],
       [
        124.4,
        37.6
       ],
       [
        125.3,
        37.4
       ],
       [
        125.95,
        36.7
       ],
       [
        125.8,
        36.5
       ],
       [
        125.5,
        35
       ],
       [
        125.8,
        34.2
       ],
       [
        126.8,
        34
       ],
       [
        127.8,
        34.4
       ],
       [
        128.1,
        34.4
       ],
       [
        128.5,
        34.5
       ],
       [
        129.4,
        35
       ],
       [
        129.8,
        35.8
       ],
       [
        132.2,
        37
       ],
       [
        132.2,
        37.8
       ],
       [
        130,
        37.6
       ],
       [
        129.7,
        37
       ],
       [
        129.2,
        38
       ],
       [
        128.5,
        39.2
       ],
       [
        127.9976,
        39.2718
       ],
       [
        128.1,
        39.05
       ],
       [
        127.55,
        38.95
       ],
       [
        127.3,
        39.2
       ],
       [
        127,
        39.6
       ],
       [
        127,
        39.95
       ],
       [
        126.3,
        40.2
       ],
       [
        125.4,
        40.35
       ],
       [
        124.4,
        40
       ],
       [
        124,
        39.6
       ]
      ]
     ],
     [
      [
       [
        127.8,
        39.7
       ],
       [
        127.8774,
        39.5323
       ],
       [
        127.9,
        39.6
       ],
       [
        127.8,
        39.7
       ]
      ]
     ]
    ]
   }
  },
  {
   "type": "Feature",
   "properties": {
    "entityId": "goryeo",
    "from": 1294,
    "to": 1356,
    "certainty": "estimated",
    "source": "중고등학교 한국사 교과서 시대별 지도의 일반적인 경계를 따른 대략적인 추정. 운영자 검수 필요"
   },
   "geometry": {
    "type": "MultiPolygon",
    "coordinates": [
     [
      [
       [
        124,
        39.6
       ],
       [
        124.9,
        39.4
       ],
       [
        124.5,
        39
       ],
       [
        124.6,
        38.6
       ],
       [
        124.3,
        38.4
       ],
       [
        124.4,
        37.6
       ],
       [
        125.3,
        37.4
       ],
       [
        125.95,
        36.7
       ],
       [
        125.8,
        36.5
       ],
       [
        125.5,
        35
       ],
       [
        125.8,
        34.2
       ],
       [
        126.8,
        34
       ],
       [
        127.8,
        34.4
       ],
       [
        128.1,
        34.4
       ],
       [
        128.5,
        34.5
       ],
       [
        129.4,
        35
       ],
       [
        129.8,
        35.8
       ],
       [
        132.2,
        37
       ],
       [
        132.2,
        37.8
       ],
       [
        130,
        37.6
       ],
       [
        129.7,
        37
       ],
       [
        129.2,
        38
       ],
       [
        128.5,
        39.2
       ],
       [
        127.9976,
        39.2718
       ],
       [
        128.1,
        39.05
       ],
       [
        127.55,
        38.95
       ],
       [
        127.3,
        39.2
       ],
       [
        127,
        39.6
       ],
       [
        127,
        39.95
       ],
       [
        126.3,
        40.2
       ],
       [
        125.4,
        40.35
       ],
       [
        124.4,
        40
       ],
       [
        124,
        39.6
       ]
      ]
     ],
     [
      [
       [
        125.9,
        32.9
       ],
       [
        127.2,
        32.9
       ],
       [
        127.2,
        33.7
       ],
       [
        125.9,
        33.7
       ],
       [
        125.9,
        32.9
       ]
      ]
     ],
     [
      [
       [
        127.8,
        39.7
       ],
       [
        127.8774,
        39.5323
       ],
       [
        127.9,
        39.6
       ],
       [
        127.8,
        39.7
       ]
      ]
     ]
    ]
   }
  },
  {
   "type": "Feature",
   "properties": {
    "entityId": "goryeo",
    "from": 1356,
    "to": 1393,
    "certainty": "estimated",
    "source": "중고등학교 한국사 교과서 시대별 지도의 일반적인 경계를 따른 대략적인 추정. 운영자 검수 필요"
   },
   "geometry": {
    "type": "MultiPolygon",
    "coordinates": [
     [
      [
       [
        124,
        39.6
       ],
       [
        124.9,
        39.4
       ],
       [
        124.5,
        39
       ],
       [
        124.6,
        38.6
       ],
       [
        124.3,
        38.4
       ],
       [
        124.4,
        37.6
       ],
       [
        125.3,
        37.4
       ],
       [
        125.95,
        36.7
       ],
       [
        125.8,
        36.5
       ],
       [
        125.5,
        35
       ],
       [
        125.8,
        34.2
       ],
       [
        126.8,
        34
       ],
       [
        127.8,
        34.4
       ],
       [
        128.1,
        34.4
       ],
       [
        128.5,
        34.5
       ],
       [
        129.4,
        35
       ],
       [
        129.8,
        35.8
       ],
       [
        132.2,
        37
       ],
       [
        132.2,
        37.8
       ],
       [
        130,
        37.6
       ],
       [
        129.7,
        37
       ],
       [
        129.2,
        38
       ],
       [
        128.5,
        39.2
       ],
       [
        127.8,
        39.3
       ],
       [
        127.9,
        39.6
       ],
       [
        127.8,
        39.7
       ],
       [
        129.2,
        40
       ],
       [
        128.2,
        40.6
       ],
       [
        127.3,
        40.8
       ],
       [
        126.5,
        40.9
       ],
       [
        125.5,
        40.6
       ],
       [
        124.4,
        40
       ],
       [
        124,
        39.6
       ]
      ]
     ],
     [
      [
       [
        125.9,
        32.9
       ],
       [
        127.2,
        32.9
       ],
       [
        127.2,
        33.7
       ],
       [
        125.9,
        33.7
       ],
       [
        125.9,
        32.9
       ]
      ]
     ]
    ]
   }
  }
 ]
}
