{"type":"FeatureCollection","features":[
{"type":"Feature","properties":{"entityId":"grand-duchy-of-moscow","from":1526,"to":1547,"certainty":"estimated","source":"유럽 쪽은 Natural Earth 1:10m admin-1(v5.1.2) 현대 행정구역 조각을 그 시기 국경에 맞춰 묶고, 조각이 역사 경계와 다른 곳은 선을 그어 나눈 근사. 유럽 밖(시베리아·중앙아시아·극동)은 대략적인 추정. 운영자 검수 필요"},"geometry":{"type":"MultiPolygon","coordinates":[[[[27.328,57.5832],[27.3529,57.5276],[27.5282,57.5285],[27.5256,57.4684],[27.5113,57.4304],[27.5363,57.4157],[27.6408,57.389],[27.6944,57.3564],[27.708,57.3481],[27.8091,57.3139],[27.8403,57.2906],[27.8461,57.2673],[27.8412,57.2112],[27.8243,57.1591],[27.794,57.1434],[27.701,57.1188],[27.6822,57.1037],[27.6961,57.0855],[27.7455,57.068],[27.7458,57.0315],[27.7234,56.9988],[27.7151,56.9574],[27.6487,56.8793],[27.6284,56.8442],[27.6444,56.8418],[27.6612,56.8393],[27.7441,56.8648],[27.7864,56.8713],[27.8308,56.8643],[27.9135,56.8202],[27.9189,56.8059],[27.8761,56.7594],[27.8655,56.7427],[27.8826,56.7255],[27.981,56.687],[27.9913,56.67],[27.9922,56.625],[27.9923,56.6245],[28.4,56.65],[29,56.55],[29.6,56.4],[30.6,56.1],[31.2,56],[31.24,55.92],[31.3897,55.92],[31.4128,55.8898],[31.4,55.9065],[31.4,55.733],[31.4134,55.7333],[31.3552,55.7319],[31.3256,55.7227],[31.2924,55.7367],[31.2257,55.7275],[31.2118,55.7182],[31.1869,55.7372],[31.0473,55.7685],[31.0366,55.7081],[30.9529,55.6597],[30.9263,55.6025],[30.9071,55.5778],[30.9197,55.5345],[30.8994,55.4991],[30.9194,55.4923],[30.8872,55.4681],[30.8891,55.4334],[30.9186,55.4076],[30.9059,55.376],[30.8456,55.3511],[30.8442,55.35],[30.8112,55.3231],[30.7943,55.2855],[30.8041,55.273],[30.8568,55.2535],[30.8865,55.2045],[30.9598,55.1626],[30.9588,55.1444],[30.984,55.1309],[30.9703,55.1014],[31.0064,55.0424],[31.0056,55.023],[30.9806,55.0187],[30.9132,55.0246],[30.9066,55.0126],[30.9361,54.9732],[30.8995,54.9464],[30.8386,54.9392],[30.8148,54.928],[30.8261,54.8775],[30.7681,54.8299],[30.7706,54.786],[30.8273,54.771],[30.9806,54.7057],[30.999,54.6713],[31.1052,54.6683],[31.1286,54.6404],[31.1679,54.6216],[31.1395,54.5829],[31.0896,54.5359],[31.0646,54.4923],[31.0936,54.4794],[31.1679,54.4671],[31.179,54.4534],[31.209,54.448],[31.2487,54.3768],[31.2848,54.3474],[31.2992,54.2726],[31.3247,54.2292],[31.5064,54.1439],[31.5831,54.1295],[31.6669,54.1019],[31.7258,54.0975],[31.7481,54.0863],[31.7713,54.0485],[31.8139,54.0571],[31.8465,53.9923],[31.8101,53.8826],[31.7538,53.8196],[31.7447,53.7949],[31.7873,53.7944],[31.8732,53.7771],[32.0836,53.8096],[32.106,53.8069],[32.1648,53.7817],[32.2904,53.7609],[32.3718,53.7144],[32.4216,53.7158],[32.4616,53.7068],[32.4878,53.6847],[32.4806,53.6624],[32.3991,53.6354],[32.4115,53.5824],[32.4529,53.5464],[32.5543,53.5108],[32.5768,53.486],[32.6006,53.4924],[32.6503,53.4876],[32.6417,53.469],[32.6582,53.4557],[32.7012,53.4621],[32.7178,53.4311],[32.7044,53.3664],[32.7175,53.3349],[32.6979,53.3259],[32.6499,53.3337],[32.58,53.3244],[32.5959,53.3083],[32.5692,53.2988],[32.4548,53.3004],[32.456,53.2778],[32.4791,53.2749],[32.4557,53.2367],[32.4055,53.1927],[32.3528,53.1805],[32.268,53.1248],[32.2157,53.1255],[32.2059,53.1004],[32.1523,53.0963],[32.1173,53.0811],[32.0828,53.082],[32.0099,53.1],[31.9547,53.09],[31.9072,53.0919],[31.8555,53.1102],[31.7963,53.1124],[31.7805,53.1279],[31.7697,53.1693],[31.7386,53.1925],[31.6749,53.1952],[31.614,53.2098],[31.5359,53.1949],[31.4164,53.2],[31.3785,53.182],[31.3616,53.12],[31.3541,53.0821],[31.3192,53.0764],[31.2471,53.0144],[31.3226,52.9771],[31.3662,52.9086],[31.3879,52.888],[31.451,52.8572],[31.5051,52.8489],[31.5239,52.8117],[31.5608,52.7871],[31.5702,52.7253],[31.5479,52.7057],[31.4806,52.6825],[31.5361,52.6305],[31.579,52.5778],[31.6286,52.5481],[31.6108,52.536],[31.5593,52.5405],[31.5759,52.5247],[31.553,52.5022],[31.5879,52.4826],[31.5829,52.4028],[31.6081,52.3725],[31.5923,52.3286],[31.5674,52.3114],[31.6314,52.2648],[31.6994,52.2515],[31.6795,52.2159],[31.6987,52.1854],[31.749,52.1639],[31.7626,52.1498],[31.7643,52.1006],[31.6499,52.0968],[31.4749,52.1178],[31.3831,52.1175],[31.3044,52.0975],[31.2524,52.0445],[31.2049,52.0439],[31.1348,52.0767],[31.0963,52.0796],[30.9593,52.0747],[30.9188,52.0592],[30.9113,52.0226],[30.9405,52.0201],[30.9412,51.9938],[30.9028,52],[30.858,51.9576],[30.8031,51.9391],[30.8106,51.9184],[30.7795,51.8979],[30.7497,51.8996],[30.7345,51.8737],[30.714,51.867],[30.662,51.8194],[30.6706,51.7905],[30.6182,51.7613],[30.6462,51.7545],[30.6306,51.7156],[30.6138,51.7029],[30.5703,51.6999],[30.5703,51.6515],[30.5566,51.6236],[30.5507,51.6208],[30.75,51.45],[31.1,51.3],[31.6,51.15],[32.2,51.1],[32.8,51.1],[33.0082,51.0792],[33.0322,51.0768],[33.0524,51.0748],[33.8,51],[33.929,50.9613],[34.05,50.8],[34.3,50.6],[34.6,50.35],[34.7925,50.1575],[34.8143,50.1596],[34.9082,50.146],[34.9573,50.1669],[34.9794,50.192],[35.0159,50.1721],[35.0339,50.1747],[35.0376,50.1985],[35.0672,50.215],[35.0887,50.2071],[35.1354,50.245],[35.1947,50.2323],[35.2547,50.2442],[35.2526,50.2689],[35.269,50.2783],[35.3089,50.2764],[35.3292,50.3047],[35.3804,50.2922],[35.4029,50.3337],[35.4938,50.3022],[35.4957,50.3189],[35.5618,50.3189],[35.5955,50.3259],[35.671,50.3199],[35.6922,50.3442],[35.6316,50.345],[35.5702,50.3765],[35.5547,50.4333],[35.5227,50.4595],[35.4464,50.476],[35.4253,50.5005],[35.3777,50.6218],[35.3916,50.6464],[35.4689,50.6685],[35.4454,50.6875],[35.4471,50.7343],[35.4385,50.7624],[35.3791,50.7972],[35.3777,50.8337],[35.3414,50.8765],[35.3417,50.9159],[35.2936,50.9376],[35.2822,50.9611],[35.401,50.9533],[35.4494,50.963],[35.5124,50.9471],[35.5042,50.9182],[35.5464,50.9057],[35.5923,50.9211],[35.6129,50.9393],[35.6331,50.924],[35.6772,50.9193],[35.7176,50.9376],[35.7212,50.9672],[35.7457,50.9671],[35.7668,50.9482],[35.8042,50.9382],[35.8556,50.9794],[35.8769,51.0124],[35.9149,51.011],[35.9542,51.0455],[35.9996,51.0577],[35.9525,51.0922],[35.9397,51.1161],[35.9763,51.1575],[36.0406,51.1603],[36.0986,51.1296],[36.2075,51.1251],[36.2443,51.1063],[36.3136,51.1033],[36.3591,51.1258],[36.4037,51.1179],[36.4762,51.0863],[36.4999,51.122],[36.5996,51.0795],[36.6175,51.0798],[36.6526,51.1089],[36.6887,51.1274],[36.8558,51.1858],[36.9302,51.181],[36.9896,51.2004],[37.054,51.2469],[37.0849,51.2504],[37.0984,51.2299],[37.1304,51.2428],[37.1187,51.3015],[37.1442,51.3429],[37.1894,51.3288],[37.2491,51.331],[37.3417,51.3644],[37.3616,51.3844],[37.447,51.3723],[37.4628,51.381],[37.5386,51.3943],[37.581,51.3708],[37.6667,51.3657],[37.7593,51.3885],[37.8286,51.4205],[37.8777,51.4009],[37.9,51.4007],[37.9319,51.4197],[38.0465,51.4197],[38.0518,51.3909],[38.0273,51.3662],[38.1551,51.3293],[38.2011,51.3067],[38.2915,51.2925],[38.3122,51.3094],[38.3234,51.3408],[38.3511,51.3629],[38.3448,51.3731],[38.3012,51.3626],[38.2729,51.4529],[38.2848,51.4739],[38.2693,51.4988],[38.2764,51.5264],[38.221,51.5543],[38.1888,51.587],[38.1402,51.6207],[38.1492,51.6444],[38.2189,51.6318],[38.2015,51.685],[38.2195,51.7078],[38.3396,51.6889],[38.4098,51.6878],[38.5051,51.7319],[38.4751,51.7448],[38.4141,51.7545],[38.3875,51.7851],[38.4264,51.8146],[38.4135,51.854],[38.4098,51.9202],[38.362,51.9301],[38.3039,51.9151],[38.2988,51.961],[38.3848,52.0001],[38.5288,52.0238],[38.5515,52.0326],[38.5751,52.0633],[38.6222,52.0549],[38.6618,52.0721],[38.6806,52.0978],[38.6976,52.0978],[38.7156,52.0706],[38.762,52.0524],[38.7929,52.0859],[38.823,52.0976],[38.8799,52.0925],[38.9297,52.0605],[38.9944,52.0007],[39.0359,51.9883],[39.0977,52.0066],[39.0974,52.0395],[39.13,52.0683],[39.1628,52.0562],[39.1823,52.0982],[39.2822,52.1046],[39.3571,52.0849],[39.4471,52.0822],[39.4905,52.0563],[39.5122,52.0271],[39.4966,51.9727],[39.5967,51.9488],[39.6638,51.9406],[39.7381,51.9245],[39.8341,51.9202],[39.8801,51.9527],[39.8847,51.9717],[39.913,51.9798],[40.0206,51.9539],[40.0451,51.9569],[40.0876,51.985],[40.1224,51.9924],[40.1386,51.9721],[40.2946,51.9564],[40.3668,51.9622],[40.5038,51.9535],[40.5167,51.9831],[40.5068,52.0219],[40.5341,52.0439],[40.6017,52.051],[40.632,52.0665],[40.6131,52.1044],[40.6158,52.1292],[40.6495,52.1676],[40.6577,52.196],[40.6988,52.2192],[40.6969,52.2696],[40.6786,52.2926],[40.6266,52.3165],[40.5755,52.3041],[40.5486,52.3419],[40.4766,52.3738],[40.3668,52.3894],[40.336,52.3991],[40.2852,52.4435],[40.2828,52.4594],[40.2349,52.4841],[40.203,52.5116],[40.0675,52.5605],[40.0423,52.5753],[40.0469,52.5994],[39.9887,52.6228],[39.9531,52.6544],[39.9783,52.6923],[39.9814,52.7177],[39.9526,52.7433],[39.9792,52.7688],[40.031,52.7828],[40.0409,52.8093],[40.0799,52.8042],[40.0947,52.8834],[40.0705,52.9253],[40.085,52.971],[40.1207,52.9829],[40.0931,53.0233],[40.1415,53.0719],[40.1452,53.095],[40.1262,53.145],[40.1066,53.2757],[40.1303,53.3171],[40.1602,53.3422],[40.1902,53.3347],[40.2177,53.3499],[40.2682,53.3516],[40.3055,53.3745],[40.3382,53.3461],[40.3892,53.3454],[40.3808,53.3579],[40.4194,53.3956],[40.4064,53.4453],[40.4234,53.4936],[40.4455,53.4864],[40.4683,53.452],[40.502,53.4611],[40.5927,53.5101],[40.6298,53.5113],[40.6867,53.5647],[40.7384,53.56],[40.7697,53.5302],[40.8034,53.5176],[40.8395,53.4875],[40.8634,53.4797],[40.8818,53.5034],[40.9268,53.5054],[41.0213,53.4895],[41.0452,53.4786],[41.0661,53.443],[41.1363,53.4304],[41.1744,53.4337],[41.2083,53.4726],[41.2434,53.4869],[41.2735,53.5216],[41.3404,53.5413],[41.3537,53.5563],[41.3546,53.6412],[41.3487,53.7411],[41.3617,53.7646],[41.4001,53.7832],[41.5086,53.781],[41.5609,53.8031],[41.6575,53.7825],[41.7087,53.8195],[41.7483,53.8235],[42.0196,53.8202],[42.0639,53.8094],[42.1344,53.8122],[42.2075,53.8222],[42.3077,53.8475],[42.3952,53.9337],[42.4615,53.9594],[42.4374,54.0118],[42.4083,54.028],[42.3526,54.0446],[42.2849,54.0743],[42.2636,54.0945],[42.2967,54.1325],[42.326,54.131],[42.3071,54.1097],[42.3186,54.0989],[42.3772,54.0933],[42.4368,54.1122],[42.4517,54.0958],[42.5072,54.081],[42.5347,54.0827],[42.5622,54.1062],[42.5282,54.1368],[42.5337,54.146],[42.596,54.1765],[42.59,54.1955],[42.5126,54.2204],[42.4628,54.2539],[42.439,54.2602],[42.3966,54.252],[42.3625,54.2013],[42.2728,54.1715],[42.2242,54.1847],[42.1862,54.2619],[42.2441,54.2403],[42.2781,54.2357],[42.3808,54.2639],[42.4338,54.2957],[42.4793,54.3074],[42.509,54.3538],[42.5272,54.3666],[42.6252,54.3734],[42.6367,54.3908],[42.5895,54.4383],[42.5524,54.4353],[42.5434,54.4503],[42.5566,54.4922],[42.5712,54.505],[42.6174,54.4874],[42.6479,54.5006],[42.6485,54.5165],[42.621,54.5432],[42.6649,54.5557],[42.6919,54.5732],[42.6983,54.5937],[42.6489,54.614],[42.6087,54.6511],[42.6427,54.6831],[42.6235,54.7151],[42.5682,54.6908],[42.5516,54.6933],[42.5238,54.7225],[42.5029,54.7289],[42.4838,54.7136],[42.4193,54.7363],[42.4275,54.7647],[42.3858,54.7885],[42.3905,54.807],[42.4668,54.8713],[42.5201,54.8365],[42.5408,54.8081],[42.5912,54.7895],[42.6364,54.7867],[42.673,54.8144],[42.716,54.8163],[42.7358,54.7906],[42.7562,54.7874],[42.8185,54.7985],[42.9796,54.8053],[43.0565,54.7847],[43.0977,54.7988],[43.1178,54.8299],[43.1326,54.874],[43.1552,54.9027],[43.2297,54.9308],[43.369,54.9497],[43.4185,54.946],[43.4623,54.9241],[43.5878,54.9079],[43.6105,54.9011],[43.6895,54.8306],[43.7253,54.8199],[43.7825,54.8175],[43.8583,54.8043],[43.9208,54.8106],[43.9627,54.7967],[43.9361,54.7624],[43.9391,54.7419],[44.0038,54.7252],[44.0914,54.7337],[44.1096,54.7258],[44.0885,54.6829],[44.1072,54.6458],[44.2041,54.623],[44.244,54.6079],[44.2939,54.6047],[44.3764,54.5898],[44.4278,54.5432],[44.4498,54.5355],[44.5398,54.5304],[44.5662,54.5426],[44.5974,54.5796],[44.6383,54.5794],[44.6698,54.5498],[44.6642,54.5272],[44.601,54.4872],[44.615,54.4719],[44.7395,54.5157],[44.7964,54.5184],[44.8593,54.4867],[44.9172,54.4762],[45.0165,54.4905],[45.1136,54.4939],[45.1465,54.52],[45.0882,54.5566],[45.0294,54.5681],[45.0468,54.5888],[45.0505,54.6261],[45.0914,54.6589],[45.0456,54.6959],[45.0411,54.7144],[45.0594,54.7562],[45.1241,54.7962],[45.1715,54.7923],[45.1814,54.7525],[45.2086,54.7572],[45.2387,54.8163],[45.2451,54.8521],[45.2662,54.8728],[45.3751,54.8829],[45.4107,54.8758],[45.433,54.9075],[45.4141,54.9206],[45.4282,54.9479],[45.4235,54.9693],[45.4391,55.0332],[45.4899,55.0927],[45.5747,55.0886],[45.5546,55.12],[45.5899,55.1361],[45.6047,55.1638],[45.7103,55.1768],[45.7351,55.1722],[45.74,55.1407],[45.7774,55.1244],[45.7812,55.1078],[45.7477,55.1007],[45.7404,55.0773],[45.77,55.0384],[45.7082,55.0125],[45.6849,54.9879],[45.7226,54.9698],[45.8153,54.9997],[45.8661,55.0055],[45.9254,54.9929],[45.9541,54.9966],[46.0276,55.0208],[46.0557,55.0421],[46.0818,55.0647],[46.0652,55.1022],[46.0653,55.1462],[46.0979,55.2042],[46.125,55.2205],[46.1673,55.2266],[46.2266,55.2653],[46.208,55.321],[46.2202,55.357],[46.2535,55.3854],[46.2968,55.4],[46.3383,55.4023],[46.3841,55.44],[46.3841,55.4631],[46.3247,55.4826],[46.3045,55.5043],[46.2838,55.5031],[46.2438,55.5237],[46.2121,55.5167],[46.1397,55.5238],[46.1102,55.5403],[46.1038,55.5727],[46.0485,55.6167],[46.0126,55.6266],[45.9753,55.6191],[45.9572,55.6326],[45.9201,55.688],[45.9679,55.7427],[46.0013,55.7348],[46.0077,55.7495],[45.9883,55.7768],[46.0167,55.7785],[46.0938,55.808],[46.1004,55.8327],[46.088,55.8597],[46.1341,55.8939],[46.0988,55.9408],[46.1502,55.9735],[46.2008,56.0246],[46.214,56.0498],[46.1564,56.0412],[46.1299,56.0598],[46.0922,56.0564],[46.0953,56.0934],[46.0674,56.1092],[46.0795,56.136],[46.0677,56.1819],[46.0264,56.1798],[45.91,56.2338],[45.8738,56.2588],[45.88,56.3077],[45.9354,56.316],[45.9461,56.325],[45.9224,56.3803],[45.9486,56.4082],[45.949,56.4332],[45.876,56.4402],[45.7887,56.4248],[45.7609,56.4606],[45.6627,56.4609],[45.6299,56.5148],[45.6498,56.5455],[45.6385,56.5711],[45.651,56.5908],[45.6951,56.6016],[45.7392,56.6256],[45.8589,56.6291],[45.9218,56.6523],[45.9276,56.6629],[45.896,56.6897],[45.9127,56.7363],[45.9145,56.792],[45.9381,56.8227],[45.9586,56.8721],[46.0382,56.8696],[46.095,56.8812],[46.2199,56.8932],[46.268,56.9047],[46.3127,56.907],[46.3188,56.9436],[46.336,56.9521],[46.5129,56.9401],[46.5342,56.9198],[46.5585,56.9286],[46.601,56.92],[46.6627,56.9391],[46.6682,56.965],[46.7149,56.9663],[46.7331,56.9543],[46.7053,56.9476],[46.7269,56.937],[46.8229,56.9304],[46.9507,56.9446],[47.0256,56.9218],[47.0847,56.9313],[47.161,56.9012],[47.1649,56.8485],[47.1286,56.8359],[47.1741,56.8141],[47.2037,56.8329],[47.254,56.8338],[47.3813,56.8551],[47.4276,56.8773],[47.4588,56.8733],[47.493,56.8526],[47.5218,56.9063],[47.5607,56.9201],[47.615,56.9735],[47.6914,57.0105],[47.7434,57.0063],[47.7598,57.0131],[47.7301,57.0425],[47.7699,57.0601],[47.8177,57.0342],[47.822,57.0123],[47.8467,56.9976],[47.9155,56.9817],[47.9223,57.0006],[47.9468,57.0003],[47.9652,56.9778],[47.9935,57.0122],[48.0324,56.9985],[48.1172,56.998],[48.2023,57.0281],[48.2001,57.0466],[48.1634,57.0696],[48.173,57.078],[48.2269,57.083],[48.2398,57.1092],[48.1954,57.1204],[48.2618,57.1425],[48.293,57.1633],[48.3533,57.1558],[48.3796,57.1303],[48.4514,57.1283],[48.5287,57.1619],[48.5694,57.1724],[48.5965,57.1605],[48.6622,57.1565],[48.6938,57.1748],[48.8223,57.1635],[48.8614,57.1209],[48.8455,57.0938],[48.8656,57.085],[48.9452,57.0843],[48.9606,57.0893],[48.9947,57.1288],[49.0067,57.1813],[49.0435,57.2042],[49.0448,57.2181],[49.0117,57.2294],[49.0126,57.2771],[49.0348,57.2882],[49.1849,57.3301],[49.213,57.2915],[49.1835,57.2477],[49.1794,57.2094],[49.1463,57.1857],[49.1497,57.1502],[49.2171,57.1316],[49.2296,57.0883],[49.2638,57.0483],[49.285,57.0391],[49.3761,57.0336],[49.4109,57.0254],[49.4281,57.0514],[49.5024,57.0546],[49.5291,57.0726],[49.6998,57.0734],[49.7231,56.9985],[49.7594,56.965],[49.7271,56.9416],[49.7418,56.8995],[49.7804,56.8906],[49.8547,56.8945],[49.9772,56.862],[50.0169,56.8637],[50.0655,56.8317],[50.0673,56.7966],[50.1013,56.7924],[50.1031,56.7536],[50.0801,56.7144],[50.0797,56.6446],[50.072,56.6227],[50.1493,56.6168],[50.1706,56.6248],[50.1862,56.6544],[50.2316,56.661],[50.2613,56.6449],[50.2973,56.6406],[50.3199,56.6538],[50.3047,56.6702],[50.3496,56.6695],[50.4032,56.6358],[50.4143,56.5977],[50.4299,56.5894],[50.466,56.6189],[50.4887,56.6131],[50.4517,56.5567],[50.4557,56.5422],[50.4974,56.511],[50.5062,56.4712],[50.5696,56.4024],[50.6244,56.3995],[50.6188,56.3827],[50.5861,56.3665],[50.6206,56.3518],[50.7056,56.3299],[50.7473,56.3355],[50.7792,56.3579],[50.7641,56.394],[50.785,56.4068],[50.8512,56.3903],[50.8727,56.3642],[50.8714,56.3317],[50.9078,56.296],[50.8918,56.2787],[50.8636,56.2764],[50.8372,56.2484],[50.8566,56.232],[50.9488,56.2074],[51.0158,56.1608],[51.0784,56.129],[51.1235,56.1479],[51.1932,56.1408],[51.2244,56.0999],[51.2731,56.0969],[51.3211,56.0755],[51.3351,56.1184],[51.4365,56.1444],[51.4295,56.1839],[51.4637,56.2124],[51.4421,56.2309],[51.4052,56.2234],[51.3753,56.2343],[51.4053,56.2576],[51.4204,56.2836],[51.3728,56.2997],[51.3199,56.3291],[51.3226,56.3719],[51.2975,56.396],[51.299,56.4255],[51.2728,56.4399],[51.2019,56.4394],[51.1542,56.4723],[51.1379,56.5001],[51.1453,56.5147],[51.1898,56.5238],[51.1725,56.562],[51.1907,56.6615],[51.2057,56.6703],[51.2632,56.6691],[51.3786,56.6799],[51.3946,56.6901],[51.405,56.7256],[51.4003,56.7671],[51.4529,56.7887],[51.5297,56.8656],[51.5405,56.883],[51.3589,56.9273],[51.3249,56.9467],[51.3149,56.9722],[51.3255,57.0015],[51.2275,57.0675],[51.216,57.1043],[51.2412,57.1324],[51.2363,57.1448],[51.1901,57.1557],[51.1936,57.1945],[51.1694,57.2176],[51.1607,57.2437],[51.1204,57.2655],[51.1156,57.3051],[51.1359,57.3771],[51.1814,57.4466],[51.2363,57.4626],[51.2932,57.4564],[51.3972,57.4781],[51.533,57.4699],[51.576,57.4434],[51.6009,57.457],[51.6,57.5005],[51.6401,57.5444],[51.6868,57.533],[51.7481,57.5462],[51.7541,57.5761],[51.8234,57.6052],[51.8621,57.6473],[51.8732,57.6785],[51.8716,57.7244],[51.9205,57.7465],[51.9239,57.8169],[51.9141,57.8284],[51.8518,57.8425],[51.8375,57.8579],[51.8449,57.9105],[51.8682,57.9317],[51.8896,57.9744],[51.8846,57.9864],[51.8244,58.0114],[51.7933,58.043],[51.8215,58.0849],[51.7918,58.1265],[51.7665,58.1415],[51.7133,58.136],[51.6735,58.1661],[51.681,58.189],[51.716,58.2136],[51.7423,58.2534],[51.7915,58.2811],[51.7961,58.3613],[51.8272,58.3724],[51.971,58.4641],[52.0097,58.472],[52.1182,58.4746],[52.1672,58.4896],[52.2731,58.4754],[52.3287,58.4503],[52.4406,58.438],[52.8701,58.4106],[52.9001,58.5121],[52.9213,58.5343],[53.0244,58.5257],[53.0666,58.5419],[53.13,58.5371],[53.1367,58.5004],[53.1575,58.4838],[53.1651,58.4562],[53.2039,58.4465],[53.2139,58.4288],[53.2924,58.4114],[53.3125,58.3925],[53.3395,58.3886],[53.3893,58.4012],[53.4199,58.4216],[53.4984,58.4503],[53.6375,58.4348],[53.7846,58.4399],[53.7856,58.4024],[53.8752,58.3336],[53.886,58.3191],[53.845,58.281],[53.8102,58.2281],[53.879,58.1945],[53.929,58.1394],[53.9414,58.0985],[53.9903,58.054],[54.0872,57.9942],[54.0994,57.9717],[54.0869,57.9253],[54.0994,57.8881],[54.1365,57.8294],[54.1334,57.791],[54.1563,57.7062],[54.0828,57.6822],[54.0762,57.666],[54.091,57.6339],[54.1176,57.6228],[54.096,57.6074],[53.9978,57.5871],[53.9951,57.5686],[54.042,57.5588],[54.0395,57.5308],[54.099,57.5213],[54.1203,57.5581],[54.1684,57.5589],[54.1989,57.5351],[54.1689,57.5085],[54.181,57.4658],[54.2636,57.464],[54.2732,57.433],[54.2423,57.4123],[54.1574,57.3922],[54.1424,57.3748],[54.1192,57.3093],[54.1582,57.3143],[54.2178,57.3045],[54.2813,57.3021],[54.3143,57.2905],[54.325,57.2691],[54.3135,57.2438],[54.3272,57.2102],[54.3261,57.1605],[54.3126,57.1231],[54.281,57.1147],[54.2947,57.0836],[54.3729,57.0734],[54.3998,57.0429],[54.3728,57.0189],[54.3411,57.0119],[54.2066,57.009],[54.1752,57.0032],[54.0986,56.9659],[54.0875,56.936],[54.0952,56.8971],[54.0871,56.8252],[54.0952,56.7978],[54.0884,56.7712],[53.9959,56.7361],[53.9495,56.7397],[53.9171,56.7774],[53.8719,56.8068],[53.8217,56.7995],[53.8198,56.7831],[53.8601,56.7314],[53.8716,56.7054],[53.8693,56.6714],[53.8446,56.6381],[53.8609,56.6205],[53.947,56.6252],[54.0155,56.6843],[54.0838,56.6637],[54.0901,56.6356],[54.0411,56.5925],[54.0826,56.5808],[54.1024,56.5484],[54.1343,56.5356],[54.1683,56.5345],[54.1906,56.5131],[54.2204,56.4583],[54.245,56.4319],[54.305,56.458],[54.3286,56.4429],[54.3525,56.3585],[54.3896,56.3606],[54.4197,56.3376],[54.4448,56.3808],[54.4754,56.4164],[54.5316,56.5149],[54.5592,56.5384],[54.5904,56.5299],[54.613,56.5109],[54.6573,56.4983],[54.7241,56.4492],[54.7585,56.4342],[54.8557,56.4051],[54.9182,56.392],[54.9502,56.3633],[54.9471,56.3364],[54.9684,56.3204],[55.1033,56.344],[55.1337,56.3436],[55.1724,56.3178],[55.1876,56.3455],[55.2162,56.3637],[55.2523,56.3364],[55.3159,56.3299],[55.4122,56.3346],[55.4477,56.3407],[55.5159,56.3869],[55.5481,56.3995],[55.6842,56.4197],[55.7563,56.4388],[55.8146,56.4294],[55.8758,56.4367],[55.9136,56.4663],[55.929,56.418],[55.9675,56.3672],[56.0353,56.3289],[56.0733,56.2895],[56.1692,56.2992],[56.1993,56.3081],[56.2558,56.299],[56.2753,56.3051],[56.3226,56.345],[56.3669,56.3541],[56.3706,56.3783],[56.4025,56.3874],[56.4489,56.3741],[56.5285,56.3833],[56.5582,56.3602],[56.5022,56.3196],[56.574,56.2632],[56.6248,56.2602],[56.6383,56.2275],[56.6546,56.2201],[56.7297,56.2241],[56.7449,56.2158],[56.7641,56.1761],[56.8179,56.1527],[56.8641,56.1081],[56.9334,56.1016],[57.0293,56.1328],[57.0435,56.1524],[57.1558,56.1576],[57.2135,56.182],[57.2197,56.1943],[57.1853,56.197],[57.2456,56.2371],[57.2672,56.2725],[57.263,56.2979],[57.2837,56.307],[57.3412,56.3113],[57.4084,56.3291],[57.3763,56.3606],[57.3175,56.3734],[57.34,56.4068],[57.3489,56.4569],[57.3274,56.4812],[57.3729,56.552],[57.3794,56.5793],[57.3543,56.6022],[57.3622,56.6168],[57.4167,56.6437],[57.4158,56.6687],[57.3576,56.6812],[57.3412,56.7065],[57.3094,56.7294],[57.3155,56.753],[57.2879,56.7683],[57.259,56.8107],[57.2187,56.853],[57.323,56.9199],[57.3613,56.9255],[57.4037,56.9172],[57.4328,56.9363],[57.4612,56.9004],[57.5596,56.8883],[57.5906,56.9022],[57.6505,56.9146],[57.6876,56.9387],[57.7492,56.9349],[57.7668,56.9716],[57.8176,56.9666],[57.829,56.9998],[57.869,57.058],[57.9447,57.0634],[57.9883,57.0899],[58.0091,57.0813],[57.9714,57.0577],[58.0302,57.0435],[58.045,57.0567],[58.0663,57.0482],[58.0731,57.0909],[58.0299,57.0994],[58.0264,57.1184],[58.1069,57.123],[58.0316,57.1456],[58.0441,57.1816],[57.9946,57.1878],[57.9946,57.2117],[58.0255,57.2184],[58.0386,57.2365],[58.0096,57.2868],[57.9583,57.2921],[57.9725,57.3123],[57.9404,57.3271],[57.9463,57.3623],[57.9951,57.4773],[57.9967,57.4968],[57.9753,57.5409],[58.0198,57.5652],[58.0435,57.6012],[58.0615,57.6051],[58.0936,57.5641],[58.1165,57.5585],[58.1375,57.5996],[58.1723,57.6339],[58.1528,57.667],[58.1707,57.686],[58.239,57.687],[58.2681,57.6698],[58.3337,57.6846],[58.4365,57.676],[58.4565,57.6536],[58.442,57.6106],[58.4578,57.5876],[58.5232,57.5761],[58.5798,57.5944],[58.6788,57.6511],[58.8298,57.7262],[58.8604,57.7652],[58.8641,57.8272],[58.8335,57.8423],[58.7742,57.84],[58.7558,57.8484],[58.7235,57.9043],[58.6427,57.9473],[58.6046,57.9956],[58.6105,58.0217],[58.6535,58.0436],[58.6681,58.0606],[58.6783,58.1071],[58.7617,58.134],[58.7854,58.1484],[58.8153,58.1861],[58.8685,58.2055],[58.9706,58.1998],[58.9973,58.2033],[59.0452,58.2421],[59.1208,58.2811],[59.2025,58.3046],[59.2781,58.3662],[59.2805,58.4128],[59.2919,58.4204],[59.3827,58.4422],[59.456,58.4928],[59.3886,58.5901],[59.3886,58.6055],[59.4271,58.6678],[59.3876,58.7033],[59.3105,58.6949],[59.2665,58.713],[59.2053,58.7052],[59.1864,58.7107],[59.1729,58.7555],[59.0979,58.7573],[59.0827,58.7693],[59.0661,58.844],[59.0694,58.8954],[59.1477,58.9078],[59.1812,58.953],[59.102,59.0036],[59.0911,59.022],[59.1227,59.0613],[59.1753,59.1465],[59.1653,59.1714],[59.097,59.1782],[59.0035,59.2306],[58.7714,59.2697],[58.6695,59.2932],[58.6405,59.3145],[58.6247,59.349],[58.5477,59.3921],[58.5269,59.433],[58.5084,59.44],[58.3394,59.4521],[58.3109,59.4681],[58.3457,59.506],[58.4031,59.5523],[58.451,59.705],[58.4702,59.7107],[58.5819,59.7158],[58.6751,59.8592],[58.6936,59.8658],[58.7807,59.8574],[58.805,59.8628],[58.8559,59.9322],[58.8787,59.9346],[58.9886,59.9278],[58.9995,59.9313],[58.9589,59.9792],[58.9616,60.0049],[59.0303,60.0287],[59.0514,60.043],[59.0413,60.1047],[59.1007,60.1463],[59.1139,60.2028],[59.1821,60.263],[59.1885,60.2779],[59.1641,60.3269],[59.1685,60.3737],[59.2279,60.4349],[59.2393,60.4802],[59.3208,60.5157],[59.3853,60.5735],[59.3966,60.6401],[59.437,60.7278],[59.4309,60.7574],[59.4677,60.8079],[59.4622,60.8615],[59.471,60.9151],[59.4576,60.953],[59.3997,60.9581],[59.3729,60.9705],[59.3847,61.0417],[59.3425,61.0831],[59.3585,61.1429],[59.3458,61.1607],[59.2839,61.1928],[59.261,61.2222],[59.2576,61.2811],[59.2665,61.3046],[59.2989,61.3303],[59.3172,61.3773],[59.4058,61.4179],[59.4159,61.4404],[59.395,61.4692],[59.4284,61.5069],[59.4113,61.5505],[59.395,61.6156],[59.3445,61.6576],[59.3487,61.6822],[59.3889,61.7442],[59.3761,61.7786],[59.3397,61.8024],[59.3335,61.8259],[59.3451,61.8566],[59.392,61.9087],[59.4585,61.9539],[59.4854,61.9933],[59.4041,62.108],[59.4078,62.1468],[59.4806,62.2402],[59.5074,62.3068],[59.5649,62.335],[59.5962,62.3655],[59.6036,62.39],[59.5896,62.4184],[59.6437,62.5103],[59.6352,62.5225],[59.5265,62.5414],[59.5014,62.5571],[59.4629,62.6138],[59.4412,62.6311],[59.4201,62.6888],[59.3941,62.7314],[59.4046,62.7499],[59.448,62.7718],[59.4585,62.8275],[59.4831,62.8924],[59.4386,62.9369],[59.4052,62.9489],[59.3254,62.9544],[59.2781,62.9702],[59.2376,63.0159],[59.2232,63.0719],[59.2317,63.0891],[59.2916,63.1235],[59.298,63.1377],[59.2671,63.1852],[59.2691,63.2103],[59.2993,63.2316],[59.334,63.2859],[59.3,63.3136],[59.2922,63.3422],[59.349,63.3641],[59.3185,63.3925],[59.3222,63.4034],[59.4213,63.4896],[59.4408,63.5153],[59.4938,63.6105],[59.5052,63.6457],[59.5108,63.7588],[59.5209,63.7905],[59.5684,63.8346],[59.5667,63.9],[59.5844,63.9383],[59.7614,63.9958],[59.8062,64.0528],[59.8381,64.0801],[59.8564,64.1313],[59.8375,64.1525],[59.7784,64.146],[59.7345,64.1534],[59.5884,64.2326],[59.5803,64.2447],[59.5869,64.2898],[59.6246,64.3182],[59.6331,64.3437],[59.6134,64.3733],[59.612,64.4299],[59.5893,64.4671],[59.5073,64.4733],[59.4842,64.4973],[59.5237,64.537],[59.5743,64.5636],[59.6051,64.6126],[59.6345,64.634],[59.6851,64.6481],[59.7041,64.6677],[59.6443,64.713],[59.6378,64.7416],[59.6476,64.7724],[59.6741,64.8021],[59.7499,64.8589],[59.889,64.9013],[60.0276,65.0064],[60.0941,65.0466],[60.1474,65.0648],[60.2201,65.0706],[60.305,65.0714],[60.3875,65.0611],[60.4358,65.0421],[60.4296,65.0185],[60.4708,64.992],[60.6007,64.937],[60.6054,64.9126],[60.6274,64.89],[60.6661,64.903],[60.7291,64.966],[60.7808,65.0006],[60.7932,65.0287],[60.8309,65.0514],[60.9619,65.0461],[61.0028,65.0603],[61.0858,65.1272],[61.1067,65.1608],[61.1476,65.1742],[61.2037,65.1805],[61.2405,65.1919],[61.25,65.2241],[61.3194,65.2668],[61.3158,65.2951],[61.2631,65.3074],[61.2538,65.3194],[61.284,65.3383],[61.3877,65.3805],[61.4181,65.4018],[61.4378,65.4295],[61.4798,65.4626],[61.5106,65.5005],[61.6026,65.5569],[61.6799,65.5742],[61.7375,65.6164],[61.7923,65.6375],[61.8819,65.7018],[62.0185,65.7171],[62.1005,65.7215],[62.5041,65.8309],[62.5232,65.8388],[62.6821,65.8623],[62.7241,65.8608],[62.8386,65.8693],[62.8544,65.8925],[62.8111,65.9226],[62.8075,65.9366],[62.8795,65.974],[62.8721,65.9881],[62.8214,66.0125],[62.8528,66.0407],[62.8702,66.0791],[62.9364,66.1005],[62.967,66.1207],[62.9767,66.157],[63.0215,66.2034],[63.0658,66.2319],[63.1504,66.2645],[63.2642,66.2356],[63.288,66.2353],[63.3066,66.2548],[63.3025,66.2744],[63.2406,66.3131],[63.2415,66.328],[63.282,66.3602],[63.3057,66.4002],[63.3614,66.4216],[63.404,66.4519],[63.4088,66.4737],[63.4397,66.4851],[63.4972,66.469],[63.541,66.4708],[63.6069,66.4909],[63.6549,66.5192],[63.7198,66.5234],[63.8085,66.5472],[63.8504,66.5821],[63.9023,66.5949],[63.9693,66.6463],[64.0089,66.6547],[64.0853,66.6487],[64.1997,66.6636],[64.2793,66.6615],[64.3156,66.6677],[64.3858,66.7121],[64.4351,66.7276],[64.4821,66.7212],[64.5341,66.7279],[64.5377,66.7517],[64.5669,66.7936],[64.587,66.8009],[64.7639,66.8221],[64.8145,66.8352],[64.867,66.8405],[64.9535,66.8707],[64.9992,66.8654],[65.1047,66.8946],[65.1162,66.9083],[65.1038,67.008],[65.0815,67.0256],[65.0898,67.0541],[65.1948,67.0646],[65.2183,67.0867],[65.2077,67.1247],[65.1902,67.145],[65.2443,67.1525],[65.316,67.1937],[65.4222,67.2151],[65.5075,67.2521],[65.5541,67.2676],[65.5786,67.2914],[65.6619,67.3107],[65.708,67.335],[65.678,67.3692],[65.6909,67.3847],[65.7386,67.3908],[65.8049,67.3825],[65.9372,67.3932],[66.0078,67.4159],[66.0887,67.4676],[66.11,67.4888],[66.0884,67.5315],[66.0259,67.5761],[65.836,67.5552],[65.7961,67.5678],[65.8146,67.59],[65.8572,67.6099],[65.8261,67.6232],[65.8312,67.6427],[65.8747,67.6588],[65.9435,67.6627],[66.009,67.6764],[66.081,67.6496],[66.1517,67.6572],[66.2059,67.693],[66.2062,67.7304],[66.147,67.7649],[66.0757,67.777],[66.0224,67.7942],[66.0593,67.8794],[66.0963,67.9136],[66.0831,67.9336],[65.9865,67.9356],[65.923,67.9588],[65.8999,67.9592],[65.8488,67.9379],[65.7801,67.9238],[65.7289,67.9227],[65.5668,67.9339],[65.4366,67.92],[65.3919,67.9467],[65.3437,67.9875],[65.2898,68.0123],[65.3301,68.0847],[65.2964,68.1379],[65.292,68.1822],[65.2727,68.2164],[65.2913,68.257],[65.3229,68.27],[65.352,68.3057],[65.4028,68.3429],[65.4219,68.3868],[65.4805,68.4304],[65.6119,68.4955],[65.6197,68.5252],[65.6543,68.5562],[65.6011,68.5744],[65.547,68.5781],[65.5167,68.5884],[65.452,68.6467],[65.4167,68.6557],[65.383,68.6807],[65.4198,68.6977],[65.3948,68.7303],[65.3492,68.7229],[65.3264,68.73],[65.3443,68.7815],[65.3149,68.8033],[65.2471,68.8089],[65.192,68.8207],[65.1218,68.8069],[65.0645,68.814],[65.015,68.8354],[64.9479,68.8533],[64.9043,68.8714],[64.8618,68.874],[64.8035,68.8908],[64.7658,68.8895],[64.7557,68.8654],[64.7315,68.8562],[64.66,68.8629],[64.6071,68.8616],[64.5541,68.8714],[64.5276,68.8994],[64.5303,68.9127],[64.5804,68.9405],[64.5716,68.9619],[64.514,68.992],[64.5207,69.0178],[64.5451,69.0322],[64.605,69.0446],[64.6866,69.0808],[64.7485,69.131],[64.8095,69.1363],[64.9116,69.1801],[64.99,69.2047],[65.031,69.2494],[65.0379,69.2711],[64.9411,69.268],[64.9268,69.2534],[64.8964,69.2484],[64.911,69.2837],[64.9624,69.2831],[65.0044,69.3041],[64.9141,69.337],[64.8431,69.3543],[64.5938,69.4358],[64.5808,69.439],[64.548,69.4517],[64.4591,69.4688],[64.1906,69.5347],[64.1787,69.5367],[64.1276,69.5501],[63.9869,69.5693],[63.5882,69.637],[63.4105,69.6713],[63.3728,69.6736],[63.3626,69.6753],[62.6318,69.743],[61.7714,69.7639],[61.3344,69.8151],[61.3019,69.8254],[61.2008,69.8307],[61.1537,69.8362],[61.116,69.8613],[61.0907,69.8641],[61.0509,69.8482],[61.0154,69.8524],[61.015,69.8524],[61.0084,69.8521],[60.9266,69.8675],[60.7703,69.8491],[60.7286,69.8327],[60.551,69.851],[60.5506,69.851],[60.5251,69.8349],[60.5156,69.8454],[60.4815,69.8564],[60.4826,69.885],[60.4826,69.8854],[60.4685,69.9072],[60.4759,69.9205],[60.4138,69.9627],[60.3935,69.9614],[60.3926,69.9618],[60.2485,70.0016],[60.0979,70.0651],[60.0569,70.0788],[60.0365,70.0986],[60.0103,70.1041],[59.9757,70.1018],[59.957,70.1093],[59.7707,70.1608],[59.7663,70.1714],[59.7095,70.1777],[59.7,70.1804],[59.6392,70.2023],[59.6282,70.202],[59.5414,70.2437],[59.543,70.2535],[59.5105,70.2722],[59.4815,70.2783],[59.4278,70.3107],[59.3833,70.3296],[59.3518,70.3531],[59.3151,70.3716],[59.1213,70.4317],[59.0963,70.435],[59.0894,70.4374],[59.0498,70.46],[59.0486,70.4601],[59.0236,70.4798],[58.9798,70.4706],[58.9407,70.4556],[58.7973,70.4345],[58.7769,70.4345],[58.7306,70.4182],[58.7494,70.4052],[58.6786,70.3593],[58.6138,70.3506],[58.5871,70.3412],[58.5604,70.3459],[58.5197,70.3476],[58.4946,70.332],[58.5223,70.3311],[58.5442,70.3261],[58.5202,70.3176],[58.4758,70.2698],[58.4676,70.2711],[58.4121,70.2603],[58.4235,70.2396],[58.5015,70.2296],[58.453,70.1955],[58.4958,70.1938],[58.5156,70.1768],[58.5477,70.1787],[58.567,70.1558],[58.5935,70.1384],[58.5492,70.134],[58.6045,70.1129],[58.5705,70.0788],[58.6956,70.0028],[58.8731,69.9381],[58.9522,69.8919],[58.9601,69.8905],[58.9785,69.8791],[59.0222,69.8733],[59.016,69.8597],[59.1091,69.8598],[59.1321,69.8733],[59.0562,69.9019],[59.0822,69.911],[59.1335,69.9197],[59.1543,69.9194],[59.2041,69.9105],[59.2703,69.8885],[59.3049,69.8843],[59.3524,69.8924],[59.3806,69.8902],[59.4572,69.875],[59.4776,69.8635],[59.5232,69.8469],[59.5822,69.7912],[59.5816,69.7828],[59.5469,69.779],[59.5355,69.7597],[59.5801,69.7308],[59.5635,69.715],[59.7695,69.6945],[59.8076,69.6964],[59.8126,69.6958],[59.813,69.6958],[59.8664,69.6966],[59.8794,69.6945],[59.9131,69.6696],[59.9204,69.6877],[59.9557,69.7038],[60.0252,69.7166],[60.1685,69.6944],[60.201,69.6851],[60.2541,69.6894],[60.3209,69.7058],[60.2569,69.6653],[60.2326,69.6648],[60.1856,69.6505],[60.1526,69.6263],[60.1558,69.6013],[60.0286,69.5209],[60.0289,69.5207],[60.0286,69.5205],[60.5525,69.2302],[60.5876,69.1932],[60.5823,69.1496],[60.6211,69.1164],[60.6658,69.1064],[60.7109,69.1063],[60.7422,69.1192],[60.7359,69.1234],[60.7429,69.1246],[60.9104,69.0319],[60.9321,68.986],[60.8134,68.8959],[60.7917,68.8824],[60.7552,68.8664],[60.7356,68.8477],[60.637,68.7865],[60.4894,68.7292],[60.1619,68.6997],[59.9957,68.704],[59.9347,68.7208],[59.911,68.7203],[59.8112,68.6879],[59.7736,68.6682],[59.7627,68.6387],[59.7725,68.6262],[59.8242,68.6087],[59.8701,68.5836],[59.9137,68.5461],[59.9421,68.5102],[59.9242,68.4723],[59.8954,68.4219],[59.8594,68.3959],[59.827,68.3803],[59.7765,68.3664],[59.1959,68.6728],[59.2226,68.6906],[59.2982,68.708],[59.3024,68.7097],[59.3509,68.7018],[59.3984,68.7011],[59.4194,68.7185],[59.4155,68.7667],[59.1064,68.9029],[59.0606,68.9722],[59.0605,68.9735],[59.1252,68.9794],[59.167,68.9887],[59.2175,68.9827],[59.242,68.9888],[59.2029,69.0036],[59.0574,69.0034],[59.057,69.007],[59.0566,69.007],[58.9198,69.0035],[58.9176,69.0032],[58.8788,69.0031],[58.3008,68.9099],[58.2705,68.8937],[58.2713,68.8583],[58.236,68.8336],[58.2175,68.8509],[58.2451,68.8884],[58.1766,68.8892],[58.175,68.8907],[58.1747,68.8906],[58.1746,68.8907],[58.1696,68.889],[57.9779,68.853],[57.9567,68.8455],[57.9499,68.8176],[57.9528,68.8153],[57.7494,68.7462],[57.604,68.7424],[57.5366,68.6883],[57.4736,68.6636],[57.4481,68.6445],[57.4475,68.6437],[57.4438,68.6424],[57.1271,68.5539],[56.9114,68.5678],[56.8107,68.5858],[56.6907,68.6308],[56.6296,68.642],[56.5693,68.6357],[56.5472,68.6209],[56.5166,68.6214],[56.5044,68.6278],[56.357,68.6238],[56.2742,68.625],[56.0797,68.6455],[56.0491,68.6541],[55.9971,68.6605],[55.9526,68.654],[55.8642,68.6224],[55.6762,68.5764],[55.5467,68.5721],[55.4935,68.5743],[55.4337,68.5684],[55.417,68.5678],[55.4121,68.5662],[55.3929,68.5643],[55.2293,68.5244],[55.1947,68.4954],[55.1773,68.4897],[55.1094,68.4824],[55.054,68.4408],[54.9968,68.4392],[54.9367,68.3984],[54.9178,68.3749],[54.8952,68.3238],[54.8561,68.324],[54.8964,68.2967],[54.8625,68.2015],[54.7188,68.1841],[54.5962,68.2527],[54.5633,68.2882],[54.5044,68.3122],[54.4651,68.3042],[54.4001,68.2774],[54.3945,68.2761],[54.3333,68.2722],[54.3386,68.2764],[54.3298,68.3115],[54.3014,68.3163],[54.3389,68.3271],[54.3029,68.3274],[54.2127,68.2911],[54.1982,68.2639],[54.1803,68.263],[54.1824,68.2814],[54.2188,68.3179],[54.1849,68.3205],[54.1502,68.299],[54.1037,68.2589],[54.0993,68.2587],[53.9662,68.2275],[53.9125,68.231],[53.8453,68.236],[53.8084,68.2507],[53.5797,68.2572],[53.756,68.3661],[53.7876,68.3481],[53.8213,68.3497],[53.863,68.3856],[53.9319,68.391],[53.9443,68.406],[53.9269,68.4326],[53.9267,68.4334],[53.9305,68.4354],[53.9304,68.4358],[53.9305,68.4358],[53.9256,68.471],[54.4705,68.808],[54.47,68.808],[54.4703,68.8082],[54.4702,68.8082],[54.4705,68.8084],[54.0088,68.8385],[54.0262,68.8454],[54.0012,68.8668],[53.9577,68.8766],[53.7973,68.8911],[53.7973,68.9076],[53.8729,68.9267],[54.0615,68.941],[54.356,68.959],[54.426,68.9767],[54.4989,68.982],[54.529,68.9785],[54.5569,68.9929],[54.5274,69.01],[54.3477,69.0123],[54.2979,69.0005],[54.2736,69.0005],[54.1861,69.0035],[54.1857,69.0035],[53.8005,68.9965],[53.4117,68.9132],[53.3035,68.8861],[53.25,68.8784],[53.205,68.8614],[53.1063,68.8366],[53.0794,68.8323],[53.039,68.8198],[52.8798,68.7799],[52.8065,68.768],[52.6981,68.7343],[52.6845,68.7309],[52.668,68.7249],[52.4529,68.6581],[52.3762,68.6474],[52.2887,68.6154],[52.2791,68.5978],[52.2993,68.5905],[52.4107,68.5865],[52.4468,68.6027],[52.4527,68.608],[52.494,68.6012],[52.4914,68.5915],[52.5347,68.5759],[52.5398,68.5677],[52.2675,68.5007],[52.1935,68.5034],[52.1412,68.5279],[52.1818,68.5424],[52.2171,68.5848],[52.1771,68.5824],[52.0601,68.5438],[52.0418,68.541],[51.9933,68.5382],[51.6951,68.4889],[51.6077,68.4921],[51.5606,68.4831],[51.5324,68.4544],[51.533,68.4543],[51.4505,68.4329],[51.4461,68.4341],[51.4231,68.4309],[51.3589,68.4091],[51.3345,68.4028],[51.192,68.3806],[51.1253,68.3756],[51.099,68.366],[51.0789,68.3629],[50.8477,68.3513],[50.8472,68.3514],[50.7956,68.3769],[50.7599,68.3714],[50.7253,68.3438],[50.6922,68.333],[50.6418,68.3005],[50.5709,68.2731],[50.4129,68.2188],[50.394,68.2142],[50.3521,68.2078],[50.3096,68.1939],[50.2329,68.1754],[50.2268,68.1732],[50.2005,68.1689],[50.1315,68.1388],[49.9954,68.0896],[49.9727,68.0878],[49.7946,68.0367],[49.7596,68.0228],[49.1892,67.8782],[49.1774,67.8762],[49.1591,67.8706],[49.1565,67.8699],[48.9552,67.8543],[48.8401,67.8699],[48.7654,67.8924],[48.6693,67.9352],[48.6233,67.9438],[48.5859,67.9343],[48.7012,67.8771],[48.6957,67.8751],[48.696,67.8749],[48.6959,67.8749],[48.696,67.8748],[48.6957,67.8747],[48.7641,67.8261],[48.801,67.7955],[48.8054,67.774],[48.7708,67.7419],[48.7778,67.7274],[48.8596,67.7351],[48.8758,67.7274],[48.8399,67.6901],[48.702,67.694],[48.7437,67.7003],[48.7,67.7159],[48.6563,67.7122],[48.5886,67.6886],[48.4369,67.6703],[48.3596,67.6885],[48.3069,67.6903],[48.2557,67.6827],[48.2044,67.6519],[48.151,67.6303],[48.0884,67.6201],[48.0994,67.6395],[48.0523,67.6519],[48.0083,67.6506],[47.8457,67.6009],[47.8146,67.5814],[47.8247,67.5603],[47.8819,67.5177],[47.8821,67.5153],[47.9072,67.4548],[47.8585,67.3844],[47.7931,67.3606],[47.7704,67.3378],[47.7765,67.2962],[47.7792,67.2899],[47.7669,67.2762],[47.756,67.2325],[47.6951,67.2047],[47.7019,67.1718],[47.7345,67.1463],[47.7093,67.0453],[47.6553,66.9758],[47.4969,66.9307],[47.4622,66.9262],[47.4577,66.9272],[47.4098,66.9293],[47.2188,66.8948],[46.8337,66.845],[46.8279,66.845],[46.663,66.8251],[46.5537,66.8196],[46.5064,66.8048],[46.5335,66.827],[46.5989,66.8377],[46.5785,66.8729],[46.489,66.8785],[46.3056,66.8411],[46.2985,66.8422],[46.0825,66.8439],[45.9967,66.8516],[45.9644,66.8665],[45.9337,66.8722],[45.8845,66.8908],[45.7864,66.9636],[45.7847,66.968],[45.7319,67.0101],[45.6368,67.1097],[45.5939,67.1582],[45.589,67.1598],[45.5641,67.1859],[45.5618,67.1864],[45.5569,67.5656],[46.8205,67.6892],[46.8201,67.6896],[46.8205,67.6896],[46.6929,67.8152],[46.6983,67.8165],[46.722,67.8449],[46.7026,67.8917],[46.6875,67.9069],[46.6837,67.9706],[46.5455,68.0525],[46.5475,68.0985],[46.5257,68.1136],[46.4614,68.1118],[46.5199,68.1213],[46.5349,68.1326],[46.4219,68.1914],[46.3516,68.2143],[46.2964,68.2104],[46.2886,68.2134],[46.2517,68.2498],[46.2188,68.2536],[46.1581,68.2917],[45.9466,68.4405],[45.9439,68.4462],[45.9367,68.4476],[45.8917,68.4792],[45.5209,68.5469],[45.0781,68.5782],[45.0777,68.5782],[44.1742,68.5417],[44.0484,68.5487],[43.4724,68.6806],[43.4148,68.6823],[43.4144,68.6823],[43.3316,68.6737],[43.3318,68.6733],[43.3316,68.6733],[43.3358,68.6669],[43.3172,68.6666],[43.2737,68.6582],[43.3257,68.6137],[43.4542,68.571],[43.454,68.571],[44.1547,67.9783],[44.138,67.9753],[44.1245,67.9343],[44.1486,67.9252],[44.1706,67.9285],[44.1413,67.8927],[44.0972,67.8927],[44.0874,67.8851],[44.0869,67.8415],[44.0943,67.8353],[43.6988,67.3528],[43.699,67.3527],[43.6988,67.3524],[43.7748,67.2979],[43.7667,67.2777],[43.7614,67.2211],[43.8153,67.1775],[43.9169,67.161],[43.9627,67.1634],[44.4353,66.8247],[44.4358,66.8147],[44.3766,66.8049],[44.364,66.7823],[44.3809,66.7639],[44.4346,66.7335],[44.4515,66.701],[44.4716,66.6872],[44.4363,66.6454],[44.4304,66.6439],[44.3948,66.6218],[44.3856,66.6022],[44.3816,66.5805],[44.2926,66.4751],[44.2449,66.4539],[44.2142,66.4081],[44.1659,66.373],[44.1239,66.3151],[44.0964,66.2619],[44.0869,66.2311],[43.9853,66.1106],[43.9468,66.1401],[43.8918,66.1585],[43.8364,66.1858],[43.7593,66.1774],[43.7146,66.1862],[43.6716,66.1741],[43.6715,66.174],[43.5946,66.2027],[43.6654,66.2177],[43.6926,66.2372],[43.6829,66.2653],[43.6548,66.2849],[43.5553,66.3236],[43.5334,66.3268],[43.3431,66.3831],[43.325,66.41],[43.3021,66.426],[43.2522,66.4368],[43.1268,66.4235],[43.0051,66.4203],[43.004,66.4203],[43.0016,66.4202],[42.9914,66.4199],[42.6512,66.4412],[42.6448,66.4525],[42.3652,66.5112],[42.2009,66.5322],[42.1559,66.5264],[42.1199,66.5048],[42.0856,66.4728],[40.987,66.0114],[40.832,65.9943],[40.7959,65.9917],[40.7841,65.989],[40.7756,65.9881],[40.7609,65.9838],[40.7101,65.9723],[40.6961,65.9648],[40.6928,65.9638],[40.6866,65.9597],[40.6362,65.9326],[40.533,65.8575],[40.5128,65.844],[40.3292,65.752],[40.0392,65.6643],[39.9797,65.6562],[39.8269,65.607],[39.7493,65.5521],[39.7303,65.5244],[39.7109,65.4697],[39.7121,65.4018],[39.7409,65.3565],[39.7809,65.3225],[39.8722,65.2769],[39.8876,65.264],[39.8972,65.2551],[39.9154,65.2407],[40.114,65.0747],[40.1359,65.0623],[40.1493,65.0591],[40.1791,65.0454],[40.4319,64.7703],[40.4114,64.7574],[40.4062,64.7558],[40.352,64.7636],[40.3335,64.7724],[40.2224,64.7839],[40.2128,64.7837],[40.2036,64.785],[40.2032,64.785],[40.1816,64.7829],[40.1107,64.7812],[40.0814,64.7732],[40.0592,64.7711],[39.9756,64.7397],[39.9497,64.7419],[39.9437,64.728],[39.9451,64.7282],[39.8861,64.7061],[39.8553,64.6992],[39.8242,64.6798],[39.8427,64.6815],[39.8384,64.6711],[39.8099,64.6593],[39.7933,64.6152],[39.7584,64.5784],[39.7482,64.5765],[39.5664,64.5715],[39.3328,64.6365],[39.3308,64.6397],[39.3183,64.6405],[39.0552,64.7138],[38.6124,64.7867],[38.5444,64.7917],[38.533,64.7946],[38.4432,64.8267],[38.4108,64.8579],[38.4104,64.8579],[38.3028,64.8538],[37.7805,64.9883],[37.5288,65.1079],[37.14,65.1947],[37.05,65.1964],[37.0496,65.1964],[36.884,65.1721],[36.8721,65.1496],[36.82,65.1471],[36.8179,65.1313],[36.8547,65.1167],[36.7868,64.9881],[36.6536,64.936],[36.5352,64.9395],[36.5348,64.9395],[36.5339,64.9284],[36.466,64.9341],[36.44,64.9171],[36.4729,64.8656],[36.4949,64.851],[36.5338,64.8403],[36.5466,64.8261],[36.5042,64.8358],[36.5281,64.7917],[36.5243,64.7842],[36.5168,64.7801],[36.5171,64.7798],[36.5168,64.7797],[36.5206,64.777],[36.5165,64.769],[36.5403,64.7525],[36.5598,64.7174],[36.6034,64.7182],[37.1431,64.3346],[37.0261,63.8979],[36.9939,63.9055],[36.9363,63.9321],[36.8979,63.9203],[36.8019,63.9332],[36.7922,63.9383],[36.7683,63.9401],[36.7618,63.9385],[36.7411,63.9413],[36.6238,63.9802],[36.5549,64.003],[36.5204,64.0145],[36.4859,64.0259],[36.2328,64.1098],[36.2242,64.1118],[36.2222,64.1138],[36.2353,64.1248],[36.1729,64.1631],[36.1464,64.1896],[35.8949,64.2957],[35.8949,64.2958],[35.8601,64.3223],[35.8108,64.342],[35.7254,64.3594],[35.6386,64.3837],[35.5825,64.4113],[35.5657,64.4063],[35.5937,64.3712],[35.4334,64.3475],[35.3196,64.3596],[35.3215,64.3619],[35.28,64.3766],[35.2386,64.3779],[35.034,64.4413],[34.9939,64.4703],[34.9974,64.4719],[35.009,64.4939],[34.9348,64.52],[34.9282,64.5954],[34.9776,64.6119],[34.9734,64.625],[34.9361,64.6366],[34.9234,64.6507],[34.9172,64.7215],[34.9704,64.7276],[35.009,64.7432],[34.9753,64.7705],[34.9297,64.7636],[34.9129,64.77],[34.9082,64.8236],[34.9126,64.8262],[34.9421,64.8576],[34.9041,64.8707],[34.8279,65.7445],[34.9004,65.706],[34.9253,65.7018],[34.9686,65.7277],[34.8936,65.7551],[34.8706,65.7745],[34.8982,65.8097],[34.8936,65.8301],[34.8386,65.8281],[34.8254,65.8432],[34.8662,65.8779],[34.8524,65.9003],[34.812,65.9052],[34.7776,65.9196],[34.7736,65.9188],[34.6805,65.9607],[34.7173,65.9751],[34.7229,65.9878],[34.6668,66.0236],[34.6355,66.0346],[34.6104,66.0577],[34.5702,66.0681],[34.553,66.0937],[34.5373,66.0902],[34.4968,66.1162],[34.3299,66.1646],[34.2908,66.1656],[34.1591,66.2101],[34.1673,66.2212],[34.0873,66.2489],[34.0394,66.2488],[33.6712,66.4142],[33.6847,66.4135],[33.7354,66.426],[33.7046,66.4438],[33.6214,66.4513],[33.5852,66.4602],[33.6336,66.4741],[33.6022,66.5017],[33.5414,66.4726],[33.5038,66.4895],[33.4663,66.5063],[33.4287,66.5232],[33.3912,66.5401],[33.3819,66.5443],[33.4992,66.5229],[33.5368,66.5359],[33.4822,66.5501],[33.4229,66.5922],[33.2596,66.6184],[33.2219,66.6162],[33.2146,66.6195],[33.2048,66.6367],[33.2407,66.6429],[33.3186,66.6293],[33.3088,66.6547],[33.7962,66.739],[33.7973,66.7386],[33.8327,66.6955],[33.8589,66.6935],[33.8694,66.7142],[33.8786,66.711],[33.9287,66.6885],[34.0098,66.6867],[34.0438,66.6935],[34.0636,66.704],[34.1362,66.703],[34.1325,66.6982],[34.0923,66.6724],[34.1296,66.6685],[34.1748,66.6867],[34.2124,66.6724],[34.284,66.6724],[34.4485,66.6492],[34.4427,66.6424],[34.3933,66.6457],[34.356,66.6298],[34.3975,66.5922],[34.4343,66.5473],[34.4802,66.5376],[34.5647,66.5427],[34.6462,66.5643],[34.6682,66.573],[34.8119,66.6077],[34.8568,66.6001],[35.0418,66.5376],[35.1815,66.4813],[35.2254,66.4691],[35.2582,66.4646],[35.3591,66.4305],[35.3806,66.4179],[35.5578,66.387],[35.5903,66.3871],[35.7296,66.3719],[35.7703,66.3612],[35.988,66.3438],[36.3669,66.3025],[36.4063,66.2947],[36.4997,66.2991],[36.5414,66.2982],[36.6326,66.2878],[36.6744,66.2906],[37.6383,66.1265],[37.6555,66.1231],[37.6602,66.1228],[38.3816,66],[38.382,66],[39.0354,66.1062],[39.064,66.1039],[39.3436,66.1347],[39.3845,66.1453],[39.4126,66.1572],[39.5887,66.1937],[39.7044,66.2069],[39.8119,66.2307],[39.8195,66.2337],[40.0164,66.2657],[40.0523,66.2828],[40.085,66.2888],[40.1101,66.3027],[40.3544,66.388],[40.4002,66.394],[40.4443,66.4055],[40.5065,66.4403],[40.5656,66.4558],[40.5946,66.4881],[40.6145,66.4994],[40.6698,66.5124],[40.7192,66.5419],[40.719,66.5587],[41.0648,66.755],[41.1453,66.7889],[41.1781,66.8096],[41.2705,66.9027],[41.3047,66.9499],[41.3047,66.9621],[41.2967,66.9677],[41.309,66.9998],[41.3298,66.9982],[41.36,67.0136],[41.3425,67.0464],[41.3425,67.0871],[41.3426,67.0873],[41.3845,67.11],[41.3809,67.1375],[41.3566,67.1454],[41.3587,67.1981],[41.363,67.2038],[41.359,67.206],[41.3592,67.2098],[41.3592,67.2102],[41.3502,67.211],[41.3078,67.2348],[41.2608,67.2193],[41.1324,67.2675],[41.1324,67.3077],[41.133,67.3091],[41.1365,67.3856],[41.1454,67.4244],[41.116,67.447],[41.0601,67.4664],[41.0528,67.4665],[41.012,67.5836],[41.0523,67.6191],[41.054,67.6531],[41.0166,67.6979],[40.9658,67.7251],[40.9232,67.7345],[40.8693,67.7279],[40.7688,67.7427],[40.6841,67.7812],[40.6707,67.8103],[40.6546,67.8146],[40.5741,67.811],[40.5684,67.7851],[40.5276,67.79],[40.5221,67.7916],[40.4069,67.8631],[40.4107,67.8751],[40.3625,67.9029],[40.3432,67.9026],[40.2936,67.9333],[40.081,67.9969],[40.0581,68.0101],[40.0399,68.0134],[40.0344,68.0157],[39.9316,68.0901],[39.9129,68.1229],[39.8701,68.1293],[39.7932,68.1647],[39.7219,68.1733],[39.7214,68.1588],[39.7713,68.1333],[39.7892,68.1125],[39.81,68.0779],[36.5136,69.0639],[36.3018,69.0823],[36.27,69.0902],[36.2736,69.0985],[36.2495,69.111],[36.1024,69.1319],[36.0223,69.1519],[36.0212,69.1527],[35.967,69.1768],[35.8735,69.1949],[35.8376,69.1957],[35.6348,69.2255],[35.3303,69.2761],[35.3036,69.274],[35.2896,69.276],[35.2892,69.276],[35.2672,69.272],[35.1826,69.2799],[35.1475,69.27],[35.2061,69.2502],[35.174,69.2309],[35.0086,69.2222],[34.9778,69.2233],[34.9823,69.2291],[34.7576,69.2434],[34.6243,69.2633],[34.6062,69.27],[34.5819,69.2697],[34.4145,69.2947],[34.4206,69.311],[33.8521,69.3389],[33.8729,69.3114],[33.8154,69.3112],[33.7791,69.3173],[33.7521,69.311],[33.7467,69.311],[33.7373,69.3145],[33.739,69.3156],[33.724,69.3368],[33.6858,69.3334],[33.4996,69.4022],[33.5054,69.4036],[33.5237,69.4283],[33.4479,69.4472],[33.4036,69.4402],[33.3851,69.4444],[32.9598,69.6014],[33.0358,69.6177],[33.075,69.6317],[33.119,69.6611],[33.1128,69.6776],[33.1286,69.7256],[33.1014,69.7487],[33.0491,69.7401],[33.006,69.7586],[32.9196,69.78],[32.7273,69.7919],[32.6909,69.7887],[32.5643,69.8073],[32.5125,69.8261],[32.5232,69.8323],[32.4883,69.8509],[32.3982,69.8743],[32.3581,69.8795],[32.3462,69.8791],[32.1652,69.9161],[32.0545,69.9638],[31.9845,69.9703],[31.9421,69.965],[31.9133,69.9362],[31.9183,69.9265],[31.9749,69.9041],[31.9813,69.8733],[32.0034,69.8633],[31.905,69.83],[31.8482,69.8529],[31.7537,69.8541],[31.728,69.8454],[31.7088,69.8086],[31.728,69.7703],[31.7276,69.7699],[31.5035,69.694],[31.4979,69.6935],[31.4778,69.6977],[31.4537,69.6894],[31.4518,69.6892],[31.4065,69.6982],[31.409,69.7158],[31.3513,69.7324],[31.3079,69.7524],[31.2616,69.7634],[31.1996,69.7576],[31.1333,69.7757],[31.0322,69.7771],[30.841,69.8058],[30.844,69.7662],[30.8771,69.7376],[30.8843,69.7024],[30.9277,69.6721],[30.927,69.5784],[30.8982,69.5442],[30.853,69.5274],[30.7553,69.5215],[30.5117,69.5363],[30.4807,69.5441],[30.2944,69.6202],[30.2307,69.6373],[30.1861,69.6413],[30.1191,69.6346],[30.1486,69.6185],[30.2088,69.6087],[30.2287,69.5821],[30.2247,69.5408],[30.164,69.5118],[30.145,69.4911],[30.1374,69.453],[30.1234,69.4419],[30.0018,69.3946],[29.9481,69.3656],[29.9007,69.3582],[29.7514,69.3572],[29.6618,69.325],[29.6043,69.3152],[29.4346,69.3118],[29.3768,69.3016],[29.3345,69.2774],[29.3023,69.2008],[29.2688,69.1667],[29.2405,69.1151],[29.173,69.0694],[29.1203,69.0468],[29.0648,69.0347],[29.0081,69.0369],[28.9541,69.0273],[28.8335,68.9845],[28.7133,68.968],[28.4562,68.9001],[28.4102,68.8985],[28.4131,68.8801],[28.4442,68.8658],[28.6457,68.8717],[28.7283,68.865],[28.8015,68.8355],[28.7473,68.7601],[28.7164,68.728],[28.4599,68.5424],[28.4474,68.5149],[28.461,68.4911],[28.6638,68.204],[28.6903,68.1832],[28.7272,68.1727],[29.2987,68.0818],[29.3602,68.0567],[29.6512,67.8236],[29.7138,67.7925],[30.0094,67.6858],[29.9777,67.6622],[29.9647,67.5847],[29.9334,67.5264],[29.9162,67.5081],[29.5198,67.2982],[29.4907,67.263],[29.4294,67.2328],[29.1001,66.9912],[29.0515,66.9078],[29.0892,66.8375],[29.3222,66.6801],[29.3625,66.6266],[29.3924,66.6053],[29.4095,66.5685],[29.5245,66.4912],[29.5462,66.432],[29.5697,66.3782],[29.5932,66.3459],[29.6509,66.2879],[29.7924,66.1809],[29.8754,66.1336],[29.9002,66.1081],[29.9205,66.0686],[29.9585,65.9739],[30.0097,65.9157],[30.0393,65.8654],[30.0751,65.8228],[30.1117,65.712],[30.1139,65.6655],[30.0985,65.6564],[30.003,65.6781],[29.7643,65.6481],[29.7029,65.6294],[29.7323,65.6087],[29.8067,65.5849],[29.8386,65.5649],[29.8258,65.552],[29.7455,65.5114],[29.7315,65.4969],[29.7182,65.4542],[29.7306,65.3654],[29.7201,65.3291],[29.6151,65.2694],[29.5801,65.2354],[29.6267,65.2152],[29.7668,65.2174],[29.8332,65.205],[29.8393,65.1669],[29.8091,65.1452],[29.8203,65.1265],[29.8502,65.1215],[29.8205,65.0937],[29.6678,65.0779],[29.6273,65.0622],[29.5984,65.0344],[29.5881,64.9914],[29.6336,64.9072],[29.6983,64.8391],[29.7803,64.7956],[29.8778,64.7848],[30.0625,64.7842],[30.1189,64.7679],[30.1091,64.7201],[30.1705,64.6817],[30.1878,64.6624],[30.1808,64.6428],[30.1364,64.6154],[29.9658,64.5786],[29.97,64.5454],[29.9905,64.5042],[30.0358,64.4915],[30.0704,64.4719],[30.0325,64.3969],[30.053,64.3781],[30.0931,64.3612],[30.1644,64.3419],[30.3211,64.3177],[30.3705,64.3008],[30.446,64.2508],[30.5034,64.2438],[30.5585,64.2197],[30.5325,64.1792],[30.5328,64.1625],[30.5864,64.0847],[30.5805,64.0511],[30.5523,64.0217],[30.5093,63.9914],[30.3286,63.896],[30.2656,63.8307],[30.2015,63.7926],[30.0513,63.7638],[29.9984,63.7471],[29.9301,63.748],[29.7832,63.7152],[29.7359,63.7322],[29.6866,63.858],[29.6562,63.8734],[28.9347,63.842],[28.572,63.8834],[28.5186,63.882],[28.4655,63.8713],[28.4412,63.8249],[28.3584,63.7534],[28.4456,63.7054],[28.4696,63.6972],[28.5498,63.6929],[28.6074,63.6735],[28.588,63.6567],[28.615,63.5951],[28.6338,63.5725],[28.6752,63.549],[28.6118,63.532],[28.6477,63.4583],[28.6817,63.4205],[28.7526,63.3901],[28.7614,63.3766],[28.7532,63.3353],[28.7361,63.3111],[28.7031,63.29],[28.7053,63.2711],[28.653,63.2515],[28.6572,63.2362],[28.6182,63.2088],[28.7197,63.1645],[28.8769,63.0602],[29.0519,62.999],[29.0573,62.9816],[28.9889,62.9602],[28.9693,62.9456],[28.9944,62.9329],[28.9335,62.9277],[29.0392,62.8625],[29.0883,62.85],[29.0815,62.8375],[28.9561,62.7885],[28.9241,62.782],[28.8795,62.7946],[28.796,62.8283],[28.7699,62.8256],[28.7265,62.7811],[28.6731,62.7666],[28.6464,62.7443],[28.7021,62.6923],[28.6582,62.6533],[28.8098,62.6308],[28.9322,62.5796],[28.9889,62.5445],[29.0398,62.524],[29.0241,62.5094],[29.1071,62.4911],[29.084,62.4213],[29.1078,62.4143],[29.1019,62.3967],[29.1593,62.3855],[29.1834,62.4098],[29.2088,62.4176],[29.2495,62.4096],[29.2814,62.383],[29.3134,62.3323],[29.3559,62.2834],[29.4131,62.2448],[29.4221,62.1606],[29.4591,62.0987],[29.4938,62.0615],[29.5452,62.0259],[29.6564,61.9731],[29.6166,61.9235],[29.6238,61.9059],[29.6863,61.8754],[29.6736,61.8504],[29.6938,61.8249],[29.6536,61.7833],[29.564,61.7241],[30.0572,61.8488],[30.1456,61.8505],[29.9777,61.7282],[29.8422,61.6602],[29.7791,61.5931],[29.6351,61.5111],[29.5397,61.485],[29.4991,61.4592],[29.4634,61.4138],[29.3184,61.3384],[29.2771,61.3046],[29.2032,61.2459],[29.1301,61.2134],[28.9808,61.1681],[28.9264,61.1479],[28.8947,61.1321],[29.1,61.05],[29.45,60.85],[29.7,60.6],[29.8,60.35],[29.95,60.12],[29.0631,60.0539],[29.1183,60.0289],[28.9772,59.9602],[28.6761,59.8137],[28.5819,59.8341],[28.5529,59.8536],[28.5173,59.8623],[28.4761,59.8518],[28.4275,59.8134],[28.4186,59.7896],[28.4212,59.7353],[28.4206,59.7335],[28.334,59.6934],[28.2119,59.7246],[28.1988,59.735],[28.1852,59.7586],[28.1239,59.7923],[28.0869,59.7994],[28.007,59.7582],[27.9934,59.7033],[28.0159,59.6597],[28.05,59.6266],[28.0638,59.5543],[28.0406,59.5223],[28.0206,59.4948],[28.0048,59.4871],[28.0233,59.4871],[28.0191,59.4818],[28.0386,59.463],[28.1048,59.4392],[28.1284,59.4095],[28.1865,59.3749],[28.1818,59.3561],[28.1575,59.364],[28.1136,59.3454],[28.0324,59.342],[28.0006,59.3337],[28.0732,59.319],[28.0766,59.3053],[27.9597,59.3065],[27.9039,59.2904],[27.8823,59.2757],[27.8908,59.258],[27.8735,59.2365],[27.8424,59.1612],[27.7672,59.0559],[27.7244,59.0144],[27.6959,58.9772],[27.4778,58.8754],[27.4463,58.8189],[27.4106,58.7549],[27.4288,58.7094],[27.5549,58.3952],[27.4941,58.3195],[27.4828,58.2686],[27.4954,58.2215],[27.5196,58.1945],[27.5797,58.1259],[27.6304,58.0883],[27.6366,58.0592],[27.6316,58.0042],[27.6691,57.992],[27.6752,57.9678],[27.6594,57.9325],[27.6731,57.9128],[27.7744,57.8907],[27.7993,57.8611],[27.7635,57.8387],[27.7007,57.8248],[27.5563,57.8131],[27.5246,57.8073],[27.5539,57.7948],[27.5024,57.7725],[27.5078,57.7148],[27.4904,57.7046],[27.4077,57.689],[27.377,57.6567],[27.387,57.6276],[27.3748,57.5979],[27.328,57.5832]]],[[[35.5052,65.0956],[35.5633,65.0521],[35.6033,65.038],[35.6891,65.0339],[35.7175,65.0277],[35.7238,65.0225],[35.7302,64.9728],[35.7642,64.9637],[35.8237,64.9838],[35.8582,65.0045],[35.8669,65.0313],[35.8592,65.0449],[35.838,65.0517],[35.8535,65.0717],[35.8669,65.076],[35.856,65.0925],[35.8476,65.1426],[35.8152,65.1825],[35.7288,65.1982],[35.7284,65.1982],[35.6098,65.1566],[35.5848,65.1669],[35.5846,65.1668],[35.5844,65.1669],[35.5304,65.1513],[35.5306,65.151],[35.5304,65.1509],[35.533,65.1456],[35.5241,65.1445],[35.5061,65.1213],[35.5052,65.0956]]],[[[42.4265,66.752],[42.4417,66.7295],[42.4834,66.7073],[42.5826,66.6785],[42.668,66.6667],[42.681,66.6819],[42.6786,66.688],[42.7128,66.7012],[42.7126,66.7015],[42.7128,66.7016],[42.6912,66.7363],[42.63,66.7831],[42.5472,66.7953],[42.5468,66.7953],[42.4676,66.7849],[42.4621,66.7743],[42.4549,66.7737],[42.4265,66.752]]],[[[42.444,54.8039],[42.4521,54.7709],[42.4951,54.7549],[42.5112,54.765],[42.5056,54.7877],[42.4799,54.8063],[42.444,54.8039]]],[[[48.2117,69.0017],[48.2659,68.9829],[48.2388,68.9638],[48.2188,68.9092],[48.2359,68.8824],[48.2837,68.8995],[48.332,68.8858],[48.2905,68.8659],[48.3517,68.8411],[48.3747,68.8218],[48.4153,68.813],[48.5103,68.7766],[48.5921,68.7309],[48.663,68.7336],[48.6669,68.7323],[48.6673,68.7323],[48.7765,68.7369],[48.7976,68.7294],[49.2485,68.78],[49.2874,68.7968],[49.3781,68.8135],[49.4214,68.8113],[49.5389,68.8354],[49.5637,68.8477],[49.6249,68.859],[49.6533,68.8741],[49.6854,68.879],[49.7197,68.89],[49.8262,68.9653],[49.8923,68.9835],[49.9114,69.01],[49.8766,69.0096],[49.9201,69.0534],[49.9963,69.0848],[50.0234,69.0914],[50.094,69.1238],[50.1393,69.0986],[50.1501,69.0725],[50.1393,69.0634],[50.1232,69.039],[50.134,69.0168],[50.1135,68.9957],[50.1693,69.0116],[50.2479,69.0566],[50.3117,69.1098],[50.323,69.1505],[50.2759,69.192],[50.2219,69.2295],[50.1644,69.2609],[50.0504,69.2925],[49.9957,69.309],[49.9737,69.3148],[49.6945,69.3979],[49.2717,69.508],[49.2339,69.5098],[49.2253,69.5121],[49.2249,69.5121],[49.1947,69.5117],[49.0853,69.517],[48.9063,69.508],[48.8063,69.4932],[48.5657,69.42],[48.5103,69.3898],[48.447,69.3719],[48.3042,69.2768],[48.2723,69.2266],[48.2632,69.1975],[48.27,69.1328],[48.22,69.073],[48.216,69.0539],[48.2564,69.0441],[48.2214,69.0203],[48.2117,69.0017]]],[[[51.4014,71.8705],[51.4095,71.8061],[51.4064,71.7816],[51.4245,71.7368],[51.4719,71.7106],[51.4675,71.6925],[51.5023,71.6641],[51.5109,71.6488],[51.5452,71.6149],[51.5529,71.6035],[51.5324,71.5659],[51.582,71.5447],[51.6009,71.4737],[52.345,71.3638],[52.2957,71.3575],[52.2876,71.3528],[52.2578,71.3489],[52.2171,71.3332],[52.2118,71.3081],[52.2549,71.2733],[52.3518,71.2458],[52.45,71.2358],[52.4848,71.2441],[52.5466,71.2494],[52.5482,71.2493],[52.6606,71.2084],[52.6843,71.1885],[52.7388,71.1796],[52.7758,71.1312],[52.7759,71.1305],[52.7773,71.1292],[52.7889,71.1141],[52.8034,71.1055],[52.7998,71.093],[52.8489,71.0825],[52.9509,71.0533],[52.972,71.037],[52.972,71.0291],[53.0056,71.0098],[53.0132,70.9915],[53.0098,70.9682],[53.0615,70.9662],[53.1205,70.9771],[53.1393,70.9936],[53.0846,71.0116],[53.0487,71.031],[53.0701,71.0655],[53.1013,71.0869],[53.1219,71.0861],[53.1616,71.1088],[53.153,71.1223],[53.1794,71.1404],[53.2046,71.1517],[53.2181,71.168],[53.2083,71.1972],[53.2318,71.2159],[53.1961,71.2265],[53.2014,71.2374],[53.4117,71.2063],[53.492,71.0727],[53.4919,71.0725],[53.4921,71.0724],[53.5883,70.9124],[53.4693,70.9009],[53.3829,70.8732],[53.3834,70.8731],[53.3831,70.873],[53.3834,70.873],[53.3829,70.8728],[53.3987,70.87],[53.3001,70.8664],[53.4075,70.8503],[53.4592,70.8236],[53.5471,70.8124],[53.5361,70.8443],[53.5853,70.8319],[53.6271,70.8302],[53.6389,70.8281],[53.6781,70.7629],[54.0635,70.7475],[54.085,70.7436],[54.0959,70.7462],[54.185,70.7426],[54.2251,70.7296],[54.2605,70.7299],[54.2824,70.7387],[54.3657,70.7354],[54.5169,70.694],[54.545,70.6893],[54.5444,70.6865],[54.5708,70.6748],[54.6364,70.661],[54.7674,70.6479],[54.7341,70.6699],[54.6602,70.6785],[54.6227,70.6889],[54.6502,70.6951],[54.6057,70.7057],[54.6073,70.7131],[54.6245,70.7251],[54.7079,70.7218],[54.7606,70.6806],[54.8015,70.6678],[54.8699,70.661],[54.9114,70.6405],[54.986,70.6337],[54.9946,70.616],[55.0563,70.5991],[55.1094,70.5718],[55.1626,70.5531],[55.2131,70.5654],[55.2074,70.5806],[55.2671,70.5853],[55.2869,70.6199],[55.2363,70.6511],[55.2328,70.6662],[55.2374,70.6662],[55.4275,70.6772],[55.4725,70.6541],[55.4541,70.6787],[55.5896,70.6866],[55.6826,70.6829],[55.7038,70.6761],[55.705,70.6749],[55.705,70.6463],[55.6987,70.6472],[55.705,70.6424],[55.705,70.6419],[55.7061,70.6416],[55.7263,70.6262],[55.7192,70.6114],[55.8176,70.6133],[55.8716,70.5895],[55.9017,70.5854],[55.9461,70.5995],[56.0205,70.5738],[56.0479,70.5853],[55.9938,70.6179],[55.9207,70.6348],[55.9429,70.6487],[56.0272,70.6305],[56.0414,70.6234],[56.1315,70.5959],[56.1642,70.5946],[56.1782,70.6098],[56.1594,70.6291],[56.1075,70.6373],[56.1158,70.6454],[56.1408,70.6574],[56.4358,70.562],[56.4006,70.5639],[56.514,70.5449],[56.6008,70.5676],[56.6448,70.5744],[56.6546,70.59],[56.5829,70.6132],[56.5074,70.6208],[56.4711,70.6387],[56.5276,70.6405],[56.5097,70.6499],[56.5723,70.6474],[56.5853,70.6423],[56.6516,70.6298],[56.699,70.6337],[56.6646,70.6436],[56.6832,70.6429],[56.8834,70.6191],[57.2957,70.5647],[57.3433,70.5716],[57.3029,70.5861],[57.2149,70.6],[57.2462,70.6054],[57.2592,70.6281],[57.4525,70.6064],[57.3978,70.6262],[57.4401,70.6308],[57.4736,70.6479],[57.488,70.6678],[57.5276,70.6815],[57.5339,70.694],[57.6242,70.7287],[57.6239,70.7289],[57.624,70.7289],[57.6239,70.729],[57.6242,70.7291],[57.6227,70.7299],[57.6387,70.7299],[57.585,70.75],[57.5558,70.7655],[57.4838,70.7933],[57.4773,70.7946],[57.4668,70.818],[57.3823,70.8135],[57.2621,70.8375],[56.0295,71.3657],[56.0271,71.3708],[55.9842,71.4056],[55.9362,71.424],[55.8668,71.4747],[55.8296,71.515],[55.786,71.5392],[55.6154,71.6908],[55.5718,71.7494],[55.4751,72.1479],[55.4933,72.1587],[55.565,72.1817],[55.575,72.1997],[55.5203,72.2369],[55.5125,72.2593],[55.4489,72.2749],[55.4432,72.2794],[55.4301,72.3336],[55.4592,72.3505],[55.4868,72.3952],[55.4698,72.4008],[55.9088,72.6703],[55.9461,72.6689],[55.9286,72.6824],[56.0862,72.7792],[56.138,72.7823],[56.1777,72.8171],[56.2199,72.8266],[56.2199,72.8532],[56.2243,72.8639],[56.987,73.3322],[57.0539,73.376],[57.1787,73.423],[57.1787,73.442],[57.2002,73.4531],[57.2539,73.4572],[57.2539,73.4914],[57.2415,73.4989],[57.3279,73.5555],[57.3501,73.5534],[57.34,73.5635],[57.3631,73.5786],[57.5698,73.6074],[57.6021,73.6225],[57.5903,73.6353],[57.6175,73.6689],[57.5864,73.6855],[57.5906,73.7038],[57.5653,73.7111],[57.6235,73.7492],[57.6277,73.7452],[57.7146,73.7233],[57.7487,73.726],[57.946,73.8066],[57.9329,73.8414],[57.9099,73.8432],[57.905,73.8755],[57.8835,73.8848],[57.858,73.8884],[57.8546,73.8973],[57.8525,73.8994],[57.8729,73.9127],[57.9119,73.9158],[57.8933,73.9261],[58.0142,74.0053],[58.0301,74.0047],[58.1084,73.9862],[58.169,74.0032],[58.2134,74.0084],[58.1985,74.0461],[58.1641,74.0557],[58.0975,74.0599],[58.0977,74.06],[58.1321,74.0761],[58.3035,74.1057],[58.308,74.0876],[58.3369,74.094],[58.3402,74.112],[58.4414,74.1295],[58.4507,74.1346],[58.4832,74.1319],[58.522,74.1492],[58.4771,74.1492],[58.5195,74.1726],[58.5295,74.1718],[58.5908,74.184],[58.5577,74.1936],[58.6011,74.2175],[58.659,74.2175],[58.6311,74.227],[58.6191,74.2285],[58.6267,74.2386],[58.728,74.2386],[58.6803,74.2517],[58.741,74.2728],[58.7069,74.2864],[58.728,74.3],[58.6533,74.3135],[58.6525,74.3153],[58.6566,74.3405],[58.6359,74.3573],[58.949,74.4532],[59.1458,74.444],[59.1433,74.464],[59.0945,74.4813],[59.0912,74.4949],[59.0981,74.4988],[59.5093,74.6247],[59.5169,74.6216],[59.6019,74.5972],[59.7093,74.5819],[59.7552,74.5875],[59.8091,74.6171],[59.8748,74.6285],[59.8726,74.6768],[59.8582,74.6906],[59.7967,74.7041],[59.789,74.7104],[59.872,74.7358],[59.9338,74.7253],[60.2764,74.7497],[60.3298,74.7666],[60.3723,74.7935],[60.325,74.8139],[60.2736,74.8215],[60.3026,74.8361],[60.3758,74.8575],[60.5606,74.8663],[60.5913,74.8754],[60.6875,74.9238],[60.6246,74.9662],[61.4666,75.224],[61.4817,75.2235],[61.5334,75.238],[61.5411,75.2468],[61.5842,75.26],[64.637,75.7373],[68.1795,76.2332],[68.2828,76.281],[68.2879,76.2813],[68.3275,76.2943],[68.3185,76.2975],[68.8239,76.5313],[68.9021,76.5525],[68.9383,76.5681],[68.9043,76.5788],[68.8919,76.5798],[68.8601,76.6105],[68.8923,76.6589],[68.9195,76.6851],[69.0339,76.7121],[68.9358,76.719],[68.9103,76.76],[68.9043,76.7649],[68.9309,76.7872],[68.898,76.7987],[68.8381,76.8062],[68.7622,76.8414],[68.7624,76.8424],[68.8086,76.8691],[68.7827,76.8779],[68.6904,76.8765],[68.6257,76.8993],[68.5933,76.921],[68.5152,76.9249],[68.4855,76.9336],[68.482,76.934],[68.5132,76.9523],[68.4629,76.9667],[68.2941,76.9591],[68.2587,76.9613],[68.1114,76.9793],[68.0344,76.9985],[67.6663,77.0108],[67.6503,77.0117],[67.6499,77.0117],[67.6442,77.0115],[67.5881,77.0134],[67.4782,77.0041],[67.4053,76.9874],[67.3964,76.986],[67.3456,76.9855],[67.2598,76.9644],[67.1154,76.9511],[66.9435,76.949],[66.9001,76.9314],[66.8291,76.9249],[66.7707,76.9123],[66.6541,76.9007],[66.6295,76.8818],[66.5455,76.8636],[66.4619,76.8605],[66.4097,76.8492],[66.3817,76.8283],[66.3467,76.8207],[66.3421,76.8195],[66.2099,76.8108],[64.4998,76.4384],[61.9315,76.2948],[61.9276,76.2974],[61.9035,76.2932],[61.9029,76.2932],[61.7567,76.2943],[61.7185,76.3114],[61.637,76.312],[61.606,76.297],[61.5698,76.2982],[61.5694,76.2982],[61.2022,76.2826],[61.1907,76.2805],[61.181,76.28],[61.0769,76.28],[61.0438,76.2733],[60.9958,76.2464],[60.9937,76.2308],[61.0149,76.2221],[60.4631,76.1145],[60.2681,76.1101],[60.0837,76.0697],[60.0427,76.0541],[60.0773,76.0394],[59.5399,75.9347],[59.3987,75.9374],[59.366,75.9282],[59.3599,75.9089],[59.3446,75.9076],[59.1106,75.8746],[58.9954,75.8711],[58.9667,75.8672],[58.931,75.8676],[58.75,75.833],[58.7269,75.819],[58.7247,75.8019],[58.6867,75.7889],[58.6099,75.7821],[58.5361,75.76],[58.5536,75.753],[58.4194,75.7201],[58.3111,75.7029],[58.3063,75.7025],[58.2972,75.7007],[58.2439,75.6922],[58.0193,75.6813],[57.9443,75.6549],[57.9255,75.629],[57.9497,75.6249],[57.8686,75.6091],[56.1088,75.1934],[56.082,75.1976],[56.1032,75.2112],[56.0379,75.2176],[55.9182,75.1976],[55.8704,75.1634],[55.8084,75.1566],[55.784,75.1228],[55.7468,75.1082],[55.7468,75.1079],[55.633,75.081],[55.6332,75.0806],[55.633,75.0806],[55.8296,74.7502],[55.709,74.6838],[55.6851,74.6798],[55.6123,74.6761],[55.5296,74.6549],[55.5324,74.6303],[55.561,74.6145],[55.4998,74.567],[55.6361,74.5734],[55.6618,74.5566],[55.6943,74.5509],[55.4049,74.4449],[55.3884,74.4451],[55.3496,74.4338],[55.2801,74.3992],[53.6657,73.808],[53.6536,73.8125],[53.6491,73.8019],[53.5089,73.7506],[53.5094,73.7505],[53.5091,73.7504],[53.5094,73.7504],[53.5089,73.7502],[53.776,73.7143],[53.855,73.6831],[53.8788,73.6675],[53.9459,73.6517],[53.9568,73.6471],[53.947,73.6316],[54.0259,73.6174],[54.2034,73.5411],[54.1793,73.5208],[53.5308,73.2424],[53.5125,73.2393],[53.4843,73.2368],[53.4338,73.2443],[53.3225,73.2209],[53.1897,73.1733],[53.1556,73.1506],[53.1538,73.1064],[53.1219,73.1009],[53.1583,73.0826],[52.6636,72.8703],[52.6167,72.8632],[52.5535,72.8232],[52.5002,72.808],[52.4803,72.7916],[52.4433,72.7757],[52.4433,72.7753],[52.4448,72.7522],[52.3941,72.752],[52.3753,72.7304],[52.3976,72.7179],[52.4474,72.713],[52.4763,72.2746],[52.4658,72.2756],[52.4165,72.2893],[52.4136,72.2695],[52.4637,72.2608],[52.4719,72.2559],[52.4613,72.2533],[52.4363,72.2275],[52.402,72.2232],[52.4147,72.2155],[52.0329,72.1359],[51.8857,72.1526],[51.8853,72.1526],[51.8798,72.1519],[51.8657,72.1587],[51.8431,72.1579],[51.7846,72.1362],[51.6888,72.1093],[51.61,72.0917],[51.5529,72.0526],[51.5573,72.0481],[51.5407,72.0332],[51.4569,72.0158],[51.457,72.0154],[51.4569,72.0154],[51.4683,71.9723],[51.4396,71.9422],[51.4014,71.8705]]]]}}
]}
