{"type":"FeatureCollection","features":[
{"type":"Feature","properties":{"entityId":"great-moravia","from":833,"to":884,"certainty":"estimated","source":"유럽 쪽은 Natural Earth 1:10m admin-1(v5.1.2) 현대 행정구역 조각을 그 시기 국경에 맞춰 묶고, 조각이 역사 경계와 다른 곳은 선을 그어 나눈 근사. 유럽 밖(시베리아·중앙아시아·극동)은 대략적인 추정. 운영자 검수 필요"},"geometry":{"type":"Polygon","coordinates":[[[16.944,50.4203],[17.0847,50.398],[17.1189,50.3812],[17.1876,50.3785],[17.201,50.3432],[17.2461,50.3221],[17.3168,50.3186],[17.3341,50.2957],[17.3348,50.27],[17.355,50.2533],[17.388,50.2726],[17.4191,50.2427],[17.44,50.2427],[17.4694,50.2656],[17.517,50.2684],[17.6064,50.2582],[17.6467,50.2711],[17.6845,50.3124],[17.708,50.311],[17.7345,50.2895],[17.7214,50.2427],[17.7476,50.2175],[17.7382,50.2024],[17.6753,50.1747],[17.5894,50.1632],[17.5842,50.1459],[17.6328,50.1063],[17.6776,50.1077],[17.732,50.0949],[17.7195,50.0809],[17.743,50.0606],[17.7633,50.0252],[17.8394,49.9736],[17.8757,49.9687],[17.9121,49.9758],[17.9416,49.9928],[17.9999,49.9966],[18.0375,50.0072],[18.0069,50.0241],[18.0191,50.0441],[18.0916,50.0172],[18.0982,49.989],[18.162,49.9812],[18.2087,49.9583],[18.2559,49.946],[18.2925,49.9078],[18.3688,49.932],[18.4818,49.8966],[18.5444,49.913],[18.5592,49.9072],[18.5673,49.8615],[18.5938,49.8522],[18.5663,49.8316],[18.5668,49.8048],[18.6077,49.743],[18.6177,49.7139],[18.6373,49.7003],[18.6824,49.6958],[18.7277,49.6689],[18.7735,49.6758],[18.7926,49.6608],[18.7993,49.6264],[18.8345,49.5476],[18.8332,49.5103],[18.9322,49.5043],[18.9611,49.4928],[18.9524,49.4759],[18.9623,49.3892],[19.0071,49.3881],[19.0676,49.4061],[19.1166,49.3909],[19.1725,49.4023],[19.2205,49.493],[19.2487,49.5163],[19.3471,49.533],[19.4338,49.5952],[19.4489,49.6004],[19.5052,49.5634],[19.5568,49.4539],[19.5948,49.4416],[19.6348,49.4413],[19.627,49.4019],[19.6845,49.3891],[19.7693,49.3931],[19.7836,49.3576],[19.7895,49.3092],[19.7832,49.29],[19.8068,49.2752],[19.7518,49.2191],[19.7607,49.1942],[19.832,49.1859],[19.8683,49.2008],[19.9059,49.2228],[19.9657,49.2157],[20.0173,49.1839],[20.0505,49.1732],[20.07,49.1831],[20.086,49.243],[20.1302,49.3039],[20.1604,49.3056],[20.2072,49.3342],[20.2844,49.3386],[20.3074,49.3866],[20.3295,49.3918],[20.3705,49.3817],[20.4221,49.383],[20.4375,49.4025],[20.5221,49.3744],[20.5677,49.3764],[20.6053,49.4],[20.6895,49.4005],[20.7783,49.3312],[20.8493,49.3205],[20.9006,49.2926],[20.9424,49.2959],[21.0172,49.3524],[21.0725,49.3572],[21.0685,49.3814],[21.0333,49.3997],[21.0535,49.4145],[21.1249,49.4237],[21.1726,49.3983],[21.2112,49.4111],[21.2425,49.4413],[21.2744,49.4473],[21.3304,49.4278],[21.4279,49.4098],[21.5144,49.4172],[21.6012,49.4265],[21.6663,49.4018],[21.6917,49.4022],[21.7576,49.3489],[21.7994,49.3748],[21.8196,49.3772],[21.8746,49.3484],[21.9284,49.3308],[21.9645,49.3086],[21.9932,49.2782],[22.0124,49.2111],[22.0408,49.1975],[22.1115,49.1886],[22.1557,49.1715],[22.198,49.172],[22.2159,49.14],[22.2629,49.1306],[22.3394,49.1265],[22.3901,49.093],[22.4268,49.0856],[22.505,49.0834],[22.5396,49.0722],[22.5248,49.0329],[22.5205,48.9929],[22.449,48.9714],[22.4149,48.9117],[22.4118,48.8878],[22.3708,48.8582],[22.3623,48.8443],[22.3657,48.7944],[22.3308,48.7564],[22.3225,48.7003],[22.2943,48.6676],[22.2555,48.6568],[22.219,48.6209],[22.1537,48.5859],[22.1367,48.5493],[22.1483,48.5088],[22.1338,48.4768],[22.1328,48.4048],[22.0965,48.3794],[22.018,48.3797],[21.9293,48.3729],[21.8843,48.3575],[21.8412,48.3532],[21.7894,48.3355],[21.7277,48.3409],[21.6776,48.3723],[21.6134,48.4404],[21.5917,48.493],[21.5218,48.5001],[21.4908,48.5403],[21.4246,48.5613],[21.3023,48.5399],[21.2618,48.5032],[21.2199,48.5187],[21.1867,48.5137],[21.1093,48.4891],[21.0639,48.5062],[21.0065,48.5182],[20.9458,48.519],[20.8914,48.5411],[20.8455,48.5458],[20.8158,48.5638],[20.7841,48.5691],[20.5725,48.5366],[20.4817,48.5261],[20.4817,48.4787],[20.466,48.4638],[20.409,48.4137],[20.3702,48.3343],[20.3243,48.2799],[20.2724,48.2525],[20.2291,48.2709],[20.1709,48.244],[20.1345,48.2467],[20.097,48.1984],[20.0383,48.1772],[19.9739,48.1584],[19.9286,48.1301],[19.9051,48.1243],[19.8843,48.1296],[19.8463,48.1527],[19.8217,48.1579],[19.7856,48.1487],[19.7761,48.1495],[19.7667,48.159],[19.7743,48.1859],[19.7566,48.2003],[19.687,48.1969],[19.6439,48.2248],[19.6232,48.227],[19.5312,48.2107],[19.503,48.1894],[19.4817,48.1113],[19.4282,48.0859],[19.2932,48.0878],[19.2225,48.0606],[19.0985,48.0707],[19.019,48.0655],[18.9336,48.0543],[18.8385,48.04],[18.7942,47.9931],[18.7432,47.9711],[18.7548,47.9518],[18.7422,47.8895],[18.7488,47.8707],[18.8149,47.8322],[18.7677,47.8223],[18.6928,47.778],[18.6338,47.7798],[18.5974,47.7907],[18.5526,47.7928],[18.3479,47.7768],[18.273,47.7563],[18.2359,47.7539],[18.1126,47.7625],[17.8835,47.7525],[17.8257,47.75],[17.7192,47.7737],[17.6767,47.7892],[17.6399,47.8192],[17.6042,47.8342],[17.5726,47.8295],[17.5266,47.8721],[17.472,47.8888],[17.3694,47.9812],[17.3379,47.9987],[17.2623,48.0073],[17.1848,48.0203],[17.1483,48.0054],[17.125,48.0195],[17.0697,48.0357],[17.0591,48.0604],[17.0802,48.0976],[17.0625,48.1127],[17.0475,48.131],[17.0072,48.1428],[16.9819,48.1613],[16.9506,48.2766],[16.9166,48.2908],[16.8984,48.3162],[16.9019,48.3394],[16.8445,48.3656],[16.8608,48.4438],[16.9139,48.5193],[16.9491,48.5448],[16.945,48.6042],[16.9105,48.6308],[16.8967,48.697],[16.873,48.719],[16.7989,48.7092],[16.729,48.7331],[16.662,48.74],[16.6431,48.7783],[16.5103,48.8048],[16.4357,48.7945],[16.385,48.7371],[16.3583,48.7273],[16.1778,48.7465],[16.0854,48.7429],[16.0323,48.7581],[15.9081,48.8197],[15.886,48.842],[15.8401,48.8501],[15.8185,48.8723],[15.7792,48.8709],[15.7268,48.855],[15.6813,48.8585],[15.6037,48.8874],[15.5442,48.9026],[15.5747,48.9662],[15.6094,48.9671],[15.6283,48.9474],[15.6737,48.9721],[15.7358,48.9544],[15.8082,48.9976],[15.8709,49.0039],[15.8913,49.0292],[15.915,49.0323],[15.9549,49.0557],[15.9745,49.0381],[16.0164,49.0367],[16.0449,49.0479],[16.1138,49.0405],[16.1573,49.07],[16.2277,49.0849],[16.2581,49.1217],[16.2482,49.1389],[16.2716,49.1747],[16.2427,49.2137],[16.2488,49.2386],[16.2825,49.2573],[16.2735,49.2942],[16.3003,49.32],[16.3875,49.3548],[16.3914,49.3726],[16.3705,49.4183],[16.3702,49.4875],[16.4001,49.491],[16.4025,49.5273],[16.3726,49.5547],[16.392,49.5973],[16.5346,49.6034],[16.5636,49.6339],[16.7048,49.6282],[16.7892,49.6079],[16.8103,49.657],[16.8412,49.6777],[16.8337,49.7116],[16.7989,49.7345],[16.7962,49.7513],[16.7331,49.8286],[16.7487,49.8675],[16.7483,49.9185],[16.7268,49.9933],[16.8049,50.0315],[16.8068,50.0734],[16.8319,50.1277],[16.8698,50.1897],[16.919,50.2171],[16.9553,50.2135],[16.9603,50.232],[17.0084,50.21],[16.9878,50.2849],[16.9265,50.3193],[16.8979,50.3782],[16.8659,50.4084],[16.893,50.4329],[16.944,50.4203]]]}},
{"type":"Feature","properties":{"entityId":"great-moravia","from":884,"to":894,"certainty":"estimated","source":"유럽 쪽은 Natural Earth 1:10m admin-1(v5.1.2) 현대 행정구역 조각을 그 시기 국경에 맞춰 묶고, 조각이 역사 경계와 다른 곳은 선을 그어 나눈 근사. 유럽 밖(시베리아·중앙아시아·극동)은 대략적인 추정. 운영자 검수 필요"},"geometry":{"type":"Polygon","coordinates":[[[16.094,46.8628],[16.0529,46.8461],[16.032,46.8376],[16.0284,46.8369],[16.0037,46.8707],[16.0115,46.9133],[16.0545,46.9442],[16.1363,47.0249],[16.1347,47.0402],[16.0895,47.0829],[16.0844,47.1069],[16.095,47.1651],[16.0675,47.2376],[16.0584,47.2911],[16.02,47.3724],[16.0475,47.4106],[16.0717,47.3949],[16.1479,47.443],[16.2309,47.4455],[16.2722,47.4634],[16.3245,47.5013],[16.3212,47.5717],[16.3758,47.6449],[16.3125,47.7025],[16.2893,47.7325],[16.2897,47.7936],[16.3242,47.7964],[16.358,47.833],[16.36,47.8718],[16.3909,47.9029],[16.4393,47.9281],[16.5031,47.9353],[16.5732,47.9198],[16.6123,47.9332],[16.6803,47.9715],[16.7045,48.0092],[16.7504,48.0295],[16.7738,48.0298],[16.8566,48.0632],[16.9002,48.0721],[16.9623,48.0458],[16.9829,48.0682],[16.983,48.0978],[17.0035,48.1091],[17.0344,48.1],[17.0625,48.1127],[17.0475,48.131],[17.0072,48.1428],[16.9819,48.1613],[16.9506,48.2766],[16.9166,48.2908],[16.8984,48.3162],[16.9019,48.3394],[16.8445,48.3656],[16.8608,48.4438],[16.9139,48.5193],[16.9491,48.5448],[16.945,48.6042],[16.9105,48.6308],[16.8967,48.697],[16.873,48.719],[16.7989,48.7092],[16.729,48.7331],[16.662,48.74],[16.6431,48.7783],[16.5103,48.8048],[16.4357,48.7945],[16.385,48.7371],[16.3583,48.7273],[16.1778,48.7465],[16.0854,48.7429],[16.0323,48.7581],[15.9081,48.8197],[15.886,48.842],[15.8401,48.8501],[15.8185,48.8723],[15.7792,48.8709],[15.7268,48.855],[15.6813,48.8585],[15.6037,48.8874],[15.5442,48.9026],[15.5747,48.9662],[15.6094,48.9671],[15.6283,48.9474],[15.6737,48.9721],[15.7358,48.9544],[15.8082,48.9976],[15.8709,49.0039],[15.8913,49.0292],[15.915,49.0323],[15.9549,49.0557],[15.9745,49.0381],[16.0164,49.0367],[16.0449,49.0479],[16.1138,49.0405],[16.1573,49.07],[16.2277,49.0849],[16.2581,49.1217],[16.2482,49.1389],[16.2716,49.1747],[16.2427,49.2137],[16.2488,49.2386],[16.2825,49.2573],[16.2735,49.2942],[16.3003,49.32],[16.3875,49.3548],[16.3914,49.3726],[16.3705,49.4183],[16.3702,49.4875],[16.4001,49.491],[16.4025,49.5273],[16.3726,49.5547],[16.392,49.5973],[16.5346,49.6034],[16.5636,49.6339],[16.7048,49.6282],[16.7892,49.6079],[16.8103,49.657],[16.8412,49.6777],[16.8337,49.7116],[16.7989,49.7345],[16.7962,49.7513],[16.7331,49.8286],[16.7487,49.8675],[16.7483,49.9185],[16.7268,49.9933],[16.8049,50.0315],[16.8068,50.0734],[16.8319,50.1277],[16.8698,50.1897],[16.919,50.2171],[16.9553,50.2135],[16.9603,50.232],[17.0084,50.21],[16.9878,50.2849],[16.9265,50.3193],[16.8979,50.3782],[16.8659,50.4084],[16.893,50.4329],[16.944,50.4203],[17.0847,50.398],[17.1189,50.3812],[17.1876,50.3785],[17.201,50.3432],[17.2461,50.3221],[17.3168,50.3186],[17.3341,50.2957],[17.3348,50.27],[17.355,50.2533],[17.388,50.2726],[17.4191,50.2427],[17.44,50.2427],[17.4694,50.2656],[17.517,50.2684],[17.6064,50.2582],[17.6467,50.2711],[17.6845,50.3124],[17.708,50.311],[17.7345,50.2895],[17.7214,50.2427],[17.7476,50.2175],[17.7382,50.2024],[17.6753,50.1747],[17.5894,50.1632],[17.5842,50.1459],[17.6328,50.1063],[17.6776,50.1077],[17.732,50.0949],[17.7195,50.0809],[17.743,50.0606],[17.7633,50.0252],[17.8394,49.9736],[17.8757,49.9687],[17.9121,49.9758],[17.9416,49.9928],[17.9999,49.9966],[18.0375,50.0072],[18.0069,50.0241],[18.0191,50.0441],[18.0916,50.0172],[18.0982,49.989],[18.162,49.9812],[18.2087,49.9583],[18.2559,49.946],[18.2925,49.9078],[18.3688,49.932],[18.4818,49.8966],[18.5444,49.913],[18.5592,49.9072],[18.5673,49.8615],[18.5938,49.8522],[18.5663,49.8316],[18.5668,49.8048],[18.6077,49.743],[18.6177,49.7139],[18.6373,49.7003],[18.6824,49.6958],[18.7277,49.6689],[18.7735,49.6758],[18.7926,49.6608],[18.7993,49.6264],[18.8345,49.5476],[18.8332,49.5103],[18.9322,49.5043],[18.9611,49.4928],[18.9524,49.4759],[18.9623,49.3892],[19.0071,49.3881],[19.0676,49.4061],[19.1166,49.3909],[19.1725,49.4023],[19.2205,49.493],[19.2487,49.5163],[19.3471,49.533],[19.4338,49.5952],[19.4489,49.6004],[19.5052,49.5634],[19.5568,49.4539],[19.5948,49.4416],[19.6348,49.4413],[19.627,49.4019],[19.6845,49.3891],[19.7693,49.3931],[19.7836,49.3576],[19.7895,49.3092],[19.7832,49.29],[19.8068,49.2752],[19.7518,49.2191],[19.7607,49.1942],[19.832,49.1859],[19.8683,49.2008],[19.9059,49.2228],[19.9657,49.2157],[20.0173,49.1839],[20.0505,49.1732],[20.07,49.1831],[20.086,49.243],[20.1302,49.3039],[20.1604,49.3056],[20.2072,49.3342],[20.2844,49.3386],[20.3074,49.3866],[20.3295,49.3918],[20.3705,49.3817],[20.4221,49.383],[20.4375,49.4025],[20.5221,49.3744],[20.5677,49.3764],[20.6053,49.4],[20.6895,49.4005],[20.7783,49.3312],[20.8493,49.3205],[20.9006,49.2926],[20.9424,49.2959],[21.0172,49.3524],[21.0725,49.3572],[21.0685,49.3814],[21.0333,49.3997],[21.0535,49.4145],[21.1249,49.4237],[21.1726,49.3983],[21.2112,49.4111],[21.2425,49.4413],[21.2744,49.4473],[21.3304,49.4278],[21.4279,49.4098],[21.5144,49.4172],[21.6012,49.4265],[21.6663,49.4018],[21.6917,49.4022],[21.7576,49.3489],[21.7994,49.3748],[21.8196,49.3772],[21.8746,49.3484],[21.9284,49.3308],[21.9645,49.3086],[21.9932,49.2782],[22.0124,49.2111],[22.0408,49.1975],[22.1115,49.1886],[22.1557,49.1715],[22.198,49.172],[22.2159,49.14],[22.2629,49.1306],[22.3394,49.1265],[22.3901,49.093],[22.4268,49.0856],[22.505,49.0834],[22.5396,49.0722],[22.5248,49.0329],[22.5205,48.9929],[22.449,48.9714],[22.4149,48.9117],[22.4118,48.8878],[22.3708,48.8582],[22.3623,48.8443],[22.3657,48.7944],[22.3308,48.7564],[22.3225,48.7003],[22.2943,48.6676],[22.2555,48.6568],[22.219,48.6209],[22.1537,48.5859],[22.1367,48.5493],[22.1483,48.5088],[22.1338,48.4768],[22.1328,48.4048],[22.0965,48.3794],[22.018,48.3797],[21.9293,48.3729],[21.8843,48.3575],[21.8412,48.3532],[21.7894,48.3355],[21.7277,48.3409],[21.6776,48.3723],[21.6134,48.4404],[21.5917,48.493],[21.5218,48.5001],[21.4908,48.5403],[21.4246,48.5613],[21.3023,48.5399],[21.2618,48.5032],[21.2199,48.5187],[21.1867,48.5137],[21.1093,48.4891],[21.0639,48.5062],[21.0065,48.5182],[20.9458,48.519],[20.8914,48.5411],[20.8455,48.5458],[20.8158,48.5638],[20.7841,48.5691],[20.5725,48.5366],[20.4817,48.5261],[20.4817,48.4787],[20.466,48.4638],[20.409,48.4137],[20.3702,48.3343],[20.3243,48.2799],[20.2724,48.2525],[20.2291,48.2709],[20.1709,48.244],[20.1345,48.2467],[20.097,48.1984],[20.0383,48.1772],[19.9739,48.1584],[19.9286,48.1301],[19.9051,48.1243],[19.8843,48.1296],[19.8463,48.1527],[19.8217,48.1579],[19.7856,48.1487],[19.7761,48.1495],[19.7667,48.159],[19.7743,48.1859],[19.7566,48.2003],[19.687,48.1969],[19.6439,48.2248],[19.6232,48.227],[19.5312,48.2107],[19.503,48.1894],[19.4817,48.1113],[19.4282,48.0859],[19.2932,48.0878],[19.2225,48.0606],[19.0985,48.0707],[19.019,48.0655],[18.9336,48.0543],[18.8385,48.04],[18.7942,47.9931],[18.7432,47.9711],[18.7548,47.9518],[18.7422,47.8895],[18.7488,47.8707],[18.8149,47.8322],[18.8833,47.8122],[18.9157,47.7712],[18.9165,47.7217],[18.8938,47.7268],[18.853,47.7171],[18.8637,47.6661],[18.8113,47.6702],[18.7591,47.6648],[18.775,47.6381],[18.7259,47.605],[18.7104,47.5787],[18.685,47.5619],[18.7246,47.5076],[18.7756,47.4645],[18.787,47.439],[18.7804,47.4105],[18.8194,47.3563],[18.8619,47.3872],[18.8442,47.4206],[18.8383,47.454],[18.8638,47.4618],[18.8913,47.4422],[18.9247,47.4285],[18.9555,47.4045],[18.949,47.3693],[18.9423,47.344],[18.9286,47.3185],[18.9028,47.3038],[18.9188,47.2871],[18.9076,47.2374],[18.8869,47.2081],[18.8792,47.1492],[18.9031,47.0816],[18.968,47.0332],[18.9552,46.9947],[18.9605,46.9774],[18.9669,46.9358],[18.9665,46.9172],[18.9488,46.9039],[18.9309,46.8771],[18.9267,46.8484],[18.9276,46.8271],[18.9847,46.7756],[19.0018,46.7085],[18.9816,46.6763],[18.9529,46.6561],[18.8853,46.6352],[18.8581,46.6148],[18.8772,46.5912],[18.9201,46.4988],[18.9227,46.4686],[18.8989,46.4143],[18.8922,46.3784],[18.9133,46.3306],[18.9144,46.2457],[18.8984,46.234],[18.8417,46.2257],[18.8233,46.2063],[18.8539,46.1932],[18.8335,46.1618],[18.8026,46.1614],[18.8072,46.1314],[18.8292,46.1229],[18.7858,46.0997],[18.822,46.0989],[18.8447,46.0499],[18.8524,46.0112],[18.8241,45.9402],[18.8015,45.92],[18.8225,45.9056],[18.8049,45.9136],[18.786,45.8869],[18.7633,45.884],[18.6743,45.9104],[18.633,45.8919],[18.6222,45.8684],[18.5855,45.8269],[18.5303,45.7909],[18.4818,45.7914],[18.4117,45.7432],[18.3838,45.7432],[18.3672,45.7582],[18.3177,45.7473],[18.2112,45.7854],[18.129,45.7854],[18.0805,45.7717],[17.9754,45.7921],[17.9062,45.7921],[17.858,45.7759],[17.8092,45.8144],[17.6873,45.8406],[17.6547,45.8521],[17.6458,45.8918],[17.5911,45.9362],[17.5119,45.9539],[17.4267,45.9567],[17.4062,45.9437],[17.3892,45.9631],[17.3453,45.9557],[17.3379,45.9846],[17.3066,45.9799],[17.2901,45.9915],[17.3168,45.9977],[17.2759,46.012],[17.2486,46.0802],[17.1973,46.1212],[17.1162,46.1231],[17.0529,46.1535],[17.028,46.1805],[16.9748,46.2106],[16.9407,46.2515],[16.8892,46.2922],[16.8793,46.3121],[16.8594,46.3648],[16.8377,46.3819],[16.7693,46.3961],[16.7551,46.3819],[16.7429,46.3996],[16.7124,46.4127],[16.6593,46.4642],[16.5943,46.483],[16.5837,46.4707],[16.5153,46.5017],[16.5008,46.5448],[16.4671,46.5647],[16.4302,46.6044],[16.3946,46.619],[16.3764,46.6291],[16.3722,46.6363],[16.3684,46.643],[16.3776,46.6529],[16.3967,46.6591],[16.4026,46.6631],[16.4105,46.6684],[16.405,46.6873],[16.39,46.6942],[16.3714,46.6949],[16.3662,46.6965],[16.3654,46.6967],[16.3576,46.699],[16.3573,46.7158],[16.3434,46.7142],[16.3142,46.7433],[16.2982,46.7758],[16.2995,46.7795],[16.3022,46.787],[16.3111,46.7975],[16.3149,46.802],[16.3218,46.8133],[16.3275,46.8255],[16.3298,46.8344],[16.3253,46.8394],[16.3107,46.84],[16.3019,46.8432],[16.2974,46.847],[16.2822,46.8599],[16.272,46.864],[16.1795,46.8585],[16.1354,46.8558],[16.1302,46.8567],[16.094,46.8628]]]}},
{"type":"Feature","properties":{"entityId":"great-moravia","from":894,"to":907,"certainty":"estimated","source":"유럽 쪽은 Natural Earth 1:10m admin-1(v5.1.2) 현대 행정구역 조각을 그 시기 국경에 맞춰 묶고, 조각이 역사 경계와 다른 곳은 선을 그어 나눈 근사. 유럽 밖(시베리아·중앙아시아·극동)은 대략적인 추정. 운영자 검수 필요"},"geometry":{"type":"Polygon","coordinates":[[[16.944,50.4203],[17.0847,50.398],[17.1189,50.3812],[17.1876,50.3785],[17.201,50.3432],[17.2461,50.3221],[17.3168,50.3186],[17.3341,50.2957],[17.3348,50.27],[17.355,50.2533],[17.388,50.2726],[17.4191,50.2427],[17.44,50.2427],[17.4694,50.2656],[17.517,50.2684],[17.6064,50.2582],[17.6467,50.2711],[17.6845,50.3124],[17.708,50.311],[17.7345,50.2895],[17.7214,50.2427],[17.7476,50.2175],[17.7382,50.2024],[17.6753,50.1747],[17.5894,50.1632],[17.5842,50.1459],[17.6328,50.1063],[17.6776,50.1077],[17.732,50.0949],[17.7195,50.0809],[17.743,50.0606],[17.7633,50.0252],[17.8394,49.9736],[17.8757,49.9687],[17.9121,49.9758],[17.9416,49.9928],[17.9999,49.9966],[18.0375,50.0072],[18.0069,50.0241],[18.0191,50.0441],[18.0916,50.0172],[18.0982,49.989],[18.162,49.9812],[18.2087,49.9583],[18.2559,49.946],[18.2925,49.9078],[18.3688,49.932],[18.4818,49.8966],[18.5444,49.913],[18.5592,49.9072],[18.5673,49.8615],[18.5938,49.8522],[18.5663,49.8316],[18.5668,49.8048],[18.6077,49.743],[18.6177,49.7139],[18.6373,49.7003],[18.6824,49.6958],[18.7277,49.6689],[18.7735,49.6758],[18.7926,49.6608],[18.7993,49.6264],[18.8345,49.5476],[18.8332,49.5103],[18.9322,49.5043],[18.9611,49.4928],[18.9524,49.4759],[18.9623,49.3892],[19.0071,49.3881],[19.0676,49.4061],[19.1166,49.3909],[19.1725,49.4023],[19.2205,49.493],[19.2487,49.5163],[19.3471,49.533],[19.4338,49.5952],[19.4489,49.6004],[19.5052,49.5634],[19.5568,49.4539],[19.5948,49.4416],[19.6348,49.4413],[19.627,49.4019],[19.6845,49.3891],[19.7693,49.3931],[19.7836,49.3576],[19.7895,49.3092],[19.7832,49.29],[19.8068,49.2752],[19.7518,49.2191],[19.7607,49.1942],[19.832,49.1859],[19.8683,49.2008],[19.9059,49.2228],[19.9657,49.2157],[20.0173,49.1839],[20.0505,49.1732],[20.07,49.1831],[20.086,49.243],[20.1302,49.3039],[20.1604,49.3056],[20.2072,49.3342],[20.2844,49.3386],[20.3074,49.3866],[20.3295,49.3918],[20.3705,49.3817],[20.4221,49.383],[20.4375,49.4025],[20.5221,49.3744],[20.5677,49.3764],[20.6053,49.4],[20.6895,49.4005],[20.7783,49.3312],[20.8493,49.3205],[20.9006,49.2926],[20.9424,49.2959],[21.0172,49.3524],[21.0725,49.3572],[21.0685,49.3814],[21.0333,49.3997],[21.0535,49.4145],[21.1249,49.4237],[21.1726,49.3983],[21.2112,49.4111],[21.2425,49.4413],[21.2744,49.4473],[21.3304,49.4278],[21.4279,49.4098],[21.5144,49.4172],[21.6012,49.4265],[21.6663,49.4018],[21.6917,49.4022],[21.7576,49.3489],[21.7994,49.3748],[21.8196,49.3772],[21.8746,49.3484],[21.9284,49.3308],[21.9645,49.3086],[21.9932,49.2782],[22.0124,49.2111],[22.0408,49.1975],[22.1115,49.1886],[22.1557,49.1715],[22.198,49.172],[22.2159,49.14],[22.2629,49.1306],[22.3394,49.1265],[22.3901,49.093],[22.4268,49.0856],[22.505,49.0834],[22.5396,49.0722],[22.5248,49.0329],[22.5205,48.9929],[22.449,48.9714],[22.4149,48.9117],[22.4118,48.8878],[22.3708,48.8582],[22.3623,48.8443],[22.3657,48.7944],[22.3308,48.7564],[22.3225,48.7003],[22.2943,48.6676],[22.2555,48.6568],[22.219,48.6209],[22.1537,48.5859],[22.1367,48.5493],[22.1483,48.5088],[22.1338,48.4768],[22.1328,48.4048],[22.0965,48.3794],[22.018,48.3797],[21.9293,48.3729],[21.8843,48.3575],[21.8412,48.3532],[21.7894,48.3355],[21.7277,48.3409],[21.6776,48.3723],[21.6134,48.4404],[21.5917,48.493],[21.5218,48.5001],[21.4908,48.5403],[21.4246,48.5613],[21.3023,48.5399],[21.2618,48.5032],[21.2199,48.5187],[21.1867,48.5137],[21.1093,48.4891],[21.0639,48.5062],[21.0065,48.5182],[20.9458,48.519],[20.8914,48.5411],[20.8455,48.5458],[20.8158,48.5638],[20.7841,48.5691],[20.5725,48.5366],[20.4817,48.5261],[20.4817,48.4787],[20.466,48.4638],[20.409,48.4137],[20.3702,48.3343],[20.3243,48.2799],[20.2724,48.2525],[20.2291,48.2709],[20.1709,48.244],[20.1345,48.2467],[20.097,48.1984],[20.0383,48.1772],[19.9739,48.1584],[19.9286,48.1301],[19.9051,48.1243],[19.8843,48.1296],[19.8463,48.1527],[19.8217,48.1579],[19.7856,48.1487],[19.7761,48.1495],[19.7667,48.159],[19.7743,48.1859],[19.7566,48.2003],[19.687,48.1969],[19.6439,48.2248],[19.6232,48.227],[19.5312,48.2107],[19.503,48.1894],[19.4817,48.1113],[19.4282,48.0859],[19.2932,48.0878],[19.2225,48.0606],[19.0985,48.0707],[19.019,48.0655],[18.9336,48.0543],[18.8385,48.04],[18.7942,47.9931],[18.7432,47.9711],[18.7548,47.9518],[18.7422,47.8895],[18.7488,47.8707],[18.8149,47.8322],[18.7677,47.8223],[18.6928,47.778],[18.6338,47.7798],[18.5974,47.7907],[18.5526,47.7928],[18.3479,47.7768],[18.273,47.7563],[18.2359,47.7539],[18.1126,47.7625],[17.8835,47.7525],[17.8257,47.75],[17.7192,47.7737],[17.6767,47.7892],[17.6399,47.8192],[17.6042,47.8342],[17.5726,47.8295],[17.5266,47.8721],[17.472,47.8888],[17.3694,47.9812],[17.3379,47.9987],[17.2623,48.0073],[17.1848,48.0203],[17.1483,48.0054],[17.125,48.0195],[17.0697,48.0357],[17.0591,48.0604],[17.0802,48.0976],[17.0625,48.1127],[17.0475,48.131],[17.0072,48.1428],[16.9819,48.1613],[16.9506,48.2766],[16.9166,48.2908],[16.8984,48.3162],[16.9019,48.3394],[16.8445,48.3656],[16.8608,48.4438],[16.9139,48.5193],[16.9491,48.5448],[16.945,48.6042],[16.9105,48.6308],[16.8967,48.697],[16.873,48.719],[16.7989,48.7092],[16.729,48.7331],[16.662,48.74],[16.6431,48.7783],[16.5103,48.8048],[16.4357,48.7945],[16.385,48.7371],[16.3583,48.7273],[16.1778,48.7465],[16.0854,48.7429],[16.0323,48.7581],[15.9081,48.8197],[15.886,48.842],[15.8401,48.8501],[15.8185,48.8723],[15.7792,48.8709],[15.7268,48.855],[15.6813,48.8585],[15.6037,48.8874],[15.5442,48.9026],[15.5747,48.9662],[15.6094,48.9671],[15.6283,48.9474],[15.6737,48.9721],[15.7358,48.9544],[15.8082,48.9976],[15.8709,49.0039],[15.8913,49.0292],[15.915,49.0323],[15.9549,49.0557],[15.9745,49.0381],[16.0164,49.0367],[16.0449,49.0479],[16.1138,49.0405],[16.1573,49.07],[16.2277,49.0849],[16.2581,49.1217],[16.2482,49.1389],[16.2716,49.1747],[16.2427,49.2137],[16.2488,49.2386],[16.2825,49.2573],[16.2735,49.2942],[16.3003,49.32],[16.3875,49.3548],[16.3914,49.3726],[16.3705,49.4183],[16.3702,49.4875],[16.4001,49.491],[16.4025,49.5273],[16.3726,49.5547],[16.392,49.5973],[16.5346,49.6034],[16.5636,49.6339],[16.7048,49.6282],[16.7892,49.6079],[16.8103,49.657],[16.8412,49.6777],[16.8337,49.7116],[16.7989,49.7345],[16.7962,49.7513],[16.7331,49.8286],[16.7487,49.8675],[16.7483,49.9185],[16.7268,49.9933],[16.8049,50.0315],[16.8068,50.0734],[16.8319,50.1277],[16.8698,50.1897],[16.919,50.2171],[16.9553,50.2135],[16.9603,50.232],[17.0084,50.21],[16.9878,50.2849],[16.9265,50.3193],[16.8979,50.3782],[16.8659,50.4084],[16.893,50.4329],[16.944,50.4203]]]}}
]}
