{"type":"FeatureCollection","features":[
{"type":"Feature","properties":{"entityId":"habsburg-austria","from":1400,"to":1526,"certainty":"estimated","source":"유럽 쪽은 Natural Earth 1:10m admin-1(v5.1.2) 현대 행정구역 조각을 그 시기 국경에 맞춰 묶고, 조각이 역사 경계와 다른 곳은 선을 그어 나눈 근사. 유럽 밖(시베리아·중앙아시아·극동)은 대략적인 추정. 운영자 검수 필요"},"geometry":{"type":"Polygon","coordinates":[[[9.5812,47.0569],[9.5883,47.063],[9.6051,47.0776],[9.6088,47.0808],[9.6157,47.1068],[9.6142,47.1107],[9.6095,47.1224],[9.6056,47.1323],[9.5818,47.1549],[9.5671,47.1608],[9.5521,47.1669],[9.552,47.1756],[9.5619,47.1906],[9.5629,47.1977],[9.5543,47.2116],[9.5448,47.2203],[9.5404,47.2291],[9.5431,47.2348],[9.5471,47.243],[9.5342,47.2512],[9.5303,47.2537],[9.5212,47.2628],[9.5874,47.3278],[9.601,47.3613],[9.6495,47.4097],[9.6503,47.4521],[9.5845,47.4807],[9.5531,47.5169],[9.5475,47.5345],[9.5541,47.5327],[9.6126,47.5219],[9.6767,47.5226],[9.704,47.5314],[9.7527,47.5821],[9.7821,47.5884],[9.808,47.5763],[9.8131,47.5418],[9.9188,47.5322],[9.9459,47.5408],[9.9487,47.5242],[9.9936,47.4766],[10.0226,47.488],[10.0806,47.4274],[10.0532,47.4049],[10.0732,47.3655],[10.1257,47.3627],[10.1909,47.3792],[10.2086,47.3545],[10.1859,47.295],[10.1554,47.2729],[10.175,47.2724],[10.2394,47.2777],[10.3059,47.3022],[10.3434,47.3308],[10.3657,47.3611],[10.4116,47.381],[10.452,47.4388],[10.4422,47.4814],[10.4196,47.493],[10.431,47.5422],[10.4142,47.573],[10.4536,47.5811],[10.4535,47.5462],[10.4825,47.5329],[10.5251,47.5285],[10.5837,47.5625],[10.6079,47.5623],[10.7399,47.5285],[10.7522,47.5154],[10.7903,47.5161],[10.8586,47.5307],[10.8922,47.5149],[10.8516,47.4931],[10.9099,47.469],[10.9598,47.4325],[10.9553,47.4096],[10.9795,47.3905],[11.0837,47.3895],[11.1686,47.4243],[11.2152,47.423],[11.213,47.3958],[11.2588,47.4007],[11.3056,47.4354],[11.3839,47.4449],[11.3886,47.4622],[11.3655,47.4693],[11.4126,47.5061],[11.4826,47.5026],[11.5512,47.5137],[11.5694,47.5274],[11.5891,47.5704],[11.6205,47.5897],[11.6826,47.5834],[11.764,47.5831],[11.8203,47.5753],[11.852,47.5992],[11.9359,47.6107],[12.1656,47.604],[12.2021,47.6298],[12.2023,47.6778],[12.1766,47.7058],[12.2422,47.732],[12.2233,47.6959],[12.2387,47.6789],[12.2937,47.69],[12.3515,47.6817],[12.4241,47.6916],[12.4528,47.6498],[12.4966,47.6289],[12.5634,47.6418],[12.5892,47.6115],[12.6576,47.5708],[12.6571,47.5385],[12.6788,47.4989],[12.5988,47.406],[12.5684,47.393],[12.5018,47.3852],[12.4574,47.3334],[12.3929,47.3207],[12.3155,47.3328],[12.2804,47.3182],[12.1685,47.291],[12.1238,47.2897],[12.096,47.2799],[12.0982,47.2597],[12.0818,47.2056],[12.0843,47.1764],[12.1196,47.1451],[12.1313,47.1212],[12.1331,47.0788],[12.1806,47.0852],[12.2039,47.067],[12.3206,47.1049],[12.38,47.1442],[12.4761,47.1558],[12.5777,47.1442],[12.6338,47.112],[12.665,47.1365],[12.7724,47.0993],[12.9144,47.076],[12.9942,47.0408],[13.0595,47.0288],[13.1735,47.0375],[13.2261,47.0549],[13.2743,47.0838],[13.3082,47.0872],[13.4397,47.0625],[13.5618,47.0466],[13.6062,47.0442],[13.6672,47.0261],[13.7531,46.9806],[13.7823,46.9542],[13.8206,46.9878],[13.8637,47.0423],[13.8802,47.0727],[13.8799,47.1054],[13.9372,47.1506],[13.9317,47.1694],[13.9018,47.1839],[13.8608,47.222],[13.8482,47.2504],[13.7967,47.3021],[13.6941,47.2745],[13.6307,47.3056],[13.6045,47.3425],[13.5748,47.4099],[13.5652,47.4454],[13.5818,47.4864],[13.5242,47.5112],[13.4889,47.5358],[13.4791,47.5644],[13.5056,47.6029],[13.489,47.6415],[13.5256,47.7175],[13.5132,47.7354],[13.4581,47.7474],[13.4533,47.77],[13.5087,47.7732],[13.521,47.7835],[13.4976,47.7979],[13.3168,47.825],[13.2919,47.8406],[13.2713,47.9122],[13.2763,47.9523],[13.2953,47.9693],[13.3509,47.9655],[13.361,47.9806],[13.3029,48.0099],[13.2347,47.9889],[13.1389,47.9872],[13.0899,48.0003],[13.0359,48.0309],[12.9684,48.0316],[12.9375,48.0213],[12.9271,48.0018],[12.8482,47.9824],[12.8306,48.0155],[12.7602,48.0649],[12.737,48.1],[12.745,48.1206],[12.8221,48.1607],[12.8776,48.202],[12.933,48.2093],[13.0328,48.2636],[13.1364,48.2911],[13.2742,48.3071],[13.3078,48.3196],[13.4056,48.3766],[13.4382,48.441],[13.4364,48.4692],[13.4564,48.5067],[13.4401,48.561],[13.4546,48.5734],[13.5207,48.5846],[13.6244,48.5654],[13.6734,48.5355],[13.7165,48.5217],[13.7339,48.5598],[13.766,48.5638],[13.8024,48.6117],[13.8009,48.6752],[13.8169,48.6956],[13.7859,48.7248],[13.8157,48.7664],[13.8559,48.7593],[13.915,48.731],[13.9823,48.7065],[14.0329,48.6549],[14.0062,48.6395],[14.0408,48.6012],[14.0748,48.5917],[14.2165,48.5812],[14.3157,48.5579],[14.4054,48.5863],[14.4436,48.6365],[14.4582,48.6432],[14.4821,48.6245],[14.522,48.6106],[14.5788,48.6205],[14.6019,48.6045],[14.6347,48.6023],[14.6592,48.577],[14.6911,48.5865],[14.7007,48.6155],[14.7038,48.6731],[14.7227,48.6934],[14.7754,48.724],[14.8004,48.7765],[14.8677,48.7756],[14.9193,48.7616],[14.9511,48.7803],[14.9381,48.8028],[14.9682,48.885],[14.9646,48.9717],[14.9821,49.0079],[15.0596,48.9972],[15.1374,48.993],[15.149,48.9653],[15.1419,48.9375],[15.2381,48.9508],[15.2629,48.9826],[15.3355,48.975],[15.4719,48.9367],[15.5442,48.9026],[15.6037,48.8874],[15.6813,48.8585],[15.7268,48.855],[15.7792,48.8709],[15.8185,48.8723],[15.8401,48.8501],[15.886,48.842],[15.9081,48.8197],[16.0323,48.7581],[16.0854,48.7429],[16.1778,48.7465],[16.3583,48.7273],[16.385,48.7371],[16.4357,48.7945],[16.5103,48.8048],[16.6431,48.7783],[16.662,48.74],[16.729,48.7331],[16.7989,48.7092],[16.873,48.719],[16.8967,48.697],[16.9105,48.6308],[16.945,48.6042],[16.9491,48.5448],[16.9139,48.5193],[16.8608,48.4438],[16.8445,48.3656],[16.9019,48.3394],[16.8984,48.3162],[16.9166,48.2908],[16.9506,48.2766],[16.9819,48.1613],[17.0072,48.1428],[17.0475,48.131],[17.0625,48.1127],[17.0344,48.1],[17.0035,48.1091],[16.983,48.0978],[16.9829,48.0682],[16.9623,48.0458],[16.9002,48.0721],[16.8566,48.0632],[16.7738,48.0298],[16.7504,48.0295],[16.7045,48.0092],[16.6803,47.9715],[16.6123,47.9332],[16.5732,47.9198],[16.5031,47.9353],[16.4393,47.9281],[16.3909,47.9029],[16.36,47.8718],[16.358,47.833],[16.3242,47.7964],[16.2897,47.7936],[16.2893,47.7325],[16.3125,47.7025],[16.3758,47.6449],[16.3212,47.5717],[16.3245,47.5013],[16.2722,47.4634],[16.2309,47.4455],[16.1479,47.443],[16.0717,47.3949],[16.0475,47.4106],[16.02,47.3724],[16.0584,47.2911],[16.0675,47.2376],[16.095,47.1651],[16.0844,47.1069],[16.0895,47.0829],[16.1347,47.0402],[16.1363,47.0249],[16.0545,46.9442],[16.0115,46.9133],[16.0037,46.8707],[16.0284,46.8369],[16.032,46.8376],[16.0529,46.8461],[16.094,46.8628],[16.1302,46.8567],[16.1354,46.8558],[16.1795,46.8585],[16.272,46.864],[16.2822,46.8599],[16.2974,46.847],[16.3019,46.8432],[16.3107,46.84],[16.3253,46.8394],[16.3298,46.8344],[16.3275,46.8255],[16.3218,46.8133],[16.3149,46.802],[16.3111,46.7975],[16.3022,46.787],[16.2995,46.7795],[16.2982,46.7758],[16.3142,46.7433],[16.3434,46.7142],[16.3573,46.7158],[16.3576,46.699],[16.3654,46.6967],[16.3662,46.6965],[16.3714,46.6949],[16.39,46.6942],[16.405,46.6873],[16.4105,46.6684],[16.4026,46.6631],[16.3967,46.6591],[16.3776,46.6529],[16.3684,46.643],[16.3722,46.6363],[16.3764,46.6291],[16.3946,46.619],[16.4302,46.6044],[16.4671,46.5647],[16.5008,46.5448],[16.5153,46.5017],[16.4911,46.5151],[16.4708,46.5203],[16.4404,46.519],[16.432,46.5232],[16.4152,46.5356],[16.4063,46.5395],[16.3695,46.5406],[16.3579,46.547],[16.3517,46.5395],[16.3441,46.547],[16.3403,46.5438],[16.33,46.5355],[16.3107,46.531],[16.3015,46.5271],[16.2954,46.5244],[16.2639,46.5159],[16.2609,46.5136],[16.2349,46.4933],[16.2342,46.4849],[16.2375,46.4651],[16.2494,46.4375],[16.2482,46.4133],[16.257,46.3999],[16.2741,46.3921],[16.2799,46.3787],[16.2756,46.3732],[16.2528,46.3734],[16.2171,46.3674],[16.1918,46.3698],[16.1775,46.3756],[16.1536,46.3914],[16.1316,46.3931],[16.106,46.3737],[16.0887,46.3731],[16.058,46.3775],[16.0574,46.3597],[16.0597,46.3453],[16.0596,46.3323],[16.0524,46.3186],[16.0499,46.3167],[16.0389,46.3084],[16.0192,46.2988],[15.9937,46.2906],[15.9487,46.2842],[15.9189,46.2728],[15.8837,46.2594],[15.8809,46.2593],[15.8793,46.2593],[15.8342,46.2584],[15.8183,46.2555],[15.8031,46.2505],[15.7995,46.2486],[15.7891,46.2431],[15.7689,46.2194],[15.7498,46.2108],[15.678,46.2145],[15.6613,46.2153],[15.6398,46.2077],[15.6266,46.1952],[15.6229,46.1917],[15.6043,46.167],[15.59,46.1387],[15.5899,46.1135],[15.6038,46.091],[15.6235,46.0764],[15.6236,46.0764],[15.6315,46.0706],[15.6437,46.0655],[15.6717,46.0574],[15.6839,46.0511],[15.6929,46.0416],[15.698,46.0362],[15.682,46.0135],[15.6742,45.9932],[15.6754,45.9725],[15.6756,45.9252],[15.6594,45.8888],[15.6755,45.856],[15.6761,45.8417],[15.6661,45.8317],[15.6261,45.8202],[15.5873,45.8192],[15.5497,45.8237],[15.5235,45.8268],[15.4854,45.8102],[15.4513,45.8151],[15.4356,45.8021],[15.4411,45.7822],[15.4298,45.7757],[15.331,45.7525],[15.3038,45.7461],[15.2635,45.7304],[15.2499,45.7137],[15.2509,45.7077],[15.2582,45.7051],[15.2678,45.6985],[15.2778,45.685],[15.2919,45.6756],[15.3049,45.6721],[15.315,45.6809],[15.3308,45.6846],[15.35,45.6696],[15.3683,45.649],[15.3738,45.6402],[15.3531,45.6403],[15.3267,45.6323],[15.2974,45.6257],[15.2879,45.6103],[15.2686,45.6017],[15.2696,45.5934],[15.2822,45.5715],[15.2967,45.523],[15.311,45.5059],[15.3614,45.482],[15.3339,45.4585],[15.314,45.4505],[15.2816,45.451],[15.2258,45.4365],[15.1842,45.4256],[15.1393,45.43],[15.0661,45.4739],[15.0562,45.4799],[15.0074,45.4808],[14.9773,45.4917],[14.9626,45.4931],[14.9454,45.5045],[14.9226,45.5149],[14.9044,45.5144],[14.9008,45.4931],[14.8816,45.4698],[14.8388,45.459],[14.7972,45.4652],[14.7815,45.4931],[14.6883,45.522],[14.6685,45.534],[14.6717,45.5568],[14.6637,45.5702],[14.6503,45.5748],[14.616,45.5941],[14.6031,45.6036],[14.5939,45.6162],[14.5941,45.648],[14.5919,45.6634],[14.5809,45.6678],[14.5691,45.6643],[14.5561,45.6567],[14.5436,45.6364],[14.4986,45.5962],[14.4915,45.5792],[14.4821,45.5424],[14.4689,45.5256],[14.4112,45.4932],[14.3728,45.4778],[14.3268,45.4749],[14.2804,45.4811],[14.2187,45.4972],[14.1455,45.4762],[14.1173,45.473],[14.1167,45.473],[14.0929,45.4739],[14.0667,45.4803],[14.014,45.508],[13.9875,45.5119],[13.9838,45.5195],[13.9522,45.546],[13.9104,45.552],[13.8946,45.5598],[13.88,45.5725],[13.8679,45.6022],[13.8478,45.5847],[13.8005,45.5813],[13.7611,45.5962],[13.7118,45.5932],[13.7302,45.6131],[13.757,45.6137],[13.7599,45.6135],[13.772,45.6214],[13.6201,45.6492],[13.5731,45.6578],[13.5261,45.6664],[13.432,45.6836],[13.428,45.6811],[13.4017,45.6754],[13.3767,45.6832],[13.4011,45.6893],[13.3862,45.692],[13.341,45.7003],[13.341,45.717],[13.3862,45.717],[13.3862,45.7324],[13.4226,45.7241],[13.4324,45.7534],[13.4324,45.7788],[13.4036,45.8894],[13.4079,45.9175],[13.4375,45.9665],[13.4649,45.9899],[13.4618,46.0064],[13.4823,46.0184],[13.4928,46.0325],[13.4903,46.0389],[13.4823,46.0448],[13.5051,46.066],[13.5226,46.0753],[13.6164,46.125],[13.645,46.1617],[13.6411,46.1714],[13.6274,46.1817],[13.5845,46.1813],[13.559,46.1841],[13.529,46.2048],[13.5102,46.214],[13.4823,46.2179],[13.4683,46.2234],[13.4228,46.2286],[13.4374,46.2109],[13.4101,46.208],[13.3981,46.2305],[13.3847,46.2433],[13.3786,46.2684],[13.3653,46.2903],[13.3956,46.3067],[13.4232,46.3448],[13.4341,46.3539],[13.4597,46.359],[13.4837,46.3712],[13.53,46.3883],[13.5757,46.4267],[13.6002,46.4426],[13.6588,46.4451],[13.6775,46.4521],[13.6859,46.464],[13.6899,46.4933],[13.701,46.5197],[13.6703,46.5187],[13.5492,46.5458],[13.5068,46.5469],[13.478,46.5636],[13.417,46.5605],[13.3733,46.5658],[13.2714,46.5508],[13.2311,46.5522],[13.1465,46.585],[13.0645,46.598],[12.8304,46.6096],[12.7485,46.641],[12.6974,46.6405],[12.6714,46.6525],[12.6202,46.6565],[12.562,46.6512],[12.4999,46.6721],[12.4696,46.6758],[12.3992,46.6397],[12.3825,46.6181],[12.3407,46.6282],[12.3024,46.6146],[12.2531,46.6109],[12.214,46.5961],[12.1779,46.6348],[12.1386,46.6443],[12.0991,46.6678],[12.0803,46.6499],[12.0712,46.6131],[12.022,46.5394],[11.8519,46.5142],[11.8322,46.504],[11.8118,46.5303],[11.7784,46.5101],[11.7158,46.5138],[11.6841,46.5077],[11.6412,46.4727],[11.5953,46.3862],[11.5774,46.3681],[11.5378,46.3537],[11.4766,46.3596],[11.4549,46.3348],[11.4085,46.3245],[11.3876,46.2811],[11.3707,46.269],[11.3282,46.2935],[11.2871,46.2591],[11.242,46.2312],[11.191,46.2271],[11.1615,46.2495],[11.1562,46.284],[11.2018,46.3392],[11.2145,46.4693],[11.1927,46.5056],[11.1454,46.4872],[11.1176,46.4938],[11.0859,46.5236],[11.0553,46.5156],[11.0643,46.458],[11.0511,46.446],[10.9974,46.4792],[10.8399,46.4307],[10.7975,46.4469],[10.7762,46.4754],[10.7452,46.4849],[10.6575,46.4495],[10.6247,46.4545],[10.5413,46.4895],[10.4939,46.4945],[10.4518,46.5467],[10.4659,46.5785],[10.4591,46.6236],[10.4382,46.6357],[10.3956,46.6388],[10.3692,46.6724],[10.3944,46.7008],[10.3997,46.7355],[10.4287,46.7556],[10.4172,46.7989],[10.4485,46.8322],[10.4538,46.8644],[10.4638,46.9197],[10.4585,46.9366],[10.4156,46.9624],[10.3947,46.9854],[10.3679,46.9955],[10.3389,46.9841],[10.2962,46.9414],[10.2957,46.9227],[10.2351,46.9233],[10.2014,46.8668],[10.1252,46.8468],[10.0681,46.8566],[10.0069,46.8908],[9.8999,46.9144],[9.8624,46.9398],[9.8668,47.0019],[9.858,47.0155],[9.6691,47.0562],[9.5812,47.0569]]]}}
]}
