{"type":"FeatureCollection","features":[
{"type":"Feature","properties":{"entityId":"hanseatic-cities","from":1806,"to":1810,"certainty":"estimated","source":"유럽 쪽은 Natural Earth 1:10m admin-1(v5.1.2) 현대 행정구역 조각을 그 시기 국경에 맞춰 묶고, 조각이 역사 경계와 다른 곳은 선을 그어 나눈 근사. 유럽 밖(시베리아·중앙아시아·극동)은 대략적인 추정. 운영자 검수 필요"},"geometry":{"type":"MultiPolygon","coordinates":[[[[8.4961,53.224],[8.513,53.1998],[8.5544,53.1896],[8.5781,53.1798],[8.611,53.1801],[8.6315,53.1596],[8.638,53.1303],[8.7027,53.0799],[8.7024,53.0511],[8.7195,53.0479],[8.7771,53.0534],[8.8247,53.035],[8.8441,53.0332],[8.866,53.0397],[8.866,53.0475],[8.9145,53.0246],[8.9577,53.0426],[8.9727,53.0526],[8.9767,53.0756],[8.9899,53.0936],[8.9616,53.1158],[8.973,53.1395],[8.9394,53.1618],[8.9285,53.1611],[8.9124,53.1393],[8.895,53.1389],[8.8605,53.1493],[8.8239,53.1681],[8.7837,53.169],[8.7566,53.1787],[8.7455,53.1916],[8.6903,53.1884],[8.6179,53.2048],[8.5902,53.2154],[8.5606,53.2126],[8.5187,53.2261],[8.4961,53.224]]],[[[9.7408,53.5726],[9.7441,53.5724],[9.7818,53.5697],[9.7818,53.5453],[9.764,53.5477],[9.7684,53.5082],[9.8106,53.4624],[9.8572,53.4329],[9.8908,53.449],[9.9055,53.4412],[9.9093,53.4181],[9.95,53.422],[9.9854,53.4151],[10.0304,53.4292],[10.0387,53.4431],[10.0831,53.4509],[10.1314,53.4306],[10.1536,53.4136],[10.1865,53.4044],[10.2416,53.4066],[10.2661,53.4271],[10.328,53.4327],[10.3126,53.4549],[10.2476,53.4888],[10.2139,53.5188],[10.1866,53.5253],[10.1732,53.5738],[10.2087,53.583],[10.2228,53.6337],[10.2048,53.6628],[10.1647,53.6845],[10.1949,53.7225],[10.182,53.7278],[10.1423,53.7133],[10.0929,53.7202],[10.0782,53.7129],[10.0652,53.6808],[10.0136,53.673],[9.994,53.6514],[9.9273,53.6457],[9.8286,53.5972],[9.8062,53.5991],[9.81,53.6179],[9.7684,53.6292],[9.7408,53.5726]]],[[[10.55,53.72],[10.65,53.8],[10.75,53.84],[10.7519,53.84],[10.7513,53.8431],[10.7633,53.8651],[10.7726,53.8699],[10.8123,53.8827],[10.8613,53.9098],[10.8852,53.9191],[10.9073,53.9155],[10.9067,53.9053],[10.9129,53.9021],[10.9453,53.9052],[10.95,53.9076],[10.95,53.9149],[10.9203,53.9205],[10.9042,53.9313],[10.906,53.9612],[10.9222,53.9614],[10.9222,54.02],[10.55,54.02],[10.55,53.72]]]]}}
]}
