{
 "type": "FeatureCollection",
 "features": [
  {
   "type": "Feature",
   "properties": {
    "entityId": "hubaekje",
    "from": 900,
    "to": 936,
    "certainty": "estimated",
    "source": "중고등학교 한국사 교과서 시대별 지도의 일반적인 경계를 따른 대략적인 추정. 운영자 검수 필요"
   },
   "geometry": {
    "type": "Polygon",
    "coordinates": [
     [
      [
       125.95,
       36.7
      ],
      [
       126.7,
       36.7
      ],
      [
       127.1,
       36.6
      ],
      [
       127.5,
       36.55
      ],
      [
       128,
       36.6
      ],
      [
       127.95,
       36.2
      ],
      [
       127.95,
       35.9
      ],
      [
       128.1,
       35.6
      ],
      [
       128,
       35.2
      ],
      [
       128.05,
       34.8
      ],
      [
       128.1,
       34.4
      ],
      [
       127.8,
       34.4
      ],
      [
       126.8,
       34
      ],
      [
       125.8,
       34.2
      ],
      [
       125.5,
       35
      ],
      [
       125.8,
       36.5
      ],
      [
       125.95,
       36.7
      ]
     ]
    ]
   }
  }
 ]
}
