{"type":"FeatureCollection","features":[
{"type":"Feature","properties":{"entityId":"hungary","from":1918,"to":1921,"certainty":"estimated","source":"유럽 쪽은 Natural Earth 1:10m admin-1(v5.1.2) 현대 행정구역 조각을 그 시기 국경에 맞춰 묶고, 조각이 역사 경계와 다른 곳은 선을 그어 나눈 근사. 유럽 밖(시베리아·중앙아시아·극동)은 대략적인 추정. 운영자 검수 필요"},"geometry":{"type":"Polygon","coordinates":[[[17.8835,47.7525],[18.1126,47.7625],[18.2359,47.7539],[18.273,47.7563],[18.3479,47.7768],[18.5526,47.7928],[18.5974,47.7907],[18.6338,47.7798],[18.6928,47.778],[18.7677,47.8223],[18.8149,47.8322],[18.7488,47.8707],[18.7422,47.8895],[18.7548,47.9518],[18.7432,47.9711],[18.7942,47.9931],[18.8385,48.04],[18.9336,48.0543],[19.019,48.0655],[19.0985,48.0707],[19.2225,48.0606],[19.2932,48.0878],[19.4282,48.0859],[19.4817,48.1113],[19.503,48.1894],[19.5312,48.2107],[19.6232,48.227],[19.6439,48.2248],[19.687,48.1969],[19.7566,48.2003],[19.7743,48.1859],[19.7667,48.159],[19.7761,48.1495],[19.7856,48.1487],[19.8217,48.1579],[19.8463,48.1527],[19.8843,48.1296],[19.9051,48.1243],[19.9286,48.1301],[19.9739,48.1584],[20.0383,48.1772],[20.097,48.1984],[20.1345,48.2467],[20.1709,48.244],[20.2291,48.2709],[20.2724,48.2525],[20.3243,48.2799],[20.3702,48.3343],[20.409,48.4137],[20.466,48.4638],[20.4817,48.4787],[20.4817,48.5261],[20.5725,48.5366],[20.7841,48.5691],[20.8158,48.5638],[20.8455,48.5458],[20.8914,48.5411],[20.9458,48.519],[21.0065,48.5182],[21.0639,48.5062],[21.1093,48.4891],[21.1867,48.5137],[21.2199,48.5187],[21.2618,48.5032],[21.3023,48.5399],[21.4246,48.5613],[21.4908,48.5403],[21.5218,48.5001],[21.5917,48.493],[21.6134,48.4404],[21.6776,48.3723],[21.7277,48.3409],[21.7894,48.3355],[21.8412,48.3532],[21.8843,48.3575],[21.9293,48.3729],[22.018,48.3797],[22.0965,48.3794],[22.1328,48.4048],[22.1583,48.4022],[22.202,48.4182],[22.2718,48.4035],[22.2568,48.3573],[22.2913,48.3576],[22.3081,48.2937],[22.3571,48.2431],[22.4342,48.2367],[22.4814,48.2426],[22.5558,48.1772],[22.6001,48.1011],[22.6932,48.1018],[22.7457,48.1163],[22.831,48.0724],[22.8616,48.0284],[22.8495,47.9931],[22.8324,47.9789],[22.8776,47.9467],[22.8361,47.9025],[22.7796,47.8823],[22.7529,47.8612],[22.7603,47.8389],[22.7458,47.825],[22.6917,47.8107],[22.6377,47.7716],[22.6012,47.7609],[22.5285,47.761],[22.4544,47.7874],[22.4237,47.7826],[22.4073,47.7431],[22.3683,47.7312],[22.3221,47.7359],[22.2617,47.7158],[22.2042,47.6663],[22.1976,47.6393],[22.1676,47.5949],[22.1542,47.5822],[22.0996,47.5709],[22.0374,47.5393],[21.9889,47.4929],[22.0016,47.3938],[21.9815,47.3661],[21.937,47.3572],[21.9008,47.3357],[21.8622,47.2974],[21.8236,47.2149],[21.826,47.1851],[21.7799,47.1407],[21.7705,47.114],[21.7435,47.0916],[21.6942,47.0692],[21.6343,47.0194],[21.6675,46.9924],[21.6485,46.943],[21.5944,46.91],[21.5918,46.8607],[21.5731,46.8418],[21.5366,46.835],[21.5029,46.8053],[21.4705,46.743],[21.5052,46.7232],[21.4836,46.6849],[21.4362,46.6737],[21.4235,46.6582],[21.396,46.6264],[21.3744,46.6184],[21.3162,46.6166],[21.301,46.6039],[21.2913,46.5467],[21.2476,46.4975],[21.2451,46.4769],[21.2744,46.4384],[21.2807,46.4164],[21.2575,46.4042],[21.1956,46.3981],[21.1687,46.3628],[21.1645,46.3183],[21.1349,46.2785],[21.0992,46.2764],[21.0515,46.2361],[21.0335,46.2313],[21.007,46.2489],[20.9617,46.2483],[20.9066,46.2622],[20.867,46.2571],[20.8397,46.2711],[20.7874,46.2634],[20.7393,46.2375],[20.7448,46.2003],[20.7178,46.19],[20.7044,46.1685],[20.6835,46.1447],[20.6076,46.1295],[20.549,46.1561],[20.4685,46.1741],[20.4442,46.1469],[20.2832,46.1438],[20.2428,46.1081],[20.1885,46.1404],[20.1454,46.1371],[20.1148,46.1522],[20.0886,46.1541],[20.0634,46.1453],[20.035,46.143],[19.9931,46.1594],[19.9292,46.1635],[19.8736,46.153],[19.7905,46.1291],[19.7119,46.1587],[19.6478,46.1739],[19.5499,46.1642],[19.4875,46.1342],[19.4993,46.1086],[19.473,46.0987],[19.4369,46.068],[19.4047,46.0602],[19.3789,46.0337],[19.2983,46.0221],[19.2635,45.9814],[19.2357,45.9777],[19.148,45.9841],[19.111,46.013],[19.0654,46.012],[19.0497,45.9931],[19.0486,45.9634],[19.0056,45.9626],[18.9818,45.9508],[18.9818,45.9218],[18.9013,45.9312],[18.8225,45.9056],[18.8049,45.9136],[18.786,45.8869],[18.7633,45.884],[18.6743,45.9104],[18.633,45.8919],[18.6222,45.8684],[18.5855,45.8269],[18.5303,45.7909],[18.4818,45.7914],[18.4117,45.7432],[18.3838,45.7432],[18.3672,45.7582],[18.3177,45.7473],[18.2112,45.7854],[18.129,45.7854],[18.0805,45.7717],[17.9754,45.7921],[17.9062,45.7921],[17.858,45.7759],[17.8092,45.8144],[17.6873,45.8406],[17.6547,45.8521],[17.6458,45.8918],[17.5911,45.9362],[17.5119,45.9539],[17.4267,45.9567],[17.4062,45.9437],[17.3892,45.9631],[17.3453,45.9557],[17.3379,45.9846],[17.3066,45.9799],[17.2901,45.9915],[17.3168,45.9977],[17.2759,46.012],[17.2486,46.0802],[17.1973,46.1212],[17.1162,46.1231],[17.0529,46.1535],[17.028,46.1805],[16.9748,46.2106],[16.9407,46.2515],[16.8892,46.2922],[16.8793,46.3121],[16.8594,46.3648],[16.8377,46.3819],[16.7693,46.3961],[16.7551,46.3819],[16.7429,46.3996],[16.7124,46.4127],[16.6593,46.4642],[16.5943,46.483],[16.5837,46.4707],[16.5153,46.5017],[16.5008,46.5448],[16.4671,46.5647],[16.4302,46.6044],[16.3946,46.619],[16.3764,46.6291],[16.3722,46.6363],[16.3684,46.643],[16.3776,46.6529],[16.3967,46.6591],[16.4026,46.6631],[16.4105,46.6684],[16.405,46.6873],[16.39,46.6942],[16.3714,46.6949],[16.3662,46.6965],[16.3654,46.6967],[16.3576,46.699],[16.3573,46.7158],[16.3434,46.7142],[16.3142,46.7433],[16.2982,46.7758],[16.2995,46.7795],[16.3022,46.787],[16.3111,46.7975],[16.3149,46.802],[16.3218,46.8133],[16.3275,46.8255],[16.3298,46.8344],[16.3253,46.8394],[16.3107,46.84],[16.3019,46.8432],[16.2974,46.847],[16.2822,46.8599],[16.272,46.864],[16.1795,46.8585],[16.1354,46.8558],[16.1302,46.8567],[16.094,46.8628],[16.0529,46.8461],[16.032,46.8376],[16.0284,46.8369],[16.0037,46.8707],[16.0115,46.9133],[16.0545,46.9442],[16.1363,47.0249],[16.1347,47.0402],[16.0895,47.0829],[16.0844,47.1069],[16.095,47.1651],[16.0675,47.2376],[16.0584,47.2911],[16.02,47.3724],[16.0475,47.4106],[16.0717,47.3949],[16.1479,47.443],[16.2309,47.4455],[16.2722,47.4634],[16.3245,47.5013],[16.3212,47.5717],[16.3758,47.6449],[16.3125,47.7025],[16.2893,47.7325],[16.2897,47.7936],[16.3242,47.7964],[16.358,47.833],[16.36,47.8718],[16.3909,47.9029],[16.4393,47.9281],[16.5031,47.9353],[16.5732,47.9198],[16.6123,47.9332],[16.6803,47.9715],[16.7045,48.0092],[16.7504,48.0295],[16.7738,48.0298],[16.8566,48.0632],[16.9002,48.0721],[16.9623,48.0458],[16.9829,48.0682],[16.983,48.0978],[17.0035,48.1091],[17.0344,48.1],[17.0625,48.1127],[17.0802,48.0976],[17.0591,48.0604],[17.0697,48.0357],[17.125,48.0195],[17.1483,48.0054],[17.1848,48.0203],[17.2623,48.0073],[17.3379,47.9987],[17.3694,47.9812],[17.472,47.8888],[17.5266,47.8721],[17.5726,47.8295],[17.6042,47.8342],[17.6399,47.8192],[17.6767,47.7892],[17.7192,47.7737],[17.8257,47.75],[17.8835,47.7525]]]}},
{"type":"Feature","properties":{"entityId":"hungary","from":1921,"to":1938,"certainty":"estimated","source":"유럽 쪽은 Natural Earth 1:10m admin-1(v5.1.2) 현대 행정구역 조각을 그 시기 국경에 맞춰 묶고, 조각이 역사 경계와 다른 곳은 선을 그어 나눈 근사. 유럽 밖(시베리아·중앙아시아·극동)은 대략적인 추정. 운영자 검수 필요"},"geometry":{"type":"Polygon","coordinates":[[[17.3066,45.9799],[17.2901,45.9915],[17.3168,45.9977],[17.2759,46.012],[17.2486,46.0802],[17.1973,46.1212],[17.1162,46.1231],[17.0529,46.1535],[17.028,46.1805],[16.9748,46.2106],[16.9407,46.2515],[16.8892,46.2922],[16.8793,46.3121],[16.8594,46.3648],[16.8377,46.3819],[16.7693,46.3961],[16.7551,46.3819],[16.7429,46.3996],[16.7124,46.4127],[16.6593,46.4642],[16.5943,46.483],[16.5837,46.4707],[16.5153,46.5017],[16.5008,46.5448],[16.4671,46.5647],[16.4302,46.6044],[16.3946,46.619],[16.3764,46.6291],[16.3722,46.6363],[16.3684,46.643],[16.3776,46.6529],[16.3967,46.6591],[16.4026,46.6631],[16.4105,46.6684],[16.405,46.6873],[16.39,46.6942],[16.3714,46.6949],[16.3662,46.6965],[16.3654,46.6967],[16.3576,46.699],[16.3573,46.7158],[16.3434,46.7142],[16.3142,46.7433],[16.2982,46.7758],[16.2995,46.7795],[16.3022,46.787],[16.3111,46.7975],[16.3149,46.802],[16.3218,46.8133],[16.3275,46.8255],[16.3298,46.8344],[16.3253,46.8394],[16.3107,46.84],[16.3019,46.8432],[16.2974,46.847],[16.2822,46.8599],[16.272,46.864],[16.1795,46.8585],[16.1354,46.8558],[16.1302,46.8567],[16.094,46.8628],[16.1229,46.8764],[16.1591,46.9103],[16.2307,46.9484],[16.2329,46.9661],[16.2611,46.9781],[16.2749,47.0043],[16.3878,47.002],[16.4104,46.9904],[16.4864,46.9986],[16.4676,47.0184],[16.4247,47.0241],[16.4932,47.0491],[16.4618,47.0685],[16.4608,47.0963],[16.4819,47.1052],[16.5095,47.1375],[16.4809,47.1508],[16.4337,47.1458],[16.4351,47.1836],[16.4128,47.1872],[16.4214,47.2431],[16.4666,47.2634],[16.4692,47.2932],[16.425,47.3511],[16.4364,47.3585],[16.434,47.3969],[16.4566,47.4118],[16.4819,47.3923],[16.5894,47.4256],[16.627,47.4455],[16.6409,47.4529],[16.6368,47.4932],[16.688,47.5226],[16.6814,47.5506],[16.6506,47.5666],[16.6562,47.5859],[16.6302,47.622],[16.5578,47.6298],[16.5096,47.6431],[16.4819,47.639],[16.4259,47.6543],[16.4078,47.6613],[16.4391,47.6905],[16.4545,47.6818],[16.473,47.6918],[16.5129,47.706],[16.5269,47.7201],[16.5251,47.7333],[16.5311,47.743],[16.5678,47.7542],[16.6098,47.7506],[16.6899,47.7296],[16.7025,47.7236],[16.7168,47.697],[16.7411,47.6815],[16.7975,47.6755],[16.8502,47.7129],[16.8647,47.6867],[16.9027,47.682],[17.0754,47.7085],[17.0506,47.731],[17.0406,47.8011],[17.0556,47.8124],[17.0395,47.8374],[17.0041,47.8633],[17.0512,47.8729],[17.0775,47.8917],[17.0875,47.9226],[17.0752,47.9278],[17.0961,47.9619],[17.0856,47.9701],[17.1483,48.0054],[17.1848,48.0203],[17.2623,48.0073],[17.3379,47.9987],[17.3694,47.9812],[17.472,47.8888],[17.5266,47.8721],[17.5726,47.8295],[17.6042,47.8342],[17.6399,47.8192],[17.6767,47.7892],[17.7192,47.7737],[17.8257,47.75],[17.8835,47.7525],[18.1126,47.7625],[18.2359,47.7539],[18.273,47.7563],[18.3479,47.7768],[18.5526,47.7928],[18.5974,47.7907],[18.6338,47.7798],[18.6928,47.778],[18.7677,47.8223],[18.8149,47.8322],[18.7488,47.8707],[18.7422,47.8895],[18.7548,47.9518],[18.7432,47.9711],[18.7942,47.9931],[18.8385,48.04],[18.9336,48.0543],[19.019,48.0655],[19.0985,48.0707],[19.2225,48.0606],[19.2932,48.0878],[19.4282,48.0859],[19.4817,48.1113],[19.503,48.1894],[19.5312,48.2107],[19.6232,48.227],[19.6439,48.2248],[19.687,48.1969],[19.7566,48.2003],[19.7743,48.1859],[19.7667,48.159],[19.7761,48.1495],[19.7856,48.1487],[19.8217,48.1579],[19.8463,48.1527],[19.8843,48.1296],[19.9051,48.1243],[19.9286,48.1301],[19.9739,48.1584],[20.0383,48.1772],[20.097,48.1984],[20.1345,48.2467],[20.1709,48.244],[20.2291,48.2709],[20.2724,48.2525],[20.3243,48.2799],[20.3702,48.3343],[20.409,48.4137],[20.466,48.4638],[20.4817,48.4787],[20.4817,48.5261],[20.5725,48.5366],[20.7841,48.5691],[20.8158,48.5638],[20.8455,48.5458],[20.8914,48.5411],[20.9458,48.519],[21.0065,48.5182],[21.0639,48.5062],[21.1093,48.4891],[21.1867,48.5137],[21.2199,48.5187],[21.2618,48.5032],[21.3023,48.5399],[21.4246,48.5613],[21.4908,48.5403],[21.5218,48.5001],[21.5917,48.493],[21.6134,48.4404],[21.6776,48.3723],[21.7277,48.3409],[21.7894,48.3355],[21.8412,48.3532],[21.8843,48.3575],[21.9293,48.3729],[22.018,48.3797],[22.0965,48.3794],[22.1328,48.4048],[22.1583,48.4022],[22.202,48.4182],[22.2718,48.4035],[22.2568,48.3573],[22.2913,48.3576],[22.3081,48.2937],[22.3571,48.2431],[22.4342,48.2367],[22.4814,48.2426],[22.5558,48.1772],[22.6001,48.1011],[22.6932,48.1018],[22.7457,48.1163],[22.831,48.0724],[22.8616,48.0284],[22.8495,47.9931],[22.8324,47.9789],[22.8776,47.9467],[22.8361,47.9025],[22.7796,47.8823],[22.7529,47.8612],[22.7603,47.8389],[22.7458,47.825],[22.6917,47.8107],[22.6377,47.7716],[22.6012,47.7609],[22.5285,47.761],[22.4544,47.7874],[22.4237,47.7826],[22.4073,47.7431],[22.3683,47.7312],[22.3221,47.7359],[22.2617,47.7158],[22.2042,47.6663],[22.1976,47.6393],[22.1676,47.5949],[22.1542,47.5822],[22.0996,47.5709],[22.0374,47.5393],[21.9889,47.4929],[22.0016,47.3938],[21.9815,47.3661],[21.937,47.3572],[21.9008,47.3357],[21.8622,47.2974],[21.8236,47.2149],[21.826,47.1851],[21.7799,47.1407],[21.7705,47.114],[21.7435,47.0916],[21.6942,47.0692],[21.6343,47.0194],[21.6675,46.9924],[21.6485,46.943],[21.5944,46.91],[21.5918,46.8607],[21.5731,46.8418],[21.5366,46.835],[21.5029,46.8053],[21.4705,46.743],[21.5052,46.7232],[21.4836,46.6849],[21.4362,46.6737],[21.4235,46.6582],[21.396,46.6264],[21.3744,46.6184],[21.3162,46.6166],[21.301,46.6039],[21.2913,46.5467],[21.2476,46.4975],[21.2451,46.4769],[21.2744,46.4384],[21.2807,46.4164],[21.2575,46.4042],[21.1956,46.3981],[21.1687,46.3628],[21.1645,46.3183],[21.1349,46.2785],[21.0992,46.2764],[21.0515,46.2361],[21.0335,46.2313],[21.007,46.2489],[20.9617,46.2483],[20.9066,46.2622],[20.867,46.2571],[20.8397,46.2711],[20.7874,46.2634],[20.7393,46.2375],[20.7448,46.2003],[20.7178,46.19],[20.7044,46.1685],[20.6835,46.1447],[20.6076,46.1295],[20.549,46.1561],[20.4685,46.1741],[20.4442,46.1469],[20.2832,46.1438],[20.2428,46.1081],[20.1885,46.1404],[20.1454,46.1371],[20.1148,46.1522],[20.0886,46.1541],[20.0634,46.1453],[20.035,46.143],[19.9931,46.1594],[19.9292,46.1635],[19.8736,46.153],[19.7905,46.1291],[19.7119,46.1587],[19.6478,46.1739],[19.5499,46.1642],[19.4875,46.1342],[19.4993,46.1086],[19.473,46.0987],[19.4369,46.068],[19.4047,46.0602],[19.3789,46.0337],[19.2983,46.0221],[19.2635,45.9814],[19.2357,45.9777],[19.148,45.9841],[19.111,46.013],[19.0654,46.012],[19.0497,45.9931],[19.0486,45.9634],[19.0056,45.9626],[18.9818,45.9508],[18.9818,45.9218],[18.9013,45.9312],[18.8225,45.9056],[18.8049,45.9136],[18.786,45.8869],[18.7633,45.884],[18.6743,45.9104],[18.633,45.8919],[18.6222,45.8684],[18.5855,45.8269],[18.5303,45.7909],[18.4818,45.7914],[18.4117,45.7432],[18.3838,45.7432],[18.3672,45.7582],[18.3177,45.7473],[18.2112,45.7854],[18.129,45.7854],[18.0805,45.7717],[17.9754,45.7921],[17.9062,45.7921],[17.858,45.7759],[17.8092,45.8144],[17.6873,45.8406],[17.6547,45.8521],[17.6458,45.8918],[17.5911,45.9362],[17.5119,45.9539],[17.4267,45.9567],[17.4062,45.9437],[17.3892,45.9631],[17.3453,45.9557],[17.3379,45.9846],[17.3066,45.9799]]]}},
{"type":"Feature","properties":{"entityId":"hungary","from":1938,"to":1939,"certainty":"estimated","source":"유럽 쪽은 Natural Earth 1:10m admin-1(v5.1.2) 현대 행정구역 조각을 그 시기 국경에 맞춰 묶고, 조각이 역사 경계와 다른 곳은 선을 그어 나눈 근사. 유럽 밖(시베리아·중앙아시아·극동)은 대략적인 추정. 운영자 검수 필요"},"geometry":{"type":"Polygon","coordinates":[[[16.094,46.8628],[16.1302,46.8567],[16.1354,46.8558],[16.1795,46.8585],[16.272,46.864],[16.2822,46.8599],[16.2974,46.847],[16.3019,46.8432],[16.3107,46.84],[16.3253,46.8394],[16.3298,46.8344],[16.3275,46.8255],[16.3218,46.8133],[16.3149,46.802],[16.3111,46.7975],[16.3022,46.787],[16.2995,46.7795],[16.2982,46.7758],[16.3142,46.7433],[16.3434,46.7142],[16.3573,46.7158],[16.3576,46.699],[16.3654,46.6967],[16.3662,46.6965],[16.3714,46.6949],[16.39,46.6942],[16.405,46.6873],[16.4105,46.6684],[16.4026,46.6631],[16.3967,46.6591],[16.3776,46.6529],[16.3684,46.643],[16.3722,46.6363],[16.3764,46.6291],[16.3946,46.619],[16.4302,46.6044],[16.4671,46.5647],[16.5008,46.5448],[16.5153,46.5017],[16.5837,46.4707],[16.5943,46.483],[16.6593,46.4642],[16.7124,46.4127],[16.7429,46.3996],[16.7551,46.3819],[16.7693,46.3961],[16.8377,46.3819],[16.8594,46.3648],[16.8793,46.3121],[16.8892,46.2922],[16.9407,46.2515],[16.9748,46.2106],[17.028,46.1805],[17.0529,46.1535],[17.1162,46.1231],[17.1973,46.1212],[17.2486,46.0802],[17.2759,46.012],[17.3168,45.9977],[17.2901,45.9915],[17.3066,45.9799],[17.3379,45.9846],[17.3453,45.9557],[17.3892,45.9631],[17.4062,45.9437],[17.4267,45.9567],[17.5119,45.9539],[17.5911,45.9362],[17.6458,45.8918],[17.6547,45.8521],[17.6873,45.8406],[17.8092,45.8144],[17.858,45.7759],[17.9062,45.7921],[17.9754,45.7921],[18.0805,45.7717],[18.129,45.7854],[18.2112,45.7854],[18.3177,45.7473],[18.3672,45.7582],[18.3838,45.7432],[18.4117,45.7432],[18.4818,45.7914],[18.5303,45.7909],[18.5855,45.8269],[18.6222,45.8684],[18.633,45.8919],[18.6743,45.9104],[18.7633,45.884],[18.786,45.8869],[18.8049,45.9136],[18.8225,45.9056],[18.9013,45.9312],[18.9818,45.9218],[18.9818,45.9508],[19.0056,45.9626],[19.0486,45.9634],[19.0497,45.9931],[19.0654,46.012],[19.111,46.013],[19.148,45.9841],[19.2357,45.9777],[19.2635,45.9814],[19.2983,46.0221],[19.3789,46.0337],[19.4047,46.0602],[19.4369,46.068],[19.473,46.0987],[19.4993,46.1086],[19.4875,46.1342],[19.5499,46.1642],[19.6478,46.1739],[19.7119,46.1587],[19.7905,46.1291],[19.8736,46.153],[19.9292,46.1635],[19.9931,46.1594],[20.035,46.143],[20.0634,46.1453],[20.0886,46.1541],[20.1148,46.1522],[20.1454,46.1371],[20.1885,46.1404],[20.2428,46.1081],[20.2832,46.1438],[20.4442,46.1469],[20.4685,46.1741],[20.549,46.1561],[20.6076,46.1295],[20.6835,46.1447],[20.7044,46.1685],[20.7178,46.19],[20.7448,46.2003],[20.7393,46.2375],[20.7874,46.2634],[20.8397,46.2711],[20.867,46.2571],[20.9066,46.2622],[20.9617,46.2483],[21.007,46.2489],[21.0335,46.2313],[21.0515,46.2361],[21.0992,46.2764],[21.1349,46.2785],[21.1645,46.3183],[21.1687,46.3628],[21.1956,46.3981],[21.2575,46.4042],[21.2807,46.4164],[21.2744,46.4384],[21.2451,46.4769],[21.2476,46.4975],[21.2913,46.5467],[21.301,46.6039],[21.3162,46.6166],[21.3744,46.6184],[21.396,46.6264],[21.4235,46.6582],[21.4362,46.6737],[21.4836,46.6849],[21.5052,46.7232],[21.4705,46.743],[21.5029,46.8053],[21.5366,46.835],[21.5731,46.8418],[21.5918,46.8607],[21.5944,46.91],[21.6485,46.943],[21.6675,46.9924],[21.6343,47.0194],[21.6942,47.0692],[21.7435,47.0916],[21.7705,47.114],[21.7799,47.1407],[21.826,47.1851],[21.8236,47.2149],[21.8622,47.2974],[21.9008,47.3357],[21.937,47.3572],[21.9815,47.3661],[22.0016,47.3938],[21.9889,47.4929],[22.0374,47.5393],[22.0996,47.5709],[22.1542,47.5822],[22.1676,47.5949],[22.1976,47.6393],[22.2042,47.6663],[22.2617,47.7158],[22.3221,47.7359],[22.3683,47.7312],[22.4073,47.7431],[22.4237,47.7826],[22.4544,47.7874],[22.5285,47.761],[22.6012,47.7609],[22.6377,47.7716],[22.6917,47.8107],[22.7458,47.825],[22.7603,47.8389],[22.7529,47.8612],[22.7796,47.8823],[22.8361,47.9025],[22.8776,47.9467],[22.9158,47.9592],[22.9157,47.993],[22.9393,48.0057],[22.9882,47.9864],[23.0203,47.9847],[23.0631,48.0075],[23.0939,48.0622],[23.05,48.15],[22.9,48.38],[22.7,48.52],[22.5,48.6],[22.3037,48.6785],[22.3,48.68],[22.15,48.65],[21.95,48.63],[21.7,48.65],[21.4,48.72],[21.15,48.78],[20.9,48.78],[20.65,48.75],[20.4,48.7],[20.15,48.55],[19.9,48.47],[19.65,48.45],[19.4,48.4],[19.15,48.3],[18.9,48.25],[18.7,48.3],[18.2,48.3],[18,48.27],[17.8,48.3],[17.6,48.25],[17.5261,48.2131],[17.5322,48.202],[17.5173,48.1768],[17.4426,48.1513],[17.4169,48.1585],[17.4,48.15],[17.3268,48.1012],[17.3528,48.0936],[17.3036,48.0727],[17.3064,48.0587],[17.2679,48.0329],[17.2623,48.0073],[17.1848,48.0203],[17.1483,48.0054],[17.0856,47.9701],[17.0961,47.9619],[17.0752,47.9278],[17.0875,47.9226],[17.0775,47.8917],[17.0512,47.8729],[17.0041,47.8633],[17.0395,47.8374],[17.0556,47.8124],[17.0406,47.8011],[17.0506,47.731],[17.0754,47.7085],[16.9027,47.682],[16.8647,47.6867],[16.8502,47.7129],[16.7975,47.6755],[16.7411,47.6815],[16.7168,47.697],[16.7025,47.7236],[16.6899,47.7296],[16.6098,47.7506],[16.5678,47.7542],[16.5311,47.743],[16.5251,47.7333],[16.5269,47.7201],[16.5129,47.706],[16.473,47.6918],[16.4545,47.6818],[16.4391,47.6905],[16.4078,47.6613],[16.4259,47.6543],[16.4819,47.639],[16.5096,47.6431],[16.5578,47.6298],[16.6302,47.622],[16.6562,47.5859],[16.6506,47.5666],[16.6814,47.5506],[16.688,47.5226],[16.6368,47.4932],[16.6409,47.4529],[16.627,47.4455],[16.5894,47.4256],[16.4819,47.3923],[16.4566,47.4118],[16.434,47.3969],[16.4364,47.3585],[16.425,47.3511],[16.4692,47.2932],[16.4666,47.2634],[16.4214,47.2431],[16.4128,47.1872],[16.4351,47.1836],[16.4337,47.1458],[16.4809,47.1508],[16.5095,47.1375],[16.4819,47.1052],[16.4608,47.0963],[16.4618,47.0685],[16.4932,47.0491],[16.4247,47.0241],[16.4676,47.0184],[16.4864,46.9986],[16.4104,46.9904],[16.3878,47.002],[16.2749,47.0043],[16.2611,46.9781],[16.2329,46.9661],[16.2307,46.9484],[16.1591,46.9103],[16.1229,46.8764],[16.094,46.8628]]]}},
{"type":"Feature","properties":{"entityId":"hungary","from":1939,"to":1940,"certainty":"estimated","source":"유럽 쪽은 Natural Earth 1:10m admin-1(v5.1.2) 현대 행정구역 조각을 그 시기 국경에 맞춰 묶고, 조각이 역사 경계와 다른 곳은 선을 그어 나눈 근사. 유럽 밖(시베리아·중앙아시아·극동)은 대략적인 추정. 운영자 검수 필요"},"geometry":{"type":"Polygon","coordinates":[[[16.094,46.8628],[16.1302,46.8567],[16.1354,46.8558],[16.1795,46.8585],[16.272,46.864],[16.2822,46.8599],[16.2974,46.847],[16.3019,46.8432],[16.3107,46.84],[16.3253,46.8394],[16.3298,46.8344],[16.3275,46.8255],[16.3218,46.8133],[16.3149,46.802],[16.3111,46.7975],[16.3022,46.787],[16.2995,46.7795],[16.2982,46.7758],[16.3142,46.7433],[16.3434,46.7142],[16.3573,46.7158],[16.3576,46.699],[16.3654,46.6967],[16.3662,46.6965],[16.3714,46.6949],[16.39,46.6942],[16.405,46.6873],[16.4105,46.6684],[16.4026,46.6631],[16.3967,46.6591],[16.3776,46.6529],[16.3684,46.643],[16.3722,46.6363],[16.3764,46.6291],[16.3946,46.619],[16.4302,46.6044],[16.4671,46.5647],[16.5008,46.5448],[16.5153,46.5017],[16.5837,46.4707],[16.5943,46.483],[16.6593,46.4642],[16.7124,46.4127],[16.7429,46.3996],[16.7551,46.3819],[16.7693,46.3961],[16.8377,46.3819],[16.8594,46.3648],[16.8793,46.3121],[16.8892,46.2922],[16.9407,46.2515],[16.9748,46.2106],[17.028,46.1805],[17.0529,46.1535],[17.1162,46.1231],[17.1973,46.1212],[17.2486,46.0802],[17.2759,46.012],[17.3168,45.9977],[17.2901,45.9915],[17.3066,45.9799],[17.3379,45.9846],[17.3453,45.9557],[17.3892,45.9631],[17.4062,45.9437],[17.4267,45.9567],[17.5119,45.9539],[17.5911,45.9362],[17.6458,45.8918],[17.6547,45.8521],[17.6873,45.8406],[17.8092,45.8144],[17.858,45.7759],[17.9062,45.7921],[17.9754,45.7921],[18.0805,45.7717],[18.129,45.7854],[18.2112,45.7854],[18.3177,45.7473],[18.3672,45.7582],[18.3838,45.7432],[18.4117,45.7432],[18.4818,45.7914],[18.5303,45.7909],[18.5855,45.8269],[18.6222,45.8684],[18.633,45.8919],[18.6743,45.9104],[18.7633,45.884],[18.786,45.8869],[18.8049,45.9136],[18.8225,45.9056],[18.9013,45.9312],[18.9818,45.9218],[18.9818,45.9508],[19.0056,45.9626],[19.0486,45.9634],[19.0497,45.9931],[19.0654,46.012],[19.111,46.013],[19.148,45.9841],[19.2357,45.9777],[19.2635,45.9814],[19.2983,46.0221],[19.3789,46.0337],[19.4047,46.0602],[19.4369,46.068],[19.473,46.0987],[19.4993,46.1086],[19.4875,46.1342],[19.5499,46.1642],[19.6478,46.1739],[19.7119,46.1587],[19.7905,46.1291],[19.8736,46.153],[19.9292,46.1635],[19.9931,46.1594],[20.035,46.143],[20.0634,46.1453],[20.0886,46.1541],[20.1148,46.1522],[20.1454,46.1371],[20.1885,46.1404],[20.2428,46.1081],[20.2832,46.1438],[20.4442,46.1469],[20.4685,46.1741],[20.549,46.1561],[20.6076,46.1295],[20.6835,46.1447],[20.7044,46.1685],[20.7178,46.19],[20.7448,46.2003],[20.7393,46.2375],[20.7874,46.2634],[20.8397,46.2711],[20.867,46.2571],[20.9066,46.2622],[20.9617,46.2483],[21.007,46.2489],[21.0335,46.2313],[21.0515,46.2361],[21.0992,46.2764],[21.1349,46.2785],[21.1645,46.3183],[21.1687,46.3628],[21.1956,46.3981],[21.2575,46.4042],[21.2807,46.4164],[21.2744,46.4384],[21.2451,46.4769],[21.2476,46.4975],[21.2913,46.5467],[21.301,46.6039],[21.3162,46.6166],[21.3744,46.6184],[21.396,46.6264],[21.4235,46.6582],[21.4362,46.6737],[21.4836,46.6849],[21.5052,46.7232],[21.4705,46.743],[21.5029,46.8053],[21.5366,46.835],[21.5731,46.8418],[21.5918,46.8607],[21.5944,46.91],[21.6485,46.943],[21.6675,46.9924],[21.6343,47.0194],[21.6942,47.0692],[21.7435,47.0916],[21.7705,47.114],[21.7799,47.1407],[21.826,47.1851],[21.8236,47.2149],[21.8622,47.2974],[21.9008,47.3357],[21.937,47.3572],[21.9815,47.3661],[22.0016,47.3938],[21.9889,47.4929],[22.0374,47.5393],[22.0996,47.5709],[22.1542,47.5822],[22.1676,47.5949],[22.1976,47.6393],[22.2042,47.6663],[22.2617,47.7158],[22.3221,47.7359],[22.3683,47.7312],[22.4073,47.7431],[22.4237,47.7826],[22.4544,47.7874],[22.5285,47.761],[22.6012,47.7609],[22.6377,47.7716],[22.6917,47.8107],[22.7458,47.825],[22.7603,47.8389],[22.7529,47.8612],[22.7796,47.8823],[22.8361,47.9025],[22.8776,47.9467],[22.9158,47.9592],[22.9157,47.993],[22.9393,48.0057],[22.9882,47.9864],[23.0203,47.9847],[23.0631,48.0075],[23.0939,48.0622],[23.099,48.0712],[23.1186,48.0915],[23.1617,48.0959],[23.2314,48.0797],[23.3601,47.9931],[23.396,47.9931],[23.4608,47.9713],[23.4855,47.9742],[23.5145,47.999],[23.5632,48.0058],[23.7105,47.9851],[23.7801,47.9875],[23.8766,47.9344],[23.9773,47.9623],[24.0948,47.9379],[24.1312,47.9145],[24.231,47.897],[24.2979,47.9198],[24.3472,47.9209],[24.3862,47.9437],[24.4285,47.9525],[24.4856,47.9432],[24.5698,47.9373],[24.5882,47.9959],[24.6393,48.0476],[24.6068,48.0886],[24.5384,48.1345],[24.5216,48.1711],[24.5415,48.2128],[24.4949,48.2666],[24.3916,48.3311],[24.3458,48.3402],[24.3317,48.3748],[24.3054,48.3883],[24.2707,48.3572],[24.2341,48.3505],[24.1777,48.3546],[24.1408,48.3799],[24.1312,48.4345],[24.1407,48.4712],[24.137,48.5275],[24.1138,48.5322],[24.0462,48.5051],[24.0015,48.5001],[23.9427,48.4704],[23.9074,48.4887],[23.9168,48.5154],[23.8949,48.5496],[23.8471,48.5628],[23.7817,48.6034],[23.7715,48.6447],[23.709,48.643],[23.6745,48.6545],[23.6124,48.7038],[23.5329,48.7237],[23.4985,48.7312],[23.4458,48.7267],[23.378,48.7371],[23.3505,48.772],[23.3085,48.7502],[23.2982,48.7812],[23.2576,48.7722],[23.2016,48.7771],[23.1798,48.7903],[23.1376,48.8522],[23.105,48.8713],[23.0117,48.8547],[22.9821,48.859],[22.9612,48.8843],[22.926,48.9041],[22.892,48.9354],[22.9024,48.9833],[22.865,49.0132],[22.8553,48.994],[22.784,49.0214],[22.7553,49.0447],[22.6429,49.0432],[22.5808,49.0814],[22.5396,49.0722],[22.5248,49.0329],[22.5205,48.9929],[22.449,48.9714],[22.4149,48.9117],[22.4118,48.8878],[22.3708,48.8582],[22.3623,48.8443],[22.3657,48.7944],[22.3308,48.7564],[22.3225,48.7003],[22.3037,48.6785],[22.3,48.68],[22.15,48.65],[21.95,48.63],[21.7,48.65],[21.4,48.72],[21.15,48.78],[20.9,48.78],[20.65,48.75],[20.4,48.7],[20.15,48.55],[19.9,48.47],[19.65,48.45],[19.4,48.4],[19.15,48.3],[18.9,48.25],[18.7,48.3],[18.2,48.3],[18,48.27],[17.8,48.3],[17.6,48.25],[17.5261,48.2131],[17.5322,48.202],[17.5173,48.1768],[17.4426,48.1513],[17.4169,48.1585],[17.4,48.15],[17.3268,48.1012],[17.3528,48.0936],[17.3036,48.0727],[17.3064,48.0587],[17.2679,48.0329],[17.2623,48.0073],[17.1848,48.0203],[17.1483,48.0054],[17.0856,47.9701],[17.0961,47.9619],[17.0752,47.9278],[17.0875,47.9226],[17.0775,47.8917],[17.0512,47.8729],[17.0041,47.8633],[17.0395,47.8374],[17.0556,47.8124],[17.0406,47.8011],[17.0506,47.731],[17.0754,47.7085],[16.9027,47.682],[16.8647,47.6867],[16.8502,47.7129],[16.7975,47.6755],[16.7411,47.6815],[16.7168,47.697],[16.7025,47.7236],[16.6899,47.7296],[16.6098,47.7506],[16.5678,47.7542],[16.5311,47.743],[16.5251,47.7333],[16.5269,47.7201],[16.5129,47.706],[16.473,47.6918],[16.4545,47.6818],[16.4391,47.6905],[16.4078,47.6613],[16.4259,47.6543],[16.4819,47.639],[16.5096,47.6431],[16.5578,47.6298],[16.6302,47.622],[16.6562,47.5859],[16.6506,47.5666],[16.6814,47.5506],[16.688,47.5226],[16.6368,47.4932],[16.6409,47.4529],[16.627,47.4455],[16.5894,47.4256],[16.4819,47.3923],[16.4566,47.4118],[16.434,47.3969],[16.4364,47.3585],[16.425,47.3511],[16.4692,47.2932],[16.4666,47.2634],[16.4214,47.2431],[16.4128,47.1872],[16.4351,47.1836],[16.4337,47.1458],[16.4809,47.1508],[16.5095,47.1375],[16.4819,47.1052],[16.4608,47.0963],[16.4618,47.0685],[16.4932,47.0491],[16.4247,47.0241],[16.4676,47.0184],[16.4864,46.9986],[16.4104,46.9904],[16.3878,47.002],[16.2749,47.0043],[16.2611,46.9781],[16.2329,46.9661],[16.2307,46.9484],[16.1591,46.9103],[16.1229,46.8764],[16.094,46.8628]]]}},
{"type":"Feature","properties":{"entityId":"hungary","from":1940,"to":1941,"certainty":"estimated","source":"유럽 쪽은 Natural Earth 1:10m admin-1(v5.1.2) 현대 행정구역 조각을 그 시기 국경에 맞춰 묶고, 조각이 역사 경계와 다른 곳은 선을 그어 나눈 근사. 유럽 밖(시베리아·중앙아시아·극동)은 대략적인 추정. 운영자 검수 필요"},"geometry":{"type":"Polygon","coordinates":[[[16.094,46.8628],[16.1302,46.8567],[16.1354,46.8558],[16.1795,46.8585],[16.272,46.864],[16.2822,46.8599],[16.2974,46.847],[16.3019,46.8432],[16.3107,46.84],[16.3253,46.8394],[16.3298,46.8344],[16.3275,46.8255],[16.3218,46.8133],[16.3149,46.802],[16.3111,46.7975],[16.3022,46.787],[16.2995,46.7795],[16.2982,46.7758],[16.3142,46.7433],[16.3434,46.7142],[16.3573,46.7158],[16.3576,46.699],[16.3654,46.6967],[16.3662,46.6965],[16.3714,46.6949],[16.39,46.6942],[16.405,46.6873],[16.4105,46.6684],[16.4026,46.6631],[16.3967,46.6591],[16.3776,46.6529],[16.3684,46.643],[16.3722,46.6363],[16.3764,46.6291],[16.3946,46.619],[16.4302,46.6044],[16.4671,46.5647],[16.5008,46.5448],[16.5153,46.5017],[16.5837,46.4707],[16.5943,46.483],[16.6593,46.4642],[16.7124,46.4127],[16.7429,46.3996],[16.7551,46.3819],[16.7693,46.3961],[16.8377,46.3819],[16.8594,46.3648],[16.8793,46.3121],[16.8892,46.2922],[16.9407,46.2515],[16.9748,46.2106],[17.028,46.1805],[17.0529,46.1535],[17.1162,46.1231],[17.1973,46.1212],[17.2486,46.0802],[17.2759,46.012],[17.3168,45.9977],[17.2901,45.9915],[17.3066,45.9799],[17.3379,45.9846],[17.3453,45.9557],[17.3892,45.9631],[17.4062,45.9437],[17.4267,45.9567],[17.5119,45.9539],[17.5911,45.9362],[17.6458,45.8918],[17.6547,45.8521],[17.6873,45.8406],[17.8092,45.8144],[17.858,45.7759],[17.9062,45.7921],[17.9754,45.7921],[18.0805,45.7717],[18.129,45.7854],[18.2112,45.7854],[18.3177,45.7473],[18.3672,45.7582],[18.3838,45.7432],[18.4117,45.7432],[18.4818,45.7914],[18.5303,45.7909],[18.5855,45.8269],[18.6222,45.8684],[18.633,45.8919],[18.6743,45.9104],[18.7633,45.884],[18.786,45.8869],[18.8049,45.9136],[18.8225,45.9056],[18.9013,45.9312],[18.9818,45.9218],[18.9818,45.9508],[19.0056,45.9626],[19.0486,45.9634],[19.0497,45.9931],[19.0654,46.012],[19.111,46.013],[19.148,45.9841],[19.2357,45.9777],[19.2635,45.9814],[19.2983,46.0221],[19.3789,46.0337],[19.4047,46.0602],[19.4369,46.068],[19.473,46.0987],[19.4993,46.1086],[19.4875,46.1342],[19.5499,46.1642],[19.6478,46.1739],[19.7119,46.1587],[19.7905,46.1291],[19.8736,46.153],[19.9292,46.1635],[19.9931,46.1594],[20.035,46.143],[20.0634,46.1453],[20.0886,46.1541],[20.1148,46.1522],[20.1454,46.1371],[20.1885,46.1404],[20.2428,46.1081],[20.2832,46.1438],[20.4442,46.1469],[20.4685,46.1741],[20.549,46.1561],[20.6076,46.1295],[20.6835,46.1447],[20.7044,46.1685],[20.7178,46.19],[20.7448,46.2003],[20.7393,46.2375],[20.7874,46.2634],[20.8397,46.2711],[20.867,46.2571],[20.9066,46.2622],[20.9617,46.2483],[21.007,46.2489],[21.0335,46.2313],[21.0515,46.2361],[21.0992,46.2764],[21.1349,46.2785],[21.1645,46.3183],[21.1687,46.3628],[21.1956,46.3981],[21.2575,46.4042],[21.2807,46.4164],[21.2744,46.4384],[21.2451,46.4769],[21.2476,46.4975],[21.2913,46.5467],[21.301,46.6039],[21.3162,46.6166],[21.3744,46.6184],[21.396,46.6264],[21.4235,46.6582],[21.4362,46.6737],[21.4836,46.6849],[21.5052,46.7232],[21.5017,46.7252],[21.7,46.75],[22,46.85],[22.3,46.85],[22.6,46.75],[22.9,46.7],[23.2,46.6],[23.5,46.62],[23.75,46.65],[23.95,46.55],[24.2,46.48],[24.45,46.4],[24.7,46.35],[24.8771,46.3205],[24.8767,46.3163],[24.9556,46.2494],[24.9933,46.2335],[25.0565,46.2303],[25.1096,46.2016],[25.1881,46.1434],[25.2416,46.1495],[25.2965,46.1669],[25.3302,46.1646],[25.3828,46.1383],[25.4272,46.1272],[25.4545,46.1059],[25.4598,46.0727],[25.5059,46.0427],[25.5548,46.0457],[25.571,46.0214],[25.5584,45.988],[25.5526,45.9349],[25.554,45.8697],[25.5673,45.841],[25.6377,45.8081],[25.669,45.785],[25.671,45.7516],[25.7189,45.752],[25.7686,45.7653],[25.8018,45.7424],[25.8947,45.7178],[25.9495,45.6844],[25.9804,45.6451],[26.0482,45.6141],[26.1005,45.5644],[26.1889,45.5745],[26.2075,45.5832],[26.2156,45.6122],[26.2346,45.6256],[26.2847,45.6028],[26.3286,45.6181],[26.3427,45.6553],[26.3667,45.6852],[26.395,45.7498],[26.3804,45.8029],[26.4048,45.9175],[26.4209,45.9505],[26.4848,46.0212],[26.4681,46.0274],[26.4406,46.0748],[26.4021,46.0943],[26.4149,46.128],[26.4001,46.1445],[26.325,46.1794],[26.2932,46.1601],[26.2516,46.1503],[26.259,46.1881],[26.2799,46.2265],[26.2869,46.2762],[26.3002,46.302],[26.2927,46.3197],[26.2471,46.3266],[26.1823,46.3057],[26.1595,46.3125],[26.1682,46.35],[26.1619,46.3731],[26.1326,46.3907],[26.0387,46.4033],[26.0189,46.4268],[26.0325,46.4683],[26.0699,46.4872],[26.0691,46.4986],[26.0289,46.5485],[26.012,46.5936],[26.0088,46.668],[25.9271,46.6819],[25.907,46.6748],[25.915,46.6356],[25.889,46.6348],[25.8409,46.6702],[25.8282,46.6936],[25.8165,46.8592],[25.832,46.8853],[25.8668,46.8837],[25.8658,46.9128],[25.7918,46.9661],[25.7627,47.0125],[25.7371,47.039],[25.6713,47.0579],[25.5836,47.0473],[25.5521,47.0559],[25.5189,47.0824],[25.4069,47.1348],[25.3725,47.1403],[25.3118,47.123],[25.2826,47.0704],[25.2419,47.0663],[25.2047,47.0764],[25.1589,47.0914],[25.0686,47.103],[25.0632,47.1728],[25.0765,47.2283],[25.0391,47.2372],[25.0292,47.2576],[25.0568,47.3153],[25.0404,47.3429],[25.004,47.3792],[25.007,47.3926],[25.0494,47.3999],[25.0373,47.4302],[25.0726,47.4495],[25.0905,47.4715],[25.0842,47.4938],[25.0461,47.5297],[24.9562,47.5823],[25.0158,47.5965],[25.0323,47.6123],[25.0219,47.6322],[24.9788,47.6626],[24.9424,47.7156],[24.9289,47.7139],[24.8778,47.7187],[24.8207,47.7841],[24.7937,47.8045],[24.7128,47.8259],[24.6615,47.8539],[24.6493,47.8952],[24.6085,47.9219],[24.5698,47.9373],[24.5882,47.9959],[24.6393,48.0476],[24.6068,48.0886],[24.5384,48.1345],[24.5216,48.1711],[24.5415,48.2128],[24.4949,48.2666],[24.3916,48.3311],[24.3458,48.3402],[24.3317,48.3748],[24.3054,48.3883],[24.2707,48.3572],[24.2341,48.3505],[24.1777,48.3546],[24.1408,48.3799],[24.1312,48.4345],[24.1407,48.4712],[24.137,48.5275],[24.1138,48.5322],[24.0462,48.5051],[24.0015,48.5001],[23.9427,48.4704],[23.9074,48.4887],[23.9168,48.5154],[23.8949,48.5496],[23.8471,48.5628],[23.7817,48.6034],[23.7715,48.6447],[23.709,48.643],[23.6745,48.6545],[23.6124,48.7038],[23.5329,48.7237],[23.4985,48.7312],[23.4458,48.7267],[23.378,48.7371],[23.3505,48.772],[23.3085,48.7502],[23.2982,48.7812],[23.2576,48.7722],[23.2016,48.7771],[23.1798,48.7903],[23.1376,48.8522],[23.105,48.8713],[23.0117,48.8547],[22.9821,48.859],[22.9612,48.8843],[22.926,48.9041],[22.892,48.9354],[22.9024,48.9833],[22.865,49.0132],[22.8553,48.994],[22.784,49.0214],[22.7553,49.0447],[22.6429,49.0432],[22.5808,49.0814],[22.5396,49.0722],[22.5248,49.0329],[22.5205,48.9929],[22.449,48.9714],[22.4149,48.9117],[22.4118,48.8878],[22.3708,48.8582],[22.3623,48.8443],[22.3657,48.7944],[22.3308,48.7564],[22.3225,48.7003],[22.3037,48.6785],[22.3,48.68],[22.15,48.65],[21.95,48.63],[21.7,48.65],[21.4,48.72],[21.15,48.78],[20.9,48.78],[20.65,48.75],[20.4,48.7],[20.15,48.55],[19.9,48.47],[19.65,48.45],[19.4,48.4],[19.15,48.3],[18.9,48.25],[18.7,48.3],[18.2,48.3],[18,48.27],[17.8,48.3],[17.6,48.25],[17.5261,48.2131],[17.5322,48.202],[17.5173,48.1768],[17.4426,48.1513],[17.4169,48.1585],[17.4,48.15],[17.3268,48.1012],[17.3528,48.0936],[17.3036,48.0727],[17.3064,48.0587],[17.2679,48.0329],[17.2623,48.0073],[17.1848,48.0203],[17.1483,48.0054],[17.0856,47.9701],[17.0961,47.9619],[17.0752,47.9278],[17.0875,47.9226],[17.0775,47.8917],[17.0512,47.8729],[17.0041,47.8633],[17.0395,47.8374],[17.0556,47.8124],[17.0406,47.8011],[17.0506,47.731],[17.0754,47.7085],[16.9027,47.682],[16.8647,47.6867],[16.8502,47.7129],[16.7975,47.6755],[16.7411,47.6815],[16.7168,47.697],[16.7025,47.7236],[16.6899,47.7296],[16.6098,47.7506],[16.5678,47.7542],[16.5311,47.743],[16.5251,47.7333],[16.5269,47.7201],[16.5129,47.706],[16.473,47.6918],[16.4545,47.6818],[16.4391,47.6905],[16.4078,47.6613],[16.4259,47.6543],[16.4819,47.639],[16.5096,47.6431],[16.5578,47.6298],[16.6302,47.622],[16.6562,47.5859],[16.6506,47.5666],[16.6814,47.5506],[16.688,47.5226],[16.6368,47.4932],[16.6409,47.4529],[16.627,47.4455],[16.5894,47.4256],[16.4819,47.3923],[16.4566,47.4118],[16.434,47.3969],[16.4364,47.3585],[16.425,47.3511],[16.4692,47.2932],[16.4666,47.2634],[16.4214,47.2431],[16.4128,47.1872],[16.4351,47.1836],[16.4337,47.1458],[16.4809,47.1508],[16.5095,47.1375],[16.4819,47.1052],[16.4608,47.0963],[16.4618,47.0685],[16.4932,47.0491],[16.4247,47.0241],[16.4676,47.0184],[16.4864,46.9986],[16.4104,46.9904],[16.3878,47.002],[16.2749,47.0043],[16.2611,46.9781],[16.2329,46.9661],[16.2307,46.9484],[16.1591,46.9103],[16.1229,46.8764],[16.094,46.8628]]]}},
{"type":"Feature","properties":{"entityId":"hungary","from":1941,"to":1944,"certainty":"estimated","source":"유럽 쪽은 Natural Earth 1:10m admin-1(v5.1.2) 현대 행정구역 조각을 그 시기 국경에 맞춰 묶고, 조각이 역사 경계와 다른 곳은 선을 그어 나눈 근사. 유럽 밖(시베리아·중앙아시아·극동)은 대략적인 추정. 운영자 검수 필요"},"geometry":{"type":"Polygon","coordinates":[[[15.9697,46.7605],[15.9705,46.743],[15.982,46.7185],[16.0033,46.7092],[16.0146,46.6937],[16.0167,46.6707],[16.0278,46.6651],[16.0417,46.6627],[16.0421,46.6627],[16.0671,46.6443],[16.1103,46.6239],[16.1204,46.6191],[16.1608,46.6059],[16.2034,46.5919],[16.2168,46.5841],[16.2475,46.5539],[16.2541,46.5474],[16.268,46.5398],[16.2718,46.5427],[16.2746,46.5445],[16.2816,46.5472],[16.2922,46.5347],[16.3107,46.531],[16.3015,46.5271],[16.2954,46.5244],[16.2639,46.5159],[16.2609,46.5136],[16.2349,46.4933],[16.2342,46.4849],[16.2375,46.4651],[16.2494,46.4375],[16.2482,46.4133],[16.257,46.3999],[16.2741,46.3921],[16.2799,46.3787],[16.3183,46.3687],[16.3409,46.352],[16.3613,46.32],[16.4838,46.3018],[16.5161,46.3015],[16.5856,46.3168],[16.7205,46.3114],[16.7452,46.3057],[16.7914,46.2977],[16.815,46.2844],[16.8594,46.3648],[16.8793,46.3121],[16.8892,46.2922],[16.9407,46.2515],[16.9748,46.2106],[17.028,46.1805],[17.0529,46.1535],[17.1162,46.1231],[17.1973,46.1212],[17.2486,46.0802],[17.2759,46.012],[17.3168,45.9977],[17.2901,45.9915],[17.3066,45.9799],[17.3379,45.9846],[17.3453,45.9557],[17.3892,45.9631],[17.4062,45.9437],[17.4267,45.9567],[17.5119,45.9539],[17.5911,45.9362],[17.6458,45.8918],[17.6547,45.8521],[17.6873,45.8406],[17.8092,45.8144],[17.858,45.7759],[17.9062,45.7921],[17.9754,45.7921],[18.0805,45.7717],[18.129,45.7854],[18.2112,45.7854],[18.3177,45.7473],[18.3672,45.7582],[18.3838,45.7432],[18.4117,45.7432],[18.4818,45.7914],[18.5303,45.7909],[18.5855,45.8269],[18.6222,45.8684],[18.633,45.8919],[18.6743,45.9104],[18.7633,45.884],[18.786,45.8869],[18.8049,45.9136],[18.8225,45.9056],[18.9013,45.9312],[18.907,45.9157],[18.8729,45.8952],[18.904,45.8757],[18.8998,45.8614],[18.8553,45.8574],[18.8487,45.8096],[18.9002,45.7649],[18.9173,45.7066],[18.9627,45.6831],[18.9685,45.6687],[18.9124,45.6192],[18.9036,45.5731],[18.9417,45.5389],[18.9602,45.5391],[19.0181,45.5674],[19.051,45.5389],[19.0951,45.5261],[19.1063,45.5116],[19.0772,45.4916],[19.0179,45.4978],[18.9964,45.4738],[19.0023,45.4437],[19.0313,45.4162],[19.0226,45.4024],[18.9755,45.3911],[18.9775,45.3712],[19.0302,45.3451],[19.083,45.3392],[19.1041,45.2987],[19.1585,45.2762],[19.2898,45.2363],[19.3781,45.2296],[19.4078,45.2031],[19.3939,45.1716],[19.428,45.1461],[19.4609,45.1741],[19.5386,45.1505],[19.6001,45.1384],[19.6988,45.1417],[19.7731,45.1671],[19.792,45.1471],[19.9126,45.1426],[19.9803,45.1598],[19.9856,45.1898],[20.0648,45.1755],[20.185,45.185],[20.2224,45.1755],[20.2778,45.141],[20.2888,45.1837],[20.3165,45.1957],[20.3014,45.2585],[20.2524,45.287],[20.2361,45.3064],[20.264,45.3406],[20.2019,45.3952],[20.2298,45.443],[20.2065,45.4656],[20.113,45.5272],[20.0989,45.5492],[20.1262,45.587],[20.1113,45.6019],[20.0629,45.6034],[20.1019,45.6531],[20.1049,45.6746],[20.092,45.7174],[20.1142,45.7243],[20.0825,45.7477],[20.0041,45.7547],[19.9466,45.7696],[19.8606,45.7722],[19.8346,45.8279],[19.8132,45.8277],[19.7938,45.8712],[19.7649,45.9024],[19.8056,45.9196],[19.7992,45.9874],[19.8088,46.0176],[19.8464,46.049],[19.8593,46.0949],[19.8515,46.1174],[19.8802,46.1423],[19.8736,46.153],[19.9292,46.1635],[19.9931,46.1594],[20.035,46.143],[20.0634,46.1453],[20.0886,46.1541],[20.1148,46.1522],[20.1454,46.1371],[20.1885,46.1404],[20.2428,46.1081],[20.2832,46.1438],[20.4442,46.1469],[20.4685,46.1741],[20.549,46.1561],[20.6076,46.1295],[20.6835,46.1447],[20.7044,46.1685],[20.7178,46.19],[20.7448,46.2003],[20.7393,46.2375],[20.7874,46.2634],[20.8397,46.2711],[20.867,46.2571],[20.9066,46.2622],[20.9617,46.2483],[21.007,46.2489],[21.0335,46.2313],[21.0515,46.2361],[21.0992,46.2764],[21.1349,46.2785],[21.1645,46.3183],[21.1687,46.3628],[21.1956,46.3981],[21.2575,46.4042],[21.2807,46.4164],[21.2744,46.4384],[21.2451,46.4769],[21.2476,46.4975],[21.2913,46.5467],[21.301,46.6039],[21.3162,46.6166],[21.3744,46.6184],[21.396,46.6264],[21.4235,46.6582],[21.4362,46.6737],[21.4836,46.6849],[21.5052,46.7232],[21.5017,46.7252],[21.7,46.75],[22,46.85],[22.3,46.85],[22.6,46.75],[22.9,46.7],[23.2,46.6],[23.5,46.62],[23.75,46.65],[23.95,46.55],[24.2,46.48],[24.45,46.4],[24.7,46.35],[24.8771,46.3205],[24.8767,46.3163],[24.9556,46.2494],[24.9933,46.2335],[25.0565,46.2303],[25.1096,46.2016],[25.1881,46.1434],[25.2416,46.1495],[25.2965,46.1669],[25.3302,46.1646],[25.3828,46.1383],[25.4272,46.1272],[25.4545,46.1059],[25.4598,46.0727],[25.5059,46.0427],[25.5548,46.0457],[25.571,46.0214],[25.5584,45.988],[25.5526,45.9349],[25.554,45.8697],[25.5673,45.841],[25.6377,45.8081],[25.669,45.785],[25.671,45.7516],[25.7189,45.752],[25.7686,45.7653],[25.8018,45.7424],[25.8947,45.7178],[25.9495,45.6844],[25.9804,45.6451],[26.0482,45.6141],[26.1005,45.5644],[26.1889,45.5745],[26.2075,45.5832],[26.2156,45.6122],[26.2346,45.6256],[26.2847,45.6028],[26.3286,45.6181],[26.3427,45.6553],[26.3667,45.6852],[26.395,45.7498],[26.3804,45.8029],[26.4048,45.9175],[26.4209,45.9505],[26.4848,46.0212],[26.4681,46.0274],[26.4406,46.0748],[26.4021,46.0943],[26.4149,46.128],[26.4001,46.1445],[26.325,46.1794],[26.2932,46.1601],[26.2516,46.1503],[26.259,46.1881],[26.2799,46.2265],[26.2869,46.2762],[26.3002,46.302],[26.2927,46.3197],[26.2471,46.3266],[26.1823,46.3057],[26.1595,46.3125],[26.1682,46.35],[26.1619,46.3731],[26.1326,46.3907],[26.0387,46.4033],[26.0189,46.4268],[26.0325,46.4683],[26.0699,46.4872],[26.0691,46.4986],[26.0289,46.5485],[26.012,46.5936],[26.0088,46.668],[25.9271,46.6819],[25.907,46.6748],[25.915,46.6356],[25.889,46.6348],[25.8409,46.6702],[25.8282,46.6936],[25.8165,46.8592],[25.832,46.8853],[25.8668,46.8837],[25.8658,46.9128],[25.7918,46.9661],[25.7627,47.0125],[25.7371,47.039],[25.6713,47.0579],[25.5836,47.0473],[25.5521,47.0559],[25.5189,47.0824],[25.4069,47.1348],[25.3725,47.1403],[25.3118,47.123],[25.2826,47.0704],[25.2419,47.0663],[25.2047,47.0764],[25.1589,47.0914],[25.0686,47.103],[25.0632,47.1728],[25.0765,47.2283],[25.0391,47.2372],[25.0292,47.2576],[25.0568,47.3153],[25.0404,47.3429],[25.004,47.3792],[25.007,47.3926],[25.0494,47.3999],[25.0373,47.4302],[25.0726,47.4495],[25.0905,47.4715],[25.0842,47.4938],[25.0461,47.5297],[24.9562,47.5823],[25.0158,47.5965],[25.0323,47.6123],[25.0219,47.6322],[24.9788,47.6626],[24.9424,47.7156],[24.9289,47.7139],[24.8778,47.7187],[24.8207,47.7841],[24.7937,47.8045],[24.7128,47.8259],[24.6615,47.8539],[24.6493,47.8952],[24.6085,47.9219],[24.5698,47.9373],[24.5882,47.9959],[24.6393,48.0476],[24.6068,48.0886],[24.5384,48.1345],[24.5216,48.1711],[24.5415,48.2128],[24.4949,48.2666],[24.3916,48.3311],[24.3458,48.3402],[24.3317,48.3748],[24.3054,48.3883],[24.2707,48.3572],[24.2341,48.3505],[24.1777,48.3546],[24.1408,48.3799],[24.1312,48.4345],[24.1407,48.4712],[24.137,48.5275],[24.1138,48.5322],[24.0462,48.5051],[24.0015,48.5001],[23.9427,48.4704],[23.9074,48.4887],[23.9168,48.5154],[23.8949,48.5496],[23.8471,48.5628],[23.7817,48.6034],[23.7715,48.6447],[23.709,48.643],[23.6745,48.6545],[23.6124,48.7038],[23.5329,48.7237],[23.4985,48.7312],[23.4458,48.7267],[23.378,48.7371],[23.3505,48.772],[23.3085,48.7502],[23.2982,48.7812],[23.2576,48.7722],[23.2016,48.7771],[23.1798,48.7903],[23.1376,48.8522],[23.105,48.8713],[23.0117,48.8547],[22.9821,48.859],[22.9612,48.8843],[22.926,48.9041],[22.892,48.9354],[22.9024,48.9833],[22.865,49.0132],[22.8553,48.994],[22.784,49.0214],[22.7553,49.0447],[22.6429,49.0432],[22.5808,49.0814],[22.5396,49.0722],[22.5248,49.0329],[22.5205,48.9929],[22.449,48.9714],[22.4149,48.9117],[22.4118,48.8878],[22.3708,48.8582],[22.3623,48.8443],[22.3657,48.7944],[22.3308,48.7564],[22.3225,48.7003],[22.3037,48.6785],[22.3,48.68],[22.15,48.65],[21.95,48.63],[21.7,48.65],[21.4,48.72],[21.15,48.78],[20.9,48.78],[20.65,48.75],[20.4,48.7],[20.15,48.55],[19.9,48.47],[19.65,48.45],[19.4,48.4],[19.15,48.3],[18.9,48.25],[18.7,48.3],[18.2,48.3],[18,48.27],[17.8,48.3],[17.6,48.25],[17.5261,48.2131],[17.5322,48.202],[17.5173,48.1768],[17.4426,48.1513],[17.4169,48.1585],[17.4,48.15],[17.3268,48.1012],[17.3528,48.0936],[17.3036,48.0727],[17.3064,48.0587],[17.2679,48.0329],[17.2623,48.0073],[17.1848,48.0203],[17.1483,48.0054],[17.0856,47.9701],[17.0961,47.9619],[17.0752,47.9278],[17.0875,47.9226],[17.0775,47.8917],[17.0512,47.8729],[17.0041,47.8633],[17.0395,47.8374],[17.0556,47.8124],[17.0406,47.8011],[17.0506,47.731],[17.0754,47.7085],[16.9027,47.682],[16.8647,47.6867],[16.8502,47.7129],[16.7975,47.6755],[16.7411,47.6815],[16.7168,47.697],[16.7025,47.7236],[16.6899,47.7296],[16.6098,47.7506],[16.5678,47.7542],[16.5311,47.743],[16.5251,47.7333],[16.5269,47.7201],[16.5129,47.706],[16.473,47.6918],[16.4545,47.6818],[16.4391,47.6905],[16.4078,47.6613],[16.4259,47.6543],[16.4819,47.639],[16.5096,47.6431],[16.5578,47.6298],[16.6302,47.622],[16.6562,47.5859],[16.6506,47.5666],[16.6814,47.5506],[16.688,47.5226],[16.6368,47.4932],[16.6409,47.4529],[16.627,47.4455],[16.5894,47.4256],[16.4819,47.3923],[16.4566,47.4118],[16.434,47.3969],[16.4364,47.3585],[16.425,47.3511],[16.4692,47.2932],[16.4666,47.2634],[16.4214,47.2431],[16.4128,47.1872],[16.4351,47.1836],[16.4337,47.1458],[16.4809,47.1508],[16.5095,47.1375],[16.4819,47.1052],[16.4608,47.0963],[16.4618,47.0685],[16.4932,47.0491],[16.4247,47.0241],[16.4676,47.0184],[16.4864,46.9986],[16.4104,46.9904],[16.3878,47.002],[16.2749,47.0043],[16.2611,46.9781],[16.2329,46.9661],[16.2307,46.9484],[16.1591,46.9103],[16.1229,46.8764],[16.094,46.8628],[16.0529,46.8461],[16.032,46.8376],[16.0284,46.8369],[15.9876,46.83],[15.9817,46.8277],[15.972,46.8206],[15.9729,46.8184],[15.9774,46.8162],[15.9782,46.8091],[15.9713,46.7781],[15.971,46.7751],[15.9697,46.7605]]]}},
{"type":"Feature","properties":{"entityId":"hungary","from":1944,"to":1945,"certainty":"estimated","source":"유럽 쪽은 Natural Earth 1:10m admin-1(v5.1.2) 현대 행정구역 조각을 그 시기 국경에 맞춰 묶고, 조각이 역사 경계와 다른 곳은 선을 그어 나눈 근사. 유럽 밖(시베리아·중앙아시아·극동)은 대략적인 추정. 운영자 검수 필요"},"geometry":{"type":"Polygon","coordinates":[[[15.9697,46.7605],[15.9705,46.743],[15.982,46.7185],[16.0033,46.7092],[16.0146,46.6937],[16.0167,46.6707],[16.0278,46.6651],[16.0417,46.6627],[16.0421,46.6627],[16.0671,46.6443],[16.1103,46.6239],[16.1204,46.6191],[16.1608,46.6059],[16.2034,46.5919],[16.2168,46.5841],[16.2475,46.5539],[16.2541,46.5474],[16.268,46.5398],[16.2718,46.5427],[16.2746,46.5445],[16.2816,46.5472],[16.2922,46.5347],[16.3107,46.531],[16.3015,46.5271],[16.2954,46.5244],[16.2639,46.5159],[16.2609,46.5136],[16.2349,46.4933],[16.2342,46.4849],[16.2375,46.4651],[16.2494,46.4375],[16.2482,46.4133],[16.257,46.3999],[16.2741,46.3921],[16.2799,46.3787],[16.3183,46.3687],[16.3409,46.352],[16.3613,46.32],[16.4838,46.3018],[16.5161,46.3015],[16.5856,46.3168],[16.7205,46.3114],[16.7452,46.3057],[16.7914,46.2977],[16.815,46.2844],[16.8594,46.3648],[16.8793,46.3121],[16.8892,46.2922],[16.9407,46.2515],[16.9748,46.2106],[17.028,46.1805],[17.0529,46.1535],[17.1162,46.1231],[17.1973,46.1212],[17.2486,46.0802],[17.2759,46.012],[17.3168,45.9977],[17.2901,45.9915],[17.3066,45.9799],[17.3379,45.9846],[17.3453,45.9557],[17.3892,45.9631],[17.4062,45.9437],[17.4267,45.9567],[17.5119,45.9539],[17.5911,45.9362],[17.6458,45.8918],[17.6547,45.8521],[17.6873,45.8406],[17.8092,45.8144],[17.858,45.7759],[17.9062,45.7921],[17.9754,45.7921],[18.0805,45.7717],[18.129,45.7854],[18.2112,45.7854],[18.3177,45.7473],[18.3672,45.7582],[18.3838,45.7432],[18.4117,45.7432],[18.4818,45.7914],[18.5303,45.7909],[18.5855,45.8269],[18.6222,45.8684],[18.633,45.8919],[18.6743,45.9104],[18.7633,45.884],[18.786,45.8869],[18.8049,45.9136],[18.8225,45.9056],[18.9013,45.9312],[18.9818,45.9218],[18.9818,45.9508],[19.0056,45.9626],[19.0486,45.9634],[19.0497,45.9931],[19.0654,46.012],[19.111,46.013],[19.148,45.9841],[19.2357,45.9777],[19.2635,45.9814],[19.2983,46.0221],[19.3789,46.0337],[19.4047,46.0602],[19.4369,46.068],[19.473,46.0987],[19.4993,46.1086],[19.4875,46.1342],[19.5499,46.1642],[19.6478,46.1739],[19.7119,46.1587],[19.7905,46.1291],[19.8736,46.153],[19.9292,46.1635],[19.9931,46.1594],[20.035,46.143],[20.0634,46.1453],[20.0886,46.1541],[20.1148,46.1522],[20.1454,46.1371],[20.1885,46.1404],[20.2428,46.1081],[20.2832,46.1438],[20.4442,46.1469],[20.4685,46.1741],[20.549,46.1561],[20.6076,46.1295],[20.6835,46.1447],[20.7044,46.1685],[20.7178,46.19],[20.7448,46.2003],[20.7393,46.2375],[20.7874,46.2634],[20.8397,46.2711],[20.867,46.2571],[20.9066,46.2622],[20.9617,46.2483],[21.007,46.2489],[21.0335,46.2313],[21.0515,46.2361],[21.0992,46.2764],[21.1349,46.2785],[21.1645,46.3183],[21.1687,46.3628],[21.1956,46.3981],[21.2575,46.4042],[21.2807,46.4164],[21.2744,46.4384],[21.2451,46.4769],[21.2476,46.4975],[21.2913,46.5467],[21.301,46.6039],[21.3162,46.6166],[21.3744,46.6184],[21.396,46.6264],[21.4235,46.6582],[21.4362,46.6737],[21.4836,46.6849],[21.5052,46.7232],[21.4705,46.743],[21.5029,46.8053],[21.5366,46.835],[21.5731,46.8418],[21.5918,46.8607],[21.5944,46.91],[21.6485,46.943],[21.6675,46.9924],[21.6343,47.0194],[21.6942,47.0692],[21.7435,47.0916],[21.7705,47.114],[21.7799,47.1407],[21.826,47.1851],[21.8236,47.2149],[21.8622,47.2974],[21.9008,47.3357],[21.937,47.3572],[21.9815,47.3661],[22.0016,47.3938],[21.9889,47.4929],[22.0374,47.5393],[22.0996,47.5709],[22.1542,47.5822],[22.1676,47.5949],[22.1976,47.6393],[22.2042,47.6663],[22.2617,47.7158],[22.3221,47.7359],[22.3683,47.7312],[22.4073,47.7431],[22.4237,47.7826],[22.4544,47.7874],[22.5285,47.761],[22.6012,47.7609],[22.6377,47.7716],[22.6917,47.8107],[22.7458,47.825],[22.7603,47.8389],[22.7529,47.8612],[22.7796,47.8823],[22.8361,47.9025],[22.8776,47.9467],[22.8324,47.9789],[22.8495,47.9931],[22.8616,48.0284],[22.831,48.0724],[22.7457,48.1163],[22.6932,48.1018],[22.6001,48.1011],[22.5558,48.1772],[22.4814,48.2426],[22.4342,48.2367],[22.3571,48.2431],[22.3081,48.2937],[22.2913,48.3576],[22.2568,48.3573],[22.2718,48.4035],[22.202,48.4182],[22.1583,48.4022],[22.1328,48.4048],[22.1338,48.4768],[22.1483,48.5088],[22.1367,48.5493],[22.1537,48.5859],[22.219,48.6209],[22.2555,48.6568],[22.2943,48.6676],[22.3037,48.6785],[22.3,48.68],[22.15,48.65],[21.95,48.63],[21.7,48.65],[21.4,48.72],[21.15,48.78],[20.9,48.78],[20.65,48.75],[20.4,48.7],[20.15,48.55],[19.9,48.47],[19.65,48.45],[19.4,48.4],[19.15,48.3],[18.9,48.25],[18.7,48.3],[18.2,48.3],[18,48.27],[17.8,48.3],[17.6,48.25],[17.5261,48.2131],[17.5322,48.202],[17.5173,48.1768],[17.4426,48.1513],[17.4169,48.1585],[17.4,48.15],[17.3268,48.1012],[17.3528,48.0936],[17.3036,48.0727],[17.3064,48.0587],[17.2679,48.0329],[17.2623,48.0073],[17.1848,48.0203],[17.1483,48.0054],[17.0856,47.9701],[17.0961,47.9619],[17.0752,47.9278],[17.0875,47.9226],[17.0775,47.8917],[17.0512,47.8729],[17.0041,47.8633],[17.0395,47.8374],[17.0556,47.8124],[17.0406,47.8011],[17.0506,47.731],[17.0754,47.7085],[16.9027,47.682],[16.8647,47.6867],[16.8502,47.7129],[16.7975,47.6755],[16.7411,47.6815],[16.7168,47.697],[16.7025,47.7236],[16.6899,47.7296],[16.6098,47.7506],[16.5678,47.7542],[16.5311,47.743],[16.5251,47.7333],[16.5269,47.7201],[16.5129,47.706],[16.473,47.6918],[16.4545,47.6818],[16.4391,47.6905],[16.4078,47.6613],[16.4259,47.6543],[16.4819,47.639],[16.5096,47.6431],[16.5578,47.6298],[16.6302,47.622],[16.6562,47.5859],[16.6506,47.5666],[16.6814,47.5506],[16.688,47.5226],[16.6368,47.4932],[16.6409,47.4529],[16.627,47.4455],[16.5894,47.4256],[16.4819,47.3923],[16.4566,47.4118],[16.434,47.3969],[16.4364,47.3585],[16.425,47.3511],[16.4692,47.2932],[16.4666,47.2634],[16.4214,47.2431],[16.4128,47.1872],[16.4351,47.1836],[16.4337,47.1458],[16.4809,47.1508],[16.5095,47.1375],[16.4819,47.1052],[16.4608,47.0963],[16.4618,47.0685],[16.4932,47.0491],[16.4247,47.0241],[16.4676,47.0184],[16.4864,46.9986],[16.4104,46.9904],[16.3878,47.002],[16.2749,47.0043],[16.2611,46.9781],[16.2329,46.9661],[16.2307,46.9484],[16.1591,46.9103],[16.1229,46.8764],[16.094,46.8628],[16.0529,46.8461],[16.032,46.8376],[16.0284,46.8369],[15.9876,46.83],[15.9817,46.8277],[15.972,46.8206],[15.9729,46.8184],[15.9774,46.8162],[15.9782,46.8091],[15.9713,46.7781],[15.971,46.7751],[15.9697,46.7605]]]}},
{"type":"Feature","properties":{"entityId":"hungary","from":1945,"to":null,"certainty":"estimated","source":"유럽 쪽은 Natural Earth 1:10m admin-1(v5.1.2) 현대 행정구역 조각을 그 시기 국경에 맞춰 묶고, 조각이 역사 경계와 다른 곳은 선을 그어 나눈 근사. 유럽 밖(시베리아·중앙아시아·극동)은 대략적인 추정. 운영자 검수 필요"},"geometry":{"type":"Polygon","coordinates":[[[17.3066,45.9799],[17.2901,45.9915],[17.3168,45.9977],[17.2759,46.012],[17.2486,46.0802],[17.1973,46.1212],[17.1162,46.1231],[17.0529,46.1535],[17.028,46.1805],[16.9748,46.2106],[16.9407,46.2515],[16.8892,46.2922],[16.8793,46.3121],[16.8594,46.3648],[16.8377,46.3819],[16.7693,46.3961],[16.7551,46.3819],[16.7429,46.3996],[16.7124,46.4127],[16.6593,46.4642],[16.5943,46.483],[16.5837,46.4707],[16.5153,46.5017],[16.5008,46.5448],[16.4671,46.5647],[16.4302,46.6044],[16.3946,46.619],[16.3764,46.6291],[16.3722,46.6363],[16.3684,46.643],[16.3776,46.6529],[16.3967,46.6591],[16.4026,46.6631],[16.4105,46.6684],[16.405,46.6873],[16.39,46.6942],[16.3714,46.6949],[16.3662,46.6965],[16.3654,46.6967],[16.3576,46.699],[16.3573,46.7158],[16.3434,46.7142],[16.3142,46.7433],[16.2982,46.7758],[16.2995,46.7795],[16.3022,46.787],[16.3111,46.7975],[16.3149,46.802],[16.3218,46.8133],[16.3275,46.8255],[16.3298,46.8344],[16.3253,46.8394],[16.3107,46.84],[16.3019,46.8432],[16.2974,46.847],[16.2822,46.8599],[16.272,46.864],[16.1795,46.8585],[16.1354,46.8558],[16.1302,46.8567],[16.094,46.8628],[16.1229,46.8764],[16.1591,46.9103],[16.2307,46.9484],[16.2329,46.9661],[16.2611,46.9781],[16.2749,47.0043],[16.3878,47.002],[16.4104,46.9904],[16.4864,46.9986],[16.4676,47.0184],[16.4247,47.0241],[16.4932,47.0491],[16.4618,47.0685],[16.4608,47.0963],[16.4819,47.1052],[16.5095,47.1375],[16.4809,47.1508],[16.4337,47.1458],[16.4351,47.1836],[16.4128,47.1872],[16.4214,47.2431],[16.4666,47.2634],[16.4692,47.2932],[16.425,47.3511],[16.4364,47.3585],[16.434,47.3969],[16.4566,47.4118],[16.4819,47.3923],[16.5894,47.4256],[16.627,47.4455],[16.6409,47.4529],[16.6368,47.4932],[16.688,47.5226],[16.6814,47.5506],[16.6506,47.5666],[16.6562,47.5859],[16.6302,47.622],[16.5578,47.6298],[16.5096,47.6431],[16.4819,47.639],[16.4259,47.6543],[16.4078,47.6613],[16.4391,47.6905],[16.4545,47.6818],[16.473,47.6918],[16.5129,47.706],[16.5269,47.7201],[16.5251,47.7333],[16.5311,47.743],[16.5678,47.7542],[16.6098,47.7506],[16.6899,47.7296],[16.7025,47.7236],[16.7168,47.697],[16.7411,47.6815],[16.7975,47.6755],[16.8502,47.7129],[16.8647,47.6867],[16.9027,47.682],[17.0754,47.7085],[17.0506,47.731],[17.0406,47.8011],[17.0556,47.8124],[17.0395,47.8374],[17.0041,47.8633],[17.0512,47.8729],[17.0775,47.8917],[17.0875,47.9226],[17.0752,47.9278],[17.0961,47.9619],[17.0856,47.9701],[17.1483,48.0054],[17.1848,48.0203],[17.2623,48.0073],[17.3379,47.9987],[17.3694,47.9812],[17.472,47.8888],[17.5266,47.8721],[17.5726,47.8295],[17.6042,47.8342],[17.6399,47.8192],[17.6767,47.7892],[17.7192,47.7737],[17.8257,47.75],[17.8835,47.7525],[18.1126,47.7625],[18.2359,47.7539],[18.273,47.7563],[18.3479,47.7768],[18.5526,47.7928],[18.5974,47.7907],[18.6338,47.7798],[18.6928,47.778],[18.7677,47.8223],[18.8149,47.8322],[18.7488,47.8707],[18.7422,47.8895],[18.7548,47.9518],[18.7432,47.9711],[18.7942,47.9931],[18.8385,48.04],[18.9336,48.0543],[19.019,48.0655],[19.0985,48.0707],[19.2225,48.0606],[19.2932,48.0878],[19.4282,48.0859],[19.4817,48.1113],[19.503,48.1894],[19.5312,48.2107],[19.6232,48.227],[19.6439,48.2248],[19.687,48.1969],[19.7566,48.2003],[19.7743,48.1859],[19.7667,48.159],[19.7761,48.1495],[19.7856,48.1487],[19.8217,48.1579],[19.8463,48.1527],[19.8843,48.1296],[19.9051,48.1243],[19.9286,48.1301],[19.9739,48.1584],[20.0383,48.1772],[20.097,48.1984],[20.1345,48.2467],[20.1709,48.244],[20.2291,48.2709],[20.2724,48.2525],[20.3243,48.2799],[20.3702,48.3343],[20.409,48.4137],[20.466,48.4638],[20.4817,48.4787],[20.4817,48.5261],[20.5725,48.5366],[20.7841,48.5691],[20.8158,48.5638],[20.8455,48.5458],[20.8914,48.5411],[20.9458,48.519],[21.0065,48.5182],[21.0639,48.5062],[21.1093,48.4891],[21.1867,48.5137],[21.2199,48.5187],[21.2618,48.5032],[21.3023,48.5399],[21.4246,48.5613],[21.4908,48.5403],[21.5218,48.5001],[21.5917,48.493],[21.6134,48.4404],[21.6776,48.3723],[21.7277,48.3409],[21.7894,48.3355],[21.8412,48.3532],[21.8843,48.3575],[21.9293,48.3729],[22.018,48.3797],[22.0965,48.3794],[22.1328,48.4048],[22.1583,48.4022],[22.202,48.4182],[22.2718,48.4035],[22.2568,48.3573],[22.2913,48.3576],[22.3081,48.2937],[22.3571,48.2431],[22.4342,48.2367],[22.4814,48.2426],[22.5558,48.1772],[22.6001,48.1011],[22.6932,48.1018],[22.7457,48.1163],[22.831,48.0724],[22.8616,48.0284],[22.8495,47.9931],[22.8324,47.9789],[22.8776,47.9467],[22.8361,47.9025],[22.7796,47.8823],[22.7529,47.8612],[22.7603,47.8389],[22.7458,47.825],[22.6917,47.8107],[22.6377,47.7716],[22.6012,47.7609],[22.5285,47.761],[22.4544,47.7874],[22.4237,47.7826],[22.4073,47.7431],[22.3683,47.7312],[22.3221,47.7359],[22.2617,47.7158],[22.2042,47.6663],[22.1976,47.6393],[22.1676,47.5949],[22.1542,47.5822],[22.0996,47.5709],[22.0374,47.5393],[21.9889,47.4929],[22.0016,47.3938],[21.9815,47.3661],[21.937,47.3572],[21.9008,47.3357],[21.8622,47.2974],[21.8236,47.2149],[21.826,47.1851],[21.7799,47.1407],[21.7705,47.114],[21.7435,47.0916],[21.6942,47.0692],[21.6343,47.0194],[21.6675,46.9924],[21.6485,46.943],[21.5944,46.91],[21.5918,46.8607],[21.5731,46.8418],[21.5366,46.835],[21.5029,46.8053],[21.4705,46.743],[21.5052,46.7232],[21.4836,46.6849],[21.4362,46.6737],[21.4235,46.6582],[21.396,46.6264],[21.3744,46.6184],[21.3162,46.6166],[21.301,46.6039],[21.2913,46.5467],[21.2476,46.4975],[21.2451,46.4769],[21.2744,46.4384],[21.2807,46.4164],[21.2575,46.4042],[21.1956,46.3981],[21.1687,46.3628],[21.1645,46.3183],[21.1349,46.2785],[21.0992,46.2764],[21.0515,46.2361],[21.0335,46.2313],[21.007,46.2489],[20.9617,46.2483],[20.9066,46.2622],[20.867,46.2571],[20.8397,46.2711],[20.7874,46.2634],[20.7393,46.2375],[20.7448,46.2003],[20.7178,46.19],[20.7044,46.1685],[20.6835,46.1447],[20.6076,46.1295],[20.549,46.1561],[20.4685,46.1741],[20.4442,46.1469],[20.2832,46.1438],[20.2428,46.1081],[20.1885,46.1404],[20.1454,46.1371],[20.1148,46.1522],[20.0886,46.1541],[20.0634,46.1453],[20.035,46.143],[19.9931,46.1594],[19.9292,46.1635],[19.8736,46.153],[19.7905,46.1291],[19.7119,46.1587],[19.6478,46.1739],[19.5499,46.1642],[19.4875,46.1342],[19.4993,46.1086],[19.473,46.0987],[19.4369,46.068],[19.4047,46.0602],[19.3789,46.0337],[19.2983,46.0221],[19.2635,45.9814],[19.2357,45.9777],[19.148,45.9841],[19.111,46.013],[19.0654,46.012],[19.0497,45.9931],[19.0486,45.9634],[19.0056,45.9626],[18.9818,45.9508],[18.9818,45.9218],[18.9013,45.9312],[18.8225,45.9056],[18.8049,45.9136],[18.786,45.8869],[18.7633,45.884],[18.6743,45.9104],[18.633,45.8919],[18.6222,45.8684],[18.5855,45.8269],[18.5303,45.7909],[18.4818,45.7914],[18.4117,45.7432],[18.3838,45.7432],[18.3672,45.7582],[18.3177,45.7473],[18.2112,45.7854],[18.129,45.7854],[18.0805,45.7717],[17.9754,45.7921],[17.9062,45.7921],[17.858,45.7759],[17.8092,45.8144],[17.6873,45.8406],[17.6547,45.8521],[17.6458,45.8918],[17.5911,45.9362],[17.5119,45.9539],[17.4267,45.9567],[17.4062,45.9437],[17.3892,45.9631],[17.3453,45.9557],[17.3379,45.9846],[17.3066,45.9799]]]}}
]}
