{"type":"FeatureCollection","features":[
{"type":"Feature","properties":{"entityId":"hunnic-bulgar-tribes","from":476,"to":527,"certainty":"estimated","source":"유럽 쪽은 Natural Earth 1:10m admin-1(v5.1.2) 현대 행정구역 조각을 그 시기 국경에 맞춰 묶고, 조각이 역사 경계와 다른 곳은 선을 그어 나눈 근사. 유럽 밖(시베리아·중앙아시아·극동)은 대략적인 추정. 운영자 검수 필요"},"geometry":{"type":"MultiPolygon","coordinates":[[[[22.0342,44.5962],[22.0362,44.5895],[22.0452,44.5692],[22.0763,44.5507],[22.1043,44.5096],[22.1482,44.5009],[22.1851,44.5151],[22.3197,44.6853],[22.3807,44.7005],[22.4261,44.7337],[22.4837,44.724],[22.5533,44.6692],[22.6212,44.6374],[22.7001,44.6306],[22.7652,44.5828],[22.7417,44.5519],[22.7001,44.5418],[22.6212,44.5692],[22.5656,44.5554],[22.5567,44.5215],[22.5355,44.5075],[22.4841,44.4998],[22.477,44.464],[22.501,44.4419],[22.5051,44.4041],[22.5494,44.349],[22.5828,44.3284],[22.6815,44.3053],[22.6895,44.2917],[22.6916,44.2284],[22.9064,44.1229],[23.0083,44.1004],[23.031,44.0931],[23.0401,44.0623],[23.023,44.0316],[22.9881,44.0177],[22.9058,44.004],[22.8859,43.9945],[22.8505,43.897],[22.8634,43.8554],[22.9196,43.8342],[23.0526,43.8428],[23.1318,43.8479],[23.2345,43.8773],[23.3252,43.8866],[23.4847,43.8806],[23.5927,43.8374],[23.6209,43.834],[23.7208,43.8458],[23.7999,43.8185],[24.1496,43.7547],[24.3367,43.7593],[24.3755,43.7639],[24.4312,43.7942],[24.5001,43.7995],[24.6618,43.7557],[24.7526,43.7388],[24.9637,43.7496],[25.0816,43.7189],[25.2113,43.7119],[25.2854,43.6904],[25.3596,43.6543],[25.4031,43.6501],[25.4825,43.6697],[25.5566,43.6704],[25.6165,43.6877],[25.6714,43.7174],[25.7329,43.7188],[25.7811,43.732],[25.8063,43.7637],[25.8693,43.8009],[25.9164,43.8444],[25.934,43.8703],[26.0543,43.9343],[26.0793,43.969],[26.1162,43.9989],[26.1507,44.0124],[26.2315,44.0275],[26.3323,44.0549],[26.4158,44.0638],[26.6142,44.0849],[26.7087,44.1081],[26.7895,44.116],[26.8841,44.1565],[27.0015,44.1651],[27.0275,44.177],[27.1002,44.1445],[27.2527,44.1215],[27.2924,44.1516],[27.4449,44.1341],[27.4819,44.1458],[27.516,44.1727],[27.608,44.2055],[27.6918,44.2045],[27.7329,44.2099],[27.7888,44.2399],[27.934,44.266],[27.9675,44.2806],[27.9935,44.3044],[28.0228,44.3547],[28.0482,44.3982],[28.0988,44.4304],[28.109,44.4578],[28.0861,44.5047],[28.0203,44.5223],[28.0039,44.5399],[28.0215,44.5525],[28.0214,44.588],[28.0345,44.631],[27.978,44.6793],[27.9164,44.6945],[27.8769,44.7442],[27.9109,44.7753],[27.9651,44.7752],[27.9951,44.7611],[28.0347,44.7632],[28.0548,44.777],[28.0701,44.7959],[28.0801,44.8408],[28.125,44.8916],[28.1241,44.9449],[28.1414,44.9598],[28.1308,45.0186],[28.1424,45.0365],[28.1314,45.089],[28.1627,45.1083],[28.178,45.1347],[28.1526,45.1612],[28.0977,45.1842],[28.1308,45.2377],[28.1103,45.2582],[28.0755,45.2482],[28.0413,45.2584],[27.9867,45.2923],[28.0217,45.3481],[28.0302,45.3954],[28.0437,45.4113],[28.1249,45.428],[28.1908,45.417],[28.2151,45.4504],[28.2669,45.4405],[28.2864,45.4217],[28.2812,45.4018],[28.3302,45.3229],[28.4052,45.2951],[28.4942,45.2789],[28.577,45.2481],[28.7101,45.227],[28.7787,45.2311],[28.8027,45.2442],[28.7673,45.2578],[28.7615,45.2818],[28.7902,45.2921],[28.7897,45.3214],[28.8163,45.3261],[28.8809,45.3062],[28.9299,45.2791],[28.9528,45.2851],[28.9665,45.3199],[29.0182,45.3309],[29.0695,45.3608],[29.1743,45.389],[29.2282,45.4237],[29.2818,45.4223],[29.3221,45.4438],[29.3537,45.4359],[29.4306,45.4304],[29.5697,45.395],[29.6503,45.3461],[29.6671,45.3119],[29.6723,45.2729],[29.659,45.2159],[29.6954,45.2213],[29.7088,45.2233],[29.7562,45.3212],[29.7502,45.3858],[29.73,45.4126],[29.7378,45.4201],[29.7559,45.4279],[29.7541,45.4356],[30.1793,45.842],[30.2049,45.8559],[30.2614,45.8955],[30.3025,45.9338],[30.4302,46.0375],[30.4942,46.0805],[30.4983,46.0881],[30.5035,46.0976],[30.5123,46.1052],[30.6234,46.2298],[30.6535,46.2596],[30.6824,46.2995],[30.6865,46.32],[30.6851,46.3209],[30.7072,46.3484],[30.7145,46.348],[30.7725,46.3964],[30.7982,46.4464],[30.7821,46.4572],[30.7728,46.4773],[30.7967,46.5514],[30.8294,46.5584],[30.867,46.5558],[30.9062,46.5747],[30.9482,46.5837],[30.9592,46.5834],[30.9669,46.5877],[31.1098,46.6181],[31.1484,46.6236],[31.2563,46.6163],[31.3377,46.6013],[31.4286,46.6376],[31.4737,46.6796],[31.5118,46.6847],[31.481,46.6464],[31.493,46.6287],[31.5789,46.6173],[31.5972,46.6432],[31.6265,46.647],[31.6567,46.6416],[31.6871,46.639],[31.693,46.6065],[31.6988,46.575],[31.7024,46.5552],[31.5643,46.5552],[31.5301,46.575],[31.5301,46.575],[31.5109,46.5861],[31.5083,46.5876],[31.5094,46.5859],[31.517,46.575],[31.5244,46.5642],[31.6414,46.4821],[31.6636,46.4721],[31.6865,46.4299],[31.6903,46.4786],[31.6933,46.4804],[31.7143,46.4715],[31.7177,46.4713],[31.7282,46.4138],[31.7362,46.3703],[31.7431,46.3325],[31.7787,46.3267],[31.7725,46.3027],[31.8192,46.2806],[31.8823,46.2791],[31.8828,46.2851],[31.9268,46.2875],[31.9626,46.2788],[31.9684,46.2757],[32.0181,46.2575],[32.0336,46.2617],[32.0347,46.2614],[32.0838,46.2394],[32.1154,46.2145],[32.1698,46.201],[32.2461,46.1669],[32.2625,46.1282],[32.3025,46.1167],[32.5034,46.0761],[32.5437,46.0805],[32.575,46.0973],[32.7982,46.1312],[32.8043,46.1309],[32.8446,46.1214],[32.9131,46.1152],[33.0111,46.1269],[33.2983,46.0803],[33.394,46.0044],[33.4034,45.9969],[33.449,45.9608],[33.4945,45.9247],[33.5018,45.9189],[33.5476,45.8825],[33.4945,45.8532],[33.4911,45.8513],[33.4822,45.8545],[33.41,45.8266],[33.3864,45.8067],[33.2803,45.7654],[33.217,45.7581],[33.1692,45.7844],[33.1592,45.7685],[33.181,45.7552],[33.1798,45.7539],[33.1435,45.7497],[33.0247,45.6911],[32.9368,45.6625],[32.8682,45.6301],[32.8361,45.5981],[32.8267,45.5935],[32.7986,45.5769],[32.7629,45.5644],[32.7578,45.5646],[32.7509,45.5602],[32.6323,45.5188],[32.6263,45.5124],[32.5252,45.4582],[32.4951,45.4355],[32.4816,45.4089],[32.4971,45.3751],[32.4523,45.3275],[32.4526,45.3274],[32.4523,45.3271],[33.036,45.1709],[33.3278,45.0929],[33.4737,45.0538],[33.5465,45.0343],[33.5403,45.021],[33.4815,44.8954],[33.5293,44.8954],[33.5293,44.8462],[33.5573,44.8462],[33.5573,44.8441],[33.5705,44.8525],[33.5808,44.8193],[33.6173,44.8163],[33.6745,44.7916],[33.6893,44.7542],[33.6114,44.7206],[33.6252,44.6614],[33.7091,44.6664],[33.7505,44.624],[33.713,44.5816],[33.7298,44.5539],[33.7692,44.5559],[33.7771,44.5322],[33.8057,44.5273],[33.8521,44.4316],[33.786,44.4247],[33.7653,44.406],[33.73,44.398],[33.7869,44.3956],[33.8815,44.3606],[33.8817,44.3607],[33.8819,44.3606],[33.9,44.3683],[33.9,44.62],[34.3,44.75],[34.7,44.85],[35,44.93],[35.3,45.08],[35.6,45.12],[35.6,44.997],[35.8133,45.031],[35.8278,44.9992],[35.848,44.9924],[35.9168,45.0014],[35.9934,44.998],[36.0235,45.026],[36.0563,45.0306],[36.1194,45.0287],[36.136,45.0214],[36.2246,45.0075],[36.2443,45.011],[36.2541,45.0314],[36.3196,45.0472],[36.3678,45.0488],[36.4401,45.0675],[36.4553,45.0916],[36.4171,45.1263],[36.4272,45.1539],[36.4524,45.232],[36.5136,45.3032],[36.5436,45.3474],[36.5452,45.3474],[36.5749,45.3361],[36.6309,45.3406],[36.6384,45.3513],[36.6135,45.4089],[36.5833,45.4274],[36.533,45.4089],[36.5088,45.4284],[36.5316,45.4693],[36.5314,45.4693],[36.5316,45.4697],[36.5312,45.4697],[36.3053,45.4566],[36.3074,45.4609],[36.284,45.4766],[36.2525,45.4615],[36.1375,45.4621],[36.1003,45.4447],[35.8478,45.43],[35.8577,45.4694],[35.8171,45.4641],[35.7991,45.4272],[35.5092,45.4104],[35.3052,45.5105],[35.1136,45.6046],[35.1054,45.6134],[35.0232,45.7011],[35.0135,45.7159],[35.0131,45.7205],[35.0106,45.7473],[35.0081,45.774],[35.0032,45.8275],[34.965,46.2404],[35.0308,46.2518],[35.075,46.2711],[35.1051,46.2951],[35.1678,46.361],[35.1724,46.3643],[35.2637,46.4038],[35.2686,46.3982],[35.2586,46.3734],[35.2676,46.3511],[35.2911,46.3439],[35.2892,46.3139],[35.2793,46.282],[35.2784,46.2792],[35.2563,46.2623],[35.2305,46.2425],[35.2172,46.2323],[35.2171,46.2322],[35.0881,46.1512],[35.0444,46.1419],[35.0518,46.1284],[35.0389,46.1203],[34.9854,46.0875],[35,46.0736],[35.0623,46.0986],[35.0965,46.1042],[35.1618,46.1282],[35.2095,46.1699],[35.2146,46.1768],[35.2572,46.2042],[35.2661,46.2151],[35.2919,46.2468],[35.3176,46.2784],[35.4003,46.3801],[35.4455,46.406],[35.4481,46.408],[35.5709,46.4783],[35.6287,46.4985],[35.6613,46.5193],[35.7071,46.5563],[35.8181,46.6198],[35.8336,46.6259],[35.9654,46.6536],[36.0741,46.6597],[36.1928,46.6451],[36.1932,46.6451],[36.2237,46.65],[36.2676,46.6256],[36.2783,46.6074],[36.2844,46.6364],[36.3035,46.6592],[36.3233,46.6736],[36.7584,46.6981],[36.7931,46.7149],[36.794,46.7145],[36.7941,46.7146],[36.7944,46.7145],[36.7974,46.717],[36.8011,46.7188],[36.7903,46.6713],[36.7693,46.6374],[36.8123,46.6806],[36.8296,46.7319],[36.8304,46.733],[36.9451,46.7887],[37.0024,46.8165],[37.0598,46.8444],[37.1172,46.8722],[37.1745,46.9001],[37.2024,46.9136],[37.2192,46.9177],[37.2893,46.9167],[37.3174,46.9008],[37.313,46.8756],[37.3352,46.8825],[37.3779,46.9339],[37.4335,46.9879],[37.4838,47.0274],[37.6322,47.0425],[38.0234,47.0822],[38.0262,47.0816],[38.0292,47.0828],[38.0606,47.086],[38.1088,47.0838],[38.1301,47.0747],[38.1081,47.0264],[38.1423,47.0377],[38.1982,47.087],[38.2128,47.0913],[38.2878,47.1141],[38.3635,47.1277],[38.4279,47.1335],[38.4397,47.1413],[38.488,47.15],[38.478,47.1425],[38.5174,47.119],[38.568,47.1152],[38.5531,47.1356],[38.6255,47.1356],[38.6667,47.1435],[38.6696,47.1433],[38.67,47.1433],[38.8294,47.1636],[38.8474,47.1636],[38.8543,47.1668],[38.9292,47.1763],[38.992,47.2404],[39.1196,47.2633],[39.1483,47.0454],[39.0869,47.0284],[39.0752,47.0327],[39.0397,47.0154],[38.8032,46.95],[38.7602,46.9381],[38.6903,46.9188],[38.6554,46.9092],[38.6204,46.8995],[38.4806,46.8609],[38.4746,46.8619],[38.4611,46.8555],[37.7655,46.6632],[37.7376,46.6763],[37.7307,46.6627],[37.7401,46.6562],[37.6724,46.6375],[37.6727,46.6373],[37.6726,46.6373],[37.6727,46.6372],[37.6724,46.6371],[37.7923,46.5526],[37.8273,46.4765],[37.863,46.4548],[37.905,46.411],[37.971,46.3618],[37.9954,46.3544],[38.0187,46.3685],[37.9778,46.3821],[37.9784,46.383],[37.9788,46.383],[38.0259,46.3879],[38.2338,46.2413],[38.0509,46.0574],[38.0379,46.0565],[37.9719,46.04],[37.9401,46.0203],[37.902,45.9508],[37.8934,45.916],[37.8796,45.8852],[37.6353,45.6396],[37.6079,45.6627],[37.5951,45.6353],[37.5896,45.5936],[37.4024,45.4054],[37.1147,45.3417],[37.0667,45.3538],[36.8953,45.43],[36.8333,45.443],[36.7051,45.391],[36.6665,45.3404],[36.688,45.3315],[36.7251,45.3691],[36.7616,45.3483],[36.7636,45.348],[36.7585,45.3408],[36.7888,45.2922],[36.8923,45.3084],[36.9183,45.2984],[36.6752,45.2446],[36.6755,45.2444],[36.6754,45.2444],[36.6756,45.2443],[36.6752,45.2442],[36.7219,45.2124],[36.6861,45.2032],[36.5947,45.2048],[36.5773,45.1942],[36.5931,45.1648],[36.6414,45.1284],[36.7017,45.1038],[36.7415,45.1032],[36.7546,45.1058],[36.9283,45.0721],[36.9506,45.0569],[37.45,45.12],[38,45.15],[38.5,45.08],[38.97,45.03],[39.5,45.15],[39.7,45.2],[40.2,45.35],[40.57,45.43],[41.13,45],[41.5952,44.802],[41.651,44.8966],[41.5871,44.7882],[41.5384,44.7363],[41.504,44.7215],[41.4429,44.717],[41.4175,44.7078],[41.4229,44.6658],[41.4738,44.6321],[41.4858,44.6068],[41.5335,44.6028],[41.5552,44.5879],[41.5666,44.546],[41.5802,44.5337],[41.6204,44.527],[41.6365,44.5066],[41.7019,44.5014],[41.7291,44.4851],[41.7294,44.4586],[41.7715,44.4576],[41.8485,44.4907],[41.9046,44.4948],[41.939,44.4288],[41.9446,44.4029],[41.9723,44.385],[42.038,44.3639],[42.0009,44.3758],[42.05,44.2],[42,43.5],[42.1435,43.2131],[42.1543,43.2175],[42.1854,43.2255],[42.3626,43.2352],[42.4043,43.2837],[42.4142,43.3263],[42.4047,43.3954],[42.4424,43.4366],[42.4787,43.4998],[42.4836,43.5486],[42.4581,43.5949],[42.46,43.6154],[42.5294,43.6373],[42.6318,43.6628],[42.6714,43.6956],[42.6832,43.8072],[42.7191,43.822],[42.8259,43.8128],[42.8521,43.8171],[42.9021,43.8633],[42.9751,43.891],[43.0893,43.8921],[43.1312,43.9091],[43.162,43.9412],[43.2161,43.9501],[43.266,43.9098],[43.3,43.824],[43.3329,43.8055],[43.4288,43.8627],[43.5018,43.8666],[43.6209,43.8441],[43.7287,43.8387],[43.7652,43.8573],[43.7812,43.9097],[43.8034,43.9405],[43.8754,43.9821],[43.9061,43.9942],[43.9714,43.9851],[44.0175,43.9626],[44.106,43.9616],[44.1341,43.9558],[44.1673,43.9257],[44.2585,43.9246],[44.2846,43.9459],[44.4155,43.9986],[44.4168,43.9464],[44.3579,43.9365],[44.3426,43.9126],[44.3025,43.8945],[44.2849,43.8189],[44.3451,43.8124],[44.3993,43.7952],[44.6525,43.8219],[44.6936,43.8299],[44.8035,43.8021],[44.8152,43.7894],[44.8509,43.7009],[44.8291,43.6682],[44.8387,43.6611],[44.8926,43.6521],[44.9614,43.6714],[45,43.7046],[45.0044,43.7582],[45.0606,43.7709],[45.0799,43.7877],[45.0823,43.8765],[45.0616,43.8886],[45.0607,43.9341],[45.0834,43.9528],[45.1897,43.9517],[45.204,43.9477],[45.2101,43.8885],[45.2374,43.8802],[45.4318,43.8786],[45.4495,43.8831],[45.4544,43.9144],[45.4482,43.9733],[45.4591,43.9999],[45.5094,44.0152],[45.5741,43.9928],[45.6701,43.9798],[45.7104,43.9551],[45.771,43.9545],[45.8029,43.9781],[45.882,43.9709],[45.928,43.9569],[46.0447,43.9336],[46.0428,43.8972],[46.0164,43.8764],[46.0487,43.8214],[46.0745,43.8236],[46.0889,43.8582],[46.1923,43.847],[46.2203,43.863],[46.2463,43.9087],[46.2414,43.9369],[46.2569,43.9483],[46.3132,43.957],[46.3329,43.968],[46.3493,43.9977],[46.419,44.0002],[46.4623,43.962],[46.4516,43.8871],[46.5096,43.8652],[46.5859,43.8722],[46.6192,43.8237],[46.6693,43.8194],[46.6598,43.7845],[46.585,43.7724],[46.5332,43.7066],[46.4835,43.6721],[46.4431,43.6072],[46.4385,43.541],[46.3983,43.4819],[46.3376,43.4582],[46.3288,43.4207],[46.365,43.3907],[46.3599,43.361],[46.423,43.3147],[46.4299,43.2906],[46.4183,43.25],[47.5322,43.25],[47.565,43.2681],[47.5857,43.2995],[47.5703,43.3337],[47.5424,43.3235],[47.5909,43.6599],[47.5908,43.66],[47.5909,43.6603],[47.5687,43.6836],[47.5693,43.6852],[47.6254,43.802],[47.6438,43.8299],[47.7015,43.8745],[47.6528,43.8967],[47.5957,43.9012],[47.5547,43.8776],[47.5418,43.8547],[47.5339,43.7759],[47.5153,43.7395],[47.492,43.7638],[47.4955,43.7648],[47.5028,43.781],[47.4828,43.8249],[47.4414,43.8193],[47.4619,43.8603],[47.4326,43.8762],[47.4234,43.9079],[47.3869,43.9565],[47.3579,44.0206],[47.3386,44.0379],[47.3065,44.104],[47.274,44.142],[47.2654,44.1686],[47.2459,44.212],[47.2217,44.2308],[47.1934,44.2166],[47.1229,44.262],[47.0571,44.3152],[47.0442,44.3463],[47.0026,44.3673],[46.93,44.3819],[46.9177,44.387],[46.8913,44.3925],[46.7206,44.5712],[46.7557,44.6556],[46.8169,44.6999],[46.8313,44.6964],[46.8555,44.7256],[46.935,44.77],[46.9616,44.7652],[47.01,44.8301],[46.9974,44.8606],[47.004,44.8758],[47.0193,44.8595],[47.0236,44.843],[47.0783,44.7851],[47.0845,44.8175],[47.1117,44.8696],[47.1087,44.8865],[47.1157,44.9056],[47.1379,44.936],[47.146,44.9291],[47.1658,44.967],[47.2012,44.97],[47.2279,45.0334],[47.2505,45.0653],[47.266,45.0997],[47.2957,45.1487],[47.3305,45.1934],[47.3701,45.1856],[47.3794,45.2028],[47.3794,45.2706],[47.3929,45.2945],[47.3978,45.3231],[47.4592,45.3987],[47.4445,45.4001],[47.466,45.4224],[47.4774,45.4224],[47.4968,45.43],[47.4993,45.457],[47.5346,45.4937],[47.5442,45.5037],[47.5698,45.5303],[47.6126,45.5747],[47.615,45.5702],[47.6537,45.5591],[47.6455,45.5922],[47.6611,45.6218],[47.6587,45.6226],[47.6773,45.6419],[47.7746,45.6584],[47.7771,45.6523],[47.8182,45.6081],[47.8523,45.6423],[47.8353,45.6496],[47.8378,45.664],[47.8888,45.6778],[48.1994,45.7305],[48.2428,45.7099],[48.2324,45.7361],[48.6457,45.8061],[48.6917,45.8657],[48.6952,45.828],[48.7655,45.8522],[48.7914,45.8409],[48.7566,45.8879],[48.7446,45.915],[48.7501,45.9212],[48.7499,45.9214],[48.7501,45.9216],[48.7429,45.9301],[48.7437,45.933],[48.8591,46.0826],[48.8742,46.0782],[48.8692,46.0957],[48.8822,46.1125],[48.887,46.1078],[48.8857,46.117],[48.8933,46.1269],[48.9126,46.1332],[48.9144,46.132],[48.9318,46.0853],[48.9553,46.1078],[48.9355,46.1407],[49.0738,46.1861],[49.093,46.1624],[49.1195,46.1588],[49.112,46.2211],[49.1082,46.2259],[49.1101,46.2285],[49.1245,46.2823],[49.1802,46.2863],[49.2492,46.2673],[49.282,46.2499],[49.306,46.2631],[49.2271,46.3279],[49.0332,46.4049],[48.897,46.4822],[48.8196,46.4793],[48.7586,46.5131],[48.705,46.5504],[48.6652,46.5572],[48.5732,46.5583],[48.5394,46.568],[48.563,46.5913],[48.5469,46.5993],[48.53,46.6382],[48.4551,46.6608],[48.4791,46.6835],[48.5058,46.7326],[48.5567,46.7617],[48.6182,46.7704],[48.6766,46.758],[48.7127,46.7288],[48.7395,46.6906],[48.764,46.6828],[48.9169,46.7026],[48.9481,46.7199],[49.0063,46.7691],[48.6973,47.101],[48.5462,47.3694],[48.5251,47.4102],[48.4375,47.4292],[48.4111,47.4458],[48.3606,47.4931],[48.1744,47.7129],[48.1125,47.7485],[48.0445,47.7697],[47.6497,47.7656],[47.4353,47.8344],[47.4122,47.8359],[47.3888,47.8119],[47.3894,47.7516],[47.3829,47.7054],[47.3597,47.6833],[47.1745,47.7705],[47.1406,47.7927],[47.1195,47.8198],[47.1553,47.8774],[47.1217,47.9154],[47.0512,47.9746],[47.0442,47.9862],[47.1371,48.0273],[47.1782,48.0518],[47.192,48.0718],[47.1739,48.0842],[47.1195,48.0883],[47.1036,48.1012],[47.1165,48.1539],[47.1088,48.174],[47.0752,48.2051],[47.1121,48.2422],[47.0783,48.2753],[46.9792,48.294],[46.4793,48.4102],[46.6202,48.6696],[46.7538,48.9141],[46.8129,48.9538],[46.8881,48.9805],[46.93,49.004],[46.9792,49.0473],[47.0209,49.0968],[47.04,49.1503],[47.0286,49.2015],[46.9792,49.2443],[46.8307,49.3183],[46.7751,49.3325],[46.8999,49.8203],[46.9226,49.8614],[46.9586,49.8841],[47.1774,49.9472],[47.2456,49.9924],[47.3087,50.0448],[47.3286,50.073],[47.3276,50.1093],[47.2731,50.1584],[47.2651,50.1863],[47.3223,50.2374],[47.2948,50.2754],[47.3229,50.3045],[47.3922,50.3232],[47.4345,50.3765],[47.4698,50.4118],[47.5115,50.4369],[47.5569,50.4526],[47.5993,50.4527],[47.6247,50.4408],[47.69,50.3863],[47.7349,50.3701],[47.7765,50.3298],[47.8082,50.3199],[47.8741,50.2664],[47.9134,50.2439],[47.9536,50.2049],[47.9932,50.1818],[48.0122,50.1421],[48.0746,50.1053],[48.0964,50.0785],[48.1125,50.022],[48.1424,49.9638],[48.2004,49.925],[48.2393,49.8648],[48.3122,49.8636],[48.3595,49.834],[48.4176,49.8117],[48.4428,49.815],[48.4791,49.8432],[48.6835,49.8955],[48.7846,49.9334],[48.862,49.9929],[48.8857,50.0199],[48.8741,50.0698],[48.8518,50.0973],[48.7828,50.1115],[48.789,50.173],[48.771,50.211],[48.7289,50.2654],[48.7013,50.3346],[48.6744,50.4785],[48.6787,50.5485],[48.6734,50.5795],[48.6485,50.6016],[48.5729,50.6169],[48.5683,50.6365],[48.6088,50.6479],[48.7396,50.5975],[48.7863,50.5906],[48.8304,50.596],[49.0127,50.6834],[49.1024,50.758],[49.1441,50.7817],[49.2837,50.8037],[49.3694,50.8268],[49.4084,50.8483],[49.4237,50.8821],[49.4055,50.9135],[49.3474,50.9643],[49.3591,50.9927],[49.3927,51.0342],[49.401,51.0671],[49.4231,51.102],[49.4601,51.1162],[49.5397,51.1008],[49.7791,51.1022],[49.8428,51.1507],[49.9868,51.2298],[50.0288,51.243],[50.2075,51.2659],[50.3254,51.3035],[50.3489,51.3226],[50.3376,51.372],[50.3762,51.397],[50.3596,51.4133],[50.3796,51.4212],[50.4392,51.423],[50.4711,51.4361],[50.479,51.4537],[50.5183,51.4598],[50.5314,51.4927],[50.5254,51.5656],[50.5757,51.5884],[50.5817,51.6353],[50.6393,51.6162],[50.6942,51.6112],[50.6587,51.5762],[50.6709,51.5675],[50.72,51.5674],[50.7643,51.5787],[50.7907,51.5973],[50.7945,51.626],[50.7474,51.709],[50.7442,51.7424],[50.767,51.7594],[50.7202,51.8092],[50.7162,51.8407],[50.7315,51.914],[50.7221,51.928],[50.6507,51.958],[50.5587,51.9637],[50.5174,51.9914],[50.4022,51.9966],[50.3548,52.0149],[50.3439,52.0483],[50.3147,52.0572],[50.2902,52.0219],[50.2359,52.0351],[50.1675,52.0236],[50.1712,52.0845],[50.2059,52.1012],[50.2215,52.1299],[50.1385,52.1501],[50.0676,52.1587],[50.0178,52.1988],[49.9993,52.2034],[49.9769,52.1836],[49.8123,52.1931],[49.7316,52.2762],[49.7045,52.2905],[49.6844,52.2661],[49.6553,52.2628],[49.6504,52.2915],[49.6195,52.3296],[49.6397,52.3446],[49.6278,52.3664],[49.5702,52.4016],[49.5171,52.3897],[49.5252,52.3526],[49.5069,52.3289],[49.4777,52.3314],[49.4452,52.3612],[49.423,52.401],[49.3947,52.4058],[49.3475,52.3865],[49.3167,52.4006],[49.3511,52.4367],[49.3437,52.4687],[49.287,52.4935],[49.2057,52.5077],[49.1592,52.4858],[49.0864,52.493],[49.0414,52.4857],[48.9844,52.4901],[48.9361,52.4752],[48.9235,52.4275],[48.8907,52.411],[48.8655,52.4842],[48.8454,52.5262],[48.8181,52.5536],[48.7457,52.5568],[48.7301,52.568],[48.6997,52.6392],[48.6815,52.6471],[48.6186,52.6412],[48.5947,52.6459],[48.5239,52.6818],[48.4769,52.6851],[48.3824,52.6636],[48.3512,52.6694],[48.3633,52.7045],[48.3873,52.7177],[48.4222,52.7709],[48.437,52.7804],[48.3453,52.8061],[48.2522,52.8101],[48.1782,52.7918],[48.0983,52.7946],[48.0916,52.7755],[47.9978,52.7544],[48.009,52.733],[48.077,52.7288],[48.0831,52.7094],[48.0618,52.6946],[48.0117,52.6786],[47.9173,52.6748],[47.8994,52.7218],[47.879,52.7272],[47.8349,52.719],[47.7775,52.6803],[47.7818,52.6419],[47.7678,52.6141],[47.7308,52.5867],[47.7078,52.5812],[47.6377,52.6098],[47.5728,52.6162],[47.5308,52.6105],[47.4908,52.5858],[47.4354,52.5698],[47.207,52.5671],[47.1801,52.579],[47.1627,52.6029],[47.1402,52.6043],[47.0704,52.5703],[47.0071,52.5927],[46.9833,52.619],[46.9173,52.6367],[46.8307,52.6163],[46.713,52.6279],[46.6633,52.6607],[46.6101,52.6705],[46.613,52.7029],[46.5821,52.7308],[46.5459,52.7037],[46.5162,52.695],[46.4225,52.6859],[46.3933,52.6751],[46.3178,52.6779],[46.2888,52.6719],[46.273,52.6462],[46.2763,52.6186],[46.229,52.616],[46.2027,52.603],[46.1653,52.603],[46.1468,52.5914],[46.1319,52.547],[46.0863,52.5591],[46.0635,52.5316],[45.9852,52.5001],[45.9715,52.4856],[46.0053,52.4702],[46.0126,52.4545],[45.9796,52.4358],[45.9806,52.4072],[45.8014,52.4432],[45.717,52.4708],[45.7322,52.5228],[45.688,52.515],[45.6444,52.5186],[45.6019,52.495],[45.528,52.4808],[45.5197,52.4466],[45.4315,52.4005],[45.355,52.4189],[45.2643,52.3923],[45.2209,52.397],[45.1773,52.417],[45.1399,52.4205],[45.1008,52.4038],[45.0719,52.3769],[45.1006,52.3493],[45.0886,52.335],[45.0328,52.3209],[44.9771,52.365],[44.9096,52.3775],[44.8725,52.434],[44.8488,52.4498],[44.7853,52.4693],[44.682,52.4792],[44.6465,52.4876],[44.5481,52.5524],[44.5003,52.5212],[44.5383,52.4788],[44.5209,52.4608],[44.5391,52.4321],[44.5148,52.4213],[44.4725,52.4287],[44.4219,52.4158],[44.3783,52.3609],[44.3386,52.3471],[44.3467,52.3161],[44.2171,52.3392],[44.044,52.3495],[43.9555,52.3773],[43.9017,52.401],[43.8441,52.4055],[43.7716,52.4316],[43.747,52.4334],[43.6425,52.4145],[43.5321,52.4263],[43.4768,52.4058],[43.3527,52.3925],[43.3298,52.3985],[43.3198,52.4321],[43.2814,52.4467],[43.1753,52.4621],[43.1242,52.4111],[43.0796,52.4027],[43.0434,52.3949],[42.9965,52.3647],[42.9557,52.376],[42.9199,52.3697],[42.9218,52.3054],[42.8564,52.2392],[42.7714,52.1931],[42.7515,52.1738],[42.7513,52.0778],[42.806,52.0122],[42.7263,51.9941],[42.6941,51.9661],[42.6768,51.8565],[42.6433,51.804],[42.4904,51.6928],[42.4835,51.6595],[42.5115,51.624],[42.4892,51.6077],[42.4343,51.6353],[42.4034,51.6329],[42.3703,51.607],[42.3339,51.5941],[42.2737,51.6004],[42.2477,51.6945],[42.1811,51.728],[42.119,51.7141],[42.1252,51.6635],[42.1169,51.6433],[42.0927,51.6428],[42.0444,51.6668],[41.9522,51.6564],[41.8535,51.683],[41.8389,51.7127],[41.7554,51.7096],[41.7089,51.7356],[41.6456,51.7416],[41.5984,51.7618],[41.5565,51.7667],[41.4923,51.8011],[41.4364,51.764],[41.3828,51.7702],[41.3113,51.7938],[41.2905,51.7924],[41.2747,51.77],[41.2843,51.74],[41.2683,51.735],[41.1259,51.7314],[41.0661,51.7102],[41.0283,51.7284],[40.973,51.7412],[40.8919,51.7426],[40.8869,51.7516],[40.9172,51.8027],[40.9203,51.8268],[40.9445,51.8676],[40.9377,51.8902],[40.8799,51.9109],[40.8371,51.9171],[40.8024,51.8985],[40.7723,51.8987],[40.7523,51.9329],[40.7346,51.9404],[40.5038,51.9535],[40.3668,51.9622],[40.2946,51.9564],[40.1386,51.9721],[40.1224,51.9924],[40.0876,51.985],[40.0451,51.9569],[40.0206,51.9539],[39.913,51.9798],[39.8847,51.9717],[39.8801,51.9527],[39.8341,51.9202],[39.7381,51.9245],[39.6638,51.9406],[39.5967,51.9488],[39.4966,51.9727],[39.5122,52.0271],[39.4905,52.0563],[39.4471,52.0822],[39.3571,52.0849],[39.2822,52.1046],[39.1823,52.0982],[39.1628,52.0562],[39.13,52.0683],[39.0974,52.0395],[39.0977,52.0066],[39.0359,51.9883],[38.9944,52.0007],[38.9297,52.0605],[38.8799,52.0925],[38.823,52.0976],[38.7929,52.0859],[38.762,52.0524],[38.7156,52.0706],[38.6976,52.0978],[38.6806,52.0978],[38.6618,52.0721],[38.6222,52.0549],[38.5751,52.0633],[38.5515,52.0326],[38.5288,52.0238],[38.3848,52.0001],[38.2988,51.961],[38.3039,51.9151],[38.362,51.9301],[38.4098,51.9202],[38.4135,51.854],[38.4264,51.8146],[38.3875,51.7851],[38.4141,51.7545],[38.4751,51.7448],[38.5051,51.7319],[38.4098,51.6878],[38.3396,51.6889],[38.2195,51.7078],[38.2015,51.685],[38.2189,51.6318],[38.1492,51.6444],[38.1402,51.6207],[38.1888,51.587],[38.221,51.5543],[38.2764,51.5264],[38.2693,51.4988],[38.2848,51.4739],[38.2729,51.4529],[38.3012,51.3626],[38.3448,51.3731],[38.3511,51.3629],[38.3234,51.3408],[38.3122,51.3094],[38.2915,51.2925],[38.2011,51.3067],[38.1551,51.3293],[38.0273,51.3662],[38.0518,51.3909],[38.0465,51.4197],[37.9319,51.4197],[37.9,51.4007],[37.8777,51.4009],[37.8286,51.4205],[37.7593,51.3885],[37.6667,51.3657],[37.581,51.3708],[37.5386,51.3943],[37.4628,51.381],[37.447,51.3723],[37.3616,51.3844],[37.3417,51.3644],[37.2491,51.331],[37.1894,51.3288],[37.1442,51.3429],[37.1187,51.3015],[37.1304,51.2428],[37.0984,51.2299],[37.0849,51.2504],[37.054,51.2469],[36.9896,51.2004],[36.9302,51.181],[36.8558,51.1858],[36.6887,51.1274],[36.6526,51.1089],[36.6175,51.0798],[36.5996,51.0795],[36.4999,51.122],[36.4762,51.0863],[36.4037,51.1179],[36.3591,51.1258],[36.3136,51.1033],[36.2443,51.1063],[36.2075,51.1251],[36.0986,51.1296],[36.0406,51.1603],[35.9763,51.1575],[35.9397,51.1161],[35.9525,51.0922],[35.9996,51.0577],[35.9542,51.0455],[35.9149,51.011],[35.8769,51.0124],[35.8556,50.9794],[35.8042,50.9382],[35.7668,50.9482],[35.7457,50.9671],[35.7212,50.9672],[35.7176,50.9376],[35.6772,50.9193],[35.6331,50.924],[35.6129,50.9393],[35.5923,50.9211],[35.5464,50.9057],[35.5042,50.9182],[35.5124,50.9471],[35.4494,50.963],[35.401,50.9533],[35.2822,50.9611],[35.2936,50.9376],[35.3417,50.9159],[35.3414,50.8765],[35.3777,50.8337],[35.3791,50.7972],[35.4385,50.7624],[35.4471,50.7343],[35.4454,50.6875],[35.4689,50.6685],[35.3916,50.6464],[35.3777,50.6218],[35.4253,50.5005],[35.4464,50.476],[35.5227,50.4595],[35.5547,50.4333],[35.5702,50.3765],[35.6316,50.345],[35.6922,50.3442],[35.671,50.3199],[35.5955,50.3259],[35.5618,50.3189],[35.4957,50.3189],[35.4938,50.3022],[35.4029,50.3337],[35.3804,50.2922],[35.3292,50.3047],[35.3089,50.2764],[35.269,50.2783],[35.2526,50.2689],[35.2547,50.2442],[35.1947,50.2323],[35.1354,50.245],[35.0887,50.2071],[35.0672,50.215],[35.0376,50.1985],[35.0339,50.1747],[35.0159,50.1721],[34.9794,50.192],[34.9573,50.1669],[34.9082,50.146],[34.9172,50.1324],[34.9132,50.0557],[34.8621,50.0216],[34.8415,50],[34.864,49.9423],[34.8882,49.9177],[34.9546,49.8901],[35.0086,49.8889],[35.0407,49.868],[35.103,49.8477],[35.1483,49.8553],[35.1911,49.832],[35.1913,49.7747],[35.206,49.7429],[35.2303,49.7315],[35.239,49.7045],[35.2769,49.6962],[35.2913,49.6793],[35.3598,49.6684],[35.3813,49.6881],[35.4197,49.6863],[35.4282,49.6639],[35.4198,49.6373],[35.4751,49.5604],[35.3984,49.5548],[35.3962,49.5407],[35.4693,49.5005],[35.4194,49.4809],[35.3627,49.4907],[35.3267,49.4854],[35.3137,49.4678],[35.3306,49.4347],[35.3514,49.4266],[35.3606,49.392],[35.309,49.3421],[35.2633,49.3117],[35.1885,49.292],[35.0902,49.2972],[35.053,49.3162],[35.0246,49.3172],[34.9729,49.2806],[34.9549,49.2396],[34.9746,49.217],[34.9897,49.1775],[34.9839,49.1637],[34.9262,49.183],[34.8911,49.1483],[34.8573,49.1496],[34.8713,49.1687],[34.8367,49.1807],[34.7841,49.1746],[34.7265,49.146],[34.6098,49.1265],[34.4304,49.0746],[34.4083,49.0765],[34.4028,49.0501],[34.3505,49.0144],[34.3567,48.9861],[34.3252,48.9809],[34.3012,48.9639],[34.2743,48.9143],[34.2766,48.8884],[34.3127,48.8613],[34.3159,48.8396],[34.2782,48.8132],[34.2951,48.7844],[34.2375,48.7463],[34.162,48.7844],[34.1097,48.7902],[34.0749,48.805],[34.0402,48.8078],[33.9195,48.8658],[33.876,48.8974],[33.8074,48.9034],[33.7785,48.9225],[33.6946,48.9058],[33.6735,48.8691],[33.6516,48.8993],[33.597,48.9224],[33.5427,48.903],[33.4564,48.9417],[33.401,48.9535],[33.3757,48.9413],[33.2994,48.9955],[33.3226,49.0273],[33.346,49.0327],[33.2971,49.0649],[33.2041,49.0709],[33.142,49.1302],[33.0382,49.182],[32.7887,49.2618],[32.7527,49.1882],[32.7895,49.1468],[32.8013,49.074],[32.8247,49.0304],[32.8491,49.023],[32.8449,49.0012],[32.7824,48.9637],[32.7439,48.9656],[32.683,48.9863],[32.6343,48.946],[32.6003,48.9456],[32.5737,48.9576],[32.5513,48.9328],[32.5152,48.9313],[32.5015,48.9755],[32.463,49.0098],[32.4529,49.0561],[32.4208,49.0438],[32.3691,49.0458],[32.3319,49.0898],[32.3013,49.0779],[32.2795,49.0471],[32.2414,49.052],[32.1925,48.9998],[32.1494,48.9801],[32.1343,48.9583],[32.146,48.948],[32.1292,48.9125],[32.0518,48.9162],[32.0316,48.9278],[31.9528,48.9021],[31.8949,48.8618],[31.8748,48.8616],[31.8541,48.8983],[31.8102,48.9239],[31.7323,48.9426],[31.6895,48.9445],[31.6511,48.9174],[31.5441,48.9242],[31.5295,48.904],[31.5273,48.8352],[31.4812,48.8035],[31.4623,48.7611],[31.4417,48.751],[31.3329,48.7238],[31.3091,48.7428],[31.2237,48.7539],[31.1799,48.751],[31.116,48.7283],[31.0548,48.7282],[31.0205,48.7435],[30.9381,48.7562],[30.8122,48.7509],[30.7991,48.7604],[30.7023,48.7652],[30.6154,48.7222],[30.6014,48.6639],[30.5409,48.6193],[30.5775,48.6011],[30.5741,48.5652],[30.4844,48.5535],[30.4565,48.5708],[30.4147,48.5719],[30.393,48.5555],[30.3849,48.5305],[30.2552,48.4853],[30.2135,48.4819],[30.1744,48.4892],[30.1208,48.4564],[30.0761,48.4551],[30.0388,48.4277],[30.0046,48.4244],[29.9401,48.3756],[29.9124,48.4319],[29.8834,48.4326],[29.8586,48.4172],[29.7771,48.3476],[29.7754,48.3169],[29.7382,48.2701],[29.7866,48.25],[29.7748,48.2031],[29.7172,48.1817],[29.6825,48.1821],[29.6659,48.1689],[29.6975,48.1364],[29.6798,48.0922],[29.5855,48.0871],[29.4972,48.0928],[29.4347,48.1131],[29.3384,48.0862],[29.2463,48.0845],[29.1699,48.1057],[29.104,48.1436],[29.0783,48.1445],[29.0412,48.1282],[29.0461,48.0831],[28.9642,48.0358],[28.8798,48.0106],[28.8621,48.0005],[28.8826,47.9768],[28.9361,47.9422],[28.9808,47.9264],[29.0172,47.9311],[29.061,47.9698],[29.0927,47.9802],[29.124,47.976],[29.148,47.9554],[29.1646,47.9056],[29.1866,47.8836],[29.236,47.8707],[29.2328,47.8571],[29.1867,47.8182],[29.1778,47.7897],[29.222,47.7748],[29.2386,47.756],[29.197,47.7175],[29.1924,47.6509],[29.1821,47.6132],[29.1305,47.5596],[29.1174,47.5333],[29.1372,47.484],[29.1268,47.4656],[29.108,47.4694],[29.0928,47.4874],[29.0486,47.5062],[29.0267,47.5295],[29.0157,47.5821],[28.9865,47.6223],[28.9954,47.6509],[28.9803,47.6874],[28.9756,47.7434],[28.9803,47.7656],[29.0175,47.8269],[29.0181,47.8535],[28.9803,47.8755],[28.9421,47.8832],[28.861,47.8997],[28.8289,47.9171],[28.8303,47.9411],[28.8128,47.9654],[28.7848,47.9828],[28.7556,47.9572],[28.7204,47.9527],[28.6832,47.9339],[28.6579,47.8987],[28.6568,47.8772],[28.6692,47.8581],[28.637,47.8421],[28.5692,47.8871],[28.5305,47.8929],[28.504,47.8833],[28.478,47.8886],[28.4962,47.9155],[28.5055,47.9587],[28.4965,47.9878],[28.4666,47.9972],[28.4813,48.0332],[28.5191,48.0523],[28.5434,48.088],[28.4998,48.1089],[28.49,48.0655],[28.4474,48.0828],[28.419,48.1222],[28.4369,48.1499],[28.4116,48.1707],[28.3886,48.1686],[28.3496,48.1297],[28.3174,48.1354],[28.3222,48.1632],[28.3634,48.191],[28.3682,48.2306],[28.3406,48.2401],[28.2945,48.2365],[28.2403,48.2116],[28.1999,48.2117],[28.1785,48.2589],[28.1311,48.2396],[28.0787,48.2449],[28.0983,48.2841],[28.0928,48.3021],[28.0559,48.3215],[28.0032,48.3259],[27.9264,48.3394],[27.8854,48.3784],[27.8499,48.4096],[27.7853,48.4416],[27.7518,48.452],[27.627,48.4513],[27.6069,48.4578],[27.6048,48.4841],[27.583,48.486],[27.5571,48.4744],[27.5038,48.4724],[27.4809,48.4514],[27.4202,48.4171],[27.3898,48.415],[27.3422,48.4361],[27.306,48.4237],[27.2519,48.3783],[27.2086,48.3606],[27.1758,48.3618],[27.0263,48.3971],[27.0331,48.3602],[26.9906,48.3624],[26.9432,48.3513],[26.876,48.384],[26.8428,48.3937],[26.8169,48.3717],[26.7881,48.376],[26.7775,48.3662],[26.7894,48.3259],[26.7857,48.2941],[26.7546,48.2861],[26.7359,48.2918],[26.6994,48.3251],[26.6798,48.3302],[26.6691,48.3088],[26.6361,48.2949],[26.6179,48.259],[26.5874,48.2494],[26.4447,48.2277],[26.3974,48.2262],[26.3303,48.2085],[26.3035,48.212],[26.287,48.1247],[26.2553,48.0723],[26.2048,48.0374],[26.1731,47.9931],[26.1025,47.9783],[26.0293,47.9778],[25.9657,47.9649],[25.9181,47.9682],[25.8184,47.9526],[25.7525,47.9346],[25.2617,47.8986],[25.219,47.8785],[25.1219,47.7703],[25.0799,47.7429],[25.0174,47.7246],[24.9424,47.7156],[24.9788,47.6626],[25.0219,47.6322],[25.0323,47.6123],[25.0158,47.5965],[24.9562,47.5823],[25.0461,47.5297],[25.0842,47.4938],[25.0905,47.4715],[25.0726,47.4495],[25.0373,47.4302],[25.0494,47.3999],[25.007,47.3926],[25.004,47.3792],[25.0404,47.3429],[25.0568,47.3153],[25.0292,47.2576],[25.0391,47.2372],[25.0765,47.2283],[25.0632,47.1728],[25.0686,47.103],[25.1589,47.0914],[25.2047,47.0764],[25.2419,47.0663],[25.2826,47.0704],[25.3118,47.123],[25.3725,47.1403],[25.4069,47.1348],[25.5189,47.0824],[25.5521,47.0559],[25.5836,47.0473],[25.6713,47.0579],[25.7371,47.039],[25.7627,47.0125],[25.7918,46.9661],[25.8658,46.9128],[25.8668,46.8837],[25.832,46.8853],[25.8165,46.8592],[25.8282,46.6936],[25.8409,46.6702],[25.889,46.6348],[25.915,46.6356],[25.907,46.6748],[25.9271,46.6819],[26.0088,46.668],[26.012,46.5936],[26.0289,46.5485],[26.0691,46.4986],[26.0699,46.4872],[26.0325,46.4683],[26.0189,46.4268],[26.0387,46.4033],[26.1326,46.3907],[26.1619,46.3731],[26.1682,46.35],[26.1595,46.3125],[26.1823,46.3057],[26.2471,46.3266],[26.2927,46.3197],[26.3002,46.302],[26.2869,46.2762],[26.2799,46.2265],[26.259,46.1881],[26.2516,46.1503],[26.2932,46.1601],[26.325,46.1794],[26.4001,46.1445],[26.4149,46.128],[26.4021,46.0943],[26.4406,46.0748],[26.4681,46.0274],[26.4848,46.0212],[26.4209,45.9505],[26.4048,45.9175],[26.3804,45.8029],[26.395,45.7498],[26.3667,45.6852],[26.3427,45.6553],[26.3286,45.6181],[26.2847,45.6028],[26.2346,45.6256],[26.2156,45.6122],[26.2075,45.5832],[26.1889,45.5745],[26.1005,45.5644],[26.046,45.4823],[25.9989,45.4886],[25.9458,45.5102],[25.9028,45.5006],[25.8913,45.4654],[25.8627,45.4416],[25.8231,45.4455],[25.7904,45.4733],[25.7502,45.4659],[25.6933,45.4794],[25.6278,45.4847],[25.4588,45.4636],[25.4298,45.4523],[25.4027,45.4392],[25.3703,45.3994],[25.3092,45.3885],[25.2759,45.4165],[25.2208,45.5034],[25.0951,45.5696],[24.9839,45.58],[24.8687,45.5739],[24.8388,45.5631],[24.8004,45.595],[24.7719,45.6029],[24.7091,45.5988],[24.5272,45.5618],[24.3218,45.563],[24.1689,45.537],[24.0683,45.4964],[23.9606,45.5122],[23.794,45.508],[23.7526,45.4861],[23.7097,45.4798],[23.6469,45.4505],[23.6261,45.4519],[23.5842,45.4473],[23.5808,45.4323],[23.5999,45.3819],[23.5858,45.3526],[23.5237,45.3379],[23.4304,45.3038],[23.3984,45.3182],[23.3575,45.3215],[23.2441,45.2952],[23.1895,45.2718],[23.0908,45.2794],[23.027,45.2597],[22.9761,45.2748],[22.9334,45.2767],[22.8814,45.2949],[22.6691,45.2405],[22.601,45.1977],[22.5727,45.1708],[22.5661,45.1388],[22.6346,45.1275],[22.6411,45.0924],[22.5989,45.0602],[22.5666,45.0239],[22.5337,44.9342],[22.4918,44.8846],[22.467,44.8393],[22.4418,44.7694],[22.4212,44.7521],[22.3878,44.7537],[22.3542,44.7777],[22.3112,44.7779],[22.2626,44.8083],[22.2219,44.8062],[22.2057,44.7613],[22.1653,44.7022],[22.1608,44.6644],[22.1727,44.6339],[22.169,44.609],[22.1499,44.5977],[22.0888,44.6032],[22.0342,44.5962]]],[[[31.5044,46.3734],[31.522,46.3132],[31.5268,46.3077],[31.5271,46.3066],[31.5631,46.258],[31.6999,46.2146],[32.0095,46.1677],[32.1499,46.1538],[32.1498,46.1539],[32.1503,46.1538],[32.1496,46.154],[32.1501,46.154],[32.1494,46.1542],[32.1499,46.1542],[32.1498,46.1543],[32.1503,46.1542],[32.1354,46.1597],[32.1531,46.156],[32.0937,46.1751],[32.0135,46.2046],[31.6391,46.2723],[31.5851,46.3035],[31.5273,46.3566],[31.522,46.3685],[31.5111,46.3715],[31.5095,46.373],[31.5096,46.3725],[31.5091,46.373],[31.5092,46.3725],[31.5091,46.3726],[31.5093,46.372],[31.5044,46.3734]]],[[[47.9175,45.6328],[47.9177,45.5701],[47.928,45.534],[47.9598,45.4758],[47.9907,45.4487],[47.9971,45.4678],[47.9971,45.5205],[47.9869,45.5536],[47.9869,45.5537],[47.957,45.6505],[47.9477,45.6463],[47.9473,45.6473],[47.947,45.647],[47.9469,45.6473],[47.9446,45.6449],[47.9175,45.6328]]]]}},
{"type":"Feature","properties":{"entityId":"hunnic-bulgar-tribes","from":527,"to":632,"certainty":"estimated","source":"유럽 쪽은 Natural Earth 1:10m admin-1(v5.1.2) 현대 행정구역 조각을 그 시기 국경에 맞춰 묶고, 조각이 역사 경계와 다른 곳은 선을 그어 나눈 근사. 유럽 밖(시베리아·중앙아시아·극동)은 대략적인 추정. 운영자 검수 필요"},"geometry":{"type":"MultiPolygon","coordinates":[[[[31.5044,46.3734],[31.522,46.3132],[31.5268,46.3077],[31.5271,46.3066],[31.5631,46.258],[31.6999,46.2146],[32.0095,46.1677],[32.1499,46.1538],[32.1498,46.1539],[32.1503,46.1538],[32.1496,46.154],[32.1501,46.154],[32.1494,46.1542],[32.1499,46.1542],[32.1498,46.1543],[32.1503,46.1542],[32.1354,46.1597],[32.1531,46.156],[32.0937,46.1751],[32.0135,46.2046],[31.6391,46.2723],[31.5851,46.3035],[31.5273,46.3566],[31.522,46.3685],[31.5111,46.3715],[31.5095,46.373],[31.5096,46.3725],[31.5091,46.373],[31.5092,46.3725],[31.5091,46.3726],[31.5093,46.372],[31.5044,46.3734]]],[[[31.517,46.575],[31.5244,46.5642],[31.6414,46.4821],[31.6636,46.4721],[31.6865,46.4299],[31.6903,46.4786],[31.6933,46.4804],[31.7143,46.4715],[31.7177,46.4713],[31.7282,46.4138],[31.7362,46.3703],[31.7431,46.3325],[31.7787,46.3267],[31.7725,46.3027],[31.8192,46.2806],[31.8823,46.2791],[31.8828,46.2851],[31.9268,46.2875],[31.9626,46.2788],[31.9684,46.2757],[32.0181,46.2575],[32.0336,46.2617],[32.0347,46.2614],[32.0838,46.2394],[32.1154,46.2145],[32.1698,46.201],[32.2461,46.1669],[32.2625,46.1282],[32.3025,46.1167],[32.5034,46.0761],[32.5437,46.0805],[32.575,46.0973],[32.7982,46.1312],[32.8043,46.1309],[32.8446,46.1214],[32.9131,46.1152],[33.0111,46.1269],[33.2983,46.0803],[33.394,46.0044],[33.4034,45.9969],[33.449,45.9608],[33.4945,45.9247],[33.5018,45.9189],[33.5476,45.8825],[33.4945,45.8532],[33.4911,45.8513],[33.4822,45.8545],[33.41,45.8266],[33.3864,45.8067],[33.2803,45.7654],[33.217,45.7581],[33.1692,45.7844],[33.1592,45.7685],[33.181,45.7552],[33.1798,45.7539],[33.1435,45.7497],[33.0247,45.6911],[32.9368,45.6625],[32.8682,45.6301],[32.8361,45.5981],[32.8267,45.5935],[32.7986,45.5769],[32.7629,45.5644],[32.7578,45.5646],[32.7509,45.5602],[32.6323,45.5188],[32.6263,45.5124],[32.5252,45.4582],[32.4951,45.4355],[32.4816,45.4089],[32.4971,45.3751],[32.4523,45.3275],[32.4526,45.3274],[32.4523,45.3271],[33.036,45.1709],[33.3278,45.0929],[33.4737,45.0538],[33.5465,45.0343],[33.5403,45.021],[33.4815,44.8954],[33.5293,44.8954],[33.5293,44.8462],[33.5573,44.8462],[33.5573,44.8441],[33.5705,44.8525],[33.5808,44.8193],[33.6173,44.8163],[33.6745,44.7916],[33.6893,44.7542],[33.6114,44.7206],[33.6252,44.6614],[33.7091,44.6664],[33.7505,44.624],[33.713,44.5816],[33.7298,44.5539],[33.7692,44.5559],[33.7771,44.5322],[33.8057,44.5273],[33.8521,44.4316],[33.786,44.4247],[33.7653,44.406],[33.73,44.398],[33.7869,44.3956],[33.8815,44.3606],[33.8817,44.3607],[33.8819,44.3606],[33.9,44.3683],[33.9,44.62],[34.3,44.75],[34.7,44.85],[35,44.93],[35.3,45.08],[35.6,45.12],[35.6,44.997],[35.8133,45.031],[35.8278,44.9992],[35.848,44.9924],[35.9168,45.0014],[35.9934,44.998],[36.0235,45.026],[36.0563,45.0306],[36.1194,45.0287],[36.136,45.0214],[36.2246,45.0075],[36.2443,45.011],[36.2541,45.0314],[36.3196,45.0472],[36.3678,45.0488],[36.4401,45.0675],[36.4553,45.0916],[36.4171,45.1263],[36.4272,45.1539],[36.4524,45.232],[36.5136,45.3032],[36.5436,45.3474],[36.5452,45.3474],[36.5749,45.3361],[36.6309,45.3406],[36.6384,45.3513],[36.6135,45.4089],[36.5833,45.4274],[36.533,45.4089],[36.5088,45.4284],[36.5316,45.4693],[36.5314,45.4693],[36.5316,45.4697],[36.5312,45.4697],[36.3053,45.4566],[36.3074,45.4609],[36.284,45.4766],[36.2525,45.4615],[36.1375,45.4621],[36.1003,45.4447],[35.8478,45.43],[35.8577,45.4694],[35.8171,45.4641],[35.7991,45.4272],[35.5092,45.4104],[35.3052,45.5105],[35.1136,45.6046],[35.1054,45.6134],[35.0232,45.7011],[35.0135,45.7159],[35.0131,45.7205],[35.0106,45.7473],[35.0081,45.774],[35.0032,45.8275],[34.965,46.2404],[35.0308,46.2518],[35.075,46.2711],[35.1051,46.2951],[35.1678,46.361],[35.1724,46.3643],[35.2637,46.4038],[35.2686,46.3982],[35.2586,46.3734],[35.2676,46.3511],[35.2911,46.3439],[35.2892,46.3139],[35.2793,46.282],[35.2784,46.2792],[35.2563,46.2623],[35.2305,46.2425],[35.2172,46.2323],[35.2171,46.2322],[35.0881,46.1512],[35.0444,46.1419],[35.0518,46.1284],[35.0389,46.1203],[34.9854,46.0875],[35,46.0736],[35.0623,46.0986],[35.0965,46.1042],[35.1618,46.1282],[35.2095,46.1699],[35.2146,46.1768],[35.2572,46.2042],[35.2661,46.2151],[35.2919,46.2468],[35.3176,46.2784],[35.4003,46.3801],[35.4455,46.406],[35.4481,46.408],[35.5709,46.4783],[35.6287,46.4985],[35.6613,46.5193],[35.7071,46.5563],[35.8181,46.6198],[35.8336,46.6259],[35.9654,46.6536],[36.0741,46.6597],[36.1928,46.6451],[36.1932,46.6451],[36.2237,46.65],[36.2676,46.6256],[36.2783,46.6074],[36.2844,46.6364],[36.3035,46.6592],[36.3233,46.6736],[36.7584,46.6981],[36.7931,46.7149],[36.794,46.7145],[36.7941,46.7146],[36.7944,46.7145],[36.7974,46.717],[36.8011,46.7188],[36.7903,46.6713],[36.7693,46.6374],[36.8123,46.6806],[36.8296,46.7319],[36.8304,46.733],[36.9451,46.7887],[37.0024,46.8165],[37.0598,46.8444],[37.1172,46.8722],[37.1745,46.9001],[37.2024,46.9136],[37.2192,46.9177],[37.2893,46.9167],[37.3174,46.9008],[37.313,46.8756],[37.3352,46.8825],[37.3779,46.9339],[37.4335,46.9879],[37.4838,47.0274],[37.6322,47.0425],[38.0234,47.0822],[38.0262,47.0816],[38.0292,47.0828],[38.0606,47.086],[38.1088,47.0838],[38.1301,47.0747],[38.1081,47.0264],[38.1423,47.0377],[38.1982,47.087],[38.2128,47.0913],[38.2878,47.1141],[38.3635,47.1277],[38.4279,47.1335],[38.4397,47.1413],[38.488,47.15],[38.478,47.1425],[38.5174,47.119],[38.568,47.1152],[38.5531,47.1356],[38.6255,47.1356],[38.6667,47.1435],[38.6696,47.1433],[38.67,47.1433],[38.8294,47.1636],[38.8474,47.1636],[38.8543,47.1668],[38.9292,47.1763],[38.992,47.2404],[39.1196,47.2633],[39.1483,47.0454],[39.0869,47.0284],[39.0752,47.0327],[39.0397,47.0154],[38.8032,46.95],[38.7602,46.9381],[38.6903,46.9188],[38.6554,46.9092],[38.6204,46.8995],[38.4806,46.8609],[38.4746,46.8619],[38.4611,46.8555],[37.7655,46.6632],[37.7376,46.6763],[37.7307,46.6627],[37.7401,46.6562],[37.6724,46.6375],[37.6727,46.6373],[37.6726,46.6373],[37.6727,46.6372],[37.6724,46.6371],[37.7923,46.5526],[37.8273,46.4765],[37.863,46.4548],[37.905,46.411],[37.971,46.3618],[37.9954,46.3544],[38.0187,46.3685],[37.9778,46.3821],[37.9784,46.383],[37.9788,46.383],[38.0259,46.3879],[38.2338,46.2413],[38.0509,46.0574],[38.0379,46.0565],[37.9719,46.04],[37.9401,46.0203],[37.902,45.9508],[37.8934,45.916],[37.8796,45.8852],[37.6353,45.6396],[37.6079,45.6627],[37.5951,45.6353],[37.5896,45.5936],[37.4024,45.4054],[37.1147,45.3417],[37.0667,45.3538],[36.8953,45.43],[36.8333,45.443],[36.7051,45.391],[36.6665,45.3404],[36.688,45.3315],[36.7251,45.3691],[36.7616,45.3483],[36.7636,45.348],[36.7585,45.3408],[36.7888,45.2922],[36.8923,45.3084],[36.9183,45.2984],[36.6752,45.2446],[36.6755,45.2444],[36.6754,45.2444],[36.6756,45.2443],[36.6752,45.2442],[36.7219,45.2124],[36.6861,45.2032],[36.5947,45.2048],[36.5773,45.1942],[36.5931,45.1648],[36.6414,45.1284],[36.7017,45.1038],[36.7415,45.1032],[36.7546,45.1058],[36.9283,45.0721],[36.9506,45.0569],[37.45,45.12],[38,45.15],[38.5,45.08],[38.97,45.03],[39.5,45.15],[39.7,45.2],[40.2,45.35],[40.57,45.43],[41.13,45],[41.5952,44.802],[41.651,44.8966],[41.5871,44.7882],[41.5384,44.7363],[41.504,44.7215],[41.4429,44.717],[41.4175,44.7078],[41.4229,44.6658],[41.4738,44.6321],[41.4858,44.6068],[41.5335,44.6028],[41.5552,44.5879],[41.5666,44.546],[41.5802,44.5337],[41.6204,44.527],[41.6365,44.5066],[41.7019,44.5014],[41.7291,44.4851],[41.7294,44.4586],[41.7715,44.4576],[41.8485,44.4907],[41.9046,44.4948],[41.939,44.4288],[41.9446,44.4029],[41.9723,44.385],[42.038,44.3639],[42.0009,44.3758],[42.05,44.2],[42,43.5],[42.1435,43.2131],[42.1543,43.2175],[42.1854,43.2255],[42.3626,43.2352],[42.4043,43.2837],[42.4142,43.3263],[42.4047,43.3954],[42.4424,43.4366],[42.4787,43.4998],[42.4836,43.5486],[42.4581,43.5949],[42.46,43.6154],[42.5294,43.6373],[42.6318,43.6628],[42.6714,43.6956],[42.6832,43.8072],[42.7191,43.822],[42.8259,43.8128],[42.8521,43.8171],[42.9021,43.8633],[42.9751,43.891],[43.0893,43.8921],[43.1312,43.9091],[43.162,43.9412],[43.2161,43.9501],[43.266,43.9098],[43.3,43.824],[43.3329,43.8055],[43.4288,43.8627],[43.5018,43.8666],[43.6209,43.8441],[43.7287,43.8387],[43.7652,43.8573],[43.7812,43.9097],[43.8034,43.9405],[43.8754,43.9821],[43.9061,43.9942],[43.9714,43.9851],[44.0175,43.9626],[44.106,43.9616],[44.1341,43.9558],[44.1673,43.9257],[44.2585,43.9246],[44.2846,43.9459],[44.4155,43.9986],[44.4168,43.9464],[44.3579,43.9365],[44.3426,43.9126],[44.3025,43.8945],[44.2849,43.8189],[44.3451,43.8124],[44.3993,43.7952],[44.6525,43.8219],[44.6936,43.8299],[44.8035,43.8021],[44.8152,43.7894],[44.8509,43.7009],[44.8291,43.6682],[44.8387,43.6611],[44.8926,43.6521],[44.9614,43.6714],[45,43.7046],[45.0044,43.7582],[45.0606,43.7709],[45.0799,43.7877],[45.0823,43.8765],[45.0616,43.8886],[45.0607,43.9341],[45.0834,43.9528],[45.1897,43.9517],[45.204,43.9477],[45.2101,43.8885],[45.2374,43.8802],[45.4318,43.8786],[45.4495,43.8831],[45.4544,43.9144],[45.4482,43.9733],[45.4591,43.9999],[45.5094,44.0152],[45.5741,43.9928],[45.6701,43.9798],[45.7104,43.9551],[45.771,43.9545],[45.8029,43.9781],[45.882,43.9709],[45.928,43.9569],[46.0447,43.9336],[46.0428,43.8972],[46.0164,43.8764],[46.0487,43.8214],[46.0745,43.8236],[46.0889,43.8582],[46.1923,43.847],[46.2203,43.863],[46.2463,43.9087],[46.2414,43.9369],[46.2569,43.9483],[46.3132,43.957],[46.3329,43.968],[46.3493,43.9977],[46.419,44.0002],[46.4623,43.962],[46.4516,43.8871],[46.5096,43.8652],[46.5859,43.8722],[46.6192,43.8237],[46.6693,43.8194],[46.6598,43.7845],[46.585,43.7724],[46.5332,43.7066],[46.4835,43.6721],[46.4431,43.6072],[46.4385,43.541],[46.3983,43.4819],[46.3376,43.4582],[46.3288,43.4207],[46.365,43.3907],[46.3599,43.361],[46.423,43.3147],[46.4299,43.2906],[46.4183,43.25],[47.5322,43.25],[47.565,43.2681],[47.5857,43.2995],[47.5703,43.3337],[47.5424,43.3235],[47.5909,43.6599],[47.5908,43.66],[47.5909,43.6603],[47.5687,43.6836],[47.5693,43.6852],[47.6254,43.802],[47.6438,43.8299],[47.7015,43.8745],[47.6528,43.8967],[47.5957,43.9012],[47.5547,43.8776],[47.5418,43.8547],[47.5339,43.7759],[47.5153,43.7395],[47.492,43.7638],[47.4955,43.7648],[47.5028,43.781],[47.4828,43.8249],[47.4414,43.8193],[47.4619,43.8603],[47.4326,43.8762],[47.4234,43.9079],[47.3869,43.9565],[47.3579,44.0206],[47.3386,44.0379],[47.3065,44.104],[47.274,44.142],[47.2654,44.1686],[47.2459,44.212],[47.2217,44.2308],[47.1934,44.2166],[47.1229,44.262],[47.0571,44.3152],[47.0442,44.3463],[47.0026,44.3673],[46.93,44.3819],[46.9177,44.387],[46.8913,44.3925],[46.7206,44.5712],[46.7557,44.6556],[46.8169,44.6999],[46.8313,44.6964],[46.8555,44.7256],[46.935,44.77],[46.9616,44.7652],[47.01,44.8301],[46.9974,44.8606],[47.004,44.8758],[47.0193,44.8595],[47.0236,44.843],[47.0783,44.7851],[47.0845,44.8175],[47.1117,44.8696],[47.1087,44.8865],[47.1157,44.9056],[47.1379,44.936],[47.146,44.9291],[47.1658,44.967],[47.2012,44.97],[47.2279,45.0334],[47.2505,45.0653],[47.266,45.0997],[47.2957,45.1487],[47.3305,45.1934],[47.3701,45.1856],[47.3794,45.2028],[47.3794,45.2706],[47.3929,45.2945],[47.3978,45.3231],[47.4592,45.3987],[47.4445,45.4001],[47.466,45.4224],[47.4774,45.4224],[47.4968,45.43],[47.4993,45.457],[47.5346,45.4937],[47.5442,45.5037],[47.5698,45.5303],[47.6126,45.5747],[47.615,45.5702],[47.6537,45.5591],[47.6455,45.5922],[47.6611,45.6218],[47.6587,45.6226],[47.6773,45.6419],[47.7746,45.6584],[47.7771,45.6523],[47.8182,45.6081],[47.8523,45.6423],[47.8353,45.6496],[47.8378,45.664],[47.8888,45.6778],[48.1994,45.7305],[48.2428,45.7099],[48.2324,45.7361],[48.6457,45.8061],[48.6917,45.8657],[48.6952,45.828],[48.7655,45.8522],[48.7914,45.8409],[48.7566,45.8879],[48.7446,45.915],[48.7501,45.9212],[48.7499,45.9214],[48.7501,45.9216],[48.7429,45.9301],[48.7437,45.933],[48.8591,46.0826],[48.8742,46.0782],[48.8692,46.0957],[48.8822,46.1125],[48.887,46.1078],[48.8857,46.117],[48.8933,46.1269],[48.9126,46.1332],[48.9144,46.132],[48.9318,46.0853],[48.9553,46.1078],[48.9355,46.1407],[49.0738,46.1861],[49.093,46.1624],[49.1195,46.1588],[49.112,46.2211],[49.1082,46.2259],[49.1101,46.2285],[49.1245,46.2823],[49.1802,46.2863],[49.2492,46.2673],[49.282,46.2499],[49.306,46.2631],[49.2271,46.3279],[49.0332,46.4049],[48.897,46.4822],[48.8196,46.4793],[48.7586,46.5131],[48.705,46.5504],[48.6652,46.5572],[48.5732,46.5583],[48.5394,46.568],[48.563,46.5913],[48.5469,46.5993],[48.53,46.6382],[48.4551,46.6608],[48.4791,46.6835],[48.5058,46.7326],[48.5567,46.7617],[48.6182,46.7704],[48.6766,46.758],[48.7127,46.7288],[48.7395,46.6906],[48.764,46.6828],[48.9169,46.7026],[48.9481,46.7199],[49.0063,46.7691],[48.6973,47.101],[48.5462,47.3694],[48.5251,47.4102],[48.4375,47.4292],[48.4111,47.4458],[48.3606,47.4931],[48.1744,47.7129],[48.1125,47.7485],[48.0445,47.7697],[47.6497,47.7656],[47.4353,47.8344],[47.4122,47.8359],[47.3888,47.8119],[47.3894,47.7516],[47.3829,47.7054],[47.3597,47.6833],[47.1745,47.7705],[47.1406,47.7927],[47.1195,47.8198],[47.1553,47.8774],[47.1217,47.9154],[47.0512,47.9746],[47.0442,47.9862],[47.1371,48.0273],[47.1782,48.0518],[47.192,48.0718],[47.1739,48.0842],[47.1195,48.0883],[47.1036,48.1012],[47.1165,48.1539],[47.1088,48.174],[47.0752,48.2051],[47.1121,48.2422],[47.0783,48.2753],[46.9792,48.294],[46.4793,48.4102],[46.6202,48.6696],[46.7538,48.9141],[46.8129,48.9538],[46.8881,48.9805],[46.93,49.004],[46.9792,49.0473],[47.0209,49.0968],[47.04,49.1503],[47.0286,49.2015],[46.9792,49.2443],[46.8307,49.3183],[46.7751,49.3325],[46.8999,49.8203],[46.9226,49.8614],[46.9586,49.8841],[47.1774,49.9472],[47.2456,49.9924],[47.3087,50.0448],[47.3286,50.073],[47.3276,50.1093],[47.2731,50.1584],[47.2651,50.1863],[47.3223,50.2374],[47.2948,50.2754],[47.3229,50.3045],[47.3922,50.3232],[47.4345,50.3765],[47.4698,50.4118],[47.5115,50.4369],[47.5569,50.4526],[47.5993,50.4527],[47.6247,50.4408],[47.69,50.3863],[47.7349,50.3701],[47.7765,50.3298],[47.8082,50.3199],[47.8741,50.2664],[47.9134,50.2439],[47.9536,50.2049],[47.9932,50.1818],[48.0122,50.1421],[48.0746,50.1053],[48.0964,50.0785],[48.1125,50.022],[48.1424,49.9638],[48.2004,49.925],[48.2393,49.8648],[48.3122,49.8636],[48.3595,49.834],[48.4176,49.8117],[48.4428,49.815],[48.4791,49.8432],[48.6835,49.8955],[48.7846,49.9334],[48.862,49.9929],[48.8857,50.0199],[48.8741,50.0698],[48.8518,50.0973],[48.7828,50.1115],[48.789,50.173],[48.771,50.211],[48.7289,50.2654],[48.7013,50.3346],[48.6744,50.4785],[48.6787,50.5485],[48.6734,50.5795],[48.6485,50.6016],[48.5729,50.6169],[48.5683,50.6365],[48.6088,50.6479],[48.7396,50.5975],[48.7863,50.5906],[48.8304,50.596],[49.0127,50.6834],[49.1024,50.758],[49.1441,50.7817],[49.2837,50.8037],[49.3694,50.8268],[49.4084,50.8483],[49.4237,50.8821],[49.4055,50.9135],[49.3474,50.9643],[49.3591,50.9927],[49.3927,51.0342],[49.401,51.0671],[49.4231,51.102],[49.4601,51.1162],[49.5397,51.1008],[49.7791,51.1022],[49.8428,51.1507],[49.9868,51.2298],[50.0288,51.243],[50.2075,51.2659],[50.3254,51.3035],[50.3489,51.3226],[50.3376,51.372],[50.3762,51.397],[50.3596,51.4133],[50.3796,51.4212],[50.4392,51.423],[50.4711,51.4361],[50.479,51.4537],[50.5183,51.4598],[50.5314,51.4927],[50.5254,51.5656],[50.5757,51.5884],[50.5817,51.6353],[50.6393,51.6162],[50.6942,51.6112],[50.6587,51.5762],[50.6709,51.5675],[50.72,51.5674],[50.7643,51.5787],[50.7907,51.5973],[50.7945,51.626],[50.7474,51.709],[50.7442,51.7424],[50.767,51.7594],[50.7202,51.8092],[50.7162,51.8407],[50.7315,51.914],[50.7221,51.928],[50.6507,51.958],[50.5587,51.9637],[50.5174,51.9914],[50.4022,51.9966],[50.3548,52.0149],[50.3439,52.0483],[50.3147,52.0572],[50.2902,52.0219],[50.2359,52.0351],[50.1675,52.0236],[50.1712,52.0845],[50.2059,52.1012],[50.2215,52.1299],[50.1385,52.1501],[50.0676,52.1587],[50.0178,52.1988],[49.9993,52.2034],[49.9769,52.1836],[49.8123,52.1931],[49.7316,52.2762],[49.7045,52.2905],[49.6844,52.2661],[49.6553,52.2628],[49.6504,52.2915],[49.6195,52.3296],[49.6397,52.3446],[49.6278,52.3664],[49.5702,52.4016],[49.5171,52.3897],[49.5252,52.3526],[49.5069,52.3289],[49.4777,52.3314],[49.4452,52.3612],[49.423,52.401],[49.3947,52.4058],[49.3475,52.3865],[49.3167,52.4006],[49.3511,52.4367],[49.3437,52.4687],[49.287,52.4935],[49.2057,52.5077],[49.1592,52.4858],[49.0864,52.493],[49.0414,52.4857],[48.9844,52.4901],[48.9361,52.4752],[48.9235,52.4275],[48.8907,52.411],[48.8655,52.4842],[48.8454,52.5262],[48.8181,52.5536],[48.7457,52.5568],[48.7301,52.568],[48.6997,52.6392],[48.6815,52.6471],[48.6186,52.6412],[48.5947,52.6459],[48.5239,52.6818],[48.4769,52.6851],[48.3824,52.6636],[48.3512,52.6694],[48.3633,52.7045],[48.3873,52.7177],[48.4222,52.7709],[48.437,52.7804],[48.3453,52.8061],[48.2522,52.8101],[48.1782,52.7918],[48.0983,52.7946],[48.0916,52.7755],[47.9978,52.7544],[48.009,52.733],[48.077,52.7288],[48.0831,52.7094],[48.0618,52.6946],[48.0117,52.6786],[47.9173,52.6748],[47.8994,52.7218],[47.879,52.7272],[47.8349,52.719],[47.7775,52.6803],[47.7818,52.6419],[47.7678,52.6141],[47.7308,52.5867],[47.7078,52.5812],[47.6377,52.6098],[47.5728,52.6162],[47.5308,52.6105],[47.4908,52.5858],[47.4354,52.5698],[47.207,52.5671],[47.1801,52.579],[47.1627,52.6029],[47.1402,52.6043],[47.0704,52.5703],[47.0071,52.5927],[46.9833,52.619],[46.9173,52.6367],[46.8307,52.6163],[46.713,52.6279],[46.6633,52.6607],[46.6101,52.6705],[46.613,52.7029],[46.5821,52.7308],[46.5459,52.7037],[46.5162,52.695],[46.4225,52.6859],[46.3933,52.6751],[46.3178,52.6779],[46.2888,52.6719],[46.273,52.6462],[46.2763,52.6186],[46.229,52.616],[46.2027,52.603],[46.1653,52.603],[46.1468,52.5914],[46.1319,52.547],[46.0863,52.5591],[46.0635,52.5316],[45.9852,52.5001],[45.9715,52.4856],[46.0053,52.4702],[46.0126,52.4545],[45.9796,52.4358],[45.9806,52.4072],[45.8014,52.4432],[45.717,52.4708],[45.7322,52.5228],[45.688,52.515],[45.6444,52.5186],[45.6019,52.495],[45.528,52.4808],[45.5197,52.4466],[45.4315,52.4005],[45.355,52.4189],[45.2643,52.3923],[45.2209,52.397],[45.1773,52.417],[45.1399,52.4205],[45.1008,52.4038],[45.0719,52.3769],[45.1006,52.3493],[45.0886,52.335],[45.0328,52.3209],[44.9771,52.365],[44.9096,52.3775],[44.8725,52.434],[44.8488,52.4498],[44.7853,52.4693],[44.682,52.4792],[44.6465,52.4876],[44.5481,52.5524],[44.5003,52.5212],[44.5383,52.4788],[44.5209,52.4608],[44.5391,52.4321],[44.5148,52.4213],[44.4725,52.4287],[44.4219,52.4158],[44.3783,52.3609],[44.3386,52.3471],[44.3467,52.3161],[44.2171,52.3392],[44.044,52.3495],[43.9555,52.3773],[43.9017,52.401],[43.8441,52.4055],[43.7716,52.4316],[43.747,52.4334],[43.6425,52.4145],[43.5321,52.4263],[43.4768,52.4058],[43.3527,52.3925],[43.3298,52.3985],[43.3198,52.4321],[43.2814,52.4467],[43.1753,52.4621],[43.1242,52.4111],[43.0796,52.4027],[43.0434,52.3949],[42.9965,52.3647],[42.9557,52.376],[42.9199,52.3697],[42.9218,52.3054],[42.8564,52.2392],[42.7714,52.1931],[42.7515,52.1738],[42.7513,52.0778],[42.806,52.0122],[42.7263,51.9941],[42.6941,51.9661],[42.6768,51.8565],[42.6433,51.804],[42.4904,51.6928],[42.4835,51.6595],[42.5115,51.624],[42.4892,51.6077],[42.4343,51.6353],[42.4034,51.6329],[42.3703,51.607],[42.3339,51.5941],[42.2737,51.6004],[42.2477,51.6945],[42.1811,51.728],[42.119,51.7141],[42.1252,51.6635],[42.1169,51.6433],[42.0927,51.6428],[42.0444,51.6668],[41.9522,51.6564],[41.8535,51.683],[41.8389,51.7127],[41.7554,51.7096],[41.7089,51.7356],[41.6456,51.7416],[41.5984,51.7618],[41.5565,51.7667],[41.4923,51.8011],[41.4364,51.764],[41.3828,51.7702],[41.3113,51.7938],[41.2905,51.7924],[41.2747,51.77],[41.2843,51.74],[41.2683,51.735],[41.1259,51.7314],[41.0661,51.7102],[41.0283,51.7284],[40.973,51.7412],[40.8919,51.7426],[40.8869,51.7516],[40.9172,51.8027],[40.9203,51.8268],[40.9445,51.8676],[40.9377,51.8902],[40.8799,51.9109],[40.8371,51.9171],[40.8024,51.8985],[40.7723,51.8987],[40.7523,51.9329],[40.7346,51.9404],[40.5038,51.9535],[40.3668,51.9622],[40.2946,51.9564],[40.1386,51.9721],[40.1224,51.9924],[40.0876,51.985],[40.0451,51.9569],[40.0206,51.9539],[39.913,51.9798],[39.8847,51.9717],[39.8801,51.9527],[39.8341,51.9202],[39.7381,51.9245],[39.6638,51.9406],[39.5967,51.9488],[39.4966,51.9727],[39.5122,52.0271],[39.4905,52.0563],[39.4471,52.0822],[39.3571,52.0849],[39.2822,52.1046],[39.1823,52.0982],[39.1628,52.0562],[39.13,52.0683],[39.0974,52.0395],[39.0977,52.0066],[39.0359,51.9883],[38.9944,52.0007],[38.9297,52.0605],[38.8799,52.0925],[38.823,52.0976],[38.7929,52.0859],[38.762,52.0524],[38.7156,52.0706],[38.6976,52.0978],[38.6806,52.0978],[38.6618,52.0721],[38.6222,52.0549],[38.5751,52.0633],[38.5515,52.0326],[38.5288,52.0238],[38.3848,52.0001],[38.2988,51.961],[38.3039,51.9151],[38.362,51.9301],[38.4098,51.9202],[38.4135,51.854],[38.4264,51.8146],[38.3875,51.7851],[38.4141,51.7545],[38.4751,51.7448],[38.5051,51.7319],[38.4098,51.6878],[38.3396,51.6889],[38.2195,51.7078],[38.2015,51.685],[38.2189,51.6318],[38.1492,51.6444],[38.1402,51.6207],[38.1888,51.587],[38.221,51.5543],[38.2764,51.5264],[38.2693,51.4988],[38.2848,51.4739],[38.2729,51.4529],[38.3012,51.3626],[38.3448,51.3731],[38.3511,51.3629],[38.3234,51.3408],[38.3122,51.3094],[38.2915,51.2925],[38.2011,51.3067],[38.1551,51.3293],[38.0273,51.3662],[38.0518,51.3909],[38.0465,51.4197],[37.9319,51.4197],[37.9,51.4007],[37.8777,51.4009],[37.8286,51.4205],[37.7593,51.3885],[37.6667,51.3657],[37.581,51.3708],[37.5386,51.3943],[37.4628,51.381],[37.447,51.3723],[37.3616,51.3844],[37.3417,51.3644],[37.2491,51.331],[37.1894,51.3288],[37.1442,51.3429],[37.1187,51.3015],[37.1304,51.2428],[37.0984,51.2299],[37.0849,51.2504],[37.054,51.2469],[36.9896,51.2004],[36.9302,51.181],[36.8558,51.1858],[36.6887,51.1274],[36.6526,51.1089],[36.6175,51.0798],[36.5996,51.0795],[36.4999,51.122],[36.4762,51.0863],[36.4037,51.1179],[36.3591,51.1258],[36.3136,51.1033],[36.2443,51.1063],[36.2075,51.1251],[36.0986,51.1296],[36.0406,51.1603],[35.9763,51.1575],[35.9397,51.1161],[35.9525,51.0922],[35.9996,51.0577],[35.9542,51.0455],[35.9149,51.011],[35.8769,51.0124],[35.8556,50.9794],[35.8042,50.9382],[35.7668,50.9482],[35.7457,50.9671],[35.7212,50.9672],[35.7176,50.9376],[35.6772,50.9193],[35.6331,50.924],[35.6129,50.9393],[35.5923,50.9211],[35.5464,50.9057],[35.5042,50.9182],[35.5124,50.9471],[35.4494,50.963],[35.401,50.9533],[35.2822,50.9611],[35.2936,50.9376],[35.3417,50.9159],[35.3414,50.8765],[35.3777,50.8337],[35.3791,50.7972],[35.4385,50.7624],[35.4471,50.7343],[35.4454,50.6875],[35.4689,50.6685],[35.3916,50.6464],[35.3777,50.6218],[35.4253,50.5005],[35.4464,50.476],[35.5227,50.4595],[35.5547,50.4333],[35.5702,50.3765],[35.6316,50.345],[35.6922,50.3442],[35.671,50.3199],[35.5955,50.3259],[35.5618,50.3189],[35.4957,50.3189],[35.4938,50.3022],[35.4029,50.3337],[35.3804,50.2922],[35.3292,50.3047],[35.3089,50.2764],[35.269,50.2783],[35.2526,50.2689],[35.2547,50.2442],[35.1947,50.2323],[35.1354,50.245],[35.0887,50.2071],[35.0672,50.215],[35.0376,50.1985],[35.0339,50.1747],[35.0159,50.1721],[34.9794,50.192],[34.9573,50.1669],[34.9082,50.146],[34.9172,50.1324],[34.9132,50.0557],[34.8621,50.0216],[34.8415,50],[34.864,49.9423],[34.8882,49.9177],[34.9546,49.8901],[35.0086,49.8889],[35.0407,49.868],[35.103,49.8477],[35.1483,49.8553],[35.1911,49.832],[35.1913,49.7747],[35.206,49.7429],[35.2303,49.7315],[35.239,49.7045],[35.2769,49.6962],[35.2913,49.6793],[35.3598,49.6684],[35.3813,49.6881],[35.4197,49.6863],[35.4282,49.6639],[35.4198,49.6373],[35.4751,49.5604],[35.3984,49.5548],[35.3962,49.5407],[35.4693,49.5005],[35.4194,49.4809],[35.3627,49.4907],[35.3267,49.4854],[35.3137,49.4678],[35.3306,49.4347],[35.3514,49.4266],[35.3606,49.392],[35.309,49.3421],[35.2633,49.3117],[35.1885,49.292],[35.0902,49.2972],[35.053,49.3162],[35.0246,49.3172],[34.9729,49.2806],[34.9549,49.2396],[34.9746,49.217],[34.9897,49.1775],[34.9839,49.1637],[34.9262,49.183],[34.8911,49.1483],[34.8573,49.1496],[34.8713,49.1687],[34.8367,49.1807],[34.7841,49.1746],[34.7265,49.146],[34.6098,49.1265],[34.4304,49.0746],[34.4083,49.0765],[34.4028,49.0501],[34.3505,49.0144],[34.3567,48.9861],[34.3252,48.9809],[34.3012,48.9639],[34.2743,48.9143],[34.2766,48.8884],[34.3127,48.8613],[34.3159,48.8396],[34.2782,48.8132],[34.2951,48.7844],[34.2375,48.7463],[34.162,48.7844],[34.1097,48.7902],[34.0749,48.805],[34.0402,48.8078],[33.9195,48.8658],[33.9179,48.8638],[33.8872,48.8234],[33.8501,48.7937],[33.8296,48.762],[33.811,48.762],[33.8039,48.7935],[33.7819,48.7802],[33.7713,48.8043],[33.7409,48.8032],[33.7213,48.7863],[33.6946,48.7872],[33.6828,48.8053],[33.6583,48.8062],[33.6194,48.7842],[33.5844,48.7945],[33.5576,48.772],[33.5661,48.7502],[33.6035,48.7203],[33.6594,48.7138],[33.6976,48.6999],[33.7565,48.6977],[33.7751,48.6789],[33.8211,48.6684],[33.7663,48.6457],[33.7225,48.6166],[33.6166,48.5828],[33.5804,48.5594],[33.5638,48.5637],[33.4777,48.541],[33.4492,48.5284],[33.4458,48.5001],[33.4845,48.4439],[33.4724,48.429],[33.487,48.4069],[33.5033,48.3066],[33.5259,48.2974],[33.5162,48.2427],[33.4705,48.228],[33.4564,48.2108],[33.3964,48.1732],[33.3571,48.1843],[33.2947,48.1408],[33.2758,48.1073],[33.257,48.1102],[33.2621,48.1425],[33.25,48.1746],[33.2383,48.1706],[33.2223,48.0904],[33.1871,48.0795],[33.1495,48.0817],[33.12,48.0698],[33.0879,48.039],[33.0575,48.0258],[33.0353,47.9665],[33.0461,47.9602],[33.0314,47.9257],[33.0691,47.911],[33.0823,47.8917],[33.0608,47.8309],[33.0603,47.7756],[33.0821,47.7501],[33.0834,47.7288],[33.0398,47.7261],[32.9838,47.71],[33.0143,47.6626],[33.0184,47.6319],[32.9917,47.6032],[33.0052,47.5917],[33.0893,47.5829],[33.1654,47.5685],[33.1934,47.5539],[33.2932,47.5357],[33.304,47.5136],[33.3335,47.4957],[33.3706,47.5155],[33.4767,47.5299],[33.5033,47.5671],[33.5629,47.5754],[33.5885,47.5569],[33.5753,47.5343],[33.5844,47.5147],[33.6302,47.5076],[33.6544,47.4868],[33.7525,47.491],[33.9018,47.5145],[34.0582,47.4807],[34.1575,47.4739],[34.2037,47.4784],[34.2304,47.4315],[34.2397,47.4098],[34,47.25],[33.7,47],[33.38,46.78],[33,46.7],[32.7,46.65],[32.55,46.61],[32.3,46.58],[31.9022,46.5701],[31.9022,46.575],[31.6988,46.575],[31.7024,46.5552],[31.5643,46.5552],[31.5301,46.575],[31.517,46.575]]],[[[47.9175,45.6328],[47.9177,45.5701],[47.928,45.534],[47.9598,45.4758],[47.9907,45.4487],[47.9971,45.4678],[47.9971,45.5205],[47.9869,45.5536],[47.9869,45.5537],[47.957,45.6505],[47.9477,45.6463],[47.9473,45.6473],[47.947,45.647],[47.9469,45.6473],[47.9446,45.6449],[47.9175,45.6328]]]]}},
{"type":"Feature","properties":{"entityId":"hunnic-bulgar-tribes","from":632,"to":650,"certainty":"estimated","source":"유럽 쪽은 Natural Earth 1:10m admin-1(v5.1.2) 현대 행정구역 조각을 그 시기 국경에 맞춰 묶고, 조각이 역사 경계와 다른 곳은 선을 그어 나눈 근사. 유럽 밖(시베리아·중앙아시아·극동)은 대략적인 추정. 운영자 검수 필요"},"geometry":{"type":"MultiPolygon","coordinates":[[[[41.1675,50.7805],[41.1931,50.762],[41.3144,50.7246],[41.3688,50.6783],[41.4001,50.625],[41.4291,50.6122],[41.5258,50.5987],[41.5102,50.5656],[41.4675,50.557],[41.4322,50.5311],[41.4202,50.5095],[41.4235,50.4816],[41.4855,50.425],[41.5086,50.3921],[41.4864,50.357],[41.3621,50.2263],[41.4924,50.0836],[41.5681,50.063],[41.595,50.0454],[41.5832,50.0061],[41.6167,49.9622],[41.8761,49.9004],[41.9073,49.872],[42.0008,49.8126],[42.1151,49.7503],[42.1751,49.6921],[42.1784,49.6684],[42.1415,49.6166],[42.1184,49.5696],[42.1078,49.5221],[42.072,49.5018],[42.0669,49.4503],[42.0535,49.4023],[42.0861,49.3579],[42.0889,49.2833],[42.0547,49.2776],[42.0346,49.2549],[42.0642,49.2182],[42.0756,49.1862],[42.0685,49.1585],[42.0952,49.1406],[42.1736,49.1407],[42.2766,49.1594],[42.3438,49.1521],[42.3749,49.1114],[42.3793,49.0745],[42.4106,49.0473],[42.4804,49.0431],[42.6628,48.9673],[42.6604,48.9004],[42.7226,48.845],[42.7413,48.8167],[42.7397,48.7863],[42.6983,48.7571],[42.6511,48.7046],[42.6575,48.6859],[42.7011,48.6244],[42.6918,48.5956],[42.6503,48.5756],[42.6337,48.5516],[42.5578,48.5303],[42.5091,48.5269],[42.4416,48.5048],[42.4009,48.5098],[42.3604,48.4978],[42.2765,48.498],[42.1652,48.464],[42.1296,48.4486],[42.0843,48.4173],[42.0741,48.3919],[42.1169,48.3399],[42.1465,48.2872],[42.1369,48.2787],[42.0753,48.2731],[42.0495,48.2599],[42.051,48.23],[42.0902,48.201],[42.0964,48.1541],[42.051,48.1258],[42.0196,48.0591],[42.0298,48.0285],[42.0776,48.0253],[42.1769,48.0331],[42.2236,48.0301],[42.2825,48.0157],[42.3122,48.0401],[42.3429,48.0448],[42.4919,48.0136],[42.5536,47.9653],[42.7285,47.8541],[42.7473,47.8211],[42.785,47.7311],[42.9014,47.5844],[42.9346,47.5278],[42.9553,47.5103],[43.0039,47.5243],[43.0543,47.5728],[43.1365,47.5743],[43.1568,47.5624],[43.1539,47.5004],[43.1741,47.473],[43.2094,47.4532],[43.2625,47.4502],[43.482,47.4837],[43.6008,47.4827],[43.6606,47.4447],[43.7315,47.4766],[43.7567,47.448],[43.7992,47.3706],[43.7927,47.2897],[43.8023,47.2825],[43.9273,47.2668],[43.9392,47.2689],[43.9533,47.3649],[43.9648,47.3855],[44.0034,47.4088],[44.1096,47.4137],[44.1195,47.4288],[44.1168,47.5335],[44.1263,47.5446],[44.2284,47.5746],[44.2446,47.5693],[44.2455,47.5187],[44.2567,47.5059],[44.3189,47.4909],[44.334,47.4752],[44.331,47.4033],[44.3276,47.1108],[44.2624,46.9001],[44.1902,46.8445],[44.1622,46.8329],[44.1029,46.8368],[44.0726,46.8277],[44.053,46.799],[43.9304,46.7227],[43.9083,46.6728],[43.8744,46.6295],[43.8171,46.5887],[43.8268,46.5677],[43.9027,46.549],[43.9277,46.521],[43.9184,46.416],[43.9702,46.3566],[43.9608,46.3361],[43.8617,46.2918],[43.8594,46.3364],[43.8199,46.3896],[43.773,46.4079],[43.7574,46.3693],[43.6758,46.2719],[43.646,46.2157],[43.5594,46.1689],[43.5106,46.1624],[43.3556,46.1724],[43.3188,46.19],[43.2431,46.2471],[43.1803,46.285],[43.0802,46.3598],[42.9577,46.4242],[42.9118,46.435],[42.7872,46.3894],[42.7401,46.3979],[42.5968,46.4109],[42.556,46.4457],[42.4458,46.4829],[42.4093,46.5249],[42.1809,46.5779],[42.0728,46.5583],[42.0343,46.5433],[42.0501,46.4851],[42.0745,46.4354],[42.0996,46.4071],[42.1601,46.394],[42.1794,46.377],[42.2059,46.3227],[42.2019,46.3145],[41.995,46.3013],[41.9631,46.2891],[41.9624,46.2625],[41.9234,46.2164],[41.9083,46.1802],[41.8401,46.1529],[41.7835,46.1696],[41.7505,46.2074],[41.726,46.2136],[41.6592,46.1783],[41.648,46.1561],[41.67,46.1313],[41.6558,46.1053],[41.7037,46.0528],[41.7201,46.0242],[41.7126,45.996],[42.0363,45.9651],[42.0706,45.9565],[42.0998,45.9293],[42.1497,45.949],[42.1578,45.9719],[42.1516,46.0164],[42.1797,46.0558],[42.1774,46.0991],[42.2036,46.1087],[42.3177,46.1255],[42.3397,46.1071],[42.3174,45.9808],[42.34,45.9719],[42.5335,45.9977],[42.6712,46.0884],[42.7391,46.0992],[42.8346,46.1558],[42.8519,46.1772],[42.8396,46.2059],[42.9054,46.2403],[42.9327,46.2324],[42.9914,46.1796],[43.1743,46.1252],[43.2373,46.1124],[43.3055,46.0767],[43.3567,46.0306],[43.3925,46.016],[43.5683,45.981],[43.7423,45.9789],[43.8091,45.9682],[43.8776,45.9455],[43.9276,45.9019],[43.9699,45.8854],[44.0393,45.8206],[44.08,45.7958],[44.097,45.7739],[44.1161,45.7129],[44.1482,45.6525],[44.2072,45.61],[44.2771,45.5802],[44.421,45.5267],[44.5497,45.5093],[44.7063,45.506],[44.7377,45.4966],[44.8271,45.4557],[45.3525,45.2434],[45.5862,45.1583],[45.6149,45.1175],[45.7119,45.0137],[45.706,44.9758],[45.6211,44.899],[45.6493,44.8336],[45.6463,44.7997],[45.614,44.766],[45.4349,44.6175],[45.3734,44.6175],[45.3361,44.5952],[45.2709,44.5906],[45.2606,44.5623],[45.272,44.5389],[45.2341,44.5101],[45.2262,44.466],[45.2374,44.4601],[45.3984,44.4444],[45.4438,44.4025],[45.4414,44.3761],[45.4045,44.3175],[45.3736,44.3071],[45.2607,44.2932],[45.1876,44.2712],[45.1307,44.2683],[45.105,44.2158],[45.1241,44.2024],[45.2583,44.1991],[45.3151,44.1854],[45.3413,44.2003],[45.5063,44.1905],[45.5225,44.1782],[45.5072,44.1034],[45.5094,44.0152],[45.5741,43.9928],[45.6701,43.9798],[45.7104,43.9551],[45.771,43.9545],[45.8029,43.9781],[45.882,43.9709],[45.928,43.9569],[46.0447,43.9336],[46.0428,43.8972],[46.0164,43.8764],[46.0487,43.8214],[46.0745,43.8236],[46.0889,43.8582],[46.1923,43.847],[46.2203,43.863],[46.2463,43.9087],[46.2414,43.9369],[46.2569,43.9483],[46.3132,43.957],[46.3329,43.968],[46.3493,43.9977],[46.419,44.0002],[46.4623,43.962],[46.4516,43.8871],[46.5096,43.8652],[46.5859,43.8722],[46.6192,43.8237],[46.6693,43.8194],[46.6598,43.7845],[46.585,43.7724],[46.5332,43.7066],[46.4835,43.6721],[46.4431,43.6072],[46.4385,43.541],[46.3983,43.4819],[46.3376,43.4582],[46.3288,43.4207],[46.365,43.3907],[46.3599,43.361],[46.423,43.3147],[46.4299,43.2906],[46.4183,43.25],[47.5322,43.25],[47.565,43.2681],[47.5857,43.2995],[47.5703,43.3337],[47.5424,43.3235],[47.5909,43.6599],[47.5908,43.66],[47.5909,43.6603],[47.5687,43.6836],[47.5693,43.6852],[47.6254,43.802],[47.6438,43.8299],[47.7015,43.8745],[47.6528,43.8967],[47.5957,43.9012],[47.5547,43.8776],[47.5418,43.8547],[47.5339,43.7759],[47.5153,43.7395],[47.492,43.7638],[47.4955,43.7648],[47.5028,43.781],[47.4828,43.8249],[47.4414,43.8193],[47.4619,43.8603],[47.4326,43.8762],[47.4234,43.9079],[47.3869,43.9565],[47.3579,44.0206],[47.3386,44.0379],[47.3065,44.104],[47.274,44.142],[47.2654,44.1686],[47.2459,44.212],[47.2217,44.2308],[47.1934,44.2166],[47.1229,44.262],[47.0571,44.3152],[47.0442,44.3463],[47.0026,44.3673],[46.93,44.3819],[46.9177,44.387],[46.8913,44.3925],[46.7206,44.5712],[46.7557,44.6556],[46.8169,44.6999],[46.8313,44.6964],[46.8555,44.7256],[46.935,44.77],[46.9616,44.7652],[47.01,44.8301],[46.9974,44.8606],[47.004,44.8758],[47.0193,44.8595],[47.0236,44.843],[47.0783,44.7851],[47.0845,44.8175],[47.1117,44.8696],[47.1087,44.8865],[47.1157,44.9056],[47.1379,44.936],[47.146,44.9291],[47.1658,44.967],[47.2012,44.97],[47.2279,45.0334],[47.2505,45.0653],[47.266,45.0997],[47.2957,45.1487],[47.3305,45.1934],[47.3701,45.1856],[47.3794,45.2028],[47.3794,45.2706],[47.3929,45.2945],[47.3978,45.3231],[47.4592,45.3987],[47.4445,45.4001],[47.466,45.4224],[47.4774,45.4224],[47.4968,45.43],[47.4993,45.457],[47.5346,45.4937],[47.5442,45.5037],[47.5698,45.5303],[47.6126,45.5747],[47.615,45.5702],[47.6537,45.5591],[47.6455,45.5922],[47.6611,45.6218],[47.6587,45.6226],[47.6773,45.6419],[47.7746,45.6584],[47.7771,45.6523],[47.8182,45.6081],[47.8523,45.6423],[47.8353,45.6496],[47.8378,45.664],[47.8888,45.6778],[48.1994,45.7305],[48.2428,45.7099],[48.2324,45.7361],[48.6457,45.8061],[48.6917,45.8657],[48.6952,45.828],[48.7655,45.8522],[48.7914,45.8409],[48.7566,45.8879],[48.7446,45.915],[48.7501,45.9212],[48.7499,45.9214],[48.7501,45.9216],[48.7429,45.9301],[48.7437,45.933],[48.8591,46.0826],[48.8742,46.0782],[48.8692,46.0957],[48.8822,46.1125],[48.887,46.1078],[48.8857,46.117],[48.8933,46.1269],[48.9126,46.1332],[48.9144,46.132],[48.9318,46.0853],[48.9553,46.1078],[48.9355,46.1407],[49.0738,46.1861],[49.093,46.1624],[49.1195,46.1588],[49.112,46.2211],[49.1082,46.2259],[49.1101,46.2285],[49.1245,46.2823],[49.1802,46.2863],[49.2492,46.2673],[49.282,46.2499],[49.306,46.2631],[49.2271,46.3279],[49.0332,46.4049],[48.897,46.4822],[48.8196,46.4793],[48.7586,46.5131],[48.705,46.5504],[48.6652,46.5572],[48.5732,46.5583],[48.5394,46.568],[48.563,46.5913],[48.5469,46.5993],[48.53,46.6382],[48.4551,46.6608],[48.4791,46.6835],[48.5058,46.7326],[48.5567,46.7617],[48.6182,46.7704],[48.6766,46.758],[48.7127,46.7288],[48.7395,46.6906],[48.764,46.6828],[48.9169,46.7026],[48.9481,46.7199],[49.0063,46.7691],[48.6973,47.101],[48.5462,47.3694],[48.5251,47.4102],[48.4375,47.4292],[48.4111,47.4458],[48.3606,47.4931],[48.1744,47.7129],[48.1125,47.7485],[48.0445,47.7697],[47.6497,47.7656],[47.4353,47.8344],[47.4122,47.8359],[47.3888,47.8119],[47.3894,47.7516],[47.3829,47.7054],[47.3597,47.6833],[47.1745,47.7705],[47.1406,47.7927],[47.1195,47.8198],[47.1553,47.8774],[47.1217,47.9154],[47.0512,47.9746],[47.0442,47.9862],[47.1371,48.0273],[47.1782,48.0518],[47.192,48.0718],[47.1739,48.0842],[47.1195,48.0883],[47.1036,48.1012],[47.1165,48.1539],[47.1088,48.174],[47.0752,48.2051],[47.1121,48.2422],[47.0783,48.2753],[46.9792,48.294],[46.4793,48.4102],[46.6202,48.6696],[46.7538,48.9141],[46.8129,48.9538],[46.8881,48.9805],[46.93,49.004],[46.9792,49.0473],[47.0209,49.0968],[47.04,49.1503],[47.0286,49.2015],[46.9792,49.2443],[46.8307,49.3183],[46.7751,49.3325],[46.8999,49.8203],[46.9226,49.8614],[46.9586,49.8841],[47.1774,49.9472],[47.2456,49.9924],[47.3087,50.0448],[47.3286,50.073],[47.3276,50.1093],[47.2731,50.1584],[47.2651,50.1863],[47.3223,50.2374],[47.2948,50.2754],[47.3229,50.3045],[47.3922,50.3232],[47.4345,50.3765],[47.4698,50.4118],[47.5115,50.4369],[47.5569,50.4526],[47.5993,50.4527],[47.6247,50.4408],[47.69,50.3863],[47.7349,50.3701],[47.7765,50.3298],[47.8082,50.3199],[47.8741,50.2664],[47.9134,50.2439],[47.9536,50.2049],[47.9932,50.1818],[48.0122,50.1421],[48.0746,50.1053],[48.0964,50.0785],[48.1125,50.022],[48.1424,49.9638],[48.2004,49.925],[48.2393,49.8648],[48.3122,49.8636],[48.3595,49.834],[48.4176,49.8117],[48.4428,49.815],[48.4791,49.8432],[48.6835,49.8955],[48.7846,49.9334],[48.862,49.9929],[48.8857,50.0199],[48.8741,50.0698],[48.8518,50.0973],[48.7828,50.1115],[48.789,50.173],[48.771,50.211],[48.7289,50.2654],[48.7013,50.3346],[48.6744,50.4785],[48.6787,50.5485],[48.6734,50.5795],[48.6485,50.6016],[48.5729,50.6169],[48.5683,50.6365],[48.6088,50.6479],[48.7396,50.5975],[48.7863,50.5906],[48.8304,50.596],[49.0127,50.6834],[49.1024,50.758],[49.1441,50.7817],[49.2837,50.8037],[49.3694,50.8268],[49.4084,50.8483],[49.4237,50.8821],[49.4055,50.9135],[49.3474,50.9643],[49.3591,50.9927],[49.3927,51.0342],[49.401,51.0671],[49.4231,51.102],[49.4601,51.1162],[49.5397,51.1008],[49.7791,51.1022],[49.8428,51.1507],[49.9868,51.2298],[50.0288,51.243],[50.2075,51.2659],[50.3254,51.3035],[50.3489,51.3226],[50.3376,51.372],[50.3762,51.397],[50.3596,51.4133],[50.3796,51.4212],[50.4392,51.423],[50.4711,51.4361],[50.479,51.4537],[50.5183,51.4598],[50.5314,51.4927],[50.5254,51.5656],[50.5757,51.5884],[50.5817,51.6353],[50.6393,51.6162],[50.6942,51.6112],[50.6587,51.5762],[50.6709,51.5675],[50.72,51.5674],[50.7643,51.5787],[50.7907,51.5973],[50.7945,51.626],[50.7474,51.709],[50.7442,51.7424],[50.767,51.7594],[50.7202,51.8092],[50.7162,51.8407],[50.7315,51.914],[50.7221,51.928],[50.6507,51.958],[50.5587,51.9637],[50.5174,51.9914],[50.4022,51.9966],[50.3548,52.0149],[50.3439,52.0483],[50.3147,52.0572],[50.2902,52.0219],[50.2359,52.0351],[50.1675,52.0236],[50.1712,52.0845],[50.2059,52.1012],[50.2215,52.1299],[50.1385,52.1501],[50.0676,52.1587],[50.0178,52.1988],[49.9993,52.2034],[49.9769,52.1836],[49.8123,52.1931],[49.7316,52.2762],[49.7045,52.2905],[49.6844,52.2661],[49.6553,52.2628],[49.6504,52.2915],[49.6195,52.3296],[49.6397,52.3446],[49.6278,52.3664],[49.5702,52.4016],[49.5171,52.3897],[49.5252,52.3526],[49.5069,52.3289],[49.4777,52.3314],[49.4452,52.3612],[49.423,52.401],[49.3947,52.4058],[49.3475,52.3865],[49.3167,52.4006],[49.3511,52.4367],[49.3437,52.4687],[49.287,52.4935],[49.2057,52.5077],[49.1592,52.4858],[49.0864,52.493],[49.0414,52.4857],[48.9844,52.4901],[48.9361,52.4752],[48.9235,52.4275],[48.8907,52.411],[48.8655,52.4842],[48.8454,52.5262],[48.8181,52.5536],[48.7457,52.5568],[48.7301,52.568],[48.6997,52.6392],[48.6815,52.6471],[48.6186,52.6412],[48.5947,52.6459],[48.5239,52.6818],[48.4769,52.6851],[48.3824,52.6636],[48.3512,52.6694],[48.3633,52.7045],[48.3873,52.7177],[48.4222,52.7709],[48.437,52.7804],[48.3453,52.8061],[48.2522,52.8101],[48.1782,52.7918],[48.0983,52.7946],[48.0916,52.7755],[47.9978,52.7544],[48.009,52.733],[48.077,52.7288],[48.0831,52.7094],[48.0618,52.6946],[48.0117,52.6786],[47.9173,52.6748],[47.8994,52.7218],[47.879,52.7272],[47.8349,52.719],[47.7775,52.6803],[47.7818,52.6419],[47.7678,52.6141],[47.7308,52.5867],[47.7078,52.5812],[47.6377,52.6098],[47.5728,52.6162],[47.5308,52.6105],[47.4908,52.5858],[47.4354,52.5698],[47.207,52.5671],[47.1801,52.579],[47.1627,52.6029],[47.1402,52.6043],[47.0704,52.5703],[47.0071,52.5927],[46.9833,52.619],[46.9173,52.6367],[46.8307,52.6163],[46.713,52.6279],[46.6633,52.6607],[46.6101,52.6705],[46.613,52.7029],[46.5821,52.7308],[46.5459,52.7037],[46.5162,52.695],[46.4225,52.6859],[46.3933,52.6751],[46.3178,52.6779],[46.2888,52.6719],[46.273,52.6462],[46.2763,52.6186],[46.229,52.616],[46.2027,52.603],[46.1653,52.603],[46.1468,52.5914],[46.1319,52.547],[46.0863,52.5591],[46.0635,52.5316],[45.9852,52.5001],[45.9715,52.4856],[46.0053,52.4702],[46.0126,52.4545],[45.9796,52.4358],[45.9806,52.4072],[45.8014,52.4432],[45.717,52.4708],[45.7322,52.5228],[45.688,52.515],[45.6444,52.5186],[45.6019,52.495],[45.528,52.4808],[45.5197,52.4466],[45.4315,52.4005],[45.355,52.4189],[45.2643,52.3923],[45.2209,52.397],[45.1773,52.417],[45.1399,52.4205],[45.1008,52.4038],[45.0719,52.3769],[45.1006,52.3493],[45.0886,52.335],[45.0328,52.3209],[44.9771,52.365],[44.9096,52.3775],[44.8725,52.434],[44.8488,52.4498],[44.7853,52.4693],[44.682,52.4792],[44.6465,52.4876],[44.5481,52.5524],[44.5003,52.5212],[44.5383,52.4788],[44.5209,52.4608],[44.5391,52.4321],[44.5148,52.4213],[44.4725,52.4287],[44.4219,52.4158],[44.3783,52.3609],[44.3386,52.3471],[44.3467,52.3161],[44.2171,52.3392],[44.044,52.3495],[43.9555,52.3773],[43.9017,52.401],[43.8441,52.4055],[43.7716,52.4316],[43.747,52.4334],[43.6425,52.4145],[43.5321,52.4263],[43.4768,52.4058],[43.3527,52.3925],[43.3298,52.3985],[43.3198,52.4321],[43.2814,52.4467],[43.1753,52.4621],[43.1242,52.4111],[43.0796,52.4027],[43.0434,52.3949],[42.9965,52.3647],[42.9557,52.376],[42.9199,52.3697],[42.9218,52.3054],[42.8564,52.2392],[42.7714,52.1931],[42.7515,52.1738],[42.7513,52.0778],[42.806,52.0122],[42.7263,51.9941],[42.6941,51.9661],[42.6768,51.8565],[42.6433,51.804],[42.4904,51.6928],[42.4835,51.6595],[42.5115,51.624],[42.4892,51.6077],[42.5296,51.5755],[42.7341,51.479],[42.801,51.4328],[42.8609,51.3814],[42.8418,51.3396],[42.8445,51.3167],[42.8711,51.269],[42.9054,51.2491],[42.8729,51.2313],[42.8441,51.2362],[42.7155,51.2394],[42.6584,51.2257],[42.573,51.1685],[42.3673,51.157],[42.3201,51.1386],[42.2548,51.1325],[42.1435,51.1416],[42.0673,51.16],[41.977,51.2033],[41.9475,51.2042],[41.8549,51.1886],[41.8306,51.1664],[41.7715,51.0667],[41.737,51.0257],[41.6355,50.9815],[41.5402,50.9543],[41.4443,50.9174],[41.3916,50.8795],[41.3698,50.8308],[41.1675,50.7805]]],[[[47.9175,45.6328],[47.9177,45.5701],[47.928,45.534],[47.9598,45.4758],[47.9907,45.4487],[47.9971,45.4678],[47.9971,45.5205],[47.9869,45.5536],[47.9869,45.5537],[47.957,45.6505],[47.9477,45.6463],[47.9473,45.6473],[47.947,45.647],[47.9469,45.6473],[47.9446,45.6449],[47.9175,45.6328]]]]}}
]}
