{
 "type": "FeatureCollection",
 "features": [
  {
   "type": "Feature",
   "properties": {
    "entityId": "hyeondo",
    "from": -74,
    "to": 107,
    "certainty": "estimated",
    "source": "중고등학교 한국사 교과서 시대별 지도의 일반적인 경계를 따른 대략적인 추정. 운영자 검수 필요"
   },
   "geometry": {
    "type": "Polygon",
    "coordinates": [
     [
      [
       124.2,
       41.75
      ],
      [
       124.3,
       42.35
      ],
      [
       124.9,
       42.45
      ],
      [
       125.3,
       42.25
      ],
      [
       125.25,
       41.85
      ],
      [
       125.2,
       41.5
      ],
      [
       124.6,
       41.45
      ],
      [
       124.25,
       41.55
      ],
      [
       124.2,
       41.75
      ]
     ]
    ]
   }
  }
 ]
}
