{"type":"FeatureCollection","features":[
{"type":"Feature","properties":{"entityId":"italian-duchies","from":1815,"to":1860,"certainty":"estimated","source":"유럽 쪽은 Natural Earth 1:10m admin-1(v5.1.2) 현대 행정구역 조각을 그 시기 국경에 맞춰 묶고, 조각이 역사 경계와 다른 곳은 선을 그어 나눈 근사. 유럽 밖(시베리아·중앙아시아·극동)은 대략적인 추정. 운영자 검수 필요"},"geometry":{"type":"MultiPolygon","coordinates":[[[[11.7163,43.8791],[11.7849,43.8475],[11.8093,43.8264],[11.8755,43.8174],[11.9188,43.8035],[11.9686,43.7731],[12.0678,43.7543],[12.1022,43.759],[12.1253,43.7642],[12.1899,43.7436],[12.2067,43.7589],[12.2858,43.7689],[12.3576,43.7226],[12.3248,43.6834],[12.3099,43.7241],[12.297,43.724],[12.2777,43.6897],[12.2499,43.6824],[12.1958,43.6534],[12.2048,43.6168],[12.1375,43.5316],[12.098,43.5109],[12.1341,43.4888],[12.1275,43.4748],[12.0371,43.4165],[12.0737,43.4112],[12.0808,43.3719],[12.1326,43.3573],[12.1387,43.3],[12.177,43.2986],[12.1939,43.3184],[12.2132,43.291],[12.1584,43.2627],[12.1269,43.2606],[12.0922,43.2447],[12.0496,43.2556],[12.023,43.2419],[12.0096,43.1969],[11.9527,43.1738],[11.9178,43.1224],[11.9332,43.0638],[11.9577,43.0745],[11.9778,43.0464],[11.9686,43.0107],[11.9517,42.99],[11.9322,42.9272],[11.9514,42.8933],[11.9317,42.8717],[11.889,42.8504],[11.8327,42.8326],[11.808,42.8134],[11.7647,42.8187],[11.7472,42.7985],[11.7739,42.7806],[11.8079,42.7383],[11.7868,42.7003],[11.7869,42.6512],[11.7494,42.6384],[11.7352,42.6162],[11.6938,42.5983],[11.6712,42.577],[11.6206,42.5601],[11.5882,42.5661],[11.5855,42.5359],[11.5659,42.5161],[11.6079,42.4873],[11.6018,42.4474],[11.5902,42.442],[11.4981,42.434],[11.4719,42.4186],[11.4515,42.3744],[11.4392,42.3786],[11.4392,42.3441],[11.41,42.3441],[11.41,42.3307],[11.41,42.3052],[11.3809,42.3052],[11.3809,42.2787],[11.3518,42.2787],[11.3518,42.2728],[11.3061,42.2728],[11.2936,42.2817],[11.1905,42.355],[11.1772,42.3663],[11.1559,42.3663],[11.0945,42.4027],[11.0869,42.4295],[11.0958,42.4353],[10.8496,42.6441],[10.6802,42.7878],[10.6295,42.8308],[10.6042,42.8523],[10.5788,42.8738],[10.5108,42.9315],[10.4995,42.9405],[10.4776,42.9901],[10.4889,42.9998],[10.3411,43.4717],[10.3263,43.4769],[10.3172,43.4926],[10.2934,43.5791],[10.283,43.6573],[10.2529,43.7532],[10.2379,43.8011],[10.2229,43.849],[10.2005,43.9206],[10.1496,43.9324],[10.1245,43.9382],[10.0993,43.944],[10.0489,43.9557],[10.0196,43.9625],[9.9904,43.9693],[9.9904,44.0075],[10.0196,44.0075],[10.0196,44.0334],[10.0196,44.0516],[10.0285,44.0493],[10.0569,44.0944],[10.0268,44.1143],[9.9945,44.1152],[9.9815,44.1501],[9.9541,44.1643],[9.9008,44.165],[9.9083,44.1913],[9.8805,44.2026],[9.8657,44.1856],[9.8521,44.2526],[9.7518,44.3056],[9.7163,44.3299],[9.6898,44.3577],[9.6514,44.4062],[9.5985,44.4272],[9.5124,44.429],[9.4764,44.4125],[9.4361,44.4199],[9.451,44.4687],[9.4936,44.5117],[9.4913,44.551],[9.441,44.5734],[9.4142,44.5941],[9.3518,44.5831],[9.3018,44.606],[9.2638,44.6041],[9.2251,44.6203],[9.2031,44.6138],[9.2014,44.6821],[9.2421,44.683],[9.2475,44.7144],[9.2749,44.6961],[9.3091,44.6957],[9.3226,44.7162],[9.3059,44.7588],[9.3552,44.8265],[9.356,44.8642],[9.3026,44.8962],[9.3065,44.9249],[9.3831,45.045],[9.425,45.1012],[9.5119,45.1012],[9.5419,45.086],[9.546,45.1327],[9.5904,45.1126],[9.6145,45.1255],[9.6404,45.1261],[9.6369,45.0939],[9.6814,45.0753],[9.7223,45.0723],[9.7525,45.082],[9.7522,45.108],[9.8402,45.0738],[9.8302,45.0963],[9.8808,45.0916],[9.8996,45.0992],[9.8829,45.1341],[9.9231,45.1301],[9.916,45.108],[9.9866,45.1287],[10.0215,45.1101],[10.0463,45.0658],[10.0719,45.0375],[10.1049,45.0352],[10.1835,45.0466],[10.2237,45.0382],[10.3504,44.984],[10.3992,44.9913],[10.414,44.9848],[10.4436,44.9367],[10.5015,44.9194],[10.5655,44.9157],[10.6327,44.9395],[10.6803,44.9871],[10.7372,44.986],[10.7634,44.9649],[10.7645,44.9436],[10.8596,44.927],[10.8878,44.914],[10.9748,44.9359],[10.9994,44.9534],[11.0831,44.9619],[11.1447,44.9457],[11.1634,44.9315],[11.257,44.9473],[11.2349,44.906],[11.3362,44.8692],[11.3686,44.8426],[11.3235,44.8325],[11.2933,44.8027],[11.2636,44.8042],[11.1495,44.792],[11.1296,44.7808],[11.108,44.7072],[11.0781,44.647],[11.1103,44.6292],[11.1317,44.6013],[11.1363,44.5682],[11.118,44.5344],[11.0728,44.529],[11.0493,44.474],[11.0081,44.4623],[10.9924,44.4444],[11.0448,44.4092],[11.0266,44.3784],[11.039,44.34],[11.0206,44.3076],[10.9609,44.3016],[10.9507,44.2873],[10.9698,44.2602],[10.9606,44.2325],[10.9188,44.2142],[10.855,44.2309],[10.8521,44.206],[10.8228,44.1842],[10.8082,44.1502],[10.8159,44.1135],[10.9232,44.068],[10.9866,44.1277],[11.0173,44.1335],[11.0013,44.1127],[11.0483,44.0924],[11.2001,44.1047],[11.246,44.1069],[11.2551,44.119],[11.2064,44.1361],[11.2036,44.1588],[11.2911,44.1708],[11.342,44.2087],[11.3757,44.2117],[11.392,44.2324],[11.4319,44.2271],[11.496,44.1665],[11.5263,44.1622],[11.5718,44.1737],[11.6108,44.1523],[11.5882,44.1288],[11.6343,44.1178],[11.72,44.1317],[11.7472,44.1216],[11.7202,44.0702],[11.6774,44.023],[11.6556,44.0209],[11.6507,43.9909],[11.6831,43.9656],[11.6879,43.9346],[11.7086,43.9196],[11.7163,43.8791]]],[[[12.1776,43.8217],[12.2267,43.8144],[12.2386,43.7988],[12.1993,43.7805],[12.1708,43.8046],[12.1776,43.8217]]],[[[10.414,42.7477],[10.4251,42.7408],[10.4307,42.7221],[10.4189,42.7222],[10.4205,42.7135],[10.4204,42.7135],[10.4205,42.7131],[10.4201,42.7134],[10.4201,42.7131],[10.4036,42.7224],[10.3814,42.7226],[10.3695,42.7416],[10.3349,42.761],[10.3335,42.7616],[10.2918,42.7535],[10.2654,42.7446],[10.2607,42.7476],[10.2348,42.7426],[10.2297,42.7354],[10.1472,42.7373],[10.1373,42.7422],[10.1321,42.7426],[10.1306,42.7456],[10.1068,42.7574],[10.1117,42.8013],[10.1252,42.806],[10.1285,42.8107],[10.1406,42.8112],[10.1582,42.8173],[10.1804,42.813],[10.2473,42.8159],[10.271,42.8231],[10.2721,42.8273],[10.2838,42.8271],[10.2869,42.828],[10.2872,42.828],[10.2873,42.828],[10.3066,42.8266],[10.3268,42.8262],[10.3265,42.8252],[10.3589,42.8228],[10.3934,42.8561],[10.3999,42.8688],[10.422,42.8708],[10.4434,42.8454],[10.4367,42.8044],[10.4203,42.7764],[10.4119,42.773],[10.4098,42.7704],[10.414,42.7477]]]]}}
]}
