{"type":"FeatureCollection","features":[
{"type":"Feature","properties":{"entityId":"italy-napoleonic","from":1805,"to":1808,"certainty":"estimated","source":"유럽 쪽은 Natural Earth 1:10m admin-1(v5.1.2) 현대 행정구역 조각을 그 시기 국경에 맞춰 묶고, 조각이 역사 경계와 다른 곳은 선을 그어 나눈 근사. 유럽 밖(시베리아·중앙아시아·극동)은 대략적인 추정. 운영자 검수 필요"},"geometry":{"type":"MultiPolygon","coordinates":[[[[7.8496,45.9397],[7.8559,45.9193],[7.9,45.9248],[7.957,45.9024],[7.9749,45.9036],[8.0405,45.9315],[8.0906,45.9234],[8.1872,45.9477],[8.2104,45.9276],[8.2704,45.9049],[8.3223,45.854],[8.3288,45.828],[8.3169,45.7693],[8.3499,45.7724],[8.3847,45.725],[8.3694,45.6994],[8.3105,45.6971],[8.3523,45.6424],[8.3914,45.6062],[8.4068,45.4242],[8.4498,45.3847],[8.4835,45.3793],[8.4996,45.3477],[8.4715,45.3259],[8.5126,45.3135],[8.5001,45.2877],[8.5156,45.277],[8.534,45.2176],[8.559,45.1931],[8.5566,45.1648],[8.5733,45.1371],[8.6076,45.108],[8.6455,45.0412],[8.6691,45.0248],[8.7741,45.0276],[8.8504,45.0584],[8.8779,45.0538],[8.8824,45.0005],[8.9571,44.9813],[8.9701,44.9444],[8.9965,44.9179],[9.0503,44.8834],[9.0483,44.8488],[9.0937,44.8181],[9.1406,44.8156],[9.1714,44.7856],[9.2059,44.7208],[9.2014,44.6821],[9.2421,44.683],[9.2475,44.7144],[9.2749,44.6961],[9.3091,44.6957],[9.3226,44.7162],[9.3059,44.7588],[9.3552,44.8265],[9.356,44.8642],[9.3026,44.8962],[9.3065,44.9249],[9.3831,45.045],[9.425,45.1012],[9.5119,45.1012],[9.5419,45.086],[9.546,45.1327],[9.5904,45.1126],[9.6145,45.1255],[9.6404,45.1261],[9.6369,45.0939],[9.6814,45.0753],[9.7223,45.0723],[9.7525,45.082],[9.7522,45.108],[9.8402,45.0738],[9.8302,45.0963],[9.8808,45.0916],[9.8996,45.0992],[9.8829,45.1341],[9.9231,45.1301],[9.916,45.108],[9.9866,45.1287],[10.0215,45.1101],[10.0463,45.0658],[10.0719,45.0375],[10.1049,45.0352],[10.1835,45.0466],[10.2237,45.0382],[10.3504,44.984],[10.3992,44.9913],[10.414,44.9848],[10.4436,44.9367],[10.5015,44.9194],[10.4631,44.8939],[10.4645,44.853],[10.4343,44.7952],[10.4356,44.7091],[10.4186,44.673],[10.4005,44.5687],[10.364,44.5403],[10.3134,44.4874],[10.2633,44.4508],[10.2197,44.4063],[10.15,44.3678],[10.1357,44.3418],[10.1994,44.3183],[10.2293,44.2815],[10.2539,44.2706],[10.2878,44.2824],[10.351,44.2749],[10.4002,44.2359],[10.4712,44.2246],[10.4839,44.1868],[10.5704,44.1256],[10.6105,44.1257],[10.6498,44.1578],[10.7074,44.162],[10.734,44.1547],[10.8159,44.1135],[10.9232,44.068],[10.9866,44.1277],[11.0173,44.1335],[11.0013,44.1127],[11.0483,44.0924],[11.2001,44.1047],[11.246,44.1069],[11.2551,44.119],[11.2064,44.1361],[11.2036,44.1588],[11.2911,44.1708],[11.342,44.2087],[11.3757,44.2117],[11.392,44.2324],[11.4319,44.2271],[11.496,44.1665],[11.5263,44.1622],[11.5718,44.1737],[11.6108,44.1523],[11.5882,44.1288],[11.6343,44.1178],[11.72,44.1317],[11.7472,44.1216],[11.7202,44.0702],[11.6774,44.023],[11.6556,44.0209],[11.6507,43.9909],[11.6831,43.9656],[11.6879,43.9346],[11.7086,43.9196],[11.7163,43.8791],[11.7849,43.8475],[11.8093,43.8264],[11.8755,43.8174],[11.9188,43.8035],[11.9686,43.7731],[12.0678,43.7543],[12.1022,43.759],[12.1253,43.7642],[12.1899,43.7436],[12.2067,43.7589],[12.2858,43.7689],[12.285,43.7947],[12.3216,43.8137],[12.3457,43.847],[12.3515,43.87],[12.3914,43.8833],[12.4171,43.8755],[12.4211,43.8952],[12.3996,43.9032],[12.39,43.9179],[12.3856,43.9245],[12.3957,43.9484],[12.411,43.9597],[12.4166,43.9637],[12.4214,43.9672],[12.4272,43.9694],[12.4533,43.9791],[12.4822,43.9826],[12.4892,43.9731],[12.4907,43.965],[12.4924,43.9564],[12.4915,43.9491],[12.4903,43.9392],[12.4831,43.9292],[12.5374,43.907],[12.5508,43.8779],[12.5914,43.8933],[12.6159,43.8533],[12.6331,43.8425],[12.6799,43.845],[12.6936,43.863],[12.7308,43.882],[12.7425,43.9051],[12.7392,43.9387],[12.7538,43.9724],[12.7714,43.9705],[12.7714,43.9933],[12.7385,44.011],[12.7055,44.0287],[12.6396,44.064],[12.5877,44.0919],[12.5078,44.2162],[12.4895,44.2447],[12.4665,44.2804],[12.4436,44.316],[12.3978,44.3873],[12.3861,44.4054],[12.2828,44.5661],[12.2858,44.6027],[12.2713,44.627],[12.3506,44.8112],[12.3757,44.7922],[12.3934,44.7935],[12.4238,44.8203],[12.4392,44.8294],[12.4446,44.8205],[12.4741,44.8458],[12.4929,44.8782],[12.4952,44.8946],[12.4977,44.8987],[12.5061,44.9219],[12.5127,44.9223],[12.5339,44.97],[12.5168,44.9876],[12.4861,44.9912],[12.4861,44.9887],[12.4203,45.0249],[12.4103,45.0322],[12.4134,45.0429],[12.3805,45.0596],[12.3601,45.0915],[12.3536,45.1516],[12.3497,45.1868],[12.3459,45.2219],[12.3382,45.2922],[12.3308,45.3607],[12.3541,45.3925],[12.4126,45.418],[12.4309,45.4157],[12.419,45.4208],[12.5473,45.4768],[12.5936,45.4915],[12.6117,45.4962],[12.66,45.5126],[12.7605,45.5445],[12.7784,45.5527],[12.7808,45.5535],[12.8839,45.601],[12.9045,45.6104],[13.0276,45.6359],[13.0606,45.6367],[13.0956,45.6523],[13.103,45.669],[13.1497,45.7038],[13.1188,45.696],[13.1205,45.6972],[13.1488,45.7354],[13.2505,45.7168],[13.2958,45.7085],[13.341,45.7003],[13.341,45.717],[13.3862,45.717],[13.3862,45.7324],[13.4226,45.7241],[13.4324,45.7534],[13.4324,45.7788],[13.4036,45.8894],[13.4079,45.9175],[13.4375,45.9665],[13.4649,45.9899],[13.4618,46.0064],[13.4823,46.0184],[13.4928,46.0325],[13.4903,46.0389],[13.4823,46.0448],[13.5051,46.066],[13.5226,46.0753],[13.6164,46.125],[13.645,46.1617],[13.6411,46.1714],[13.6274,46.1817],[13.5845,46.1813],[13.559,46.1841],[13.529,46.2048],[13.5102,46.214],[13.4823,46.2179],[13.4683,46.2234],[13.4228,46.2286],[13.4374,46.2109],[13.4101,46.208],[13.3981,46.2305],[13.3847,46.2433],[13.3786,46.2684],[13.3653,46.2903],[13.3956,46.3067],[13.4232,46.3448],[13.4341,46.3539],[13.4597,46.359],[13.4837,46.3712],[13.53,46.3883],[13.5757,46.4267],[13.6002,46.4426],[13.6588,46.4451],[13.6775,46.4521],[13.6859,46.464],[13.6899,46.4933],[13.701,46.5197],[13.6703,46.5187],[13.5492,46.5458],[13.5068,46.5469],[13.478,46.5636],[13.417,46.5605],[13.3733,46.5658],[13.2714,46.5508],[13.2311,46.5522],[13.1465,46.585],[13.0645,46.598],[12.8304,46.6096],[12.7485,46.641],[12.6974,46.6405],[12.6714,46.6525],[12.6202,46.6565],[12.562,46.6512],[12.4999,46.6721],[12.4696,46.6758],[12.3992,46.6397],[12.3825,46.6181],[12.3407,46.6282],[12.3024,46.6146],[12.2531,46.6109],[12.214,46.5961],[12.1779,46.6348],[12.1386,46.6443],[12.0991,46.6678],[12.0803,46.6499],[12.0712,46.6131],[12.022,46.5394],[11.8519,46.5142],[11.8322,46.504],[11.8342,46.4838],[11.8808,46.4714],[11.8957,46.4548],[11.8667,46.4324],[11.8504,46.3845],[11.8029,46.3662],[11.8039,46.3453],[11.8499,46.3045],[11.8535,46.2737],[11.8876,46.2727],[11.9274,46.2506],[11.9204,46.2228],[11.9694,46.1963],[11.8965,46.1327],[11.7998,46.1057],[11.7121,46.1011],[11.699,46.0871],[11.7047,46.0534],[11.6845,46.0303],[11.6848,45.9843],[11.6538,45.9754],[11.5993,45.9794],[11.5788,46.0062],[11.541,46.016],[11.4861,46.0099],[11.4406,45.9876],[11.3926,45.9811],[11.383,45.9448],[11.359,45.9229],[11.3147,45.9394],[11.2787,45.919],[11.2581,45.8839],[11.2005,45.8109],[11.1825,45.7784],[11.1849,45.7547],[11.1307,45.6996],[11.0636,45.7126],[11.0067,45.7129],[10.9791,45.6918],[10.9318,45.6819],[10.9027,45.7083],[10.8703,45.7221],[10.8787,45.7614],[10.9002,45.7841],[10.8846,45.8169],[10.8449,45.8341],[10.8124,45.845],[10.7674,45.8416],[10.7286,45.8488],[10.6874,45.8453],[10.6653,45.8115],[10.621,45.8088],[10.5792,45.7947],[10.5562,45.8072],[10.559,45.8244],[10.5229,45.8413],[10.5072,45.8775],[10.5195,45.9167],[10.4956,45.9693],[10.4591,45.985],[10.4686,46.0118],[10.4908,46.0269],[10.5152,46.082],[10.5586,46.118],[10.5673,46.1935],[10.5902,46.2334],[10.5777,46.3127],[10.5279,46.3426],[10.5634,46.3674],[10.6189,46.3754],[10.6387,46.4111],[10.6247,46.4545],[10.5413,46.4895],[10.4939,46.4945],[10.4518,46.5467],[10.4259,46.5353],[10.3543,46.5483],[10.2954,46.5511],[10.2759,46.5655],[10.2347,46.5753],[10.2338,46.618],[10.1921,46.6268],[10.0878,46.6044],[10.0712,46.5644],[10.0328,46.533],[10.0269,46.4932],[10.044,46.467],[10.0263,46.4463],[10.0421,46.4327],[10.1334,46.414],[10.1332,46.3811],[10.105,46.3614],[10.0918,46.329],[10.1049,46.3094],[10.1589,46.2624],[10.1458,46.2433],[10.0757,46.22],[10.0427,46.2205],[10.0317,46.2601],[9.9776,46.2981],[9.964,46.3561],[9.899,46.3722],[9.8554,46.367],[9.7681,46.3386],[9.7309,46.3507],[9.7093,46.3424],[9.7084,46.3117],[9.6743,46.2918],[9.5597,46.2927],[9.5153,46.3086],[9.4826,46.3568],[9.4516,46.3704],[9.4438,46.3961],[9.4379,46.492],[9.4107,46.4889],[9.3771,46.4687],[9.331,46.5015],[9.2823,46.4974],[9.2632,46.4851],[9.238,46.4365],[9.2609,46.4167],[9.2604,46.3797],[9.2738,46.3443],[9.269,46.3094],[9.2397,46.267],[9.2248,46.2312],[9.1813,46.2041],[9.1638,46.173],[9.0906,46.1382],[9.0721,46.1189],[9.0592,46.0618],[9.0021,46.0393],[9.0156,45.9931],[8.9827,45.972],[9.0108,45.9267],[9.0517,45.9155],[9.0593,45.882],[9.0344,45.8481],[9.0024,45.8207],[8.9396,45.8348],[8.9089,45.8283],[8.9,45.8264],[8.9121,45.8834],[8.871,45.9471],[8.8004,45.9785],[8.7679,45.9831],[8.791,46.0187],[8.8344,46.0664],[8.809,46.0897],[8.7471,46.0944],[8.729,46.1082],[8.6775,46.0958],[8.6018,46.1228],[8.5387,46.1876],[8.5103,46.2079],[8.4565,46.2248],[8.4272,46.2514],[8.4266,46.3016],[8.4463,46.3822],[8.4416,46.4349],[8.4279,46.4487],[8.3859,46.4502],[8.3163,46.4337],[8.2866,46.4054],[8.2915,46.3784],[8.2418,46.3541],[8.1926,46.3092],[8.1285,46.2925],[8.0873,46.2718],[8.0731,46.2536],[8.1,46.2356],[8.1295,46.196],[8.1323,46.1594],[8.1106,46.127],[8.0669,46.1006],[8.0354,46.0965],[8.0182,46.0809],[8.0107,46.0297],[7.9858,45.9993],[7.8982,45.9819],[7.8496,45.9397]],[[12.1708,43.8046],[12.1776,43.8217],[12.2267,43.8144],[12.2386,43.7988],[12.1993,43.7805],[12.1708,43.8046]]],[[[13.5046,45.4839],[13.5208,45.4573],[13.5134,45.4362],[13.5549,45.3611],[13.5413,45.3461],[13.5618,45.3264],[13.5703,45.3253],[13.5766,45.3069],[13.5755,45.3065],[13.5774,45.3046],[13.5915,45.264],[13.5882,45.2596],[13.5942,45.2208],[13.5823,45.1966],[13.5994,45.1713],[13.6006,45.1373],[13.6197,45.1387],[13.6238,45.1232],[13.6126,45.1179],[13.6369,45.0936],[13.6232,45.0731],[13.6813,45.0464],[13.7328,44.9949],[13.7493,44.9825],[13.8073,44.9079],[13.8049,44.8854],[13.8237,44.8868],[13.8339,44.8736],[13.8338,44.8734],[13.7993,44.8646],[13.8491,44.8472],[13.8491,44.8266],[13.897,44.8131],[13.9032,44.7724],[13.918,44.7783],[13.8911,44.8314],[13.9013,44.8292],[13.9017,44.8292],[13.9039,44.8294],[13.9363,44.8199],[13.9517,44.8024],[13.9519,44.8026],[13.9521,44.8024],[13.9597,44.813],[13.9639,44.8118],[14,44.8131],[13.9727,44.8266],[13.9727,44.8314],[14.0288,44.9105],[14.0421,44.9265],[14.0828,44.9839],[14.0689,44.9495],[14.1133,44.9775],[14.1399,44.9713],[14.1637,44.9958],[14.1662,45.0189],[14.1551,45.0678],[14.1745,45.0896],[14.1931,45.1056],[14.1916,45.1088],[14.2077,45.1268],[14.2092,45.1264],[14.2347,45.1546],[14.2026,45.1716],[14.1946,45.275],[14.2105,45.3278],[14.1995,45.3756],[14.2036,45.4039],[14.1389,45.4343],[14.1173,45.473],[14.1167,45.473],[14.0929,45.4739],[14.0667,45.4803],[14.014,45.508],[13.9875,45.5119],[13.9838,45.5195],[13.9522,45.546],[13.9104,45.552],[13.8946,45.5598],[13.88,45.5725],[13.8679,45.6022],[13.8478,45.5847],[13.8005,45.5813],[13.7611,45.5962],[13.7118,45.5932],[13.7196,45.5872],[13.6474,45.5418],[13.6109,45.538],[13.5896,45.5358],[13.5686,45.5393],[13.5728,45.53],[13.5786,45.5234],[13.5857,45.5197],[13.5773,45.5171],[13.5479,45.5005],[13.5071,45.5119],[13.5046,45.4839]]],[[[14.8496,44.1756],[14.8701,44.1408],[14.9044,44.1145],[15.0421,43.9914],[15.0428,43.9904],[15.1066,43.9254],[15.1365,43.903],[15.1386,43.9079],[15.1508,43.9108],[15.1844,43.9016],[15.1955,43.8952],[15.1985,43.8977],[15.201,43.897],[15.201,43.8971],[15.2014,43.897],[15.2029,43.9013],[15.2168,43.9128],[15.1764,43.9334],[15.0266,44.0571],[15.0227,44.0722],[14.9906,44.0868],[14.9529,44.1179],[14.9403,44.1252],[14.9391,44.1271],[14.9102,44.1428],[14.8665,44.1682],[14.8667,44.1678],[14.8661,44.1682],[14.8665,44.1676],[14.8661,44.1678],[14.8671,44.1661],[14.8496,44.1756]]],[[[15.0625,44.1619],[15.0655,44.1573],[15.0646,44.1578],[15.0648,44.1575],[15.0642,44.1578],[15.0645,44.1572],[15.0642,44.1574],[15.075,44.1383],[15.0821,44.1314],[15.0871,44.1237],[15.1218,44.0922],[15.1891,44.0478],[15.2061,44.049],[15.2431,44.0297],[15.2544,44.0179],[15.2471,44.0467],[15.2303,44.0621],[15.2302,44.0623],[15.2298,44.0625],[15.2258,44.0662],[15.0625,44.1619]]],[[[15.1104,44.2644],[15.1219,44.2564],[15.1218,44.2564],[15.1573,44.2098],[15.1445,44.1955],[15.2127,44.1483],[15.2129,44.131],[15.2783,44.0856],[15.3195,44.0452],[15.3581,44.0257],[15.4661,43.9217],[15.492,43.9158],[15.4998,43.9092],[15.5387,43.8847],[15.5469,43.8766],[15.5741,43.8595],[15.5853,43.8554],[15.6415,43.8201],[15.6174,43.8255],[15.633,43.8105],[15.6821,43.7972],[15.7063,43.7634],[15.7242,43.7625],[15.9201,43.5905],[15.9595,43.5382],[15.9681,43.5403],[15.981,43.5257],[15.9735,43.5031],[16.0128,43.504],[16.0396,43.4908],[16.0924,43.4823],[16.441,43.3687],[16.4286,43.3436],[16.4214,43.3176],[16.4215,43.3176],[16.4214,43.3172],[16.4898,43.2859],[16.4996,43.2847],[16.5007,43.2842],[16.564,43.2701],[16.6283,43.2637],[16.7547,43.2665],[16.9169,43.2136],[16.929,43.2097],[17.0302,43.1468],[16.9169,43.1565],[16.8869,43.1591],[16.8644,43.1689],[16.8484,43.1624],[16.7113,43.1741],[16.6943,43.1793],[16.6745,43.1969],[16.6595,43.216],[16.6038,43.2235],[16.5955,43.2205],[16.5719,43.2232],[16.5628,43.229],[16.5205,43.229],[16.5207,43.2288],[16.3746,43.2134],[16.375,43.2132],[16.3748,43.2132],[16.3751,43.2131],[16.3746,43.213],[16.3973,43.2021],[16.3804,43.202],[16.3716,43.1955],[16.4452,43.1708],[16.5393,43.148],[16.551,43.1436],[16.6806,43.1228],[16.9169,43.1191],[17.0788,43.1165],[17.1231,43.089],[17.1489,43.0729],[17.1747,43.0569],[17.2262,43.0249],[17.2274,43.0241],[17.2258,43.0242],[17.221,43.0259],[17.2094,43.0259],[17.1587,43.031],[17.15,43.0303],[17.15,43.025],[17.4,43],[17.5,42.96],[17.62,42.97],[17.6523,43.0055],[17.6284,43.0466],[17.598,43.0729],[17.5874,43.0821],[17.4509,43.1482],[17.4268,43.1657],[17.4002,43.216],[17.3287,43.2604],[17.2899,43.3034],[17.2676,43.3533],[17.2864,43.4374],[17.2705,43.4632],[17.2395,43.4784],[17.1428,43.4893],[17.0623,43.5277],[16.8238,43.7073],[16.7126,43.7715],[16.6982,43.7881],[16.6786,43.8407],[16.6374,43.8684],[16.6048,43.9011],[16.5558,43.9375],[16.5274,43.9679],[16.4835,44.0025],[16.4396,44.014],[16.404,44.0588],[16.3672,44.0581],[16.3269,44.0824],[16.2755,44.1574],[16.2158,44.2082],[16.1876,44.2824],[16.2056,44.3505],[16.1713,44.3771],[16.1388,44.3854],[16.1599,44.4007],[16.1529,44.4351],[16.1165,44.5215],[16.0837,44.5349],[16.0473,44.5233],[16.0061,44.541],[16.0447,44.5894],[16.0283,44.6247],[15.969,44.6392],[15.9374,44.689],[15.9131,44.6845],[15.8956,44.7186],[15.8763,44.7248],[15.8564,44.7036],[15.8057,44.6967],[15.7593,44.7342],[15.7173,44.7865],[15.7306,44.817],[15.7687,44.8273],[15.7734,44.845],[15.7343,44.9021],[15.7341,44.9344],[15.7114,44.9297],[15.6561,44.9476],[15.6103,44.9298],[15.5525,44.9491],[15.5345,44.9328],[15.5668,44.8786],[15.5595,44.8591],[15.5272,44.839],[15.5472,44.8205],[15.602,44.7967],[15.5941,44.7836],[15.5331,44.755],[15.4828,44.752],[15.4763,44.7296],[15.5167,44.7047],[15.5357,44.6481],[15.5558,44.6309],[15.5628,44.5817],[15.6231,44.5413],[15.6535,44.495],[15.5911,44.4572],[15.634,44.4217],[15.616,44.3793],[15.5891,44.3566],[15.5537,44.3471],[15.546,44.3305],[15.4941,44.3688],[15.4178,44.3742],[15.3515,44.4118],[15.3281,44.4117],[15.2938,44.3648],[15.308,44.3544],[15.3562,44.3378],[15.3771,44.3186],[15.3307,44.3014],[15.3086,44.3093],[15.2612,44.3326],[15.3027,44.2991],[15.2883,44.2897],[15.2838,44.2897],[15.2448,44.2772],[15.1981,44.3017],[15.2078,44.2728],[15.2073,44.2724],[15.183,44.2724],[15.1653,44.2679],[15.1576,44.2803],[15.1104,44.2644]]],[[[15.2612,44.0111],[15.3027,43.9664],[15.3066,43.9642],[15.309,43.9612],[15.3579,43.9259],[15.3587,43.9194],[15.4071,43.8961],[15.4461,43.8875],[15.4387,43.8988],[15.439,43.8987],[15.4385,43.8992],[15.439,43.8991],[15.4372,43.9011],[15.4188,43.9291],[15.4058,43.9354],[15.3883,43.9545],[15.384,43.9702],[15.3719,43.9724],[15.3706,43.9738],[15.323,43.991],[15.2964,44.0056],[15.2724,44.0093],[15.2698,44.0103],[15.27,44.0101],[15.2694,44.0103],[15.2697,44.0098],[15.2694,44.0099],[15.2695,44.0098],[15.2612,44.0111]]],[[[18.4364,42.5108],[18.4371,42.4934],[18.4443,42.4779],[18.4677,42.4534],[18.4929,42.4424],[18.4964,42.4163],[18.5103,42.4053],[18.5197,42.4332],[18.5476,42.4291],[18.5452,42.4236],[18.553,42.4136],[18.5781,42.4004],[18.5706,42.393],[18.5949,42.3837],[18.6167,42.3681],[18.6384,42.3703],[18.6532,42.3663],[18.6535,42.3674],[18.7141,42.3377],[18.7145,42.3253],[18.7295,42.3116],[18.7625,42.2912],[18.7786,42.2715],[18.7887,42.276],[18.8136,42.2891],[18.8256,42.2832],[18.8314,42.2775],[18.8332,42.2795],[18.8946,42.2495],[18.9001,42.2449],[18.9017,42.2375],[18.9133,42.2222],[18.9465,42.2038],[18.9811,42.1637],[18.9919,42.1637],[18.9816,42.1671],[18.9714,42.1833],[19.0009,42.2085],[18.9959,42.2216],[18.9457,42.2653],[18.9286,42.2892],[18.9225,42.3021],[18.9142,42.3201],[18.8846,42.3395],[18.8529,42.3442],[18.8296,42.3518],[18.7971,42.36],[18.7936,42.3542],[18.7791,42.3793],[18.7619,42.4253],[18.7788,42.38],[18.785,42.38],[18.785,42.45],[18.7705,42.45],[18.7721,42.4767],[18.7605,42.5074],[18.698,42.5405],[18.684,42.5765],[18.6663,42.5936],[18.6483,42.6293],[18.6013,42.6244],[18.5428,42.6264],[18.5384,42.6183],[18.5068,42.5985],[18.4867,42.5898],[18.4959,42.5709],[18.4818,42.5637],[18.459,42.5697],[18.4374,42.5592],[18.442,42.543],[18.4364,42.5108]]]]}},
{"type":"Feature","properties":{"entityId":"italy-napoleonic","from":1808,"to":1809,"certainty":"estimated","source":"유럽 쪽은 Natural Earth 1:10m admin-1(v5.1.2) 현대 행정구역 조각을 그 시기 국경에 맞춰 묶고, 조각이 역사 경계와 다른 곳은 선을 그어 나눈 근사. 유럽 밖(시베리아·중앙아시아·극동)은 대략적인 추정. 운영자 검수 필요"},"geometry":{"type":"MultiPolygon","coordinates":[[[[7.8496,45.9397],[7.8559,45.9193],[7.9,45.9248],[7.957,45.9024],[7.9749,45.9036],[8.0405,45.9315],[8.0906,45.9234],[8.1872,45.9477],[8.2104,45.9276],[8.2704,45.9049],[8.3223,45.854],[8.3288,45.828],[8.3169,45.7693],[8.3499,45.7724],[8.3847,45.725],[8.3694,45.6994],[8.3105,45.6971],[8.3523,45.6424],[8.3914,45.6062],[8.4068,45.4242],[8.4498,45.3847],[8.4835,45.3793],[8.4996,45.3477],[8.4715,45.3259],[8.5126,45.3135],[8.5001,45.2877],[8.5156,45.277],[8.534,45.2176],[8.559,45.1931],[8.5566,45.1648],[8.5733,45.1371],[8.6076,45.108],[8.6455,45.0412],[8.6691,45.0248],[8.7741,45.0276],[8.8504,45.0584],[8.8779,45.0538],[8.8824,45.0005],[8.9571,44.9813],[8.9701,44.9444],[8.9965,44.9179],[9.0503,44.8834],[9.0483,44.8488],[9.0937,44.8181],[9.1406,44.8156],[9.1714,44.7856],[9.2059,44.7208],[9.2014,44.6821],[9.2421,44.683],[9.2475,44.7144],[9.2749,44.6961],[9.3091,44.6957],[9.3226,44.7162],[9.3059,44.7588],[9.3552,44.8265],[9.356,44.8642],[9.3026,44.8962],[9.3065,44.9249],[9.3831,45.045],[9.425,45.1012],[9.5119,45.1012],[9.5419,45.086],[9.546,45.1327],[9.5904,45.1126],[9.6145,45.1255],[9.6404,45.1261],[9.6369,45.0939],[9.6814,45.0753],[9.7223,45.0723],[9.7525,45.082],[9.7522,45.108],[9.8402,45.0738],[9.8302,45.0963],[9.8808,45.0916],[9.8996,45.0992],[9.8829,45.1341],[9.9231,45.1301],[9.916,45.108],[9.9866,45.1287],[10.0215,45.1101],[10.0463,45.0658],[10.0719,45.0375],[10.1049,45.0352],[10.1835,45.0466],[10.2237,45.0382],[10.3504,44.984],[10.3992,44.9913],[10.414,44.9848],[10.4436,44.9367],[10.5015,44.9194],[10.4631,44.8939],[10.4645,44.853],[10.4343,44.7952],[10.4356,44.7091],[10.4186,44.673],[10.4005,44.5687],[10.364,44.5403],[10.3134,44.4874],[10.2633,44.4508],[10.2197,44.4063],[10.15,44.3678],[10.1357,44.3418],[10.1994,44.3183],[10.2293,44.2815],[10.2539,44.2706],[10.2878,44.2824],[10.351,44.2749],[10.4002,44.2359],[10.4712,44.2246],[10.4839,44.1868],[10.5704,44.1256],[10.6105,44.1257],[10.6498,44.1578],[10.7074,44.162],[10.734,44.1547],[10.8159,44.1135],[10.9232,44.068],[10.9866,44.1277],[11.0173,44.1335],[11.0013,44.1127],[11.0483,44.0924],[11.2001,44.1047],[11.246,44.1069],[11.2551,44.119],[11.2064,44.1361],[11.2036,44.1588],[11.2911,44.1708],[11.342,44.2087],[11.3757,44.2117],[11.392,44.2324],[11.4319,44.2271],[11.496,44.1665],[11.5263,44.1622],[11.5718,44.1737],[11.6108,44.1523],[11.5882,44.1288],[11.6343,44.1178],[11.72,44.1317],[11.7472,44.1216],[11.7202,44.0702],[11.6774,44.023],[11.6556,44.0209],[11.6507,43.9909],[11.6831,43.9656],[11.6879,43.9346],[11.7086,43.9196],[11.7163,43.8791],[11.7849,43.8475],[11.8093,43.8264],[11.8755,43.8174],[11.9188,43.8035],[11.9686,43.7731],[12.0678,43.7543],[12.1022,43.759],[12.1253,43.7642],[12.1899,43.7436],[12.2067,43.7589],[12.2858,43.7689],[12.3576,43.7226],[12.3248,43.6834],[12.3099,43.7241],[12.297,43.724],[12.2777,43.6897],[12.2499,43.6824],[12.1958,43.6534],[12.2048,43.6168],[12.286,43.5916],[12.3108,43.6093],[12.3589,43.6194],[12.3478,43.5683],[12.3097,43.5667],[12.3199,43.5462],[12.3819,43.5246],[12.4317,43.5384],[12.5105,43.5125],[12.6047,43.4303],[12.6447,43.4439],[12.6911,43.4343],[12.7127,43.4539],[12.7582,43.4612],[12.7465,43.3788],[12.7889,43.3241],[12.7957,43.2785],[12.8517,43.2061],[12.8573,43.184],[12.8354,43.1494],[12.8374,43.1325],[12.8752,43.1158],[12.8953,43.0874],[12.891,43.0527],[12.9071,42.9715],[12.9619,42.9293],[12.9693,42.8918],[12.992,42.8966],[12.9949,42.9172],[13.0488,42.9178],[13.1372,42.8495],[13.1504,42.8236],[13.2243,42.8477],[13.2563,42.8025],[13.2489,42.7678],[13.2035,42.7598],[13.1945,42.7346],[13.2423,42.7356],[13.2679,42.7446],[13.3117,42.7193],[13.3376,42.6877],[13.4298,42.7017],[13.4437,42.7288],[13.4901,42.7441],[13.4957,42.7642],[13.5304,42.8075],[13.5652,42.8022],[13.6111,42.8116],[13.6378,42.8075],[13.6817,42.817],[13.7128,42.8601],[13.7607,42.8686],[13.8171,42.8871],[13.9055,42.9016],[13.8985,42.92],[13.9346,42.92],[13.909,42.962],[13.8577,43.046],[13.8535,43.0674],[13.8348,43.1273],[13.8102,43.1648],[13.8045,43.1804],[13.7831,43.2208],[13.7803,43.2365],[13.7457,43.2911],[13.6929,43.3905],[13.6909,43.3933],[13.647,43.4753],[13.617,43.5313],[13.6156,43.5605],[13.5692,43.5803],[13.5432,43.6132],[13.5044,43.6328],[13.4863,43.6206],[13.4293,43.6402],[13.2153,43.7551],[13.1815,43.7732],[13.0798,43.8278],[12.9443,43.9005],[12.9289,43.9158],[12.9032,43.9234],[12.8992,43.9247],[12.7714,43.9933],[12.7385,44.011],[12.7055,44.0287],[12.6396,44.064],[12.5877,44.0919],[12.5078,44.2162],[12.4895,44.2447],[12.4665,44.2804],[12.4436,44.316],[12.3978,44.3873],[12.3861,44.4054],[12.2828,44.5661],[12.2858,44.6027],[12.2713,44.627],[12.3506,44.8112],[12.3757,44.7922],[12.3934,44.7935],[12.4238,44.8203],[12.4392,44.8294],[12.4446,44.8205],[12.4741,44.8458],[12.4929,44.8782],[12.4952,44.8946],[12.4977,44.8987],[12.5061,44.9219],[12.5127,44.9223],[12.5339,44.97],[12.5168,44.9876],[12.4861,44.9912],[12.4861,44.9887],[12.4203,45.0249],[12.4103,45.0322],[12.4134,45.0429],[12.3805,45.0596],[12.3601,45.0915],[12.3536,45.1516],[12.3497,45.1868],[12.3459,45.2219],[12.3382,45.2922],[12.3308,45.3607],[12.3541,45.3925],[12.4126,45.418],[12.4309,45.4157],[12.419,45.4208],[12.5473,45.4768],[12.5936,45.4915],[12.6117,45.4962],[12.66,45.5126],[12.7605,45.5445],[12.7784,45.5527],[12.7808,45.5535],[12.8839,45.601],[12.9045,45.6104],[13.0276,45.6359],[13.0606,45.6367],[13.0956,45.6523],[13.103,45.669],[13.1497,45.7038],[13.1188,45.696],[13.1205,45.6972],[13.1488,45.7354],[13.2505,45.7168],[13.2958,45.7085],[13.341,45.7003],[13.341,45.717],[13.3862,45.717],[13.3862,45.7324],[13.4226,45.7241],[13.4324,45.7534],[13.4324,45.7788],[13.4036,45.8894],[13.4079,45.9175],[13.4375,45.9665],[13.4649,45.9899],[13.4618,46.0064],[13.4823,46.0184],[13.4928,46.0325],[13.4903,46.0389],[13.4823,46.0448],[13.5051,46.066],[13.5226,46.0753],[13.6164,46.125],[13.645,46.1617],[13.6411,46.1714],[13.6274,46.1817],[13.5845,46.1813],[13.559,46.1841],[13.529,46.2048],[13.5102,46.214],[13.4823,46.2179],[13.4683,46.2234],[13.4228,46.2286],[13.4374,46.2109],[13.4101,46.208],[13.3981,46.2305],[13.3847,46.2433],[13.3786,46.2684],[13.3653,46.2903],[13.3956,46.3067],[13.4232,46.3448],[13.4341,46.3539],[13.4597,46.359],[13.4837,46.3712],[13.53,46.3883],[13.5757,46.4267],[13.6002,46.4426],[13.6588,46.4451],[13.6775,46.4521],[13.6859,46.464],[13.6899,46.4933],[13.701,46.5197],[13.6703,46.5187],[13.5492,46.5458],[13.5068,46.5469],[13.478,46.5636],[13.417,46.5605],[13.3733,46.5658],[13.2714,46.5508],[13.2311,46.5522],[13.1465,46.585],[13.0645,46.598],[12.8304,46.6096],[12.7485,46.641],[12.6974,46.6405],[12.6714,46.6525],[12.6202,46.6565],[12.562,46.6512],[12.4999,46.6721],[12.4696,46.6758],[12.3992,46.6397],[12.3825,46.6181],[12.3407,46.6282],[12.3024,46.6146],[12.2531,46.6109],[12.214,46.5961],[12.1779,46.6348],[12.1386,46.6443],[12.0991,46.6678],[12.0803,46.6499],[12.0712,46.6131],[12.022,46.5394],[11.8519,46.5142],[11.8322,46.504],[11.8342,46.4838],[11.8808,46.4714],[11.8957,46.4548],[11.8667,46.4324],[11.8504,46.3845],[11.8029,46.3662],[11.8039,46.3453],[11.8499,46.3045],[11.8535,46.2737],[11.8876,46.2727],[11.9274,46.2506],[11.9204,46.2228],[11.9694,46.1963],[11.8965,46.1327],[11.7998,46.1057],[11.7121,46.1011],[11.699,46.0871],[11.7047,46.0534],[11.6845,46.0303],[11.6848,45.9843],[11.6538,45.9754],[11.5993,45.9794],[11.5788,46.0062],[11.541,46.016],[11.4861,46.0099],[11.4406,45.9876],[11.3926,45.9811],[11.383,45.9448],[11.359,45.9229],[11.3147,45.9394],[11.2787,45.919],[11.2581,45.8839],[11.2005,45.8109],[11.1825,45.7784],[11.1849,45.7547],[11.1307,45.6996],[11.0636,45.7126],[11.0067,45.7129],[10.9791,45.6918],[10.9318,45.6819],[10.9027,45.7083],[10.8703,45.7221],[10.8787,45.7614],[10.9002,45.7841],[10.8846,45.8169],[10.8449,45.8341],[10.8124,45.845],[10.7674,45.8416],[10.7286,45.8488],[10.6874,45.8453],[10.6653,45.8115],[10.621,45.8088],[10.5792,45.7947],[10.5562,45.8072],[10.559,45.8244],[10.5229,45.8413],[10.5072,45.8775],[10.5195,45.9167],[10.4956,45.9693],[10.4591,45.985],[10.4686,46.0118],[10.4908,46.0269],[10.5152,46.082],[10.5586,46.118],[10.5673,46.1935],[10.5902,46.2334],[10.5777,46.3127],[10.5279,46.3426],[10.5634,46.3674],[10.6189,46.3754],[10.6387,46.4111],[10.6247,46.4545],[10.5413,46.4895],[10.4939,46.4945],[10.4518,46.5467],[10.4259,46.5353],[10.3543,46.5483],[10.2954,46.5511],[10.2759,46.5655],[10.2347,46.5753],[10.2338,46.618],[10.1921,46.6268],[10.0878,46.6044],[10.0712,46.5644],[10.0328,46.533],[10.0269,46.4932],[10.044,46.467],[10.0263,46.4463],[10.0421,46.4327],[10.1334,46.414],[10.1332,46.3811],[10.105,46.3614],[10.0918,46.329],[10.1049,46.3094],[10.1589,46.2624],[10.1458,46.2433],[10.0757,46.22],[10.0427,46.2205],[10.0317,46.2601],[9.9776,46.2981],[9.964,46.3561],[9.899,46.3722],[9.8554,46.367],[9.7681,46.3386],[9.7309,46.3507],[9.7093,46.3424],[9.7084,46.3117],[9.6743,46.2918],[9.5597,46.2927],[9.5153,46.3086],[9.4826,46.3568],[9.4516,46.3704],[9.4438,46.3961],[9.4379,46.492],[9.4107,46.4889],[9.3771,46.4687],[9.331,46.5015],[9.2823,46.4974],[9.2632,46.4851],[9.238,46.4365],[9.2609,46.4167],[9.2604,46.3797],[9.2738,46.3443],[9.269,46.3094],[9.2397,46.267],[9.2248,46.2312],[9.1813,46.2041],[9.1638,46.173],[9.0906,46.1382],[9.0721,46.1189],[9.0592,46.0618],[9.0021,46.0393],[9.0156,45.9931],[8.9827,45.972],[9.0108,45.9267],[9.0517,45.9155],[9.0593,45.882],[9.0344,45.8481],[9.0024,45.8207],[8.9396,45.8348],[8.9089,45.8283],[8.9,45.8264],[8.9121,45.8834],[8.871,45.9471],[8.8004,45.9785],[8.7679,45.9831],[8.791,46.0187],[8.8344,46.0664],[8.809,46.0897],[8.7471,46.0944],[8.729,46.1082],[8.6775,46.0958],[8.6018,46.1228],[8.5387,46.1876],[8.5103,46.2079],[8.4565,46.2248],[8.4272,46.2514],[8.4266,46.3016],[8.4463,46.3822],[8.4416,46.4349],[8.4279,46.4487],[8.3859,46.4502],[8.3163,46.4337],[8.2866,46.4054],[8.2915,46.3784],[8.2418,46.3541],[8.1926,46.3092],[8.1285,46.2925],[8.0873,46.2718],[8.0731,46.2536],[8.1,46.2356],[8.1295,46.196],[8.1323,46.1594],[8.1106,46.127],[8.0669,46.1006],[8.0354,46.0965],[8.0182,46.0809],[8.0107,46.0297],[7.9858,45.9993],[7.8982,45.9819],[7.8496,45.9397]],[[12.1708,43.8046],[12.1776,43.8217],[12.2267,43.8144],[12.2386,43.7988],[12.1993,43.7805],[12.1708,43.8046]],[[12.3856,43.9245],[12.3957,43.9484],[12.411,43.9597],[12.4166,43.9637],[12.4214,43.9672],[12.4272,43.9694],[12.4533,43.9791],[12.4822,43.9826],[12.4892,43.9731],[12.4907,43.965],[12.4924,43.9564],[12.4915,43.9491],[12.4903,43.9392],[12.4831,43.9292],[12.4822,43.9279],[12.4796,43.9258],[12.478,43.9232],[12.4775,43.9201],[12.4783,43.917],[12.4644,43.9001],[12.4605,43.8953],[12.4413,43.8933],[12.4294,43.8921],[12.4211,43.8952],[12.3996,43.9032],[12.39,43.9179],[12.3856,43.9245]],[[12.4103,43.621],[12.4298,43.6315],[12.4448,43.6011],[12.4212,43.5897],[12.4103,43.621]]],[[[13.5046,45.4839],[13.5208,45.4573],[13.5134,45.4362],[13.5549,45.3611],[13.5413,45.3461],[13.5618,45.3264],[13.5703,45.3253],[13.5766,45.3069],[13.5755,45.3065],[13.5774,45.3046],[13.5915,45.264],[13.5882,45.2596],[13.5942,45.2208],[13.5823,45.1966],[13.5994,45.1713],[13.6006,45.1373],[13.6197,45.1387],[13.6238,45.1232],[13.6126,45.1179],[13.6369,45.0936],[13.6232,45.0731],[13.6813,45.0464],[13.7328,44.9949],[13.7493,44.9825],[13.8073,44.9079],[13.8049,44.8854],[13.8237,44.8868],[13.8339,44.8736],[13.8338,44.8734],[13.7993,44.8646],[13.8491,44.8472],[13.8491,44.8266],[13.897,44.8131],[13.9032,44.7724],[13.918,44.7783],[13.8911,44.8314],[13.9013,44.8292],[13.9017,44.8292],[13.9039,44.8294],[13.9363,44.8199],[13.9517,44.8024],[13.9519,44.8026],[13.9521,44.8024],[13.9597,44.813],[13.9639,44.8118],[14,44.8131],[13.9727,44.8266],[13.9727,44.8314],[14.0288,44.9105],[14.0421,44.9265],[14.0828,44.9839],[14.0689,44.9495],[14.1133,44.9775],[14.1399,44.9713],[14.1637,44.9958],[14.1662,45.0189],[14.1551,45.0678],[14.1745,45.0896],[14.1931,45.1056],[14.1916,45.1088],[14.2077,45.1268],[14.2092,45.1264],[14.2347,45.1546],[14.2026,45.1716],[14.1946,45.275],[14.2105,45.3278],[14.1995,45.3756],[14.2036,45.4039],[14.1389,45.4343],[14.1173,45.473],[14.1167,45.473],[14.0929,45.4739],[14.0667,45.4803],[14.014,45.508],[13.9875,45.5119],[13.9838,45.5195],[13.9522,45.546],[13.9104,45.552],[13.8946,45.5598],[13.88,45.5725],[13.8679,45.6022],[13.8478,45.5847],[13.8005,45.5813],[13.7611,45.5962],[13.7118,45.5932],[13.7196,45.5872],[13.6474,45.5418],[13.6109,45.538],[13.5896,45.5358],[13.5686,45.5393],[13.5728,45.53],[13.5786,45.5234],[13.5857,45.5197],[13.5773,45.5171],[13.5479,45.5005],[13.5071,45.5119],[13.5046,45.4839]]],[[[14.8496,44.1756],[14.8701,44.1408],[14.9044,44.1145],[15.0421,43.9914],[15.0428,43.9904],[15.1066,43.9254],[15.1365,43.903],[15.1386,43.9079],[15.1508,43.9108],[15.1844,43.9016],[15.1955,43.8952],[15.1985,43.8977],[15.201,43.897],[15.201,43.8971],[15.2014,43.897],[15.2029,43.9013],[15.2168,43.9128],[15.1764,43.9334],[15.0266,44.0571],[15.0227,44.0722],[14.9906,44.0868],[14.9529,44.1179],[14.9403,44.1252],[14.9391,44.1271],[14.9102,44.1428],[14.8665,44.1682],[14.8667,44.1678],[14.8661,44.1682],[14.8665,44.1676],[14.8661,44.1678],[14.8671,44.1661],[14.8496,44.1756]]],[[[15.0625,44.1619],[15.0655,44.1573],[15.0646,44.1578],[15.0648,44.1575],[15.0642,44.1578],[15.0645,44.1572],[15.0642,44.1574],[15.075,44.1383],[15.0821,44.1314],[15.0871,44.1237],[15.1218,44.0922],[15.1891,44.0478],[15.2061,44.049],[15.2431,44.0297],[15.2544,44.0179],[15.2471,44.0467],[15.2303,44.0621],[15.2302,44.0623],[15.2298,44.0625],[15.2258,44.0662],[15.0625,44.1619]]],[[[15.1104,44.2644],[15.1219,44.2564],[15.1218,44.2564],[15.1573,44.2098],[15.1445,44.1955],[15.2127,44.1483],[15.2129,44.131],[15.2783,44.0856],[15.3195,44.0452],[15.3581,44.0257],[15.4661,43.9217],[15.492,43.9158],[15.4998,43.9092],[15.5387,43.8847],[15.5469,43.8766],[15.5741,43.8595],[15.5853,43.8554],[15.6415,43.8201],[15.6174,43.8255],[15.633,43.8105],[15.6821,43.7972],[15.7063,43.7634],[15.7242,43.7625],[15.9201,43.5905],[15.9595,43.5382],[15.9681,43.5403],[15.981,43.5257],[15.9735,43.5031],[16.0128,43.504],[16.0396,43.4908],[16.0924,43.4823],[16.441,43.3687],[16.4286,43.3436],[16.4214,43.3176],[16.4215,43.3176],[16.4214,43.3172],[16.4898,43.2859],[16.4996,43.2847],[16.5007,43.2842],[16.564,43.2701],[16.6283,43.2637],[16.7547,43.2665],[16.9169,43.2136],[16.929,43.2097],[17.0302,43.1468],[16.9169,43.1565],[16.8869,43.1591],[16.8644,43.1689],[16.8484,43.1624],[16.7113,43.1741],[16.6943,43.1793],[16.6745,43.1969],[16.6595,43.216],[16.6038,43.2235],[16.5955,43.2205],[16.5719,43.2232],[16.5628,43.229],[16.5205,43.229],[16.5207,43.2288],[16.3746,43.2134],[16.375,43.2132],[16.3748,43.2132],[16.3751,43.2131],[16.3746,43.213],[16.3973,43.2021],[16.3804,43.202],[16.3716,43.1955],[16.4452,43.1708],[16.5393,43.148],[16.551,43.1436],[16.6806,43.1228],[16.9169,43.1191],[17.0788,43.1165],[17.1231,43.089],[17.1489,43.0729],[17.1747,43.0569],[17.2262,43.0249],[17.2274,43.0241],[17.2258,43.0242],[17.221,43.0259],[17.2094,43.0259],[17.1587,43.031],[17.15,43.0303],[17.0733,43.0242],[17.0016,43.0515],[17.0282,43.0242],[17.0275,43.0036],[17.0954,42.9844],[17.1836,42.9843],[17.252,42.9692],[17.2603,42.9667],[17.2807,42.9585],[17.3509,42.9218],[17.3855,42.9163],[17.4284,42.899],[17.442,42.8906],[17.4404,42.8734],[17.4956,42.8572],[17.5086,42.8492],[18.2342,42.5643],[18.2389,42.5591],[18.4119,42.476],[18.4131,42.4619],[18.4745,42.4414],[18.4964,42.4163],[18.5103,42.4053],[18.5197,42.4332],[18.5476,42.4291],[18.5452,42.4236],[18.553,42.4136],[18.5781,42.4004],[18.5706,42.393],[18.5949,42.3837],[18.6167,42.3681],[18.6384,42.3703],[18.6532,42.3663],[18.6535,42.3674],[18.7141,42.3377],[18.7145,42.3253],[18.7295,42.3116],[18.7625,42.2912],[18.7786,42.2715],[18.7887,42.276],[18.8136,42.2891],[18.8256,42.2832],[18.8314,42.2775],[18.8332,42.2795],[18.8946,42.2495],[18.9001,42.2449],[18.9017,42.2375],[18.9133,42.2222],[18.9465,42.2038],[18.9811,42.1637],[18.9919,42.1637],[18.9816,42.1671],[18.9714,42.1833],[19.0009,42.2085],[18.9959,42.2216],[18.9457,42.2653],[18.9286,42.2892],[18.9225,42.3021],[18.9142,42.3201],[18.8846,42.3395],[18.8529,42.3442],[18.8296,42.3518],[18.7971,42.36],[18.7936,42.3542],[18.7791,42.3793],[18.7619,42.4253],[18.7788,42.38],[18.785,42.38],[18.785,42.45],[18.7705,42.45],[18.7721,42.4767],[18.7605,42.5074],[18.698,42.5405],[18.684,42.5765],[18.6663,42.5936],[18.6483,42.6293],[18.6013,42.6244],[18.5428,42.6264],[18.5384,42.6183],[18.5068,42.5985],[18.4867,42.5898],[18.4959,42.5709],[18.4818,42.5637],[18.459,42.5697],[18.4374,42.5592],[18.3698,42.5744],[18.3387,42.6025],[18.3116,42.6012],[18.2241,42.6281],[17.9719,42.755],[17.9045,42.8045],[17.8585,42.817],[17.8272,42.8531],[17.8262,42.8886],[17.8118,42.9099],[17.7867,42.9014],[17.7016,42.9195],[17.6795,42.9157],[17.6533,42.8909],[17.6385,42.8976],[17.6385,42.8854],[17.6127,42.893],[17.587,42.9005],[17.587,42.921],[17.5733,42.9272],[17.5354,42.9272],[17.5354,42.9538],[17.5612,42.9471],[17.5612,42.9338],[17.587,42.9283],[17.587,42.9387],[17.5807,42.9421],[17.6345,42.9504],[17.6627,42.9657],[17.6593,42.9934],[17.6523,43.0055],[17.6284,43.0466],[17.598,43.0729],[17.5874,43.0821],[17.4509,43.1482],[17.4268,43.1657],[17.4002,43.216],[17.3287,43.2604],[17.2899,43.3034],[17.2676,43.3533],[17.2864,43.4374],[17.2705,43.4632],[17.2395,43.4784],[17.1428,43.4893],[17.0623,43.5277],[16.8238,43.7073],[16.7126,43.7715],[16.6982,43.7881],[16.6786,43.8407],[16.6374,43.8684],[16.6048,43.9011],[16.5558,43.9375],[16.5274,43.9679],[16.4835,44.0025],[16.4396,44.014],[16.404,44.0588],[16.3672,44.0581],[16.3269,44.0824],[16.2755,44.1574],[16.2158,44.2082],[16.1876,44.2824],[16.2056,44.3505],[16.1713,44.3771],[16.1388,44.3854],[16.1599,44.4007],[16.1529,44.4351],[16.1165,44.5215],[16.0837,44.5349],[16.0473,44.5233],[16.0061,44.541],[16.0447,44.5894],[16.0283,44.6247],[15.969,44.6392],[15.9374,44.689],[15.9131,44.6845],[15.8956,44.7186],[15.8763,44.7248],[15.8564,44.7036],[15.8057,44.6967],[15.7593,44.7342],[15.7173,44.7865],[15.7306,44.817],[15.7687,44.8273],[15.7734,44.845],[15.7343,44.9021],[15.7341,44.9344],[15.7114,44.9297],[15.6561,44.9476],[15.6103,44.9298],[15.5525,44.9491],[15.5345,44.9328],[15.5668,44.8786],[15.5595,44.8591],[15.5272,44.839],[15.5472,44.8205],[15.602,44.7967],[15.5941,44.7836],[15.5331,44.755],[15.4828,44.752],[15.4763,44.7296],[15.5167,44.7047],[15.5357,44.6481],[15.5558,44.6309],[15.5628,44.5817],[15.6231,44.5413],[15.6535,44.495],[15.5911,44.4572],[15.634,44.4217],[15.616,44.3793],[15.5891,44.3566],[15.5537,44.3471],[15.546,44.3305],[15.4941,44.3688],[15.4178,44.3742],[15.3515,44.4118],[15.3281,44.4117],[15.2938,44.3648],[15.308,44.3544],[15.3562,44.3378],[15.3771,44.3186],[15.3307,44.3014],[15.3086,44.3093],[15.2612,44.3326],[15.3027,44.2991],[15.2883,44.2897],[15.2838,44.2897],[15.2448,44.2772],[15.1981,44.3017],[15.2078,44.2728],[15.2073,44.2724],[15.183,44.2724],[15.1653,44.2679],[15.1576,44.2803],[15.1104,44.2644]]],[[[15.2612,44.0111],[15.3027,43.9664],[15.3066,43.9642],[15.309,43.9612],[15.3579,43.9259],[15.3587,43.9194],[15.4071,43.8961],[15.4461,43.8875],[15.4387,43.8988],[15.439,43.8987],[15.4385,43.8992],[15.439,43.8991],[15.4372,43.9011],[15.4188,43.9291],[15.4058,43.9354],[15.3883,43.9545],[15.384,43.9702],[15.3719,43.9724],[15.3706,43.9738],[15.323,43.991],[15.2964,44.0056],[15.2724,44.0093],[15.2698,44.0103],[15.27,44.0101],[15.2694,44.0103],[15.2697,44.0098],[15.2694,44.0099],[15.2695,44.0098],[15.2612,44.0111]]],[[[16.6317,42.9826],[16.659,42.9779],[16.6662,42.9596],[16.6767,42.9501],[16.6384,42.9348],[16.6726,42.9218],[16.6914,42.9282],[16.7191,42.9219],[16.7382,42.9127],[16.8498,42.8953],[16.8502,42.8953],[16.8844,42.9043],[16.8987,42.9058],[16.9729,42.9267],[16.9845,42.9272],[17.0874,42.9144],[17.0878,42.9144],[17.1048,42.9147],[17.1074,42.9143],[17.1145,42.9149],[17.1886,42.9162],[17.1882,42.9166],[17.1886,42.9166],[17.1841,42.9205],[17.2002,42.9218],[17.1318,42.9696],[17.1111,42.9643],[17.0321,42.9826],[16.9917,42.9798],[16.9726,42.9825],[16.9722,42.9825],[16.8356,42.9686],[16.7388,42.9833],[16.7205,42.9901],[16.6861,42.9913],[16.6522,42.9964],[16.6522,42.9963],[16.6518,42.9964],[16.652,42.996],[16.6518,42.996],[16.6532,42.9924],[16.6527,42.9924],[16.6317,42.9826]]],[[[17.3237,42.7908],[17.3738,42.76],[17.3859,42.7709],[17.7489,42.6946],[17.7427,42.701],[17.743,42.7009],[17.7425,42.7012],[17.7428,42.7011],[17.7423,42.7014],[17.7426,42.7013],[17.7423,42.7015],[17.743,42.7013],[17.7417,42.702],[17.7305,42.7134],[17.6699,42.7384],[17.6098,42.769],[17.4334,42.8003],[17.433,42.8003],[17.3898,42.7985],[17.3724,42.7953],[17.3738,42.8026],[17.3237,42.7908]]]]}},
{"type":"Feature","properties":{"entityId":"italy-napoleonic","from":1809,"to":1810,"certainty":"estimated","source":"유럽 쪽은 Natural Earth 1:10m admin-1(v5.1.2) 현대 행정구역 조각을 그 시기 국경에 맞춰 묶고, 조각이 역사 경계와 다른 곳은 선을 그어 나눈 근사. 유럽 밖(시베리아·중앙아시아·극동)은 대략적인 추정. 운영자 검수 필요"},"geometry":{"type":"Polygon","coordinates":[[[13.9346,42.92],[13.9294,42.92],[13.8985,42.92],[13.9055,42.9016],[13.8171,42.8871],[13.7607,42.8686],[13.7128,42.8601],[13.6817,42.817],[13.6378,42.8075],[13.6111,42.8116],[13.5652,42.8022],[13.5304,42.8075],[13.4957,42.7642],[13.4901,42.7441],[13.4437,42.7288],[13.4298,42.7017],[13.3376,42.6877],[13.3117,42.7193],[13.2679,42.7446],[13.2423,42.7356],[13.1945,42.7346],[13.2035,42.7598],[13.2489,42.7678],[13.2563,42.8025],[13.2243,42.8477],[13.1504,42.8236],[13.1372,42.8495],[13.0488,42.9178],[12.9949,42.9172],[12.992,42.8966],[12.9693,42.8918],[12.9619,42.9293],[12.9071,42.9715],[12.891,43.0527],[12.8953,43.0874],[12.8752,43.1158],[12.8374,43.1325],[12.8354,43.1494],[12.8573,43.184],[12.8517,43.2061],[12.7957,43.2785],[12.7889,43.3241],[12.7465,43.3788],[12.7582,43.4612],[12.7127,43.4539],[12.6911,43.4343],[12.6447,43.4439],[12.6047,43.4303],[12.5105,43.5125],[12.4317,43.5384],[12.3819,43.5246],[12.3199,43.5462],[12.3097,43.5667],[12.3478,43.5683],[12.3589,43.6194],[12.3108,43.6093],[12.286,43.5916],[12.2048,43.6168],[12.1958,43.6534],[12.2499,43.6824],[12.2777,43.6897],[12.297,43.724],[12.3099,43.7241],[12.3248,43.6834],[12.3576,43.7226],[12.2858,43.7689],[12.2067,43.7589],[12.1899,43.7436],[12.1253,43.7642],[12.1022,43.759],[12.0678,43.7543],[11.9686,43.7731],[11.9188,43.8035],[11.8755,43.8174],[11.8093,43.8264],[11.7849,43.8475],[11.7163,43.8791],[11.7086,43.9196],[11.6879,43.9346],[11.6831,43.9656],[11.6507,43.9909],[11.6556,44.0209],[11.6774,44.023],[11.7202,44.0702],[11.7472,44.1216],[11.72,44.1317],[11.6343,44.1178],[11.5882,44.1288],[11.6108,44.1523],[11.5718,44.1737],[11.5263,44.1622],[11.496,44.1665],[11.4319,44.2271],[11.392,44.2324],[11.3757,44.2117],[11.342,44.2087],[11.2911,44.1708],[11.2036,44.1588],[11.2064,44.1361],[11.2551,44.119],[11.246,44.1069],[11.2001,44.1047],[11.0483,44.0924],[11.0013,44.1127],[11.0173,44.1335],[10.9866,44.1277],[10.9232,44.068],[10.8159,44.1135],[10.734,44.1547],[10.7074,44.162],[10.6498,44.1578],[10.6105,44.1257],[10.5704,44.1256],[10.4839,44.1868],[10.4712,44.2246],[10.4002,44.2359],[10.351,44.2749],[10.2878,44.2824],[10.2539,44.2706],[10.2293,44.2815],[10.1994,44.3183],[10.1357,44.3418],[10.15,44.3678],[10.2197,44.4063],[10.2633,44.4508],[10.3134,44.4874],[10.364,44.5403],[10.4005,44.5687],[10.4186,44.673],[10.4356,44.7091],[10.4343,44.7952],[10.4645,44.853],[10.4631,44.8939],[10.5015,44.9194],[10.4436,44.9367],[10.414,44.9848],[10.3992,44.9913],[10.3504,44.984],[10.2237,45.0382],[10.1835,45.0466],[10.1049,45.0352],[10.0719,45.0375],[10.0463,45.0658],[10.0215,45.1101],[9.9866,45.1287],[9.916,45.108],[9.9231,45.1301],[9.8829,45.1341],[9.8996,45.0992],[9.8808,45.0916],[9.8302,45.0963],[9.8402,45.0738],[9.7522,45.108],[9.7525,45.082],[9.7223,45.0723],[9.6814,45.0753],[9.6369,45.0939],[9.6404,45.1261],[9.6145,45.1255],[9.5904,45.1126],[9.546,45.1327],[9.5419,45.086],[9.5119,45.1012],[9.425,45.1012],[9.3831,45.045],[9.3065,44.9249],[9.3026,44.8962],[9.356,44.8642],[9.3552,44.8265],[9.3059,44.7588],[9.3226,44.7162],[9.3091,44.6957],[9.2749,44.6961],[9.2475,44.7144],[9.2421,44.683],[9.2014,44.6821],[9.2059,44.7208],[9.1714,44.7856],[9.1406,44.8156],[9.0937,44.8181],[9.0483,44.8488],[9.0503,44.8834],[8.9965,44.9179],[8.9701,44.9444],[8.9571,44.9813],[8.8824,45.0005],[8.8779,45.0538],[8.8504,45.0584],[8.7741,45.0276],[8.6691,45.0248],[8.6455,45.0412],[8.6076,45.108],[8.5733,45.1371],[8.5566,45.1648],[8.559,45.1931],[8.534,45.2176],[8.5156,45.277],[8.5001,45.2877],[8.5126,45.3135],[8.4715,45.3259],[8.4996,45.3477],[8.4835,45.3793],[8.4498,45.3847],[8.4068,45.4242],[8.3914,45.6062],[8.3523,45.6424],[8.3105,45.6971],[8.3694,45.6994],[8.3847,45.725],[8.3499,45.7724],[8.3169,45.7693],[8.3288,45.828],[8.3223,45.854],[8.2704,45.9049],[8.2104,45.9276],[8.1872,45.9477],[8.0906,45.9234],[8.0405,45.9315],[7.9749,45.9036],[7.957,45.9024],[7.9,45.9248],[7.8559,45.9193],[7.8496,45.9397],[7.8982,45.9819],[7.9858,45.9993],[8.0107,46.0297],[8.0182,46.0809],[8.0354,46.0965],[8.0669,46.1006],[8.1106,46.127],[8.1323,46.1594],[8.1295,46.196],[8.1,46.2356],[8.0731,46.2536],[8.0873,46.2718],[8.1285,46.2925],[8.1926,46.3092],[8.2418,46.3541],[8.2915,46.3784],[8.2866,46.4054],[8.3163,46.4337],[8.3859,46.4502],[8.4279,46.4487],[8.4416,46.4349],[8.4463,46.3822],[8.4266,46.3016],[8.4272,46.2514],[8.4565,46.2248],[8.5103,46.2079],[8.5387,46.1876],[8.6018,46.1228],[8.6775,46.0958],[8.729,46.1082],[8.7471,46.0944],[8.809,46.0897],[8.8344,46.0664],[8.791,46.0187],[8.7679,45.9831],[8.8004,45.9785],[8.871,45.9471],[8.9121,45.8834],[8.9,45.8264],[8.9089,45.8283],[8.9396,45.8348],[9.0024,45.8207],[9.0344,45.8481],[9.0593,45.882],[9.0517,45.9155],[9.0108,45.9267],[8.9827,45.972],[9.0156,45.9931],[9.0021,46.0393],[9.0592,46.0618],[9.0721,46.1189],[9.0906,46.1382],[9.1638,46.173],[9.1813,46.2041],[9.2248,46.2312],[9.2397,46.267],[9.269,46.3094],[9.2738,46.3443],[9.2604,46.3797],[9.2609,46.4167],[9.238,46.4365],[9.2632,46.4851],[9.2823,46.4974],[9.331,46.5015],[9.3771,46.4687],[9.4107,46.4889],[9.4379,46.492],[9.4438,46.3961],[9.4516,46.3704],[9.4826,46.3568],[9.5153,46.3086],[9.5597,46.2927],[9.6743,46.2918],[9.7084,46.3117],[9.7093,46.3424],[9.7309,46.3507],[9.7681,46.3386],[9.8554,46.367],[9.899,46.3722],[9.964,46.3561],[9.9776,46.2981],[10.0317,46.2601],[10.0427,46.2205],[10.0757,46.22],[10.1458,46.2433],[10.1589,46.2624],[10.1049,46.3094],[10.0918,46.329],[10.105,46.3614],[10.1332,46.3811],[10.1334,46.414],[10.0421,46.4327],[10.0263,46.4463],[10.044,46.467],[10.0269,46.4932],[10.0328,46.533],[10.0712,46.5644],[10.0878,46.6044],[10.1921,46.6268],[10.2338,46.618],[10.2347,46.5753],[10.2759,46.5655],[10.2954,46.5511],[10.3543,46.5483],[10.4259,46.5353],[10.4518,46.5467],[10.4939,46.4945],[10.5413,46.4895],[10.6247,46.4545],[10.6387,46.4111],[10.6189,46.3754],[10.5634,46.3674],[10.5279,46.3426],[10.5777,46.3127],[10.5902,46.2334],[10.5673,46.1935],[10.5586,46.118],[10.5152,46.082],[10.4908,46.0269],[10.4686,46.0118],[10.4591,45.985],[10.4956,45.9693],[10.5195,45.9167],[10.5072,45.8775],[10.5229,45.8413],[10.559,45.8244],[10.5562,45.8072],[10.5792,45.7947],[10.621,45.8088],[10.6653,45.8115],[10.6874,45.8453],[10.7286,45.8488],[10.7674,45.8416],[10.8124,45.845],[10.8449,45.8341],[10.8846,45.8169],[10.9002,45.7841],[10.8787,45.7614],[10.8703,45.7221],[10.9027,45.7083],[10.9318,45.6819],[10.9791,45.6918],[11.0067,45.7129],[11.0636,45.7126],[11.1307,45.6996],[11.1849,45.7547],[11.1825,45.7784],[11.2005,45.8109],[11.2581,45.8839],[11.2787,45.919],[11.3147,45.9394],[11.359,45.9229],[11.383,45.9448],[11.3926,45.9811],[11.4406,45.9876],[11.4861,46.0099],[11.541,46.016],[11.5788,46.0062],[11.5993,45.9794],[11.6538,45.9754],[11.6848,45.9843],[11.6845,46.0303],[11.7047,46.0534],[11.699,46.0871],[11.7121,46.1011],[11.7998,46.1057],[11.8965,46.1327],[11.9694,46.1963],[11.9204,46.2228],[11.9274,46.2506],[11.8876,46.2727],[11.8535,46.2737],[11.8499,46.3045],[11.8039,46.3453],[11.8029,46.3662],[11.8504,46.3845],[11.8667,46.4324],[11.8957,46.4548],[11.8808,46.4714],[11.8342,46.4838],[11.8322,46.504],[11.8519,46.5142],[12.022,46.5394],[12.0712,46.6131],[12.0803,46.6499],[12.0991,46.6678],[12.1386,46.6443],[12.1779,46.6348],[12.214,46.5961],[12.2531,46.6109],[12.3024,46.6146],[12.3407,46.6282],[12.3825,46.6181],[12.3992,46.6397],[12.4696,46.6758],[12.4999,46.6721],[12.562,46.6512],[12.6202,46.6565],[12.6714,46.6525],[12.6974,46.6405],[12.7485,46.641],[12.8304,46.6096],[13.0645,46.598],[13.1465,46.585],[13.2311,46.5522],[13.2714,46.5508],[13.3733,46.5658],[13.417,46.5605],[13.478,46.5636],[13.5068,46.5469],[13.5492,46.5458],[13.6703,46.5187],[13.701,46.5197],[13.6899,46.4933],[13.6859,46.464],[13.6775,46.4521],[13.6588,46.4451],[13.6002,46.4426],[13.5757,46.4267],[13.53,46.3883],[13.4837,46.3712],[13.4597,46.359],[13.4341,46.3539],[13.4232,46.3448],[13.3956,46.3067],[13.3653,46.2903],[13.3786,46.2684],[13.3847,46.2433],[13.3981,46.2305],[13.4101,46.208],[13.4374,46.2109],[13.4228,46.2286],[13.4683,46.2234],[13.4823,46.2179],[13.5102,46.214],[13.529,46.2048],[13.559,46.1841],[13.5845,46.1813],[13.6274,46.1817],[13.6411,46.1714],[13.645,46.1617],[13.6164,46.125],[13.5226,46.0753],[13.5051,46.066],[13.4823,46.0448],[13.4903,46.0389],[13.4928,46.0325],[13.4823,46.0184],[13.4618,46.0064],[13.4649,45.9899],[13.4375,45.9665],[13.4079,45.9175],[13.4036,45.8894],[13.4324,45.7788],[13.4324,45.7534],[13.4226,45.7241],[13.3862,45.7324],[13.3862,45.717],[13.341,45.717],[13.341,45.7003],[13.2958,45.7085],[13.2505,45.7168],[13.1488,45.7354],[13.1205,45.6972],[13.1188,45.696],[13.1497,45.7038],[13.103,45.669],[13.0956,45.6523],[13.0606,45.6367],[13.0276,45.6359],[12.9045,45.6104],[12.8839,45.601],[12.7808,45.5535],[12.7784,45.5527],[12.7605,45.5445],[12.66,45.5126],[12.6117,45.4962],[12.5936,45.4915],[12.5473,45.4768],[12.419,45.4208],[12.4309,45.4157],[12.4126,45.418],[12.3541,45.3925],[12.3308,45.3607],[12.3382,45.2922],[12.3459,45.2219],[12.3497,45.1868],[12.3536,45.1516],[12.3601,45.0915],[12.3805,45.0596],[12.4134,45.0429],[12.4103,45.0322],[12.4203,45.0249],[12.4861,44.9887],[12.4861,44.9912],[12.5168,44.9876],[12.5339,44.97],[12.5127,44.9223],[12.5061,44.9219],[12.4977,44.8987],[12.4952,44.8946],[12.4929,44.8782],[12.4741,44.8458],[12.4446,44.8205],[12.4392,44.8294],[12.4238,44.8203],[12.3934,44.7935],[12.3757,44.7922],[12.3506,44.8112],[12.2713,44.627],[12.2858,44.6027],[12.2828,44.5661],[12.3861,44.4054],[12.3978,44.3873],[12.4436,44.316],[12.4665,44.2804],[12.4895,44.2447],[12.5078,44.2162],[12.5877,44.0919],[12.6396,44.064],[12.7055,44.0287],[12.7385,44.011],[12.7714,43.9933],[12.8992,43.9247],[12.9032,43.9234],[12.9289,43.9158],[12.9443,43.9005],[13.0798,43.8278],[13.1476,43.7914],[13.1815,43.7732],[13.2153,43.7551],[13.4293,43.6402],[13.4863,43.6206],[13.5044,43.6328],[13.5432,43.6132],[13.5692,43.5803],[13.6156,43.5605],[13.617,43.5313],[13.647,43.4753],[13.6909,43.3933],[13.6929,43.3905],[13.7457,43.2911],[13.7803,43.2365],[13.7831,43.2208],[13.8045,43.1804],[13.8102,43.1648],[13.8348,43.1273],[13.8535,43.0674],[13.8577,43.046],[13.909,42.962],[13.9346,42.92]],[[12.4298,43.6315],[12.4103,43.621],[12.4212,43.5897],[12.4448,43.6011],[12.4298,43.6315]],[[12.1776,43.8217],[12.1708,43.8046],[12.1993,43.7805],[12.2386,43.7988],[12.2267,43.8144],[12.1776,43.8217]],[[12.4211,43.8952],[12.4294,43.8921],[12.4413,43.8933],[12.4605,43.8953],[12.4644,43.9001],[12.4783,43.917],[12.4775,43.9201],[12.478,43.9232],[12.4796,43.9258],[12.4822,43.9279],[12.4831,43.9292],[12.4903,43.9392],[12.4915,43.9491],[12.4924,43.9564],[12.4907,43.965],[12.4892,43.9731],[12.4822,43.9826],[12.4533,43.9791],[12.4272,43.9694],[12.4214,43.9672],[12.4166,43.9637],[12.411,43.9597],[12.3957,43.9484],[12.3856,43.9245],[12.39,43.9179],[12.3996,43.9032],[12.4211,43.8952]]]}},
{"type":"Feature","properties":{"entityId":"italy-napoleonic","from":1810,"to":1814,"certainty":"estimated","source":"유럽 쪽은 Natural Earth 1:10m admin-1(v5.1.2) 현대 행정구역 조각을 그 시기 국경에 맞춰 묶고, 조각이 역사 경계와 다른 곳은 선을 그어 나눈 근사. 유럽 밖(시베리아·중앙아시아·극동)은 대략적인 추정. 운영자 검수 필요"},"geometry":{"type":"Polygon","coordinates":[[[13.9346,42.92],[13.9294,42.92],[13.8985,42.92],[13.9055,42.9016],[13.8171,42.8871],[13.7607,42.8686],[13.7128,42.8601],[13.6817,42.817],[13.6378,42.8075],[13.6111,42.8116],[13.5652,42.8022],[13.5304,42.8075],[13.4957,42.7642],[13.4901,42.7441],[13.4437,42.7288],[13.4298,42.7017],[13.3376,42.6877],[13.3117,42.7193],[13.2679,42.7446],[13.2423,42.7356],[13.1945,42.7346],[13.2035,42.7598],[13.2489,42.7678],[13.2563,42.8025],[13.2243,42.8477],[13.1504,42.8236],[13.1372,42.8495],[13.0488,42.9178],[12.9949,42.9172],[12.992,42.8966],[12.9693,42.8918],[12.9619,42.9293],[12.9071,42.9715],[12.891,43.0527],[12.8953,43.0874],[12.8752,43.1158],[12.8374,43.1325],[12.8354,43.1494],[12.8573,43.184],[12.8517,43.2061],[12.7957,43.2785],[12.7889,43.3241],[12.7465,43.3788],[12.7582,43.4612],[12.7127,43.4539],[12.6911,43.4343],[12.6447,43.4439],[12.6047,43.4303],[12.5105,43.5125],[12.4317,43.5384],[12.3819,43.5246],[12.3199,43.5462],[12.3097,43.5667],[12.3478,43.5683],[12.3589,43.6194],[12.3108,43.6093],[12.286,43.5916],[12.2048,43.6168],[12.1958,43.6534],[12.2499,43.6824],[12.2777,43.6897],[12.297,43.724],[12.3099,43.7241],[12.3248,43.6834],[12.3576,43.7226],[12.2858,43.7689],[12.2067,43.7589],[12.1899,43.7436],[12.1253,43.7642],[12.1022,43.759],[12.0678,43.7543],[11.9686,43.7731],[11.9188,43.8035],[11.8755,43.8174],[11.8093,43.8264],[11.7849,43.8475],[11.7163,43.8791],[11.7086,43.9196],[11.6879,43.9346],[11.6831,43.9656],[11.6507,43.9909],[11.6556,44.0209],[11.6774,44.023],[11.7202,44.0702],[11.7472,44.1216],[11.72,44.1317],[11.6343,44.1178],[11.5882,44.1288],[11.6108,44.1523],[11.5718,44.1737],[11.5263,44.1622],[11.496,44.1665],[11.4319,44.2271],[11.392,44.2324],[11.3757,44.2117],[11.342,44.2087],[11.2911,44.1708],[11.2036,44.1588],[11.2064,44.1361],[11.2551,44.119],[11.246,44.1069],[11.2001,44.1047],[11.0483,44.0924],[11.0013,44.1127],[11.0173,44.1335],[10.9866,44.1277],[10.9232,44.068],[10.8159,44.1135],[10.734,44.1547],[10.7074,44.162],[10.6498,44.1578],[10.6105,44.1257],[10.5704,44.1256],[10.4839,44.1868],[10.4712,44.2246],[10.4002,44.2359],[10.351,44.2749],[10.2878,44.2824],[10.2539,44.2706],[10.2293,44.2815],[10.1994,44.3183],[10.1357,44.3418],[10.15,44.3678],[10.2197,44.4063],[10.2633,44.4508],[10.3134,44.4874],[10.364,44.5403],[10.4005,44.5687],[10.4186,44.673],[10.4356,44.7091],[10.4343,44.7952],[10.4645,44.853],[10.4631,44.8939],[10.5015,44.9194],[10.4436,44.9367],[10.414,44.9848],[10.3992,44.9913],[10.3504,44.984],[10.2237,45.0382],[10.1835,45.0466],[10.1049,45.0352],[10.0719,45.0375],[10.0463,45.0658],[10.0215,45.1101],[9.9866,45.1287],[9.916,45.108],[9.9231,45.1301],[9.8829,45.1341],[9.8996,45.0992],[9.8808,45.0916],[9.8302,45.0963],[9.8402,45.0738],[9.7522,45.108],[9.7525,45.082],[9.7223,45.0723],[9.6814,45.0753],[9.6369,45.0939],[9.6404,45.1261],[9.6145,45.1255],[9.5904,45.1126],[9.546,45.1327],[9.5419,45.086],[9.5119,45.1012],[9.425,45.1012],[9.3831,45.045],[9.3065,44.9249],[9.3026,44.8962],[9.356,44.8642],[9.3552,44.8265],[9.3059,44.7588],[9.3226,44.7162],[9.3091,44.6957],[9.2749,44.6961],[9.2475,44.7144],[9.2421,44.683],[9.2014,44.6821],[9.2059,44.7208],[9.1714,44.7856],[9.1406,44.8156],[9.0937,44.8181],[9.0483,44.8488],[9.0503,44.8834],[8.9965,44.9179],[8.9701,44.9444],[8.9571,44.9813],[8.8824,45.0005],[8.8779,45.0538],[8.8504,45.0584],[8.7741,45.0276],[8.6691,45.0248],[8.6455,45.0412],[8.6076,45.108],[8.5733,45.1371],[8.5566,45.1648],[8.559,45.1931],[8.534,45.2176],[8.5156,45.277],[8.5001,45.2877],[8.5126,45.3135],[8.4715,45.3259],[8.4996,45.3477],[8.4835,45.3793],[8.4498,45.3847],[8.4068,45.4242],[8.3914,45.6062],[8.3523,45.6424],[8.3105,45.6971],[8.3694,45.6994],[8.3847,45.725],[8.3499,45.7724],[8.3169,45.7693],[8.3288,45.828],[8.3223,45.854],[8.2704,45.9049],[8.2104,45.9276],[8.1872,45.9477],[8.0906,45.9234],[8.0405,45.9315],[7.9749,45.9036],[7.957,45.9024],[7.9,45.9248],[7.8559,45.9193],[7.8496,45.9397],[7.8982,45.9819],[7.9858,45.9993],[8.0107,46.0297],[8.0182,46.0809],[8.0354,46.0965],[8.0669,46.1006],[8.1106,46.127],[8.1323,46.1594],[8.1295,46.196],[8.1,46.2356],[8.0731,46.2536],[8.0873,46.2718],[8.1285,46.2925],[8.1926,46.3092],[8.2418,46.3541],[8.2915,46.3784],[8.2866,46.4054],[8.3163,46.4337],[8.3859,46.4502],[8.4279,46.4487],[8.4416,46.4349],[8.4463,46.3822],[8.4266,46.3016],[8.4272,46.2514],[8.4565,46.2248],[8.5103,46.2079],[8.5387,46.1876],[8.6018,46.1228],[8.6775,46.0958],[8.729,46.1082],[8.7471,46.0944],[8.809,46.0897],[8.8344,46.0664],[8.791,46.0187],[8.7679,45.9831],[8.8004,45.9785],[8.871,45.9471],[8.9121,45.8834],[8.9,45.8264],[8.9089,45.8283],[8.9396,45.8348],[9.0024,45.8207],[9.0344,45.8481],[9.0593,45.882],[9.0517,45.9155],[9.0108,45.9267],[8.9827,45.972],[9.0156,45.9931],[9.0021,46.0393],[9.0592,46.0618],[9.0721,46.1189],[9.0906,46.1382],[9.1638,46.173],[9.1813,46.2041],[9.2248,46.2312],[9.2397,46.267],[9.269,46.3094],[9.2738,46.3443],[9.2604,46.3797],[9.2609,46.4167],[9.238,46.4365],[9.2632,46.4851],[9.2823,46.4974],[9.331,46.5015],[9.3771,46.4687],[9.4107,46.4889],[9.4379,46.492],[9.4438,46.3961],[9.4516,46.3704],[9.4826,46.3568],[9.5153,46.3086],[9.5597,46.2927],[9.6743,46.2918],[9.7084,46.3117],[9.7093,46.3424],[9.7309,46.3507],[9.7681,46.3386],[9.8554,46.367],[9.899,46.3722],[9.964,46.3561],[9.9776,46.2981],[10.0317,46.2601],[10.0427,46.2205],[10.0757,46.22],[10.1458,46.2433],[10.1589,46.2624],[10.1049,46.3094],[10.0918,46.329],[10.105,46.3614],[10.1332,46.3811],[10.1334,46.414],[10.0421,46.4327],[10.0263,46.4463],[10.044,46.467],[10.0269,46.4932],[10.0328,46.533],[10.0712,46.5644],[10.0878,46.6044],[10.1921,46.6268],[10.2338,46.618],[10.2347,46.5753],[10.2759,46.5655],[10.2954,46.5511],[10.3543,46.5483],[10.4259,46.5353],[10.4518,46.5467],[10.4939,46.4945],[10.5413,46.4895],[10.6247,46.4545],[10.6575,46.4495],[10.7452,46.4849],[10.7762,46.4754],[10.7975,46.4469],[10.8399,46.4307],[10.9974,46.4792],[11.0511,46.446],[11.0643,46.458],[11.0553,46.5156],[11.0859,46.5236],[11.1176,46.4938],[11.1454,46.4872],[11.1927,46.5056],[11.2145,46.4693],[11.2018,46.3392],[11.1562,46.284],[11.1615,46.2495],[11.191,46.2271],[11.242,46.2312],[11.2871,46.2591],[11.3282,46.2935],[11.3707,46.269],[11.3876,46.2811],[11.4085,46.3245],[11.4549,46.3348],[11.4766,46.3596],[11.5378,46.3537],[11.5774,46.3681],[11.5953,46.3862],[11.6412,46.4727],[11.6841,46.5077],[11.7158,46.5138],[11.7784,46.5101],[11.8118,46.5303],[11.8322,46.504],[11.8519,46.5142],[12.022,46.5394],[12.0712,46.6131],[12.0803,46.6499],[12.0991,46.6678],[12.1386,46.6443],[12.1779,46.6348],[12.214,46.5961],[12.2531,46.6109],[12.3024,46.6146],[12.3407,46.6282],[12.3825,46.6181],[12.3992,46.6397],[12.4696,46.6758],[12.4999,46.6721],[12.562,46.6512],[12.6202,46.6565],[12.6714,46.6525],[12.6974,46.6405],[12.7485,46.641],[12.8304,46.6096],[13.0645,46.598],[13.1465,46.585],[13.2311,46.5522],[13.2714,46.5508],[13.3733,46.5658],[13.417,46.5605],[13.478,46.5636],[13.5068,46.5469],[13.5492,46.5458],[13.6703,46.5187],[13.701,46.5197],[13.6899,46.4933],[13.6859,46.464],[13.6775,46.4521],[13.6588,46.4451],[13.6002,46.4426],[13.5757,46.4267],[13.53,46.3883],[13.4837,46.3712],[13.4597,46.359],[13.4341,46.3539],[13.4232,46.3448],[13.3956,46.3067],[13.3653,46.2903],[13.3786,46.2684],[13.3847,46.2433],[13.3981,46.2305],[13.4101,46.208],[13.4374,46.2109],[13.4228,46.2286],[13.4683,46.2234],[13.4823,46.2179],[13.5102,46.214],[13.529,46.2048],[13.559,46.1841],[13.5845,46.1813],[13.6274,46.1817],[13.6411,46.1714],[13.645,46.1617],[13.6164,46.125],[13.5226,46.0753],[13.5051,46.066],[13.4823,46.0448],[13.4903,46.0389],[13.4928,46.0325],[13.4823,46.0184],[13.4618,46.0064],[13.4649,45.9899],[13.4375,45.9665],[13.4079,45.9175],[13.4036,45.8894],[13.4324,45.7788],[13.4324,45.7534],[13.4226,45.7241],[13.3862,45.7324],[13.3862,45.717],[13.341,45.717],[13.341,45.7003],[13.2958,45.7085],[13.2505,45.7168],[13.1488,45.7354],[13.1205,45.6972],[13.1188,45.696],[13.1497,45.7038],[13.103,45.669],[13.0956,45.6523],[13.0606,45.6367],[13.0276,45.6359],[12.9045,45.6104],[12.8839,45.601],[12.7808,45.5535],[12.7784,45.5527],[12.7605,45.5445],[12.66,45.5126],[12.6117,45.4962],[12.5936,45.4915],[12.5473,45.4768],[12.419,45.4208],[12.4309,45.4157],[12.4126,45.418],[12.3541,45.3925],[12.3308,45.3607],[12.3382,45.2922],[12.3459,45.2219],[12.3497,45.1868],[12.3536,45.1516],[12.3601,45.0915],[12.3805,45.0596],[12.4134,45.0429],[12.4103,45.0322],[12.4203,45.0249],[12.4861,44.9887],[12.4861,44.9912],[12.5168,44.9876],[12.5339,44.97],[12.5127,44.9223],[12.5061,44.9219],[12.4977,44.8987],[12.4952,44.8946],[12.4929,44.8782],[12.4741,44.8458],[12.4446,44.8205],[12.4392,44.8294],[12.4238,44.8203],[12.3934,44.7935],[12.3757,44.7922],[12.3506,44.8112],[12.2713,44.627],[12.2858,44.6027],[12.2828,44.5661],[12.3861,44.4054],[12.3978,44.3873],[12.4436,44.316],[12.4665,44.2804],[12.4895,44.2447],[12.5078,44.2162],[12.5877,44.0919],[12.6396,44.064],[12.7055,44.0287],[12.7385,44.011],[12.7714,43.9933],[12.8992,43.9247],[12.9032,43.9234],[12.9289,43.9158],[12.9443,43.9005],[13.0798,43.8278],[13.1476,43.7914],[13.1815,43.7732],[13.2153,43.7551],[13.4293,43.6402],[13.4863,43.6206],[13.5044,43.6328],[13.5432,43.6132],[13.5692,43.5803],[13.6156,43.5605],[13.617,43.5313],[13.647,43.4753],[13.6909,43.3933],[13.6929,43.3905],[13.7457,43.2911],[13.7803,43.2365],[13.7831,43.2208],[13.8045,43.1804],[13.8102,43.1648],[13.8348,43.1273],[13.8535,43.0674],[13.8577,43.046],[13.909,42.962],[13.9346,42.92]],[[12.4298,43.6315],[12.4103,43.621],[12.4212,43.5897],[12.4448,43.6011],[12.4298,43.6315]],[[12.1776,43.8217],[12.1708,43.8046],[12.1993,43.7805],[12.2386,43.7988],[12.2267,43.8144],[12.1776,43.8217]],[[12.4211,43.8952],[12.4294,43.8921],[12.4413,43.8933],[12.4605,43.8953],[12.4644,43.9001],[12.4783,43.917],[12.4775,43.9201],[12.478,43.9232],[12.4796,43.9258],[12.4822,43.9279],[12.4831,43.9292],[12.4903,43.9392],[12.4915,43.9491],[12.4924,43.9564],[12.4907,43.965],[12.4892,43.9731],[12.4822,43.9826],[12.4533,43.9791],[12.4272,43.9694],[12.4214,43.9672],[12.4166,43.9637],[12.411,43.9597],[12.3957,43.9484],[12.3856,43.9245],[12.39,43.9179],[12.3996,43.9032],[12.4211,43.8952]]]}}
]}
