{
 "type": "FeatureCollection",
 "features": [
  {
   "type": "Feature",
   "properties": {
    "entityId": "jin",
    "from": 1115,
    "to": 1125,
    "certainty": "estimated",
    "source": "중고등학교 한국사 교과서 시대별 지도의 일반적인 경계를 따른 대략적인 추정. 운영자 검수 필요"
   },
   "geometry": {
    "type": "MultiPolygon",
    "coordinates": [
     [
      [
       [
        123,
        47.2
       ],
       [
        125,
        47.2
       ],
       [
        125,
        46.375
       ],
       [
        124.5,
        46
       ],
       [
        123.5,
        44.5
       ],
       [
        123.7,
        43.2
       ],
       [
        124.3,
        42.6
       ],
       [
        125,
        41.8
       ],
       [
        125,
        40.8
       ],
       [
        124.4,
        40
       ],
       [
        125.4,
        40.35
       ],
       [
        126.3,
        40.2
       ],
       [
        127,
        39.95
       ],
       [
        127.4,
        39.8
       ],
       [
        127.8,
        39.7
       ],
       [
        127.9,
        39.6
       ],
       [
        127.8,
        39.3
       ],
       [
        128.5,
        39.2
       ],
       [
        129.025,
        38.3
       ],
       [
        130.8057,
        38.3
       ],
       [
        131.5,
        41
       ],
       [
        131,
        42.1
       ],
       [
        131.1569,
        41.7548
       ],
       [
        131.8,
        42.2
       ],
       [
        132.5,
        42.4
       ],
       [
        135,
        43.3
       ],
       [
        137,
        44.5
       ],
       [
        141.5,
        44.5
       ],
       [
        141.5,
        48.5
       ],
       [
        123,
        48.5
       ],
       [
        123,
        47.2
       ]
      ]
     ],
     [
      [
       [
        123.2,
        39
       ],
       [
        123.34,
        38.3
       ],
       [
        124.3125,
        38.3
       ],
       [
        124.3,
        38.4
       ],
       [
        124.6,
        38.6
       ],
       [
        124.5,
        39
       ],
       [
        124.9,
        39.4
       ],
       [
        124,
        39.6
       ],
       [
        124.4,
        40
       ],
       [
        123.6,
        39.5
       ],
       [
        123.2,
        39
       ]
      ]
     ]
    ]
   }
  },
  {
   "type": "Feature",
   "properties": {
    "entityId": "jin",
    "from": 1125,
    "to": 1127,
    "certainty": "estimated",
    "source": "중고등학교 한국사 교과서 시대별 지도의 일반적인 경계를 따른 대략적인 추정. 운영자 검수 필요"
   },
   "geometry": {
    "type": "MultiPolygon",
    "coordinates": [
     [
      [
       [
        112.3,
        40.3
       ],
       [
        112.6,
        39.1
       ],
       [
        114,
        39
       ],
       [
        115.5,
        38.7
       ],
       [
        116.5,
        38.6
       ],
       [
        117.8,
        38.9
       ],
       [
        119.8,
        39.7
       ],
       [
        120,
        41
       ],
       [
        117,
        41.4
       ],
       [
        114,
        41.3
       ],
       [
        112.5,
        41
       ],
       [
        112.3,
        40.3
       ]
      ]
     ],
     [
      [
       [
        115.5,
        42.5
       ],
       [
        117,
        41.4
       ],
       [
        118.6189,
        41.6982
       ],
       [
        118.5,
        41.5
       ],
       [
        121,
        42
       ],
       [
        122.5,
        41.5
       ],
       [
        122.25,
        40.85
       ],
       [
        121.9,
        40.5
       ],
       [
        120.9,
        39.2
       ],
       [
        121,
        38.5
       ],
       [
        122.5,
        38.6
       ],
       [
        123,
        39
       ],
       [
        123.3846,
        39.2308
       ],
       [
        123.2,
        39
       ],
       [
        123.34,
        38.3
       ],
       [
        124.3125,
        38.3
       ],
       [
        124.3,
        38.4
       ],
       [
        124.6,
        38.6
       ],
       [
        124.5,
        39
       ],
       [
        124.9,
        39.4
       ],
       [
        124,
        39.6
       ],
       [
        124.4,
        40
       ],
       [
        125.4,
        40.35
       ],
       [
        126.3,
        40.2
       ],
       [
        127,
        39.95
       ],
       [
        127.4,
        39.8
       ],
       [
        127.8,
        39.7
       ],
       [
        127.9,
        39.6
       ],
       [
        127.8,
        39.3
       ],
       [
        128.5,
        39.2
       ],
       [
        129.025,
        38.3
       ],
       [
        130.8057,
        38.3
       ],
       [
        131.5,
        41
       ],
       [
        131,
        42.1
       ],
       [
        131.1569,
        41.7548
       ],
       [
        131.8,
        42.2
       ],
       [
        132.5,
        42.4
       ],
       [
        135,
        43.3
       ],
       [
        137,
        44.5
       ],
       [
        141.5,
        44.5
       ],
       [
        141.5,
        48.5
       ],
       [
        123,
        48.5
       ],
       [
        123,
        47.2
       ],
       [
        121.1,
        47.2
       ],
       [
        120.5,
        47.5
       ],
       [
        119.6,
        47.2
       ],
       [
        118.6,
        47.2
       ],
       [
        119,
        47
       ],
       [
        117.5,
        46.5
       ],
       [
        115.5,
        44.5
       ],
       [
        115.5,
        42.5
       ]
      ]
     ]
    ]
   }
  },
  {
   "type": "Feature",
   "properties": {
    "entityId": "jin",
    "from": 1127,
    "to": 1234,
    "certainty": "estimated",
    "source": "중고등학교 한국사 교과서 시대별 지도의 일반적인 경계를 따른 대략적인 추정. 운영자 검수 필요"
   },
   "geometry": {
    "type": "Polygon",
    "coordinates": [
     [
      [
       101.5,
       36.8
      ],
      [
       102.5,
       35.5
      ],
      [
       102.2,
       33
      ],
      [
       122.5833,
       33
      ],
      [
       122.5,
       33.5
      ],
      [
       123,
       37.2
      ],
      [
       121,
       38.3
      ],
      [
       120.5,
       39.5
      ],
      [
       121.9,
       40.5
      ],
      [
       120.9,
       39.2
      ],
      [
       121,
       38.5
      ],
      [
       122.5,
       38.6
      ],
      [
       123,
       39
      ],
      [
       123.3846,
       39.2308
      ],
      [
       123.2,
       39
      ],
      [
       123.34,
       38.3
      ],
      [
       124.3125,
       38.3
      ],
      [
       124.3,
       38.4
      ],
      [
       124.6,
       38.6
      ],
      [
       124.5,
       39
      ],
      [
       124.9,
       39.4
      ],
      [
       124,
       39.6
      ],
      [
       124.4,
       40
      ],
      [
       125.4,
       40.35
      ],
      [
       126.3,
       40.2
      ],
      [
       127,
       39.95
      ],
      [
       127.4,
       39.8
      ],
      [
       127.8,
       39.7
      ],
      [
       127.9,
       39.6
      ],
      [
       127.8,
       39.3
      ],
      [
       128.5,
       39.2
      ],
      [
       129.025,
       38.3
      ],
      [
       130.8057,
       38.3
      ],
      [
       131.5,
       41
      ],
      [
       131,
       42.1
      ],
      [
       131.1569,
       41.7548
      ],
      [
       131.8,
       42.2
      ],
      [
       132.5,
       42.4
      ],
      [
       135,
       43.3
      ],
      [
       137,
       44.5
      ],
      [
       141.5,
       44.5
      ],
      [
       141.5,
       48.5
      ],
      [
       123,
       48.5
      ],
      [
       123,
       47.2
      ],
      [
       121.1,
       47.2
      ],
      [
       120.5,
       47.5
      ],
      [
       119.6,
       47.2
      ],
      [
       118.6,
       47.2
      ],
      [
       119,
       47
      ],
      [
       117.5,
       46.5
      ],
      [
       115.5,
       44.5
      ],
      [
       115.5,
       42.5
      ],
      [
       117,
       41.4
      ],
      [
       114,
       41.3
      ],
      [
       112.5,
       41
      ],
      [
       111,
       41
      ],
      [
       111,
       36.3
      ],
      [
       101.8846,
       36.3
      ],
      [
       101.5,
       36.8
      ]
     ],
     [
      [
       117,
       41.4
      ],
      [
       118.6189,
       41.6982
      ],
      [
       118.5,
       41.5
      ],
      [
       117.3158,
       41.3579
      ],
      [
       117,
       41.4
      ]
     ]
    ]
   }
  }
 ]
}
