{
 "type": "FeatureCollection",
 "features": [
  {
   "type": "Feature",
   "properties": {
    "entityId": "jinhan",
    "from": -56,
    "to": 356,
    "certainty": "estimated",
    "source": "중고등학교 한국사 교과서 시대별 지도의 일반적인 경계를 따른 대략적인 추정. 운영자 검수 필요"
   },
   "geometry": {
    "type": "Polygon",
    "coordinates": [
     [
      [
       127.6,
       36.55
      ],
      [
       127.75,
       36.2
      ],
      [
       127.85,
       35.9
      ],
      [
       128.4,
       35.9
      ],
      [
       128.45,
       35.6
      ],
      [
       128.6,
       35.4
      ],
      [
       128.95,
       35.2
      ],
      [
       128.97,
       35
      ],
      [
       128.95,
       34.6
      ],
      [
       129,
       34.85
      ],
      [
       129.25,
       35
      ],
      [
       129.7,
       35.5
      ],
      [
       130,
       36.4
      ],
      [
       129.4,
       36.4
      ],
      [
       128.9,
       36.6
      ],
      [
       128.4,
       36.85
      ],
      [
       127.9,
       36.85
      ],
      [
       127.6,
       36.55
      ]
     ],
     [
      [
       128.9,
       35.65
      ],
      [
       129,
       36.15
      ],
      [
       129.55,
       36.1
      ],
      [
       129.5,
       35.6
      ],
      [
       128.9,
       35.65
      ]
     ]
    ]
   }
  }
 ]
}
