{"type":"FeatureCollection","features":[
{"type":"Feature","properties":{"entityId":"joseon","from":1392,"to":1443,"certainty":"estimated","source":"중고등학교 한국사 교과서 시대별 지도의 일반적인 경계를 따른 대략적인 추정. 운영자 검수 필요"},"geometry":{"type":"MultiPolygon","coordinates":[[[[124,39.6],[124.9,39.4],[124.5,39],[124.6,38.6],[124.3,38.4],[124.4,37.6],[125.3,37.4],[125.95,36.7],[125.8,36.5],[125.5,35],[125.8,34.2],[126.8,34],[127.8,34.4],[128.1,34.4],[128.5,34.5],[129.4,35],[129.8,35.8],[132.2,37],[132.2,37.8],[130,37.6],[129.7,37],[129.2,38],[128.5,39.2],[127.8,39.3],[127.9,39.6],[127.8,39.7],[129.2,40],[128.2,40.6],[127.3,40.8],[126.5,40.9],[125.5,40.6],[124.4,40],[124,39.6]]],[[[125.9,32.9],[127.2,32.9],[127.2,33.7],[125.9,33.7],[125.9,32.9]]]]}},
{"type":"Feature","properties":{"entityId":"joseon","from":1443,"to":1449,"certainty":"estimated","source":"중고등학교 한국사 교과서 시대별 지도의 일반적인 경계를 따른 대략적인 추정. 운영자 검수 필요"},"geometry":{"type":"MultiPolygon","coordinates":[[[[124,39.6],[124.9,39.4],[124.5,39],[124.6,38.6],[124.3,38.4],[124.4,37.6],[125.3,37.4],[125.95,36.7],[125.8,36.5],[125.5,35],[125.8,34.2],[126.8,34],[127.8,34.4],[128.1,34.4],[128.5,34.5],[129.4,35],[129.8,35.8],[132.2,37],[132.2,37.8],[130,37.6],[129.7,37],[129.2,38],[128.5,39.2],[127.8,39.3],[127.9,39.6],[127.8,39.7],[129.2,40],[128.2,40.6],[128.2,41.5],[126.8,41.6],[126,41],[125.3,40.6],[124.4,40],[124,39.6]]],[[[125.9,32.9],[127.2,32.9],[127.2,33.7],[125.9,33.7],[125.9,32.9]]]]}},
{"type":"Feature","properties":{"entityId":"joseon","from":1449,"to":1592,"certainty":"estimated","source":"중고등학교 한국사 교과서 시대별 지도의 일반적인 경계를 따른 대략적인 추정. 운영자 검수 필요"},"geometry":{"type":"MultiPolygon","coordinates":[[[[124,39.6],[124.9,39.4],[124.5,39],[124.6,38.6],[124.3,38.4],[124.4,37.6],[125.3,37.4],[125.95,36.7],[125.8,36.5],[125.5,35],[125.8,34.2],[126.8,34],[127.8,34.4],[128.1,34.4],[128.5,34.5],[129.4,35],[129.8,35.8],[132.2,37],[132.2,37.8],[130,37.6],[129.7,37],[129.2,38],[128.5,39.2],[127.8,39.3],[127.9,39.6],[127.8,39.7],[129.2,40],[130.2,41],[131,42.1],[130.76,42.26],[130.78,42.33],[130.7,42.372],[130.6345,42.3655],[130.4,42.6],[130,42.9],[129.7,42.45],[128.9,42.05],[128.2,41.5],[126.8,41.6],[126,41],[125.3,40.6],[124.4,40],[124,39.6]]],[[[125.9,32.9],[127.2,32.9],[127.2,33.7],[125.9,33.7],[125.9,32.9]]]]}},
{"type":"Feature","properties":{"entityId":"joseon","from":1592,"to":1593,"certainty":"estimated","source":"중고등학교 한국사 교과서 시대별 지도의 일반적인 경계를 따른 대략적인 추정. 운영자 검수 필요"},"geometry":{"type":"MultiPolygon","coordinates":[[[[124,39.6],[124.9,39.4],[124.75,39.25],[126.9,39.25],[126.9,41.5929],[128.2,41.5],[126.8,41.6],[126,41],[125.3,40.6],[124.4,40],[124,39.6]]],[[[125.5,35],[125.8,34.2],[126.8,34],[127.8,34.4],[128.1,34.4],[128.5,34.5],[128.85,34.6944],[128.85,34.95],[128.75,35.06],[128.6,35.07],[128.52,35.05],[128.49,35.14],[128.5,35.25],[128.47,35.38],[128.4,35.5],[128.39,35.63],[128.4,35.72],[128.37,35.78],[128.25,35.8],[128.1,35.82],[127.95,35.85],[127.65,35.85],[127.45,35.8],[127.33,36.08],[127.42,36.25],[127.47,36.42],[127.37,36.6],[127.33,36.75],[127.3,36.9],[127.15,36.93],[127,36.945],[126.9,36.93],[126.65,37.05],[125.625,37.05],[125.95,36.7],[125.8,36.5],[125.5,35]]],[[[125.9,32.9],[127.2,32.9],[127.2,33.7],[125.9,33.7],[125.9,32.9]]]]}},
{"type":"Feature","properties":{"entityId":"joseon","from":1593,"to":1597,"certainty":"estimated","source":"중고등학교 한국사 교과서 시대별 지도의 일반적인 경계를 따른 대략적인 추정. 운영자 검수 필요"},"geometry":{"type":"MultiPolygon","coordinates":[[[[124,39.6],[124.9,39.4],[124.5,39],[124.6,38.6],[124.3,38.4],[124.4,37.6],[125.3,37.4],[125.95,36.7],[125.8,36.5],[125.5,35],[125.8,34.2],[126.8,34],[127.8,34.4],[128.1,34.4],[128.5,34.5],[129.4,35],[129.8,35.8],[132.2,37],[132.2,37.8],[130,37.6],[129.7,37],[129.2,38],[128.5,39.2],[127.8,39.3],[127.9,39.6],[127.8,39.7],[129.2,40],[130.2,41],[131,42.1],[130.76,42.26],[130.78,42.33],[130.7,42.372],[130.6345,42.3655],[130.4,42.6],[130,42.9],[129.7,42.45],[128.9,42.05],[128.2,41.5],[126.8,41.6],[126,41],[125.3,40.6],[124.4,40],[124,39.6]],[[129.4,35],[128.62,34.5667],[128.62,35.2],[128.9,35.45],[129.2,35.6],[129.7217,35.6435],[129.4,35]]],[[[125.9,32.9],[127.2,32.9],[127.2,33.7],[125.9,33.7],[125.9,32.9]]]]}},
{"type":"Feature","properties":{"entityId":"joseon","from":1597,"to":1599,"certainty":"estimated","source":"중고등학교 한국사 교과서 시대별 지도의 일반적인 경계를 따른 대략적인 추정. 운영자 검수 필요"},"geometry":{"type":"MultiPolygon","coordinates":[[[[124,39.6],[124.9,39.4],[124.5,39],[124.6,38.6],[124.3,38.4],[124.4,37.6],[125.3,37.4],[125.95,36.7],[125.8,36.5],[125.5,35],[125.8,34.2],[126.8,34],[127.55,34.3],[127.52,34.3],[127.52,34.7],[127.45,35.05],[128.3,35.35],[129.2,35.6],[129.7217,35.6435],[129.4,35],[129.8,35.8],[132.2,37],[132.2,37.8],[130,37.6],[129.7,37],[129.2,38],[128.5,39.2],[127.8,39.3],[127.9,39.6],[127.8,39.7],[129.2,40],[130.2,41],[131,42.1],[130.76,42.26],[130.78,42.33],[130.7,42.372],[130.6345,42.3655],[130.4,42.6],[130,42.9],[129.7,42.45],[128.9,42.05],[128.2,41.5],[126.8,41.6],[126,41],[125.3,40.6],[124.4,40],[124,39.6]]],[[[125.9,32.9],[127.2,32.9],[127.2,33.7],[125.9,33.7],[125.9,32.9]]]]}},
{"type":"Feature","properties":{"entityId":"joseon","from":1599,"to":1860,"certainty":"estimated","source":"중고등학교 한국사 교과서 시대별 지도의 일반적인 경계를 따른 대략적인 추정. 운영자 검수 필요"},"geometry":{"type":"MultiPolygon","coordinates":[[[[124,39.6],[124.9,39.4],[124.5,39],[124.6,38.6],[124.3,38.4],[124.4,37.6],[125.3,37.4],[125.95,36.7],[125.8,36.5],[125.5,35],[125.8,34.2],[126.8,34],[127.8,34.4],[128.1,34.4],[128.5,34.5],[129.4,35],[129.8,35.8],[132.2,37],[132.2,37.8],[130,37.6],[129.7,37],[129.2,38],[128.5,39.2],[127.8,39.3],[127.9,39.6],[127.8,39.7],[129.2,40],[130.2,41],[131,42.1],[130.76,42.26],[130.78,42.33],[130.7,42.372],[130.6345,42.3655],[130.4,42.6],[130,42.9],[129.7,42.45],[128.9,42.05],[128.2,41.5],[126.8,41.6],[126,41],[125.3,40.6],[124.4,40],[124,39.6]]],[[[125.9,32.9],[127.2,32.9],[127.2,33.7],[125.9,33.7],[125.9,32.9]]]]}},
{"type":"Feature","properties":{"entityId":"joseon","from":1860,"to":1897,"certainty":"estimated","source":"중고등학교 한국사 교과서 시대별 지도의 일반적인 경계를 따른 대략적인 추정. 운영자 검수 필요"},"geometry":{"type":"MultiPolygon","coordinates":[[[[124,39.6],[124.9,39.4],[124.5,39],[124.6,38.6],[124.3,38.4],[124.4,37.6],[125.3,37.4],[125.95,36.7],[125.8,36.5],[125.5,35],[125.8,34.2],[126.8,34],[127.8,34.4],[128.1,34.4],[128.5,34.5],[129.4,35],[129.8,35.8],[132.2,37],[132.2,37.8],[130,37.6],[129.7,37],[129.2,38],[128.5,39.2],[127.8,39.3],[127.9,39.6],[127.8,39.7],[129.2,40],[130.2,41],[131,42.1],[130.7,42.3],[130.4,42.6],[130,42.9],[129.7,42.45],[128.9,42.05],[128.2,41.5],[126.8,41.6],[126,41],[125.3,40.6],[124.4,40],[124,39.6]]],[[[125.9,32.9],[127.2,32.9],[127.2,33.7],[125.9,33.7],[125.9,32.9]]]]}}
]}
