{
 "type": "FeatureCollection",
 "features": [
  {
   "type": "Feature",
   "properties": {
    "entityId": "jurchen",
    "from": 926,
    "to": 936,
    "certainty": "estimated",
    "source": "중고등학교 한국사 교과서 시대별 지도의 일반적인 경계를 따른 대략적인 추정. 운영자 검수 필요"
   },
   "geometry": {
    "type": "MultiPolygon",
    "coordinates": [
     [
      [
       [
        123,
        47.2
       ],
       [
        125,
        47.2
       ],
       [
        125,
        46.375
       ],
       [
        126.5,
        47.5
       ],
       [
        129.5,
        48
       ],
       [
        132.5,
        48.3
       ],
       [
        135,
        48
       ],
       [
        138.5,
        48.2
       ],
       [
        140.8,
        47.8
       ],
       [
        138.8,
        46
       ],
       [
        137,
        44.5
       ],
       [
        141.5,
        44.5
       ],
       [
        141.5,
        48.5
       ],
       [
        123,
        48.5
       ],
       [
        123,
        47.2
       ]
      ]
     ],
     [
      [
       [
        123.2,
        39
       ],
       [
        123.34,
        38.3
       ],
       [
        124.3125,
        38.3
       ],
       [
        124.3,
        38.4
       ],
       [
        124.6,
        38.6
       ],
       [
        125.2,
        38.75
       ],
       [
        125.8,
        38.95
       ],
       [
        126.5,
        39.1
       ],
       [
        127.2,
        39.2
       ],
       [
        127.8,
        39.3
       ],
       [
        128.5,
        39.2
       ],
       [
        129.025,
        38.3
       ],
       [
        130.8057,
        38.3
       ],
       [
        131.5,
        41
       ],
       [
        131,
        42.1
       ],
       [
        130.7,
        42.3
       ],
       [
        130.4,
        42.6
       ],
       [
        130,
        42.9
       ],
       [
        129.7,
        42.45
       ],
       [
        128.9,
        42.05
       ],
       [
        128.2,
        41.5
       ],
       [
        126.8,
        41.6
       ],
       [
        126,
        41
       ],
       [
        125.3,
        40.6
       ],
       [
        124.4,
        40
       ],
       [
        123.6,
        39.5
       ],
       [
        123.2,
        39
       ]
      ]
     ]
    ]
   }
  },
  {
   "type": "Feature",
   "properties": {
    "entityId": "jurchen",
    "from": 936,
    "to": 994,
    "certainty": "estimated",
    "source": "중고등학교 한국사 교과서 시대별 지도의 일반적인 경계를 따른 대략적인 추정. 운영자 검수 필요"
   },
   "geometry": {
    "type": "MultiPolygon",
    "coordinates": [
     [
      [
       [
        123,
        47.2
       ],
       [
        125,
        47.2
       ],
       [
        125,
        46.375
       ],
       [
        126.5,
        47.5
       ],
       [
        129.5,
        48
       ],
       [
        132.5,
        48.3
       ],
       [
        135,
        48
       ],
       [
        138.5,
        48.2
       ],
       [
        140.8,
        47.8
       ],
       [
        138.8,
        46
       ],
       [
        137,
        44.5
       ],
       [
        141.5,
        44.5
       ],
       [
        141.5,
        48.5
       ],
       [
        123,
        48.5
       ],
       [
        123,
        47.2
       ]
      ]
     ],
     [
      [
       [
        123.2,
        39
       ],
       [
        123.34,
        38.3
       ],
       [
        124.3125,
        38.3
       ],
       [
        124.3,
        38.4
       ],
       [
        124.6,
        38.6
       ],
       [
        124.5,
        39
       ],
       [
        124.9,
        39.4
       ],
       [
        125.3,
        39.65
       ],
       [
        126,
        39.8
       ],
       [
        126.8,
        39.75
       ],
       [
        127.35,
        39.6
       ],
       [
        127.9,
        39.6
       ],
       [
        127.8,
        39.3
       ],
       [
        128.5,
        39.2
       ],
       [
        129.025,
        38.3
       ],
       [
        130.8057,
        38.3
       ],
       [
        131.5,
        41
       ],
       [
        131,
        42.1
       ],
       [
        130.7,
        42.3
       ],
       [
        130.4,
        42.6
       ],
       [
        130,
        42.9
       ],
       [
        129.7,
        42.45
       ],
       [
        128.9,
        42.05
       ],
       [
        128.2,
        41.5
       ],
       [
        126.8,
        41.6
       ],
       [
        126,
        41
       ],
       [
        125.3,
        40.6
       ],
       [
        124.4,
        40
       ],
       [
        123.6,
        39.5
       ],
       [
        123.2,
        39
       ]
      ]
     ]
    ]
   }
  },
  {
   "type": "Feature",
   "properties": {
    "entityId": "jurchen",
    "from": 994,
    "to": 1107,
    "certainty": "estimated",
    "source": "중고등학교 한국사 교과서 시대별 지도의 일반적인 경계를 따른 대략적인 추정. 운영자 검수 필요"
   },
   "geometry": {
    "type": "MultiPolygon",
    "coordinates": [
     [
      [
       [
        123,
        47.2
       ],
       [
        125,
        47.2
       ],
       [
        125,
        46.375
       ],
       [
        126.5,
        47.5
       ],
       [
        129.5,
        48
       ],
       [
        132.5,
        48.3
       ],
       [
        135,
        48
       ],
       [
        138.5,
        48.2
       ],
       [
        140.8,
        47.8
       ],
       [
        138.8,
        46
       ],
       [
        137,
        44.5
       ],
       [
        141.5,
        44.5
       ],
       [
        141.5,
        48.5
       ],
       [
        123,
        48.5
       ],
       [
        123,
        47.2
       ]
      ]
     ],
     [
      [
       [
        123.2,
        39
       ],
       [
        123.34,
        38.3
       ],
       [
        124.3125,
        38.3
       ],
       [
        124.3,
        38.4
       ],
       [
        124.6,
        38.6
       ],
       [
        124.5,
        39
       ],
       [
        124.9,
        39.4
       ],
       [
        124,
        39.6
       ],
       [
        124.4,
        40
       ],
       [
        123.6,
        39.5
       ],
       [
        123.2,
        39
       ]
      ]
     ],
     [
      [
       [
        124.4,
        40
       ],
       [
        125.4,
        40.35
       ],
       [
        126.3,
        40.2
       ],
       [
        127,
        39.95
       ],
       [
        127.4,
        39.8
       ],
       [
        127.8,
        39.7
       ],
       [
        127.9,
        39.6
       ],
       [
        127.8,
        39.3
       ],
       [
        128.5,
        39.2
       ],
       [
        129.025,
        38.3
       ],
       [
        130.8057,
        38.3
       ],
       [
        131.5,
        41
       ],
       [
        131,
        42.1
       ],
       [
        130.7,
        42.3
       ],
       [
        130.4,
        42.6
       ],
       [
        130,
        42.9
       ],
       [
        129.7,
        42.45
       ],
       [
        128.9,
        42.05
       ],
       [
        128.2,
        41.5
       ],
       [
        126.8,
        41.6
       ],
       [
        126,
        41
       ],
       [
        125.3,
        40.6
       ],
       [
        124.4,
        40
       ]
      ]
     ]
    ]
   }
  },
  {
   "type": "Feature",
   "properties": {
    "entityId": "jurchen",
    "from": 1107,
    "to": 1109,
    "certainty": "estimated",
    "source": "중고등학교 한국사 교과서 시대별 지도의 일반적인 경계를 따른 대략적인 추정. 운영자 검수 필요"
   },
   "geometry": {
    "type": "MultiPolygon",
    "coordinates": [
     [
      [
       [
        123,
        47.2
       ],
       [
        125,
        47.2
       ],
       [
        125,
        46.375
       ],
       [
        126.5,
        47.5
       ],
       [
        129.5,
        48
       ],
       [
        132.5,
        48.3
       ],
       [
        135,
        48
       ],
       [
        138.5,
        48.2
       ],
       [
        140.8,
        47.8
       ],
       [
        138.8,
        46
       ],
       [
        137,
        44.5
       ],
       [
        141.5,
        44.5
       ],
       [
        141.5,
        48.5
       ],
       [
        123,
        48.5
       ],
       [
        123,
        47.2
       ]
      ]
     ],
     [
      [
       [
        123.2,
        39
       ],
       [
        123.34,
        38.3
       ],
       [
        124.3125,
        38.3
       ],
       [
        124.3,
        38.4
       ],
       [
        124.6,
        38.6
       ],
       [
        124.5,
        39
       ],
       [
        124.9,
        39.4
       ],
       [
        124,
        39.6
       ],
       [
        124.4,
        40
       ],
       [
        123.6,
        39.5
       ],
       [
        123.2,
        39
       ]
      ]
     ],
     [
      [
       [
        124.4,
        40
       ],
       [
        125.4,
        40.35
       ],
       [
        126.3,
        40.2
       ],
       [
        126.9,
        40.5
       ],
       [
        127.5,
        40.6
       ],
       [
        128.3,
        40.8
       ],
       [
        129.3,
        40.3
       ],
       [
        127.8,
        39.7
       ],
       [
        127.9,
        39.6
       ],
       [
        127.8,
        39.3
       ],
       [
        128.5,
        39.2
       ],
       [
        129.025,
        38.3
       ],
       [
        130.8057,
        38.3
       ],
       [
        131.5,
        41
       ],
       [
        131,
        42.1
       ],
       [
        130.7,
        42.3
       ],
       [
        130.4,
        42.6
       ],
       [
        130,
        42.9
       ],
       [
        129.7,
        42.45
       ],
       [
        128.9,
        42.05
       ],
       [
        128.2,
        41.5
       ],
       [
        126.8,
        41.6
       ],
       [
        126,
        41
       ],
       [
        125.3,
        40.6
       ],
       [
        124.4,
        40
       ]
      ]
     ]
    ]
   }
  },
  {
   "type": "Feature",
   "properties": {
    "entityId": "jurchen",
    "from": 1109,
    "to": 1115,
    "certainty": "estimated",
    "source": "중고등학교 한국사 교과서 시대별 지도의 일반적인 경계를 따른 대략적인 추정. 운영자 검수 필요"
   },
   "geometry": {
    "type": "MultiPolygon",
    "coordinates": [
     [
      [
       [
        123,
        47.2
       ],
       [
        125,
        47.2
       ],
       [
        125,
        46.375
       ],
       [
        126.5,
        47.5
       ],
       [
        129.5,
        48
       ],
       [
        132.5,
        48.3
       ],
       [
        135,
        48
       ],
       [
        138.5,
        48.2
       ],
       [
        140.8,
        47.8
       ],
       [
        138.8,
        46
       ],
       [
        137,
        44.5
       ],
       [
        141.5,
        44.5
       ],
       [
        141.5,
        48.5
       ],
       [
        123,
        48.5
       ],
       [
        123,
        47.2
       ]
      ]
     ],
     [
      [
       [
        123.2,
        39
       ],
       [
        123.34,
        38.3
       ],
       [
        124.3125,
        38.3
       ],
       [
        124.3,
        38.4
       ],
       [
        124.6,
        38.6
       ],
       [
        124.5,
        39
       ],
       [
        124.9,
        39.4
       ],
       [
        124,
        39.6
       ],
       [
        124.4,
        40
       ],
       [
        123.6,
        39.5
       ],
       [
        123.2,
        39
       ]
      ]
     ],
     [
      [
       [
        124.4,
        40
       ],
       [
        125.4,
        40.35
       ],
       [
        126.3,
        40.2
       ],
       [
        127,
        39.95
       ],
       [
        127.4,
        39.8
       ],
       [
        127.8,
        39.7
       ],
       [
        127.9,
        39.6
       ],
       [
        127.8,
        39.3
       ],
       [
        128.5,
        39.2
       ],
       [
        129.025,
        38.3
       ],
       [
        130.8057,
        38.3
       ],
       [
        131.5,
        41
       ],
       [
        131,
        42.1
       ],
       [
        130.7,
        42.3
       ],
       [
        130.4,
        42.6
       ],
       [
        130,
        42.9
       ],
       [
        129.7,
        42.45
       ],
       [
        128.9,
        42.05
       ],
       [
        128.2,
        41.5
       ],
       [
        126.8,
        41.6
       ],
       [
        126,
        41
       ],
       [
        125.3,
        40.6
       ],
       [
        124.4,
        40
       ]
      ]
     ]
    ]
   }
  },
  {
   "type": "Feature",
   "properties": {
    "entityId": "jurchen",
    "from": 1368,
    "to": 1388,
    "certainty": "estimated",
    "source": "중고등학교 한국사 교과서 시대별 지도의 일반적인 경계를 따른 대략적인 추정. 운영자 검수 필요"
   },
   "geometry": {
    "type": "MultiPolygon",
    "coordinates": [
     [
      [
       [
        123.2,
        39
       ],
       [
        123.34,
        38.3
       ],
       [
        124.3125,
        38.3
       ],
       [
        124.3,
        38.4
       ],
       [
        124.6,
        38.6
       ],
       [
        124.5,
        39
       ],
       [
        124.9,
        39.4
       ],
       [
        124,
        39.6
       ],
       [
        124.4,
        40
       ],
       [
        123.6,
        39.5
       ],
       [
        123.2,
        39
       ]
      ]
     ],
     [
      [
       [
        124.4,
        40
       ],
       [
        125.5,
        40.6
       ],
       [
        126.5,
        40.9
       ],
       [
        127.3,
        40.8
       ],
       [
        128.2,
        40.6
       ],
       [
        129.2,
        40
       ],
       [
        127.8,
        39.7
       ],
       [
        127.9,
        39.6
       ],
       [
        127.8,
        39.3
       ],
       [
        128.5,
        39.2
       ],
       [
        129.025,
        38.3
       ],
       [
        130.8057,
        38.3
       ],
       [
        131.5,
        41
       ],
       [
        131,
        42.1
       ],
       [
        130.7,
        42.3
       ],
       [
        130.4,
        42.6
       ],
       [
        130,
        42.9
       ],
       [
        129.7,
        42.45
       ],
       [
        128.9,
        42.05
       ],
       [
        128.2,
        41.5
       ],
       [
        126.8,
        41.6
       ],
       [
        126,
        41
       ],
       [
        125.3,
        40.6
       ],
       [
        124.4,
        40
       ]
      ]
     ]
    ]
   }
  },
  {
   "type": "Feature",
   "properties": {
    "entityId": "jurchen",
    "from": 1388,
    "to": 1392,
    "certainty": "estimated",
    "source": "중고등학교 한국사 교과서 시대별 지도의 일반적인 경계를 따른 대략적인 추정. 운영자 검수 필요"
   },
   "geometry": {
    "type": "MultiPolygon",
    "coordinates": [
     [
      [
       [
        123,
        47.2
       ],
       [
        125,
        47.2
       ],
       [
        125,
        46.375
       ],
       [
        124.5,
        46
       ],
       [
        123.5,
        44.5
       ],
       [
        123.7,
        43.2
       ],
       [
        124.3,
        42.6
       ],
       [
        125,
        41.8
       ],
       [
        125,
        40.8
       ],
       [
        124.4,
        40
       ],
       [
        125.5,
        40.6
       ],
       [
        126.5,
        40.9
       ],
       [
        127.3,
        40.8
       ],
       [
        128.2,
        40.6
       ],
       [
        129.2,
        40
       ],
       [
        127.8,
        39.7
       ],
       [
        127.9,
        39.6
       ],
       [
        127.8,
        39.3
       ],
       [
        128.5,
        39.2
       ],
       [
        129.025,
        38.3
       ],
       [
        130.8057,
        38.3
       ],
       [
        131.5,
        41
       ],
       [
        131,
        42.1
       ],
       [
        131.1569,
        41.7548
       ],
       [
        131.8,
        42.2
       ],
       [
        132.5,
        42.4
       ],
       [
        135,
        43.3
       ],
       [
        137,
        44.5
       ],
       [
        141.5,
        44.5
       ],
       [
        141.5,
        48.5
       ],
       [
        123,
        48.5
       ],
       [
        123,
        47.2
       ]
      ]
     ],
     [
      [
       [
        123.2,
        39
       ],
       [
        123.34,
        38.3
       ],
       [
        124.3125,
        38.3
       ],
       [
        124.3,
        38.4
       ],
       [
        124.6,
        38.6
       ],
       [
        124.5,
        39
       ],
       [
        124.9,
        39.4
       ],
       [
        124,
        39.6
       ],
       [
        124.4,
        40
       ],
       [
        123.6,
        39.5
       ],
       [
        123.2,
        39
       ]
      ]
     ]
    ]
   }
  },
  {
   "type": "Feature",
   "properties": {
    "entityId": "jurchen",
    "from": 1392,
    "to": 1443,
    "certainty": "estimated",
    "source": "중고등학교 한국사 교과서 시대별 지도의 일반적인 경계를 따른 대략적인 추정. 운영자 검수 필요"
   },
   "geometry": {
    "type": "Polygon",
    "coordinates": [
     [
      [
       123,
       47.2
      ],
      [
       125,
       47.2
      ],
      [
       125,
       46.375
      ],
      [
       124.5,
       46
      ],
      [
       123.5,
       44.5
      ],
      [
       123.7,
       43.2
      ],
      [
       124.3,
       42.6
      ],
      [
       125,
       41.8
      ],
      [
       125,
       40.8
      ],
      [
       124.4,
       40
      ],
      [
       125.5,
       40.6
      ],
      [
       126.5,
       40.9
      ],
      [
       127.3,
       40.8
      ],
      [
       128.2,
       40.6
      ],
      [
       129.2,
       40
      ],
      [
       130.2,
       41
      ],
      [
       131,
       42.1
      ],
      [
       131.1569,
       41.7548
      ],
      [
       131.8,
       42.2
      ],
      [
       132.5,
       42.4
      ],
      [
       135,
       43.3
      ],
      [
       137,
       44.5
      ],
      [
       141.5,
       44.5
      ],
      [
       141.5,
       48.5
      ],
      [
       123,
       48.5
      ],
      [
       123,
       47.2
      ]
     ]
    ]
   }
  },
  {
   "type": "Feature",
   "properties": {
    "entityId": "jurchen",
    "from": 1443,
    "to": 1449,
    "certainty": "estimated",
    "source": "중고등학교 한국사 교과서 시대별 지도의 일반적인 경계를 따른 대략적인 추정. 운영자 검수 필요"
   },
   "geometry": {
    "type": "Polygon",
    "coordinates": [
     [
      [
       123,
       47.2
      ],
      [
       125,
       47.2
      ],
      [
       125,
       46.375
      ],
      [
       124.5,
       46
      ],
      [
       123.5,
       44.5
      ],
      [
       123.7,
       43.2
      ],
      [
       124.3,
       42.6
      ],
      [
       125,
       41.8
      ],
      [
       125,
       40.8
      ],
      [
       124.4,
       40
      ],
      [
       125.3,
       40.6
      ],
      [
       126,
       41
      ],
      [
       126.8,
       41.6
      ],
      [
       128.2,
       41.5
      ],
      [
       128.2,
       40.6
      ],
      [
       129.2,
       40
      ],
      [
       130.2,
       41
      ],
      [
       131,
       42.1
      ],
      [
       131.1569,
       41.7548
      ],
      [
       131.8,
       42.2
      ],
      [
       132.5,
       42.4
      ],
      [
       135,
       43.3
      ],
      [
       137,
       44.5
      ],
      [
       141.5,
       44.5
      ],
      [
       141.5,
       48.5
      ],
      [
       123,
       48.5
      ],
      [
       123,
       47.2
      ]
     ]
    ]
   }
  },
  {
   "type": "Feature",
   "properties": {
    "entityId": "jurchen",
    "from": 1449,
    "to": 1616,
    "certainty": "estimated",
    "source": "중고등학교 한국사 교과서 시대별 지도의 일반적인 경계를 따른 대략적인 추정. 운영자 검수 필요"
   },
   "geometry": {
    "type": "Polygon",
    "coordinates": [
     [
      [
       123,
       47.2
      ],
      [
       125,
       47.2
      ],
      [
       125,
       46.375
      ],
      [
       124.5,
       46
      ],
      [
       123.5,
       44.5
      ],
      [
       123.7,
       43.2
      ],
      [
       124.3,
       42.6
      ],
      [
       125,
       41.8
      ],
      [
       125,
       40.8
      ],
      [
       124.4,
       40
      ],
      [
       125.3,
       40.6
      ],
      [
       126,
       41
      ],
      [
       126.8,
       41.6
      ],
      [
       128.2,
       41.5
      ],
      [
       128.9,
       42.05
      ],
      [
       129.7,
       42.45
      ],
      [
       130,
       42.9
      ],
      [
       130.4,
       42.6
      ],
      [
       130.7,
       42.3
      ],
      [
       131,
       42.1
      ],
      [
       131.1569,
       41.7548
      ],
      [
       131.8,
       42.2
      ],
      [
       132.5,
       42.4
      ],
      [
       135,
       43.3
      ],
      [
       137,
       44.5
      ],
      [
       141.5,
       44.5
      ],
      [
       141.5,
       48.5
      ],
      [
       123,
       48.5
      ],
      [
       123,
       47.2
      ]
     ]
    ]
   }
  }
 ]
}
