{"type":"FeatureCollection","features":[
{"type":"Feature","properties":{"entityId":"kakheti-hereti","from":787,"to":1105,"certainty":"estimated","source":"유럽 쪽은 Natural Earth 1:10m admin-1(v5.1.2) 현대 행정구역 조각을 그 시기 국경에 맞춰 묶고, 조각이 역사 경계와 다른 곳은 선을 그어 나눈 근사. 유럽 밖(시베리아·중앙아시아·극동)은 대략적인 추정. 운영자 검수 필요"},"geometry":{"type":"Polygon","coordinates":[[[45.3016,42.5598],[45.3227,42.5301],[45.356,42.52],[45.3986,42.5244],[45.4793,42.5423],[45.5368,42.5414],[45.6207,42.5304],[45.6987,42.5076],[45.7395,42.4706],[45.7364,42.4475],[45.6214,42.2245],[45.6314,42.2012],[45.7018,42.1728],[45.8116,42.1155],[45.8814,42.102],[45.8952,42.0919],[45.9235,42.0396],[45.9476,42.0229],[45.9952,42.0335],[46.0267,42.0168],[46.0585,42.0203],[46.075,41.9935],[46.1299,41.9845],[46.2243,41.9935],[46.2942,41.9386],[46.3226,41.929],[46.3821,41.9252],[46.4309,41.8904],[46.3713,41.8057],[46.3283,41.7664],[46.2978,41.7508],[46.2083,41.7555],[46.189,41.7401],[46.1795,41.7059],[46.18,41.6552],[46.1928,41.6102],[46.2197,41.5933],[46.2539,41.6159],[46.2799,41.5712],[46.2967,41.5104],[46.3139,41.4937],[46.3662,41.4666],[46.3983,41.4587],[46.4451,41.4259],[46.5425,41.395],[46.5916,41.3729],[46.6074,41.345],[46.6298,41.3461],[46.6885,41.2844],[46.6716,41.2365],[46.6445,41.208],[46.6155,41.1087],[46.6018,41.094],[46.5435,41.097],[46.5224,41.087],[46.4968,41.0448],[46.457,41.0524],[46.4127,41.0919],[46.3323,41.1159],[46.2734,41.1563],[46.2286,41.1954],[46.1354,41.1999],[46.0876,41.1837],[46.0174,41.1638],[45.9692,41.1683],[45.8207,41.2088],[45.7703,41.2321],[45.7097,41.2677],[45.6859,41.2962],[45.7081,41.3171],[45.7453,41.3292],[45.7207,41.3424],[45.6556,41.3524],[45.5118,41.3946],[45.4648,41.4302],[45.3812,41.4256],[45.3331,41.4444],[45.3082,41.5113],[45.2896,41.5312],[45.2263,41.5397],[45.2083,41.5486],[45.1956,41.5952],[45.2299,41.6545],[45.2031,41.7401],[45.1855,41.767],[45.1474,41.77],[45.1143,41.788],[45.0662,41.8375],[45.0528,41.867],[45.0214,41.8811],[45.0778,41.9165],[45.1326,41.8898],[45.2129,41.8983],[45.1771,41.9307],[45.0817,41.9479],[45.0723,41.9788],[45.0878,42.0061],[45.0698,42.0377],[45.055,42.1045],[45.0688,42.1277],[45.0842,42.1849],[45.1032,42.2076],[45.1237,42.2581],[45.174,42.2985],[45.2146,42.3063],[45.2236,42.345],[45.2108,42.385],[45.2205,42.4083],[45.2583,42.4485],[45.2552,42.4789],[45.269,42.5242],[45.3016,42.5598]]]}}
]}
