{"type":"FeatureCollection","features":[
{"type":"Feature","properties":{"entityId":"kartli","from":1490,"to":1590,"certainty":"estimated","source":"유럽 쪽은 Natural Earth 1:10m admin-1(v5.1.2) 현대 행정구역 조각을 그 시기 국경에 맞춰 묶고, 조각이 역사 경계와 다른 곳은 선을 그어 나눈 근사. 유럽 밖(시베리아·중앙아시아·극동)은 대략적인 추정. 운영자 검수 필요"},"geometry":{"type":"Polygon","coordinates":[[[43.9082,42.5662],[43.9397,42.5522],[43.9732,42.564],[44.0115,42.6003],[44.0551,42.6153],[44.1508,42.6187],[44.1858,42.6265],[44.2301,42.6538],[44.272,42.7024],[44.3607,42.7038],[44.4014,42.7135],[44.4792,42.7443],[44.5583,42.7531],[44.6388,42.7401],[44.6794,42.7237],[44.7364,42.6776],[44.7611,42.6192],[44.7823,42.6167],[44.7985,42.6717],[44.8337,42.7341],[44.8594,42.7595],[44.903,42.7531],[45.0121,42.6953],[45.0481,42.6859],[45.076,42.6914],[45.123,42.7023],[45.1842,42.6748],[45.2827,42.5864],[45.3016,42.5598],[45.269,42.5242],[45.2552,42.4789],[45.2583,42.4485],[45.2205,42.4083],[45.2108,42.385],[45.2236,42.345],[45.2146,42.3063],[45.174,42.2985],[45.1237,42.2581],[45.1032,42.2076],[45.0842,42.1849],[45.0688,42.1277],[45.055,42.1045],[45.0698,42.0377],[45.0878,42.0061],[45.0723,41.9788],[45.0817,41.9479],[45.1771,41.9307],[45.2129,41.8983],[45.1326,41.8898],[45.0778,41.9165],[45.0214,41.8811],[45.0528,41.867],[45.0662,41.8375],[45.1143,41.788],[45.1474,41.77],[45.1855,41.767],[45.2031,41.7401],[45.2299,41.6545],[45.1956,41.5952],[45.2083,41.5486],[45.2263,41.5397],[45.2896,41.5312],[45.3082,41.5113],[45.3331,41.4444],[45.2817,41.4529],[45.2496,41.4445],[45.0978,41.3499],[45.0024,41.2905],[44.9552,41.2627],[44.9172,41.2618],[44.8207,41.2733],[44.8095,41.2444],[44.8538,41.2235],[44.8215,41.2062],[44.6749,41.2085],[44.6129,41.2231],[44.5914,41.2158],[44.5515,41.177],[44.531,41.1815],[44.5166,41.2068],[44.4549,41.1805],[44.4106,41.1877],[44.3573,41.2122],[44.3085,41.1938],[44.2665,41.1962],[44.191,41.23],[44.1684,41.2236],[44.1601,41.1979],[44.1036,41.1752],[44.0413,41.1826],[43.9782,41.1646],[43.9675,41.2167],[43.9441,41.2471],[43.937,41.2912],[43.9515,41.3354],[43.937,41.3759],[43.9161,41.3858],[43.901,41.466],[43.8474,41.5219],[43.7997,41.5239],[43.7517,41.5148],[43.6727,41.5185],[43.7039,41.5674],[43.7102,41.6674],[43.7331,41.6987],[43.7772,41.6932],[43.8369,41.6951],[43.8862,41.7342],[43.8441,41.7725],[43.739,41.7674],[43.6722,41.7914],[43.6574,41.8179],[43.6266,41.8218],[43.5691,41.8637],[43.5544,41.8938],[43.4541,41.918],[43.4262,41.9166],[43.4335,41.9554],[43.4695,41.9793],[43.4847,42.0151],[43.4889,42.0574],[43.549,42.0963],[43.5807,42.1511],[43.6082,42.1702],[43.6077,42.2281],[43.6159,42.2578],[43.6835,42.2935],[43.7602,42.309],[43.7728,42.374],[43.7501,42.394],[43.6617,42.3743],[43.6228,42.3787],[43.5874,42.3947],[43.669,42.4433],[43.808,42.4515],[43.8271,42.4582],[43.8489,42.4874],[43.9022,42.5156],[43.9082,42.5662]]]}},
{"type":"Feature","properties":{"entityId":"kartli","from":1612,"to":1724,"certainty":"estimated","source":"유럽 쪽은 Natural Earth 1:10m admin-1(v5.1.2) 현대 행정구역 조각을 그 시기 국경에 맞춰 묶고, 조각이 역사 경계와 다른 곳은 선을 그어 나눈 근사. 유럽 밖(시베리아·중앙아시아·극동)은 대략적인 추정. 운영자 검수 필요"},"geometry":{"type":"Polygon","coordinates":[[[43.9082,42.5662],[43.9397,42.5522],[43.9732,42.564],[44.0115,42.6003],[44.0551,42.6153],[44.1508,42.6187],[44.1858,42.6265],[44.2301,42.6538],[44.272,42.7024],[44.3607,42.7038],[44.4014,42.7135],[44.4792,42.7443],[44.5583,42.7531],[44.6388,42.7401],[44.6794,42.7237],[44.7364,42.6776],[44.7611,42.6192],[44.7823,42.6167],[44.7985,42.6717],[44.8337,42.7341],[44.8594,42.7595],[44.903,42.7531],[45.0121,42.6953],[45.0481,42.6859],[45.076,42.6914],[45.123,42.7023],[45.1842,42.6748],[45.2827,42.5864],[45.3016,42.5598],[45.269,42.5242],[45.2552,42.4789],[45.2583,42.4485],[45.2205,42.4083],[45.2108,42.385],[45.2236,42.345],[45.2146,42.3063],[45.174,42.2985],[45.1237,42.2581],[45.1032,42.2076],[45.0842,42.1849],[45.0688,42.1277],[45.055,42.1045],[45.0698,42.0377],[45.0878,42.0061],[45.0723,41.9788],[45.0817,41.9479],[45.1771,41.9307],[45.2129,41.8983],[45.1326,41.8898],[45.0778,41.9165],[45.0214,41.8811],[45.0528,41.867],[45.0662,41.8375],[45.1143,41.788],[45.1474,41.77],[45.1855,41.767],[45.2031,41.7401],[45.2299,41.6545],[45.1956,41.5952],[45.2083,41.5486],[45.2263,41.5397],[45.2896,41.5312],[45.3082,41.5113],[45.3331,41.4444],[45.2817,41.4529],[45.2496,41.4445],[45.0978,41.3499],[45.0024,41.2905],[44.9552,41.2627],[44.9172,41.2618],[44.8207,41.2733],[44.8095,41.2444],[44.8538,41.2235],[44.8215,41.2062],[44.6749,41.2085],[44.6129,41.2231],[44.5914,41.2158],[44.5515,41.177],[44.531,41.1815],[44.5166,41.2068],[44.4549,41.1805],[44.4106,41.1877],[44.3573,41.2122],[44.3085,41.1938],[44.2665,41.1962],[44.191,41.23],[44.1684,41.2236],[44.1601,41.1979],[44.1036,41.1752],[44.0413,41.1826],[43.9782,41.1646],[43.9675,41.2167],[43.9441,41.2471],[43.937,41.2912],[43.9515,41.3354],[43.937,41.3759],[43.9161,41.3858],[43.901,41.466],[43.8474,41.5219],[43.7997,41.5239],[43.7517,41.5148],[43.6727,41.5185],[43.7039,41.5674],[43.7102,41.6674],[43.7331,41.6987],[43.7772,41.6932],[43.8369,41.6951],[43.8862,41.7342],[43.8441,41.7725],[43.739,41.7674],[43.6722,41.7914],[43.6574,41.8179],[43.6266,41.8218],[43.5691,41.8637],[43.5544,41.8938],[43.4541,41.918],[43.4262,41.9166],[43.4335,41.9554],[43.4695,41.9793],[43.4847,42.0151],[43.4889,42.0574],[43.549,42.0963],[43.5807,42.1511],[43.6082,42.1702],[43.6077,42.2281],[43.6159,42.2578],[43.6835,42.2935],[43.7602,42.309],[43.7728,42.374],[43.7501,42.394],[43.6617,42.3743],[43.6228,42.3787],[43.5874,42.3947],[43.669,42.4433],[43.808,42.4515],[43.8271,42.4582],[43.8489,42.4874],[43.9022,42.5156],[43.9082,42.5662]]]}},
{"type":"Feature","properties":{"entityId":"kartli","from":1744,"to":1762,"certainty":"estimated","source":"유럽 쪽은 Natural Earth 1:10m admin-1(v5.1.2) 현대 행정구역 조각을 그 시기 국경에 맞춰 묶고, 조각이 역사 경계와 다른 곳은 선을 그어 나눈 근사. 유럽 밖(시베리아·중앙아시아·극동)은 대략적인 추정. 운영자 검수 필요"},"geometry":{"type":"Polygon","coordinates":[[[43.9082,42.5662],[43.9397,42.5522],[43.9732,42.564],[44.0115,42.6003],[44.0551,42.6153],[44.1508,42.6187],[44.1858,42.6265],[44.2301,42.6538],[44.272,42.7024],[44.3607,42.7038],[44.4014,42.7135],[44.4792,42.7443],[44.5583,42.7531],[44.6388,42.7401],[44.6794,42.7237],[44.7364,42.6776],[44.7611,42.6192],[44.7823,42.6167],[44.7985,42.6717],[44.8337,42.7341],[44.8594,42.7595],[44.903,42.7531],[45.0121,42.6953],[45.0481,42.6859],[45.076,42.6914],[45.123,42.7023],[45.1842,42.6748],[45.2827,42.5864],[45.3016,42.5598],[45.269,42.5242],[45.2552,42.4789],[45.2583,42.4485],[45.2205,42.4083],[45.2108,42.385],[45.2236,42.345],[45.2146,42.3063],[45.174,42.2985],[45.1237,42.2581],[45.1032,42.2076],[45.0842,42.1849],[45.0688,42.1277],[45.055,42.1045],[45.0698,42.0377],[45.0878,42.0061],[45.0723,41.9788],[45.0817,41.9479],[45.1771,41.9307],[45.2129,41.8983],[45.1326,41.8898],[45.0778,41.9165],[45.0214,41.8811],[45.0528,41.867],[45.0662,41.8375],[45.1143,41.788],[45.1474,41.77],[45.1855,41.767],[45.2031,41.7401],[45.2299,41.6545],[45.1956,41.5952],[45.2083,41.5486],[45.2263,41.5397],[45.2896,41.5312],[45.3082,41.5113],[45.3331,41.4444],[45.2817,41.4529],[45.2496,41.4445],[45.0978,41.3499],[45.0024,41.2905],[44.9552,41.2627],[44.9172,41.2618],[44.8207,41.2733],[44.8095,41.2444],[44.8538,41.2235],[44.8215,41.2062],[44.6749,41.2085],[44.6129,41.2231],[44.5914,41.2158],[44.5515,41.177],[44.531,41.1815],[44.5166,41.2068],[44.4549,41.1805],[44.4106,41.1877],[44.3573,41.2122],[44.3085,41.1938],[44.2665,41.1962],[44.191,41.23],[44.1684,41.2236],[44.1601,41.1979],[44.1036,41.1752],[44.0413,41.1826],[43.9782,41.1646],[43.9675,41.2167],[43.9441,41.2471],[43.937,41.2912],[43.9515,41.3354],[43.937,41.3759],[43.9161,41.3858],[43.901,41.466],[43.8474,41.5219],[43.7997,41.5239],[43.7517,41.5148],[43.6727,41.5185],[43.7039,41.5674],[43.7102,41.6674],[43.7331,41.6987],[43.7772,41.6932],[43.8369,41.6951],[43.8862,41.7342],[43.8441,41.7725],[43.739,41.7674],[43.6722,41.7914],[43.6574,41.8179],[43.6266,41.8218],[43.5691,41.8637],[43.5544,41.8938],[43.4541,41.918],[43.4262,41.9166],[43.4335,41.9554],[43.4695,41.9793],[43.4847,42.0151],[43.4889,42.0574],[43.549,42.0963],[43.5807,42.1511],[43.6082,42.1702],[43.6077,42.2281],[43.6159,42.2578],[43.6835,42.2935],[43.7602,42.309],[43.7728,42.374],[43.7501,42.394],[43.6617,42.3743],[43.6228,42.3787],[43.5874,42.3947],[43.669,42.4433],[43.808,42.4515],[43.8271,42.4582],[43.8489,42.4874],[43.9022,42.5156],[43.9082,42.5662]]]}}
]}
