{
 "type": "FeatureCollection",
 "features": [
  {
   "type": "Feature",
   "properties": {
    "entityId": "khitan",
    "from": 388,
    "to": 551,
    "certainty": "estimated",
    "source": "중고등학교 한국사 교과서 시대별 지도의 일반적인 경계를 따른 대략적인 추정. 운영자 검수 필요"
   },
   "geometry": {
    "type": "MultiPolygon",
    "coordinates": [
     [
      [
       [
        118.5,
        41.5
       ],
       [
        121,
        42
       ],
       [
        122.5,
        41.5
       ],
       [
        122.9,
        42.2
       ],
       [
        123.7,
        43.2
       ],
       [
        124.5,
        43.0769
       ],
       [
        124.5,
        43.1667
       ],
       [
        123.5,
        43.5
       ],
       [
        124.3696,
        45.5
       ],
       [
        118.5,
        45.5
       ],
       [
        118.5,
        41.5
       ]
      ]
     ],
     [
      [
       [
        120.5,
        39.5
       ],
       [
        120.9167,
        38.5
       ],
       [
        121,
        38.5
       ],
       [
        120.9,
        39.2
       ],
       [
        121.9,
        40.5
       ],
       [
        120.5,
        39.5
       ]
      ]
     ],
     [
      [
       [
        121,
        38.5
       ],
       [
        123.25,
        38.5
       ],
       [
        123.0952,
        39.0571
       ],
       [
        123,
        39
       ],
       [
        122.5,
        38.6
       ],
       [
        121,
        38.5
       ]
      ]
     ]
    ]
   }
  },
  {
   "type": "Feature",
   "properties": {
    "entityId": "khitan",
    "from": 551,
    "to": 600,
    "certainty": "estimated",
    "source": "중고등학교 한국사 교과서 시대별 지도의 일반적인 경계를 따른 대략적인 추정. 운영자 검수 필요"
   },
   "geometry": {
    "type": "MultiPolygon",
    "coordinates": [
     [
      [
       [
        118.5,
        41.5
       ],
       [
        121,
        42
       ],
       [
        122.5,
        41.5
       ],
       [
        122.9,
        42.2
       ],
       [
        123.7,
        43.2
       ],
       [
        124.5,
        44.0889
       ],
       [
        124.5,
        45.5
       ],
       [
        118.5,
        45.5
       ],
       [
        118.5,
        41.5
       ]
      ]
     ],
     [
      [
       [
        120.5,
        39.5
       ],
       [
        120.9167,
        38.5
       ],
       [
        121,
        38.5
       ],
       [
        120.9,
        39.2
       ],
       [
        121.9,
        40.5
       ],
       [
        120.5,
        39.5
       ]
      ]
     ],
     [
      [
       [
        121,
        38.5
       ],
       [
        123.3,
        38.5
       ],
       [
        123.2,
        39
       ],
       [
        123.2381,
        39.0476
       ],
       [
        123,
        39
       ],
       [
        122.5,
        38.6
       ],
       [
        121,
        38.5
       ]
      ]
     ]
    ]
   }
  },
  {
   "type": "Feature",
   "properties": {
    "entityId": "khitan",
    "from": 600,
    "to": 630,
    "certainty": "estimated",
    "source": "중고등학교 한국사 교과서 시대별 지도의 일반적인 경계를 따른 대략적인 추정. 운영자 검수 필요"
   },
   "geometry": {
    "type": "MultiPolygon",
    "coordinates": [
     [
      [
       [
        118.5,
        41.5
       ],
       [
        121,
        42
       ],
       [
        122.5,
        41.5
       ],
       [
        122.9,
        42.2
       ],
       [
        123.7,
        43.2
       ],
       [
        124.5,
        44.0889
       ],
       [
        124.5,
        45.5
       ],
       [
        119.5,
        45.5
       ],
       [
        120,
        44
       ],
       [
        118.5,
        41.5
       ]
      ]
     ],
     [
      [
       [
        120.5,
        39.5
       ],
       [
        120.9167,
        38.5
       ],
       [
        121,
        38.5
       ],
       [
        120.9,
        39.2
       ],
       [
        121.9,
        40.5
       ],
       [
        120.5,
        39.5
       ]
      ]
     ],
     [
      [
       [
        121,
        38.5
       ],
       [
        123.3,
        38.5
       ],
       [
        123.2,
        39
       ],
       [
        123.2381,
        39.0476
       ],
       [
        123,
        39
       ],
       [
        122.5,
        38.6
       ],
       [
        121,
        38.5
       ]
      ]
     ]
    ]
   }
  },
  {
   "type": "Feature",
   "properties": {
    "entityId": "khitan",
    "from": 630,
    "to": 719,
    "certainty": "estimated",
    "source": "중고등학교 한국사 교과서 시대별 지도의 일반적인 경계를 따른 대략적인 추정. 운영자 검수 필요"
   },
   "geometry": {
    "type": "MultiPolygon",
    "coordinates": [
     [
      [
       [
        118.5,
        41.5
       ],
       [
        121,
        42
       ],
       [
        122.5,
        41.5
       ],
       [
        122.9,
        42.2
       ],
       [
        123.7,
        43.2
       ],
       [
        124.5,
        44.0889
       ],
       [
        124.5,
        45.5
       ],
       [
        118.5,
        45.5
       ],
       [
        118.5,
        41.5
       ]
      ]
     ],
     [
      [
       [
        120.5,
        39.5
       ],
       [
        120.9167,
        38.5
       ],
       [
        121,
        38.5
       ],
       [
        120.9,
        39.2
       ],
       [
        121.9,
        40.5
       ],
       [
        120.5,
        39.5
       ]
      ]
     ],
     [
      [
       [
        121,
        38.5
       ],
       [
        123.3,
        38.5
       ],
       [
        123.2,
        39
       ],
       [
        123.2381,
        39.0476
       ],
       [
        123,
        39
       ],
       [
        122.5,
        38.6
       ],
       [
        121,
        38.5
       ]
      ]
     ]
    ]
   }
  },
  {
   "type": "Feature",
   "properties": {
    "entityId": "khitan",
    "from": 719,
    "to": 818,
    "certainty": "estimated",
    "source": "중고등학교 한국사 교과서 시대별 지도의 일반적인 경계를 따른 대략적인 추정. 운영자 검수 필요"
   },
   "geometry": {
    "type": "MultiPolygon",
    "coordinates": [
     [
      [
       [
        118.5,
        41.5
       ],
       [
        121,
        42
       ],
       [
        122.5,
        41.5
       ],
       [
        122.9,
        42.2
       ],
       [
        123.7,
        43.2
       ],
       [
        123.5,
        44.5
       ],
       [
        124.5,
        45.05
       ],
       [
        124.5,
        45.5
       ],
       [
        118.5,
        45.5
       ],
       [
        118.5,
        41.5
       ]
      ]
     ],
     [
      [
       [
        120.5,
        39.5
       ],
       [
        120.9167,
        38.5
       ],
       [
        121,
        38.5
       ],
       [
        120.9,
        39.2
       ],
       [
        121.9,
        40.5
       ],
       [
        120.5,
        39.5
       ]
      ]
     ],
     [
      [
       [
        121,
        38.5
       ],
       [
        123.3,
        38.5
       ],
       [
        123.2,
        39
       ],
       [
        123.2381,
        39.0476
       ],
       [
        123,
        39
       ],
       [
        122.5,
        38.6
       ],
       [
        121,
        38.5
       ]
      ]
     ]
    ]
   }
  },
  {
   "type": "Feature",
   "properties": {
    "entityId": "khitan",
    "from": 818,
    "to": 907,
    "certainty": "estimated",
    "source": "중고등학교 한국사 교과서 시대별 지도의 일반적인 경계를 따른 대략적인 추정. 운영자 검수 필요"
   },
   "geometry": {
    "type": "MultiPolygon",
    "coordinates": [
     [
      [
       [
        118.5,
        41.5
       ],
       [
        121,
        42
       ],
       [
        122.5,
        41.5
       ],
       [
        122.9,
        42.2
       ],
       [
        123.7,
        43.2
       ],
       [
        123.5,
        44.5
       ],
       [
        124.1667,
        45.5
       ],
       [
        118.5,
        45.5
       ],
       [
        118.5,
        41.5
       ]
      ]
     ],
     [
      [
       [
        120.5,
        39.5
       ],
       [
        120.9167,
        38.5
       ],
       [
        121,
        38.5
       ],
       [
        120.9,
        39.2
       ],
       [
        121.9,
        40.5
       ],
       [
        120.5,
        39.5
       ]
      ]
     ],
     [
      [
       [
        121,
        38.5
       ],
       [
        123.3,
        38.5
       ],
       [
        123.2,
        39
       ],
       [
        123.2381,
        39.0476
       ],
       [
        123,
        39
       ],
       [
        122.5,
        38.6
       ],
       [
        121,
        38.5
       ]
      ]
     ]
    ]
   }
  },
  {
   "type": "Feature",
   "properties": {
    "entityId": "khitan",
    "from": 907,
    "to": 916,
    "certainty": "estimated",
    "source": "중고등학교 한국사 교과서 시대별 지도의 일반적인 경계를 따른 대략적인 추정. 운영자 검수 필요"
   },
   "geometry": {
    "type": "MultiPolygon",
    "coordinates": [
     [
      [
       [
        118.5,
        41.2
       ],
       [
        122.3846,
        41.2
       ],
       [
        122.5,
        41.5
       ],
       [
        122.9,
        42.2
       ],
       [
        123.7,
        43.2
       ],
       [
        123.5,
        44.5
       ],
       [
        124.1667,
        45.5
       ],
       [
        118.5,
        45.5
       ],
       [
        118.5,
        41.2
       ]
      ]
     ],
     [
      [
       [
        120.5,
        39.5
       ],
       [
        120.9167,
        38.5
       ],
       [
        121,
        38.5
       ],
       [
        120.9,
        39.2
       ],
       [
        121.9,
        40.5
       ],
       [
        120.5,
        39.5
       ]
      ]
     ],
     [
      [
       [
        121,
        38.5
       ],
       [
        123.3,
        38.5
       ],
       [
        123.2,
        39
       ],
       [
        123.2381,
        39.0476
       ],
       [
        123,
        39
       ],
       [
        122.5,
        38.6
       ],
       [
        121,
        38.5
       ]
      ]
     ]
    ]
   }
  }
 ]
}
