{"type":"FeatureCollection","features":[
{"type":"Feature","properties":{"entityId":"knights-hospitaller","from":1310,"to":1522,"certainty":"estimated","source":"유럽 쪽은 Natural Earth 1:10m admin-1(v5.1.2) 현대 행정구역 조각을 그 시기 국경에 맞춰 묶고, 조각이 역사 경계와 다른 곳은 선을 그어 나눈 근사. 유럽 밖(시베리아·중앙아시아·극동)은 대략적인 추정. 운영자 검수 필요"},"geometry":{"type":"MultiPolygon","coordinates":[[[[26.266,36.5479],[26.301,36.5133],[26.3253,36.5145],[26.3323,36.5103],[26.3324,36.5104],[26.3327,36.5103],[26.3374,36.515],[26.3495,36.5156],[26.3491,36.5267],[26.3831,36.5607],[26.4623,36.585],[26.462,36.5853],[26.4623,36.5854],[26.4536,36.5938],[26.4595,36.5967],[26.4358,36.6109],[26.4227,36.6236],[26.4074,36.628],[26.3933,36.6365],[26.3752,36.6373],[26.3687,36.6392],[26.3688,36.6391],[26.3683,36.6392],[26.3685,36.6387],[26.3683,36.6388],[26.3689,36.6376],[26.3622,36.6379],[26.3725,36.6297],[26.3826,36.6078],[26.336,36.5803],[26.3132,36.5858],[26.2948,36.5966],[26.2664,36.5959],[26.266,36.5479]]],[[[26.8856,37.0756],[26.9246,37.0351],[26.9282,37.0361],[26.937,37.0243],[26.9286,36.9867],[26.9253,36.9817],[26.9267,36.9784],[26.9218,36.9567],[26.9116,36.9458],[26.9451,36.9259],[26.9834,36.9295],[26.9934,36.9526],[27.0236,36.945],[27.0413,36.9669],[27.0413,36.9994],[27.0419,37.0016],[27.0418,37.0016],[27.0419,37.002],[27.0413,37.0022],[27.0413,37.0079],[27.0117,37.0148],[26.9765,37.0439],[26.986,37.0488],[26.9406,37.0641],[26.8907,37.0871],[26.8909,37.0868],[26.8903,37.0871],[26.8908,37.0865],[26.8903,37.0867],[26.8977,37.0769],[26.8856,37.0756]]],[[[26.9177,36.7161],[26.9373,36.6928],[26.9729,36.6789],[26.9657,36.7056],[26.986,36.7199],[26.9758,36.7408],[27.0388,36.771],[27.0584,36.7721],[27.1091,36.7583],[27.1299,36.7608],[27.1499,36.7777],[27.1931,36.8089],[27.2633,36.8351],[27.3234,36.8487],[27.3558,36.8632],[27.341,36.8819],[27.2998,36.8901],[27.2898,36.8944],[27.2809,36.9079],[27.2451,36.9028],[27.2143,36.8996],[27.2091,36.8976],[27.1642,36.8912],[27.0771,36.8473],[27.0595,36.8406],[26.9626,36.7794],[26.9588,36.7813],[26.9263,36.7656],[26.9195,36.7266],[26.9191,36.726],[26.9194,36.726],[26.9191,36.7256],[26.9194,36.7256],[26.9177,36.7161]]],[[[27.0679,35.5889],[27.0786,35.5818],[27.1089,35.5256],[27.1089,35.5207],[27.1139,35.5014],[27.1003,35.4606],[27.093,35.4519],[27.1089,35.4313],[27.1247,35.4262],[27.1387,35.4097],[27.1389,35.4099],[27.1391,35.4097],[27.1455,35.4196],[27.1581,35.4156],[27.1609,35.4433],[27.1677,35.4538],[27.1941,35.4698],[27.2172,35.4754],[27.2324,35.4722],[27.2326,35.4791],[27.2327,35.4791],[27.2326,35.4795],[27.2327,35.4795],[27.2326,35.4798],[27.2332,35.5041],[27.2222,35.5126],[27.2157,35.5334],[27.2209,35.551],[27.1846,35.5958],[27.1782,35.5998],[27.1594,35.6257],[27.1598,35.633],[27.2075,35.7135],[27.2077,35.7151],[27.2188,35.7261],[27.2158,35.7758],[27.2186,35.7968],[27.2324,35.8223],[27.2051,35.8223],[27.1875,35.8042],[27.1816,35.8012],[27.1567,35.8012],[27.1578,35.7891],[27.1567,35.7885],[27.1567,35.7278],[27.1559,35.7248],[27.1465,35.7108],[27.1279,35.6933],[27.124,35.6774],[27.0875,35.6232],[27.0767,35.6158],[27.0712,35.5989],[27.0703,35.5976],[27.0704,35.5974],[27.0703,35.5972],[27.0705,35.5968],[27.0679,35.5889]]],[[[27.6843,36.1581],[27.7136,36.1398],[27.7088,36.1271],[27.7422,36.0976],[27.7563,36.0722],[27.7558,36.0644],[27.7147,35.9569],[27.7148,35.9568],[27.7147,35.9565],[27.7152,35.9559],[27.7123,35.9527],[27.7393,35.9132],[27.7804,35.89],[27.8274,35.9138],[27.8635,35.941],[27.8862,35.9688],[27.9655,36.0452],[27.9684,36.047],[28.0633,36.0618],[28.0896,36.0551],[28.0831,36.0649],[28.0895,36.0659],[28.0894,36.0663],[28.0895,36.0663],[28.0831,36.0854],[28.0964,36.1035],[28.0742,36.1118],[28.0687,36.1281],[28.0734,36.1359],[28.1203,36.1855],[28.1305,36.1855],[28.1685,36.2498],[28.1701,36.2592],[28.2036,36.321],[28.2051,36.3227],[28.2054,36.3244],[28.2294,36.3688],[28.2363,36.373],[28.2313,36.3945],[28.233,36.4255],[28.2398,36.4325],[28.2139,36.4555],[28.1871,36.4278],[28.1719,36.4257],[28.1702,36.4252],[28.1184,36.4277],[27.9835,36.3676],[27.9127,36.3458],[27.9082,36.3426],[27.8997,36.3402],[27.8841,36.3254],[27.8155,36.2764],[27.8152,36.2759],[27.8079,36.2742],[27.7804,36.2326],[27.7759,36.2139],[27.7147,36.1722],[27.7147,36.1719],[27.6843,36.1581]]],[[[27.76,36.5759],[27.7949,36.5759],[27.8,36.5713],[27.7925,36.567],[27.8122,36.5604],[27.8371,36.5381],[27.8373,36.5383],[27.8375,36.5381],[27.8439,36.5428],[27.8283,36.528],[27.8767,36.5411],[27.8699,36.5895],[27.8699,36.6243],[27.8697,36.6242],[27.8627,36.6409],[27.8623,36.6408],[27.8623,36.6409],[27.8453,36.6374],[27.861,36.6467],[27.8181,36.634],[27.7985,36.6144],[27.7867,36.6079],[27.7867,36.6026],[27.76,36.5759]]]]}}
]}
