{
 "type": "FeatureCollection",
 "features": [
  {
   "type": "Feature",
   "properties": {
    "entityId": "later-yan",
    "from": 385,
    "to": 397,
    "certainty": "estimated",
    "source": "중고등학교 한국사 교과서 시대별 지도의 일반적인 경계를 따른 대략적인 추정. 운영자 검수 필요"
   },
   "geometry": {
    "type": "Polygon",
    "coordinates": [
     [
      [
       113,
       34.5
      ],
      [
       119.5,
       34.5
      ],
      [
       122.0195,
       37.7393
      ],
      [
       121,
       38.3
      ],
      [
       120.5,
       39.5
      ],
      [
       121.9,
       40.5
      ],
      [
       120.9,
       39.2
      ],
      [
       121,
       38.5
      ],
      [
       122.5,
       38.6
      ],
      [
       123,
       39
      ],
      [
       124,
       39.6
      ],
      [
       124.4,
       40
      ],
      [
       125,
       40.8
      ],
      [
       125,
       41.8
      ],
      [
       124.3,
       42.6
      ],
      [
       123.7,
       43.2
      ],
      [
       122.9,
       42.2
      ],
      [
       122.5,
       41.5
      ],
      [
       121,
       42
      ],
      [
       118.5,
       41.5
      ],
      [
       116,
       41.2
      ],
      [
       113.5,
       41
      ],
      [
       113,
       41
      ],
      [
       113,
       34.5
      ]
     ]
    ]
   }
  },
  {
   "type": "Feature",
   "properties": {
    "entityId": "later-yan",
    "from": 397,
    "to": 405,
    "certainty": "estimated",
    "source": "중고등학교 한국사 교과서 시대별 지도의 일반적인 경계를 따른 대략적인 추정. 운영자 검수 필요"
   },
   "geometry": {
    "type": "Polygon",
    "coordinates": [
     [
      [
       118.5,
       39.3
      ],
      [
       120.5833,
       39.3
      ],
      [
       120.5,
       39.5
      ],
      [
       121.9,
       40.5
      ],
      [
       120.9,
       39.2
      ],
      [
       121,
       38.5
      ],
      [
       122.5,
       38.6
      ],
      [
       123,
       39
      ],
      [
       124,
       39.6
      ],
      [
       124.4,
       40
      ],
      [
       125,
       40.8
      ],
      [
       125,
       41.8
      ],
      [
       124.3,
       42.6
      ],
      [
       123.7,
       43.2
      ],
      [
       122.9,
       42.2
      ],
      [
       122.5,
       41.5
      ],
      [
       121,
       42
      ],
      [
       118.5,
       41.5
      ],
      [
       118.5,
       39.3
      ]
     ]
    ]
   }
  },
  {
   "type": "Feature",
   "properties": {
    "entityId": "later-yan",
    "from": 405,
    "to": 407,
    "certainty": "estimated",
    "source": "중고등학교 한국사 교과서 시대별 지도의 일반적인 경계를 따른 대략적인 추정. 운영자 검수 필요"
   },
   "geometry": {
    "type": "Polygon",
    "coordinates": [
     [
      [
       118.5,
       39.3
      ],
      [
       120.5833,
       39.3
      ],
      [
       120.5,
       39.5
      ],
      [
       121.9,
       40.5
      ],
      [
       122.25,
       40.85
      ],
      [
       122.5,
       41.5
      ],
      [
       121,
       42
      ],
      [
       118.5,
       41.5
      ],
      [
       118.5,
       39.3
      ]
     ]
    ]
   }
  }
 ]
}
