{"type":"FeatureCollection","features":[
{"type":"Feature","properties":{"entityId":"latin-empire","from":1204,"to":1205,"certainty":"estimated","source":"유럽 쪽은 Natural Earth 1:10m admin-1(v5.1.2) 현대 행정구역 조각을 그 시기 국경에 맞춰 묶고, 조각이 역사 경계와 다른 곳은 선을 그어 나눈 근사. 유럽 밖(시베리아·중앙아시아·극동)은 대략적인 추정. 운영자 검수 필요"},"geometry":{"type":"MultiPolygon","coordinates":[[[[23.7625,41.9399],[23.7896,41.906],[23.7957,41.8609],[23.8217,41.8238],[23.8682,41.7954],[23.9055,41.7965],[23.9282,41.769],[24.042,41.7104],[24.0726,41.6863],[24.1231,41.6546],[24.0779,41.624],[24.1977,41.5477],[24.2507,41.5635],[24.2864,41.5404],[24.2868,41.5176],[24.3539,41.5191],[24.4388,41.5277],[24.4592,41.5495],[24.5102,41.5617],[24.5309,41.5475],[24.5494,41.4854],[24.5811,41.4602],[24.5958,41.4298],[24.6443,41.4277],[24.6382,41.4177],[24.6471,41.4172],[24.65,41.4],[24.7,41.25],[24.75,41.15],[24.8,41.08],[24.82,40.95],[24.8342,40.8791],[24.9548,40.9411],[24.9555,40.9411],[25.4467,40.852],[25.8819,40.8314],[25.8922,40.8264],[25.9729,40.7875],[25.9901,40.7792],[26.0119,40.7687],[26.019,40.757],[26.0222,40.7517],[26.0371,40.7271],[26.0391,40.7241],[26.0491,40.7089],[26.0443,40.6171],[26.0443,40.6167],[26.0588,40.5951],[26.1343,40.483],[26.1531,40.455],[26.172,40.4269],[26.2097,40.3709],[26.2323,40.3372],[26.21,40.3219],[26.2181,40.2969],[26.2531,40.2689],[26.2531,40.2479],[26.2602,40.2031],[26.247,40.1808],[26.2147,40.1461],[26.1902,40.0942],[26.1575,40.0553],[26.1776,40.0507],[26.2306,40.0649],[26.2731,40.0926],[26.328,40.1187],[26.3758,40.1535],[26.3702,40.1593],[26.3992,40.178],[26.3963,40.1728],[26.3982,40.164],[26.44,40.21],[26.52,40.27],[26.62,40.33],[26.69,40.38],[26.7534,40.403],[26.7477,40.4032],[26.9017,40.5028],[26.9481,40.5328],[26.9944,40.5627],[27.0423,40.5937],[27.087,40.6131],[27.1152,40.6137],[27.1777,40.6326],[27.1983,40.6531],[27.2879,40.7036],[27.31,40.7332],[27.35,40.7686],[27.4,40.8128],[27.4248,40.8313],[27.4465,40.8617],[27.4519,40.8789],[27.6063,40.9908],[27.6754,41.0019],[27.7819,41.0069],[27.8153,41.0026],[27.8607,40.9785],[27.9413,40.9711],[27.9826,41.0161],[27.9833,41.0164],[28.0974,41.0218],[28.1548,41.0245],[28.1835,41.0258],[28.2121,41.0272],[28.4416,41.0379],[28.4607,41.0329],[28.5125,40.9927],[28.5414,40.9896],[28.5603,41.0123],[28.5608,41.0175],[28.6034,41.009],[28.5952,40.978],[28.6253,40.9684],[28.7453,40.9802],[28.822,40.9616],[28.8499,40.9753],[28.8993,40.9843],[28.9353,41.004],[28.946,41.0061],[28.9819,41.0017],[28.9973,41.0399],[29.0422,41.0664],[29.0706,41.1302],[29.0408,41.1643],[29.0693,41.1747],[29.0999,41.2104],[29.1092,41.2353],[29.0452,41.2564],[29.032,41.2449],[28.9576,41.2579],[28.9895,41.3005],[28.9893,41.3006],[28.9895,41.3009],[28.4778,41.489],[28.3499,41.536],[28.286,41.5595],[28.254,41.5712],[28.222,41.583],[28.165,41.6039],[28.1523,41.6086],[28.1448,41.6174],[28.1,41.6702],[28.0883,41.7082],[28.0324,41.8897],[28.0449,41.8902],[28.0168,41.9726],[28.0191,42.0085],[27.9873,42.0517],[27.9866,42.0721],[27.9578,42.0943],[27.944,42.1008],[27.6756,42.5786],[27.7148,42.6556],[27.7395,42.6611],[27.7248,42.6752],[27.729,42.6835],[27.7547,42.7061],[27.7925,42.7122],[27.8411,42.7083],[27.8923,42.7105],[27.8949,42.75],[27.55,42.75],[27.45,42.62],[27.35,42.5],[27.45,42.42],[27.6,42.17],[27.7451,41.9596],[27.724,41.9676],[27.6871,41.9686],[27.6093,41.9535],[27.5508,41.9242],[27.5464,41.9012],[27.4943,41.9428],[27.4208,41.9737],[27.3748,42.0087],[27.3325,42.0574],[27.2734,42.0917],[27.2382,42.0979],[27.2038,42.0881],[27.1738,42.0571],[27.1161,42.0618],[27.0837,42.0784],[27.0479,42.0829],[27.0226,42.0739],[27.0004,42.0428],[26.9672,42.0285],[26.9389,41.9962],[26.8903,41.9854],[26.8608,41.9879],[26.8379,41.9752],[26.8194,41.9657],[26.7806,41.9834],[26.7367,41.959],[26.6236,41.969],[26.5895,41.9588],[26.5471,41.9269],[26.5598,41.9073],[26.5529,41.8816],[26.5307,41.8723],[26.4803,41.8939],[26.46,41.9115],[26.4616,41.9493],[26.4373,41.9742],[26.403,41.9799],[26.3668,41.9407],[26.3504,41.9876],[26.3201,42.0046],[26.2285,42.0135],[26.1428,42.0457],[26.057,42.0196],[25.9498,42.1081],[25.87,42.1273],[25.8035,42.0783],[25.7566,42.0615],[25.7329,42.0864],[25.6637,42.1358],[25.6326,42.1246],[25.6076,42.13],[25.6226,42.1455],[25.623,42.1802],[25.5889,42.1927],[25.5405,42.1673],[25.5068,42.1763],[25.4739,42.1665],[25.4498,42.0987],[25.3982,42.1131],[25.3295,42.1245],[25.3045,42.1516],[25.2356,42.1768],[25.1822,42.1683],[25.1674,42.144],[25.1529,42.1605],[25.088,42.188],[25.0731,42.229],[25.0858,42.2632],[25.1491,42.2862],[25.1158,42.3413],[25.1084,42.4011],[25.1364,42.4159],[25.1911,42.4025],[25.1974,42.4169],[25.1563,42.4541],[25.1759,42.4895],[25.1595,42.5097],[25.0816,42.5025],[25.026,42.5413],[25.0187,42.5767],[24.9944,42.617],[25.0229,42.6416],[25.0064,42.7131],[25.0115,42.7483],[25.0112,42.7585],[24.98,42.7532],[24.9662,42.7321],[24.9247,42.714],[24.8787,42.7102],[24.8277,42.719],[24.7751,42.7191],[24.752,42.7094],[24.704,42.7167],[24.6644,42.7425],[24.6307,42.7753],[24.5853,42.7886],[24.5,42.792],[24.4376,42.7517],[24.3967,42.7549],[24.3602,42.7074],[24.3731,42.6617],[24.4163,42.645],[24.4472,42.6126],[24.473,42.5993],[24.4683,42.5771],[24.4418,42.5632],[24.4082,42.5621],[24.3504,42.5652],[24.3018,42.588],[24.285,42.6213],[24.2289,42.6297],[24.1575,42.6107],[24.1296,42.5816],[24.0815,42.5729],[24.0347,42.5534],[23.9614,42.5793],[23.904,42.5695],[23.8981,42.547],[23.9214,42.5075],[23.9881,42.4587],[24.0387,42.4649],[24.0547,42.445],[24.0384,42.408],[23.9594,42.3923],[23.9415,42.3468],[23.9741,42.2833],[23.9581,42.268],[23.9125,42.296],[23.8885,42.2907],[23.8806,42.2615],[23.8481,42.2257],[23.8009,42.2113],[23.7957,42.1887],[23.7631,42.1776],[23.7726,42.1582],[23.8096,42.1329],[23.8133,42.0962],[23.8013,42.0627],[23.8205,42.0453],[23.7919,42.0207],[23.7666,41.9765],[23.7625,41.9399]]],[[[25.0334,39.9953],[25.0454,39.9847],[25.047,39.9475],[25.0605,39.9305],[25.0646,39.9115],[25.047,39.8655],[25.062,39.8601],[25.0615,39.8525],[25.0615,39.8522],[25.047,39.8376],[25.0771,39.8458],[25.1263,39.8261],[25.1267,39.8261],[25.1522,39.8276],[25.1432,39.8171],[25.2145,39.8034],[25.2145,39.8247],[25.1978,39.8439],[25.2023,39.8487],[25.2195,39.8833],[25.2251,39.8854],[25.2211,39.8865],[25.2239,39.8921],[25.2487,39.8938],[25.2511,39.8674],[25.2388,39.8581],[25.2535,39.8503],[25.2631,39.8226],[25.2991,39.8053],[25.2995,39.8053],[25.3014,39.8054],[25.349,39.7877],[25.3685,39.8245],[25.3614,39.8329],[25.3715,39.8903],[25.3852,39.9183],[25.3889,39.9195],[25.3882,39.9246],[25.4003,39.9493],[25.4343,39.9804],[25.4499,39.9884],[25.443,40.0064],[25.4507,40.0344],[25.4506,40.0344],[25.4507,40.0348],[25.4503,40.0347],[25.4503,40.0348],[25.448,40.0342],[25.4499,40.0362],[25.4371,40.0315],[25.4016,40.0225],[25.3821,40.0225],[25.3769,40.0163],[25.3747,40.0157],[25.3495,39.9845],[25.2941,39.9607],[25.2871,39.9611],[25.2473,40.0024],[25.2251,40.0089],[25.2021,40.0044],[25.1434,40.0026],[25.1323,40.0089],[25.0711,40.0005],[25.0579,40.0001],[25.0575,39.9986],[25.0334,39.9953]]],[[[25.6633,40.1262],[25.7212,40.1048],[25.766,40.0972],[25.8563,40.1079],[25.9004,40.1227],[25.9678,40.1308],[26.0122,40.1461],[26.0122,40.1666],[25.9729,40.1532],[25.9728,40.1584],[25.9763,40.1785],[25.9762,40.1786],[25.9763,40.1789],[25.9725,40.1828],[25.9719,40.2211],[25.9382,40.2416],[25.9133,40.2413],[25.8947,40.236],[25.8751,40.2344],[25.7983,40.2124],[25.759,40.2067],[25.719,40.1872],[25.6862,40.1608],[25.6633,40.1262]]],[[[25.8328,38.5441],[25.8433,38.5153],[25.8498,38.5095],[25.8499,38.5085],[25.8641,38.4968],[25.8898,38.4739],[25.8927,38.4732],[25.9543,38.4223],[25.9507,38.4057],[25.9699,38.3981],[25.9902,38.3542],[25.9779,38.3381],[25.9756,38.3372],[25.9744,38.3335],[25.9509,38.3026],[25.9343,38.3026],[25.8859,38.2819],[25.8757,38.2695],[25.8751,38.2693],[25.8753,38.2691],[25.8751,38.2689],[25.8675,38.2597],[25.8894,38.2482],[25.8898,38.2476],[25.8898,38.2206],[25.9104,38.227],[25.9341,38.1955],[25.9749,38.166],[26.0098,38.1567],[26.0235,38.1764],[26.0908,38.216],[26.1121,38.2226],[26.105,38.2508],[26.1088,38.2748],[26.1115,38.2803],[26.1392,38.2936],[26.1636,38.3026],[26.1552,38.3277],[26.1498,38.4532],[26.1541,38.4673],[26.1482,38.471],[26.142,38.4861],[26.1442,38.4929],[26.1444,38.4929],[26.1636,38.5428],[26.1307,38.5672],[26.1104,38.5452],[26.1095,38.5453],[26.1014,38.5501],[26.064,38.59],[26.0173,38.5997],[26.0123,38.6026],[26.012,38.6025],[26.0119,38.6026],[26.0071,38.6018],[25.9954,38.6042],[25.8489,38.5804],[25.8464,38.5748],[25.8463,38.5748],[25.8463,38.5746],[25.8328,38.5441]]],[[[25.8346,39.1796],[25.8889,39.1447],[25.9583,39.1177],[26.043,39.0932],[26.0828,39.0952],[26.1424,39.1557],[26.1504,39.1682],[26.1779,39.1942],[26.2731,39.1975],[26.2737,39.1969],[26.2459,39.1651],[26.1234,39.0904],[26.0879,39.0834],[26.1549,39.0309],[26.1595,39.0258],[26.1621,39.0252],[26.1657,39.0224],[26.176,39.0221],[26.329,38.9875],[26.3394,38.9829],[26.4242,38.9674],[26.4893,38.9726],[26.5471,38.9879],[26.5471,38.994],[26.5487,38.9945],[26.5484,38.9948],[26.5487,38.9949],[26.5471,38.9961],[26.5471,39.009],[26.492,39.0629],[26.4913,39.0634],[26.4877,39.0743],[26.5238,39.0656],[26.5193,39.0363],[26.5514,39.015],[26.5974,39.0119],[26.6123,39.0493],[26.5902,39.0668],[26.5775,39.1095],[26.5365,39.1643],[26.5397,39.166],[26.5321,39.1701],[26.5307,39.172],[26.492,39.2],[26.4707,39.2252],[26.4376,39.2394],[26.394,39.2709],[26.3999,39.2905],[26.4617,39.2438],[26.5101,39.2072],[26.5584,39.1707],[26.5634,39.1669],[26.6421,39.1074],[26.6815,39.0776],[26.7208,39.0479],[26.7208,39.1074],[26.6815,39.1074],[26.6815,39.1372],[26.6421,39.1372],[26.6421,39.1669],[26.6396,39.1669],[26.6396,39.1967],[26.599,39.1967],[26.599,39.2264],[26.5584,39.2264],[26.5584,39.2619],[26.5101,39.2619],[26.5101,39.3987],[26.4617,39.3987],[26.4617,39.4375],[26.365,39.4375],[26.365,39.4205],[26.2683,39.4205],[26.2683,39.4364],[26.22,39.4364],[26.22,39.4265],[26.2683,39.39],[26.2795,39.3815],[26.1636,39.3789],[26.1661,39.3666],[26.1631,39.3317],[26.1177,39.315],[26.094,39.3105],[26.0796,39.3014],[26.056,39.2941],[26.0469,39.3032],[26.0368,39.2881],[26.0263,39.2848],[26.0147,39.2852],[26.0062,39.2863],[26.001,39.2856],[25.9296,39.2877],[25.9241,39.2969],[25.8587,39.2592],[25.8493,39.2084],[25.8427,39.1998],[25.8428,39.1996],[25.8427,39.1994],[25.8466,39.1937],[25.846,39.1904],[25.8346,39.1796]]],[[[25.9763,37.516],[26.0579,37.5192],[26.1104,37.5466],[26.2067,37.5675],[26.2073,37.5679],[26.2306,37.5714],[26.3191,37.6343],[26.3622,37.6863],[26.2808,37.6754],[26.255,37.6527],[26.2099,37.6391],[26.1104,37.6363],[26.0742,37.6379],[26.042,37.617],[26.0166,37.5809],[25.9975,37.5662],[25.9959,37.5617],[25.9797,37.5487],[25.9763,37.516]]],[[[26.5803,37.7408],[26.5828,37.7263],[26.5807,37.7242],[26.581,37.7241],[26.5807,37.7238],[26.5834,37.7226],[26.5895,37.6871],[26.6229,37.6789],[26.6572,37.7049],[26.6704,37.7071],[26.7211,37.7047],[26.7714,37.669],[26.7874,37.6472],[26.8412,37.6444],[26.8435,37.6439],[26.8436,37.644],[26.8439,37.6439],[26.8447,37.6442],[26.8609,37.6434],[26.8873,37.662],[26.9735,37.698],[26.9791,37.6998],[26.986,37.7007],[27.0048,37.6863],[27.0048,37.7066],[27.0306,37.7066],[27.0591,37.7067],[27.0591,37.6897],[27.0876,37.6892],[27.0876,37.7157],[27.1161,37.7157],[27.1161,37.7428],[27.1445,37.7428],[27.1445,37.7753],[27.173,37.7753],[27.173,37.8025],[27.1477,37.8025],[27.1477,37.8324],[27.1185,37.8324],[27.1185,37.8922],[27.0306,37.8922],[27.0306,37.922],[26.7964,37.922],[26.7964,37.9377],[26.6768,37.9377],[26.6768,37.9356],[26.7366,37.8901],[26.7964,37.8447],[26.8476,37.8058],[26.8421,37.8091],[26.8297,37.81],[26.8259,37.811],[26.8255,37.811],[26.8178,37.8108],[26.7718,37.8141],[26.746,37.8093],[26.7427,37.8092],[26.7356,37.8073],[26.6581,37.7928],[26.6529,37.7854],[26.6383,37.7815],[26.6248,37.7681],[26.595,37.7614],[26.5803,37.7408]]],[[[28.7742,40.5228],[28.8226,40.5141],[28.8397,40.5041],[28.8415,40.5031],[28.8435,40.5024],[28.8397,40.4955],[28.8255,40.4698],[28.8199,40.4597],[28.8008,40.4592],[28.8008,40.4441],[28.8397,40.4441],[28.8397,40.4416],[28.9177,40.4416],[28.9177,40.4182],[28.9956,40.4182],[28.9956,40.4732],[28.9803,40.4645],[28.978,40.5732],[29.0475,40.5602],[29.0784,40.5632],[29.2305,40.5116],[29.2939,40.5222],[29.3581,40.5729],[29.4207,40.5632],[29.4771,40.5498],[29.5353,40.5524],[29.7204,40.6043],[29.7889,40.6147],[29.9262,40.577],[29.9957,40.5818],[30.0589,40.6055],[30.125,40.617],[30.183,40.6463],[30.2239,40.7086],[30.264,40.8572],[30.3289,40.9103],[30.3031,40.9193],[30.2949,40.9411],[30.3129,40.9501],[30.3849,40.9317],[30.4592,40.9357],[30.4653,40.9694],[30.488,41.0003],[30.4829,41.0329],[30.4099,41.0433],[30.3921,41.0941],[30.4293,41.1706],[30.37,41.1813],[30.3424,41.1975],[30.3367,41.2008],[30.2713,41.2112],[30.2424,41.1865],[30.0394,41.1643],[30.0277,41.1651],[29.9204,41.1726],[29.8936,41.1744],[29.8667,41.1763],[29.813,41.18],[29.5476,41.1984],[29.3836,41.2194],[29.2318,41.2407],[29.2062,41.2292],[29.1697,41.2331],[29.1301,41.2119],[29.0975,41.1803],[29.0935,41.1771],[29.0932,41.1761],[29.0782,41.1616],[29.0691,41.1528],[29.0769,41.1485],[29.0828,41.1452],[29.0683,41.1024],[29.0625,41.0767],[29.0623,41.0763],[29.0261,41.0383],[29.0114,41.0321],[29.0076,41.0305],[29.0087,41.028],[29.0281,40.9821],[29.0832,40.9597],[29.093,40.9524],[29.0168,40.815],[28.9915,40.7692],[28.8952,40.5955],[28.8781,40.5859],[28.8268,40.5706],[28.7927,40.5533],[28.7742,40.5228]]]]}},
{"type":"Feature","properties":{"entityId":"latin-empire","from":1205,"to":1225,"certainty":"estimated","source":"유럽 쪽은 Natural Earth 1:10m admin-1(v5.1.2) 현대 행정구역 조각을 그 시기 국경에 맞춰 묶고, 조각이 역사 경계와 다른 곳은 선을 그어 나눈 근사. 유럽 밖(시베리아·중앙아시아·극동)은 대략적인 추정. 운영자 검수 필요"},"geometry":{"type":"MultiPolygon","coordinates":[[[[24.6471,41.4172],[24.65,41.4],[24.7,41.25],[24.75,41.15],[24.8,41.08],[24.82,40.95],[24.8342,40.8791],[24.9548,40.9411],[24.9555,40.9411],[25.4467,40.852],[25.8819,40.8314],[25.8922,40.8264],[25.9729,40.7875],[25.9901,40.7792],[26.0119,40.7687],[26.019,40.757],[26.0222,40.7517],[26.0371,40.7271],[26.0391,40.7241],[26.0491,40.7089],[26.0443,40.6171],[26.0443,40.6167],[26.0588,40.5951],[26.1343,40.483],[26.1531,40.455],[26.172,40.4269],[26.2097,40.3709],[26.2323,40.3372],[26.21,40.3219],[26.2181,40.2969],[26.2531,40.2689],[26.2531,40.2479],[26.2602,40.2031],[26.247,40.1808],[26.2147,40.1461],[26.1902,40.0942],[26.1575,40.0553],[26.1776,40.0507],[26.2306,40.0649],[26.2731,40.0926],[26.328,40.1187],[26.3758,40.1535],[26.3702,40.1593],[26.3992,40.178],[26.3963,40.1728],[26.3982,40.164],[26.44,40.21],[26.52,40.27],[26.62,40.33],[26.69,40.38],[26.7534,40.403],[26.7477,40.4032],[26.9017,40.5028],[26.9481,40.5328],[26.9944,40.5627],[27.0423,40.5937],[27.087,40.6131],[27.1152,40.6137],[27.1777,40.6326],[27.1983,40.6531],[27.2879,40.7036],[27.31,40.7332],[27.35,40.7686],[27.4,40.8128],[27.4248,40.8313],[27.4465,40.8617],[27.4519,40.8789],[27.6063,40.9908],[27.6754,41.0019],[27.7819,41.0069],[27.8153,41.0026],[27.8607,40.9785],[27.9413,40.9711],[27.9826,41.0161],[27.9833,41.0164],[28.0974,41.0218],[28.1548,41.0245],[28.1835,41.0258],[28.2121,41.0272],[28.4416,41.0379],[28.4607,41.0329],[28.5125,40.9927],[28.5414,40.9896],[28.5603,41.0123],[28.5608,41.0175],[28.6034,41.009],[28.5952,40.978],[28.6253,40.9684],[28.7453,40.9802],[28.822,40.9616],[28.8499,40.9753],[28.8993,40.9843],[28.9353,41.004],[28.946,41.0061],[28.9819,41.0017],[28.9973,41.0399],[29.0422,41.0664],[29.0706,41.1302],[29.0408,41.1643],[29.0693,41.1747],[29.0999,41.2104],[29.1092,41.2353],[29.0452,41.2564],[29.032,41.2449],[28.9576,41.2579],[28.9895,41.3005],[28.9893,41.3006],[28.9895,41.3009],[28.4778,41.489],[28.3499,41.536],[28.286,41.5595],[28.254,41.5712],[28.222,41.583],[28.165,41.6039],[28.1523,41.6086],[28.1448,41.6174],[28.1,41.6702],[28.0883,41.7082],[28.0324,41.8897],[28.0449,41.8902],[28.0168,41.9726],[27.9659,41.9821],[27.917,41.9779],[27.8522,41.9954],[27.808,41.9935],[27.7898,41.9427],[27.7451,41.9596],[27.724,41.9676],[27.6871,41.9686],[27.6093,41.9535],[27.5508,41.9242],[27.5464,41.9012],[27.4943,41.9428],[27.4208,41.9737],[27.3748,42.0087],[27.3325,42.0574],[27.2734,42.0917],[27.2382,42.0979],[27.2038,42.0881],[27.1738,42.0571],[27.1161,42.0618],[27.0837,42.0784],[27.0479,42.0829],[27.0226,42.0739],[27.0004,42.0428],[26.9672,42.0285],[26.9389,41.9962],[26.8903,41.9854],[26.8608,41.9879],[26.8379,41.9752],[26.8194,41.9657],[26.7806,41.9834],[26.7367,41.959],[26.6236,41.969],[26.5895,41.9588],[26.5471,41.9269],[26.5598,41.9073],[26.5529,41.8816],[26.5261,41.8242],[26.4784,41.8133],[26.3755,41.8166],[26.3342,41.7895],[26.3163,41.7438],[26.3334,41.713],[26.2739,41.7149],[26.2345,41.7458],[26.2118,41.7505],[26.1899,41.7347],[26.1084,41.7279],[26.0605,41.7073],[26.0481,41.6891],[26.0595,41.6438],[26.1067,41.6243],[26.1303,41.5827],[26.1294,41.5594],[26.1581,41.5423],[26.1645,41.5177],[26.1459,41.478],[26.1743,41.446],[26.1209,41.3578],[26.0219,41.3417],[25.9596,41.315],[25.9212,41.316],[25.882,41.304],[25.811,41.341],[25.7635,41.319],[25.7175,41.3141],[25.6912,41.2984],[25.6398,41.3111],[25.5515,41.3157],[25.5051,41.2806],[25.4535,41.2804],[25.2857,41.2394],[25.2197,41.2497],[25.1771,41.2939],[25.1538,41.3075],[25.0804,41.3341],[24.917,41.3864],[24.8864,41.4006],[24.8033,41.3927],[24.7943,41.3474],[24.7744,41.3481],[24.7187,41.3957],[24.6809,41.4155],[24.6471,41.4172]]],[[[25.0334,39.9953],[25.0454,39.9847],[25.047,39.9475],[25.0605,39.9305],[25.0646,39.9115],[25.047,39.8655],[25.062,39.8601],[25.0615,39.8525],[25.0615,39.8522],[25.047,39.8376],[25.0771,39.8458],[25.1263,39.8261],[25.1267,39.8261],[25.1522,39.8276],[25.1432,39.8171],[25.2145,39.8034],[25.2145,39.8247],[25.1978,39.8439],[25.2023,39.8487],[25.2195,39.8833],[25.2251,39.8854],[25.2211,39.8865],[25.2239,39.8921],[25.2487,39.8938],[25.2511,39.8674],[25.2388,39.8581],[25.2535,39.8503],[25.2631,39.8226],[25.2991,39.8053],[25.2995,39.8053],[25.3014,39.8054],[25.349,39.7877],[25.3685,39.8245],[25.3614,39.8329],[25.3715,39.8903],[25.3852,39.9183],[25.3889,39.9195],[25.3882,39.9246],[25.4003,39.9493],[25.4343,39.9804],[25.4499,39.9884],[25.443,40.0064],[25.4507,40.0344],[25.4506,40.0344],[25.4507,40.0348],[25.4503,40.0347],[25.4503,40.0348],[25.448,40.0342],[25.4499,40.0362],[25.4371,40.0315],[25.4016,40.0225],[25.3821,40.0225],[25.3769,40.0163],[25.3747,40.0157],[25.3495,39.9845],[25.2941,39.9607],[25.2871,39.9611],[25.2473,40.0024],[25.2251,40.0089],[25.2021,40.0044],[25.1434,40.0026],[25.1323,40.0089],[25.0711,40.0005],[25.0579,40.0001],[25.0575,39.9986],[25.0334,39.9953]]],[[[25.6633,40.1262],[25.7212,40.1048],[25.766,40.0972],[25.8563,40.1079],[25.9004,40.1227],[25.9678,40.1308],[26.0122,40.1461],[26.0122,40.1666],[25.9729,40.1532],[25.9728,40.1584],[25.9763,40.1785],[25.9762,40.1786],[25.9763,40.1789],[25.9725,40.1828],[25.9719,40.2211],[25.9382,40.2416],[25.9133,40.2413],[25.8947,40.236],[25.8751,40.2344],[25.7983,40.2124],[25.759,40.2067],[25.719,40.1872],[25.6862,40.1608],[25.6633,40.1262]]],[[[25.8328,38.5441],[25.8433,38.5153],[25.8498,38.5095],[25.8499,38.5085],[25.8641,38.4968],[25.8898,38.4739],[25.8927,38.4732],[25.9543,38.4223],[25.9507,38.4057],[25.9699,38.3981],[25.9902,38.3542],[25.9779,38.3381],[25.9756,38.3372],[25.9744,38.3335],[25.9509,38.3026],[25.9343,38.3026],[25.8859,38.2819],[25.8757,38.2695],[25.8751,38.2693],[25.8753,38.2691],[25.8751,38.2689],[25.8675,38.2597],[25.8894,38.2482],[25.8898,38.2476],[25.8898,38.2206],[25.9104,38.227],[25.9341,38.1955],[25.9749,38.166],[26.0098,38.1567],[26.0235,38.1764],[26.0908,38.216],[26.1121,38.2226],[26.105,38.2508],[26.1088,38.2748],[26.1115,38.2803],[26.1392,38.2936],[26.1636,38.3026],[26.1552,38.3277],[26.1498,38.4532],[26.1541,38.4673],[26.1482,38.471],[26.142,38.4861],[26.1442,38.4929],[26.1444,38.4929],[26.1636,38.5428],[26.1307,38.5672],[26.1104,38.5452],[26.1095,38.5453],[26.1014,38.5501],[26.064,38.59],[26.0173,38.5997],[26.0123,38.6026],[26.012,38.6025],[26.0119,38.6026],[26.0071,38.6018],[25.9954,38.6042],[25.8489,38.5804],[25.8464,38.5748],[25.8463,38.5748],[25.8463,38.5746],[25.8328,38.5441]]],[[[25.8346,39.1796],[25.8889,39.1447],[25.9583,39.1177],[26.043,39.0932],[26.0828,39.0952],[26.1424,39.1557],[26.1504,39.1682],[26.1779,39.1942],[26.2731,39.1975],[26.2737,39.1969],[26.2459,39.1651],[26.1234,39.0904],[26.0879,39.0834],[26.1549,39.0309],[26.1595,39.0258],[26.1621,39.0252],[26.1657,39.0224],[26.176,39.0221],[26.329,38.9875],[26.3394,38.9829],[26.4242,38.9674],[26.4893,38.9726],[26.5471,38.9879],[26.5471,38.994],[26.5487,38.9945],[26.5484,38.9948],[26.5487,38.9949],[26.5471,38.9961],[26.5471,39.009],[26.492,39.0629],[26.4913,39.0634],[26.4877,39.0743],[26.5238,39.0656],[26.5193,39.0363],[26.5514,39.015],[26.5974,39.0119],[26.6123,39.0493],[26.5902,39.0668],[26.5775,39.1095],[26.5365,39.1643],[26.5397,39.166],[26.5321,39.1701],[26.5307,39.172],[26.492,39.2],[26.4707,39.2252],[26.4376,39.2394],[26.394,39.2709],[26.3999,39.2905],[26.4617,39.2438],[26.5101,39.2072],[26.5584,39.1707],[26.5634,39.1669],[26.6421,39.1074],[26.6815,39.0776],[26.7208,39.0479],[26.7208,39.1074],[26.6815,39.1074],[26.6815,39.1372],[26.6421,39.1372],[26.6421,39.1669],[26.6396,39.1669],[26.6396,39.1967],[26.599,39.1967],[26.599,39.2264],[26.5584,39.2264],[26.5584,39.2619],[26.5101,39.2619],[26.5101,39.3987],[26.4617,39.3987],[26.4617,39.4375],[26.365,39.4375],[26.365,39.4205],[26.2683,39.4205],[26.2683,39.4364],[26.22,39.4364],[26.22,39.4265],[26.2683,39.39],[26.2795,39.3815],[26.1636,39.3789],[26.1661,39.3666],[26.1631,39.3317],[26.1177,39.315],[26.094,39.3105],[26.0796,39.3014],[26.056,39.2941],[26.0469,39.3032],[26.0368,39.2881],[26.0263,39.2848],[26.0147,39.2852],[26.0062,39.2863],[26.001,39.2856],[25.9296,39.2877],[25.9241,39.2969],[25.8587,39.2592],[25.8493,39.2084],[25.8427,39.1998],[25.8428,39.1996],[25.8427,39.1994],[25.8466,39.1937],[25.846,39.1904],[25.8346,39.1796]]],[[[25.9763,37.516],[26.0579,37.5192],[26.1104,37.5466],[26.2067,37.5675],[26.2073,37.5679],[26.2306,37.5714],[26.3191,37.6343],[26.3622,37.6863],[26.2808,37.6754],[26.255,37.6527],[26.2099,37.6391],[26.1104,37.6363],[26.0742,37.6379],[26.042,37.617],[26.0166,37.5809],[25.9975,37.5662],[25.9959,37.5617],[25.9797,37.5487],[25.9763,37.516]]],[[[26.5803,37.7408],[26.5828,37.7263],[26.5807,37.7242],[26.581,37.7241],[26.5807,37.7238],[26.5834,37.7226],[26.5895,37.6871],[26.6229,37.6789],[26.6572,37.7049],[26.6704,37.7071],[26.7211,37.7047],[26.7714,37.669],[26.7874,37.6472],[26.8412,37.6444],[26.8435,37.6439],[26.8436,37.644],[26.8439,37.6439],[26.8447,37.6442],[26.8609,37.6434],[26.8873,37.662],[26.9735,37.698],[26.9791,37.6998],[26.986,37.7007],[27.0048,37.6863],[27.0048,37.7066],[27.0306,37.7066],[27.0591,37.7067],[27.0591,37.6897],[27.0876,37.6892],[27.0876,37.7157],[27.1161,37.7157],[27.1161,37.7428],[27.1445,37.7428],[27.1445,37.7753],[27.173,37.7753],[27.173,37.8025],[27.1477,37.8025],[27.1477,37.8324],[27.1185,37.8324],[27.1185,37.8922],[27.0306,37.8922],[27.0306,37.922],[26.7964,37.922],[26.7964,37.9377],[26.6768,37.9377],[26.6768,37.9356],[26.7366,37.8901],[26.7964,37.8447],[26.8476,37.8058],[26.8421,37.8091],[26.8297,37.81],[26.8259,37.811],[26.8255,37.811],[26.8178,37.8108],[26.7718,37.8141],[26.746,37.8093],[26.7427,37.8092],[26.7356,37.8073],[26.6581,37.7928],[26.6529,37.7854],[26.6383,37.7815],[26.6248,37.7681],[26.595,37.7614],[26.5803,37.7408]]],[[[28.7742,40.5228],[28.8226,40.5141],[28.8397,40.5041],[28.8415,40.5031],[28.8435,40.5024],[28.8397,40.4955],[28.8255,40.4698],[28.8199,40.4597],[28.8008,40.4592],[28.8008,40.4441],[28.8397,40.4441],[28.8397,40.4416],[28.9177,40.4416],[28.9177,40.4182],[28.9956,40.4182],[28.9956,40.4732],[28.9803,40.4645],[28.978,40.5732],[29.0475,40.5602],[29.0784,40.5632],[29.2305,40.5116],[29.2939,40.5222],[29.3581,40.5729],[29.4207,40.5632],[29.4771,40.5498],[29.5353,40.5524],[29.7204,40.6043],[29.7889,40.6147],[29.9262,40.577],[29.9957,40.5818],[30.0589,40.6055],[30.125,40.617],[30.183,40.6463],[30.2239,40.7086],[30.264,40.8572],[30.3289,40.9103],[30.3031,40.9193],[30.2949,40.9411],[30.3129,40.9501],[30.3849,40.9317],[30.4592,40.9357],[30.4653,40.9694],[30.488,41.0003],[30.4829,41.0329],[30.4099,41.0433],[30.3921,41.0941],[30.4293,41.1706],[30.37,41.1813],[30.3424,41.1975],[30.3367,41.2008],[30.2713,41.2112],[30.2424,41.1865],[30.0394,41.1643],[30.0277,41.1651],[29.9204,41.1726],[29.8936,41.1744],[29.8667,41.1763],[29.813,41.18],[29.5476,41.1984],[29.3836,41.2194],[29.2318,41.2407],[29.2062,41.2292],[29.1697,41.2331],[29.1301,41.2119],[29.0975,41.1803],[29.0935,41.1771],[29.0932,41.1761],[29.0782,41.1616],[29.0691,41.1528],[29.0769,41.1485],[29.0828,41.1452],[29.0683,41.1024],[29.0625,41.0767],[29.0623,41.0763],[29.0261,41.0383],[29.0114,41.0321],[29.0076,41.0305],[29.0087,41.028],[29.0281,40.9821],[29.0832,40.9597],[29.093,40.9524],[29.0168,40.815],[28.9915,40.7692],[28.8952,40.5955],[28.8781,40.5859],[28.8268,40.5706],[28.7927,40.5533],[28.7742,40.5228]]]]}},
{"type":"Feature","properties":{"entityId":"latin-empire","from":1225,"to":1235,"certainty":"estimated","source":"유럽 쪽은 Natural Earth 1:10m admin-1(v5.1.2) 현대 행정구역 조각을 그 시기 국경에 맞춰 묶고, 조각이 역사 경계와 다른 곳은 선을 그어 나눈 근사. 유럽 밖(시베리아·중앙아시아·극동)은 대략적인 추정. 운영자 검수 필요"},"geometry":{"type":"MultiPolygon","coordinates":[[[[25.6633,40.1262],[25.7212,40.1048],[25.766,40.0972],[25.8563,40.1079],[25.9004,40.1227],[25.9678,40.1308],[26.0122,40.1461],[26.0122,40.1666],[25.9729,40.1532],[25.9728,40.1584],[25.9763,40.1785],[25.9762,40.1786],[25.9763,40.1789],[25.9725,40.1828],[25.9719,40.2211],[25.9382,40.2416],[25.9133,40.2413],[25.8947,40.236],[25.8751,40.2344],[25.7983,40.2124],[25.759,40.2067],[25.719,40.1872],[25.6862,40.1608],[25.6633,40.1262]]],[[[26.1531,40.455],[26.172,40.4269],[26.2097,40.3709],[26.2323,40.3372],[26.21,40.3219],[26.2181,40.2969],[26.2531,40.2689],[26.2531,40.2479],[26.2602,40.2031],[26.247,40.1808],[26.2147,40.1461],[26.1902,40.0942],[26.1575,40.0553],[26.1776,40.0507],[26.2306,40.0649],[26.2731,40.0926],[26.328,40.1187],[26.3758,40.1535],[26.3702,40.1593],[26.3992,40.178],[26.3963,40.1728],[26.3982,40.164],[26.44,40.21],[26.52,40.27],[26.62,40.33],[26.69,40.38],[26.7534,40.403],[26.7477,40.4032],[26.9017,40.5028],[26.9481,40.5328],[26.9944,40.5627],[27.0423,40.5937],[27.087,40.6131],[27.1152,40.6137],[27.1777,40.6326],[27.1983,40.6531],[27.2879,40.7036],[27.31,40.7332],[27.35,40.7686],[27.4,40.8128],[27.4248,40.8313],[27.4465,40.8617],[27.4519,40.8789],[27.6063,40.9908],[27.6754,41.0019],[27.7819,41.0069],[27.8153,41.0026],[27.8607,40.9785],[27.9413,40.9711],[27.9826,41.0161],[27.9833,41.0164],[28.0974,41.0218],[28.1548,41.0245],[28.1835,41.0258],[28.2121,41.0272],[28.4416,41.0379],[28.4607,41.0329],[28.5125,40.9927],[28.5414,40.9896],[28.5603,41.0123],[28.5608,41.0175],[28.6034,41.009],[28.5952,40.978],[28.6253,40.9684],[28.7453,40.9802],[28.822,40.9616],[28.8499,40.9753],[28.8993,40.9843],[28.9353,41.004],[28.946,41.0061],[28.9819,41.0017],[28.9973,41.0399],[29.0422,41.0664],[29.0706,41.1302],[29.0408,41.1643],[29.0693,41.1747],[29.0999,41.2104],[29.1092,41.2353],[29.0452,41.2564],[29.032,41.2449],[28.9576,41.2579],[28.9895,41.3005],[28.9893,41.3006],[28.9895,41.3009],[28.4778,41.489],[28.3499,41.536],[28.286,41.5595],[28.254,41.5712],[28.222,41.583],[28.165,41.6039],[28.1523,41.6086],[28.1448,41.6174],[28.1,41.6702],[28.0883,41.7082],[28.0324,41.8897],[28.0449,41.8902],[28.0168,41.9726],[27.9659,41.9821],[27.917,41.9779],[27.8522,41.9954],[27.808,41.9935],[27.7898,41.9427],[27.7451,41.9596],[27.724,41.9676],[27.6871,41.9686],[27.6093,41.9535],[27.5508,41.9242],[27.5464,41.9012],[27.4943,41.9428],[27.4208,41.9737],[27.3748,42.0087],[27.3325,42.0574],[27.2734,42.0917],[27.2382,42.0979],[27.2038,42.0881],[27.1738,42.0571],[27.1161,42.0618],[27.0837,42.0784],[27.0479,42.0829],[27.0226,42.0739],[27.0004,42.0428],[26.9672,42.0285],[26.9389,41.9962],[26.8903,41.9854],[26.8608,41.9879],[26.8379,41.9752],[26.8632,41.8592],[26.8948,41.7635],[26.9062,41.6669],[26.8844,41.5705],[26.8436,41.5243],[26.8284,41.4523],[26.7802,41.3756],[26.8098,41.3303],[26.8215,41.3124],[26.8293,41.1728],[26.8139,41.1135],[26.765,41.0653],[26.7341,41.0056],[26.7163,40.935],[26.7231,40.8537],[26.761,40.791],[26.7864,40.7258],[26.7805,40.6594],[26.7704,40.6582],[26.7704,40.6006],[26.7119,40.6006],[26.7119,40.6154],[26.6827,40.6154],[26.6827,40.5803],[26.5948,40.5803],[26.5948,40.5768],[26.5656,40.5768],[26.5656,40.5472],[26.4777,40.5472],[26.4777,40.543],[26.4485,40.543],[26.4485,40.5176],[26.3606,40.5176],[26.3606,40.4985],[26.2475,40.4985],[26.2475,40.4662],[26.2097,40.4662],[26.2097,40.483],[26.172,40.483],[26.172,40.455],[26.1531,40.455]]],[[[28.7742,40.5228],[28.8226,40.5141],[28.8397,40.5041],[28.8415,40.5031],[28.8435,40.5024],[28.8397,40.4955],[28.8255,40.4698],[28.8199,40.4597],[28.8008,40.4592],[28.8008,40.4441],[28.8397,40.4441],[28.8397,40.4416],[28.9177,40.4416],[28.9177,40.4182],[28.9956,40.4182],[28.9956,40.4732],[28.9803,40.4645],[28.978,40.5732],[29.0475,40.5602],[29.0784,40.5632],[29.2305,40.5116],[29.2939,40.5222],[29.3581,40.5729],[29.4207,40.5632],[29.4771,40.5498],[29.5353,40.5524],[29.7204,40.6043],[29.7889,40.6147],[29.9262,40.577],[29.9957,40.5818],[30.0589,40.6055],[30.125,40.617],[30.183,40.6463],[30.2239,40.7086],[30.264,40.8572],[30.3289,40.9103],[30.3031,40.9193],[30.2949,40.9411],[30.3129,40.9501],[30.3849,40.9317],[30.4592,40.9357],[30.4653,40.9694],[30.488,41.0003],[30.4829,41.0329],[30.4099,41.0433],[30.3921,41.0941],[30.4293,41.1706],[30.37,41.1813],[30.3424,41.1975],[30.3367,41.2008],[30.2713,41.2112],[30.2424,41.1865],[30.0394,41.1643],[30.0277,41.1651],[29.9204,41.1726],[29.8936,41.1744],[29.8667,41.1763],[29.813,41.18],[29.5476,41.1984],[29.3836,41.2194],[29.2318,41.2407],[29.2062,41.2292],[29.1697,41.2331],[29.1301,41.2119],[29.0975,41.1803],[29.0935,41.1771],[29.0932,41.1761],[29.0782,41.1616],[29.0691,41.1528],[29.0769,41.1485],[29.0828,41.1452],[29.0683,41.1024],[29.0625,41.0767],[29.0623,41.0763],[29.0261,41.0383],[29.0114,41.0321],[29.0076,41.0305],[29.0087,41.028],[29.0281,40.9821],[29.0832,40.9597],[29.093,40.9524],[29.0168,40.815],[28.9915,40.7692],[28.8952,40.5955],[28.8781,40.5859],[28.8268,40.5706],[28.7927,40.5533],[28.7742,40.5228]]]]}},
{"type":"Feature","properties":{"entityId":"latin-empire","from":1235,"to":1242,"certainty":"estimated","source":"유럽 쪽은 Natural Earth 1:10m admin-1(v5.1.2) 현대 행정구역 조각을 그 시기 국경에 맞춰 묶고, 조각이 역사 경계와 다른 곳은 선을 그어 나눈 근사. 유럽 밖(시베리아·중앙아시아·극동)은 대략적인 추정. 운영자 검수 필요"},"geometry":{"type":"MultiPolygon","coordinates":[[[[26.7163,40.935],[26.7231,40.8537],[26.761,40.791],[26.7864,40.7258],[26.9324,40.7149],[26.9319,40.6358],[26.9635,40.561],[26.9944,40.5686],[26.9944,40.5627],[27.0423,40.5937],[27.087,40.6131],[27.1152,40.6137],[27.1777,40.6326],[27.1983,40.6531],[27.2879,40.7036],[27.31,40.7332],[27.35,40.7686],[27.4,40.8128],[27.4248,40.8313],[27.4465,40.8617],[27.4519,40.8789],[27.6063,40.9908],[27.6754,41.0019],[27.7819,41.0069],[27.8153,41.0026],[27.8607,40.9785],[27.9413,40.9711],[27.9826,41.0161],[27.9833,41.0164],[28.0974,41.0218],[28.1548,41.0245],[28.1835,41.0258],[28.2121,41.0272],[28.4416,41.0379],[28.4607,41.0329],[28.5125,40.9927],[28.5414,40.9896],[28.5603,41.0123],[28.5608,41.0175],[28.6034,41.009],[28.5952,40.978],[28.6253,40.9684],[28.7453,40.9802],[28.822,40.9616],[28.8499,40.9753],[28.8993,40.9843],[28.9353,41.004],[28.946,41.0061],[28.9819,41.0017],[28.9973,41.0399],[29.0422,41.0664],[29.0706,41.1302],[29.0408,41.1643],[29.0693,41.1747],[29.0999,41.2104],[29.1092,41.2353],[29.0452,41.2564],[29.032,41.2449],[28.9576,41.2579],[28.9895,41.3005],[28.9893,41.3006],[28.9895,41.3009],[28.4778,41.489],[28.3499,41.536],[28.286,41.5595],[28.254,41.5712],[28.222,41.583],[28.165,41.6039],[28.1523,41.6086],[28.1448,41.6174],[28.1,41.6702],[28.0883,41.7082],[28.0324,41.8897],[28.0449,41.8902],[28.0168,41.9726],[27.9659,41.9821],[27.917,41.9779],[27.8522,41.9954],[27.808,41.9935],[27.7898,41.9427],[27.7451,41.9596],[27.724,41.9676],[27.6871,41.9686],[27.6093,41.9535],[27.5508,41.9242],[27.5464,41.9012],[27.4943,41.9428],[27.4208,41.9737],[27.3748,42.0087],[27.3325,42.0574],[27.2734,42.0917],[27.2382,42.0979],[27.2038,42.0881],[27.1738,42.0571],[27.1161,42.0618],[27.0837,42.0784],[27.0479,42.0829],[27.0226,42.0739],[27.0004,42.0428],[26.9672,42.0285],[26.9389,41.9962],[26.8903,41.9854],[26.8608,41.9879],[26.8379,41.9752],[26.8632,41.8592],[26.8948,41.7635],[26.9062,41.6669],[26.8844,41.5705],[26.8436,41.5243],[26.8284,41.4523],[26.7802,41.3756],[26.8098,41.3303],[26.8215,41.3124],[26.8293,41.1728],[26.8139,41.1135],[26.765,41.0653],[26.7341,41.0056],[26.7163,40.935]]],[[[28.7742,40.5228],[28.8226,40.5141],[28.8397,40.5041],[28.8415,40.5031],[28.8435,40.5024],[28.8397,40.4955],[28.8255,40.4698],[28.8199,40.4597],[28.8008,40.4592],[28.8008,40.4441],[28.8397,40.4441],[28.8397,40.4416],[28.9177,40.4416],[28.9177,40.4182],[28.9956,40.4182],[28.9956,40.4732],[28.9803,40.4645],[28.978,40.5732],[29.0475,40.5602],[29.0784,40.5632],[29.2305,40.5116],[29.2939,40.5222],[29.3581,40.5729],[29.4207,40.5632],[29.4771,40.5498],[29.5353,40.5524],[29.7204,40.6043],[29.7889,40.6147],[29.9262,40.577],[29.9957,40.5818],[30.0589,40.6055],[30.125,40.617],[30.183,40.6463],[30.2239,40.7086],[30.264,40.8572],[30.3289,40.9103],[30.3031,40.9193],[30.2949,40.9411],[30.3129,40.9501],[30.3849,40.9317],[30.4592,40.9357],[30.4653,40.9694],[30.488,41.0003],[30.4829,41.0329],[30.4099,41.0433],[30.3921,41.0941],[30.4293,41.1706],[30.37,41.1813],[30.3424,41.1975],[30.3367,41.2008],[30.2713,41.2112],[30.2424,41.1865],[30.0394,41.1643],[30.0277,41.1651],[29.9204,41.1726],[29.8936,41.1744],[29.8667,41.1763],[29.813,41.18],[29.5476,41.1984],[29.3836,41.2194],[29.2318,41.2407],[29.2062,41.2292],[29.1697,41.2331],[29.1301,41.2119],[29.0975,41.1803],[29.0935,41.1771],[29.0932,41.1761],[29.0782,41.1616],[29.0691,41.1528],[29.0769,41.1485],[29.0828,41.1452],[29.0683,41.1024],[29.0625,41.0767],[29.0623,41.0763],[29.0261,41.0383],[29.0114,41.0321],[29.0076,41.0305],[29.0087,41.028],[29.0281,40.9821],[29.0832,40.9597],[29.093,40.9524],[29.0168,40.815],[28.9915,40.7692],[28.8952,40.5955],[28.8781,40.5859],[28.8268,40.5706],[28.7927,40.5533],[28.7742,40.5228]]]]}},
{"type":"Feature","properties":{"entityId":"latin-empire","from":1242,"to":1247,"certainty":"estimated","source":"유럽 쪽은 Natural Earth 1:10m admin-1(v5.1.2) 현대 행정구역 조각을 그 시기 국경에 맞춰 묶고, 조각이 역사 경계와 다른 곳은 선을 그어 나눈 근사. 유럽 밖(시베리아·중앙아시아·극동)은 대략적인 추정. 운영자 검수 필요"},"geometry":{"type":"MultiPolygon","coordinates":[[[[26.7163,40.935],[26.7231,40.8537],[26.761,40.791],[26.7864,40.7258],[26.9324,40.7149],[26.9319,40.6358],[26.9635,40.561],[26.9944,40.5686],[26.9944,40.5627],[27.0423,40.5937],[27.087,40.6131],[27.1152,40.6137],[27.1777,40.6326],[27.1983,40.6531],[27.2879,40.7036],[27.31,40.7332],[27.35,40.7686],[27.4,40.8128],[27.4248,40.8313],[27.4465,40.8617],[27.4519,40.8789],[27.6063,40.9908],[27.6754,41.0019],[27.7819,41.0069],[27.8153,41.0026],[27.8607,40.9785],[27.9413,40.9711],[27.9826,41.0161],[27.9833,41.0164],[28.0974,41.0218],[28.1548,41.0245],[28.1835,41.0258],[28.2121,41.0272],[28.4416,41.0379],[28.4607,41.0329],[28.5125,40.9927],[28.5414,40.9896],[28.5603,41.0123],[28.5608,41.0175],[28.6034,41.009],[28.5952,40.978],[28.6253,40.9684],[28.7453,40.9802],[28.822,40.9616],[28.8499,40.9753],[28.8993,40.9843],[28.9353,41.004],[28.946,41.0061],[28.9819,41.0017],[28.9973,41.0399],[29.0422,41.0664],[29.0706,41.1302],[29.0408,41.1643],[29.0693,41.1747],[29.0999,41.2104],[29.1092,41.2353],[29.0452,41.2564],[29.032,41.2449],[28.9576,41.2579],[28.9895,41.3005],[28.9893,41.3006],[28.9895,41.3009],[28.4778,41.489],[28.3499,41.536],[28.286,41.5595],[28.254,41.5712],[28.222,41.583],[28.165,41.6039],[28.1523,41.6086],[28.1448,41.6174],[28.1,41.6702],[28.0883,41.7082],[28.0324,41.8897],[28.0449,41.8902],[28.0168,41.9726],[27.9659,41.9821],[27.917,41.9779],[27.8522,41.9954],[27.808,41.9935],[27.7898,41.9427],[27.7451,41.9596],[27.724,41.9676],[27.6871,41.9686],[27.6093,41.9535],[27.5508,41.9242],[27.5464,41.9012],[27.4943,41.9428],[27.4208,41.9737],[27.3748,42.0087],[27.3325,42.0574],[27.2734,42.0917],[27.2382,42.0979],[27.2038,42.0881],[27.1738,42.0571],[27.1161,42.0618],[27.0837,42.0784],[27.0479,42.0829],[27.0226,42.0739],[27.0004,42.0428],[26.9672,42.0285],[26.9389,41.9962],[26.8903,41.9854],[26.8608,41.9879],[26.8379,41.9752],[26.8632,41.8592],[26.8948,41.7635],[26.9062,41.6669],[26.8844,41.5705],[26.8436,41.5243],[26.8284,41.4523],[26.7802,41.3756],[26.8098,41.3303],[26.8215,41.3124],[26.8293,41.1728],[26.8139,41.1135],[26.765,41.0653],[26.7341,41.0056],[26.7163,40.935]]],[[[29.0076,41.0305],[29.0087,41.028],[29.0114,41.0321],[29.0076,41.0305]]],[[[29.0691,41.1528],[29.0769,41.1485],[29.0782,41.1616],[29.0691,41.1528]]]]}},
{"type":"Feature","properties":{"entityId":"latin-empire","from":1247,"to":1261,"certainty":"estimated","source":"유럽 쪽은 Natural Earth 1:10m admin-1(v5.1.2) 현대 행정구역 조각을 그 시기 국경에 맞춰 묶고, 조각이 역사 경계와 다른 곳은 선을 그어 나눈 근사. 유럽 밖(시베리아·중앙아시아·극동)은 대략적인 추정. 운영자 검수 필요"},"geometry":{"type":"MultiPolygon","coordinates":[[[[28.1493,41.213],[28.1747,41.0808],[28.1835,41.0814],[28.1835,41.0258],[28.2121,41.0272],[28.4416,41.0379],[28.4607,41.0329],[28.5125,40.9927],[28.5414,40.9896],[28.5603,41.0123],[28.5608,41.0175],[28.6034,41.009],[28.5952,40.978],[28.6253,40.9684],[28.7453,40.9802],[28.822,40.9616],[28.8499,40.9753],[28.8993,40.9843],[28.9353,41.004],[28.946,41.0061],[28.9819,41.0017],[28.9973,41.0399],[29.0422,41.0664],[29.0706,41.1302],[29.0408,41.1643],[29.0693,41.1747],[29.0999,41.2104],[29.1092,41.2353],[29.0452,41.2564],[29.032,41.2449],[28.9576,41.2579],[28.9895,41.3005],[28.9893,41.3006],[28.9895,41.3009],[28.4778,41.489],[28.3499,41.536],[28.286,41.5595],[28.254,41.5712],[28.254,41.5384],[28.222,41.5384],[28.222,41.5267],[28.203,41.5402],[28.1557,41.4922],[28.1821,41.421],[28.193,41.3553],[28.163,41.2732],[28.1493,41.213]]],[[[29.0076,41.0305],[29.0087,41.028],[29.0114,41.0321],[29.0076,41.0305]]],[[[29.0691,41.1528],[29.0769,41.1485],[29.0782,41.1616],[29.0691,41.1528]]]]}}
]}
