{"type":"FeatureCollection","features":[
{"type":"Feature","properties":{"entityId":"lazica","from":117,"to":736,"certainty":"estimated","source":"유럽 쪽은 Natural Earth 1:10m admin-1(v5.1.2) 현대 행정구역 조각을 그 시기 국경에 맞춰 묶고, 조각이 역사 경계와 다른 곳은 선을 그어 나눈 근사. 유럽 밖(시베리아·중앙아시아·극동)은 대략적인 추정. 운영자 검수 필요"},"geometry":{"type":"Polygon","coordinates":[[[39.986,43.389],[40.0176,43.3825],[40.322,43.1285],[40.8764,43.0134],[41.0947,42.8735],[41.1047,42.8466],[41.1502,42.7956],[41.2031,42.8041],[41.4524,42.6444],[41.5065,42.4979],[41.5348,42.4213],[41.549,42.383],[41.5632,42.3446],[41.6092,42.22],[41.6198,42.1913],[41.6481,42.1147],[41.6609,42.08],[41.6622,42.0764],[41.6764,42.038],[41.6906,41.9997],[41.7043,41.9625],[41.7039,41.9613],[41.6903,41.923],[41.6768,41.8847],[41.5681,41.5782],[41.558,41.5644],[41.5229,41.53],[41.5325,41.53],[41.5208,41.5142],[41.6273,41.4805],[41.7026,41.489],[41.7185,41.4596],[41.761,41.4535],[41.813,41.4218],[41.8627,41.4518],[41.894,41.4855],[41.948,41.5056],[42.0196,41.4851],[42.0835,41.5001],[42.1118,41.4935],[42.1584,41.4999],[42.1893,41.4817],[42.2625,41.4823],[42.4379,41.4309],[42.451,41.4314],[42.4838,41.4422],[42.5455,41.5096],[42.555,41.5503],[42.5866,41.5791],[42.5473,41.6355],[42.4977,41.6743],[42.4812,41.701],[42.495,41.733],[42.4959,41.7677],[42.4817,41.7987],[42.5312,41.8027],[42.5761,41.7936],[42.6017,41.8217],[42.6496,41.8334],[42.7114,41.8059],[42.8171,41.8261],[42.903,41.8124],[42.9481,41.8118],[42.9909,41.8252],[43.0936,41.832],[43.1274,41.8254],[43.4262,41.9166],[43.4335,41.9554],[43.4695,41.9793],[43.4847,42.0151],[43.4889,42.0574],[43.549,42.0963],[43.5807,42.1511],[43.6082,42.1702],[43.6077,42.2281],[43.6159,42.2578],[43.6835,42.2935],[43.7602,42.309],[43.7728,42.374],[43.7501,42.394],[43.6617,42.3743],[43.6228,42.3787],[43.5874,42.3947],[43.669,42.4433],[43.808,42.4515],[43.8271,42.4582],[43.8489,42.4874],[43.9022,42.5156],[43.9082,42.5662],[43.8854,42.5792],[43.7511,42.5987],[43.7226,42.6249],[43.7257,42.6544],[43.7887,42.6931],[43.8118,42.7173],[43.8006,42.7465],[43.756,42.7631],[43.6628,42.7798],[43.5863,42.8356],[43.5174,42.8605],[43.3862,42.8869],[43.1943,42.9268],[43.1752,42.9345],[43.1556,42.9424],[43.0483,43.017],[42.9898,43.0527],[43.0001,43.0987],[42.9148,43.1219],[42.8298,43.1688],[42.7515,43.177],[42.6736,43.1659],[42.6294,43.1413],[42.5959,43.14],[42.5349,43.1651],[42.4797,43.2009],[42.4229,43.229],[42.3626,43.2352],[42.1854,43.2255],[42.1543,43.2175],[42.0753,43.1853],[42.0113,43.1819],[41.9483,43.2001],[41.89,43.207],[41.8203,43.2012],[41.6874,43.2202],[41.6141,43.213],[41.5506,43.2263],[41.5061,43.2598],[41.4276,43.2832],[41.3807,43.3348],[41.3503,43.3434],[41.2788,43.3332],[41.1808,43.3747],[41.1467,43.3799],[41.0425,43.3698],[41.0118,43.3754],[40.875,43.4556],[40.8427,43.4694],[40.7402,43.4953],[40.69,43.5231],[40.6519,43.539],[40.6155,43.5358],[40.5508,43.5112],[40.4798,43.5087],[40.2331,43.5758],[40.1643,43.5758],[40.0967,43.5626],[40.0592,43.5352],[39.9913,43.4063],[39.986,43.389]]]}},
{"type":"Feature","properties":{"entityId":"lazica","from":736,"to":778,"certainty":"estimated","source":"유럽 쪽은 Natural Earth 1:10m admin-1(v5.1.2) 현대 행정구역 조각을 그 시기 국경에 맞춰 묶고, 조각이 역사 경계와 다른 곳은 선을 그어 나눈 근사. 유럽 밖(시베리아·중앙아시아·극동)은 대략적인 추정. 운영자 검수 필요"},"geometry":{"type":"Polygon","coordinates":[[[39.986,43.389],[40.0176,43.3825],[40.322,43.1285],[40.8764,43.0134],[41.0947,42.8735],[41.1047,42.8466],[41.1502,42.7956],[41.2031,42.8041],[41.4524,42.6444],[41.5065,42.4979],[41.5348,42.4213],[41.549,42.383],[41.5632,42.3446],[41.6092,42.22],[41.6198,42.1913],[41.6481,42.1147],[41.6609,42.08],[41.6622,42.0764],[41.6764,42.038],[41.6906,41.9997],[41.7043,41.9625],[41.7039,41.9613],[41.6903,41.923],[41.6768,41.8847],[41.7739,41.8847],[41.7739,41.9026],[41.9047,41.8978],[41.9463,41.8793],[41.9516,41.8583],[42.0007,41.843],[42.063,41.8114],[42.1505,41.8246],[42.2298,41.7986],[42.3024,41.8073],[42.3559,41.8324],[42.4055,41.8349],[42.4435,41.8055],[42.4817,41.7987],[42.5312,41.8027],[42.5761,41.7936],[42.6017,41.8217],[42.6496,41.8334],[42.7114,41.8059],[42.8171,41.8261],[42.903,41.8124],[42.9481,41.8118],[42.9909,41.8252],[43.0936,41.832],[43.1274,41.8254],[43.4262,41.9166],[43.4335,41.9554],[43.4695,41.9793],[43.4847,42.0151],[43.4889,42.0574],[43.549,42.0963],[43.5807,42.1511],[43.6082,42.1702],[43.6077,42.2281],[43.6159,42.2578],[43.6835,42.2935],[43.7602,42.309],[43.7728,42.374],[43.7501,42.394],[43.6617,42.3743],[43.6228,42.3787],[43.5874,42.3947],[43.669,42.4433],[43.808,42.4515],[43.8271,42.4582],[43.8489,42.4874],[43.9022,42.5156],[43.9082,42.5662],[43.8854,42.5792],[43.7511,42.5987],[43.7226,42.6249],[43.7257,42.6544],[43.7887,42.6931],[43.8118,42.7173],[43.8006,42.7465],[43.756,42.7631],[43.6628,42.7798],[43.5863,42.8356],[43.5174,42.8605],[43.3862,42.8869],[43.1943,42.9268],[43.1752,42.9345],[43.1556,42.9424],[43.0483,43.017],[42.9898,43.0527],[43.0001,43.0987],[42.9148,43.1219],[42.8298,43.1688],[42.7515,43.177],[42.6736,43.1659],[42.6294,43.1413],[42.5959,43.14],[42.5349,43.1651],[42.4797,43.2009],[42.4229,43.229],[42.3626,43.2352],[42.1854,43.2255],[42.1543,43.2175],[42.0753,43.1853],[42.0113,43.1819],[41.9483,43.2001],[41.89,43.207],[41.8203,43.2012],[41.6874,43.2202],[41.6141,43.213],[41.5506,43.2263],[41.5061,43.2598],[41.4276,43.2832],[41.3807,43.3348],[41.3503,43.3434],[41.2788,43.3332],[41.1808,43.3747],[41.1467,43.3799],[41.0425,43.3698],[41.0118,43.3754],[40.875,43.4556],[40.8427,43.4694],[40.7402,43.4953],[40.69,43.5231],[40.6519,43.539],[40.6155,43.5358],[40.5508,43.5112],[40.4798,43.5087],[40.2331,43.5758],[40.1643,43.5758],[40.0967,43.5626],[40.0592,43.5352],[39.9913,43.4063],[39.986,43.389]]]}}
]}
