{
 "type": "FeatureCollection",
 "features": [
  {
   "type": "Feature",
   "properties": {
    "entityId": "liao",
    "from": 916,
    "to": 923,
    "certainty": "estimated",
    "source": "중고등학교 한국사 교과서 시대별 지도의 일반적인 경계를 따른 대략적인 추정. 운영자 검수 필요"
   },
   "geometry": {
    "type": "Polygon",
    "coordinates": [
     [
      [
       115.5,
       42.5
      ],
      [
       117,
       41.4
      ],
      [
       118.6189,
       41.6982
      ],
      [
       118.5,
       41.5
      ],
      [
       118.5,
       41.2
      ],
      [
       119.8,
       41.2
      ],
      [
       119.8,
       39.2455
      ],
      [
       120.5,
       39.5
      ],
      [
       121.9,
       40.5
      ],
      [
       122.25,
       40.85
      ],
      [
       122.3846,
       41.2
      ],
      [
       122.5,
       41.5
      ],
      [
       122.9,
       42.2
      ],
      [
       123.7,
       43.2
      ],
      [
       123.5,
       44.5
      ],
      [
       124.5,
       46
      ],
      [
       125,
       46.375
      ],
      [
       125,
       48.5
      ],
      [
       118.5,
       48.5
      ],
      [
       118.5,
       47.375
      ],
      [
       119,
       47
      ],
      [
       117.5,
       46.5
      ],
      [
       115.5,
       44.5
      ],
      [
       115.5,
       42.5
      ]
     ]
    ]
   }
  },
  {
   "type": "Feature",
   "properties": {
    "entityId": "liao",
    "from": 923,
    "to": 926,
    "certainty": "estimated",
    "source": "중고등학교 한국사 교과서 시대별 지도의 일반적인 경계를 따른 대략적인 추정. 운영자 검수 필요"
   },
   "geometry": {
    "type": "Polygon",
    "coordinates": [
     [
      [
       115.5,
       42.5
      ],
      [
       117,
       41.4
      ],
      [
       118.6189,
       41.6982
      ],
      [
       118.5,
       41.5
      ],
      [
       118.5,
       41.2
      ],
      [
       118.2,
       41.2
      ],
      [
       118.2,
       38.74
      ],
      [
       118.3,
       38.7
      ],
      [
       120.5,
       39.5
      ],
      [
       121.9,
       40.5
      ],
      [
       122.25,
       40.85
      ],
      [
       122.3846,
       41.2
      ],
      [
       122.5,
       41.5
      ],
      [
       122.9,
       42.2
      ],
      [
       123.7,
       43.2
      ],
      [
       123.5,
       44.5
      ],
      [
       124.5,
       46
      ],
      [
       125,
       46.375
      ],
      [
       125,
       48.5
      ],
      [
       118.5,
       48.5
      ],
      [
       118.5,
       47.375
      ],
      [
       119,
       47
      ],
      [
       117.5,
       46.5
      ],
      [
       115.5,
       44.5
      ],
      [
       115.5,
       42.5
      ]
     ]
    ]
   }
  },
  {
   "type": "Feature",
   "properties": {
    "entityId": "liao",
    "from": 926,
    "to": 936,
    "certainty": "estimated",
    "source": "중고등학교 한국사 교과서 시대별 지도의 일반적인 경계를 따른 대략적인 추정. 운영자 검수 필요"
   },
   "geometry": {
    "type": "Polygon",
    "coordinates": [
     [
      [
       115.5,
       42.5
      ],
      [
       117,
       41.4
      ],
      [
       118.6189,
       41.6982
      ],
      [
       118.5,
       41.5
      ],
      [
       118.5,
       41.2
      ],
      [
       118.2,
       41.2
      ],
      [
       118.2,
       38.74
      ],
      [
       118.3,
       38.7
      ],
      [
       120.5,
       39.5
      ],
      [
       121.9,
       40.5
      ],
      [
       120.9,
       39.2
      ],
      [
       121,
       38.5
      ],
      [
       122.5,
       38.6
      ],
      [
       123,
       39
      ],
      [
       124,
       39.6
      ],
      [
       124.4,
       40
      ],
      [
       125.3,
       40.6
      ],
      [
       126,
       41
      ],
      [
       126.8,
       41.6
      ],
      [
       128.2,
       41.5
      ],
      [
       128.6,
       42.5
      ],
      [
       128.8,
       43.5
      ],
      [
       128.8,
       47.8833
      ],
      [
       126.5,
       47.5
      ],
      [
       125,
       46.375
      ],
      [
       125,
       48.5
      ],
      [
       118.5,
       48.5
      ],
      [
       118.5,
       47.375
      ],
      [
       119,
       47
      ],
      [
       117.5,
       46.5
      ],
      [
       115.5,
       44.5
      ],
      [
       115.5,
       42.5
      ]
     ]
    ]
   }
  },
  {
   "type": "Feature",
   "properties": {
    "entityId": "liao",
    "from": 936,
    "to": 938,
    "certainty": "estimated",
    "source": "중고등학교 한국사 교과서 시대별 지도의 일반적인 경계를 따른 대략적인 추정. 운영자 검수 필요"
   },
   "geometry": {
    "type": "Polygon",
    "coordinates": [
     [
      [
       87.5,
       49.2
      ],
      [
       88.2,
       48.5
      ],
      [
       88.8,
       48.12
      ],
      [
       89.6,
       47.92
      ],
      [
       90.3,
       47.65
      ],
      [
       90.95,
       46.75
      ],
      [
       90.9,
       45.95
      ],
      [
       90.67,
       45.6
      ],
      [
       91.2,
       45.15
      ],
      [
       92.9,
       45.02
      ],
      [
       93.66,
       44.9
      ],
      [
       95.05,
       44.26
      ],
      [
       95.47,
       43.99
      ],
      [
       95.86,
       43.28
      ],
      [
       96.4,
       42.72
      ],
      [
       96.1,
       42.6
      ],
      [
       95.98,
       42.44
      ],
      [
       96.04,
       42.32
      ],
      [
       96.18,
       42.22
      ],
      [
       96.08,
       42.15
      ],
      [
       96.14,
       42.02
      ],
      [
       95.95,
       41.88
      ],
      [
       95.6,
       41.8
      ],
      [
       95.36,
       41.67
      ],
      [
       95.3,
       41.56
      ],
      [
       95.13,
       41.77
      ],
      [
       94.86,
       41.67
      ],
      [
       94.77,
       41.57
      ],
      [
       94.53,
       41.5
      ],
      [
       94.01,
       41.11
      ],
      [
       93.81,
       40.84
      ],
      [
       95,
       40.6
      ],
      [
       98,
       40.1
      ],
      [
       100,
       39.2
      ],
      [
       102.5,
       38
      ],
      [
       104.5,
       39
      ],
      [
       106.5,
       40.5
      ],
      [
       108.5,
       41.3
      ],
      [
       111,
       41
      ],
      [
       113.5,
       41
      ],
      [
       116,
       41.2
      ],
      [
       118.5,
       41.5
      ],
      [
       118.5,
       41.2
      ],
      [
       118.2,
       41.2
      ],
      [
       118.2,
       38.74
      ],
      [
       118.3,
       38.7
      ],
      [
       120.5,
       39.5
      ],
      [
       121.9,
       40.5
      ],
      [
       120.9,
       39.2
      ],
      [
       121,
       38.5
      ],
      [
       122.5,
       38.6
      ],
      [
       123,
       39
      ],
      [
       124,
       39.6
      ],
      [
       124.4,
       40
      ],
      [
       125.3,
       40.6
      ],
      [
       126,
       41
      ],
      [
       126.8,
       41.6
      ],
      [
       128.2,
       41.5
      ],
      [
       128.6,
       42.5
      ],
      [
       128.8,
       43.5
      ],
      [
       128.8,
       47.8833
      ],
      [
       126.5,
       47.5
      ],
      [
       125,
       46.375
      ],
      [
       125,
       48.5
      ],
      [
       118.5,
       48.5
      ],
      [
       118.5,
       47.375
      ],
      [
       117.8,
       47.9
      ],
      [
       116.7,
       49.85
      ],
      [
       114,
       50.2
      ],
      [
       108,
       50.5
      ],
      [
       102,
       51.5
      ],
      [
       95,
       51
      ],
      [
       90,
       50
      ],
      [
       87.5,
       49.2
      ]
     ]
    ]
   }
  },
  {
   "type": "Feature",
   "properties": {
    "entityId": "liao",
    "from": 938,
    "to": 960,
    "certainty": "estimated",
    "source": "중고등학교 한국사 교과서 시대별 지도의 일반적인 경계를 따른 대략적인 추정. 운영자 검수 필요"
   },
   "geometry": {
    "type": "Polygon",
    "coordinates": [
     [
      [
       87.5,
       49.2
      ],
      [
       88.2,
       48.5
      ],
      [
       88.8,
       48.12
      ],
      [
       89.6,
       47.92
      ],
      [
       90.3,
       47.65
      ],
      [
       90.95,
       46.75
      ],
      [
       90.9,
       45.95
      ],
      [
       90.67,
       45.6
      ],
      [
       91.2,
       45.15
      ],
      [
       92.9,
       45.02
      ],
      [
       93.66,
       44.9
      ],
      [
       95.05,
       44.26
      ],
      [
       95.47,
       43.99
      ],
      [
       95.86,
       43.28
      ],
      [
       96.4,
       42.72
      ],
      [
       96.1,
       42.6
      ],
      [
       95.98,
       42.44
      ],
      [
       96.04,
       42.32
      ],
      [
       96.18,
       42.22
      ],
      [
       96.08,
       42.15
      ],
      [
       96.14,
       42.02
      ],
      [
       95.95,
       41.88
      ],
      [
       95.6,
       41.8
      ],
      [
       95.36,
       41.67
      ],
      [
       95.3,
       41.56
      ],
      [
       95.13,
       41.77
      ],
      [
       94.86,
       41.67
      ],
      [
       94.77,
       41.57
      ],
      [
       94.53,
       41.5
      ],
      [
       94.01,
       41.11
      ],
      [
       93.81,
       40.84
      ],
      [
       95,
       40.6
      ],
      [
       98,
       40.1
      ],
      [
       100,
       39.2
      ],
      [
       102.5,
       38
      ],
      [
       104.5,
       39
      ],
      [
       106.5,
       40.5
      ],
      [
       108.5,
       41.3
      ],
      [
       111,
       41
      ],
      [
       111,
       39.7
      ],
      [
       112.3,
       39.6
      ],
      [
       112.6,
       39.1
      ],
      [
       114,
       39
      ],
      [
       115.5,
       38.7
      ],
      [
       116.5,
       38.6
      ],
      [
       117.8,
       38.9
      ],
      [
       118.3,
       38.7
      ],
      [
       120.5,
       39.5
      ],
      [
       121.9,
       40.5
      ],
      [
       120.9,
       39.2
      ],
      [
       121,
       38.5
      ],
      [
       122.5,
       38.6
      ],
      [
       123,
       39
      ],
      [
       124,
       39.6
      ],
      [
       124.4,
       40
      ],
      [
       125.3,
       40.6
      ],
      [
       126,
       41
      ],
      [
       126.8,
       41.6
      ],
      [
       128.2,
       41.5
      ],
      [
       128.6,
       42.5
      ],
      [
       128.8,
       43.5
      ],
      [
       128.8,
       47.8833
      ],
      [
       126.5,
       47.5
      ],
      [
       125,
       46.375
      ],
      [
       125,
       48.5
      ],
      [
       118.5,
       48.5
      ],
      [
       118.5,
       47.375
      ],
      [
       117.8,
       47.9
      ],
      [
       116.7,
       49.85
      ],
      [
       114,
       50.2
      ],
      [
       108,
       50.5
      ],
      [
       102,
       51.5
      ],
      [
       95,
       51
      ],
      [
       90,
       50
      ],
      [
       87.5,
       49.2
      ]
     ]
    ]
   }
  },
  {
   "type": "Feature",
   "properties": {
    "entityId": "liao",
    "from": 960,
    "to": 1014,
    "certainty": "estimated",
    "source": "중고등학교 한국사 교과서 시대별 지도의 일반적인 경계를 따른 대략적인 추정. 운영자 검수 필요"
   },
   "geometry": {
    "type": "Polygon",
    "coordinates": [
     [
      [
       87.5,
       49.2
      ],
      [
       88.2,
       48.5
      ],
      [
       88.8,
       48.12
      ],
      [
       89.6,
       47.92
      ],
      [
       90.3,
       47.65
      ],
      [
       90.95,
       46.75
      ],
      [
       90.9,
       45.95
      ],
      [
       90.67,
       45.6
      ],
      [
       91.2,
       45.15
      ],
      [
       92.9,
       45.02
      ],
      [
       93.66,
       44.9
      ],
      [
       95.05,
       44.26
      ],
      [
       95.47,
       43.99
      ],
      [
       95.86,
       43.28
      ],
      [
       96.4,
       42.72
      ],
      [
       96.1,
       42.6
      ],
      [
       95.98,
       42.44
      ],
      [
       96.04,
       42.32
      ],
      [
       96.18,
       42.22
      ],
      [
       96.08,
       42.15
      ],
      [
       96.14,
       42.02
      ],
      [
       95.95,
       41.88
      ],
      [
       95.6,
       41.8
      ],
      [
       95.36,
       41.67
      ],
      [
       95.3,
       41.56
      ],
      [
       95.13,
       41.77
      ],
      [
       94.86,
       41.67
      ],
      [
       94.77,
       41.57
      ],
      [
       94.53,
       41.5
      ],
      [
       94.01,
       41.11
      ],
      [
       93.81,
       40.84
      ],
      [
       95,
       40.6
      ],
      [
       98,
       40.1
      ],
      [
       100,
       39.2
      ],
      [
       102.5,
       38
      ],
      [
       104.5,
       39
      ],
      [
       106.5,
       40.5
      ],
      [
       108.5,
       41.3
      ],
      [
       111,
       41
      ],
      [
       111,
       39.7
      ],
      [
       112.3,
       39.6
      ],
      [
       112.6,
       39.1
      ],
      [
       114,
       39
      ],
      [
       115.5,
       38.7
      ],
      [
       116.5,
       38.6
      ],
      [
       117.8,
       38.9
      ],
      [
       118.3,
       38.7
      ],
      [
       119.95,
       39.3
      ],
      [
       120.5833,
       39.3
      ],
      [
       120.5,
       39.5
      ],
      [
       121.9,
       40.5
      ],
      [
       120.9,
       39.2
      ],
      [
       121,
       38.5
      ],
      [
       122.5,
       38.6
      ],
      [
       123,
       39
      ],
      [
       124,
       39.6
      ],
      [
       124.4,
       40
      ],
      [
       125.3,
       40.6
      ],
      [
       126,
       41
      ],
      [
       126.8,
       41.6
      ],
      [
       128.2,
       41.5
      ],
      [
       128.6,
       42.5
      ],
      [
       128.8,
       43.5
      ],
      [
       128.8,
       47.8833
      ],
      [
       126.5,
       47.5
      ],
      [
       125,
       46.375
      ],
      [
       125,
       48.5
      ],
      [
       118.5,
       48.5
      ],
      [
       118.5,
       47.375
      ],
      [
       117.8,
       47.9
      ],
      [
       116.7,
       49.85
      ],
      [
       114,
       50.2
      ],
      [
       108,
       50.5
      ],
      [
       102,
       51.5
      ],
      [
       95,
       51
      ],
      [
       90,
       50
      ],
      [
       87.5,
       49.2
      ]
     ]
    ]
   }
  },
  {
   "type": "Feature",
   "properties": {
    "entityId": "liao",
    "from": 1014,
    "to": 1038,
    "certainty": "estimated",
    "source": "중고등학교 한국사 교과서 시대별 지도의 일반적인 경계를 따른 대략적인 추정. 운영자 검수 필요"
   },
   "geometry": {
    "type": "Polygon",
    "coordinates": [
     [
      [
       87.5,
       49.2
      ],
      [
       88.2,
       48.5
      ],
      [
       88.8,
       48.12
      ],
      [
       89.6,
       47.92
      ],
      [
       90.3,
       47.65
      ],
      [
       90.95,
       46.75
      ],
      [
       90.9,
       45.95
      ],
      [
       90.67,
       45.6
      ],
      [
       91.2,
       45.15
      ],
      [
       92.9,
       45.02
      ],
      [
       93.66,
       44.9
      ],
      [
       95.05,
       44.26
      ],
      [
       95.47,
       43.99
      ],
      [
       95.86,
       43.28
      ],
      [
       96.4,
       42.72
      ],
      [
       96.1,
       42.6
      ],
      [
       95.98,
       42.44
      ],
      [
       96.04,
       42.32
      ],
      [
       96.18,
       42.22
      ],
      [
       96.08,
       42.15
      ],
      [
       96.14,
       42.02
      ],
      [
       95.95,
       41.88
      ],
      [
       95.6,
       41.8
      ],
      [
       95.36,
       41.67
      ],
      [
       95.3,
       41.56
      ],
      [
       95.13,
       41.77
      ],
      [
       94.86,
       41.67
      ],
      [
       94.77,
       41.57
      ],
      [
       94.53,
       41.5
      ],
      [
       94.01,
       41.11
      ],
      [
       93.81,
       40.84
      ],
      [
       95,
       40.6
      ],
      [
       98,
       40.1
      ],
      [
       100,
       39.2
      ],
      [
       102.5,
       38
      ],
      [
       104.5,
       39
      ],
      [
       106.5,
       40.5
      ],
      [
       108.5,
       41.3
      ],
      [
       111,
       41
      ],
      [
       111,
       39.7
      ],
      [
       112.3,
       39.6
      ],
      [
       112.6,
       39.1
      ],
      [
       114,
       39
      ],
      [
       115.5,
       38.7
      ],
      [
       116.5,
       38.6
      ],
      [
       117.8,
       38.9
      ],
      [
       118.3,
       38.7
      ],
      [
       119.95,
       39.3
      ],
      [
       120.5833,
       39.3
      ],
      [
       120.5,
       39.5
      ],
      [
       121.9,
       40.5
      ],
      [
       120.9,
       39.2
      ],
      [
       121,
       38.5
      ],
      [
       122.5,
       38.6
      ],
      [
       123,
       39
      ],
      [
       123.3846,
       39.2308
      ],
      [
       123.2,
       39
      ],
      [
       123.34,
       38.3
      ],
      [
       124.3125,
       38.3
      ],
      [
       124.3,
       38.4
      ],
      [
       124.6,
       38.6
      ],
      [
       124.5,
       39
      ],
      [
       124.9,
       39.4
      ],
      [
       124,
       39.6
      ],
      [
       124.4,
       40
      ],
      [
       125.3,
       40.6
      ],
      [
       126,
       41
      ],
      [
       126.8,
       41.6
      ],
      [
       128.2,
       41.5
      ],
      [
       128.6,
       42.5
      ],
      [
       128.8,
       43.5
      ],
      [
       128.8,
       47.8833
      ],
      [
       126.5,
       47.5
      ],
      [
       125,
       46.375
      ],
      [
       125,
       48.5
      ],
      [
       118.5,
       48.5
      ],
      [
       118.5,
       47.375
      ],
      [
       117.8,
       47.9
      ],
      [
       116.7,
       49.85
      ],
      [
       114,
       50.2
      ],
      [
       108,
       50.5
      ],
      [
       102,
       51.5
      ],
      [
       95,
       51
      ],
      [
       90,
       50
      ],
      [
       87.5,
       49.2
      ]
     ]
    ]
   }
  },
  {
   "type": "Feature",
   "properties": {
    "entityId": "liao",
    "from": 1038,
    "to": 1115,
    "certainty": "estimated",
    "source": "중고등학교 한국사 교과서 시대별 지도의 일반적인 경계를 따른 대략적인 추정. 운영자 검수 필요"
   },
   "geometry": {
    "type": "Polygon",
    "coordinates": [
     [
      [
       87.5,
       49.2
      ],
      [
       88.2,
       48.5
      ],
      [
       88.8,
       48.12
      ],
      [
       89.6,
       47.92
      ],
      [
       90.3,
       47.65
      ],
      [
       90.95,
       46.75
      ],
      [
       90.9,
       45.95
      ],
      [
       90.67,
       45.6
      ],
      [
       91.2,
       45.15
      ],
      [
       92.9,
       45.02
      ],
      [
       93.66,
       44.9
      ],
      [
       95.05,
       44.26
      ],
      [
       95.47,
       43.99
      ],
      [
       95.86,
       43.28
      ],
      [
       96.4,
       42.72
      ],
      [
       97.2,
       42.79
      ],
      [
       98.25,
       42.68
      ],
      [
       99.47,
       42.57
      ],
      [
       100.1,
       42.67
      ],
      [
       101,
       42.5
      ],
      [
       104.5,
       39
      ],
      [
       106.5,
       40.5
      ],
      [
       108.5,
       41.3
      ],
      [
       111,
       41
      ],
      [
       111,
       39.7
      ],
      [
       112.3,
       39.6
      ],
      [
       112.6,
       39.1
      ],
      [
       114,
       39
      ],
      [
       115.5,
       38.7
      ],
      [
       116.5,
       38.6
      ],
      [
       117.8,
       38.9
      ],
      [
       118.3,
       38.7
      ],
      [
       119.95,
       39.3
      ],
      [
       120.5833,
       39.3
      ],
      [
       120.5,
       39.5
      ],
      [
       121.9,
       40.5
      ],
      [
       120.9,
       39.2
      ],
      [
       121,
       38.5
      ],
      [
       122.5,
       38.6
      ],
      [
       123,
       39
      ],
      [
       123.3846,
       39.2308
      ],
      [
       123.2,
       39
      ],
      [
       123.34,
       38.3
      ],
      [
       124.3125,
       38.3
      ],
      [
       124.3,
       38.4
      ],
      [
       124.6,
       38.6
      ],
      [
       124.5,
       39
      ],
      [
       124.9,
       39.4
      ],
      [
       124,
       39.6
      ],
      [
       124.4,
       40
      ],
      [
       125.3,
       40.6
      ],
      [
       126,
       41
      ],
      [
       126.8,
       41.6
      ],
      [
       128.2,
       41.5
      ],
      [
       128.6,
       42.5
      ],
      [
       128.8,
       43.5
      ],
      [
       128.8,
       47.8833
      ],
      [
       126.5,
       47.5
      ],
      [
       125,
       46.375
      ],
      [
       125,
       48.5
      ],
      [
       118.5,
       48.5
      ],
      [
       118.5,
       47.375
      ],
      [
       117.8,
       47.9
      ],
      [
       116.7,
       49.85
      ],
      [
       114,
       50.2
      ],
      [
       108,
       50.5
      ],
      [
       102,
       51.5
      ],
      [
       95,
       51
      ],
      [
       90,
       50
      ],
      [
       87.5,
       49.2
      ]
     ]
    ]
   }
  },
  {
   "type": "Feature",
   "properties": {
    "entityId": "liao",
    "from": 1115,
    "to": 1125,
    "certainty": "estimated",
    "source": "중고등학교 한국사 교과서 시대별 지도의 일반적인 경계를 따른 대략적인 추정. 운영자 검수 필요"
   },
   "geometry": {
    "type": "Polygon",
    "coordinates": [
     [
      [
       87.5,
       49.2
      ],
      [
       88.2,
       48.5
      ],
      [
       88.8,
       48.12
      ],
      [
       89.6,
       47.92
      ],
      [
       90.3,
       47.65
      ],
      [
       90.95,
       46.75
      ],
      [
       90.9,
       45.95
      ],
      [
       90.67,
       45.6
      ],
      [
       91.2,
       45.15
      ],
      [
       92.9,
       45.02
      ],
      [
       93.66,
       44.9
      ],
      [
       95.05,
       44.26
      ],
      [
       95.47,
       43.99
      ],
      [
       95.86,
       43.28
      ],
      [
       96.4,
       42.72
      ],
      [
       97.2,
       42.79
      ],
      [
       98.25,
       42.68
      ],
      [
       99.47,
       42.57
      ],
      [
       100.1,
       42.67
      ],
      [
       101,
       42.5
      ],
      [
       104.5,
       39
      ],
      [
       106.5,
       40.5
      ],
      [
       108.5,
       41.3
      ],
      [
       111,
       41
      ],
      [
       111,
       39.7
      ],
      [
       112.3,
       39.6
      ],
      [
       112.6,
       39.1
      ],
      [
       114,
       39
      ],
      [
       115.5,
       38.7
      ],
      [
       116.5,
       38.6
      ],
      [
       117.8,
       38.9
      ],
      [
       118.3,
       38.7
      ],
      [
       119.95,
       39.3
      ],
      [
       120.5833,
       39.3
      ],
      [
       120.5,
       39.5
      ],
      [
       121.9,
       40.5
      ],
      [
       120.9,
       39.2
      ],
      [
       121,
       38.5
      ],
      [
       122.5,
       38.6
      ],
      [
       123,
       39
      ],
      [
       124,
       39.6
      ],
      [
       124.4,
       40
      ],
      [
       125,
       40.8
      ],
      [
       125,
       41.8
      ],
      [
       124.3,
       42.6
      ],
      [
       123.7,
       43.2
      ],
      [
       123.5,
       44.5
      ],
      [
       124.5,
       46
      ],
      [
       125,
       46.375
      ],
      [
       125,
       48.5
      ],
      [
       118.5,
       48.5
      ],
      [
       118.5,
       47.375
      ],
      [
       117.8,
       47.9
      ],
      [
       116.7,
       49.85
      ],
      [
       114,
       50.2
      ],
      [
       108,
       50.5
      ],
      [
       102,
       51.5
      ],
      [
       95,
       51
      ],
      [
       90,
       50
      ],
      [
       87.5,
       49.2
      ]
     ]
    ]
   }
  }
 ]
}
