{"type":"FeatureCollection","features":[
{"type":"Feature","properties":{"entityId":"ligurian-tribes","from":-429,"to":-178,"certainty":"estimated","source":"유럽 쪽은 Natural Earth 1:10m admin-1(v5.1.2) 현대 행정구역 조각을 그 시기 국경에 맞춰 묶고, 조각이 역사 경계와 다른 곳은 선을 그어 나눈 근사. 유럽 밖(시베리아·중앙아시아·극동)은 대략적인 추정. 운영자 검수 필요"},"geometry":{"type":"Polygon","coordinates":[[[6.6027,45.1035],[6.6366,45.0745],[6.6397,45.0504],[6.6622,45.0292],[6.6972,45.0269],[6.7235,45.0134],[6.7299,44.9847],[6.7279,44.9287],[6.7782,44.8876],[6.866,44.8557],[6.9327,44.8617],[6.9828,44.847],[7.0071,44.8221],[6.9984,44.7938],[7.019,44.7389],[7.0388,44.7121],[7.0552,44.6849],[6.9828,44.6922],[6.9383,44.658],[6.9456,44.6254],[6.8973,44.5754],[6.8464,44.5475],[6.8388,44.5029],[6.8613,44.4749],[6.9178,44.4363],[6.8772,44.4144],[6.8661,44.3721],[6.8784,44.3546],[6.799,44.3184],[6.7308,44.2459],[6.7023,44.1885],[6.695,44.1531],[6.7454,44.0998],[6.7576,44.0373],[6.8187,44.0067],[6.8582,43.9555],[6.9155,43.9212],[6.9423,43.8972],[6.9115,43.8943],[6.893,43.8925],[6.8437,43.9127],[6.7993,43.9078],[6.7598,43.8776],[6.7164,43.8751],[6.6923,43.8452],[6.7049,43.8111],[6.6364,43.7889],[6.6654,43.7526],[6.7494,43.7382],[6.7708,43.7015],[6.7752,43.6551],[6.8531,43.6063],[6.9002,43.6093],[6.912,43.5983],[6.9069,43.5682],[6.8787,43.5179],[6.89,43.501],[6.9332,43.4803],[6.9373,43.4841],[6.9373,43.4758],[7.0118,43.4758],[7.0118,43.4294],[7.049,43.4526],[7.0863,43.4758],[7.1073,43.4889],[7.2,43.5466],[7.2773,43.5948],[7.3624,43.6479],[7.4029,43.6731],[7.4049,43.6744],[7.4361,43.6938],[7.4474,43.6958],[7.4899,43.7033],[7.5324,43.7107],[7.6174,43.7257],[7.8501,43.7666],[7.9575,43.8525],[7.9597,43.8529],[8.0314,43.8875],[8.0677,43.8967],[8.0892,43.9199],[8.1302,43.9403],[8.168,43.9565],[8.1527,43.9832],[8.1691,44.0067],[8.2163,44.0452],[8.2217,44.0639],[8.2219,44.0641],[8.3543,44.17],[8.3694,44.1735],[8.4082,44.1935],[8.4106,44.215],[8.4297,44.2303],[8.5276,44.2591],[8.6446,44.2934],[8.6739,44.3021],[8.7032,44.3107],[8.7617,44.3279],[8.8787,44.3622],[8.8903,44.3656],[9.3468,44.1805],[9.4347,44.1448],[9.4639,44.133],[9.5809,44.0855],[9.7037,44.0357],[9.8149,44.0099],[9.9319,43.9828],[9.9904,43.9693],[10.0196,43.9625],[10.0489,43.9557],[10.0993,43.944],[10.1245,43.9382],[10.1496,43.9324],[10.2005,43.9206],[10.2229,43.849],[10.2379,43.8011],[10.2638,43.8011],[10.2618,43.8161],[10.3045,43.8228],[10.3718,43.8147],[10.4207,43.8247],[10.4502,43.7934],[10.4452,43.7742],[10.4795,43.7556],[10.6037,43.7576],[10.6365,43.7746],[10.6534,43.8028],[10.6903,43.8021],[10.7111,43.7863],[10.7278,43.8141],[10.7079,43.8495],[10.68,43.8682],[10.6528,43.8695],[10.648,43.8949],[10.6659,43.9323],[10.6687,43.9749],[10.7063,44.0147],[10.7359,44.0321],[10.7198,44.0748],[10.702,44.094],[10.6297,44.1142],[10.6105,44.1257],[10.5704,44.1256],[10.4839,44.1868],[10.4712,44.2246],[10.4002,44.2359],[10.351,44.2749],[10.2878,44.2824],[10.2539,44.2706],[10.2293,44.2815],[10.1994,44.3183],[10.1357,44.3418],[10.0726,44.3521],[9.9913,44.4066],[10.002,44.4326],[9.9899,44.448],[9.9356,44.4704],[9.8663,44.483],[9.8356,44.4763],[9.7621,44.4094],[9.7436,44.3857],[9.6915,44.3728],[9.6898,44.3577],[9.6514,44.4062],[9.5985,44.4272],[9.5124,44.429],[9.4764,44.4125],[9.4361,44.4199],[9.451,44.4687],[9.4936,44.5117],[9.4913,44.551],[9.441,44.5734],[9.4142,44.5941],[9.3518,44.5831],[9.3018,44.606],[9.2638,44.6041],[9.2251,44.6203],[9.2031,44.6138],[9.2014,44.6821],[9.2059,44.7208],[9.1714,44.7856],[9.1406,44.8156],[9.0937,44.8181],[9.0483,44.8488],[9.0503,44.8834],[8.9965,44.9179],[8.9701,44.9444],[8.9571,44.9813],[8.8824,45.0005],[8.8782,45.05],[8.8779,45.0538],[8.8504,45.0584],[8.8296,45.05],[8.7741,45.0276],[8.75,45.027],[8.6691,45.0248],[8.6455,45.0412],[8.6076,45.108],[8.5733,45.1371],[8.5566,45.1648],[8.5021,45.1806],[8.4971,45.198],[8.4047,45.2045],[8.3702,45.1973],[8.3345,45.1711],[8.2688,45.1783],[8.2208,45.1649],[8.1992,45.1761],[8.1721,45.1595],[8.1519,45.1686],[8.1051,45.1865],[8.0596,45.1825],[7.9883,45.2634],[7.9836,45.3134],[7.9557,45.3281],[7.9727,45.3424],[8.0105,45.3404],[8.0245,45.3522],[8.0101,45.4026],[8.027,45.4031],[8.0275,45.4491],[7.9853,45.4674],[7.8822,45.5341],[7.8957,45.5682],[7.8802,45.6027],[7.784,45.5814],[7.7493,45.5641],[7.673,45.5636],[7.6424,45.5746],[7.5459,45.5898],[7.4646,45.5742],[7.3855,45.5244],[7.2123,45.4838],[7.1462,45.4922],[7.1316,45.5099],[7.0754,45.4663],[7.0968,45.4354],[7.1607,45.4109],[7.1301,45.3571],[7.0926,45.324],[7.1084,45.2592],[7.0502,45.215],[7.0297,45.2282],[6.9587,45.2098],[6.9138,45.1702],[6.8813,45.1684],[6.8767,45.1412],[6.8441,45.1301],[6.7715,45.1532],[6.7364,45.1573],[6.6944,45.1403],[6.6674,45.1396],[6.6294,45.1235],[6.6027,45.1035]]]}},
{"type":"Feature","properties":{"entityId":"ligurian-tribes","from":-178,"to":-154,"certainty":"estimated","source":"유럽 쪽은 Natural Earth 1:10m admin-1(v5.1.2) 현대 행정구역 조각을 그 시기 국경에 맞춰 묶고, 조각이 역사 경계와 다른 곳은 선을 그어 나눈 근사. 유럽 밖(시베리아·중앙아시아·극동)은 대략적인 추정. 운영자 검수 필요"},"geometry":{"type":"Polygon","coordinates":[[[6.6027,45.1035],[6.6366,45.0745],[6.6397,45.0504],[6.6622,45.0292],[6.6972,45.0269],[6.7235,45.0134],[6.7299,44.9847],[6.7279,44.9287],[6.7782,44.8876],[6.866,44.8557],[6.9327,44.8617],[6.9828,44.847],[7.0071,44.8221],[6.9984,44.7938],[7.019,44.7389],[7.0388,44.7121],[7.0552,44.6849],[6.9828,44.6922],[6.9383,44.658],[6.9456,44.6254],[6.8973,44.5754],[6.8464,44.5475],[6.8388,44.5029],[6.8613,44.4749],[6.9178,44.4363],[6.8772,44.4144],[6.8661,44.3721],[6.8784,44.3546],[6.799,44.3184],[6.7308,44.2459],[6.7023,44.1885],[6.695,44.1531],[6.7454,44.0998],[6.7576,44.0373],[6.8187,44.0067],[6.8582,43.9555],[6.9155,43.9212],[6.9423,43.8972],[6.9115,43.8943],[6.893,43.8925],[6.8437,43.9127],[6.7993,43.9078],[6.7598,43.8776],[6.7164,43.8751],[6.6923,43.8452],[6.7049,43.8111],[6.6364,43.7889],[6.6654,43.7526],[6.7494,43.7382],[6.7708,43.7015],[6.7752,43.6551],[6.8531,43.6063],[6.9002,43.6093],[6.912,43.5983],[6.9069,43.5682],[6.8787,43.5179],[6.89,43.501],[6.9332,43.4803],[6.9373,43.4841],[6.9373,43.4758],[7.0118,43.4758],[7.0118,43.4294],[7.049,43.4526],[7.0863,43.4758],[7.1073,43.4889],[7.2,43.5466],[7.2773,43.5948],[7.3624,43.6479],[7.4029,43.6731],[7.4049,43.6744],[7.4361,43.6938],[7.4474,43.6958],[7.4899,43.7033],[7.5324,43.7107],[7.6174,43.7257],[7.8501,43.7666],[7.9575,43.8525],[7.9597,43.8529],[8.0314,43.8875],[8.0677,43.8967],[8.0892,43.9199],[8.1302,43.9403],[8.168,43.9565],[8.1527,43.9832],[8.1691,44.0067],[8.2163,44.0452],[8.2217,44.0639],[8.2219,44.0641],[8.3543,44.17],[8.3694,44.1735],[8.4082,44.1935],[8.4106,44.215],[8.4297,44.2303],[8.5276,44.2591],[8.6446,44.2934],[8.6739,44.3021],[8.6739,44.3627],[8.6446,44.3627],[8.6446,44.3856],[8.6306,44.3819],[8.6028,44.3958],[8.5877,44.4247],[8.6582,44.4465],[8.6683,44.4554],[8.6508,44.4887],[8.5997,44.4912],[8.5642,44.5162],[8.6014,44.5493],[8.613,44.5875],[8.7246,44.5786],[8.7648,44.5297],[8.7761,44.5031],[8.8183,44.5409],[8.8257,44.5588],[8.8961,44.5604],[8.9075,44.5695],[8.9079,44.6082],[8.878,44.64],[8.9231,44.6828],[8.9592,44.6826],[8.9759,44.6723],[9.041,44.6322],[9.0891,44.6193],[9.1158,44.5894],[9.1485,44.5811],[9.1993,44.5993],[9.2031,44.6138],[9.2014,44.6821],[9.2059,44.7208],[9.1714,44.7856],[9.1406,44.8156],[9.0937,44.8181],[9.0483,44.8488],[9.0503,44.8834],[8.9965,44.9179],[8.9701,44.9444],[8.9571,44.9813],[8.8824,45.0005],[8.8782,45.05],[8.8779,45.0538],[8.8504,45.0584],[8.8296,45.05],[8.7741,45.0276],[8.75,45.027],[8.6691,45.0248],[8.6455,45.0412],[8.6076,45.108],[8.5733,45.1371],[8.5566,45.1648],[8.5021,45.1806],[8.4971,45.198],[8.4047,45.2045],[8.3702,45.1973],[8.3345,45.1711],[8.2688,45.1783],[8.2208,45.1649],[8.1992,45.1761],[8.1721,45.1595],[8.1519,45.1686],[8.1051,45.1865],[8.0596,45.1825],[7.9883,45.2634],[7.9836,45.3134],[7.9557,45.3281],[7.9727,45.3424],[8.0105,45.3404],[8.0245,45.3522],[8.0101,45.4026],[8.027,45.4031],[8.0275,45.4491],[7.9853,45.4674],[7.8822,45.5341],[7.8957,45.5682],[7.8802,45.6027],[7.784,45.5814],[7.7493,45.5641],[7.673,45.5636],[7.6424,45.5746],[7.5459,45.5898],[7.4646,45.5742],[7.3855,45.5244],[7.2123,45.4838],[7.1462,45.4922],[7.1316,45.5099],[7.0754,45.4663],[7.0968,45.4354],[7.1607,45.4109],[7.1301,45.3571],[7.0926,45.324],[7.1084,45.2592],[7.0502,45.215],[7.0297,45.2282],[6.9587,45.2098],[6.9138,45.1702],[6.8813,45.1684],[6.8767,45.1412],[6.8441,45.1301],[6.7715,45.1532],[6.7364,45.1573],[6.6944,45.1403],[6.6674,45.1396],[6.6294,45.1235],[6.6027,45.1035]]]}},
{"type":"Feature","properties":{"entityId":"ligurian-tribes","from":-154,"to":-26,"certainty":"estimated","source":"유럽 쪽은 Natural Earth 1:10m admin-1(v5.1.2) 현대 행정구역 조각을 그 시기 국경에 맞춰 묶고, 조각이 역사 경계와 다른 곳은 선을 그어 나눈 근사. 유럽 밖(시베리아·중앙아시아·극동)은 대략적인 추정. 운영자 검수 필요"},"geometry":{"type":"Polygon","coordinates":[[[6.6364,43.7889],[6.6654,43.7526],[6.7494,43.7382],[6.7708,43.7015],[6.7752,43.6551],[6.8531,43.6063],[6.9002,43.6093],[6.912,43.5983],[6.9069,43.5682],[6.8787,43.5179],[6.89,43.501],[6.9332,43.4803],[6.9373,43.4841],[6.9373,43.4758],[7.0118,43.4758],[7.0118,43.4294],[7.049,43.4526],[7.0863,43.4758],[7.1073,43.4889],[7.2,43.5466],[7.2773,43.5948],[7.3624,43.6479],[7.4029,43.6731],[7.4049,43.6744],[7.4361,43.6938],[7.4474,43.6958],[7.4899,43.7033],[7.5324,43.7107],[7.5324,43.744],[7.515,43.744],[7.515,43.86],[7.4797,43.86],[7.5023,43.7922],[7.4779,43.8655],[7.4935,43.8862],[7.5569,43.9441],[7.6309,43.9935],[7.6348,44.0015],[7.6534,44.0397],[7.6899,44.0673],[7.6879,44.0908],[7.6419,44.1436],[7.6556,44.1761],[7.6247,44.1801],[7.5836,44.1607],[7.5548,44.1591],[7.43,44.1331],[7.3808,44.1229],[7.3406,44.1237],[7.3093,44.1475],[7.2513,44.16],[7.145,44.2072],[7.0335,44.2429],[6.9961,44.2378],[6.9734,44.2494],[6.9592,44.2774],[6.9212,44.3022],[6.8784,44.3546],[6.799,44.3184],[6.7308,44.2459],[6.7023,44.1885],[6.695,44.1531],[6.7454,44.0998],[6.7576,44.0373],[6.8187,44.0067],[6.8582,43.9555],[6.9155,43.9212],[6.9423,43.8972],[6.9115,43.8943],[6.893,43.8925],[6.8437,43.9127],[6.7993,43.9078],[6.7598,43.8776],[6.7164,43.8751],[6.6923,43.8452],[6.7049,43.8111],[6.6364,43.7889]]]}}
]}
