{"type":"FeatureCollection","features":[
{"type":"Feature","properties":{"entityId":"lithuania-grand-duchy","from":1526,"to":1561,"certainty":"estimated","source":"유럽 쪽은 Natural Earth 1:10m admin-1(v5.1.2) 현대 행정구역 조각을 그 시기 국경에 맞춰 묶고, 조각이 역사 경계와 다른 곳은 선을 그어 나눈 근사. 유럽 밖(시베리아·중앙아시아·극동)은 대략적인 추정. 운영자 검수 필요"},"geometry":{"type":"Polygon","coordinates":[[[21.0377,56.1263],[21.0474,56.0699],[21.0546,56.023],[21.0571,55.9488],[21.0447,55.9177],[21.0447,55.88],[21.05,55.88],[21.17,55.85],[21.33,55.72],[21.45,55.6],[21.6,55.46],[21.85,55.35],[22.05,55.25],[22.3,55.12],[22.5303,55.0739],[22.5411,55.0758],[22.562,55.0676],[22.575,55.065],[22.5712,55.064],[22.5916,55.0376],[22.6084,54.9924],[22.6335,54.9579],[22.7155,54.9514],[22.7521,54.9311],[22.7492,54.9099],[22.8089,54.8938],[22.8293,54.8727],[22.8484,54.8138],[22.8328,54.7787],[22.7648,54.7371],[22.7248,54.7234],[22.727,54.7053],[22.7051,54.6865],[22.7081,54.6356],[22.6817,54.5699],[22.6746,54.4923],[22.6804,54.4532],[22.707,54.4187],[22.7672,54.3563],[22.8113,54.3926],[22.8589,54.3992],[22.9188,54.3811],[22.9733,54.3754],[22.9897,54.3534],[23.0416,54.341],[23.0321,54.3096],[23.0501,54.2948],[23.1171,54.3035],[23.2354,54.2542],[23.316,54.2363],[23.336,54.2263],[23.3823,54.1879],[23.4325,54.1693],[23.4739,54.1126],[23.4962,54.0446],[23.4965,54.022],[23.4593,53.9923],[23.4629,53.9725],[23.4904,53.9506],[23.4856,53.9393],[23.4863,53.9227],[23.4,53.75],[23.1,53.68],[22.74,53.49],[22.42,53.19],[22.5,53.05],[22.4,52.75],[22.3942,52.7413],[22.3997,52.695],[22.4118,52.6597],[22.4119,52.6006],[22.5176,52.5294],[22.5114,52.4946],[22.5198,52.4733],[22.5448,52.4625],[22.5388,52.4294],[22.5627,52.4041],[22.6119,52.3873],[22.689,52.3854],[22.8446,52.3656],[22.9228,52.3723],[22.9751,52.3528],[22.9845,52.3301],[23.0058,52.337],[23.0521,52.3096],[23.039,52.2892],[23.087,52.2923],[23.1502,52.2816],[23.1761,52.2851],[23.1945,52.2715],[23.1897,52.2405],[23.2123,52.2317],[23.3958,52.1996],[23.3885,52.1842],[23.4367,52.1757],[23.4505,52.1859],[23.4847,52.1586],[23.5125,52.1244],[23.5794,52.1215],[23.6375,52.0845],[23.6764,51.9941],[23.6476,51.9741],[23.6222,51.9279],[23.6214,51.8956],[23.5946,51.8433],[23.6287,51.8098],[23.6175,51.7865],[23.5604,51.7545],[23.5466,51.7136],[23.5604,51.672],[23.5324,51.659],[23.5438,51.6438],[23.5399,51.6071],[23.574,51.5553],[23.5728,51.5397],[23.6062,51.5174],[23.6148,51.4972],[23.6628,51.4802],[23.6487,51.454],[23.6976,51.4044],[23.6789,51.3941],[23.6839,51.3703],[23.634,51.3393],[23.6352,51.3047],[23.6873,51.2924],[23.7427,51.2163],[23.7652,51.199],[23.816,51.1788],[23.8747,51.1361],[23.8545,51.1215],[23.9042,51.0627],[23.9117,51.0068],[23.9551,50.9836],[23.9793,50.9375],[24.0469,50.898],[24.1302,50.8689],[24.1309,50.8391],[24.0469,50.8291],[24.0205,50.8386],[23.9699,50.8252],[23.9576,50.808],[23.9743,50.7762],[24.0259,50.767],[24.0128,50.7433],[24.0269,50.728],[24.081,50.713],[24.0749,50.6902],[24.1082,50.6303],[24.1259,50.6418],[24.1647,50.6402],[24.2179,50.5892],[24.2479,50.5818],[24.3214,50.5926],[24.3459,50.6089],[24.3795,50.6009],[24.4054,50.5674],[24.4343,50.549],[24.5008,50.5455],[24.5306,50.5241],[24.5354,50.5001],[24.5132,50.4867],[24.4634,50.4788],[24.4567,50.4614],[24.4988,50.4397],[24.5042,50.4106],[24.5418,50.4109],[24.5526,50.4384],[24.591,50.417],[24.6342,50.4134],[24.6394,50.3974],[24.6882,50.3767],[24.7052,50.3496],[24.773,50.3405],[24.8484,50.3549],[24.9114,50.3481],[24.9319,50.3702],[25.0039,50.3457],[25.0489,50.3473],[25.0638,50.3345],[25.0635,50.2948],[25.1041,50.2794],[25.1529,50.2925],[25.1957,50.288],[25.2075,50.2501],[25.1677,50.22],[25.1929,50.1816],[25.1854,50.128],[25.2023,50.095],[25.2959,50.0413],[25.3676,50.0131],[25.3727,49.9965],[25.3898,49.9873],[25.6,49.92],[25.8,49.85],[26,49.75],[26.2,49.62],[26.2239,49.62],[26.2249,49.6234],[26.2336,49.6356],[26.6,49.66],[27.2,49.62],[27.6,49.68],[27.7625,49.693],[27.769,49.7044],[27.7515,49.6735],[27.8077,49.6471],[27.8156,49.6309],[27.7666,49.5632],[27.786,49.5461],[27.7748,49.5272],[27.7321,49.5262],[27.7293,49.4886],[27.7628,49.4667],[27.74,49.4402],[27.7645,49.4303],[27.826,49.4299],[27.844,49.3961],[27.8088,49.3863],[27.8192,49.3412],[27.8442,49.335],[27.8521,49.3049],[27.8773,49.2769],[27.8567,49.2494],[27.8778,49.21],[27.889,49.1626],[27.8651,49.1502],[27.8106,49.1418],[27.7672,49.116],[27.7155,49.134],[27.6157,49.1599],[27.5683,49.122],[27.5005,49.1261],[27.4707,49.0759],[27.3987,49.0207],[27.3802,48.9868],[27.3984,48.957],[27.3721,48.9301],[27.3999,48.8689],[27.4032,48.8152],[27.4246,48.7768],[27.3962,48.7609],[27.4018,48.7316],[27.3932,48.6837],[27.3704,48.6297],[27.4097,48.6207],[27.4382,48.6025],[27.4728,48.5472],[27.5038,48.4724],[27.5571,48.4744],[27.583,48.486],[27.6048,48.4841],[27.6069,48.4578],[27.627,48.4513],[27.7518,48.452],[27.7853,48.4416],[27.8499,48.4096],[27.8854,48.3784],[27.9264,48.3394],[28.0032,48.3259],[28.0559,48.3215],[28.0928,48.3021],[28.0983,48.2841],[28.0787,48.2449],[28.1311,48.2396],[28.1785,48.2589],[28.1999,48.2117],[28.2403,48.2116],[28.2945,48.2365],[28.3406,48.2401],[28.3682,48.2306],[28.3634,48.191],[28.3222,48.1632],[28.3174,48.1354],[28.3496,48.1297],[28.3886,48.1686],[28.4116,48.1707],[28.4369,48.1499],[28.419,48.1222],[28.4474,48.0828],[28.49,48.0655],[28.4998,48.1089],[28.5434,48.088],[28.5191,48.0523],[28.4813,48.0332],[28.4666,47.9972],[28.4965,47.9878],[28.5055,47.9587],[28.4962,47.9155],[28.478,47.8886],[28.504,47.8833],[28.5305,47.8929],[28.5692,47.8871],[28.637,47.8421],[28.6692,47.8581],[28.6568,47.8772],[28.6579,47.8987],[28.6832,47.9339],[28.7204,47.9527],[28.7556,47.9572],[28.7848,47.9828],[28.8128,47.9654],[28.8303,47.9411],[28.8289,47.9171],[28.861,47.8997],[28.9421,47.8832],[28.9803,47.8755],[29.0181,47.8535],[29.0175,47.8269],[28.9803,47.7656],[28.9756,47.7434],[28.9803,47.6874],[28.9954,47.6509],[28.9865,47.6223],[29.0157,47.5821],[29.0267,47.5295],[29.0486,47.5062],[29.0928,47.4874],[29.108,47.4694],[29.1268,47.4656],[29.1372,47.484],[29.1174,47.5333],[29.1305,47.5596],[29.1821,47.6132],[29.1924,47.6509],[29.197,47.7175],[29.2386,47.756],[29.222,47.7748],[29.1778,47.7897],[29.1867,47.8182],[29.2328,47.8571],[29.236,47.8707],[29.1866,47.8836],[29.1646,47.9056],[29.148,47.9554],[29.124,47.976],[29.0927,47.9802],[29.061,47.9698],[29.0172,47.9311],[28.9808,47.9264],[28.9361,47.9422],[28.8826,47.9768],[28.8621,48.0005],[28.8798,48.0106],[28.9642,48.0358],[29.0461,48.0831],[29.0412,48.1282],[29.0783,48.1445],[29.104,48.1436],[29.1699,48.1057],[29.2463,48.0845],[29.3384,48.0862],[29.4347,48.1131],[29.4972,48.0928],[29.5855,48.0871],[29.6798,48.0922],[29.6975,48.1364],[29.6659,48.1689],[29.6825,48.1821],[29.7172,48.1817],[29.7748,48.2031],[29.8204,48.211],[29.8681,48.1834],[29.8918,48.185],[29.9241,48.2216],[29.9537,48.2102],[29.9968,48.221],[30.0478,48.1552],[30.0835,48.1437],[30.2931,48.1357],[30.3305,48.1363],[30.3475,48.1636],[30.5018,48.1636],[30.5711,48.1504],[30.6262,48.1465],[30.6368,48.1627],[30.7048,48.1816],[30.7975,48.1757],[30.8272,48.1619],[30.841,48.1811],[30.8745,48.1792],[30.8801,48.1648],[30.9127,48.1576],[30.9761,48.1817],[31.007,48.2112],[31.0626,48.221],[31.1349,48.2167],[31.1835,48.208],[31.1898,48.1715],[31.2232,48.1609],[31.2295,48.1349],[31.2503,48.1209],[31.3439,48.1118],[31.3843,48.1249],[31.4145,48.1077],[31.4994,48.119],[31.5126,48.103],[31.5,48.0668],[31.5254,48.0585],[31.5337,48.0868],[31.5881,48.0883],[31.5913,48.1096],[31.6166,48.1187],[31.6403,48.1063],[31.7049,48.0933],[31.7603,48.0925],[31.7733,48.0593],[31.7509,48.0364],[31.7095,48.0169],[31.7554,47.9635],[31.7798,47.9449],[31.8212,47.9452],[31.866,47.8804],[31.8391,47.846],[31.8513,47.8077],[31.8681,47.7951],[31.9553,47.7958],[31.9683,47.8094],[32.0218,47.8098],[32.0639,47.7922],[32.0999,47.7584],[32.1387,47.7475],[32.1804,47.7691],[32.2151,47.8107],[32.2344,47.8204],[32.2987,47.8199],[32.3429,47.7962],[32.3745,47.8018],[32.467,47.7811],[32.6401,47.7996],[32.6503,47.8339],[32.6803,47.8433],[32.6609,47.897],[32.7144,47.9119],[32.7161,47.9267],[32.6891,47.9348],[32.6827,47.9549],[32.7167,47.9788],[32.7776,47.9893],[32.8179,47.9661],[32.8444,47.9862],[32.8856,48.0006],[32.884,48.029],[32.9068,48.0375],[32.9493,48.0346],[32.9793,48.0428],[33.0353,47.9665],[33.0461,47.9602],[33.0314,47.9257],[33.0691,47.911],[33.0823,47.8917],[33.0608,47.8309],[33.0603,47.7756],[33.0821,47.7501],[33.0834,47.7288],[33.0398,47.7261],[32.9838,47.71],[33.0143,47.6626],[33.0184,47.6319],[32.9917,47.6032],[33.0052,47.5917],[33.0893,47.5829],[33.1654,47.5685],[33.1934,47.5539],[33.2932,47.5357],[33.304,47.5136],[33.3335,47.4957],[33.3706,47.5155],[33.4767,47.5299],[33.5033,47.5671],[33.5629,47.5754],[33.5885,47.5569],[33.5753,47.5343],[33.5844,47.5147],[33.6302,47.5076],[33.6544,47.4868],[33.7525,47.491],[33.9018,47.5145],[34.0582,47.4807],[34.1575,47.4739],[34.2037,47.4784],[34.3193,47.5052],[34.2135,47.4807],[34.6,47.5],[35,47.52],[35.4,47.55],[35.8,47.57],[36.25,47.66],[36.6,47.72],[36.683,47.7228],[36.6614,47.7571],[36.7031,47.6908],[36.7408,47.6771],[36.72,47.6578],[36.7495,47.6365],[36.757,47.6002],[36.7979,47.6102],[36.8933,47.5509],[36.9307,47.5711],[36.9875,47.5525],[37.0212,47.5242],[37.0999,47.4778],[37.1341,47.4504],[37.1522,47.4639],[37.2209,47.4553],[37.2018,47.4291],[37.1819,47.3758],[37.1855,47.3591],[37.1637,47.3459],[37.1399,47.3686],[37.1002,47.3627],[37.0741,47.3188],[37.0724,47.3006],[37.0289,47.2876],[36.9774,47.2911],[36.9365,47.3051],[36.914,47.2836],[36.9335,47.2536],[36.9411,47.216],[36.9226,47.2028],[36.8699,47.1998],[36.8644,47.1824],[36.8977,47.1622],[36.9675,47.1355],[37.011,47.0656],[37.0525,47.0452],[37.0671,47.0581],[37.1185,47.0282],[37.0937,47],[37.1145,46.9657],[37.0912,46.955],[37.0619,46.9611],[37.0189,46.9357],[37.0096,46.9148],[37.0378,46.8767],[37.0598,46.8824],[37.0598,46.8444],[37.1172,46.8722],[37.1745,46.9001],[37.2024,46.9136],[37.2192,46.9177],[37.2893,46.9167],[37.3174,46.9008],[37.313,46.8756],[37.3352,46.8825],[37.3779,46.9339],[37.4335,46.9879],[37.4838,47.0274],[37.6322,47.0425],[37.6,47.3],[37.45,47.7],[37.35,48.1],[37.25,48.4],[37.1,48.5],[36.888,48.5353],[36.8921,48.5379],[36.8856,48.5767],[36.8682,48.5824],[36.8141,48.5756],[36.7983,48.55],[36.7475,48.55],[36.7471,48.5582],[36.7898,48.595],[36.7785,48.6056],[36.7344,48.6034],[36.7254,48.6259],[36.6673,48.621],[36.6311,48.6033],[36.5761,48.6046],[36.5458,48.6265],[36.5014,48.6429],[36.455,48.6382],[36.3824,48.5805],[36.3659,48.5616],[36.3748,48.5416],[36.3422,48.5314],[36.3152,48.5406],[36.294,48.5272],[36.2728,48.5381],[36.2829,48.55],[36.3039,48.5748],[36.2668,48.6011],[36.2869,48.6311],[36.2709,48.647],[36.1328,48.7237],[36.1707,48.7577],[36.1254,48.7926],[36.0793,48.8145],[36.0721,48.8291],[36.0003,48.8544],[35.9669,48.8531],[36.022,48.9001],[35.9797,48.952],[35.9307,48.9764],[35.8337,48.9442],[35.7837,48.9345],[35.7111,48.9536],[35.6792,48.948],[35.6125,48.96],[35.586,48.9747],[35.5598,48.9716],[35.4564,48.9766],[35.4205,49.0002],[35.3613,49.022],[35.2842,49.077],[35.219,49.1115],[35.1989,49.1336],[35.1478,49.1534],[35.0643,49.1544],[35.0359,49.1635],[34.9839,49.1637],[34.9897,49.1775],[34.9746,49.217],[34.9549,49.2396],[34.9729,49.2806],[35.0246,49.3172],[35.053,49.3162],[35.0902,49.2972],[35.1885,49.292],[35.2633,49.3117],[35.309,49.3421],[35.3606,49.392],[35.3514,49.4266],[35.3306,49.4347],[35.3137,49.4678],[35.3267,49.4854],[35.3627,49.4907],[35.4194,49.4809],[35.4693,49.5005],[35.3962,49.5407],[35.3984,49.5548],[35.4751,49.5604],[35.4198,49.6373],[35.4282,49.6639],[35.4197,49.6863],[35.3813,49.6881],[35.3598,49.6684],[35.2913,49.6793],[35.2769,49.6962],[35.239,49.7045],[35.2303,49.7315],[35.206,49.7429],[35.1913,49.7747],[35.1911,49.832],[35.1483,49.8553],[35.103,49.8477],[35.0407,49.868],[35.0086,49.8889],[34.9546,49.8901],[34.8882,49.9177],[34.864,49.9423],[34.8415,50],[34.8621,50.0216],[34.9132,50.0557],[34.9172,50.1324],[34.9082,50.146],[34.8143,50.1596],[34.7872,50.157],[34.7925,50.1575],[34.6,50.35],[34.3,50.6],[34.05,50.8],[33.929,50.9613],[33.8,51],[33.0524,51.0748],[33.0322,51.0768],[33.0082,51.0792],[32.8,51.1],[32.2,51.1],[31.6,51.15],[31.1,51.3],[30.75,51.45],[30.5507,51.6208],[30.5151,51.6037],[30.5566,51.6236],[30.5703,51.6515],[30.5703,51.6999],[30.6138,51.7029],[30.6306,51.7156],[30.6462,51.7545],[30.6182,51.7613],[30.6706,51.7905],[30.662,51.8194],[30.714,51.867],[30.7345,51.8737],[30.7497,51.8996],[30.7734,51.8982],[30.7795,51.8979],[30.8106,51.9184],[30.8031,51.9391],[30.858,51.9576],[30.9028,52],[30.9412,51.9938],[30.9405,52.0201],[30.9113,52.0226],[30.9188,52.0592],[30.9593,52.0747],[31.0963,52.0796],[31.1348,52.0767],[31.2049,52.0439],[31.2524,52.0445],[31.3044,52.0975],[31.3831,52.1175],[31.4749,52.1178],[31.6499,52.0968],[31.7643,52.1006],[31.7626,52.1498],[31.749,52.1639],[31.6987,52.1854],[31.6795,52.2159],[31.6994,52.2515],[31.6314,52.2648],[31.5674,52.3114],[31.5923,52.3286],[31.6081,52.3725],[31.5829,52.4028],[31.5879,52.4826],[31.553,52.5022],[31.5759,52.5247],[31.5593,52.5405],[31.6108,52.536],[31.6286,52.5481],[31.579,52.5778],[31.5361,52.6305],[31.4806,52.6825],[31.5479,52.7057],[31.5702,52.7253],[31.5608,52.7871],[31.5239,52.8117],[31.5051,52.8489],[31.451,52.8572],[31.3879,52.888],[31.3662,52.9086],[31.3226,52.9771],[31.2471,53.0144],[31.3192,53.0764],[31.3541,53.0821],[31.3616,53.12],[31.3785,53.182],[31.4164,53.2],[31.5359,53.1949],[31.614,53.2098],[31.6749,53.1952],[31.7386,53.1925],[31.7697,53.1693],[31.7805,53.1279],[31.7963,53.1124],[31.8555,53.1102],[31.9072,53.0919],[31.9547,53.09],[32.0099,53.1],[32.0828,53.082],[32.1173,53.0811],[32.1523,53.0963],[32.2059,53.1004],[32.2157,53.1255],[32.268,53.1248],[32.3528,53.1805],[32.4055,53.1927],[32.4557,53.2367],[32.4791,53.2749],[32.456,53.2778],[32.4548,53.3004],[32.5692,53.2988],[32.5959,53.3083],[32.58,53.3244],[32.6499,53.3337],[32.6979,53.3259],[32.7175,53.3349],[32.7044,53.3664],[32.7178,53.4311],[32.7012,53.4621],[32.6582,53.4557],[32.6417,53.469],[32.6503,53.4876],[32.6006,53.4924],[32.5768,53.486],[32.5543,53.5108],[32.4529,53.5464],[32.4115,53.5824],[32.3991,53.6354],[32.4806,53.6624],[32.4878,53.6847],[32.4616,53.7068],[32.4216,53.7158],[32.3718,53.7144],[32.2904,53.7609],[32.1648,53.7817],[32.106,53.8069],[32.0836,53.8096],[31.8732,53.7771],[31.7873,53.7944],[31.7447,53.7949],[31.7538,53.8196],[31.8101,53.8826],[31.8465,53.9923],[31.8139,54.0571],[31.7713,54.0485],[31.7481,54.0863],[31.7258,54.0975],[31.6669,54.1019],[31.5831,54.1295],[31.5064,54.1439],[31.3247,54.2292],[31.2992,54.2726],[31.2848,54.3474],[31.2487,54.3768],[31.209,54.448],[31.179,54.4534],[31.1679,54.4671],[31.0936,54.4794],[31.0646,54.4923],[31.0896,54.5359],[31.1395,54.5829],[31.1679,54.6216],[31.1286,54.6404],[31.1052,54.6683],[30.999,54.6713],[30.9806,54.7057],[30.8273,54.771],[30.7706,54.786],[30.7681,54.8299],[30.8261,54.8775],[30.8148,54.928],[30.8386,54.9392],[30.8995,54.9464],[30.9361,54.9732],[30.9066,55.0126],[30.9132,55.0246],[30.9806,55.0187],[31.0056,55.023],[31.0064,55.0424],[30.9703,55.1014],[30.984,55.1309],[30.9588,55.1444],[30.9598,55.1626],[30.8865,55.2045],[30.8568,55.2535],[30.8041,55.273],[30.7943,55.2855],[30.8112,55.3231],[30.8456,55.3511],[30.9059,55.376],[30.9186,55.4076],[30.8891,55.4334],[30.8872,55.4681],[30.9194,55.4923],[30.8994,55.4991],[30.9197,55.5345],[30.9071,55.5778],[30.9263,55.6025],[30.9529,55.6597],[31.0366,55.7081],[31.0473,55.7685],[31.1869,55.7372],[31.2118,55.7182],[31.2257,55.7275],[31.2924,55.7367],[31.3256,55.7227],[31.3552,55.7319],[31.4,55.733],[31.4,55.9065],[31.3897,55.92],[31.24,55.92],[31.2,56],[30.6,56.1],[29.6,56.4],[29,56.55],[28.4,56.65],[27.9923,56.6245],[27.9974,56.6038],[28.0287,56.5768],[28.1087,56.5552],[28.1322,56.536],[28.0992,56.5134],[28.0933,56.5016],[28.1045,56.4831],[28.1565,56.4462],[28.1679,56.4271],[28.1643,56.3928],[28.1744,56.3496],[28.2148,56.2814],[28.2153,56.256],[28.1931,56.231],[28.1691,56.1617],[28.1489,56.1424],[28.111,56.1568],[28.0682,56.1476],[28.0511,56.1407],[27.981,56.118],[27.9397,56.1131],[27.9115,56.1002],[27.8807,56.0639],[27.7812,56.0164],[27.7601,55.9754],[27.7444,55.9597],[27.645,55.9228],[27.6172,55.8786],[27.6101,55.831],[27.5927,55.7942],[27.5925,55.7942],[27.5646,55.7922],[27.4388,55.7987],[27.3746,55.8148],[27.361,55.8237],[27.3496,55.8312],[27.3444,55.8282],[27.2824,55.7919],[27.263,55.7872],[27.1732,55.8257],[27.1108,55.8363],[26.9794,55.8263],[26.9578,55.8186],[26.9001,55.7787],[26.8428,55.7193],[26.8228,55.7061],[26.743,55.6829],[26.6401,55.6956],[26.5945,55.667],[26.4811,55.6783],[26.3424,55.7163],[26.2797,55.7432],[26.2269,55.7969],[26.1786,55.8496],[26.0794,55.8981],[26.0176,55.9374],[25.9613,55.9585],[25.8713,55.9921],[25.7955,56.0401],[25.7663,56.0586],[25.7088,56.081],[25.6878,56.0983],[25.6619,56.1408],[25.6497,56.1438],[25.59,56.1411],[25.5228,56.1566],[25.4548,56.1496],[25.3491,56.1599],[25.1092,56.1831],[25.0731,56.1978],[25.044,56.228],[25.0262,56.2602],[24.9832,56.2905],[24.9621,56.3193],[24.9363,56.3799],[24.9101,56.422],[24.8923,56.4387],[24.871,56.4426],[24.8377,56.4039],[24.8055,56.4085],[24.6786,56.3773],[24.6391,56.36],[24.5728,56.3098],[24.539,56.2876],[24.4472,56.2605],[24.4144,56.2655],[24.3508,56.2916],[24.3185,56.2986],[24.2876,56.2955],[24.1668,56.2603],[24.1404,56.2576],[24.0752,56.2712],[23.9813,56.3124],[23.8711,56.3321],[23.825,56.3349],[23.7561,56.326],[23.725,56.3288],[23.7067,56.3544],[23.6099,56.3538],[23.5176,56.3287],[23.4816,56.3301],[23.378,56.3546],[23.3106,56.3706],[23.2884,56.373],[23.1726,56.358],[23.1542,56.3514],[23.1629,56.341],[23.1127,56.3109],[23.0623,56.3042],[23.0167,56.3239],[22.957,56.402],[22.9245,56.4121],[22.889,56.4084],[22.8596,56.3971],[22.8229,56.3829],[22.6814,56.3503],[22.6491,56.3531],[22.5782,56.387],[22.5117,56.396],[22.2149,56.3904],[22.1391,56.4157],[22.0941,56.4174],[21.9832,56.3884],[21.9653,56.3837],[21.7365,56.3237],[21.6845,56.3101],[21.596,56.3079],[21.5589,56.2973],[21.4855,56.2658],[21.4193,56.2374],[21.3583,56.2332],[21.3276,56.2244],[21.2904,56.2069],[21.2549,56.1852],[21.2296,56.1632],[21.2126,56.131],[21.2054,56.1034],[21.1904,56.0845],[21.1502,56.0782],[21.0914,56.0779],[21.0534,56.0726],[21.0427,56.1146],[21.0377,56.1263]]]}},
{"type":"Feature","properties":{"entityId":"lithuania-grand-duchy","from":1561,"to":1569,"certainty":"estimated","source":"유럽 쪽은 Natural Earth 1:10m admin-1(v5.1.2) 현대 행정구역 조각을 그 시기 국경에 맞춰 묶고, 조각이 역사 경계와 다른 곳은 선을 그어 나눈 근사. 유럽 밖(시베리아·중앙아시아·극동)은 대략적인 추정. 운영자 검수 필요"},"geometry":{"type":"Polygon","coordinates":[[[21.0377,56.1263],[21.0474,56.0699],[21.0546,56.023],[21.0571,55.9488],[21.0447,55.9177],[21.0447,55.88],[21.05,55.88],[21.17,55.85],[21.33,55.72],[21.45,55.6],[21.6,55.46],[21.85,55.35],[22.05,55.25],[22.3,55.12],[22.5303,55.0739],[22.5411,55.0758],[22.562,55.0676],[22.575,55.065],[22.5712,55.064],[22.5916,55.0376],[22.6084,54.9924],[22.6335,54.9579],[22.7155,54.9514],[22.7521,54.9311],[22.7492,54.9099],[22.8089,54.8938],[22.8293,54.8727],[22.8484,54.8138],[22.8328,54.7787],[22.7648,54.7371],[22.7248,54.7234],[22.727,54.7053],[22.7051,54.6865],[22.7081,54.6356],[22.6817,54.5699],[22.6746,54.4923],[22.6804,54.4532],[22.707,54.4187],[22.7672,54.3563],[22.8113,54.3926],[22.8589,54.3992],[22.9188,54.3811],[22.9733,54.3754],[22.9897,54.3534],[23.0416,54.341],[23.0321,54.3096],[23.0501,54.2948],[23.1171,54.3035],[23.2354,54.2542],[23.316,54.2363],[23.336,54.2263],[23.3823,54.1879],[23.4325,54.1693],[23.4739,54.1126],[23.4962,54.0446],[23.4965,54.022],[23.4593,53.9923],[23.4629,53.9725],[23.4904,53.9506],[23.4856,53.9393],[23.4863,53.9227],[23.4,53.75],[23.1,53.68],[22.74,53.49],[22.42,53.19],[22.5,53.05],[22.4,52.75],[22.3942,52.7413],[22.3997,52.695],[22.4118,52.6597],[22.4119,52.6006],[22.5176,52.5294],[22.5114,52.4946],[22.5198,52.4733],[22.5448,52.4625],[22.5388,52.4294],[22.5627,52.4041],[22.6119,52.3873],[22.689,52.3854],[22.8446,52.3656],[22.9228,52.3723],[22.9751,52.3528],[22.9845,52.3301],[23.0058,52.337],[23.0521,52.3096],[23.039,52.2892],[23.087,52.2923],[23.1502,52.2816],[23.1761,52.2851],[23.1945,52.2715],[23.1897,52.2405],[23.2123,52.2317],[23.3958,52.1996],[23.3885,52.1842],[23.4367,52.1757],[23.4505,52.1859],[23.4847,52.1586],[23.5125,52.1244],[23.5794,52.1215],[23.6375,52.0845],[23.6764,51.9941],[23.6476,51.9741],[23.6222,51.9279],[23.6214,51.8956],[23.5946,51.8433],[23.6287,51.8098],[23.6175,51.7865],[23.5604,51.7545],[23.5466,51.7136],[23.5604,51.672],[23.5324,51.659],[23.5438,51.6438],[23.5399,51.6071],[23.574,51.5553],[23.5728,51.5397],[23.6062,51.5174],[23.6148,51.4972],[23.6628,51.4802],[23.6487,51.454],[23.6976,51.4044],[23.6789,51.3941],[23.6839,51.3703],[23.634,51.3393],[23.6352,51.3047],[23.6873,51.2924],[23.7427,51.2163],[23.7652,51.199],[23.816,51.1788],[23.8747,51.1361],[23.8545,51.1215],[23.9042,51.0627],[23.9117,51.0068],[23.9551,50.9836],[23.9793,50.9375],[24.0469,50.898],[24.1302,50.8689],[24.1309,50.8391],[24.0469,50.8291],[24.0205,50.8386],[23.9699,50.8252],[23.9576,50.808],[23.9743,50.7762],[24.0259,50.767],[24.0128,50.7433],[24.0269,50.728],[24.081,50.713],[24.0749,50.6902],[24.1082,50.6303],[24.1259,50.6418],[24.1647,50.6402],[24.2179,50.5892],[24.2479,50.5818],[24.3214,50.5926],[24.3459,50.6089],[24.3795,50.6009],[24.4054,50.5674],[24.4343,50.549],[24.5008,50.5455],[24.5306,50.5241],[24.5354,50.5001],[24.5132,50.4867],[24.4634,50.4788],[24.4567,50.4614],[24.4988,50.4397],[24.5042,50.4106],[24.5418,50.4109],[24.5526,50.4384],[24.591,50.417],[24.6342,50.4134],[24.6394,50.3974],[24.6882,50.3767],[24.7052,50.3496],[24.773,50.3405],[24.8484,50.3549],[24.9114,50.3481],[24.9319,50.3702],[25.0039,50.3457],[25.0489,50.3473],[25.0638,50.3345],[25.0635,50.2948],[25.1041,50.2794],[25.1529,50.2925],[25.1957,50.288],[25.2075,50.2501],[25.1677,50.22],[25.1929,50.1816],[25.1854,50.128],[25.2023,50.095],[25.2959,50.0413],[25.3676,50.0131],[25.3727,49.9965],[25.3898,49.9873],[25.6,49.92],[25.8,49.85],[26,49.75],[26.2,49.62],[26.2239,49.62],[26.2249,49.6234],[26.2336,49.6356],[26.6,49.66],[27.2,49.62],[27.6,49.68],[27.7625,49.693],[27.769,49.7044],[27.7515,49.6735],[27.8077,49.6471],[27.8156,49.6309],[27.7666,49.5632],[27.786,49.5461],[27.7748,49.5272],[27.7321,49.5262],[27.7293,49.4886],[27.7628,49.4667],[27.74,49.4402],[27.7645,49.4303],[27.826,49.4299],[27.844,49.3961],[27.8088,49.3863],[27.8192,49.3412],[27.8442,49.335],[27.8521,49.3049],[27.8773,49.2769],[27.8567,49.2494],[27.8778,49.21],[27.889,49.1626],[27.8651,49.1502],[27.8106,49.1418],[27.7672,49.116],[27.7155,49.134],[27.6157,49.1599],[27.5683,49.122],[27.5005,49.1261],[27.4707,49.0759],[27.3987,49.0207],[27.3802,48.9868],[27.3984,48.957],[27.3721,48.9301],[27.3999,48.8689],[27.4032,48.8152],[27.4246,48.7768],[27.3962,48.7609],[27.4018,48.7316],[27.3932,48.6837],[27.3704,48.6297],[27.4097,48.6207],[27.4382,48.6025],[27.4728,48.5472],[27.5038,48.4724],[27.5571,48.4744],[27.583,48.486],[27.6048,48.4841],[27.6069,48.4578],[27.627,48.4513],[27.7518,48.452],[27.7853,48.4416],[27.8499,48.4096],[27.8854,48.3784],[27.9264,48.3394],[28.0032,48.3259],[28.0559,48.3215],[28.0928,48.3021],[28.0983,48.2841],[28.0787,48.2449],[28.1311,48.2396],[28.1785,48.2589],[28.1999,48.2117],[28.2403,48.2116],[28.2945,48.2365],[28.3406,48.2401],[28.3682,48.2306],[28.3634,48.191],[28.3222,48.1632],[28.3174,48.1354],[28.3496,48.1297],[28.3886,48.1686],[28.4116,48.1707],[28.4369,48.1499],[28.419,48.1222],[28.4474,48.0828],[28.49,48.0655],[28.4998,48.1089],[28.5434,48.088],[28.5191,48.0523],[28.4813,48.0332],[28.4666,47.9972],[28.4965,47.9878],[28.5055,47.9587],[28.4962,47.9155],[28.478,47.8886],[28.504,47.8833],[28.5305,47.8929],[28.5692,47.8871],[28.637,47.8421],[28.6692,47.8581],[28.6568,47.8772],[28.6579,47.8987],[28.6832,47.9339],[28.7204,47.9527],[28.7556,47.9572],[28.7848,47.9828],[28.8128,47.9654],[28.8303,47.9411],[28.8289,47.9171],[28.861,47.8997],[28.9421,47.8832],[28.9803,47.8755],[29.0181,47.8535],[29.0175,47.8269],[28.9803,47.7656],[28.9756,47.7434],[28.9803,47.6874],[28.9954,47.6509],[28.9865,47.6223],[29.0157,47.5821],[29.0267,47.5295],[29.0486,47.5062],[29.0928,47.4874],[29.108,47.4694],[29.1268,47.4656],[29.1372,47.484],[29.1174,47.5333],[29.1305,47.5596],[29.1821,47.6132],[29.1924,47.6509],[29.197,47.7175],[29.2386,47.756],[29.222,47.7748],[29.1778,47.7897],[29.1867,47.8182],[29.2328,47.8571],[29.236,47.8707],[29.1866,47.8836],[29.1646,47.9056],[29.148,47.9554],[29.124,47.976],[29.0927,47.9802],[29.061,47.9698],[29.0172,47.9311],[28.9808,47.9264],[28.9361,47.9422],[28.8826,47.9768],[28.8621,48.0005],[28.8798,48.0106],[28.9642,48.0358],[29.0461,48.0831],[29.0412,48.1282],[29.0783,48.1445],[29.104,48.1436],[29.1699,48.1057],[29.2463,48.0845],[29.3384,48.0862],[29.4347,48.1131],[29.4972,48.0928],[29.5855,48.0871],[29.6798,48.0922],[29.6975,48.1364],[29.6659,48.1689],[29.6825,48.1821],[29.7172,48.1817],[29.7748,48.2031],[29.8204,48.211],[29.8681,48.1834],[29.8918,48.185],[29.9241,48.2216],[29.9537,48.2102],[29.9968,48.221],[30.0478,48.1552],[30.0835,48.1437],[30.2931,48.1357],[30.3305,48.1363],[30.3475,48.1636],[30.5018,48.1636],[30.5711,48.1504],[30.6262,48.1465],[30.6368,48.1627],[30.7048,48.1816],[30.7975,48.1757],[30.8272,48.1619],[30.841,48.1811],[30.8745,48.1792],[30.8801,48.1648],[30.9127,48.1576],[30.9761,48.1817],[31.007,48.2112],[31.0626,48.221],[31.1349,48.2167],[31.1835,48.208],[31.1898,48.1715],[31.2232,48.1609],[31.2295,48.1349],[31.2503,48.1209],[31.3439,48.1118],[31.3843,48.1249],[31.4145,48.1077],[31.4994,48.119],[31.5126,48.103],[31.5,48.0668],[31.5254,48.0585],[31.5337,48.0868],[31.5881,48.0883],[31.5913,48.1096],[31.6166,48.1187],[31.6403,48.1063],[31.7049,48.0933],[31.7603,48.0925],[31.7733,48.0593],[31.7509,48.0364],[31.7095,48.0169],[31.7554,47.9635],[31.7798,47.9449],[31.8212,47.9452],[31.866,47.8804],[31.8391,47.846],[31.8513,47.8077],[31.8681,47.7951],[31.9553,47.7958],[31.9683,47.8094],[32.0218,47.8098],[32.0639,47.7922],[32.0999,47.7584],[32.1387,47.7475],[32.1804,47.7691],[32.2151,47.8107],[32.2344,47.8204],[32.2987,47.8199],[32.3429,47.7962],[32.3745,47.8018],[32.467,47.7811],[32.6401,47.7996],[32.6503,47.8339],[32.6803,47.8433],[32.6609,47.897],[32.7144,47.9119],[32.7161,47.9267],[32.6891,47.9348],[32.6827,47.9549],[32.7167,47.9788],[32.7776,47.9893],[32.8179,47.9661],[32.8444,47.9862],[32.8856,48.0006],[32.884,48.029],[32.9068,48.0375],[32.9493,48.0346],[32.9793,48.0428],[33.0353,47.9665],[33.0461,47.9602],[33.0314,47.9257],[33.0691,47.911],[33.0823,47.8917],[33.0608,47.8309],[33.0603,47.7756],[33.0821,47.7501],[33.0834,47.7288],[33.0398,47.7261],[32.9838,47.71],[33.0143,47.6626],[33.0184,47.6319],[32.9917,47.6032],[33.0052,47.5917],[33.0893,47.5829],[33.1654,47.5685],[33.1934,47.5539],[33.2932,47.5357],[33.304,47.5136],[33.3335,47.4957],[33.3706,47.5155],[33.4767,47.5299],[33.5033,47.5671],[33.5629,47.5754],[33.5885,47.5569],[33.5753,47.5343],[33.5844,47.5147],[33.6302,47.5076],[33.6544,47.4868],[33.7525,47.491],[33.9018,47.5145],[34.0582,47.4807],[34.1575,47.4739],[34.2037,47.4784],[34.3193,47.5052],[34.2135,47.4807],[34.6,47.5],[35,47.52],[35.4,47.55],[35.8,47.57],[36.25,47.66],[36.6,47.72],[36.683,47.7228],[36.6614,47.7571],[36.7031,47.6908],[36.7408,47.6771],[36.72,47.6578],[36.7495,47.6365],[36.757,47.6002],[36.7979,47.6102],[36.8933,47.5509],[36.9307,47.5711],[36.9875,47.5525],[37.0212,47.5242],[37.0999,47.4778],[37.1341,47.4504],[37.1522,47.4639],[37.2209,47.4553],[37.2018,47.4291],[37.1819,47.3758],[37.1855,47.3591],[37.1637,47.3459],[37.1399,47.3686],[37.1002,47.3627],[37.0741,47.3188],[37.0724,47.3006],[37.0289,47.2876],[36.9774,47.2911],[36.9365,47.3051],[36.914,47.2836],[36.9335,47.2536],[36.9411,47.216],[36.9226,47.2028],[36.8699,47.1998],[36.8644,47.1824],[36.8977,47.1622],[36.9675,47.1355],[37.011,47.0656],[37.0525,47.0452],[37.0671,47.0581],[37.1185,47.0282],[37.0937,47],[37.1145,46.9657],[37.0912,46.955],[37.0619,46.9611],[37.0189,46.9357],[37.0096,46.9148],[37.0378,46.8767],[37.0598,46.8824],[37.0598,46.8444],[37.1172,46.8722],[37.1745,46.9001],[37.2024,46.9136],[37.2192,46.9177],[37.2893,46.9167],[37.3174,46.9008],[37.313,46.8756],[37.3352,46.8825],[37.3779,46.9339],[37.4335,46.9879],[37.4838,47.0274],[37.6322,47.0425],[37.6,47.3],[37.45,47.7],[37.35,48.1],[37.25,48.4],[37.1,48.5],[36.888,48.5353],[36.8921,48.5379],[36.8856,48.5767],[36.8682,48.5824],[36.8141,48.5756],[36.7983,48.55],[36.7475,48.55],[36.7471,48.5582],[36.7898,48.595],[36.7785,48.6056],[36.7344,48.6034],[36.7254,48.6259],[36.6673,48.621],[36.6311,48.6033],[36.5761,48.6046],[36.5458,48.6265],[36.5014,48.6429],[36.455,48.6382],[36.3824,48.5805],[36.3659,48.5616],[36.3748,48.5416],[36.3422,48.5314],[36.3152,48.5406],[36.294,48.5272],[36.2728,48.5381],[36.2829,48.55],[36.3039,48.5748],[36.2668,48.6011],[36.2869,48.6311],[36.2709,48.647],[36.1328,48.7237],[36.1707,48.7577],[36.1254,48.7926],[36.0793,48.8145],[36.0721,48.8291],[36.0003,48.8544],[35.9669,48.8531],[36.022,48.9001],[35.9797,48.952],[35.9307,48.9764],[35.8337,48.9442],[35.7837,48.9345],[35.7111,48.9536],[35.6792,48.948],[35.6125,48.96],[35.586,48.9747],[35.5598,48.9716],[35.4564,48.9766],[35.4205,49.0002],[35.3613,49.022],[35.2842,49.077],[35.219,49.1115],[35.1989,49.1336],[35.1478,49.1534],[35.0643,49.1544],[35.0359,49.1635],[34.9839,49.1637],[34.9897,49.1775],[34.9746,49.217],[34.9549,49.2396],[34.9729,49.2806],[35.0246,49.3172],[35.053,49.3162],[35.0902,49.2972],[35.1885,49.292],[35.2633,49.3117],[35.309,49.3421],[35.3606,49.392],[35.3514,49.4266],[35.3306,49.4347],[35.3137,49.4678],[35.3267,49.4854],[35.3627,49.4907],[35.4194,49.4809],[35.4693,49.5005],[35.3962,49.5407],[35.3984,49.5548],[35.4751,49.5604],[35.4198,49.6373],[35.4282,49.6639],[35.4197,49.6863],[35.3813,49.6881],[35.3598,49.6684],[35.2913,49.6793],[35.2769,49.6962],[35.239,49.7045],[35.2303,49.7315],[35.206,49.7429],[35.1913,49.7747],[35.1911,49.832],[35.1483,49.8553],[35.103,49.8477],[35.0407,49.868],[35.0086,49.8889],[34.9546,49.8901],[34.8882,49.9177],[34.864,49.9423],[34.8415,50],[34.8621,50.0216],[34.9132,50.0557],[34.9172,50.1324],[34.9082,50.146],[34.8143,50.1596],[34.7872,50.157],[34.7925,50.1575],[34.6,50.35],[34.3,50.6],[34.05,50.8],[33.929,50.9613],[33.8,51],[33.0524,51.0748],[33.0322,51.0768],[33.0082,51.0792],[32.8,51.1],[32.2,51.1],[31.6,51.15],[31.1,51.3],[30.75,51.45],[30.5507,51.6208],[30.5151,51.6037],[30.5566,51.6236],[30.5703,51.6515],[30.5703,51.6999],[30.6138,51.7029],[30.6306,51.7156],[30.6462,51.7545],[30.6182,51.7613],[30.6706,51.7905],[30.662,51.8194],[30.714,51.867],[30.7345,51.8737],[30.7497,51.8996],[30.7734,51.8982],[30.7795,51.8979],[30.8106,51.9184],[30.8031,51.9391],[30.858,51.9576],[30.9028,52],[30.9412,51.9938],[30.9405,52.0201],[30.9113,52.0226],[30.9188,52.0592],[30.9593,52.0747],[31.0963,52.0796],[31.1348,52.0767],[31.2049,52.0439],[31.2524,52.0445],[31.3044,52.0975],[31.3831,52.1175],[31.4749,52.1178],[31.6499,52.0968],[31.7643,52.1006],[31.7626,52.1498],[31.749,52.1639],[31.6987,52.1854],[31.6795,52.2159],[31.6994,52.2515],[31.6314,52.2648],[31.5674,52.3114],[31.5923,52.3286],[31.6081,52.3725],[31.5829,52.4028],[31.5879,52.4826],[31.553,52.5022],[31.5759,52.5247],[31.5593,52.5405],[31.6108,52.536],[31.6286,52.5481],[31.579,52.5778],[31.5361,52.6305],[31.4806,52.6825],[31.5479,52.7057],[31.5702,52.7253],[31.5608,52.7871],[31.5239,52.8117],[31.5051,52.8489],[31.451,52.8572],[31.3879,52.888],[31.3662,52.9086],[31.3226,52.9771],[31.2471,53.0144],[31.3192,53.0764],[31.3541,53.0821],[31.3616,53.12],[31.3785,53.182],[31.4164,53.2],[31.5359,53.1949],[31.614,53.2098],[31.6749,53.1952],[31.7386,53.1925],[31.7697,53.1693],[31.7805,53.1279],[31.7963,53.1124],[31.8555,53.1102],[31.9072,53.0919],[31.9547,53.09],[32.0099,53.1],[32.0828,53.082],[32.1173,53.0811],[32.1523,53.0963],[32.2059,53.1004],[32.2157,53.1255],[32.268,53.1248],[32.3528,53.1805],[32.4055,53.1927],[32.4557,53.2367],[32.4791,53.2749],[32.456,53.2778],[32.4548,53.3004],[32.5692,53.2988],[32.5959,53.3083],[32.58,53.3244],[32.6499,53.3337],[32.6979,53.3259],[32.7175,53.3349],[32.7044,53.3664],[32.7178,53.4311],[32.7012,53.4621],[32.6582,53.4557],[32.6417,53.469],[32.6503,53.4876],[32.6006,53.4924],[32.5768,53.486],[32.5543,53.5108],[32.4529,53.5464],[32.4115,53.5824],[32.3991,53.6354],[32.4806,53.6624],[32.4878,53.6847],[32.4616,53.7068],[32.4216,53.7158],[32.3718,53.7144],[32.2904,53.7609],[32.1648,53.7817],[32.106,53.8069],[32.0836,53.8096],[31.8732,53.7771],[31.7873,53.7944],[31.7447,53.7949],[31.7538,53.8196],[31.8101,53.8826],[31.8465,53.9923],[31.8139,54.0571],[31.7713,54.0485],[31.7481,54.0863],[31.7258,54.0975],[31.6669,54.1019],[31.5831,54.1295],[31.5064,54.1439],[31.3247,54.2292],[31.2992,54.2726],[31.2848,54.3474],[31.2487,54.3768],[31.209,54.448],[31.179,54.4534],[31.1679,54.4671],[31.0936,54.4794],[31.0646,54.4923],[31.0896,54.5359],[31.1395,54.5829],[31.1679,54.6216],[31.1286,54.6404],[31.1052,54.6683],[30.999,54.6713],[30.9806,54.7057],[30.8273,54.771],[30.7706,54.786],[30.7681,54.8299],[30.8261,54.8775],[30.8148,54.928],[30.8386,54.9392],[30.8995,54.9464],[30.9361,54.9732],[30.9066,55.0126],[30.9132,55.0246],[30.9806,55.0187],[31.0056,55.023],[31.0064,55.0424],[30.9703,55.1014],[30.984,55.1309],[30.9588,55.1444],[30.9598,55.1626],[30.8865,55.2045],[30.8568,55.2535],[30.8041,55.273],[30.7943,55.2855],[30.8112,55.3231],[30.8456,55.3511],[30.9059,55.376],[30.9186,55.4076],[30.8891,55.4334],[30.8872,55.4681],[30.9194,55.4923],[30.8994,55.4991],[30.9197,55.5345],[30.9071,55.5778],[30.9263,55.6025],[30.9529,55.6597],[31.0366,55.7081],[31.0473,55.7685],[31.1869,55.7372],[31.2118,55.7182],[31.2257,55.7275],[31.2924,55.7367],[31.3256,55.7227],[31.3552,55.7319],[31.4,55.733],[31.4,55.9065],[31.3897,55.92],[31.24,55.92],[31.2,56],[30.6,56.1],[29.6,56.4],[29,56.55],[28.4,56.65],[27.9923,56.6245],[27.9974,56.6038],[27.9922,56.625],[27.9913,56.67],[27.981,56.687],[27.8826,56.7255],[27.8655,56.7427],[27.8761,56.7594],[27.9189,56.8059],[27.9135,56.8202],[27.8308,56.8643],[27.7864,56.8713],[27.7441,56.8648],[27.6612,56.8393],[27.6444,56.8418],[27.6284,56.8442],[27.6487,56.8793],[27.7151,56.9574],[27.7234,56.9988],[27.7458,57.0315],[27.7455,57.068],[27.6961,57.0855],[27.6822,57.1037],[27.701,57.1188],[27.794,57.1434],[27.8243,57.1591],[27.8412,57.2112],[27.8461,57.2673],[27.8403,57.2906],[27.8091,57.3139],[27.708,57.3481],[27.6944,57.3564],[27.6408,57.389],[27.5363,57.4157],[27.5113,57.4304],[27.5256,57.4684],[27.5282,57.5285],[27.3529,57.5276],[27.328,57.5832],[27.3748,57.5979],[27.387,57.6276],[27.377,57.6567],[27.4077,57.689],[27.4904,57.7046],[27.5078,57.7148],[27.5024,57.7725],[27.5539,57.7948],[27.5246,57.8073],[27.5563,57.8131],[27.7007,57.8248],[27.7635,57.8387],[27.7993,57.8611],[27.7744,57.8907],[27.6731,57.9128],[27.6594,57.9325],[27.6752,57.9678],[27.6691,57.992],[27.6316,58.0042],[27.6366,58.0592],[27.6304,58.0883],[27.5797,58.1259],[27.5196,58.1945],[27.4954,58.2215],[27.4828,58.2686],[27.4941,58.3195],[27.5549,58.3952],[27.4288,58.7094],[27.4106,58.7549],[27.4463,58.8189],[26.9591,58.8653],[26.9249,58.8672],[26.8968,58.8823],[26.8467,58.8927],[26.7517,58.8816],[26.728,58.9417],[26.703,58.9559],[26.667,58.9557],[26.5744,58.9334],[26.505,58.9388],[26.4569,58.9202],[26.4518,58.8951],[26.4104,58.8855],[26.3565,58.896],[26.33,58.916],[26.2946,58.9161],[26.2353,58.8983],[26.1537,58.8872],[26.1114,58.8568],[26.1138,58.8353],[26.0309,58.8318],[25.9655,58.8105],[25.9556,58.7735],[25.9273,58.7615],[25.8873,58.7674],[25.8279,58.7417],[25.7833,58.705],[25.7771,58.6898],[25.6593,58.6664],[25.5569,58.642],[25.5396,58.63],[25.5091,58.6334],[25.4378,58.6137],[25.349,58.6151],[25.2585,58.6333],[25.2926,58.7021],[25.2833,58.7136],[25.1998,58.7258],[25.1299,58.7202],[25.0628,58.7282],[24.9719,58.7011],[24.9162,58.6723],[24.8976,58.7358],[24.8801,58.7467],[24.8371,58.7492],[24.7865,58.7414],[24.6906,58.7512],[24.6544,58.724],[24.5647,58.7114],[24.5517,58.7338],[24.525,58.7365],[24.4615,58.7142],[24.4431,58.6903],[24.4147,58.677],[24.3635,58.6703],[24.1616,58.6887],[24.1332,58.7015],[24.0221,58.671],[23.9645,58.673],[23.9329,58.6305],[23.8591,58.6303],[23.8652,58.5862],[23.9028,58.5556],[23.8246,58.5592],[23.7476,58.5489],[23.6511,58.5562],[23.5858,58.5442],[23.5842,58.5468],[23.5629,58.5468],[23.5629,58.5358],[23.6034,58.5131],[23.6811,58.4695],[23.6774,58.4352],[23.7189,58.3996],[23.741,58.3431],[23.7771,58.355],[23.8057,58.3465],[23.8187,58.35],[23.8502,58.3427],[23.8547,58.3397],[23.8709,58.3379],[23.9467,58.3205],[24.0606,58.2566],[24.0608,58.2567],[24.061,58.2566],[24.0727,58.2606],[24.0835,58.2509],[24.1117,58.241],[24.1515,58.2731],[24.1653,58.2759],[24.2108,58.2714],[24.2559,58.2895],[24.2869,58.3185],[24.2898,58.3304],[24.2974,58.3382],[24.4176,58.3798],[24.4266,58.3777],[24.339,57.9282],[24.3338,57.9213],[24.331,57.911],[24.3306,57.9104],[24.3301,57.9079],[24.3244,57.8868],[24.3062,57.8682],[24.2888,57.8453],[24.2888,57.8089],[24.2996,57.7438],[24.3001,57.7431],[24.2169,57.4086],[24.1857,57.2832],[24.1753,57.2413],[24.1582,57.1724],[24.1541,57.156],[24.1457,57.1221],[24.1422,57.1082],[24.1116,57.0939],[24.0692,57.0741],[24.0357,57.069],[24.0079,57.0454],[23.9586,57.0223],[23.9494,57.0221],[23.9201,57.0213],[23.9201,57.0045],[23.9269,57.0063],[23.9343,56.997],[23.9545,56.9914],[23.9928,56.9845],[24.001,56.9793],[23.9886,56.9647],[23.9492,56.9468],[23.9427,56.9387],[23.9715,56.9332],[24.0024,56.9237],[24.0266,56.9196],[24.0403,56.91],[24.0621,56.8984],[24.0663,56.8861],[24.0708,56.8725],[24.0881,56.8761],[24.0994,56.8785],[24.1123,56.8926],[24.1554,56.9024],[24.197,56.8821],[24.1768,56.8675],[24.1893,56.8515],[24.2179,56.8282],[24.259,56.8246],[24.3109,56.8246],[24.342,56.8511],[24.3862,56.8421],[24.444,56.8377],[24.4578,56.8375],[24.4759,56.8322],[24.5053,56.8185],[24.5127,56.8171],[24.523,56.7953],[24.537,56.7775],[24.5331,56.7592],[24.5255,56.7524],[24.5219,56.7136],[24.5561,56.707],[24.6009,56.707],[24.6341,56.6769],[24.5897,56.661],[24.5997,56.6207],[24.6299,56.6015],[24.6568,56.5998],[24.6614,56.5883],[24.6972,56.5762],[24.6713,56.5668],[24.6571,56.5436],[24.7325,56.5442],[24.95,56.5786],[25.0422,56.59],[25.0568,56.6013],[25.0495,56.612],[25.0802,56.6215],[25.1181,56.6244],[25.1386,56.6191],[25.1631,56.6129],[25.2153,56.5889],[25.2354,56.5856],[25.2934,56.5911],[25.3302,56.5976],[25.3984,56.6307],[25.4231,56.6273],[25.4648,56.6129],[25.4955,56.6118],[25.4936,56.5891],[25.509,56.5788],[25.5698,56.5767],[25.6015,56.5789],[25.6467,56.5964],[25.6883,56.6008],[25.744,56.6173],[25.7569,56.6123],[25.7561,56.592],[25.7481,56.5664],[25.7692,56.5541],[25.7869,56.5303],[25.8264,56.5272],[25.8207,56.4868],[25.8452,56.4779],[25.8831,56.4757],[25.8766,56.4953],[26.0553,56.4514],[26.0885,56.4064],[26.1089,56.4059],[26.157,56.3803],[26.1638,56.3425],[26.1843,56.3155],[26.1843,56.2909],[26.1979,56.2841],[26.189,56.2347],[26.1935,56.2261],[26.2643,56.2108],[26.3008,56.1833],[26.3283,56.1627],[26.3407,56.1342],[26.3453,56.0935],[26.357,56.0554],[26.3696,56.0438],[26.3655,56.0217],[26.393,55.9777],[26.3726,55.9538],[26.3378,55.9654],[26.2915,55.9406],[26.2865,55.924],[26.3196,55.9075],[26.2766,55.881],[26.3362,55.8397],[26.3494,55.8099],[26.2584,55.8049],[26.2269,55.7969],[26.1786,55.8496],[26.0794,55.8981],[26.0176,55.9374],[25.9613,55.9585],[25.8713,55.9921],[25.7955,56.0401],[25.7663,56.0586],[25.7088,56.081],[25.6878,56.0983],[25.6619,56.1408],[25.6497,56.1438],[25.59,56.1411],[25.5228,56.1566],[25.4548,56.1496],[25.3491,56.1599],[25.1092,56.1831],[25.0731,56.1978],[25.044,56.228],[25.0262,56.2602],[24.9832,56.2905],[24.9621,56.3193],[24.9363,56.3799],[24.9101,56.422],[24.8923,56.4387],[24.871,56.4426],[24.8377,56.4039],[24.8055,56.4085],[24.6786,56.3773],[24.6391,56.36],[24.5728,56.3098],[24.539,56.2876],[24.4472,56.2605],[24.4144,56.2655],[24.3508,56.2916],[24.3185,56.2986],[24.2876,56.2955],[24.1668,56.2603],[24.1404,56.2576],[24.0752,56.2712],[23.9813,56.3124],[23.8711,56.3321],[23.825,56.3349],[23.7561,56.326],[23.725,56.3288],[23.7067,56.3544],[23.6099,56.3538],[23.5176,56.3287],[23.4816,56.3301],[23.378,56.3546],[23.3106,56.3706],[23.2884,56.373],[23.1726,56.358],[23.1542,56.3514],[23.1629,56.341],[23.1127,56.3109],[23.0623,56.3042],[23.0167,56.3239],[22.957,56.402],[22.9245,56.4121],[22.889,56.4084],[22.8596,56.3971],[22.8229,56.3829],[22.6814,56.3503],[22.6491,56.3531],[22.5782,56.387],[22.5117,56.396],[22.2149,56.3904],[22.1391,56.4157],[22.0941,56.4174],[21.9832,56.3884],[21.9653,56.3837],[21.7365,56.3237],[21.6845,56.3101],[21.596,56.3079],[21.5589,56.2973],[21.4855,56.2658],[21.4193,56.2374],[21.3583,56.2332],[21.3276,56.2244],[21.2904,56.2069],[21.2549,56.1852],[21.2296,56.1632],[21.2126,56.131],[21.2054,56.1034],[21.1904,56.0845],[21.1502,56.0782],[21.0914,56.0779],[21.0534,56.0726],[21.0427,56.1146],[21.0377,56.1263]]]}}
]}
