{"type":"FeatureCollection","features":[
{"type":"Feature","properties":{"entityId":"lordship-of-ireland","from":1453,"to":1542,"certainty":"estimated","source":"유럽 쪽은 Natural Earth 1:10m admin-1(v5.1.2) 현대 행정구역 조각을 그 시기 국경에 맞춰 묶고, 조각이 역사 경계와 다른 곳은 선을 그어 나눈 근사. 유럽 밖(시베리아·중앙아시아·극동)은 대략적인 추정. 운영자 검수 필요"},"geometry":{"type":"MultiPolygon","coordinates":[[[[-5.8577,54.6687],[-5.834,54.6551],[-5.823,54.6585],[-5.8053,54.6641],[-5.7883,54.6664],[-5.7695,54.6746],[-5.748,54.6804],[-5.7324,54.677],[-5.7207,54.6717],[-5.684,54.6697],[-5.5747,54.6801],[-5.565,54.6723],[-5.5366,54.6575],[-5.5144,54.5979],[-5.5026,54.5835],[-5.4789,54.5695],[-5.4686,54.5163],[-5.4371,54.4879],[-5.4338,54.461],[-5.4643,54.4252],[-5.4574,54.4087],[-5.4612,54.3921],[-5.4891,54.3696],[-5.4748,54.3586],[-5.502,54.3397],[-5.5277,54.3453],[-5.5471,54.3791],[-5.559,54.3826],[-5.5766,54.4028],[-5.5717,54.4256],[-5.5487,54.4428],[-5.5437,54.4578],[-5.5473,54.4881],[-5.5677,54.5127],[-5.6145,54.537],[-5.6664,54.5479],[-5.6696,54.5437],[-5.6623,54.5232],[-5.637,54.522],[-5.6256,54.5163],[-5.6572,54.5088],[-5.6543,54.5005],[-5.64,54.4958],[-5.6446,54.4721],[-5.6385,54.4636],[-5.6256,54.4411],[-5.6565,54.388],[-5.6573,54.3811],[-5.6342,54.3732],[-5.6221,54.3767],[-5.5797,54.3837],[-5.5591,54.3708],[-5.5565,54.3707],[-5.5567,54.3703],[-5.5565,54.3703],[-5.5569,54.3694],[-5.5505,54.3654],[-5.5407,54.3273],[-5.553,54.2985],[-5.6126,54.2556],[-5.6331,54.2556],[-5.64,54.2351],[-5.6558,54.2297],[-5.6788,54.2462],[-5.7005,54.2473],[-5.7077,54.2453],[-5.8265,54.2349],[-5.8553,54.2002],[-5.8699,54.1697],[-5.8832,54.1208],[-5.912,54.0913],[-5.9538,54.0787],[-5.9847,54.0593],[-6.0405,54.0364],[-6.0665,54.0352],[-6.0776,54.021],[-6.1112,53.978],[-6.1148,53.9734],[-6.1972,53.8678],[-6.1928,53.8485],[-6.1779,53.7845],[-6.1705,53.7525],[-6.1631,53.7204],[-6.1556,53.6884],[-6.1482,53.6563],[-6.1333,53.5922],[-6.0924,53.5771],[-6.0773,53.5546],[-6.0749,53.5397],[-6.0985,53.5097],[-6.11,53.4915],[-6.0872,53.3932],[-6.0691,53.3925],[-6.0509,53.3854],[-6.062,53.3674],[-6.0825,53.373],[-6.0781,53.354],[-6.072,53.3278],[-6.0645,53.2953],[-6.057,53.2628],[-6.0494,53.2303],[-6.0419,53.1978],[-6.0317,53.1539],[-6.0318,53.1538],[-6.0317,53.1535],[-6.0492,53.1328],[-6.0304,53.111],[-6.0394,53.0404],[-6.0402,53.0382],[-6.0356,52.9964],[-5.9966,52.9649],[-6.0283,52.9302],[-6.0281,52.9281],[-6.0281,52.928],[-6.0281,52.9277],[-6.0687,52.8689],[-6.0644,52.8646],[-6.0823,52.8542],[-6.1289,52.8079],[-6.1535,52.7648],[-6.151,52.7416],[-6.1808,52.7065],[-6.1973,52.6638],[-6.2078,52.5929],[-6.2065,52.5885],[-6.2091,52.5458],[-6.2829,52.4671],[-6.2864,52.4652],[-6.3449,52.4017],[-6.3656,52.3884],[-6.3661,52.3444],[-6.39,52.3588],[-6.4211,52.3593],[-6.4633,52.3445],[-6.3982,52.2995],[-6.373,52.3227],[-6.3898,52.2956],[-6.3855,52.2907],[-6.3233,52.2476],[-6.3236,52.2475],[-6.3235,52.2474],[-6.3236,52.2474],[-6.3233,52.2472],[-6.3266,52.2459],[-6.3183,52.2408],[-6.347,52.1973],[-6.3699,52.18],[-6.3995,52.1855],[-6.381,52.2076],[-6.4001,52.2109],[-6.4256,52.1938],[-6.4691,52.1936],[-6.4664,52.1989],[-6.548,52.1897],[-6.5972,52.1796],[-6.6403,52.2022],[-6.6981,52.2125],[-6.7783,52.2107],[-6.781,52.2105],[-6.8227,52.1931],[-6.8248,52.1793],[-6.8971,52.152],[-6.9321,52.1247],[-6.9398,52.1432],[-6.9039,52.1623],[-6.9049,52.1653],[-6.9141,52.1691],[-6.9394,52.2093],[-6.9766,52.1969],[-6.98,52.1859],[-6.9551,52.1862],[-7.0172,52.1384],[-7.106,52.1309],[-7.0969,52.1401],[-7.1421,52.1419],[-7.5896,51.993],[-7.5899,51.9912],[-7.6354,51.9768],[-7.6376,51.977],[-7.7211,51.9492],[-7.7233,51.9446],[-7.7325,51.9454],[-7.78,51.9296],[-7.8274,51.9138],[-7.8748,51.898],[-7.8856,51.8944],[-7.8806,51.892],[-7.8915,51.8819],[-7.9498,51.8689],[-7.9541,51.8653],[-8.0188,51.8405],[-8.0041,51.8299],[-8.1342,51.8048],[-8.156,51.8044],[-8.2927,51.7589],[-8.3071,51.7541],[-8.3457,51.7247],[-8.41,51.7098],[-8.4355,51.6927],[-8.4546,51.7051],[-8.4704,51.6998],[-8.469,51.6841],[-8.4853,51.6948],[-8.5045,51.6884],[-8.5211,51.6784],[-8.5392,51.6484],[-8.5317,51.6108],[-8.5587,51.638],[-8.5891,51.6459],[-8.6382,51.6374],[-8.6911,51.6408],[-8.7353,51.6361],[-8.7362,51.6355],[-8.7266,51.6313],[-8.69,51.6313],[-8.6825,51.6108],[-8.6998,51.5972],[-8.6962,51.5766],[-8.7428,51.5756],[-8.7651,51.5903],[-8.8014,51.5926],[-8.8145,51.584],[-8.8729,51.5735],[-8.888,51.5556],[-8.9332,51.5353],[-8.971,51.5558],[-9.201,51.5145],[-9.2238,51.4873],[-9.2648,51.4873],[-9.2699,51.5021],[-9.2969,51.4972],[-9.2972,51.4972],[-9.3492,51.474],[-9.3814,51.4736],[-9.3467,51.5009],[-9.3769,51.4946],[-9.3629,51.5106],[-9.3765,51.5151],[-9.4018,51.5009],[-9.4139,51.5111],[-9.4101,51.5221],[-9.4627,51.5285],[-9.5345,51.5215],[-9.5515,51.5174],[-9.5563,51.5081],[-9.6284,51.4941],[-9.6324,51.4979],[-9.7132,51.4784],[-9.7035,51.4736],[-9.7718,51.4531],[-9.769,51.4643],[-9.8202,51.4457],[-9.8134,51.4736],[-9.8262,51.4822],[-9.8373,51.4833],[-9.8371,51.4835],[-9.8369,51.4837],[-9.8373,51.4837],[-9.8337,51.4871],[-9.8339,51.4873],[-9.8333,51.4875],[-9.7549,51.562],[-9.785,51.5525],[-9.8475,51.5494],[-9.7864,51.5735],[-9.7703,51.5922],[-9.7312,51.6009],[-9.5619,51.6581],[-9.5535,51.6602],[-9.5421,51.6643],[-9.5245,51.6812],[-9.5815,51.6882],[-9.8981,51.6465],[-9.9314,51.6356],[-9.9419,51.6213],[-10.0047,51.6085],[-10.0288,51.5965],[-10.0701,51.6039],[-10.1084,51.6009],[-10.1164,51.6002],[-10.1561,51.5828],[-10.1433,51.6136],[-10.1014,51.6225],[-10.0744,51.6521],[-10.0881,51.6716],[-10.0323,51.6758],[-9.9691,51.7086],[-9.9978,51.7138],[-9.9494,51.747],[-9.8885,51.7616],[-9.9012,51.7429],[-9.8581,51.7636],[-9.8544,51.7753],[-9.8294,51.7728],[-9.8071,51.779],[-9.8134,51.7821],[-9.789,51.7997],[-9.8593,51.8071],[-9.8749,51.8026],[-9.8729,51.8086],[-9.8971,51.8112],[-9.9622,51.7975],[-10.0168,51.7746],[-10.0377,51.7815],[-10.0419,51.7807],[-10.0845,51.7559],[-10.1356,51.7412],[-10.1297,51.7543],[-10.2244,51.7821],[-10.2125,51.7844],[-10.2405,51.8115],[-10.3103,51.803],[-10.3411,51.7883],[-10.3411,51.7993],[-10.3413,51.7993],[-10.365,51.8449],[-10.3889,51.8462],[-10.3819,51.8777],[-10.3627,51.8872],[-10.3474,51.8911],[-10.3337,51.9011],[-10.3616,51.892],[-10.426,51.8823],[-10.412,51.9041],[-10.3517,51.9311],[-10.3127,51.9255],[-10.3092,51.9192],[-10.278,51.9421],[-10.288,51.9519],[-10.3069,51.9596],[-10.2585,51.9739],[-10.2662,51.9885],[-10.2174,51.9989],[-10.1282,52.0285],[-10.0887,52.0337],[-10.0425,52.0445],[-9.9875,52.0641],[-9.9711,52.0899],[-9.9605,52.0738],[-9.9453,52.0792],[-9.913,52.1182],[-9.9113,52.1228],[-9.9499,52.1343],[-9.9438,52.1247],[-9.9547,52.1088],[-9.9703,52.1317],[-9.9929,52.1348],[-10.0784,52.1318],[-10.1624,52.1187],[-10.1863,52.1094],[-10.2119,52.1271],[-10.2272,52.1265],[-10.2421,52.1198],[-10.2516,52.1257],[-10.3032,52.1289],[-10.2721,52.1117],[-10.3449,52.1247],[-10.4153,52.0997],[-10.4608,52.103],[-10.4782,52.152],[-10.4509,52.1657],[-10.4613,52.18],[-10.4093,52.1998],[-10.4167,52.1862],[-10.3826,52.1721],[-10.3689,52.1902],[-10.3666,52.2282],[-10.3205,52.2346],[-10.2758,52.2681],[-10.1719,52.2868],[-10.157,52.2791],[-10.1325,52.2823],[-10.1323,52.2823],[-10.1321,52.2823],[-10.0601,52.2754],[-10.0439,52.2717],[-10.036,52.2904],[-10.0598,52.3096],[-10.0248,52.3101],[-10.0119,52.2643],[-9.9917,52.2597],[-9.9378,52.2372],[-9.8534,52.2443],[-9.8372,52.2543],[-9.821,52.247],[-9.7731,52.251],[-9.7896,52.2607],[-9.7992,52.2613],[-9.8596,52.2847],[-9.8374,52.2886],[-9.8409,52.2906],[-9.8412,52.2929],[-9.8619,52.3035],[-9.843,52.3068],[-9.8517,52.3757],[-9.8763,52.3883],[-9.9037,52.3915],[-9.9499,52.4121],[-9.9159,52.4256],[-9.8627,52.4278],[-9.8373,52.442],[-9.7617,52.4663],[-9.6785,52.5187],[-9.6719,52.5529],[-9.6179,52.5772],[-9.577,52.5704],[-9.4975,52.5704],[-9.4879,52.5674],[-9.4533,52.57],[-9.4384,52.5771],[-9.3914,52.576],[-9.359,52.6179],[-9.3837,52.6131],[-9.4345,52.612],[-9.4755,52.6196],[-9.4907,52.6341],[-9.5249,52.637],[-9.5304,52.6455],[-9.5599,52.6533],[-9.5656,52.6515],[-9.5528,52.6393],[-9.6284,52.6176],[-9.6509,52.6135],[-9.6971,52.6001],[-9.7069,52.5802],[-9.7575,52.572],[-9.9363,52.5567],[-9.9082,52.5706],[-9.9161,52.5701],[-9.916,52.5701],[-9.9165,52.5701],[-9.916,52.5703],[-9.9163,52.5703],[-9.9158,52.5705],[-9.9161,52.5705],[-9.916,52.5705],[-9.9165,52.5705],[-9.7401,52.6486],[-9.6235,52.7175],[-9.6284,52.7274],[-9.5807,52.7434],[-9.5798,52.7433],[-9.5169,52.7805],[-9.4911,52.8027],[-9.4913,52.8032],[-9.4896,52.804],[-9.4665,52.8239],[-9.4288,52.8621],[-9.4275,52.8778],[-9.3948,52.8969],[-9.4161,52.9277],[-9.4325,52.9344],[-9.4514,52.9346],[-9.4777,52.9403],[-9.4525,52.9569],[-9.4188,52.9883],[-9.3416,53.077],[-9.3199,53.0911],[-9.2975,53.1172],[-9.3088,53.1391],[-9.3233,53.1674],[-9.3379,53.1958],[-9.3401,53.2],[-9.3607,53.2401],[-9.3715,53.2396],[-9.4342,53.2367],[-9.4479,53.2319],[-9.5117,53.2283],[-9.5447,53.2485],[-9.5565,53.2523],[-9.5787,53.2692],[-9.5852,53.2504],[-9.6123,53.2362],[-9.6284,53.2556],[-9.6091,53.2763],[-9.6173,53.3215],[-9.6031,53.323],[-9.6033,53.3235],[-9.6249,53.3339],[-9.7001,53.3339],[-9.7307,53.3273],[-9.7431,53.3144],[-9.8067,53.3016],[-9.8429,53.3233],[-9.8866,53.3172],[-9.8979,53.3279],[-9.8872,53.3592],[-9.8413,53.3679],[-9.8065,53.3873],[-9.7946,53.3948],[-9.8549,53.4017],[-9.8754,53.3952],[-9.8755,53.4041],[-9.8983,53.4068],[-9.9177,53.4048],[-9.9224,53.3892],[-9.9614,53.3796],[-10.0257,53.3854],[-10.0431,53.4034],[-10.0804,53.4098],[-10.1276,53.4099],[-10.1418,53.4195],[-10.1765,53.4127],[-10.157,53.4396],[-10.1213,53.4474],[-10.0928,53.4455],[-10.0653,53.4684],[-10.0871,53.4815],[-10.0558,53.4763],[-10.0536,53.4782],[-10.0645,53.4845],[-10.0694,53.4848],[-10.1282,53.5089],[-10.1527,53.5436],[-10.1935,53.538],[-10.1803,53.5555],[-10.1156,53.5504],[-10.1087,53.5527],[-10.1151,53.5703],[-10.0675,53.5664],[-10.0605,53.5687],[-10.0602,53.5687],[-10.0601,53.5687],[-10.0028,53.5617],[-9.9799,53.5671],[-10.0468,53.5993],[-10.0087,53.6044],[-9.9307,53.5998],[-9.8544,53.6181],[-9.8229,53.6064],[-9.7562,53.6021],[-9.7234,53.605],[-9.7402,53.6085],[-9.7838,53.6063],[-9.8273,53.6162],[-9.9084,53.6461],[-9.9227,53.6907],[-9.9167,53.7121],[-9.9057,53.7285],[-9.8995,53.7438],[-9.9084,53.7621],[-9.8989,53.7661],[-9.861,53.7702],[-9.8339,53.7764],[-9.7995,53.7803],[-9.7834,53.7871],[-9.7562,53.7778],[-9.7437,53.7822],[-9.6457,53.7956],[-9.6897,53.8813],[-9.6895,53.8814],[-9.6897,53.8817],[-9.6814,53.8864],[-9.747,53.8912],[-9.8179,53.8793],[-9.8566,53.8663],[-9.9108,53.8587],[-9.9438,53.8794],[-9.9314,53.8852],[-9.9252,53.913],[-9.9084,53.9204],[-9.9116,53.934],[-9.9084,53.9471],[-9.9159,53.9471],[-9.9159,53.9538],[-9.8825,53.9591],[-9.8566,54.0023],[-9.8777,54.0019],[-9.8844,54.0117],[-9.8989,54.0253],[-9.9023,54.0402],[-9.8977,54.0551],[-9.8734,54.0622],[-9.8619,54.0712],[-9.8759,54.0749],[-9.8761,54.0806],[-9.8548,54.0909],[-9.8549,54.0915],[-9.8573,54.0937],[-9.8983,54.0838],[-9.9174,54.0697],[-9.9455,54.0662],[-9.9707,54.0786],[-9.991,54.1047],[-9.9715,54.1042],[-9.9401,54.1097],[-9.9445,54.1361],[-9.9511,54.1413],[-9.9569,54.1531],[-9.9531,54.152],[-9.9701,54.1757],[-9.9773,54.1805],[-9.972,54.1783],[-9.9776,54.1862],[-10.0394,54.1695],[-10.0394,54.1668],[-10.0499,54.1666],[-10.0871,54.1566],[-10.0871,54.1531],[-10.0741,54.1502],[-10.0692,54.1443],[-10.0666,54.1252],[-10.0752,54.1249],[-10.0946,54.1184],[-10.0815,54.113],[-10.0691,54.1037],[-10.0669,54.0949],[-10.084,54.0911],[-10.1026,54.0918],[-10.1174,54.0959],[-10.1266,54.106],[-10.1282,54.1252],[-10.1222,54.137],[-10.0996,54.1655],[-10.0946,54.177],[-10.0912,54.195],[-10.0905,54.1955],[-10.0893,54.2162],[-10.0845,54.2224],[-10.0911,54.2225],[-10.1038,54.2262],[-10.1151,54.2351],[-10.0961,54.2352],[-10.087,54.2443],[-10.0735,54.2692],[-10.0625,54.2751],[-10.0183,54.2903],[-10.0076,54.3035],[-9.9919,54.3007],[-9.9847,54.2835],[-9.9545,54.272],[-9.9368,54.2707],[-9.9227,54.2766],[-9.9121,54.2683],[-9.8921,54.2683],[-9.8885,54.2692],[-9.8874,54.2683],[-9.8616,54.2683],[-9.859,54.2706],[-9.8439,54.2766],[-9.8221,54.2729],[-9.8177,54.271],[-9.7992,54.2766],[-9.7992,54.2835],[-9.78,54.2863],[-9.7713,54.2852],[-9.7669,54.2865],[-9.7768,54.29],[-9.8292,54.2969],[-9.8401,54.3071],[-9.846,54.3214],[-9.844,54.3288],[-9.7855,54.3381],[-9.7643,54.3349],[-9.7263,54.3208],[-9.7069,54.3176],[-9.5354,54.3102],[-9.5055,54.3164],[-9.4857,54.3159],[-9.4656,54.3048],[-9.3679,54.3014],[-9.3626,54.3027],[-9.3342,54.3183],[-9.322,54.3171],[-9.261,54.2997],[-9.2528,54.281],[-9.2477,54.2766],[-9.2196,54.2806],[-9.211,54.2756],[-9.2095,54.2676],[-9.2176,54.2556],[-9.2176,54.2487],[-9.1959,54.2425],[-9.1959,54.2361],[-9.1459,54.2094],[-9.1029,54.2249],[-9.0787,54.2451],[-9.0513,54.2895],[-9.0175,54.2919],[-8.9851,54.2874],[-8.7691,54.4118],[-8.661,54.4741],[-8.607,54.5051],[-8.58,54.5207],[-8.553,54.5362],[-8.526,54.5518],[-8.4989,54.5674],[-8.4449,54.5985],[-8.4185,54.6137],[-8.4449,54.6112],[-8.4577,54.6099],[-8.4615,54.6029],[-8.4699,54.6126],[-8.5275,54.626],[-8.5535,54.6226],[-8.564,54.6088],[-8.5969,54.6193],[-8.6726,54.6195],[-8.6914,54.6413],[-8.7742,54.6599],[-8.7955,54.6984],[-8.7552,54.7058],[-8.7333,54.7326],[-8.6366,54.7685],[-8.6154,54.7682],[-8.5377,54.7839],[-8.5269,54.8099],[-8.5218,54.812],[-8.5544,54.8275],[-8.5249,54.8315],[-8.4907,54.852],[-8.471,54.8405],[-8.4586,54.8412],[-8.3837,54.8871],[-8.4326,54.9016],[-8.4634,54.9408],[-8.4184,54.9346],[-8.4009,54.9392],[-8.4117,54.964],[-8.4116,54.9642],[-8.4117,54.9644],[-8.4114,54.9654],[-8.4566,54.9954],[-8.4377,55.0098],[-8.415,55.0029],[-8.4032,55.0307],[-8.374,55.0364],[-8.3545,55.0605],[-8.3393,55.049],[-8.3253,55.0564],[-8.3137,55.0843],[-8.3204,55.1049],[-8.2785,55.1605],[-8.2297,55.1513],[-8.1434,55.1601],[-8.1413,55.1605],[-8.1414,55.1603],[-8.1381,55.1606],[-8.019,55.1916],[-7.9996,55.2196],[-7.9502,55.2103],[-7.981,55.1935],[-7.9579,55.1918],[-7.8552,55.1976],[-7.8661,55.2149],[-7.7987,55.2561],[-7.7912,55.2487],[-7.8142,55.2019],[-7.8133,55.1999],[-7.8033,55.2005],[-7.8032,55.2005],[-7.8029,55.2005],[-7.7494,55.1867],[-7.7502,55.1899],[-7.7917,55.206],[-7.7609,55.2561],[-7.7251,55.2527],[-7.6735,55.2739],[-7.644,55.2728],[-7.6114,55.2414],[-7.6178,55.2141],[-7.6123,55.2011],[-7.5727,55.181],[-7.5525,55.1447],[-7.5317,55.1345],[-7.498,55.1361],[-7.5009,55.1446],[-7.5333,55.1932],[-7.5332,55.1935],[-7.5333,55.1936],[-7.5333,55.1937],[-7.5414,55.1981],[-7.5494,55.2252],[-7.5271,55.2368],[-7.5136,55.2744],[-7.5243,55.2903],[-7.4786,55.2839],[-7.4691,55.3039],[-7.4086,55.2876],[-7.4039,55.2881],[-7.3678,55.3106],[-7.3275,55.3085],[-7.318,55.2978],[-7.3033,55.2995],[-7.3155,55.3109],[-7.3207,55.3133],[-7.3507,55.3352],[-7.3516,55.3448],[-7.3677,55.3598],[-7.3673,55.3598],[-7.3675,55.36],[-7.3677,55.3602],[-7.3585,55.361],[-7.4002,55.3803],[-7.3844,55.3864],[-7.2473,55.3572],[-7.1954,55.3386],[-7.1599,55.3074],[-7.1549,55.3047],[-7.0706,55.2718],[-7.0419,55.2689],[-6.9757,55.2487],[-6.9535,55.2543],[-6.9428,55.2186],[-7.0225,55.1996],[-7.0577,55.1776],[-7.1131,55.1584],[-7.1252,55.1542],[-7.1131,55.1548],[-7.0772,55.1565],[-7.0413,55.1582],[-7.0054,55.16],[-6.9694,55.1617],[-6.9626,55.1946],[-6.9467,55.1954],[-6.9182,55.1858],[-6.8889,55.1884],[-6.8887,55.1884],[-6.8885,55.1884],[-6.8239,55.1814],[-6.6981,55.1936],[-6.6857,55.1962],[-6.6405,55.2083],[-6.6251,55.2089],[-6.5452,55.2257],[-6.5198,55.2407],[-6.4759,55.2487],[-6.4482,55.2409],[-6.3894,55.2419],[-6.3782,55.2462],[-6.3529,55.2426],[-6.3268,55.2341],[-6.2333,55.2179],[-6.18,55.2179],[-6.16,55.2219],[-6.1352,55.2179],[-6.1289,55.2179],[-6.1273,55.2166],[-6.101,55.2124],[-6.0472,55.1785],[-6.0371,55.1679],[-6.0384,55.1474],[-6.0353,55.145],[-5.9986,55.0616],[-5.981,55.0557],[-5.9683,55.0439],[-5.9702,55.0258],[-5.9735,55.0191],[-5.9188,54.9646],[-5.9066,54.958],[-5.8863,54.9408],[-5.8756,54.9217],[-5.8697,54.9158],[-5.7829,54.8604],[-5.7817,54.8617],[-5.7516,54.8569],[-5.7206,54.841],[-5.702,54.8247],[-5.6898,54.7931],[-5.6921,54.7705],[-5.6926,54.7652],[-5.7069,54.743],[-5.7293,54.7285],[-5.7589,54.7199],[-5.7981,54.7131],[-5.8697,54.6882],[-5.8715,54.6873],[-5.8779,54.6823],[-5.8794,54.6811],[-5.8577,54.6687]]],[[[-10.1326,53.9654],[-10.1628,53.9614],[-10.1902,53.9635],[-10.2395,53.9747],[-10.2659,53.975],[-10.2659,53.9818],[-10.2579,53.982],[-10.1917,54.0126],[-10.1896,54.016],[-10.1875,54.0145],[-10.1829,54.0166],[-10.1826,54.0165],[-10.1825,54.0166],[-10.1626,54.0118],[-10.1561,54.016],[-10.1442,54.0074],[-10.1393,54.0062],[-10.1063,54.0058],[-10.0837,54.0161],[-10.0632,54.0228],[-9.9759,54.0211],[-9.9569,54.016],[-9.9363,53.9892],[-9.9569,53.9892],[-9.9563,53.9874],[-9.9557,53.9871],[-9.9555,53.9847],[-9.9543,53.9811],[-9.9549,53.9793],[-9.9527,53.9567],[-9.9405,53.9599],[-9.9227,53.9538],[-9.9227,53.9471],[-9.9307,53.9393],[-9.9374,53.9235],[-9.9402,53.906],[-9.9363,53.8925],[-9.958,53.8806],[-9.9768,53.8869],[-9.9958,53.901],[-10.0183,53.9129],[-10.0448,53.9121],[-10.0555,53.9137],[-10.0598,53.9235],[-10.0547,53.9489],[-10.0641,53.9589],[-10.1326,53.9654]]]]}}
]}
