{"type":"FeatureCollection","features":[
{"type":"Feature","properties":{"entityId":"lorraine","from":1700,"to":1766,"certainty":"estimated","source":"유럽 쪽은 Natural Earth 1:10m admin-1(v5.1.2) 현대 행정구역 조각을 그 시기 국경에 맞춰 묶고, 조각이 역사 경계와 다른 곳은 선을 그어 나눈 근사. 유럽 밖(시베리아·중앙아시아·극동)은 대략적인 추정. 운영자 검수 필요"},"geometry":{"type":"Polygon","coordinates":[[[6.3453,49.4553],[6.4027,49.4655],[6.4945,49.4355],[6.5257,49.3955],[6.5743,49.3618],[6.5501,49.338],[6.5732,49.3131],[6.6397,49.2712],[6.6638,49.2439],[6.6806,49.2075],[6.7025,49.2136],[6.701,49.1729],[6.7256,49.1556],[6.7701,49.1553],[6.8091,49.1458],[6.839,49.1628],[6.8277,49.1956],[6.8435,49.2111],[6.9254,49.2056],[6.9879,49.1824],[7.0095,49.1817],[7.009,49.1464],[7.0205,49.119],[7.0425,49.1076],[7.0732,49.1203],[7.0853,49.1415],[7.155,49.1144],[7.2412,49.1139],[7.2681,49.1056],[7.2971,49.1281],[7.3265,49.1318],[7.3716,49.1662],[7.4105,49.1689],[7.4148,49.1578],[7.4761,49.1515],[7.471,49.1283],[7.5209,49.0837],[7.6086,49.062],[7.6449,49.0363],[7.5729,48.9437],[7.5452,48.938],[7.4806,48.959],[7.3417,48.9434],[7.3018,48.9547],[7.2914,48.9733],[7.1558,49.0056],[7.1327,49.0209],[7.1235,49.0499],[7.0973,49.0657],[7.0787,49.0602],[7.0773,49.0295],[7.047,49.0002],[7.0373,48.9719],[6.9808,48.9301],[6.9862,48.8987],[7.0152,48.8823],[7.0967,48.8525],[7.0749,48.8245],[7.1032,48.7925],[7.1293,48.7931],[7.1467,48.8127],[7.1754,48.8203],[7.2044,48.8542],[7.2163,48.8298],[7.2476,48.8184],[7.3041,48.7755],[7.3133,48.7408],[7.2649,48.6849],[7.3004,48.6556],[7.2705,48.5842],[7.2137,48.5532],[7.193,48.5335],[7.0981,48.5292],[7.0887,48.5234],[7.1489,48.4999],[7.1277,48.4841],[7.1268,48.4473],[7.1099,48.3423],[7.1442,48.3321],[7.1885,48.331],[7.2087,48.3034],[7.0749,48.1525],[7.0869,48.1254],[7.0085,48.0103],[6.9598,47.9675],[6.9344,47.9027],[6.917,47.883],[6.9239,47.8432],[6.8689,47.819],[6.836,47.8242],[6.7407,47.8761],[6.6965,47.8899],[6.6372,47.9351],[6.6138,47.9413],[6.5765,47.908],[6.5526,47.9012],[6.4987,47.9047],[6.412,47.9423],[6.3734,47.953],[6.3224,47.9505],[6.2828,47.9348],[6.2438,47.9322],[6.1819,47.9582],[6.1827,47.9768],[6.1469,48.0016],[6.0994,48.0087],[6.071,48.0044],[6.0344,47.9726],[5.9709,47.9409],[5.9551,47.9797],[5.9261,47.9481],[5.8918,47.9326],[5.8492,47.9676],[5.8128,47.9572],[5.7981,47.9642],[5.799,48.0012],[5.788,48.0225],[5.7322,48.0467],[5.6593,48.1008],[5.6885,48.1477],[5.6975,48.1805],[5.7203,48.196],[5.713,48.2114],[5.6615,48.2386],[5.6379,48.2808],[5.5844,48.2838],[5.534,48.3339],[5.5085,48.3507],[5.4322,48.3373],[5.4242,48.3881],[5.4552,48.4192],[5.3563,48.4814],[5.3448,48.5004],[5.2686,48.5108],[5.187,48.5419],[5.117,48.5812],[5.0359,48.6181],[5.0046,48.6554],[4.9921,48.6929],[4.9828,48.75],[4.9172,48.7877],[4.9069,48.8048],[4.9302,48.8322],[4.9216,48.8785],[4.9452,48.9157],[4.9888,48.9245],[5.0174,48.9472],[5.0202,48.9913],[5.0338,49.0125],[4.9978,49.0309],[4.987,49.0476],[4.9789,49.1201],[4.9554,49.1652],[4.98,49.2098],[4.9787,49.2357],[5.0495,49.2798],[5.0421,49.3321],[5.0919,49.3787],[5.1139,49.4218],[5.0959,49.466],[5.0713,49.5005],[5.0947,49.5208],[5.1008,49.5635],[5.1395,49.585],[5.1841,49.5641],[5.2629,49.5588],[5.2731,49.544],[5.3021,49.5495],[5.3899,49.5933],[5.3912,49.6088],[5.4502,49.5458],[5.4499,49.5078],[5.4777,49.4952],[5.5476,49.5234],[5.6023,49.5137],[5.6446,49.5438],[5.7103,49.5311],[5.7571,49.5484],[5.7907,49.5378],[5.8221,49.5105],[5.8647,49.4922],[5.9281,49.4823],[5.9607,49.4413],[6.0633,49.4485],[6.0998,49.4646],[6.1361,49.4953],[6.1936,49.4994],[6.2511,49.4895],[6.2988,49.4662],[6.3453,49.4553]]]}}
]}
