{"type":"FeatureCollection","features":[
{"type":"Feature","properties":{"entityId":"luxembourg","from":1815,"to":1839,"certainty":"estimated","source":"유럽 쪽은 Natural Earth 1:10m admin-1(v5.1.2) 현대 행정구역 조각을 그 시기 국경에 맞춰 묶고, 조각이 역사 경계와 다른 곳은 선을 그어 나눈 근사. 유럽 밖(시베리아·중앙아시아·극동)은 대략적인 추정. 운영자 검수 필요"},"geometry":{"type":"Polygon","coordinates":[[[6.1175,50.1205],[6.0964,50.0486],[6.1138,50.0364],[6.1172,50.0044],[6.1619,49.9425],[6.1727,49.9562],[6.2227,49.8871],[6.2868,49.861],[6.2956,49.8486],[6.3026,49.8349],[6.3344,49.8402],[6.3801,49.8156],[6.4145,49.8055],[6.4625,49.8055],[6.5001,49.7945],[6.4863,49.7427],[6.4997,49.7122],[6.4917,49.7008],[6.4182,49.6699],[6.4027,49.6558],[6.4179,49.6391],[6.3976,49.6139],[6.3715,49.593],[6.3508,49.5666],[6.3488,49.5253],[6.3423,49.493],[6.3453,49.4553],[6.2988,49.4662],[6.2511,49.4895],[6.1936,49.4994],[6.1361,49.4953],[6.0998,49.4646],[6.0633,49.4485],[5.9607,49.4413],[5.9281,49.4823],[5.8647,49.4922],[5.8221,49.5105],[5.7907,49.5378],[5.7571,49.5484],[5.7103,49.5311],[5.6446,49.5438],[5.6023,49.5137],[5.5476,49.5234],[5.4777,49.4952],[5.4499,49.5078],[5.4502,49.5458],[5.3912,49.6088],[5.3349,49.6258],[5.2979,49.6133],[5.2994,49.6625],[5.2592,49.6913],[5.1925,49.6828],[5.1364,49.7053],[5.0819,49.7527],[5.0263,49.7667],[4.9684,49.797],[4.9892,49.8234],[4.9849,49.8513],[5.0599,49.8861],[5.0432,49.8969],[5.0687,49.9124],[5.1189,49.9253],[5.0972,49.9393],[5.101,49.9616],[5.0626,49.9848],[5.0094,49.9827],[4.9911,50.0303],[5.0496,50.0637],[5.0662,50.1248],[5.0721,50.0968],[5.0933,50.092],[5.187,50.0962],[5.2673,50.1203],[5.2418,50.1355],[5.2703,50.1414],[5.2796,50.1595],[5.2441,50.186],[5.2444,50.2062],[5.2059,50.2199],[5.2533,50.2271],[5.2507,50.2388],[5.284,50.2492],[5.2945,50.2404],[5.3652,50.2697],[5.3927,50.2881],[5.3834,50.3192],[5.3401,50.3118],[5.3944,50.3378],[5.3802,50.3496],[5.4012,50.3676],[5.3924,50.3805],[5.4257,50.4006],[5.4057,50.4234],[5.4251,50.4308],[5.4685,50.4091],[5.5086,50.426],[5.5316,50.3951],[5.5877,50.4006],[5.6703,50.3577],[5.7208,50.3575],[5.7034,50.3326],[5.7206,50.3041],[5.7476,50.2998],[5.7207,50.2631],[5.8738,50.2715],[5.8455,50.2846],[5.8678,50.3195],[5.8493,50.3295],[5.8581,50.3479],[5.9793,50.3309],[6.013,50.3118],[6.0075,50.2187],[6.0338,50.2048],[6.0199,50.1947],[6.023,50.1508],[6.0971,50.1513],[6.1175,50.1205]]]}},
{"type":"Feature","properties":{"entityId":"luxembourg","from":1839,"to":null,"certainty":"estimated","source":"유럽 쪽은 Natural Earth 1:10m admin-1(v5.1.2) 현대 행정구역 조각을 그 시기 국경에 맞춰 묶고, 조각이 역사 경계와 다른 곳은 선을 그어 나눈 근사. 유럽 밖(시베리아·중앙아시아·극동)은 대략적인 추정. 운영자 검수 필요"},"geometry":{"type":"Polygon","coordinates":[[[6.2511,49.4895],[6.1936,49.4994],[6.1361,49.4953],[6.0998,49.4646],[6.0633,49.4485],[5.9607,49.4413],[5.9281,49.4823],[5.8647,49.4922],[5.8221,49.5105],[5.7907,49.5378],[5.8145,49.5451],[5.8469,49.5767],[5.83,49.5828],[5.8855,49.6435],[5.8799,49.6577],[5.8423,49.6739],[5.8564,49.7058],[5.8054,49.7219],[5.7785,49.773],[5.7383,49.7888],[5.7202,49.8247],[5.7365,49.8394],[5.7319,49.86],[5.7581,49.8582],[5.7149,49.8819],[5.7637,49.9468],[5.8126,49.9776],[5.8027,50.0025],[5.8291,50.0136],[5.8377,50.0474],[5.8583,50.0618],[5.8724,50.0969],[5.9411,50.1283],[5.9616,50.1656],[5.9983,50.175],[6.023,50.1508],[6.0971,50.1513],[6.1175,50.1205],[6.0964,50.0486],[6.1138,50.0364],[6.1172,50.0044],[6.1619,49.9425],[6.1727,49.9562],[6.2227,49.8871],[6.2868,49.861],[6.2956,49.8486],[6.3026,49.8349],[6.3344,49.8402],[6.3801,49.8156],[6.4145,49.8055],[6.4625,49.8055],[6.5001,49.7945],[6.4863,49.7427],[6.4997,49.7122],[6.4917,49.7008],[6.4182,49.6699],[6.4027,49.6558],[6.4179,49.6391],[6.3976,49.6139],[6.3715,49.593],[6.3508,49.5666],[6.3488,49.5253],[6.3423,49.493],[6.3453,49.4553],[6.2988,49.4662],[6.2511,49.4895]]]}}
]}
