{"type":"FeatureCollection","features":[
{"type":"Feature","properties":{"entityId":"lydia","from":-679,"to":-584,"certainty":"estimated","source":"유럽 쪽은 Natural Earth 1:10m admin-1(v5.1.2) 현대 행정구역 조각을 그 시기 국경에 맞춰 묶고, 조각이 역사 경계와 다른 곳은 선을 그어 나눈 근사. 유럽 밖(시베리아·중앙아시아·극동)은 대략적인 추정. 운영자 검수 필요"},"geometry":{"type":"Polygon","coordinates":[[[29.8881,38.7069],[29.8832,38.6654],[29.8681,38.6277],[29.8071,38.5812],[29.7739,38.5007],[29.7508,38.4777],[29.7533,38.4502],[29.6286,38.4288],[29.6199,38.3683],[29.6277,38.3096],[29.5958,38.2871],[29.5592,38.2783],[29.4833,38.2768],[29.4123,38.2827],[29.3619,38.2517],[29.3483,38.2198],[29.3119,38.2313],[29.2522,38.2122],[29.2191,38.2133],[29.1876,38.2412],[29.1515,38.2464],[29.1011,38.2192],[29.0449,38.2193],[28.9905,38.2452],[28.931,38.2551],[28.8381,38.2388],[28.7936,38.1705],[28.7984,38.1436],[28.7844,38.1199],[28.743,38.1043],[28.698,38.1038],[28.5623,38.1062],[28.5174,38.1593],[28.4758,38.2621],[28.4478,38.2899],[28.345,38.3088],[28.3251,38.3274],[28.1629,38.3088],[28.1357,38.3592],[28.0954,38.3946],[28.0344,38.3883],[27.9864,38.4051],[27.9389,38.4068],[27.8989,38.3421],[27.8483,38.3329],[27.8061,38.3634],[27.7778,38.4247],[27.6999,38.453],[27.6303,38.4915],[27.6135,38.5468],[27.5833,38.5699],[27.4506,38.5705],[27.3803,38.5759],[27.3213,38.6157],[27.2947,38.6846],[27.2284,38.7348],[27.2332,38.7558],[27.2608,38.792],[27.291,38.8166],[27.3094,38.8497],[27.3271,38.9249],[27.3821,38.9545],[27.4452,38.9744],[27.5101,39.0168],[27.5377,39.0413],[27.5453,39.0939],[27.5081,39.1478],[27.4918,39.1836],[27.4588,39.3037],[27.4201,39.3803],[27.4966,39.4113],[27.5431,39.3948],[27.586,39.367],[27.6559,39.3517],[27.7264,39.3593],[27.7679,39.3566],[27.823,39.3396],[27.8712,39.3448],[27.8962,39.3134],[27.8659,39.2716],[27.8542,39.2364],[27.8933,39.2219],[27.968,39.2433],[28.0737,39.1527],[28.125,39.063],[28.171,39.0502],[28.2562,39.0711],[28.2936,39.0883],[28.3208,39.1163],[28.4047,39.1194],[28.4799,39.1306],[28.5721,39.1675],[28.6595,39.1566],[28.7304,39.1008],[28.881,39.0753],[28.9099,39.0596],[28.9743,38.9816],[28.9909,38.948],[28.982,38.8867],[29.0153,38.84],[29.0363,38.7933],[29.0323,38.7301],[29.0868,38.7672],[29.1455,38.7667],[29.2067,38.7368],[29.2735,38.7291],[29.3457,38.7316],[29.4712,38.7596],[29.5293,38.763],[29.5543,38.8092],[29.5714,38.8652],[29.6244,38.8838],[29.6881,38.8851],[29.8118,38.862],[29.8413,38.8525],[29.8888,38.8103],[29.8881,38.7069]]]}},
{"type":"Feature","properties":{"entityId":"lydia","from":-584,"to":-559,"certainty":"estimated","source":"유럽 쪽은 Natural Earth 1:10m admin-1(v5.1.2) 현대 행정구역 조각을 그 시기 국경에 맞춰 묶고, 조각이 역사 경계와 다른 곳은 선을 그어 나눈 근사. 유럽 밖(시베리아·중앙아시아·극동)은 대략적인 추정. 운영자 검수 필요"},"geometry":{"type":"Polygon","coordinates":[[[33.5245,39.2668],[33.545,39.2109],[33.6575,39.1556],[33.7393,39.1089],[33.7761,39.0777],[33.8288,39.0745],[33.8753,39.0526],[33.9374,39.0347],[33.9301,39.0011],[33.8967,38.935],[33.9366,38.8504],[33.9333,38.7923],[33.8497,38.7301],[33.8116,38.7154],[33.7224,38.7176],[33.6354,38.6987],[33.5535,38.662],[33.4666,38.6436],[33.4449,38.6837],[33.4134,38.7197],[33.3662,38.7987],[33.3638,38.8568],[33.3796,38.9687],[33.3744,39.0226],[33.3206,39.1199],[33.2227,39.1752],[33.1661,39.1889],[33.1048,39.2221],[33.0624,39.2221],[33.0321,39.1755],[33.0236,39.1236],[33.0091,39.1051],[32.9658,39.1105],[32.908,39.1449],[32.86,39.1572],[32.7579,39.0921],[32.7218,39.0544],[32.6761,39.0338],[32.6015,39.0584],[32.538,39.0356],[32.4787,38.9972],[32.436,39],[32.3676,39.0413],[32.2823,39.0635],[32.2321,39.059],[32.127,39.0342],[32.0906,39.0435],[31.9482,39.1364],[31.8614,39.1714],[31.8505,39.1136],[31.8354,39.0979],[31.7571,39.0863],[31.6978,39.0926],[31.6747,39.0005],[31.7236,38.9675],[31.7149,38.9277],[31.6383,38.8291],[31.608,38.7821],[31.5922,38.7288],[31.5948,38.6664],[31.5072,38.5771],[31.4308,38.5141],[31.2544,38.423],[31.207,38.4396],[31.1622,38.4908],[31.1238,38.5124],[31.0996,38.5152],[31.0304,38.4598],[30.9056,38.3805],[30.8447,38.3249],[30.7811,38.2777],[30.7051,38.2545],[30.6623,38.25],[30.6055,38.2137],[30.5302,38.193],[30.4812,38.1495],[30.429,38.1122],[30.3903,38.0946],[30.3,38.0244],[30.2322,37.9932],[30.2111,37.9619],[30.1977,37.8584],[30.1653,37.8104],[30.0934,37.7792],[30.0153,37.7765],[29.9264,37.7819],[29.8455,37.7593],[29.7737,37.7124],[29.6889,37.6744],[29.666,37.6303],[29.5381,37.5763],[29.5475,37.5226],[29.5458,37.4827],[29.5575,37.445],[29.5842,37.433],[29.5845,37.41],[29.5402,37.3397],[29.442,37.2225],[29.4147,37.1747],[29.3989,37.1224],[29.3904,37.0686],[29.3426,37.038],[29.3357,36.973],[29.3044,36.9258],[29.2704,36.9116],[29.1699,36.9549],[29.1151,36.9581],[29.0902,36.9779],[29.0754,37.0655],[29.0618,37.1029],[29.0019,37.1497],[28.9283,37.1766],[28.8861,37.2249],[28.8115,37.2335],[28.7779,37.2721],[28.765,37.3185],[28.7353,37.3599],[28.688,37.3747],[28.6273,37.3825],[28.6174,37.4112],[28.6208,37.4605],[28.6089,37.4775],[28.5956,37.5061],[28.5754,37.5146],[28.5628,37.553],[28.5832,37.5897],[28.6531,37.6063],[28.7303,37.5984],[28.7833,37.6385],[28.8302,37.6911],[28.869,37.6925],[28.8996,37.7097],[28.8929,37.7603],[28.8292,37.7705],[28.7706,37.8452],[28.7734,37.8711],[28.8043,37.9051],[28.7884,37.9652],[28.7905,37.9994],[28.7777,38.0288],[28.7222,38.0591],[28.698,38.1038],[28.5623,38.1062],[28.5174,38.1593],[28.4758,38.2621],[28.4478,38.2899],[28.345,38.3088],[28.3251,38.3274],[28.1629,38.3088],[28.1357,38.3592],[28.0954,38.3946],[28.0344,38.3883],[27.9864,38.4051],[27.9389,38.4068],[27.8989,38.3421],[27.8483,38.3329],[27.8061,38.3634],[27.7778,38.4247],[27.6999,38.453],[27.6303,38.4915],[27.6135,38.5468],[27.5833,38.5699],[27.4506,38.5705],[27.3803,38.5759],[27.3213,38.6157],[27.2947,38.6846],[27.2284,38.7348],[27.2332,38.7558],[27.2608,38.792],[27.291,38.8166],[27.3094,38.8497],[27.3271,38.9249],[27.3821,38.9545],[27.4452,38.9744],[27.5101,39.0168],[27.5377,39.0413],[27.5453,39.0939],[27.5081,39.1478],[27.4918,39.1836],[27.4588,39.3037],[27.4201,39.3803],[27.3907,39.4247],[27.3475,39.4558],[27.291,39.4645],[27.1097,39.374],[27.05,39.3512],[26.9936,39.2908],[26.7787,39.17],[26.7844,39.1674],[26.7844,39.1552],[26.7526,39.1552],[26.7208,39.1552],[26.7208,39.1372],[26.6815,39.1372],[26.6421,39.1372],[26.6421,39.1669],[26.6396,39.1669],[26.6396,39.1925],[26.6396,39.1967],[26.599,39.1967],[26.599,39.2264],[26.5584,39.2264],[26.5584,39.2562],[26.5584,39.2619],[26.5101,39.2619],[26.5101,39.3075],[26.5101,39.3531],[26.5101,39.3987],[26.5584,39.3987],[26.5584,39.4243],[26.6068,39.4243],[26.6551,39.4243],[26.6551,39.4555],[26.6551,39.4589],[26.7035,39.4589],[26.7035,39.4935],[26.7035,39.5247],[26.6551,39.5247],[26.6551,39.5491],[26.6672,39.5508],[26.6645,39.6314],[26.6967,39.7102],[26.7368,39.7166],[26.8274,39.7078],[26.87,39.7188],[26.9073,39.7433],[26.9797,39.766],[27.0221,39.7929],[27.0995,39.7897],[27.1272,39.8013],[27.2007,39.7918],[27.2742,39.7727],[27.3171,39.786],[27.3994,39.8216],[27.4388,39.8445],[27.4781,39.9231],[27.4828,39.9635],[27.4487,39.9959],[27.4772,40.0432],[27.5009,40.1213],[27.4396,40.1427],[27.4208,40.173],[27.4472,40.1847],[27.5169,40.2405],[27.5649,40.2628],[27.5722,40.3157],[27.5522,40.3129],[27.5522,40.3408],[27.5522,40.3687],[27.5522,40.3982],[27.5522,40.3986],[27.5522,40.4276],[27.589,40.4286],[27.7563,40.4328],[27.7502,40.4576],[27.7258,40.4614],[27.6843,40.5023],[27.7332,40.5306],[27.76,40.5371],[27.7894,40.5142],[27.8047,40.5228],[27.9699,40.503],[28.0142,40.4912],[28.0344,40.4744],[28.0168,40.4511],[27.985,40.4386],[28.06,40.4405],[28.138,40.4425],[28.177,40.4434],[28.2159,40.4444],[28.5278,40.4523],[28.6838,40.4563],[28.7618,40.4582],[28.8008,40.4592],[28.8008,40.4441],[28.8397,40.4441],[28.8397,40.4416],[28.8787,40.4416],[28.9177,40.4416],[28.9177,40.4182],[28.9567,40.4182],[28.9956,40.4182],[28.9956,40.4457],[28.9956,40.4732],[28.9803,40.4645],[28.978,40.5732],[29.0475,40.5602],[29.0784,40.5632],[29.2305,40.5116],[29.2939,40.5222],[29.3581,40.5729],[29.4207,40.5632],[29.4771,40.5498],[29.5353,40.5524],[29.7204,40.6043],[29.7889,40.6147],[29.9262,40.577],[29.9408,40.5335],[29.9688,40.4887],[30.0046,40.4477],[30.081,40.3914],[30.1691,40.371],[30.3075,40.399],[30.3507,40.4021],[30.4263,40.394],[30.4577,40.3791],[30.4985,40.3396],[30.5736,40.341],[30.626,40.3315],[30.64,40.2872],[30.7011,40.204],[30.7386,40.1678],[30.7988,40.1509],[30.8636,40.1428],[30.9254,40.2057],[31.0072,40.2416],[31.0382,40.2922],[31.0341,40.3524],[31.0439,40.3899],[31.0692,40.4113],[31.163,40.3869],[31.2509,40.346],[31.4197,40.3597],[31.4524,40.332],[31.5356,40.3116],[31.5679,40.3085],[31.6577,40.3361],[31.6965,40.34],[31.8214,40.3384],[31.9061,40.3534],[31.9751,40.3771],[32.0931,40.3989],[32.1349,40.421],[32.1768,40.4313],[32.3154,40.4152],[32.3961,40.4483],[32.4239,40.4856],[32.4767,40.539],[32.439,40.619],[32.4427,40.673],[32.4713,40.6939],[32.5071,40.7052],[32.5862,40.7076],[32.6651,40.6979],[32.9586,40.594],[33.0104,40.5306],[33.0434,40.5018],[33.1726,40.4303],[33.1943,40.4048],[33.2056,40.3705],[33.2714,40.3311],[33.3447,40.338],[33.36,40.3913],[33.3982,40.3962],[33.4597,40.3736],[33.5952,40.3396],[33.8705,40.2723],[33.9642,40.2655],[33.9752,40.218],[34.0164,40.1467],[34.0845,40.1091],[34.1013,40.0569],[34.0976,40.0243],[34.0509,39.9586],[34.0525,39.9076],[34.0733,39.8257],[33.9128,39.7069],[33.8676,39.6042],[33.7989,39.5204],[33.6366,39.4187],[33.5245,39.2668]]]}},
{"type":"Feature","properties":{"entityId":"lydia","from":-559,"to":-546,"certainty":"estimated","source":"유럽 쪽은 Natural Earth 1:10m admin-1(v5.1.2) 현대 행정구역 조각을 그 시기 국경에 맞춰 묶고, 조각이 역사 경계와 다른 곳은 선을 그어 나눈 근사. 유럽 밖(시베리아·중앙아시아·극동)은 대략적인 추정. 운영자 검수 필요"},"geometry":{"type":"MultiPolygon","coordinates":[[[[26.07,39.4963],[26.0742,39.4745],[26.113,39.4592],[26.1528,39.4592],[26.1717,39.4631],[26.22,39.4265],[26.22,39.4364],[26.2683,39.4364],[26.2683,39.4205],[26.365,39.4205],[26.365,39.4375],[26.4617,39.4375],[26.4617,39.3987],[26.5101,39.3987],[26.5101,39.2619],[26.5584,39.2619],[26.5584,39.2264],[26.599,39.2264],[26.599,39.1967],[26.6396,39.1967],[26.6396,39.1669],[26.6421,39.1669],[26.6421,39.1372],[26.6815,39.1372],[26.6815,39.1074],[26.7208,39.1074],[26.7208,39.0479],[26.8009,38.9874],[26.8017,38.982],[26.6753,38.78],[26.561,38.5972],[26.5558,38.6054],[26.5056,38.6527],[26.4656,38.6727],[26.4141,38.6794],[26.3563,38.6617],[26.3486,38.6213],[26.3758,38.5286],[26.4038,38.4875],[26.3879,38.4543],[26.4181,38.4649],[26.4294,38.4409],[26.4151,38.3682],[26.3435,38.37],[26.3431,38.37],[26.3219,38.3339],[26.3143,38.3367],[26.3211,38.3777],[26.3076,38.3579],[26.2941,38.3699],[26.2889,38.3406],[26.3076,38.3231],[26.2859,38.3187],[26.2654,38.2867],[26.2388,38.2958],[26.2346,38.2738],[26.2866,38.2611],[26.3286,38.2351],[26.3344,38.2351],[26.3179,38.2086],[26.3181,38.2085],[26.3179,38.2082],[26.5572,38.0264],[26.6768,37.9356],[26.6768,37.9377],[26.7964,37.9377],[26.7964,37.922],[27.0306,37.922],[27.0306,37.8922],[27.1185,37.8922],[27.1185,37.8324],[27.1477,37.8324],[27.1477,37.8025],[27.173,37.8025],[27.173,37.7753],[27.1445,37.7753],[27.1445,37.7428],[27.1161,37.7428],[27.1161,37.7157],[27.0876,37.7157],[27.0876,37.6892],[27.0591,37.6897],[27.0591,37.7067],[27.0306,37.7066],[27.0048,37.7066],[27.0048,37.6863],[27.0208,37.6742],[27.0115,37.6657],[27.0488,37.6501],[27.0507,37.6497],[27.206,37.3898],[27.2075,37.3764],[27.1908,37.3573],[27.2119,37.3573],[27.2334,37.344],[27.2801,37.266],[27.302,37.2293],[27.3239,37.1927],[27.3579,37.1358],[27.349,37.1301],[27.3218,37.1587],[27.3218,37.1254],[27.3011,37.127],[27.3007,37.127],[27.2998,37.1262],[27.2717,37.1289],[27.2604,37.1103],[27.2828,37.1103],[27.2696,37.0981],[27.2391,37.083],[27.2288,37.0618],[27.2527,36.9783],[27.2632,36.9634],[27.3081,36.9594],[27.3006,36.9731],[27.3327,36.9971],[27.3314,37.0023],[27.3436,37.0146],[27.4059,37.0167],[27.4296,37.0158],[27.5784,36.7671],[27.5614,36.7609],[27.4832,36.754],[27.4588,36.7557],[27.4273,36.7357],[27.4143,36.7093],[27.3558,36.7124],[27.3628,36.6851],[27.4557,36.6629],[27.4727,36.6509],[27.4863,36.6652],[27.5486,36.6834],[27.5556,36.6829],[27.5597,36.6746],[27.603,36.6789],[27.6374,36.6682],[27.6427,36.6595],[27.6431,36.6595],[27.6646,36.6598],[27.6712,36.6578],[27.6716,36.6599],[28.0144,36.6653],[28.0207,36.6336],[28.0211,36.6337],[28.0211,36.6336],[28.0881,36.6426],[28.054,36.6096],[28.0344,36.6025],[27.9592,36.6025],[27.9661,36.5759],[27.9909,36.5598],[28.0138,36.5759],[28.048,36.569],[28.0617,36.5963],[28.0881,36.5891],[28.1115,36.6042],[28.1584,36.6675],[28.7335,36.6764],[28.8293,36.6235],[28.8186,36.6117],[28.8587,36.6013],[28.8614,36.6057],[29.106,36.4706],[29.1242,36.4536],[29.1304,36.4114],[29.0964,36.3909],[29.1447,36.3772],[29.1447,36.3493],[29.2186,36.3288],[29.2231,36.3246],[29.2437,36.3138],[29.2612,36.2936],[29.3071,36.325],[29.3133,36.3763],[29.362,36.4631],[29.4244,36.4835],[29.4549,36.4733],[29.4773,36.4824],[29.4811,36.5371],[29.5755,36.599],[29.5938,36.6543],[29.5802,36.7161],[29.6889,36.9143],[29.604,37.0086],[29.4834,36.9959],[29.435,36.9474],[29.3967,36.9597],[29.4134,37.0176],[29.3904,37.0686],[29.3989,37.1224],[29.4147,37.1747],[29.442,37.2225],[29.5402,37.3397],[29.5845,37.41],[29.5842,37.433],[29.5575,37.445],[29.5458,37.4827],[29.5475,37.5226],[29.5381,37.5763],[29.666,37.6303],[29.6889,37.6744],[29.7737,37.7124],[29.8455,37.7593],[29.9264,37.7819],[30.0153,37.7765],[30.0934,37.7792],[30.1653,37.8104],[30.1977,37.8584],[30.2111,37.9619],[30.2322,37.9932],[30.3,38.0244],[30.3903,38.0946],[30.429,38.1122],[30.4812,38.1495],[30.5302,38.193],[30.6055,38.2137],[30.6623,38.25],[30.7051,38.2545],[30.7811,38.2777],[30.8447,38.3249],[30.9056,38.3805],[31.0304,38.4598],[31.0996,38.5152],[31.1238,38.5124],[31.1622,38.4908],[31.207,38.4396],[31.2544,38.423],[31.4308,38.5141],[31.5072,38.5771],[31.5948,38.6664],[31.5922,38.7288],[31.608,38.7821],[31.6383,38.8291],[31.7149,38.9277],[31.7236,38.9675],[31.6747,39.0005],[31.6978,39.0926],[31.7571,39.0863],[31.8354,39.0979],[31.8505,39.1136],[31.8614,39.1714],[31.9482,39.1364],[32.0906,39.0435],[32.127,39.0342],[32.2321,39.059],[32.2823,39.0635],[32.3676,39.0413],[32.436,39],[32.4787,38.9972],[32.538,39.0356],[32.6015,39.0584],[32.6761,39.0338],[32.7218,39.0544],[32.7579,39.0921],[32.86,39.1572],[32.908,39.1449],[32.9658,39.1105],[33.0091,39.1051],[33.0236,39.1236],[33.0321,39.1755],[33.0624,39.2221],[33.1048,39.2221],[33.1661,39.1889],[33.2227,39.1752],[33.3206,39.1199],[33.3744,39.0226],[33.3796,38.9687],[33.3638,38.8568],[33.3662,38.7987],[33.4134,38.7197],[33.4449,38.6837],[33.4666,38.6436],[33.5535,38.662],[33.6354,38.6987],[33.7224,38.7176],[33.8116,38.7154],[33.8497,38.7301],[33.9333,38.7923],[33.9366,38.8504],[33.8967,38.935],[33.9301,39.0011],[33.9374,39.0347],[33.8753,39.0526],[33.8288,39.0745],[33.7761,39.0777],[33.7393,39.1089],[33.6575,39.1556],[33.545,39.2109],[33.5245,39.2668],[33.6366,39.4187],[33.7989,39.5204],[33.8676,39.6042],[33.9128,39.7069],[34.0733,39.8257],[34.0525,39.9076],[34.0509,39.9586],[34.0976,40.0243],[34.1013,40.0569],[34.0845,40.1091],[34.0164,40.1467],[33.9752,40.218],[33.9642,40.2655],[34.043,40.2999],[34.0818,40.3102],[34.1336,40.3897],[34.1502,40.423],[34.1316,40.4749],[34.0914,40.5311],[34.0787,40.5687],[34.0746,40.6391],[34.0505,40.6763],[34.0442,40.7191],[34.0766,40.7982],[34.0272,40.8608],[34.1145,40.8747],[34.2564,40.9194],[34.2802,40.9691],[34.2264,41.0021],[34.2077,41.0393],[34.2522,41.0913],[34.2871,41.1572],[34.3574,41.2094],[34.3852,41.2643],[34.4194,41.302],[34.4719,41.3108],[34.4798,41.4416],[34.4629,41.4798],[34.472,41.5185],[34.4918,41.5523],[34.5533,41.5912],[34.5879,41.6575],[34.5325,41.7132],[34.4661,41.7275],[34.3443,41.7325],[34.2842,41.7453],[34.2051,41.7478],[34.1404,41.7671],[34.1422,41.8002],[34.1926,41.8451],[34.2209,41.9035],[34.2161,41.9601],[34.1995,41.9619],[34.1995,42.0276],[34.1518,42.027],[33.5143,42.0185],[33.4818,42.0106],[33.3895,42.0168],[33.3609,42.0207],[33.3245,42.019],[33.2916,42.0062],[33.2839,42.0052],[33.0586,41.93],[33.0081,41.9173],[32.9667,41.8994],[32.9455,41.8923],[32.7903,41.8596],[32.7554,41.8591],[32.6792,41.8363],[32.6126,41.8395],[32.5836,41.816],[32.5681,41.8127],[32.5484,41.8157],[32.4685,41.783],[32.3785,41.7534],[32.3772,41.7541],[32.3754,41.7524],[32.3047,41.7291],[32.296,41.7236],[32.2634,41.7202],[32.2434,41.6929],[32.2322,41.6833],[32.1274,41.617],[32.0604,41.5809],[32.1341,41.5994],[32.1901,41.5571],[32.2507,41.5369],[32.2709,41.4843],[32.3072,41.4156],[32.287,41.3308],[32.1981,41.2419],[32.182,41.1893],[32.1496,41.1085],[32.1494,41.0192],[31.9347,41.0241],[31.8722,41.0365],[31.7991,41.0418],[31.556,41.0595],[31.3846,41.1232],[31.3464,41.1507],[31.3597,41.1632],[31.3597,41.167],[31.3248,41.167],[31.3248,41.1843],[31.2412,41.1393],[31.2362,41.1366],[31.1752,41.1037],[31.059,41.0977],[31.0251,41.096],[30.9704,41.0998],[30.9261,41.1029],[30.8818,41.1059],[30.7047,41.1182],[30.6992,41.1215],[30.5478,41.149],[30.3467,41.1979],[30.3463,41.1979],[30.3424,41.1975],[30.3367,41.2008],[30.2713,41.2112],[30.2424,41.1865],[30.0394,41.1643],[30.0277,41.1651],[29.9204,41.1726],[29.8936,41.1744],[29.8936,41.1488],[29.8846,41.149],[29.8634,41.142],[29.8774,41.0798],[29.8494,41.0294],[29.7948,41.0067],[29.7306,40.9878],[29.6727,40.9569],[29.6466,40.9099],[29.611,40.9069],[29.5818,40.9253],[29.551,40.9741],[29.5037,41.005],[29.4509,41.0086],[29.3652,40.9527],[29.2878,40.9094],[29.2537,40.8755],[29.243,40.8793],[29.243,40.8383],[29.2098,40.8383],[29.2098,40.8504],[29.1766,40.8504],[29.1766,40.818],[29.1434,40.818],[29.1434,40.815],[29.0674,40.815],[29.0674,40.7692],[29.0294,40.7692],[29.0294,40.815],[29.0168,40.815],[28.9915,40.7692],[28.8952,40.5955],[28.8781,40.5859],[28.8268,40.5706],[28.7927,40.5533],[28.7742,40.5228],[28.8226,40.5141],[28.8397,40.5041],[28.8415,40.5031],[28.8435,40.5024],[28.8397,40.4955],[28.8255,40.4698],[28.8199,40.4597],[28.8008,40.4592],[28.7618,40.4582],[28.6838,40.4563],[28.5278,40.4523],[28.2159,40.4444],[28.177,40.4434],[28.138,40.4425],[28.06,40.4405],[27.985,40.4386],[28.0168,40.4511],[28.0344,40.4744],[28.0142,40.4912],[27.9699,40.503],[27.8047,40.5228],[27.7894,40.5142],[27.76,40.5371],[27.7332,40.5306],[27.6843,40.5023],[27.7258,40.4614],[27.7502,40.4576],[27.7563,40.4328],[27.589,40.4286],[27.5522,40.4276],[27.5154,40.4267],[27.4417,40.4248],[27.324,40.4219],[27.3034,40.4584],[27.2715,40.4678],[27.2377,40.4557],[27.1451,40.4537],[27.1431,40.4539],[27.126,40.4533],[27.1207,40.4532],[27.1206,40.4531],[27.0964,40.4523],[27.0333,40.4068],[27.0127,40.3959],[26.9204,40.3977],[26.8972,40.4062],[26.863,40.3999],[26.7534,40.403],[26.69,40.38],[26.62,40.33],[26.52,40.27],[26.44,40.21],[26.3982,40.164],[26.4035,40.139],[26.3936,40.1094],[26.3923,40.108],[26.3694,40.1029],[26.365,40.0787],[26.3143,40.0244],[26.2262,40.0015],[26.1978,40.0089],[26.1815,39.9898],[26.1811,39.9897],[26.1809,39.9891],[26.1677,39.9736],[26.1526,39.9426],[26.1565,39.9013],[26.1512,39.8823],[26.1364,39.8376],[26.1502,39.8292],[26.151,39.8031],[26.1406,39.7427],[26.1538,39.7207],[26.1556,39.6638],[26.1534,39.6524],[26.1272,39.6103],[26.1107,39.5979],[26.095,39.5486],[26.07,39.4963]]],[[[29.7653,36.95],[30,36.95],[30.35,36.86],[30.6,36.75],[30.6028,36.6465],[30.6203,36.6781],[31.6999,36.6443],[31.8,36.578],[31.8,37.301],[31.5587,37.3407],[31.459,37.3413],[31.4155,37.3549],[31.3764,37.3799],[31.3319,37.4222],[31.2777,37.4278],[31.2274,37.4139],[31.1807,37.3867],[31.1265,37.3801],[31.0235,37.3514],[30.935,37.3803],[30.8646,37.3316],[30.8463,37.2887],[30.7855,37.2352],[30.7481,37.2284],[30.6706,37.2276],[30.58,37.2353],[30.4409,37.2308],[30.4174,37.2385],[30.3558,37.2984],[30.2949,37.3049],[30.1469,37.2552],[30.0856,37.2466],[29.906,37.1722],[29.8512,37.1125],[29.8359,37.0371],[29.7965,36.9788],[29.7653,36.95]]]]}}
]}
