{"type":"FeatureCollection","features":[
{"type":"Feature","properties":{"entityId":"macedonian-republics","from":-166,"to":-147,"certainty":"estimated","source":"유럽 쪽은 Natural Earth 1:10m admin-1(v5.1.2) 현대 행정구역 조각을 그 시기 국경에 맞춰 묶고, 조각이 역사 경계와 다른 곳은 선을 그어 나눈 근사. 유럽 밖(시베리아·중앙아시아·극동)은 대략적인 추정. 운영자 검수 필요"},"geometry":{"type":"MultiPolygon","coordinates":[[[[19.7319,40.812],[19.7383,40.7812],[19.7608,40.7552],[19.7562,40.7166],[19.7952,40.6976],[19.8322,40.6361],[19.8085,40.6202],[19.8489,40.5686],[19.8993,40.5451],[19.9049,40.5273],[19.9371,40.5119],[19.9805,40.5089],[20.0202,40.4935],[20.068,40.4892],[20.0723,40.5033],[20.1082,40.4813],[20.1484,40.4726],[20.2486,40.3724],[20.2978,40.3553],[20.3066,40.3763],[20.3704,40.3992],[20.3723,40.4331],[20.4426,40.4397],[20.4603,40.437],[20.4415,40.4145],[20.4702,40.3677],[20.4617,40.3245],[20.482,40.2728],[20.5126,40.2663],[20.496,40.2255],[20.5268,40.1581],[20.6154,40.081],[20.6476,40.094],[20.6682,40.1381],[20.6599,40.1727],[20.6853,40.1912],[20.6964,40.2151],[20.6946,40.2556],[20.707,40.2881],[20.7396,40.3092],[20.7732,40.299],[20.8064,40.3199],[20.8439,40.3266],[20.8784,40.2653],[20.9208,40.225],[20.9479,40.1809],[20.9608,40.1384],[20.9323,40.087],[20.9482,40.077],[20.9611,40.0345],[20.9879,40.0068],[21.027,40.0215],[21.0429,40.0115],[21.0403,39.9817],[21.0139,39.941],[21.0453,39.9182],[21.0588,39.862],[21.0779,39.8325],[21.0949,39.8277],[21.1892,39.8496],[21.2249,39.8482],[21.2906,39.8186],[21.2912,39.8048],[21.3217,39.7958],[21.3834,39.8158],[21.4067,39.8404],[21.4655,39.8635],[21.6134,39.8485],[21.7133,39.8282],[21.7489,39.8266],[21.8237,39.8394],[21.8762,39.8329],[21.892,39.8556],[21.8792,39.9119],[21.8465,39.9269],[21.9144,39.9733],[21.9541,39.9903],[21.9841,40.0441],[22.0323,40.082],[22.0948,40.1674],[22.1024,40.1527],[22.1324,40.1736],[22.1846,40.1643],[22.1716,40.1386],[22.172,40.1084],[22.1965,40.0888],[22.2549,40.139],[22.2973,40.1501],[22.3375,40.1203],[22.3348,40.0768],[22.3463,40.0479],[22.3765,40.0222],[22.4441,39.9861],[22.4662,39.9558],[22.4968,39.9327],[22.5343,39.9224],[22.6139,39.9394],[22.6471,39.9269],[22.7096,39.935],[22.7098,39.935],[22.7098,39.9378],[22.71,39.9475],[22.7437,39.9475],[22.7159,40.022],[22.7065,40.0471],[22.632,40.2463],[22.6283,40.2563],[22.7422,40.3901],[22.8152,40.476],[22.8953,40.3981],[22.8882,40.3863],[22.9064,40.3873],[23.3442,39.9617],[23.3608,39.9617],[23.3606,39.9611],[23.3644,39.9617],[23.4925,39.9617],[23.548,39.9461],[23.6165,39.9233],[23.7031,39.9127],[23.7479,39.9305],[23.6973,39.9405],[23.676,39.9611],[23.6759,39.9617],[23.899,39.9617],[23.9142,39.9666],[23.9197,39.9564],[23.9912,39.9536],[23.9728,39.9619],[23.9987,39.9748],[23.988,39.99],[23.9884,39.9903],[24.0511,40.0104],[24.14,40.0388],[24.1844,40.0531],[24.2289,40.0673],[24.4066,40.1242],[24.4063,40.1245],[24.4066,40.1246],[24.3815,40.145],[24.3938,40.1525],[24.3833,40.1791],[24.3206,40.228],[24.2663,40.289],[24.2334,40.3169],[24.2223,40.3171],[24.2122,40.3282],[24.1889,40.3388],[24.1799,40.3515],[24.1336,40.3638],[24.0855,40.3856],[24.0293,40.4313],[24.0288,40.4321],[24.0114,40.4492],[24.0076,40.4489],[24.0042,40.4517],[23.9154,40.5239],[23.9092,40.5289],[23.9149,40.5389],[23.8888,40.5638],[23.8663,40.5638],[23.8291,40.5941],[23.7704,40.6418],[23.7443,40.677],[23.7484,40.6932],[23.8291,40.7106],[23.8635,40.718],[23.8978,40.7254],[23.9665,40.7402],[23.9863,40.7322],[24.0731,40.7214],[24.1101,40.7279],[24.2959,40.8112],[24.6124,40.8794],[24.6287,40.8586],[24.6619,40.8791],[24.6798,40.8694],[24.6907,40.8682],[24.7284,40.8527],[24.7539,40.8614],[24.79,40.8575],[24.802,40.8535],[24.8297,40.8768],[24.8342,40.8791],[24.82,40.95],[24.8,41.08],[24.75,41.15],[24.7,41.25],[24.65,41.4],[24.6471,41.4172],[24.6382,41.4177],[24.6443,41.4277],[24.5958,41.4298],[24.5811,41.4602],[24.5494,41.4854],[24.5309,41.5475],[24.5102,41.5617],[24.4592,41.5495],[24.4388,41.5277],[24.3539,41.5191],[24.2868,41.5176],[24.2864,41.5404],[24.2507,41.5635],[24.1977,41.5477],[24.0779,41.624],[24.1231,41.6546],[24.0726,41.6863],[24.042,41.7104],[23.9282,41.769],[23.9055,41.7965],[23.8682,41.7954],[23.8217,41.8238],[23.7957,41.8609],[23.7896,41.906],[23.7625,41.9399],[23.7666,41.9765],[23.7919,42.0207],[23.8205,42.0453],[23.8013,42.0627],[23.8133,42.0962],[23.8096,42.1329],[23.7726,42.1582],[23.7631,42.1776],[23.718,42.1605],[23.6984,42.1668],[23.6002,42.1509],[23.5808,42.1144],[23.5475,42.0841],[23.4936,42.0991],[23.4443,42.0697],[23.3872,42.0623],[23.2605,42.0929],[23.2006,42.0917],[23.1227,42.0576],[23.0607,42.0487],[23.0051,42.0699],[22.9762,42.0683],[22.959,42.0871],[22.9336,42.086],[22.8969,42.0304],[22.8754,42.0331],[22.8456,42.0074],[22.827,42.0251],[22.7989,42.0212],[22.7809,42.0432],[22.7251,42.0425],[22.7057,42.0559],[22.6759,42.0606],[22.6272,42.0791],[22.6178,42.0827],[22.5311,42.1291],[22.5069,42.1489],[22.4814,42.1933],[22.4436,42.2144],[22.345,42.3134],[22.3076,42.3193],[22.2769,42.3412],[22.2733,42.3655],[22.2598,42.3691],[22.2334,42.3489],[22.1381,42.3191],[22.0955,42.3058],[22.0609,42.3011],[22.0454,42.3024],[21.995,42.3126],[21.9415,42.3331],[21.9183,42.3313],[21.8844,42.3095],[21.8172,42.3051],[21.7195,42.261],[21.6769,42.2349],[21.6247,42.2428],[21.575,42.242],[21.5641,42.2463],[21.5199,42.239],[21.4993,42.2387],[21.4815,42.2478],[21.472,42.2391],[21.4572,42.237],[21.4363,42.2469],[21.4199,42.2401],[21.4298,42.2158],[21.4191,42.215],[21.3843,42.2249],[21.3606,42.2201],[21.3538,42.216],[21.295,42.149],[21.3003,42.1209],[21.3008,42.0984],[21.2993,42.0914],[21.2889,42.0897],[21.2457,42.0962],[21.2293,42.1038],[21.1999,42.1412],[21.1644,42.167],[21.1264,42.1889],[21.0985,42.196],[21.0744,42.1845],[21.0409,42.16],[21.0292,42.1514],[21.0039,42.142],[20.9751,42.1347],[20.9042,42.1167],[20.8105,42.0929],[20.7849,42.082],[20.7654,42.0643],[20.7554,42.0428],[20.7431,41.9935],[20.7418,41.9708],[20.7514,41.9403],[20.7544,41.9309],[20.7511,41.9102],[20.74,41.888],[20.7233,41.8666],[20.7144,41.8592],[20.6815,41.844],[20.6528,41.8693],[20.637,41.8704],[20.6187,41.8505],[20.5903,41.8547],[20.5671,41.8732],[20.5417,41.8616],[20.5408,41.8449],[20.5501,41.8001],[20.5444,41.7848],[20.5113,41.7579],[20.5004,41.7341],[20.5083,41.6617],[20.5347,41.5873],[20.5293,41.5749],[20.5208,41.5684],[20.4929,41.5577],[20.4442,41.5497],[20.4479,41.5355],[20.445,41.5085],[20.452,41.4936],[20.4708,41.4838],[20.4816,41.4683],[20.4868,41.4578],[20.4909,41.436],[20.498,41.4315],[20.5222,41.4257],[20.539,41.4029],[20.5329,41.3704],[20.5104,41.3444],[20.4817,41.3412],[20.4781,41.3216],[20.4954,41.2503],[20.5001,41.2355],[20.5127,41.2101],[20.5497,41.1706],[20.5655,41.1474],[20.577,41.0935],[20.5974,41.0863],[20.6024,41.0458],[20.5901,41.0185],[20.5428,41.0296],[20.4229,40.9881],[20.406,40.9342],[20.3813,40.9247],[20.3985,40.8889],[20.4415,40.8441],[20.4685,40.7997],[20.4448,40.7658],[20.4157,40.7523],[20.3397,40.7453],[20.2932,40.726],[20.2219,40.7157],[20.2003,40.7323],[20.145,40.7433],[20.1543,40.7549],[20.093,40.7801],[20.0686,40.8112],[20.0131,40.8285],[20.0166,40.8737],[20.0021,40.8817],[19.969,40.8671],[19.8889,40.8743],[19.8672,40.8684],[19.8692,40.8502],[19.8267,40.8489],[19.8124,40.8606],[19.7743,40.8471],[19.7646,40.8125],[19.7319,40.812]]],[[[24.512,40.6668],[24.5146,40.6519],[24.5142,40.6476],[24.5142,40.6472],[24.5155,40.6465],[24.5168,40.6391],[24.5402,40.634],[24.6114,40.5978],[24.6423,40.5706],[24.6639,40.5839],[24.7738,40.6142],[24.7738,40.6146],[24.7735,40.618],[24.7824,40.6202],[24.7705,40.6556],[24.7702,40.6595],[24.7789,40.6813],[24.7864,40.6879],[24.7831,40.6918],[24.7882,40.7045],[24.7881,40.7047],[24.7882,40.7049],[24.7738,40.7309],[24.7703,40.7345],[24.7864,40.7351],[24.7492,40.7562],[24.7412,40.7644],[24.7317,40.7835],[24.7213,40.785],[24.7198,40.7865],[24.702,40.7878],[24.6746,40.7917],[24.6423,40.8039],[24.6255,40.7932],[24.6226,40.7934],[24.6222,40.7934],[24.5862,40.7691],[24.5843,40.7669],[24.5667,40.7556],[24.5334,40.7182],[24.5234,40.6942],[24.5178,40.6875],[24.517,40.6789],[24.512,40.6668]]],[[[25.4435,40.4819],[25.4663,40.4558],[25.5326,40.415],[25.5661,40.405],[25.5727,40.4007],[25.573,40.4008],[25.5731,40.4007],[25.5772,40.4017],[25.5891,40.3981],[25.6826,40.4231],[25.6837,40.4265],[25.6847,40.4267],[25.6845,40.4271],[25.6847,40.4271],[25.6842,40.428],[25.6907,40.4477],[25.6887,40.475],[25.6565,40.4962],[25.5759,40.5147],[25.5715,40.5148],[25.5695,40.5157],[25.5692,40.5156],[25.5691,40.5157],[25.5661,40.5149],[25.5466,40.5153],[25.5021,40.4976],[25.4467,40.4827],[25.447,40.4825],[25.4469,40.4825],[25.4471,40.4824],[25.4467,40.4823],[25.4474,40.4818],[25.4435,40.4819]]]]}}
]}
