{"type":"FeatureCollection","features":[
{"type":"Feature","properties":{"entityId":"magyars","from":838,"to":895,"certainty":"estimated","source":"유럽 쪽은 Natural Earth 1:10m admin-1(v5.1.2) 현대 행정구역 조각을 그 시기 국경에 맞춰 묶고, 조각이 역사 경계와 다른 곳은 선을 그어 나눈 근사. 유럽 밖(시베리아·중앙아시아·극동)은 대략적인 추정. 운영자 검수 필요"},"geometry":{"type":"MultiPolygon","coordinates":[[[[24.9424,47.7156],[24.9788,47.6626],[25.0219,47.6322],[25.0323,47.6123],[25.0158,47.5965],[24.9562,47.5823],[25.0461,47.5297],[25.0842,47.4938],[25.0905,47.4715],[25.0726,47.4495],[25.0373,47.4302],[25.0494,47.3999],[25.007,47.3926],[25.004,47.3792],[25.0404,47.3429],[25.0568,47.3153],[25.0292,47.2576],[25.0391,47.2372],[25.0765,47.2283],[25.0632,47.1728],[25.0686,47.103],[25.1589,47.0914],[25.2047,47.0764],[25.2419,47.0663],[25.2826,47.0704],[25.3118,47.123],[25.3725,47.1403],[25.4069,47.1348],[25.5189,47.0824],[25.5521,47.0559],[25.5836,47.0473],[25.6713,47.0579],[25.7371,47.039],[25.7627,47.0125],[25.7918,46.9661],[25.8658,46.9128],[25.8668,46.8837],[25.832,46.8853],[25.8165,46.8592],[25.8282,46.6936],[25.8409,46.6702],[25.889,46.6348],[25.915,46.6356],[25.907,46.6748],[25.9271,46.6819],[26.0088,46.668],[26.012,46.5936],[26.0289,46.5485],[26.0691,46.4986],[26.0699,46.4872],[26.0325,46.4683],[26.0189,46.4268],[26.0387,46.4033],[26.1326,46.3907],[26.1619,46.3731],[26.1682,46.35],[26.1595,46.3125],[26.1823,46.3057],[26.2471,46.3266],[26.2927,46.3197],[26.3002,46.302],[26.2869,46.2762],[26.2799,46.2265],[26.259,46.1881],[26.2516,46.1503],[26.2932,46.1601],[26.325,46.1794],[26.4001,46.1445],[26.4149,46.128],[26.4021,46.0943],[26.4406,46.0748],[26.4681,46.0274],[26.4848,46.0212],[26.4209,45.9505],[26.4048,45.9175],[26.3804,45.8029],[26.4246,45.7732],[26.4664,45.7309],[26.5322,45.6504],[26.569,45.6248],[26.6467,45.6279],[26.6694,45.6212],[26.7548,45.5633],[26.8315,45.5284],[26.8945,45.5187],[26.9071,45.5452],[26.9758,45.5333],[26.9992,45.5152],[27.0062,45.4818],[27.0638,45.4507],[27.1378,45.4678],[27.1471,45.4304],[27.191,45.4492],[27.2761,45.4349],[27.3076,45.3965],[27.3557,45.3869],[27.4235,45.3865],[27.4328,45.4067],[27.4832,45.4573],[27.5209,45.4777],[27.5801,45.4933],[27.6373,45.4755],[27.7026,45.477],[27.7652,45.4331],[27.8202,45.4124],[27.8555,45.4074],[27.9213,45.4095],[28.0302,45.3954],[28.0437,45.4113],[28.1249,45.428],[28.1908,45.417],[28.2151,45.4504],[28.1995,45.4618],[28.1659,45.4946],[28.1654,45.5283],[28.1409,45.5602],[28.0621,45.5936],[28.1208,45.6277],[28.168,45.6325],[28.155,45.7618],[28.1133,45.8254],[28.1105,45.8543],[28.1311,45.8714],[28.1174,45.8952],[28.125,45.9184],[28.0861,46.0006],[28.0845,46.0246],[28.1078,46.0961],[28.1105,46.1015],[28.1447,46.1832],[28.109,46.2341],[28.1321,46.2399],[28.1352,46.2693],[28.1778,46.287],[28.1929,46.3112],[28.1879,46.3438],[28.2071,46.3582],[28.2129,46.3887],[28.2268,46.3955],[28.249,46.3887],[28.2809,46.4121],[28.3205,46.4237],[28.3379,46.4206],[28.3383,46.3997],[28.3765,46.3886],[28.4102,46.4083],[28.4291,46.4351],[28.4721,46.4264],[28.5755,46.4859],[28.5856,46.5026],[28.5885,46.5323],[28.5734,46.5676],[28.5875,46.5817],[28.5897,46.6111],[28.6025,46.633],[28.5862,46.6468],[28.5837,46.6685],[28.6071,46.6995],[28.6213,46.7438],[28.7028,46.7794],[28.7324,46.7861],[28.7356,46.8233],[28.7801,46.7958],[28.8732,46.7936],[28.907,46.812],[28.9527,46.7892],[28.9712,46.8036],[29.0264,46.8178],[29.088,46.852],[29.0496,46.8601],[29.0429,46.8816],[29.0617,46.9146],[29.0412,46.9268],[28.9712,46.9411],[28.9505,46.9198],[28.9226,46.9289],[28.9081,46.9611],[28.9338,46.9966],[28.9744,47.0104],[29.0081,47.0076],[29.0279,47.0305],[29.0566,47.0425],[29.0868,47.0374],[29.1152,46.9869],[29.1818,47.0003],[29.2404,46.9763],[29.2545,46.9948],[29.2489,47.0645],[29.2535,47.1052],[29.2697,47.1289],[29.2922,47.1358],[29.295,47.122],[29.3293,47.1082],[29.3775,47.0708],[29.3806,47.0289],[29.3639,47.0332],[29.3724,47.0043],[29.3409,46.992],[29.295,46.9922],[29.3159,46.9587],[29.3496,46.937],[29.3757,46.9352],[29.4355,46.9575],[29.4617,46.951],[29.4784,46.9595],[29.5606,46.9613],[29.5675,46.9347],[29.5985,46.9354],[29.6319,46.9144],[29.6962,46.9047],[29.702,46.9],[29.9,46.9],[29.9,46.8133],[29.9174,46.814],[29.9307,46.8031],[29.9318,46.7724],[29.9511,46.7431],[29.9444,46.6625],[29.9319,46.6324],[29.9497,46.5789],[29.9381,46.5573],[29.9,46.5532],[29.9,46.5507],[29.9161,46.5188],[29.9602,46.5059],[29.9706,46.4917],[29.9949,46.4985],[30.0217,46.4707],[30.0141,46.462],[30.0275,46.4536],[30.1123,46.4228],[30.1316,46.4228],[30.124,46.4155],[30.2,46.33],[30.4,46.22],[30.47,46.12],[30.4983,46.0881],[30.5035,46.0976],[30.5123,46.1052],[30.6234,46.2298],[30.6535,46.2596],[30.6824,46.2995],[30.6865,46.32],[30.6851,46.3209],[30.7072,46.3484],[30.7145,46.348],[30.7725,46.3964],[30.7982,46.4464],[30.7821,46.4572],[30.7728,46.4773],[30.7967,46.5514],[30.8294,46.5584],[30.867,46.5558],[30.9062,46.5747],[30.9482,46.5837],[30.9592,46.5834],[30.9669,46.5877],[31.1098,46.6181],[31.1484,46.6236],[31.2563,46.6163],[31.3377,46.6013],[31.4286,46.6376],[31.4737,46.6796],[31.5118,46.6847],[31.481,46.6464],[31.493,46.6287],[31.5789,46.6173],[31.5972,46.6432],[31.6265,46.647],[31.6567,46.6416],[31.6871,46.639],[31.693,46.6065],[31.6988,46.575],[31.9022,46.575],[31.9022,46.5701],[32.3,46.58],[32.55,46.61],[32.7,46.65],[33,46.7],[33.38,46.78],[33.7,47],[34,47.25],[34.2397,47.4098],[34.2304,47.4315],[34.2037,47.4784],[34.1575,47.4739],[34.0582,47.4807],[33.9018,47.5145],[33.7525,47.491],[33.6544,47.4868],[33.6302,47.5076],[33.5844,47.5147],[33.5753,47.5343],[33.5885,47.5569],[33.5629,47.5754],[33.5033,47.5671],[33.4767,47.5299],[33.3706,47.5155],[33.3335,47.4957],[33.304,47.5136],[33.2932,47.5357],[33.1934,47.5539],[33.1654,47.5685],[33.0893,47.5829],[33.0052,47.5917],[32.9917,47.6032],[33.0184,47.6319],[33.0143,47.6626],[32.9838,47.71],[33.0398,47.7261],[33.0834,47.7288],[33.0821,47.7501],[33.0603,47.7756],[33.0608,47.8309],[33.0823,47.8917],[33.0691,47.911],[33.0314,47.9257],[33.0461,47.9602],[33.0353,47.9665],[33.0575,48.0258],[33.0879,48.039],[33.12,48.0698],[33.1495,48.0817],[33.1871,48.0795],[33.2223,48.0904],[33.2383,48.1706],[33.25,48.1746],[33.2621,48.1425],[33.257,48.1102],[33.2758,48.1073],[33.2947,48.1408],[33.3571,48.1843],[33.3964,48.1732],[33.4564,48.2108],[33.4705,48.228],[33.5162,48.2427],[33.5259,48.2974],[33.5033,48.3066],[33.487,48.4069],[33.4724,48.429],[33.4845,48.4439],[33.4458,48.5001],[33.4492,48.5284],[33.4777,48.541],[33.5638,48.5637],[33.5804,48.5594],[33.6166,48.5828],[33.7225,48.6166],[33.7663,48.6457],[33.8211,48.6684],[33.7751,48.6789],[33.7565,48.6977],[33.6976,48.6999],[33.6594,48.7138],[33.6035,48.7203],[33.5661,48.7502],[33.5576,48.772],[33.5844,48.7945],[33.6194,48.7842],[33.6583,48.8062],[33.6828,48.8053],[33.6946,48.7872],[33.7213,48.7863],[33.7409,48.8032],[33.7713,48.8043],[33.7819,48.7802],[33.8039,48.7935],[33.811,48.762],[33.8296,48.762],[33.8501,48.7937],[33.8872,48.8234],[33.9195,48.8658],[33.876,48.8974],[33.8074,48.9034],[33.7785,48.9225],[33.6946,48.9058],[33.6735,48.8691],[33.6516,48.8993],[33.597,48.9224],[33.5427,48.903],[33.4564,48.9417],[33.401,48.9535],[33.3757,48.9413],[33.2994,48.9955],[33.3226,49.0273],[33.346,49.0327],[33.2971,49.0649],[33.2041,49.0709],[33.142,49.1302],[33.0382,49.182],[32.7887,49.2618],[32.7527,49.1882],[32.7895,49.1468],[32.8013,49.074],[32.8247,49.0304],[32.8491,49.023],[32.8449,49.0012],[32.7824,48.9637],[32.7439,48.9656],[32.683,48.9863],[32.6343,48.946],[32.6003,48.9456],[32.5737,48.9576],[32.5513,48.9328],[32.5152,48.9313],[32.5015,48.9755],[32.463,49.0098],[32.4529,49.0561],[32.4208,49.0438],[32.3691,49.0458],[32.3319,49.0898],[32.3013,49.0779],[32.2795,49.0471],[32.2414,49.052],[32.1925,48.9998],[32.1494,48.9801],[32.1343,48.9583],[32.146,48.948],[32.1292,48.9125],[32.0518,48.9162],[32.0316,48.9278],[31.9528,48.9021],[31.8949,48.8618],[31.8748,48.8616],[31.8541,48.8983],[31.8102,48.9239],[31.7323,48.9426],[31.6895,48.9445],[31.6511,48.9174],[31.5441,48.9242],[31.5295,48.904],[31.5273,48.8352],[31.4812,48.8035],[31.4623,48.7611],[31.4417,48.751],[31.3329,48.7238],[31.3091,48.7428],[31.2237,48.7539],[31.1799,48.751],[31.116,48.7283],[31.0548,48.7282],[31.0205,48.7435],[30.9381,48.7562],[30.8122,48.7509],[30.7991,48.7604],[30.7023,48.7652],[30.6154,48.7222],[30.6014,48.6639],[30.5409,48.6193],[30.5775,48.6011],[30.5741,48.5652],[30.4844,48.5535],[30.4565,48.5708],[30.4147,48.5719],[30.393,48.5555],[30.3849,48.5305],[30.2552,48.4853],[30.2135,48.4819],[30.1744,48.4892],[30.1208,48.4564],[30.0761,48.4551],[30.0388,48.4277],[30.0046,48.4244],[29.9401,48.3756],[29.9124,48.4319],[29.8834,48.4326],[29.8586,48.4172],[29.7771,48.3476],[29.7754,48.3169],[29.7382,48.2701],[29.7866,48.25],[29.7748,48.2031],[29.7172,48.1817],[29.6825,48.1821],[29.6659,48.1689],[29.6975,48.1364],[29.6798,48.0922],[29.5855,48.0871],[29.4972,48.0928],[29.4347,48.1131],[29.3384,48.0862],[29.2463,48.0845],[29.1699,48.1057],[29.104,48.1436],[29.0783,48.1445],[29.0412,48.1282],[29.0461,48.0831],[28.9642,48.0358],[28.8798,48.0106],[28.8621,48.0005],[28.8826,47.9768],[28.9361,47.9422],[28.9808,47.9264],[29.0172,47.9311],[29.061,47.9698],[29.0927,47.9802],[29.124,47.976],[29.148,47.9554],[29.1646,47.9056],[29.1866,47.8836],[29.236,47.8707],[29.2328,47.8571],[29.1867,47.8182],[29.1778,47.7897],[29.222,47.7748],[29.2386,47.756],[29.197,47.7175],[29.1924,47.6509],[29.1821,47.6132],[29.1305,47.5596],[29.1174,47.5333],[29.1372,47.484],[29.1268,47.4656],[29.108,47.4694],[29.0928,47.4874],[29.0486,47.5062],[29.0267,47.5295],[29.0157,47.5821],[28.9865,47.6223],[28.9954,47.6509],[28.9803,47.6874],[28.9756,47.7434],[28.9803,47.7656],[29.0175,47.8269],[29.0181,47.8535],[28.9803,47.8755],[28.9421,47.8832],[28.861,47.8997],[28.8289,47.9171],[28.8303,47.9411],[28.8128,47.9654],[28.7848,47.9828],[28.7556,47.9572],[28.7204,47.9527],[28.6832,47.9339],[28.6579,47.8987],[28.6568,47.8772],[28.6692,47.8581],[28.637,47.8421],[28.5692,47.8871],[28.5305,47.8929],[28.504,47.8833],[28.478,47.8886],[28.4962,47.9155],[28.5055,47.9587],[28.4965,47.9878],[28.4666,47.9972],[28.4813,48.0332],[28.5191,48.0523],[28.5434,48.088],[28.4998,48.1089],[28.49,48.0655],[28.4474,48.0828],[28.419,48.1222],[28.4369,48.1499],[28.4116,48.1707],[28.3886,48.1686],[28.3496,48.1297],[28.3174,48.1354],[28.3222,48.1632],[28.3634,48.191],[28.3682,48.2306],[28.3406,48.2401],[28.2945,48.2365],[28.2403,48.2116],[28.1999,48.2117],[28.1785,48.2589],[28.1311,48.2396],[28.0787,48.2449],[28.0983,48.2841],[28.0928,48.3021],[28.0559,48.3215],[28.0032,48.3259],[27.9264,48.3394],[27.8854,48.3784],[27.8499,48.4096],[27.7853,48.4416],[27.7518,48.452],[27.627,48.4513],[27.6069,48.4578],[27.6048,48.4841],[27.583,48.486],[27.5571,48.4744],[27.5038,48.4724],[27.4809,48.4514],[27.4202,48.4171],[27.3898,48.415],[27.3422,48.4361],[27.306,48.4237],[27.2519,48.3783],[27.2086,48.3606],[27.1758,48.3618],[27.0263,48.3971],[27.0331,48.3602],[26.9906,48.3624],[26.9432,48.3513],[26.876,48.384],[26.8428,48.3937],[26.8169,48.3717],[26.7881,48.376],[26.7775,48.3662],[26.7894,48.3259],[26.7857,48.2941],[26.7546,48.2861],[26.7359,48.2918],[26.6994,48.3251],[26.6798,48.3302],[26.6691,48.3088],[26.6361,48.2949],[26.6179,48.259],[26.5874,48.2494],[26.4447,48.2277],[26.3974,48.2262],[26.3303,48.2085],[26.3035,48.212],[26.287,48.1247],[26.2553,48.0723],[26.2048,48.0374],[26.1731,47.9931],[26.1025,47.9783],[26.0293,47.9778],[25.9657,47.9649],[25.9181,47.9682],[25.8184,47.9526],[25.7525,47.9346],[25.2617,47.8986],[25.219,47.8785],[25.1219,47.7703],[25.0799,47.7429],[25.0174,47.7246],[24.9424,47.7156]]],[[[31.5083,46.5876],[31.5094,46.5859],[31.517,46.575],[31.5301,46.575],[31.5109,46.5861],[31.5083,46.5876]]]]}},
{"type":"Feature","properties":{"entityId":"magyars","from":895,"to":900,"certainty":"estimated","source":"유럽 쪽은 Natural Earth 1:10m admin-1(v5.1.2) 현대 행정구역 조각을 그 시기 국경에 맞춰 묶고, 조각이 역사 경계와 다른 곳은 선을 그어 나눈 근사. 유럽 밖(시베리아·중앙아시아·극동)은 대략적인 추정. 운영자 검수 필요"},"geometry":{"type":"Polygon","coordinates":[[[22.3549,45.9499],[22.3891,45.9247],[22.4125,45.8627],[22.4494,45.8372],[22.486,45.786],[22.5025,45.774],[22.5298,45.7799],[22.5411,45.7613],[22.4811,45.7191],[22.4616,45.6738],[22.4454,45.6629],[22.4536,45.6401],[22.4834,45.6115],[22.5374,45.5973],[22.5424,45.57],[22.5761,45.5671],[22.6533,45.5202],[22.6784,45.4925],[22.698,45.413],[22.6753,45.3739],[22.7069,45.3223],[22.6771,45.2755],[22.6691,45.2405],[22.601,45.1977],[22.5727,45.1708],[22.5661,45.1388],[22.6346,45.1275],[22.6411,45.0924],[22.5989,45.0602],[22.5666,45.0239],[22.5337,44.9342],[22.4918,44.8846],[22.467,44.8393],[22.4418,44.7694],[22.4212,44.7521],[22.3878,44.7537],[22.3542,44.7777],[22.3112,44.7779],[22.2626,44.8083],[22.2219,44.8062],[22.2057,44.7613],[22.1653,44.7022],[22.1608,44.6644],[22.1727,44.6339],[22.169,44.609],[22.1499,44.5977],[22.0888,44.6032],[22.0342,44.5962],[22.0043,44.6515],[21.8554,44.6985],[21.7568,44.6773],[21.7052,44.6771],[21.6563,44.6877],[21.6197,44.7139],[21.5956,44.766],[21.5584,44.7817],[21.4972,44.778],[21.3959,44.7902],[21.3598,44.8267],[21.2695,44.8137],[21.1888,44.7782],[21.1638,44.7478],[21.1123,44.7448],[21.0779,44.7265],[21.0368,44.722],[20.9896,44.7168],[20.8832,44.6727],[20.8265,44.6609],[20.7948,44.6647],[20.7636,44.6684],[20.7203,44.6962],[20.672,44.744],[20.6333,44.7652],[20.6282,44.7886],[20.6364,44.8494],[20.595,44.858],[20.6001,44.8886],[20.5732,44.9103],[20.527,44.9254],[20.4988,44.9484],[20.4974,44.9648],[20.4522,44.9851],[20.3985,45.0314],[20.3952,45.0652],[20.339,45.0803],[20.2778,45.141],[20.2224,45.1755],[20.185,45.185],[20.0648,45.1755],[19.9856,45.1898],[19.9803,45.1598],[19.9126,45.1426],[19.792,45.1471],[19.7731,45.1671],[19.6988,45.1417],[19.6001,45.1384],[19.5386,45.1505],[19.4609,45.1741],[19.428,45.1461],[19.3939,45.1716],[19.4078,45.2031],[19.3781,45.2296],[19.2898,45.2363],[19.1585,45.2762],[19.1041,45.2987],[19.083,45.3392],[19.0302,45.3451],[18.9775,45.3712],[18.9755,45.3911],[19.0226,45.4024],[19.0313,45.4162],[19.0023,45.4437],[18.9964,45.4738],[19.0179,45.4978],[19.0772,45.4916],[19.1063,45.5116],[19.0951,45.5261],[19.051,45.5389],[19.0181,45.5674],[18.9602,45.5391],[18.9417,45.5389],[18.9036,45.5731],[18.9124,45.6192],[18.9685,45.6687],[18.9627,45.6831],[18.9173,45.7066],[18.9002,45.7649],[18.8487,45.8096],[18.8553,45.8574],[18.8998,45.8614],[18.904,45.8757],[18.8729,45.8952],[18.907,45.9157],[18.9013,45.9312],[18.8225,45.9056],[18.8015,45.92],[18.8241,45.9402],[18.8524,46.0112],[18.8447,46.0499],[18.822,46.0989],[18.7858,46.0997],[18.8292,46.1229],[18.8072,46.1314],[18.8026,46.1614],[18.8335,46.1618],[18.8539,46.1932],[18.8233,46.2063],[18.8417,46.2257],[18.8984,46.234],[18.9144,46.2457],[18.9133,46.3306],[18.8922,46.3784],[18.8989,46.4143],[18.9227,46.4686],[18.9201,46.4988],[18.8772,46.5912],[18.8581,46.6148],[18.8853,46.6352],[18.9529,46.6561],[18.9816,46.6763],[19.0018,46.7085],[18.9847,46.7756],[18.9276,46.8271],[18.9267,46.8484],[18.9309,46.8771],[18.9488,46.9039],[18.9665,46.9172],[18.9669,46.9358],[18.9605,46.9774],[18.9552,46.9947],[18.968,47.0332],[18.9031,47.0816],[18.8792,47.1492],[18.8869,47.2081],[18.9076,47.2374],[18.9188,47.2871],[18.9028,47.3038],[18.9286,47.3185],[18.9423,47.344],[18.949,47.3693],[18.9555,47.4045],[18.9247,47.4285],[18.8913,47.4422],[18.8638,47.4618],[18.8383,47.454],[18.8442,47.4206],[18.8619,47.3872],[18.8194,47.3563],[18.7804,47.4105],[18.787,47.439],[18.7756,47.4645],[18.7246,47.5076],[18.685,47.5619],[18.7104,47.5787],[18.7259,47.605],[18.775,47.6381],[18.7591,47.6648],[18.8113,47.6702],[18.8637,47.6661],[18.853,47.7171],[18.8938,47.7268],[18.9165,47.7217],[18.9157,47.7712],[18.8833,47.8122],[18.8149,47.8322],[18.7488,47.8707],[18.7422,47.8895],[18.7548,47.9518],[18.7432,47.9711],[18.7942,47.9931],[18.8385,48.04],[18.9336,48.0543],[19.019,48.0655],[19.0985,48.0707],[19.2225,48.0606],[19.2932,48.0878],[19.4282,48.0859],[19.4817,48.1113],[19.503,48.1894],[19.5312,48.2107],[19.6232,48.227],[19.6439,48.2248],[19.687,48.1969],[19.7566,48.2003],[19.7743,48.1859],[19.7667,48.159],[19.7761,48.1495],[19.7856,48.1487],[19.8217,48.1579],[19.8463,48.1527],[19.8843,48.1296],[19.9051,48.1243],[19.9286,48.1301],[19.9739,48.1584],[20.0383,48.1772],[20.097,48.1984],[20.1345,48.2467],[20.1709,48.244],[20.2291,48.2709],[20.2724,48.2525],[20.3243,48.2799],[20.3702,48.3343],[20.409,48.4137],[20.466,48.4638],[20.4817,48.4787],[20.4817,48.5261],[20.5725,48.5366],[20.7841,48.5691],[20.8158,48.5638],[20.8455,48.5458],[20.8914,48.5411],[20.9458,48.519],[21.0065,48.5182],[21.0639,48.5062],[21.1093,48.4891],[21.1867,48.5137],[21.2199,48.5187],[21.2618,48.5032],[21.3023,48.5399],[21.4246,48.5613],[21.4908,48.5403],[21.5218,48.5001],[21.5917,48.493],[21.6134,48.4404],[21.6776,48.3723],[21.7277,48.3409],[21.7894,48.3355],[21.8412,48.3532],[21.8843,48.3575],[21.9293,48.3729],[22.018,48.3797],[22.0965,48.3794],[22.1328,48.4048],[22.1338,48.4768],[22.1483,48.5088],[22.1367,48.5493],[22.1537,48.5859],[22.219,48.6209],[22.2555,48.6568],[22.2943,48.6676],[22.3225,48.7003],[22.3308,48.7564],[22.3657,48.7944],[22.3623,48.8443],[22.3708,48.8582],[22.4118,48.8878],[22.4149,48.9117],[22.449,48.9714],[22.5205,48.9929],[22.5248,49.0329],[22.5396,49.0722],[22.5808,49.0814],[22.6429,49.0432],[22.7553,49.0447],[22.784,49.0214],[22.8553,48.994],[22.865,49.0132],[22.9024,48.9833],[22.892,48.9354],[22.926,48.9041],[22.9612,48.8843],[22.9821,48.859],[23.0117,48.8547],[23.105,48.8713],[23.1376,48.8522],[23.1798,48.7903],[23.2016,48.7771],[23.2576,48.7722],[23.2982,48.7812],[23.3085,48.7502],[23.3505,48.772],[23.378,48.7371],[23.4458,48.7267],[23.4985,48.7312],[23.5329,48.7237],[23.6124,48.7038],[23.6745,48.6545],[23.709,48.643],[23.7715,48.6447],[23.7817,48.6034],[23.8471,48.5628],[23.8949,48.5496],[23.9168,48.5154],[23.9074,48.4887],[23.9427,48.4704],[24.0015,48.5001],[24.0462,48.5051],[24.1138,48.5322],[24.137,48.5275],[24.1407,48.4712],[24.1312,48.4345],[24.1408,48.3799],[24.1777,48.3546],[24.2341,48.3505],[24.2707,48.3572],[24.3054,48.3883],[24.3317,48.3748],[24.3458,48.3402],[24.3916,48.3311],[24.4949,48.2666],[24.5415,48.2128],[24.5216,48.1711],[24.5384,48.1345],[24.6068,48.0886],[24.6393,48.0476],[24.5882,47.9959],[24.5698,47.9373],[24.4856,47.9432],[24.4285,47.9525],[24.3862,47.9437],[24.3472,47.9209],[24.2979,47.9198],[24.231,47.897],[24.1312,47.9145],[24.0948,47.9379],[23.9773,47.9623],[23.8766,47.9344],[23.7801,47.9875],[23.7105,47.9851],[23.5632,48.0058],[23.5145,47.999],[23.4855,47.9742],[23.502,47.9342],[23.5494,47.889],[23.607,47.8594],[23.63,47.8381],[23.6207,47.8162],[23.4792,47.743],[23.4145,47.7326],[23.3429,47.7489],[23.2718,47.7492],[23.2395,47.7223],[23.2588,47.7019],[23.3268,47.6892],[23.3609,47.6678],[23.3595,47.6426],[23.3237,47.5853],[23.268,47.5381],[23.2172,47.5353],[23.1717,47.5554],[23.1435,47.577],[23.1168,47.5765],[23.0578,47.5261],[23.0309,47.4795],[22.9688,47.4445],[22.9676,47.4305],[22.9984,47.4163],[23.0905,47.4043],[23.1103,47.3769],[23.105,47.3554],[23.051,47.3161],[23.0056,47.3369],[22.9645,47.344],[22.9119,47.372],[22.8018,47.3928],[22.7547,47.3879],[22.6236,47.3447],[22.5807,47.3214],[22.5368,47.2324],[22.4943,47.1942],[22.5072,47.1599],[22.5504,47.1137],[22.5905,47.0586],[22.6639,47.0255],[22.7194,46.9794],[22.6883,46.9203],[22.7477,46.9021],[22.7657,46.8844],[22.7513,46.8433],[22.7303,46.8234],[22.6935,46.8123],[22.6681,46.7926],[22.6688,46.7753],[22.7208,46.7389],[22.7469,46.7036],[22.7643,46.657],[22.8079,46.6194],[22.8028,46.5569],[22.7398,46.5654],[22.7025,46.5321],[22.6869,46.483],[22.6881,46.422],[22.7067,46.3687],[22.7553,46.3338],[22.6897,46.3002],[22.6403,46.2314],[22.6007,46.2109],[22.5579,46.2095],[22.502,46.2189],[22.4702,46.212],[22.4336,46.1761],[22.4296,46.1142],[22.4072,46.0713],[22.4196,46.0253],[22.4015,45.9917],[22.3549,45.9499]]]}},
{"type":"Feature","properties":{"entityId":"magyars","from":900,"to":907,"certainty":"estimated","source":"유럽 쪽은 Natural Earth 1:10m admin-1(v5.1.2) 현대 행정구역 조각을 그 시기 국경에 맞춰 묶고, 조각이 역사 경계와 다른 곳은 선을 그어 나눈 근사. 유럽 밖(시베리아·중앙아시아·극동)은 대략적인 추정. 운영자 검수 필요"},"geometry":{"type":"Polygon","coordinates":[[[17.8835,47.7525],[18.1126,47.7625],[18.2359,47.7539],[18.273,47.7563],[18.3479,47.7768],[18.5526,47.7928],[18.5974,47.7907],[18.6338,47.7798],[18.6928,47.778],[18.7677,47.8223],[18.8149,47.8322],[18.7488,47.8707],[18.7422,47.8895],[18.7548,47.9518],[18.7432,47.9711],[18.7942,47.9931],[18.8385,48.04],[18.9336,48.0543],[19.019,48.0655],[19.0985,48.0707],[19.2225,48.0606],[19.2932,48.0878],[19.4282,48.0859],[19.4817,48.1113],[19.503,48.1894],[19.5312,48.2107],[19.6232,48.227],[19.6439,48.2248],[19.687,48.1969],[19.7566,48.2003],[19.7743,48.1859],[19.7667,48.159],[19.7761,48.1495],[19.7856,48.1487],[19.8217,48.1579],[19.8463,48.1527],[19.8843,48.1296],[19.9051,48.1243],[19.9286,48.1301],[19.9739,48.1584],[20.0383,48.1772],[20.097,48.1984],[20.1345,48.2467],[20.1709,48.244],[20.2291,48.2709],[20.2724,48.2525],[20.3243,48.2799],[20.3702,48.3343],[20.409,48.4137],[20.466,48.4638],[20.4817,48.4787],[20.4817,48.5261],[20.5725,48.5366],[20.7841,48.5691],[20.8158,48.5638],[20.8455,48.5458],[20.8914,48.5411],[20.9458,48.519],[21.0065,48.5182],[21.0639,48.5062],[21.1093,48.4891],[21.1867,48.5137],[21.2199,48.5187],[21.2618,48.5032],[21.3023,48.5399],[21.4246,48.5613],[21.4908,48.5403],[21.5218,48.5001],[21.5917,48.493],[21.6134,48.4404],[21.6776,48.3723],[21.7277,48.3409],[21.7894,48.3355],[21.8412,48.3532],[21.8843,48.3575],[21.9293,48.3729],[22.018,48.3797],[22.0965,48.3794],[22.1328,48.4048],[22.1338,48.4768],[22.1483,48.5088],[22.1367,48.5493],[22.1537,48.5859],[22.219,48.6209],[22.2555,48.6568],[22.2943,48.6676],[22.3225,48.7003],[22.3308,48.7564],[22.3657,48.7944],[22.3623,48.8443],[22.3708,48.8582],[22.4118,48.8878],[22.4149,48.9117],[22.449,48.9714],[22.5205,48.9929],[22.5248,49.0329],[22.5396,49.0722],[22.5808,49.0814],[22.6429,49.0432],[22.7553,49.0447],[22.784,49.0214],[22.8553,48.994],[22.865,49.0132],[22.9024,48.9833],[22.892,48.9354],[22.926,48.9041],[22.9612,48.8843],[22.9821,48.859],[23.0117,48.8547],[23.105,48.8713],[23.1376,48.8522],[23.1798,48.7903],[23.2016,48.7771],[23.2576,48.7722],[23.2982,48.7812],[23.3085,48.7502],[23.3505,48.772],[23.378,48.7371],[23.4458,48.7267],[23.4985,48.7312],[23.5329,48.7237],[23.6124,48.7038],[23.6745,48.6545],[23.709,48.643],[23.7715,48.6447],[23.7817,48.6034],[23.8471,48.5628],[23.8949,48.5496],[23.9168,48.5154],[23.9074,48.4887],[23.9427,48.4704],[24.0015,48.5001],[24.0462,48.5051],[24.1138,48.5322],[24.137,48.5275],[24.1407,48.4712],[24.1312,48.4345],[24.1408,48.3799],[24.1777,48.3546],[24.2341,48.3505],[24.2707,48.3572],[24.3054,48.3883],[24.3317,48.3748],[24.3458,48.3402],[24.3916,48.3311],[24.4949,48.2666],[24.5415,48.2128],[24.5216,48.1711],[24.5384,48.1345],[24.6068,48.0886],[24.6393,48.0476],[24.5882,47.9959],[24.5698,47.9373],[24.4856,47.9432],[24.4285,47.9525],[24.3862,47.9437],[24.3472,47.9209],[24.2979,47.9198],[24.231,47.897],[24.1312,47.9145],[24.0948,47.9379],[23.9773,47.9623],[23.8766,47.9344],[23.7801,47.9875],[23.7105,47.9851],[23.5632,48.0058],[23.5145,47.999],[23.4855,47.9742],[23.502,47.9342],[23.5494,47.889],[23.607,47.8594],[23.63,47.8381],[23.6207,47.8162],[23.4792,47.743],[23.4145,47.7326],[23.3429,47.7489],[23.2718,47.7492],[23.2395,47.7223],[23.2588,47.7019],[23.3268,47.6892],[23.3609,47.6678],[23.3595,47.6426],[23.3237,47.5853],[23.268,47.5381],[23.2172,47.5353],[23.1717,47.5554],[23.1435,47.577],[23.1168,47.5765],[23.0578,47.5261],[23.0309,47.4795],[22.9688,47.4445],[22.9676,47.4305],[22.9984,47.4163],[23.0905,47.4043],[23.1103,47.3769],[23.105,47.3554],[23.051,47.3161],[23.0056,47.3369],[22.9645,47.344],[22.9119,47.372],[22.8018,47.3928],[22.7547,47.3879],[22.6236,47.3447],[22.5807,47.3214],[22.5368,47.2324],[22.4943,47.1942],[22.5072,47.1599],[22.5504,47.1137],[22.5905,47.0586],[22.6639,47.0255],[22.7194,46.9794],[22.6883,46.9203],[22.7477,46.9021],[22.7657,46.8844],[22.7513,46.8433],[22.7303,46.8234],[22.6935,46.8123],[22.6681,46.7926],[22.6688,46.7753],[22.7208,46.7389],[22.7469,46.7036],[22.7643,46.657],[22.8079,46.6194],[22.8028,46.5569],[22.7398,46.5654],[22.7025,46.5321],[22.6869,46.483],[22.6881,46.422],[22.7067,46.3687],[22.7553,46.3338],[22.6897,46.3002],[22.6403,46.2314],[22.6007,46.2109],[22.5579,46.2095],[22.502,46.2189],[22.4702,46.212],[22.4336,46.1761],[22.4296,46.1142],[22.4072,46.0713],[22.4196,46.0253],[22.4015,45.9917],[22.3549,45.9499],[22.3891,45.9247],[22.4125,45.8627],[22.4494,45.8372],[22.486,45.786],[22.5025,45.774],[22.5298,45.7799],[22.5411,45.7613],[22.4811,45.7191],[22.4616,45.6738],[22.4454,45.6629],[22.4536,45.6401],[22.4834,45.6115],[22.5374,45.5973],[22.5424,45.57],[22.5761,45.5671],[22.6533,45.5202],[22.6784,45.4925],[22.698,45.413],[22.6753,45.3739],[22.7069,45.3223],[22.6771,45.2755],[22.6691,45.2405],[22.601,45.1977],[22.5727,45.1708],[22.5661,45.1388],[22.6346,45.1275],[22.6411,45.0924],[22.5989,45.0602],[22.5666,45.0239],[22.5337,44.9342],[22.4918,44.8846],[22.467,44.8393],[22.4418,44.7694],[22.4212,44.7521],[22.3878,44.7537],[22.3542,44.7777],[22.3112,44.7779],[22.2626,44.8083],[22.2219,44.8062],[22.2057,44.7613],[22.1653,44.7022],[22.1608,44.6644],[22.1727,44.6339],[22.169,44.609],[22.1499,44.5977],[22.0888,44.6032],[22.0342,44.5962],[22.0043,44.6515],[21.8554,44.6985],[21.7568,44.6773],[21.7052,44.6771],[21.6563,44.6877],[21.6197,44.7139],[21.5956,44.766],[21.5584,44.7817],[21.4972,44.778],[21.3959,44.7902],[21.3598,44.8267],[21.2695,44.8137],[21.1888,44.7782],[21.1638,44.7478],[21.1123,44.7448],[21.0779,44.7265],[21.0368,44.722],[20.9896,44.7168],[20.8832,44.6727],[20.8265,44.6609],[20.7948,44.6647],[20.7636,44.6684],[20.7203,44.6962],[20.672,44.744],[20.6333,44.7652],[20.6282,44.7886],[20.6364,44.8494],[20.595,44.858],[20.6001,44.8886],[20.5732,44.9103],[20.527,44.9254],[20.4988,44.9484],[20.4974,44.9648],[20.4522,44.9851],[20.3985,45.0314],[20.3952,45.0652],[20.339,45.0803],[20.2778,45.141],[20.2224,45.1755],[20.185,45.185],[20.0648,45.1755],[19.9856,45.1898],[19.9803,45.1598],[19.9126,45.1426],[19.792,45.1471],[19.7731,45.1671],[19.6988,45.1417],[19.6001,45.1384],[19.5386,45.1505],[19.4609,45.1741],[19.428,45.1461],[19.3939,45.1716],[19.4078,45.2031],[19.3781,45.2296],[19.2898,45.2363],[19.1585,45.2762],[19.1041,45.2987],[19.083,45.3392],[19.0302,45.3451],[18.9775,45.3712],[18.9755,45.3911],[19.0226,45.4024],[19.0313,45.4162],[19.0023,45.4437],[18.9964,45.4738],[19.0179,45.4978],[19.0772,45.4916],[19.1063,45.5116],[19.0951,45.5261],[19.051,45.5389],[19.0181,45.5674],[18.9602,45.5391],[18.9417,45.5389],[18.9036,45.5731],[18.9124,45.6192],[18.9685,45.6687],[18.9627,45.6831],[18.9173,45.7066],[18.9002,45.7649],[18.8487,45.8096],[18.8553,45.8574],[18.8998,45.8614],[18.904,45.8757],[18.8729,45.8952],[18.907,45.9157],[18.9013,45.9312],[18.8225,45.9056],[18.8049,45.9136],[18.786,45.8869],[18.7633,45.884],[18.6743,45.9104],[18.633,45.8919],[18.6222,45.8684],[18.5855,45.8269],[18.5303,45.7909],[18.4818,45.7914],[18.4117,45.7432],[18.3838,45.7432],[18.3672,45.7582],[18.3177,45.7473],[18.2112,45.7854],[18.129,45.7854],[18.0805,45.7717],[17.9754,45.7921],[17.9062,45.7921],[17.858,45.7759],[17.8092,45.8144],[17.6873,45.8406],[17.6547,45.8521],[17.6458,45.8918],[17.5911,45.9362],[17.5119,45.9539],[17.4267,45.9567],[17.4062,45.9437],[17.3892,45.9631],[17.3453,45.9557],[17.3379,45.9846],[17.3066,45.9799],[17.2901,45.9915],[17.3168,45.9977],[17.2759,46.012],[17.2486,46.0802],[17.1973,46.1212],[17.1162,46.1231],[17.0529,46.1535],[17.028,46.1805],[16.9748,46.2106],[16.9407,46.2515],[16.8892,46.2922],[16.8793,46.3121],[16.8594,46.3648],[16.8377,46.3819],[16.7693,46.3961],[16.7551,46.3819],[16.7429,46.3996],[16.7124,46.4127],[16.6593,46.4642],[16.5943,46.483],[16.5837,46.4707],[16.5153,46.5017],[16.5008,46.5448],[16.4671,46.5647],[16.4302,46.6044],[16.3946,46.619],[16.3764,46.6291],[16.3722,46.6363],[16.3684,46.643],[16.3776,46.6529],[16.3967,46.6591],[16.4026,46.6631],[16.4105,46.6684],[16.405,46.6873],[16.39,46.6942],[16.3714,46.6949],[16.3662,46.6965],[16.3654,46.6967],[16.3576,46.699],[16.3573,46.7158],[16.3434,46.7142],[16.3142,46.7433],[16.2982,46.7758],[16.2995,46.7795],[16.3022,46.787],[16.3111,46.7975],[16.3149,46.802],[16.3218,46.8133],[16.3275,46.8255],[16.3298,46.8344],[16.3253,46.8394],[16.3107,46.84],[16.3019,46.8432],[16.2974,46.847],[16.2822,46.8599],[16.272,46.864],[16.1795,46.8585],[16.1354,46.8558],[16.1302,46.8567],[16.094,46.8628],[16.0529,46.8461],[16.032,46.8376],[16.0284,46.8369],[16.0037,46.8707],[16.0115,46.9133],[16.0545,46.9442],[16.1363,47.0249],[16.1347,47.0402],[16.0895,47.0829],[16.0844,47.1069],[16.095,47.1651],[16.0675,47.2376],[16.0584,47.2911],[16.02,47.3724],[16.0475,47.4106],[16.0717,47.3949],[16.1479,47.443],[16.2309,47.4455],[16.2722,47.4634],[16.3245,47.5013],[16.3212,47.5717],[16.3758,47.6449],[16.3125,47.7025],[16.2893,47.7325],[16.2897,47.7936],[16.3242,47.7964],[16.358,47.833],[16.36,47.8718],[16.3909,47.9029],[16.4393,47.9281],[16.5031,47.9353],[16.5732,47.9198],[16.6123,47.9332],[16.6803,47.9715],[16.7045,48.0092],[16.7504,48.0295],[16.7738,48.0298],[16.8566,48.0632],[16.9002,48.0721],[16.9623,48.0458],[16.9829,48.0682],[16.983,48.0978],[17.0035,48.1091],[17.0344,48.1],[17.0625,48.1127],[17.0802,48.0976],[17.0591,48.0604],[17.0697,48.0357],[17.125,48.0195],[17.1483,48.0054],[17.1848,48.0203],[17.2623,48.0073],[17.3379,47.9987],[17.3694,47.9812],[17.472,47.8888],[17.5266,47.8721],[17.5726,47.8295],[17.6042,47.8342],[17.6399,47.8192],[17.6767,47.7892],[17.7192,47.7737],[17.8257,47.75],[17.8835,47.7525]]]}},
{"type":"Feature","properties":{"entityId":"magyars","from":907,"to":955,"certainty":"estimated","source":"유럽 쪽은 Natural Earth 1:10m admin-1(v5.1.2) 현대 행정구역 조각을 그 시기 국경에 맞춰 묶고, 조각이 역사 경계와 다른 곳은 선을 그어 나눈 근사. 유럽 밖(시베리아·중앙아시아·극동)은 대략적인 추정. 운영자 검수 필요"},"geometry":{"type":"Polygon","coordinates":[[[16.094,46.8628],[16.0529,46.8461],[16.032,46.8376],[16.0284,46.8369],[16.0037,46.8707],[16.0115,46.9133],[16.0545,46.9442],[16.1363,47.0249],[16.1347,47.0402],[16.0895,47.0829],[16.0844,47.1069],[16.095,47.1651],[16.0675,47.2376],[16.0584,47.2911],[16.02,47.3724],[16.0475,47.4106],[16.0717,47.3949],[16.1479,47.443],[16.1135,47.4634],[16.0804,47.5165],[16.0472,47.5062],[15.9983,47.5238],[15.9167,47.5332],[15.8923,47.572],[15.8661,47.5854],[15.8279,47.5889],[15.8287,47.6321],[15.7969,47.6454],[15.7432,47.6367],[15.7261,47.6902],[15.7143,47.7019],[15.6718,47.7042],[15.6386,47.7174],[15.6062,47.7435],[15.5387,47.7474],[15.5001,47.7663],[15.4175,47.7935],[15.3754,47.8196],[15.3391,47.8254],[15.2779,47.8152],[15.2297,47.8193],[15.1871,47.7804],[15.0561,47.7508],[15.0147,47.7524],[14.9296,47.7269],[14.8834,47.7247],[14.8382,47.7505],[14.7341,47.7502],[14.6993,47.7689],[14.7162,47.7935],[14.7189,47.8289],[14.7507,47.9019],[14.6905,47.9372],[14.6066,47.9612],[14.4454,48.043],[14.4272,48.0574],[14.4454,48.0685],[14.4799,48.1179],[14.4694,48.1558],[14.4849,48.2184],[14.52,48.2448],[14.5823,48.2402],[14.6376,48.1971],[14.6755,48.1825],[14.8187,48.2056],[14.862,48.237],[14.9296,48.244],[14.968,48.2252],[14.9754,48.3336],[14.9638,48.3831],[14.94,48.4018],[14.9344,48.434],[14.9098,48.44],[14.8823,48.4712],[14.8871,48.5005],[14.9136,48.4999],[14.9064,48.5271],[14.8393,48.542],[14.7745,48.5625],[14.7116,48.572],[14.6911,48.5865],[14.7007,48.6155],[14.7038,48.6731],[14.7227,48.6934],[14.7754,48.724],[14.8004,48.7765],[14.8677,48.7756],[14.9193,48.7616],[14.9511,48.7803],[14.9381,48.8028],[14.9682,48.885],[14.9646,48.9717],[14.9821,49.0079],[15.0596,48.9972],[15.1374,48.993],[15.149,48.9653],[15.1419,48.9375],[15.2381,48.9508],[15.2629,48.9826],[15.3355,48.975],[15.4719,48.9367],[15.5442,48.9026],[15.5747,48.9662],[15.6094,48.9671],[15.6283,48.9474],[15.6737,48.9721],[15.7358,48.9544],[15.8082,48.9976],[15.8709,49.0039],[15.8913,49.0292],[15.915,49.0323],[15.9549,49.0557],[15.9745,49.0381],[16.0164,49.0367],[16.0449,49.0479],[16.1138,49.0405],[16.1573,49.07],[16.2277,49.0849],[16.2581,49.1217],[16.2482,49.1389],[16.2716,49.1747],[16.2427,49.2137],[16.2488,49.2386],[16.2825,49.2573],[16.2735,49.2942],[16.3003,49.32],[16.3875,49.3548],[16.3914,49.3726],[16.3705,49.4183],[16.3702,49.4875],[16.4001,49.491],[16.4025,49.5273],[16.3726,49.5547],[16.392,49.5973],[16.5346,49.6034],[16.5636,49.6339],[16.7048,49.6282],[16.7892,49.6079],[16.8103,49.657],[16.8412,49.6777],[16.8337,49.7116],[16.7989,49.7345],[16.7962,49.7513],[16.7331,49.8286],[16.7487,49.8675],[16.7483,49.9185],[16.7268,49.9933],[16.8049,50.0315],[16.8068,50.0734],[16.8319,50.1277],[16.8698,50.1897],[16.919,50.2171],[16.9553,50.2135],[16.9603,50.232],[17.0084,50.21],[16.9878,50.2849],[16.9265,50.3193],[16.8979,50.3782],[16.8659,50.4084],[16.893,50.4329],[16.944,50.4203],[17.0847,50.398],[17.1189,50.3812],[17.1876,50.3785],[17.201,50.3432],[17.2461,50.3221],[17.3168,50.3186],[17.3341,50.2957],[17.3348,50.27],[17.355,50.2533],[17.388,50.2726],[17.4191,50.2427],[17.44,50.2427],[17.4694,50.2656],[17.517,50.2684],[17.6064,50.2582],[17.6467,50.2711],[17.6845,50.3124],[17.708,50.311],[17.7345,50.2895],[17.7214,50.2427],[17.7476,50.2175],[17.7382,50.2024],[17.6753,50.1747],[17.5894,50.1632],[17.5842,50.1459],[17.6328,50.1063],[17.6776,50.1077],[17.732,50.0949],[17.7195,50.0809],[17.743,50.0606],[17.7633,50.0252],[17.8394,49.9736],[17.8757,49.9687],[17.9121,49.9758],[17.9416,49.9928],[17.9999,49.9966],[18.0375,50.0072],[18.0069,50.0241],[18.0191,50.0441],[18.0916,50.0172],[18.0982,49.989],[18.162,49.9812],[18.2087,49.9583],[18.2559,49.946],[18.2925,49.9078],[18.3688,49.932],[18.4818,49.8966],[18.5444,49.913],[18.5592,49.9072],[18.5673,49.8615],[18.5938,49.8522],[18.5663,49.8316],[18.5668,49.8048],[18.6077,49.743],[18.6177,49.7139],[18.6373,49.7003],[18.6824,49.6958],[18.7277,49.6689],[18.7735,49.6758],[18.7926,49.6608],[18.7993,49.6264],[18.8345,49.5476],[18.8332,49.5103],[18.9322,49.5043],[18.9611,49.4928],[18.9524,49.4759],[18.9623,49.3892],[19.0071,49.3881],[19.0676,49.4061],[19.1166,49.3909],[19.1725,49.4023],[19.2205,49.493],[19.2487,49.5163],[19.3471,49.533],[19.4338,49.5952],[19.4489,49.6004],[19.5052,49.5634],[19.5568,49.4539],[19.5948,49.4416],[19.6348,49.4413],[19.627,49.4019],[19.6845,49.3891],[19.7693,49.3931],[19.7836,49.3576],[19.7895,49.3092],[19.7832,49.29],[19.8068,49.2752],[19.7518,49.2191],[19.7607,49.1942],[19.832,49.1859],[19.8683,49.2008],[19.9059,49.2228],[19.9657,49.2157],[20.0173,49.1839],[20.0505,49.1732],[20.07,49.1831],[20.086,49.243],[20.1302,49.3039],[20.1604,49.3056],[20.2072,49.3342],[20.2844,49.3386],[20.3074,49.3866],[20.3295,49.3918],[20.3705,49.3817],[20.4221,49.383],[20.4375,49.4025],[20.5221,49.3744],[20.5677,49.3764],[20.6053,49.4],[20.6895,49.4005],[20.7783,49.3312],[20.8493,49.3205],[20.9006,49.2926],[20.9424,49.2959],[21.0172,49.3524],[21.0725,49.3572],[21.0685,49.3814],[21.0333,49.3997],[21.0535,49.4145],[21.1249,49.4237],[21.1726,49.3983],[21.2112,49.4111],[21.2425,49.4413],[21.2744,49.4473],[21.3304,49.4278],[21.4279,49.4098],[21.5144,49.4172],[21.6012,49.4265],[21.6663,49.4018],[21.6917,49.4022],[21.7576,49.3489],[21.7994,49.3748],[21.8196,49.3772],[21.8746,49.3484],[21.9284,49.3308],[21.9645,49.3086],[21.9932,49.2782],[22.0124,49.2111],[22.0408,49.1975],[22.1115,49.1886],[22.1557,49.1715],[22.198,49.172],[22.2159,49.14],[22.2629,49.1306],[22.3394,49.1265],[22.3901,49.093],[22.4268,49.0856],[22.505,49.0834],[22.5396,49.0722],[22.5808,49.0814],[22.6429,49.0432],[22.7553,49.0447],[22.784,49.0214],[22.8553,48.994],[22.865,49.0132],[22.9024,48.9833],[22.892,48.9354],[22.926,48.9041],[22.9612,48.8843],[22.9821,48.859],[23.0117,48.8547],[23.105,48.8713],[23.1376,48.8522],[23.1798,48.7903],[23.2016,48.7771],[23.2576,48.7722],[23.2982,48.7812],[23.3085,48.7502],[23.3505,48.772],[23.378,48.7371],[23.4458,48.7267],[23.4985,48.7312],[23.5329,48.7237],[23.6124,48.7038],[23.6745,48.6545],[23.709,48.643],[23.7715,48.6447],[23.7817,48.6034],[23.8471,48.5628],[23.8949,48.5496],[23.9168,48.5154],[23.9074,48.4887],[23.9427,48.4704],[24.0015,48.5001],[24.0462,48.5051],[24.1138,48.5322],[24.137,48.5275],[24.1407,48.4712],[24.1312,48.4345],[24.1408,48.3799],[24.1777,48.3546],[24.2341,48.3505],[24.2707,48.3572],[24.3054,48.3883],[24.3317,48.3748],[24.3458,48.3402],[24.3916,48.3311],[24.4949,48.2666],[24.5415,48.2128],[24.5216,48.1711],[24.5384,48.1345],[24.6068,48.0886],[24.6393,48.0476],[24.5882,47.9959],[24.5698,47.9373],[24.4856,47.9432],[24.4285,47.9525],[24.3862,47.9437],[24.3472,47.9209],[24.2979,47.9198],[24.231,47.897],[24.1312,47.9145],[24.0948,47.9379],[23.9773,47.9623],[23.8766,47.9344],[23.7801,47.9875],[23.7105,47.9851],[23.5632,48.0058],[23.5145,47.999],[23.4855,47.9742],[23.502,47.9342],[23.5494,47.889],[23.607,47.8594],[23.63,47.8381],[23.6207,47.8162],[23.4792,47.743],[23.4145,47.7326],[23.3429,47.7489],[23.2718,47.7492],[23.2395,47.7223],[23.2588,47.7019],[23.3268,47.6892],[23.3609,47.6678],[23.3595,47.6426],[23.3237,47.5853],[23.268,47.5381],[23.2172,47.5353],[23.1717,47.5554],[23.1435,47.577],[23.1168,47.5765],[23.0578,47.5261],[23.0309,47.4795],[22.9688,47.4445],[22.9676,47.4305],[22.9984,47.4163],[23.0905,47.4043],[23.1103,47.3769],[23.105,47.3554],[23.051,47.3161],[23.0056,47.3369],[22.9645,47.344],[22.9119,47.372],[22.8018,47.3928],[22.7547,47.3879],[22.6236,47.3447],[22.5807,47.3214],[22.5368,47.2324],[22.4943,47.1942],[22.5072,47.1599],[22.5504,47.1137],[22.5905,47.0586],[22.6639,47.0255],[22.7194,46.9794],[22.6883,46.9203],[22.7477,46.9021],[22.7657,46.8844],[22.7513,46.8433],[22.7303,46.8234],[22.6935,46.8123],[22.6681,46.7926],[22.6688,46.7753],[22.7208,46.7389],[22.7469,46.7036],[22.7643,46.657],[22.8079,46.6194],[22.8028,46.5569],[22.7398,46.5654],[22.7025,46.5321],[22.6869,46.483],[22.6881,46.422],[22.7067,46.3687],[22.7553,46.3338],[22.6897,46.3002],[22.6403,46.2314],[22.6007,46.2109],[22.5579,46.2095],[22.502,46.2189],[22.4702,46.212],[22.4336,46.1761],[22.4296,46.1142],[22.4072,46.0713],[22.4196,46.0253],[22.4015,45.9917],[22.3549,45.9499],[22.3891,45.9247],[22.4125,45.8627],[22.4494,45.8372],[22.486,45.786],[22.5025,45.774],[22.5298,45.7799],[22.5411,45.7613],[22.4811,45.7191],[22.4616,45.6738],[22.4454,45.6629],[22.4536,45.6401],[22.4834,45.6115],[22.5374,45.5973],[22.5424,45.57],[22.5761,45.5671],[22.6533,45.5202],[22.6784,45.4925],[22.698,45.413],[22.6753,45.3739],[22.7069,45.3223],[22.6771,45.2755],[22.6691,45.2405],[22.601,45.1977],[22.5727,45.1708],[22.5661,45.1388],[22.6346,45.1275],[22.6411,45.0924],[22.5989,45.0602],[22.5666,45.0239],[22.5337,44.9342],[22.4918,44.8846],[22.467,44.8393],[22.4418,44.7694],[22.4212,44.7521],[22.3878,44.7537],[22.3542,44.7777],[22.3112,44.7779],[22.2626,44.8083],[22.2219,44.8062],[22.2057,44.7613],[22.1653,44.7022],[22.1608,44.6644],[22.1727,44.6339],[22.169,44.609],[22.1499,44.5977],[22.0888,44.6032],[22.0342,44.5962],[22.0043,44.6515],[21.8554,44.6985],[21.7568,44.6773],[21.7052,44.6771],[21.6563,44.6877],[21.6197,44.7139],[21.5956,44.766],[21.5584,44.7817],[21.4972,44.778],[21.3959,44.7902],[21.3598,44.8267],[21.2695,44.8137],[21.1888,44.7782],[21.1638,44.7478],[21.1123,44.7448],[21.0779,44.7265],[21.0368,44.722],[20.9896,44.7168],[20.8832,44.6727],[20.8265,44.6609],[20.7948,44.6647],[20.7636,44.6684],[20.7203,44.6962],[20.672,44.744],[20.6333,44.7652],[20.6282,44.7886],[20.6364,44.8494],[20.595,44.858],[20.6001,44.8886],[20.5732,44.9103],[20.527,44.9254],[20.4988,44.9484],[20.4974,44.9648],[20.4522,44.9851],[20.3985,45.0314],[20.3952,45.0652],[20.339,45.0803],[20.2778,45.141],[20.2224,45.1755],[20.185,45.185],[20.0648,45.1755],[19.9856,45.1898],[19.9803,45.1598],[19.9126,45.1426],[19.792,45.1471],[19.7731,45.1671],[19.6988,45.1417],[19.6001,45.1384],[19.5386,45.1505],[19.4609,45.1741],[19.428,45.1461],[19.3939,45.1716],[19.4078,45.2031],[19.3781,45.2296],[19.2898,45.2363],[19.1585,45.2762],[19.1041,45.2987],[19.083,45.3392],[19.0302,45.3451],[18.9775,45.3712],[18.9755,45.3911],[19.0226,45.4024],[19.0313,45.4162],[19.0023,45.4437],[18.9964,45.4738],[19.0179,45.4978],[19.0772,45.4916],[19.1063,45.5116],[19.0951,45.5261],[19.051,45.5389],[19.0181,45.5674],[18.9602,45.5391],[18.9417,45.5389],[18.9036,45.5731],[18.9124,45.6192],[18.9685,45.6687],[18.9627,45.6831],[18.9173,45.7066],[18.9002,45.7649],[18.8487,45.8096],[18.8553,45.8574],[18.8998,45.8614],[18.904,45.8757],[18.8729,45.8952],[18.907,45.9157],[18.9013,45.9312],[18.8225,45.9056],[18.8049,45.9136],[18.786,45.8869],[18.7633,45.884],[18.6743,45.9104],[18.633,45.8919],[18.6222,45.8684],[18.5855,45.8269],[18.5303,45.7909],[18.4818,45.7914],[18.4117,45.7432],[18.3838,45.7432],[18.3672,45.7582],[18.3177,45.7473],[18.2112,45.7854],[18.129,45.7854],[18.0805,45.7717],[17.9754,45.7921],[17.9062,45.7921],[17.858,45.7759],[17.8092,45.8144],[17.6873,45.8406],[17.6547,45.8521],[17.6458,45.8918],[17.5911,45.9362],[17.5119,45.9539],[17.4267,45.9567],[17.4062,45.9437],[17.3892,45.9631],[17.3453,45.9557],[17.3379,45.9846],[17.3066,45.9799],[17.2901,45.9915],[17.3168,45.9977],[17.2759,46.012],[17.2486,46.0802],[17.1973,46.1212],[17.1162,46.1231],[17.0529,46.1535],[17.028,46.1805],[16.9748,46.2106],[16.9407,46.2515],[16.8892,46.2922],[16.8793,46.3121],[16.8594,46.3648],[16.8377,46.3819],[16.7693,46.3961],[16.7551,46.3819],[16.7429,46.3996],[16.7124,46.4127],[16.6593,46.4642],[16.5943,46.483],[16.5837,46.4707],[16.5153,46.5017],[16.5008,46.5448],[16.4671,46.5647],[16.4302,46.6044],[16.3946,46.619],[16.3764,46.6291],[16.3722,46.6363],[16.3684,46.643],[16.3776,46.6529],[16.3967,46.6591],[16.4026,46.6631],[16.4105,46.6684],[16.405,46.6873],[16.39,46.6942],[16.3714,46.6949],[16.3662,46.6965],[16.3654,46.6967],[16.3576,46.699],[16.3573,46.7158],[16.3434,46.7142],[16.3142,46.7433],[16.2982,46.7758],[16.2995,46.7795],[16.3022,46.787],[16.3111,46.7975],[16.3149,46.802],[16.3218,46.8133],[16.3275,46.8255],[16.3298,46.8344],[16.3253,46.8394],[16.3107,46.84],[16.3019,46.8432],[16.2974,46.847],[16.2822,46.8599],[16.272,46.864],[16.1795,46.8585],[16.1354,46.8558],[16.1302,46.8567],[16.094,46.8628]]]}},
{"type":"Feature","properties":{"entityId":"magyars","from":955,"to":976,"certainty":"estimated","source":"유럽 쪽은 Natural Earth 1:10m admin-1(v5.1.2) 현대 행정구역 조각을 그 시기 국경에 맞춰 묶고, 조각이 역사 경계와 다른 곳은 선을 그어 나눈 근사. 유럽 밖(시베리아·중앙아시아·극동)은 대략적인 추정. 운영자 검수 필요"},"geometry":{"type":"Polygon","coordinates":[[[16.094,46.8628],[16.0529,46.8461],[16.032,46.8376],[16.0284,46.8369],[16.0037,46.8707],[16.0115,46.9133],[16.0545,46.9442],[16.1363,47.0249],[16.1347,47.0402],[16.0895,47.0829],[16.0844,47.1069],[16.095,47.1651],[16.0675,47.2376],[16.0584,47.2911],[16.02,47.3724],[16.0475,47.4106],[16.0717,47.3949],[16.1479,47.443],[16.1135,47.4634],[16.0804,47.5165],[16.0472,47.5062],[15.9983,47.5238],[15.9167,47.5332],[15.8923,47.572],[15.8661,47.5854],[15.8279,47.5889],[15.8287,47.6321],[15.7969,47.6454],[15.7432,47.6367],[15.7261,47.6902],[15.7143,47.7019],[15.6718,47.7042],[15.6386,47.7174],[15.6062,47.7435],[15.5387,47.7474],[15.5001,47.7663],[15.4175,47.7935],[15.3754,47.8196],[15.3391,47.8254],[15.2779,47.8152],[15.2297,47.8193],[15.1871,47.7804],[15.0561,47.7508],[15.0147,47.7524],[14.9296,47.7269],[14.8834,47.7247],[14.8382,47.7505],[14.7341,47.7502],[14.6993,47.7689],[14.7162,47.7935],[14.7189,47.8289],[14.7507,47.9019],[14.6905,47.9372],[14.6066,47.9612],[14.4454,48.043],[14.4272,48.0574],[14.4454,48.0685],[14.4799,48.1179],[14.4694,48.1558],[14.4849,48.2184],[14.52,48.2448],[14.5823,48.2402],[14.6376,48.1971],[14.6755,48.1825],[14.8187,48.2056],[14.862,48.237],[14.9296,48.244],[14.968,48.2252],[14.9754,48.3336],[14.9638,48.3831],[14.94,48.4018],[14.9344,48.434],[14.9098,48.44],[14.8823,48.4712],[14.8871,48.5005],[14.9136,48.4999],[14.9064,48.5271],[14.8393,48.542],[14.7745,48.5625],[14.7116,48.572],[14.6911,48.5865],[14.7007,48.6155],[14.7038,48.6731],[14.7227,48.6934],[14.7754,48.724],[14.8004,48.7765],[14.8677,48.7756],[14.9193,48.7616],[14.9511,48.7803],[14.9381,48.8028],[14.9682,48.885],[14.9646,48.9717],[14.9821,49.0079],[15.0596,48.9972],[15.1374,48.993],[15.149,48.9653],[15.1419,48.9375],[15.2381,48.9508],[15.2629,48.9826],[15.3355,48.975],[15.4719,48.9367],[15.5442,48.9026],[15.6037,48.8874],[15.6813,48.8585],[15.7268,48.855],[15.7792,48.8709],[15.8185,48.8723],[15.8401,48.8501],[15.886,48.842],[15.9081,48.8197],[16.0323,48.7581],[16.0854,48.7429],[16.1778,48.7465],[16.3583,48.7273],[16.385,48.7371],[16.4357,48.7945],[16.5103,48.8048],[16.6431,48.7783],[16.662,48.74],[16.729,48.7331],[16.7989,48.7092],[16.873,48.719],[16.8967,48.697],[16.9105,48.6308],[16.945,48.6042],[16.9475,48.6232],[16.9748,48.6499],[17.0253,48.7463],[17.0499,48.774],[17.0987,48.8058],[17.1137,48.8339],[17.1675,48.8598],[17.2122,48.8661],[17.2603,48.8578],[17.3744,48.8196],[17.4112,48.8302],[17.4533,48.8428],[17.4985,48.8168],[17.5351,48.813],[17.646,48.8418],[17.7272,48.8629],[17.7955,48.9206],[17.8603,48.9217],[17.8869,48.9472],[17.9141,49.0105],[17.9592,49.0219],[18.0129,49.0191],[18.0755,49.0472],[18.1029,49.0923],[18.1051,49.1698],[18.1365,49.2331],[18.19,49.2769],[18.3246,49.3113],[18.3616,49.3302],[18.3852,49.3423],[18.387,49.3776],[18.4168,49.3855],[18.4818,49.4291],[18.5147,49.4406],[18.5356,49.4817],[18.5562,49.4902],[18.6004,49.486],[18.6428,49.4958],[18.7045,49.4793],[18.7325,49.4803],[18.7736,49.5049],[18.8332,49.5103],[18.9322,49.5043],[18.9611,49.4928],[18.9524,49.4759],[18.9623,49.3892],[19.0071,49.3881],[19.0676,49.4061],[19.1166,49.3909],[19.1725,49.4023],[19.2205,49.493],[19.2487,49.5163],[19.3471,49.533],[19.4338,49.5952],[19.4489,49.6004],[19.5052,49.5634],[19.5568,49.4539],[19.5948,49.4416],[19.6348,49.4413],[19.627,49.4019],[19.6845,49.3891],[19.7693,49.3931],[19.7836,49.3576],[19.7895,49.3092],[19.7832,49.29],[19.8068,49.2752],[19.7518,49.2191],[19.7607,49.1942],[19.832,49.1859],[19.8683,49.2008],[19.9059,49.2228],[19.9657,49.2157],[20.0173,49.1839],[20.0505,49.1732],[20.07,49.1831],[20.086,49.243],[20.1302,49.3039],[20.1604,49.3056],[20.2072,49.3342],[20.2844,49.3386],[20.3074,49.3866],[20.3295,49.3918],[20.3705,49.3817],[20.4221,49.383],[20.4375,49.4025],[20.5221,49.3744],[20.5677,49.3764],[20.6053,49.4],[20.6895,49.4005],[20.7783,49.3312],[20.8493,49.3205],[20.9006,49.2926],[20.9424,49.2959],[21.0172,49.3524],[21.0725,49.3572],[21.0685,49.3814],[21.0333,49.3997],[21.0535,49.4145],[21.1249,49.4237],[21.1726,49.3983],[21.2112,49.4111],[21.2425,49.4413],[21.2744,49.4473],[21.3304,49.4278],[21.4279,49.4098],[21.5144,49.4172],[21.6012,49.4265],[21.6663,49.4018],[21.6917,49.4022],[21.7576,49.3489],[21.7994,49.3748],[21.8196,49.3772],[21.8746,49.3484],[21.9284,49.3308],[21.9645,49.3086],[21.9932,49.2782],[22.0124,49.2111],[22.0408,49.1975],[22.1115,49.1886],[22.1557,49.1715],[22.198,49.172],[22.2159,49.14],[22.2629,49.1306],[22.3394,49.1265],[22.3901,49.093],[22.4268,49.0856],[22.505,49.0834],[22.5396,49.0722],[22.5808,49.0814],[22.6429,49.0432],[22.7553,49.0447],[22.784,49.0214],[22.8553,48.994],[22.865,49.0132],[22.9024,48.9833],[22.892,48.9354],[22.926,48.9041],[22.9612,48.8843],[22.9821,48.859],[23.0117,48.8547],[23.105,48.8713],[23.1376,48.8522],[23.1798,48.7903],[23.2016,48.7771],[23.2576,48.7722],[23.2982,48.7812],[23.3085,48.7502],[23.3505,48.772],[23.378,48.7371],[23.4458,48.7267],[23.4985,48.7312],[23.5329,48.7237],[23.6124,48.7038],[23.6745,48.6545],[23.709,48.643],[23.7715,48.6447],[23.7817,48.6034],[23.8471,48.5628],[23.8949,48.5496],[23.9168,48.5154],[23.9074,48.4887],[23.9427,48.4704],[24.0015,48.5001],[24.0462,48.5051],[24.1138,48.5322],[24.137,48.5275],[24.1407,48.4712],[24.1312,48.4345],[24.1408,48.3799],[24.1777,48.3546],[24.2341,48.3505],[24.2707,48.3572],[24.3054,48.3883],[24.3317,48.3748],[24.3458,48.3402],[24.3916,48.3311],[24.4949,48.2666],[24.5415,48.2128],[24.5216,48.1711],[24.5384,48.1345],[24.6068,48.0886],[24.6393,48.0476],[24.5882,47.9959],[24.5698,47.9373],[24.4856,47.9432],[24.4285,47.9525],[24.3862,47.9437],[24.3472,47.9209],[24.2979,47.9198],[24.231,47.897],[24.1312,47.9145],[24.0948,47.9379],[23.9773,47.9623],[23.8766,47.9344],[23.7801,47.9875],[23.7105,47.9851],[23.5632,48.0058],[23.5145,47.999],[23.4855,47.9742],[23.502,47.9342],[23.5494,47.889],[23.607,47.8594],[23.63,47.8381],[23.6207,47.8162],[23.4792,47.743],[23.4145,47.7326],[23.3429,47.7489],[23.2718,47.7492],[23.2395,47.7223],[23.2588,47.7019],[23.3268,47.6892],[23.3609,47.6678],[23.3595,47.6426],[23.3237,47.5853],[23.268,47.5381],[23.2172,47.5353],[23.1717,47.5554],[23.1435,47.577],[23.1168,47.5765],[23.0578,47.5261],[23.0309,47.4795],[22.9688,47.4445],[22.9676,47.4305],[22.9984,47.4163],[23.0905,47.4043],[23.1103,47.3769],[23.105,47.3554],[23.051,47.3161],[23.0056,47.3369],[22.9645,47.344],[22.9119,47.372],[22.8018,47.3928],[22.7547,47.3879],[22.6236,47.3447],[22.5807,47.3214],[22.5368,47.2324],[22.4943,47.1942],[22.5072,47.1599],[22.5504,47.1137],[22.5905,47.0586],[22.6639,47.0255],[22.7194,46.9794],[22.6883,46.9203],[22.7477,46.9021],[22.7657,46.8844],[22.7513,46.8433],[22.7303,46.8234],[22.6935,46.8123],[22.6681,46.7926],[22.6688,46.7753],[22.7208,46.7389],[22.7469,46.7036],[22.7643,46.657],[22.8079,46.6194],[22.8028,46.5569],[22.7398,46.5654],[22.7025,46.5321],[22.6869,46.483],[22.6881,46.422],[22.7067,46.3687],[22.7553,46.3338],[22.6897,46.3002],[22.6403,46.2314],[22.6007,46.2109],[22.5579,46.2095],[22.502,46.2189],[22.4702,46.212],[22.4336,46.1761],[22.4296,46.1142],[22.4072,46.0713],[22.4196,46.0253],[22.4015,45.9917],[22.3549,45.9499],[22.3891,45.9247],[22.4125,45.8627],[22.4494,45.8372],[22.486,45.786],[22.5025,45.774],[22.5298,45.7799],[22.5411,45.7613],[22.4811,45.7191],[22.4616,45.6738],[22.4454,45.6629],[22.4536,45.6401],[22.4834,45.6115],[22.5374,45.5973],[22.5424,45.57],[22.5761,45.5671],[22.6533,45.5202],[22.6784,45.4925],[22.698,45.413],[22.6753,45.3739],[22.7069,45.3223],[22.6771,45.2755],[22.6691,45.2405],[22.601,45.1977],[22.5727,45.1708],[22.5661,45.1388],[22.6346,45.1275],[22.6411,45.0924],[22.5989,45.0602],[22.5666,45.0239],[22.5337,44.9342],[22.4918,44.8846],[22.467,44.8393],[22.4418,44.7694],[22.4212,44.7521],[22.3878,44.7537],[22.3542,44.7777],[22.3112,44.7779],[22.2626,44.8083],[22.2219,44.8062],[22.2057,44.7613],[22.1653,44.7022],[22.1608,44.6644],[22.1727,44.6339],[22.169,44.609],[22.1499,44.5977],[22.0888,44.6032],[22.0342,44.5962],[22.0043,44.6515],[21.8554,44.6985],[21.7568,44.6773],[21.7052,44.6771],[21.6563,44.6877],[21.6197,44.7139],[21.5956,44.766],[21.5584,44.7817],[21.4972,44.778],[21.3959,44.7902],[21.3598,44.8267],[21.2695,44.8137],[21.1888,44.7782],[21.1638,44.7478],[21.1123,44.7448],[21.0779,44.7265],[21.0368,44.722],[20.9896,44.7168],[20.8832,44.6727],[20.8265,44.6609],[20.7948,44.6647],[20.7636,44.6684],[20.7203,44.6962],[20.672,44.744],[20.6333,44.7652],[20.6282,44.7886],[20.6364,44.8494],[20.595,44.858],[20.6001,44.8886],[20.5732,44.9103],[20.527,44.9254],[20.4988,44.9484],[20.4974,44.9648],[20.4522,44.9851],[20.3985,45.0314],[20.3952,45.0652],[20.339,45.0803],[20.2778,45.141],[20.2224,45.1755],[20.185,45.185],[20.0648,45.1755],[19.9856,45.1898],[19.9803,45.1598],[19.9126,45.1426],[19.792,45.1471],[19.7731,45.1671],[19.6988,45.1417],[19.6001,45.1384],[19.5386,45.1505],[19.4609,45.1741],[19.428,45.1461],[19.3939,45.1716],[19.4078,45.2031],[19.3781,45.2296],[19.2898,45.2363],[19.1585,45.2762],[19.1041,45.2987],[19.083,45.3392],[19.0302,45.3451],[18.9775,45.3712],[18.9755,45.3911],[19.0226,45.4024],[19.0313,45.4162],[19.0023,45.4437],[18.9964,45.4738],[19.0179,45.4978],[19.0772,45.4916],[19.1063,45.5116],[19.0951,45.5261],[19.051,45.5389],[19.0181,45.5674],[18.9602,45.5391],[18.9417,45.5389],[18.9036,45.5731],[18.9124,45.6192],[18.9685,45.6687],[18.9627,45.6831],[18.9173,45.7066],[18.9002,45.7649],[18.8487,45.8096],[18.8553,45.8574],[18.8998,45.8614],[18.904,45.8757],[18.8729,45.8952],[18.907,45.9157],[18.9013,45.9312],[18.8225,45.9056],[18.8049,45.9136],[18.786,45.8869],[18.7633,45.884],[18.6743,45.9104],[18.633,45.8919],[18.6222,45.8684],[18.5855,45.8269],[18.5303,45.7909],[18.4818,45.7914],[18.4117,45.7432],[18.3838,45.7432],[18.3672,45.7582],[18.3177,45.7473],[18.2112,45.7854],[18.129,45.7854],[18.0805,45.7717],[17.9754,45.7921],[17.9062,45.7921],[17.858,45.7759],[17.8092,45.8144],[17.6873,45.8406],[17.6547,45.8521],[17.6458,45.8918],[17.5911,45.9362],[17.5119,45.9539],[17.4267,45.9567],[17.4062,45.9437],[17.3892,45.9631],[17.3453,45.9557],[17.3379,45.9846],[17.3066,45.9799],[17.2901,45.9915],[17.3168,45.9977],[17.2759,46.012],[17.2486,46.0802],[17.1973,46.1212],[17.1162,46.1231],[17.0529,46.1535],[17.028,46.1805],[16.9748,46.2106],[16.9407,46.2515],[16.8892,46.2922],[16.8793,46.3121],[16.8594,46.3648],[16.8377,46.3819],[16.7693,46.3961],[16.7551,46.3819],[16.7429,46.3996],[16.7124,46.4127],[16.6593,46.4642],[16.5943,46.483],[16.5837,46.4707],[16.5153,46.5017],[16.5008,46.5448],[16.4671,46.5647],[16.4302,46.6044],[16.3946,46.619],[16.3764,46.6291],[16.3722,46.6363],[16.3684,46.643],[16.3776,46.6529],[16.3967,46.6591],[16.4026,46.6631],[16.4105,46.6684],[16.405,46.6873],[16.39,46.6942],[16.3714,46.6949],[16.3662,46.6965],[16.3654,46.6967],[16.3576,46.699],[16.3573,46.7158],[16.3434,46.7142],[16.3142,46.7433],[16.2982,46.7758],[16.2995,46.7795],[16.3022,46.787],[16.3111,46.7975],[16.3149,46.802],[16.3218,46.8133],[16.3275,46.8255],[16.3298,46.8344],[16.3253,46.8394],[16.3107,46.84],[16.3019,46.8432],[16.2974,46.847],[16.2822,46.8599],[16.272,46.864],[16.1795,46.8585],[16.1354,46.8558],[16.1302,46.8567],[16.094,46.8628]]]}},
{"type":"Feature","properties":{"entityId":"magyars","from":976,"to":1000,"certainty":"estimated","source":"유럽 쪽은 Natural Earth 1:10m admin-1(v5.1.2) 현대 행정구역 조각을 그 시기 국경에 맞춰 묶고, 조각이 역사 경계와 다른 곳은 선을 그어 나눈 근사. 유럽 밖(시베리아·중앙아시아·극동)은 대략적인 추정. 운영자 검수 필요"},"geometry":{"type":"Polygon","coordinates":[[[16.094,46.8628],[16.0529,46.8461],[16.032,46.8376],[16.0284,46.8369],[16.0037,46.8707],[16.0115,46.9133],[16.0545,46.9442],[16.1363,47.0249],[16.1347,47.0402],[16.0895,47.0829],[16.0844,47.1069],[16.095,47.1651],[16.0675,47.2376],[16.0584,47.2911],[16.02,47.3724],[16.0475,47.4106],[16.0717,47.3949],[16.1479,47.443],[16.2309,47.4455],[16.2722,47.4634],[16.3245,47.5013],[16.3212,47.5717],[16.3758,47.6449],[16.3125,47.7025],[16.2893,47.7325],[16.2897,47.7936],[16.3242,47.7964],[16.358,47.833],[16.36,47.8718],[16.3909,47.9029],[16.4393,47.9281],[16.5031,47.9353],[16.5732,47.9198],[16.6123,47.9332],[16.6803,47.9715],[16.7045,48.0092],[16.7504,48.0295],[16.7738,48.0298],[16.8566,48.0632],[16.9002,48.0721],[16.9623,48.0458],[16.9829,48.0682],[16.983,48.0978],[17.0035,48.1091],[17.0344,48.1],[17.0625,48.1127],[17.0475,48.131],[17.0072,48.1428],[16.9819,48.1613],[16.9506,48.2766],[16.9166,48.2908],[16.8984,48.3162],[16.9019,48.3394],[16.8445,48.3656],[16.8608,48.4438],[16.9139,48.5193],[16.9491,48.5448],[16.945,48.6042],[16.9475,48.6232],[16.9748,48.6499],[17.0253,48.7463],[17.0499,48.774],[17.0987,48.8058],[17.1137,48.8339],[17.1675,48.8598],[17.2122,48.8661],[17.2603,48.8578],[17.3744,48.8196],[17.4112,48.8302],[17.4533,48.8428],[17.4985,48.8168],[17.5351,48.813],[17.646,48.8418],[17.7272,48.8629],[17.7955,48.9206],[17.8603,48.9217],[17.8869,48.9472],[17.9141,49.0105],[17.9592,49.0219],[18.0129,49.0191],[18.0755,49.0472],[18.1029,49.0923],[18.1051,49.1698],[18.1365,49.2331],[18.19,49.2769],[18.3246,49.3113],[18.3616,49.3302],[18.3852,49.3423],[18.387,49.3776],[18.4168,49.3855],[18.4818,49.4291],[18.5147,49.4406],[18.5356,49.4817],[18.5562,49.4902],[18.6004,49.486],[18.6428,49.4958],[18.7045,49.4793],[18.7325,49.4803],[18.7736,49.5049],[18.8332,49.5103],[18.9322,49.5043],[18.9611,49.4928],[18.9524,49.4759],[18.9623,49.3892],[19.0071,49.3881],[19.0676,49.4061],[19.1166,49.3909],[19.1725,49.4023],[19.2205,49.493],[19.2487,49.5163],[19.3471,49.533],[19.4338,49.5952],[19.4489,49.6004],[19.5052,49.5634],[19.5568,49.4539],[19.5948,49.4416],[19.6348,49.4413],[19.627,49.4019],[19.6845,49.3891],[19.7693,49.3931],[19.7836,49.3576],[19.7895,49.3092],[19.7832,49.29],[19.8068,49.2752],[19.7518,49.2191],[19.7607,49.1942],[19.832,49.1859],[19.8683,49.2008],[19.9059,49.2228],[19.9657,49.2157],[20.0173,49.1839],[20.0505,49.1732],[20.07,49.1831],[20.086,49.243],[20.1302,49.3039],[20.1604,49.3056],[20.2072,49.3342],[20.2844,49.3386],[20.3074,49.3866],[20.3295,49.3918],[20.3705,49.3817],[20.4221,49.383],[20.4375,49.4025],[20.5221,49.3744],[20.5677,49.3764],[20.6053,49.4],[20.6895,49.4005],[20.7783,49.3312],[20.8493,49.3205],[20.9006,49.2926],[20.9424,49.2959],[21.0172,49.3524],[21.0725,49.3572],[21.0685,49.3814],[21.0333,49.3997],[21.0535,49.4145],[21.1249,49.4237],[21.1726,49.3983],[21.2112,49.4111],[21.2425,49.4413],[21.2744,49.4473],[21.3304,49.4278],[21.4279,49.4098],[21.5144,49.4172],[21.6012,49.4265],[21.6663,49.4018],[21.6917,49.4022],[21.7576,49.3489],[21.7994,49.3748],[21.8196,49.3772],[21.8746,49.3484],[21.9284,49.3308],[21.9645,49.3086],[21.9932,49.2782],[22.0124,49.2111],[22.0408,49.1975],[22.1115,49.1886],[22.1557,49.1715],[22.198,49.172],[22.2159,49.14],[22.2629,49.1306],[22.3394,49.1265],[22.3901,49.093],[22.4268,49.0856],[22.505,49.0834],[22.5396,49.0722],[22.5808,49.0814],[22.6429,49.0432],[22.7553,49.0447],[22.784,49.0214],[22.8553,48.994],[22.865,49.0132],[22.9024,48.9833],[22.892,48.9354],[22.926,48.9041],[22.9612,48.8843],[22.9821,48.859],[23.0117,48.8547],[23.105,48.8713],[23.1376,48.8522],[23.1798,48.7903],[23.2016,48.7771],[23.2576,48.7722],[23.2982,48.7812],[23.3085,48.7502],[23.3505,48.772],[23.378,48.7371],[23.4458,48.7267],[23.4985,48.7312],[23.5329,48.7237],[23.6124,48.7038],[23.6745,48.6545],[23.709,48.643],[23.7715,48.6447],[23.7817,48.6034],[23.8471,48.5628],[23.8949,48.5496],[23.9168,48.5154],[23.9074,48.4887],[23.9427,48.4704],[24.0015,48.5001],[24.0462,48.5051],[24.1138,48.5322],[24.137,48.5275],[24.1407,48.4712],[24.1312,48.4345],[24.1408,48.3799],[24.1777,48.3546],[24.2341,48.3505],[24.2707,48.3572],[24.3054,48.3883],[24.3317,48.3748],[24.3458,48.3402],[24.3916,48.3311],[24.4949,48.2666],[24.5415,48.2128],[24.5216,48.1711],[24.5384,48.1345],[24.6068,48.0886],[24.6393,48.0476],[24.5882,47.9959],[24.5698,47.9373],[24.4856,47.9432],[24.4285,47.9525],[24.3862,47.9437],[24.3472,47.9209],[24.2979,47.9198],[24.231,47.897],[24.1312,47.9145],[24.0948,47.9379],[23.9773,47.9623],[23.8766,47.9344],[23.7801,47.9875],[23.7105,47.9851],[23.5632,48.0058],[23.5145,47.999],[23.4855,47.9742],[23.502,47.9342],[23.5494,47.889],[23.607,47.8594],[23.63,47.8381],[23.6207,47.8162],[23.4792,47.743],[23.4145,47.7326],[23.3429,47.7489],[23.2718,47.7492],[23.2395,47.7223],[23.2588,47.7019],[23.3268,47.6892],[23.3609,47.6678],[23.3595,47.6426],[23.3237,47.5853],[23.268,47.5381],[23.2172,47.5353],[23.1717,47.5554],[23.1435,47.577],[23.1168,47.5765],[23.0578,47.5261],[23.0309,47.4795],[22.9688,47.4445],[22.9676,47.4305],[22.9984,47.4163],[23.0905,47.4043],[23.1103,47.3769],[23.105,47.3554],[23.051,47.3161],[23.0056,47.3369],[22.9645,47.344],[22.9119,47.372],[22.8018,47.3928],[22.7547,47.3879],[22.6236,47.3447],[22.5807,47.3214],[22.5368,47.2324],[22.4943,47.1942],[22.5072,47.1599],[22.5504,47.1137],[22.5905,47.0586],[22.6639,47.0255],[22.7194,46.9794],[22.6883,46.9203],[22.7477,46.9021],[22.7657,46.8844],[22.7513,46.8433],[22.7303,46.8234],[22.6935,46.8123],[22.6681,46.7926],[22.6688,46.7753],[22.7208,46.7389],[22.7469,46.7036],[22.7643,46.657],[22.8079,46.6194],[22.8028,46.5569],[22.7398,46.5654],[22.7025,46.5321],[22.6869,46.483],[22.6881,46.422],[22.7067,46.3687],[22.7553,46.3338],[22.6897,46.3002],[22.6403,46.2314],[22.6007,46.2109],[22.5579,46.2095],[22.502,46.2189],[22.4702,46.212],[22.4336,46.1761],[22.4296,46.1142],[22.4072,46.0713],[22.4196,46.0253],[22.4015,45.9917],[22.3549,45.9499],[22.3891,45.9247],[22.4125,45.8627],[22.4494,45.8372],[22.486,45.786],[22.5025,45.774],[22.5298,45.7799],[22.5411,45.7613],[22.4811,45.7191],[22.4616,45.6738],[22.4454,45.6629],[22.4536,45.6401],[22.4834,45.6115],[22.5374,45.5973],[22.5424,45.57],[22.5761,45.5671],[22.6533,45.5202],[22.6784,45.4925],[22.698,45.413],[22.6753,45.3739],[22.7069,45.3223],[22.6771,45.2755],[22.6691,45.2405],[22.601,45.1977],[22.5727,45.1708],[22.5661,45.1388],[22.6346,45.1275],[22.6411,45.0924],[22.5989,45.0602],[22.5666,45.0239],[22.5337,44.9342],[22.4918,44.8846],[22.467,44.8393],[22.4418,44.7694],[22.4212,44.7521],[22.3878,44.7537],[22.3542,44.7777],[22.3112,44.7779],[22.2626,44.8083],[22.2219,44.8062],[22.2057,44.7613],[22.1653,44.7022],[22.1608,44.6644],[22.1727,44.6339],[22.169,44.609],[22.1499,44.5977],[22.0888,44.6032],[22.0342,44.5962],[22.0043,44.6515],[21.8554,44.6985],[21.7568,44.6773],[21.7052,44.6771],[21.6563,44.6877],[21.6197,44.7139],[21.5956,44.766],[21.5584,44.7817],[21.4972,44.778],[21.3959,44.7902],[21.3598,44.8267],[21.2695,44.8137],[21.1888,44.7782],[21.1638,44.7478],[21.1123,44.7448],[21.0779,44.7265],[21.0368,44.722],[20.9896,44.7168],[20.8832,44.6727],[20.8265,44.6609],[20.7948,44.6647],[20.7636,44.6684],[20.7203,44.6962],[20.672,44.744],[20.6333,44.7652],[20.6282,44.7886],[20.6364,44.8494],[20.595,44.858],[20.6001,44.8886],[20.5732,44.9103],[20.527,44.9254],[20.4988,44.9484],[20.4974,44.9648],[20.4522,44.9851],[20.3985,45.0314],[20.3952,45.0652],[20.339,45.0803],[20.2778,45.141],[20.2224,45.1755],[20.185,45.185],[20.0648,45.1755],[19.9856,45.1898],[19.9803,45.1598],[19.9126,45.1426],[19.792,45.1471],[19.7731,45.1671],[19.6988,45.1417],[19.6001,45.1384],[19.5386,45.1505],[19.4609,45.1741],[19.428,45.1461],[19.3939,45.1716],[19.4078,45.2031],[19.3781,45.2296],[19.2898,45.2363],[19.1585,45.2762],[19.1041,45.2987],[19.083,45.3392],[19.0302,45.3451],[18.9775,45.3712],[18.9755,45.3911],[19.0226,45.4024],[19.0313,45.4162],[19.0023,45.4437],[18.9964,45.4738],[19.0179,45.4978],[19.0772,45.4916],[19.1063,45.5116],[19.0951,45.5261],[19.051,45.5389],[19.0181,45.5674],[18.9602,45.5391],[18.9417,45.5389],[18.9036,45.5731],[18.9124,45.6192],[18.9685,45.6687],[18.9627,45.6831],[18.9173,45.7066],[18.9002,45.7649],[18.8487,45.8096],[18.8553,45.8574],[18.8998,45.8614],[18.904,45.8757],[18.8729,45.8952],[18.907,45.9157],[18.9013,45.9312],[18.8225,45.9056],[18.8049,45.9136],[18.786,45.8869],[18.7633,45.884],[18.6743,45.9104],[18.633,45.8919],[18.6222,45.8684],[18.5855,45.8269],[18.5303,45.7909],[18.4818,45.7914],[18.4117,45.7432],[18.3838,45.7432],[18.3672,45.7582],[18.3177,45.7473],[18.2112,45.7854],[18.129,45.7854],[18.0805,45.7717],[17.9754,45.7921],[17.9062,45.7921],[17.858,45.7759],[17.8092,45.8144],[17.6873,45.8406],[17.6547,45.8521],[17.6458,45.8918],[17.5911,45.9362],[17.5119,45.9539],[17.4267,45.9567],[17.4062,45.9437],[17.3892,45.9631],[17.3453,45.9557],[17.3379,45.9846],[17.3066,45.9799],[17.2901,45.9915],[17.3168,45.9977],[17.2759,46.012],[17.2486,46.0802],[17.1973,46.1212],[17.1162,46.1231],[17.0529,46.1535],[17.028,46.1805],[16.9748,46.2106],[16.9407,46.2515],[16.8892,46.2922],[16.8793,46.3121],[16.8594,46.3648],[16.8377,46.3819],[16.7693,46.3961],[16.7551,46.3819],[16.7429,46.3996],[16.7124,46.4127],[16.6593,46.4642],[16.5943,46.483],[16.5837,46.4707],[16.5153,46.5017],[16.5008,46.5448],[16.4671,46.5647],[16.4302,46.6044],[16.3946,46.619],[16.3764,46.6291],[16.3722,46.6363],[16.3684,46.643],[16.3776,46.6529],[16.3967,46.6591],[16.4026,46.6631],[16.4105,46.6684],[16.405,46.6873],[16.39,46.6942],[16.3714,46.6949],[16.3662,46.6965],[16.3654,46.6967],[16.3576,46.699],[16.3573,46.7158],[16.3434,46.7142],[16.3142,46.7433],[16.2982,46.7758],[16.2995,46.7795],[16.3022,46.787],[16.3111,46.7975],[16.3149,46.802],[16.3218,46.8133],[16.3275,46.8255],[16.3298,46.8344],[16.3253,46.8394],[16.3107,46.84],[16.3019,46.8432],[16.2974,46.847],[16.2822,46.8599],[16.272,46.864],[16.1795,46.8585],[16.1354,46.8558],[16.1302,46.8567],[16.094,46.8628]]]}}
]}
