{
 "type": "FeatureCollection",
 "features": [
  {
   "type": "Feature",
   "properties": {
    "entityId": "mahan",
    "from": -56,
    "to": -17,
    "certainty": "estimated",
    "source": "중고등학교 한국사 교과서 시대별 지도의 일반적인 경계를 따른 대략적인 추정. 운영자 검수 필요"
   },
   "geometry": {
    "type": "Polygon",
    "coordinates": [
     [
      [
       123.5,
       37.6
      ],
      [
       125.8,
       37.5
      ],
      [
       126.5,
       37.75
      ],
      [
       126.9,
       37.8
      ],
      [
       127.5,
       37.75
      ],
      [
       127.75,
       37.2
      ],
      [
       127.6,
       36.55
      ],
      [
       127.75,
       36.2
      ],
      [
       127.85,
       35.9
      ],
      [
       127.75,
       35.55
      ],
      [
       127.7,
       35.2
      ],
      [
       127.75,
       34.9
      ],
      [
       127.8,
       34.4
      ],
      [
       126.8,
       33.9
      ],
      [
       123.5,
       34
      ],
      [
       123.5,
       37.6
      ]
     ]
    ]
   }
  },
  {
   "type": "Feature",
   "properties": {
    "entityId": "mahan",
    "from": -17,
    "to": 234,
    "certainty": "estimated",
    "source": "중고등학교 한국사 교과서 시대별 지도의 일반적인 경계를 따른 대략적인 추정. 운영자 검수 필요"
   },
   "geometry": {
    "type": "Polygon",
    "coordinates": [
     [
      [
       123.5,
       34
      ],
      [
       126.8,
       33.9
      ],
      [
       127.8,
       34.4
      ],
      [
       127.75,
       34.9
      ],
      [
       127.7,
       35.2
      ],
      [
       127.75,
       35.55
      ],
      [
       127.85,
       35.9
      ],
      [
       127.75,
       36.2
      ],
      [
       127.6,
       36.55
      ],
      [
       127.75,
       37.2
      ],
      [
       127.5,
       37.75
      ],
      [
       126.9,
       37.8
      ],
      [
       126.5,
       37.75
      ],
      [
       125.8,
       37.5
      ],
      [
       123.5,
       37.6
      ],
      [
       123.5,
       34
      ]
     ],
     [
      [
       126.75,
       37.35
      ],
      [
       126.75,
       37.65
      ],
      [
       126.95,
       37.78
      ],
      [
       127.35,
       37.65
      ],
      [
       127.3,
       37.3
      ],
      [
       126.75,
       37.35
      ]
     ]
    ]
   }
  },
  {
   "type": "Feature",
   "properties": {
    "entityId": "mahan",
    "from": 234,
    "to": 369,
    "certainty": "estimated",
    "source": "중고등학교 한국사 교과서 시대별 지도의 일반적인 경계를 따른 대략적인 추정. 운영자 검수 필요"
   },
   "geometry": {
    "type": "Polygon",
    "coordinates": [
     [
      [
       123.5,
       34
      ],
      [
       126.8,
       33.9
      ],
      [
       127.8,
       34.4
      ],
      [
       127.75,
       34.9
      ],
      [
       127.7,
       35.2
      ],
      [
       127.75,
       35.55
      ],
      [
       127.85,
       35.9
      ],
      [
       127.75,
       36.2
      ],
      [
       127.6,
       36.55
      ],
      [
       127.75,
       37.2
      ],
      [
       127.6115,
       36.6
      ],
      [
       123.5,
       36.6
      ],
      [
       123.5,
       34
      ]
     ]
    ]
   }
  }
 ]
}
