{"type":"FeatureCollection","features":[
{"type":"Feature","properties":{"entityId":"majorca-kingdom","from":1276,"to":1344,"certainty":"estimated","source":"유럽 쪽은 Natural Earth 1:10m admin-1(v5.1.2) 현대 행정구역 조각을 그 시기 국경에 맞춰 묶고, 조각이 역사 경계와 다른 곳은 선을 그어 나눈 근사. 유럽 밖(시베리아·중앙아시아·극동)은 대략적인 추정. 운영자 검수 필요"},"geometry":{"type":"MultiPolygon","coordinates":[[[[1.4455,38.6716],[1.4128,38.6464],[1.3829,38.6421],[1.3828,38.7116],[1.4078,38.7231],[1.4164,38.7397],[1.4344,38.7693],[1.4347,38.7691],[1.4348,38.7693],[1.496,38.712],[1.5932,38.7016],[1.5932,38.6716],[1.5774,38.6628],[1.5814,38.6531],[1.5234,38.6494],[1.478,38.6716],[1.4455,38.6716]]],[[[1.586,39.0055],[1.5762,38.9858],[1.5412,38.9678],[1.5098,38.9302],[1.4587,38.9001],[1.445,38.9132],[1.4408,38.91],[1.4096,38.8574],[1.4092,38.8575],[1.4092,38.8574],[1.4081,38.8575],[1.4031,38.8323],[1.3707,38.8318],[1.3435,38.8624],[1.3078,38.8579],[1.3003,38.8705],[1.2666,38.8703],[1.2599,38.8579],[1.2166,38.8851],[1.2122,38.9032],[1.2368,38.9652],[1.2505,38.9658],[1.2544,38.9741],[1.2992,38.9824],[1.2928,39.0333],[1.3214,39.0531],[1.348,39.0817],[1.4474,39.1001],[1.4507,39.1018],[1.4596,39.1024],[1.5292,39.1153],[1.5371,39.118],[1.5393,39.1171],[1.564,39.1217],[1.5641,39.1216],[1.5644,39.1217],[1.6148,39.0869],[1.6256,39.0383],[1.6255,39.0382],[1.6256,39.0379],[1.621,39.0342],[1.6231,39.0292],[1.6103,39.0254],[1.586,39.0055]]],[[[3.4,39.6101],[3.3987,39.6077],[3.406,39.592],[3.3324,39.5314],[3.2947,39.4802],[3.2918,39.4758],[3.2825,39.4201],[3.2688,39.4276],[3.2526,39.3862],[3.221,39.3599],[3.1294,39.3157],[3.0608,39.2691],[3.0293,39.3046],[3.0013,39.3177],[2.997,39.3306],[2.9212,39.3595],[2.9126,39.3587],[2.8255,39.3636],[2.7866,39.3759],[2.7617,39.4002],[2.7512,39.4548],[2.7366,39.4621],[2.7496,39.4909],[2.7448,39.5101],[2.7016,39.5414],[2.6335,39.5552],[2.576,39.531],[2.5629,39.5217],[2.5449,39.493],[2.5202,39.4728],[2.4927,39.4702],[2.469,39.5059],[2.4736,39.51],[2.4568,39.531],[2.4373,39.5337],[2.3919,39.5237],[2.3556,39.5587],[2.3577,39.6119],[2.4223,39.6433],[2.5122,39.6957],[2.5176,39.7001],[2.5215,39.7011],[2.6259,39.7619],[2.6314,39.7701],[2.6399,39.7701],[2.6782,39.7924],[2.7039,39.8142],[2.7412,39.8291],[2.7756,39.8492],[2.8132,39.8726],[2.8248,39.8726],[2.9032,39.9081],[3.1588,39.9706],[3.159,39.9706],[3.1592,39.9706],[3.1745,39.9672],[3.1795,39.9688],[3.184,39.9652],[3.1988,39.9619],[3.1985,39.9616],[3.1988,39.9615],[3.1946,39.9565],[3.2036,39.9492],[3.1823,39.942],[3.1664,39.9233],[3.1664,39.9081],[3.198,39.8911],[3.2068,39.893],[3.1931,39.8596],[3.1875,39.8577],[3.1592,39.8365],[3.1449,39.79],[3.2418,39.7571],[3.3424,39.7866],[3.3427,39.7866],[3.3428,39.7866],[3.3968,39.7779],[3.4508,39.7623],[3.4527,39.7511],[3.4744,39.7497],[3.4675,39.6876],[3.4432,39.6458],[3.4228,39.6385],[3.4148,39.6264],[3.4,39.6101]]],[[[4.3016,39.858],[4.3001,39.8218],[4.2481,39.8165],[4.1772,39.8433],[4.0151,39.9258],[3.9413,39.9368],[3.8693,39.9255],[3.8307,39.9361],[3.846,39.9732],[3.8428,39.9754],[3.8428,39.9758],[3.8435,39.9882],[3.8034,40.0132],[3.8219,40.0476],[3.8508,40.0526],[3.8536,40.0626],[4.0588,40.0747],[4.0589,40.0747],[4.0592,40.0747],[4.0801,40.0694],[4.1051,40.0794],[4.1224,40.0588],[4.1663,40.0478],[4.1765,40.0592],[4.178,40.0449],[4.2248,40.0331],[4.2518,39.9982],[4.2546,39.9975],[4.2717,39.9726],[4.2949,39.9426],[4.298,39.942],[4.2997,39.9363],[4.3148,39.9168],[4.322,39.8977],[4.3219,39.8975],[4.322,39.8973],[4.3208,39.895],[4.3371,39.8672],[4.3137,39.8812],[4.3016,39.858]]],[[[3.2108,42.4358],[3.1983,42.4358],[3.1801,42.4358],[3.181,42.4315],[3.1117,42.425],[3.0656,42.432],[3.0296,42.4657],[2.9831,42.4693],[2.9661,42.461],[2.9337,42.4702],[2.9008,42.4513],[2.8508,42.4484],[2.7886,42.412],[2.7285,42.414],[2.6904,42.4062],[2.6403,42.3728],[2.6622,42.339],[2.6134,42.341],[2.5481,42.3522],[2.5253,42.3259],[2.4649,42.3406],[2.4225,42.3837],[2.3755,42.3893],[2.2774,42.4286],[2.1842,42.4118],[2.137,42.4162],[2.104,42.3848],[2.0517,42.3524],[1.9957,42.3487],[1.9637,42.3672],[1.9275,42.4369],[1.8698,42.4468],[1.7927,42.4817],[1.7122,42.4937],[1.707,42.5028],[1.7106,42.5277],[1.7171,42.5399],[1.7217,42.5485],[1.74,42.5616],[1.7651,42.5634],[1.7611,42.5676],[1.8728,42.579],[1.9383,42.5718],[1.9588,42.5944],[1.9628,42.6218],[2.0056,42.6561],[2.0983,42.6639],[2.154,42.6564],[2.1661,42.6638],[2.1895,42.6522],[2.2647,42.7089],[2.3067,42.7052],[2.343,42.7188],[2.3507,42.7452],[2.3309,42.8224],[2.3412,42.8374],[2.375,42.8473],[2.704,42.834],[2.7297,42.8403],[2.7839,42.8898],[2.8553,42.9138],[2.8927,42.8956],[3.0463,42.8371],[3.0455,42.8228],[3.0535,42.8228],[3.0502,42.806],[3.0604,42.7524],[3.087,42.6117],[3.0908,42.5919],[3.1911,42.471],[3.1988,42.4617],[3.2108,42.4358]],[[1.968,42.4857],[1.9456,42.4638],[1.9606,42.4437],[1.9995,42.4439],[1.968,42.4857]]]]}}
]}
