{
 "type": "FeatureCollection",
 "features": [
  {
   "type": "Feature",
   "properties": {
    "entityId": "malgal",
    "from": 560,
    "to": 676,
    "certainty": "estimated",
    "source": "중고등학교 한국사 교과서 시대별 지도의 일반적인 경계를 따른 대략적인 추정. 운영자 검수 필요"
   },
   "geometry": {
    "type": "Polygon",
    "coordinates": [
     [
      [
       124.5,
       44.0889
      ],
      [
       124.6,
       44.2
      ],
      [
       125.5,
       45
      ],
      [
       127,
       45.3
      ],
      [
       129,
       44.8
      ],
      [
       130.5,
       43.8
      ],
      [
       131.2,
       43
      ],
      [
       131.4,
       42.6
      ],
      [
       131.8,
       42.2
      ],
      [
       131.1569,
       41.7548
      ],
      [
       131.5,
       41
      ],
      [
       130.8645,
       38.5285
      ],
      [
       130.9167,
       38.5
      ],
      [
       136,
       38.5
      ],
      [
       136,
       43.9
      ],
      [
       137,
       44.5
      ],
      [
       141.5,
       44.5
      ],
      [
       141.5,
       48.5
      ],
      [
       136,
       48.5
      ],
      [
       136,
       49.5
      ],
      [
       126.5,
       49.5
      ],
      [
       126.5,
       45.5
      ],
      [
       124.5,
       45.5
      ],
      [
       124.5,
       44.0889
      ]
     ]
    ]
   }
  },
  {
   "type": "Feature",
   "properties": {
    "entityId": "malgal",
    "from": 676,
    "to": 698,
    "certainty": "estimated",
    "source": "중고등학교 한국사 교과서 시대별 지도의 일반적인 경계를 따른 대략적인 추정. 운영자 검수 필요"
   },
   "geometry": {
    "type": "Polygon",
    "coordinates": [
     [
      [
       123,
       39
      ],
      [
       124,
       39.2
      ],
      [
       124.3,
       38.4
      ],
      [
       124.6,
       38.6
      ],
      [
       125.2,
       38.75
      ],
      [
       125.8,
       38.95
      ],
      [
       126.5,
       39.1
      ],
      [
       127.2,
       39.2
      ],
      [
       127.8,
       39.3
      ],
      [
       128.5046,
       39.2039
      ],
      [
       129.8,
       40.3
      ],
      [
       130.5,
       41.3
      ],
      [
       131.8,
       42.2
      ],
      [
       131.1569,
       41.7548
      ],
      [
       131.5,
       41
      ],
      [
       130.8645,
       38.5285
      ],
      [
       130.9167,
       38.5
      ],
      [
       136,
       38.5
      ],
      [
       136,
       43.9
      ],
      [
       137,
       44.5
      ],
      [
       141.5,
       44.5
      ],
      [
       141.5,
       48.5
      ],
      [
       136,
       48.5
      ],
      [
       136,
       49.5
      ],
      [
       126.5,
       49.5
      ],
      [
       126.5,
       45.5
      ],
      [
       124.5,
       45.5
      ],
      [
       124.5,
       44.0889
      ],
      [
       124.6,
       44.2
      ],
      [
       123.7,
       43.2
      ],
      [
       124.3,
       42.6
      ],
      [
       125,
       41.8
      ],
      [
       125,
       40.8
      ],
      [
       124.4,
       40
      ],
      [
       124,
       39.6
      ],
      [
       123,
       39
      ]
     ]
    ]
   }
  },
  {
   "type": "Feature",
   "properties": {
    "entityId": "malgal",
    "from": 698,
    "to": 719,
    "certainty": "estimated",
    "source": "중고등학교 한국사 교과서 시대별 지도의 일반적인 경계를 따른 대략적인 추정. 운영자 검수 필요"
   },
   "geometry": {
    "type": "Polygon",
    "coordinates": [
     [
      [
       123,
       39
      ],
      [
       124,
       39.2
      ],
      [
       124.3,
       38.4
      ],
      [
       124.6,
       38.6
      ],
      [
       125.2,
       38.75
      ],
      [
       125.8,
       38.95
      ],
      [
       126.5,
       39.1
      ],
      [
       127.2,
       39.2
      ],
      [
       127.8,
       39.3
      ],
      [
       128.5046,
       39.2039
      ],
      [
       129.8,
       40.3
      ],
      [
       130.5,
       41.3
      ],
      [
       131.8,
       42.2
      ],
      [
       131.1569,
       41.7548
      ],
      [
       131.5,
       41
      ],
      [
       130.8645,
       38.5285
      ],
      [
       130.9167,
       38.5
      ],
      [
       136,
       38.5
      ],
      [
       136,
       43.9
      ],
      [
       137,
       44.5
      ],
      [
       141.5,
       44.5
      ],
      [
       141.5,
       48.5
      ],
      [
       136,
       48.5
      ],
      [
       136,
       49.5
      ],
      [
       126.5,
       49.5
      ],
      [
       126.5,
       45.5
      ],
      [
       124.5,
       45.5
      ],
      [
       124.5,
       44.0889
      ],
      [
       124.6,
       44.2
      ],
      [
       123.7,
       43.2
      ],
      [
       124.3,
       42.6
      ],
      [
       125,
       41.8
      ],
      [
       125,
       40.8
      ],
      [
       124.4,
       40
      ],
      [
       124,
       39.6
      ],
      [
       123,
       39
      ]
     ],
     [
      [
       126.6,
       44
      ],
      [
       128,
       44.8
      ],
      [
       130.3,
       44.2
      ],
      [
       129.8,
       42.3
      ],
      [
       126.8,
       42.3
      ],
      [
       126.6,
       44
      ]
     ]
    ]
   }
  },
  {
   "type": "Feature",
   "properties": {
    "entityId": "malgal",
    "from": 719,
    "to": 818,
    "certainty": "estimated",
    "source": "중고등학교 한국사 교과서 시대별 지도의 일반적인 경계를 따른 대략적인 추정. 운영자 검수 필요"
   },
   "geometry": {
    "type": "MultiPolygon",
    "coordinates": [
     [
      [
       [
        123,
        39
       ],
       [
        124,
        39.2
       ],
       [
        124,
        39.6
       ],
       [
        123,
        39
       ]
      ]
     ],
     [
      [
       [
        124,
        39.2
       ],
       [
        124.3,
        38.4
       ],
       [
        124.6,
        38.6
       ],
       [
        124,
        39.2
       ]
      ]
     ],
     [
      [
       [
        124.5,
        45.05
       ],
       [
        125.3182,
        45.5
       ],
       [
        124.5,
        45.5
       ],
       [
        124.5,
        45.05
       ]
      ]
     ],
     [
      [
       [
        126.5,
        45.7333
       ],
       [
        128.5,
        46
       ],
       [
        131.5,
        45.6
       ],
       [
        135.2,
        44.8
       ],
       [
        137,
        44.5
       ],
       [
        141.5,
        44.5
       ],
       [
        141.5,
        48.5
       ],
       [
        136,
        48.5
       ],
       [
        136,
        49.5
       ],
       [
        126.5,
        49.5
       ],
       [
        126.5,
        45.7333
       ]
      ]
     ],
     [
      [
       [
        127.8,
        39.3
       ],
       [
        128.5046,
        39.2039
       ],
       [
        129.8,
        40.3
       ],
       [
        127.8,
        39.3
       ]
      ]
     ],
     [
      [
       [
        130.8645,
        38.5285
       ],
       [
        130.9167,
        38.5
       ],
       [
        136,
        38.5
       ],
       [
        136,
        43.9
       ],
       [
        135,
        43.3
       ],
       [
        132.5,
        42.4
       ],
       [
        131.8,
        42.2
       ],
       [
        131.1569,
        41.7548
       ],
       [
        131.5,
        41
       ],
       [
        130.8645,
        38.5285
       ]
      ]
     ]
    ]
   }
  },
  {
   "type": "Feature",
   "properties": {
    "entityId": "malgal",
    "from": 818,
    "to": 901,
    "certainty": "estimated",
    "source": "중고등학교 한국사 교과서 시대별 지도의 일반적인 경계를 따른 대략적인 추정. 운영자 검수 필요"
   },
   "geometry": {
    "type": "MultiPolygon",
    "coordinates": [
     [
      [
       [
        123,
        39
       ],
       [
        124,
        39.2
       ],
       [
        124,
        39.6
       ],
       [
        123,
        39
       ]
      ]
     ],
     [
      [
       [
        124,
        39.2
       ],
       [
        124.3,
        38.4
       ],
       [
        124.6,
        38.6
       ],
       [
        124,
        39.2
       ]
      ]
     ],
     [
      [
       [
        126.5,
        47.5
       ],
       [
        129.5,
        48
       ],
       [
        132.5,
        48.3
       ],
       [
        135,
        48
       ],
       [
        138.5,
        48.2
       ],
       [
        140.8,
        47.8
       ],
       [
        138.8,
        46
       ],
       [
        137,
        44.5
       ],
       [
        141.5,
        44.5
       ],
       [
        141.5,
        48.5
       ],
       [
        136,
        48.5
       ],
       [
        136,
        49.5
       ],
       [
        126.5,
        49.5
       ],
       [
        126.5,
        47.5
       ]
      ]
     ],
     [
      [
       [
        127.8,
        39.3
       ],
       [
        128.5046,
        39.2039
       ],
       [
        129.8,
        40.3
       ],
       [
        127.8,
        39.3
       ]
      ]
     ],
     [
      [
       [
        130.8645,
        38.5285
       ],
       [
        130.9167,
        38.5
       ],
       [
        136,
        38.5
       ],
       [
        136,
        43.9
       ],
       [
        135,
        43.3
       ],
       [
        132.5,
        42.4
       ],
       [
        131.8,
        42.2
       ],
       [
        131.1569,
        41.7548
       ],
       [
        131.5,
        41
       ],
       [
        130.8645,
        38.5285
       ]
      ]
     ]
    ]
   }
  },
  {
   "type": "Feature",
   "properties": {
    "entityId": "malgal",
    "from": 901,
    "to": 926,
    "certainty": "estimated",
    "source": "중고등학교 한국사 교과서 시대별 지도의 일반적인 경계를 따른 대략적인 추정. 운영자 검수 필요"
   },
   "geometry": {
    "type": "MultiPolygon",
    "coordinates": [
     [
      [
       [
        123,
        39
       ],
       [
        124,
        39.2
       ],
       [
        124,
        39.6
       ],
       [
        123,
        39
       ]
      ]
     ],
     [
      [
       [
        124,
        39.2
       ],
       [
        124.3,
        38.4
       ],
       [
        124.6,
        38.6
       ],
       [
        124,
        39.2
       ]
      ]
     ],
     [
      [
       [
        126.5,
        47.5
       ],
       [
        129.5,
        48
       ],
       [
        132.5,
        48.3
       ],
       [
        135,
        48
       ],
       [
        138.5,
        48.2
       ],
       [
        140.8,
        47.8
       ],
       [
        138.8,
        46
       ],
       [
        137,
        44.5
       ],
       [
        141.5,
        44.5
       ],
       [
        141.5,
        48.5
       ],
       [
        136,
        48.5
       ],
       [
        136,
        49.5
       ],
       [
        126.5,
        49.5
       ],
       [
        126.5,
        47.5
       ]
      ]
     ],
     [
      [
       [
        127.8,
        39.3
       ],
       [
        128.5046,
        39.2039
       ],
       [
        129.8,
        40.3
       ],
       [
        127.8,
        39.3
       ]
      ]
     ],
     [
      [
       [
        130.8571,
        38.5
       ],
       [
        136,
        38.5
       ],
       [
        136,
        43.9
       ],
       [
        135,
        43.3
       ],
       [
        132.5,
        42.4
       ],
       [
        131.8,
        42.2
       ],
       [
        131.1569,
        41.7548
       ],
       [
        131.5,
        41
       ],
       [
        130.8571,
        38.5
       ]
      ]
     ]
    ]
   }
  }
 ]
}
