{"type":"FeatureCollection","features":[
{"type":"Feature","properties":{"entityId":"manchukuo","from":1932,"to":1933,"certainty":"estimated","source":"중고등학교 한국사 교과서 시대별 지도의 일반적인 경계를 따른 대략적인 추정. 운영자 검수 필요"},"geometry":{"type":"MultiPolygon","coordinates":[[[[115.5,42.5],[116,42.1333],[116,42.6],[119.16,42.6],[118.5,41.5],[120.9792,41.9958],[120.9,41.6],[120.2,40.6],[119.8,39.95],[120.9534,39.8238],[121.9,40.5],[121.1308,39.5],[122.3,39.5],[122.3,38.6],[120.9857,38.6],[121,38.5],[122.5,38.6],[123,39],[124,39.6],[124.4,40],[125.3,40.6],[126,41],[126.8,41.6],[128.2,41.5],[128.9,42.05],[129.7,42.45],[130,42.9],[130.4,42.6],[130.58,42.42],[130.53,42.54],[130.58,42.62],[130.42,42.71],[130.58,42.81],[130.87,42.86],[131.07,42.9],[131.14,43.1],[131.2,43.3],[131.24,43.32],[131.27,43.45],[131.16,43.53],[131.26,44.05],[131.07,44.68],[130.93,44.84],[131.02,44.86],[131.05,44.91],[131.18,44.9],[131.33,44.97],[131.43,44.96],[131.61,45.09],[131.63,45.2],[131.72,45.22],[131.85,45.34],[131.97,45.23],[132.92,45.03],[132.97,45.03],[133.12,45.12],[133.14,45.44],[133.19,45.5],[133.37,45.57],[133.41,45.57],[133.43,45.62],[133.48,45.63],[133.48,45.82],[133.51,45.88],[133.59,45.88],[133.62,45.94],[133.66,45.93],[133.69,46.14],[133.79,46.21],[133.83,46.2],[133.9,46.26],[133.86,46.34],[133.93,46.39],[133.85,46.47],[134.01,46.67],[134.07,46.98],[134.12,47.07],[134.2,47.09],[134.23,47.12],[134.18,47.33],[134.31,47.42],[134.48,47.43],[134.56,47.47],[134.77,47.71],[134.56,48.01],[134.5956,48.0485],[134.68,48.14],[134.719,48.263],[134.661,48.267],[134.611,48.285],[134.543,48.357],[134.508,48.343],[134.471,48.34],[134.386,48.381],[134.21,48.36],[134.06,48.33],[133.97,48.28],[133.74,48.25],[133.6168,48.166],[133.52,48.1],[133.22,48.13],[133.08,48.1],[132.81,47.94],[132.67,47.95],[132.52,47.71],[132.33,47.74],[132.25,47.73],[132.16,47.69],[132.03,47.7],[131.91,47.67],[131.7,47.7],[131.6,47.66],[131.44,47.74],[131.21,47.71],[131.1,47.68],[130.97,47.7],[130.91,47.88],[130.67,48.06],[130.67,48.14],[130.82,48.29],[130.76,48.49],[130.63,48.48],[130.53,48.62],[130.67,48.87],[130.54,48.85],[130.44,48.9],[130.25,48.86],[130.2,48.88],[129.93,49.03],[129.71,49.27],[129.55,49.29],[129.48,49.42],[129.38,49.43],[129.34,49.34],[129.22,49.39],[129.12,49.35],[129,49.44],[128.76,49.47],[128.8,49.57],[128.67,49.61],[128.63,49.58],[128.38,49.58],[128.34,49.55],[128.27,49.56],[128.2,49.54],[127.97,49.6],[127.92,49.58],[127.85,49.58],[127.54,49.79],[127.49,50.03],[127.59,50.21],[127.53,50.247],[127.49,50.2535],[127.45,50.262],[127.33,50.33],[127.29,50.47],[127.37,50.58],[127.29,50.75],[126.93,51.06],[126.91,51.21],[126.98,51.31],[126.92,51.32],[126.87,51.25],[126.82,51.27],[126.81,51.32],[126.91,51.39],[126.68,51.58],[126.73,51.71],[126.44,52],[126.56,52.13],[126.32,52.2],[126.31,52.23],[126.44,52.28],[126.32,52.32],[126.21,52.53],[125.99,52.59],[126.09,52.78],[126.02,52.78],[125.98,52.76],[125.84,52.91],[125.65,52.88],[125.73,52.98],[125.62,53.06],[125.52,53.04],[125.07,53.21],[124.9,53.19],[124.87,53.11],[124.65,53.21],[124.38,53.25],[124.25,53.38],[124.18,53.38],[124.12,53.35],[123.61,53.56],[123.54,53.51],[123.51,53.56],[123.48,53.52],[123.25,53.57],[123.15,53.51],[123,53.51],[122.86,53.47],[122.4,53.45],[122.32,53.5],[122.17,53.47],[122.08,53.43],[121.89,53.43],[121.64,53.38],[121.51,53.33],[121.34,53.32],[121.2,53.28],[120.85,53.27],[120.28,52.87],[120.03,52.76],[120.08,52.59],[120.18,52.58],[120.26,52.61],[120.45,52.64],[120.72,52.54],[120.63,52.35],[120.78,52.12],[120.65,51.91],[120.57,51.91],[120.54,51.88],[120.49,51.88],[120.17,51.67],[120.1,51.66],[119.95,51.4],[119.9,51.38],[119.92,51.33],[119.82,51.27],[119.81,51.22],[119.76,51.22],[119.74,51.07],[119.52,50.9],[119.5,50.74],[119.29,50.6],[119.24,50.45],[119.14,50.39],[119.36,50.34],[119.3,50.08],[119.21,50.02],[119.09,49.99],[118.92,49.99],[118.74,49.95],[118.64,49.95],[118.52,49.89],[118.48,49.84],[118.39,49.82],[118.19,49.68],[117.84,49.51],[117.47,49.61],[117.06,49.67],[116.7,49.85],[116.02,48.78],[115.82,48.58],[115.79,48.25],[115.52,48.13],[115.56,47.95],[115.62,47.87],[115.9,47.69],[115.99,47.71],[116.07,47.79],[116.23,47.86],[116.51,47.84],[116.76,47.87],[117.07,47.81],[117.35,47.65],[117.77,47.99],[118.15,48.03],[118.5,47.98],[118.76,47.76],[119.08,47.65],[119.16,47.53],[119.29,47.47],[119.32,47.41],[119.71,47.15],[119.79,46.98],[119.9,46.86],[119.9,46.73],[119.87,46.67],[119.71,46.61],[119.62,46.6],[119.119,46.643],[119.2059,46.3824],[116.1667,45.1667],[115.5,44.5],[115.5,42.5]]],[[[131.0004,42.0991],[131.1569,41.7548],[131.6454,42.093],[131.0004,42.0991]]]]}},
{"type":"Feature","properties":{"entityId":"manchukuo","from":1933,"to":1946,"certainty":"estimated","source":"중고등학교 한국사 교과서 시대별 지도의 일반적인 경계를 따른 대략적인 추정. 운영자 검수 필요"},"geometry":{"type":"MultiPolygon","coordinates":[[[[115.5,42.5],[116,42.1333],[116,40.7],[116.6,40.5],[117.2,40.68],[117.7,40.25],[118.3,40.42],[118.8,40.35],[119.4,40.15],[119.8,39.95],[120.9534,39.8238],[121.9,40.5],[121.1308,39.5],[122.3,39.5],[122.3,38.6],[120.9857,38.6],[121,38.5],[122.5,38.6],[123,39],[124,39.6],[124.4,40],[125.3,40.6],[126,41],[126.8,41.6],[128.2,41.5],[128.9,42.05],[129.7,42.45],[130,42.9],[130.4,42.6],[130.58,42.42],[130.53,42.54],[130.58,42.62],[130.42,42.71],[130.58,42.81],[130.87,42.86],[131.07,42.9],[131.14,43.1],[131.2,43.3],[131.24,43.32],[131.27,43.45],[131.16,43.53],[131.26,44.05],[131.07,44.68],[130.93,44.84],[131.02,44.86],[131.05,44.91],[131.18,44.9],[131.33,44.97],[131.43,44.96],[131.61,45.09],[131.63,45.2],[131.72,45.22],[131.85,45.34],[131.97,45.23],[132.92,45.03],[132.97,45.03],[133.12,45.12],[133.14,45.44],[133.19,45.5],[133.37,45.57],[133.41,45.57],[133.43,45.62],[133.48,45.63],[133.48,45.82],[133.51,45.88],[133.59,45.88],[133.62,45.94],[133.66,45.93],[133.69,46.14],[133.79,46.21],[133.83,46.2],[133.9,46.26],[133.86,46.34],[133.93,46.39],[133.85,46.47],[134.01,46.67],[134.07,46.98],[134.12,47.07],[134.2,47.09],[134.23,47.12],[134.18,47.33],[134.31,47.42],[134.48,47.43],[134.56,47.47],[134.77,47.71],[134.56,48.01],[134.5956,48.0485],[133.6168,48.166],[133.52,48.1],[133.22,48.13],[133.08,48.1],[132.81,47.94],[132.67,47.95],[132.52,47.71],[132.33,47.74],[132.25,47.73],[132.16,47.69],[132.03,47.7],[131.91,47.67],[131.7,47.7],[131.6,47.66],[131.44,47.74],[131.21,47.71],[131.1,47.68],[130.97,47.7],[130.91,47.88],[130.67,48.06],[130.67,48.14],[130.82,48.29],[130.76,48.49],[130.63,48.48],[130.53,48.62],[130.67,48.87],[130.54,48.85],[130.44,48.9],[130.25,48.86],[130.2,48.88],[129.93,49.03],[129.71,49.27],[129.55,49.29],[129.48,49.42],[129.38,49.43],[129.34,49.34],[129.22,49.39],[129.12,49.35],[129,49.44],[128.76,49.47],[128.8,49.57],[128.67,49.61],[128.63,49.58],[128.38,49.58],[128.34,49.55],[128.27,49.56],[128.2,49.54],[127.97,49.6],[127.92,49.58],[127.85,49.58],[127.54,49.79],[127.49,50.03],[127.59,50.21],[127.53,50.247],[127.49,50.2535],[127.45,50.262],[127.33,50.33],[127.29,50.47],[127.37,50.58],[127.29,50.75],[126.93,51.06],[126.91,51.21],[126.98,51.31],[126.92,51.32],[126.87,51.25],[126.82,51.27],[126.81,51.32],[126.91,51.39],[126.68,51.58],[126.73,51.71],[126.44,52],[126.56,52.13],[126.32,52.2],[126.31,52.23],[126.44,52.28],[126.32,52.32],[126.21,52.53],[125.99,52.59],[126.09,52.78],[126.02,52.78],[125.98,52.76],[125.84,52.91],[125.65,52.88],[125.73,52.98],[125.62,53.06],[125.52,53.04],[125.07,53.21],[124.9,53.19],[124.87,53.11],[124.65,53.21],[124.38,53.25],[124.25,53.38],[124.18,53.38],[124.12,53.35],[123.61,53.56],[123.54,53.51],[123.51,53.56],[123.48,53.52],[123.25,53.57],[123.15,53.51],[123,53.51],[122.86,53.47],[122.4,53.45],[122.32,53.5],[122.17,53.47],[122.08,53.43],[121.89,53.43],[121.64,53.38],[121.51,53.33],[121.34,53.32],[121.2,53.28],[120.85,53.27],[120.28,52.87],[120.03,52.76],[120.08,52.59],[120.18,52.58],[120.26,52.61],[120.45,52.64],[120.72,52.54],[120.63,52.35],[120.78,52.12],[120.65,51.91],[120.57,51.91],[120.54,51.88],[120.49,51.88],[120.17,51.67],[120.1,51.66],[119.95,51.4],[119.9,51.38],[119.92,51.33],[119.82,51.27],[119.81,51.22],[119.76,51.22],[119.74,51.07],[119.52,50.9],[119.5,50.74],[119.29,50.6],[119.24,50.45],[119.14,50.39],[119.36,50.34],[119.3,50.08],[119.21,50.02],[119.09,49.99],[118.92,49.99],[118.74,49.95],[118.64,49.95],[118.52,49.89],[118.48,49.84],[118.39,49.82],[118.19,49.68],[117.84,49.51],[117.47,49.61],[117.06,49.67],[116.7,49.85],[116.02,48.78],[115.82,48.58],[115.79,48.25],[115.52,48.13],[115.56,47.95],[115.62,47.87],[115.9,47.69],[115.99,47.71],[116.07,47.79],[116.23,47.86],[116.51,47.84],[116.76,47.87],[117.07,47.81],[117.35,47.65],[117.77,47.99],[118.15,48.03],[118.5,47.98],[118.76,47.76],[119.08,47.65],[119.16,47.53],[119.29,47.47],[119.32,47.41],[119.71,47.15],[119.79,46.98],[119.9,46.86],[119.9,46.73],[119.87,46.67],[119.71,46.61],[119.62,46.6],[119.119,46.643],[119.2059,46.3824],[116.1667,45.1667],[115.5,44.5],[115.5,42.5]]],[[[131.0004,42.0991],[131.1569,41.7548],[131.6454,42.093],[131.0004,42.0991]]],[[[133.6168,48.166],[134.5956,48.0485],[134.68,48.14],[134.719,48.263],[134.661,48.267],[134.611,48.285],[134.543,48.357],[134.508,48.343],[134.471,48.34],[134.386,48.381],[134.21,48.36],[134.06,48.33],[133.97,48.28],[133.74,48.25],[133.6168,48.166]]]]}}
]}
