{"type":"FeatureCollection","features":[
{"type":"Feature","properties":{"entityId":"milan-signoria","from":1277,"to":1332,"certainty":"estimated","source":"유럽 쪽은 Natural Earth 1:10m admin-1(v5.1.2) 현대 행정구역 조각을 그 시기 국경에 맞춰 묶고, 조각이 역사 경계와 다른 곳은 선을 그어 나눈 근사. 유럽 밖(시베리아·중앙아시아·극동)은 대략적인 추정. 운영자 검수 필요"},"geometry":{"type":"Polygon","coordinates":[[[8.7052,45.5568],[8.6953,45.6069],[8.6684,45.6293],[8.6824,45.6444],[8.677,45.6729],[8.6461,45.6887],[8.6458,45.7207],[8.6174,45.7277],[8.5761,45.776],[8.5654,45.7986],[8.5984,45.826],[8.6027,45.8388],[8.5885,45.9103],[8.5931,45.9175],[8.7207,46.012],[8.7342,46.0467],[8.729,46.1082],[8.7471,46.0944],[8.809,46.0897],[8.8344,46.0664],[8.791,46.0187],[8.7679,45.9831],[8.8004,45.9785],[8.871,45.9471],[8.9121,45.8834],[8.9,45.8264],[8.9089,45.8283],[8.9046,45.7787],[8.9478,45.7349],[8.9396,45.705],[8.9068,45.6822],[8.932,45.6512],[8.9779,45.675],[8.994,45.648],[9.0587,45.6614],[9.0724,45.6876],[9.1107,45.6954],[9.1479,45.6865],[9.174,45.6636],[9.1851,45.6645],[9.2022,45.7068],[9.235,45.7276],[9.2472,45.7426],[9.2454,45.7735],[9.2705,45.807],[9.3285,45.8599],[9.3233,45.8958],[9.2849,45.9007],[9.2633,45.9613],[9.2846,45.967],[9.272,46.0222],[9.2951,46.1164],[9.304,46.133],[9.34,46.1535],[9.3684,46.16],[9.4246,46.16],[9.4142,46.1368],[9.4146,46.1045],[9.435,46.0845],[9.5093,46.0628],[9.504,46.0492],[9.5269,46.0114],[9.4915,46.0116],[9.5027,45.9701],[9.5401,45.9456],[9.5163,45.9022],[9.5134,45.8826],[9.4666,45.8494],[9.4808,45.8183],[9.5187,45.784],[9.4562,45.7608],[9.4478,45.7499],[9.4558,45.6999],[9.4828,45.6718],[9.4964,45.6453],[9.5271,45.6044],[9.5339,45.5588],[9.5103,45.512],[9.4735,45.4512],[9.461,45.4671],[9.4376,45.4697],[9.417,45.4465],[9.4148,45.4074],[9.3715,45.3806],[9.3615,45.3598],[9.3771,45.3294],[9.378,45.3063],[9.3388,45.3129],[9.3091,45.3279],[9.2204,45.3276],[9.1713,45.2991],[9.043,45.3036],[9.0134,45.3265],[8.9884,45.3216],[9.0104,45.279],[8.983,45.265],[8.9406,45.3042],[8.8647,45.3593],[8.832,45.4082],[8.811,45.4276],[8.7724,45.4937],[8.717,45.523],[8.7052,45.5568]]]}},
{"type":"Feature","properties":{"entityId":"milan-signoria","from":1332,"to":1334,"certainty":"estimated","source":"유럽 쪽은 Natural Earth 1:10m admin-1(v5.1.2) 현대 행정구역 조각을 그 시기 국경에 맞춰 묶고, 조각이 역사 경계와 다른 곳은 선을 그어 나눈 근사. 유럽 밖(시베리아·중앙아시아·극동)은 대략적인 추정. 운영자 검수 필요"},"geometry":{"type":"Polygon","coordinates":[[[8.832,45.4082],[8.7651,45.3907],[8.735,45.3755],[8.7558,45.3542],[8.7119,45.3302],[8.7027,45.3048],[8.6587,45.3164],[8.6329,45.3528],[8.5722,45.3667],[8.5465,45.3642],[8.5126,45.3135],[8.4715,45.3259],[8.4996,45.3477],[8.4835,45.3793],[8.4498,45.3847],[8.4068,45.4242],[8.3914,45.6062],[8.3523,45.6424],[8.3105,45.6971],[8.3694,45.6994],[8.3847,45.725],[8.3499,45.7724],[8.3169,45.7693],[8.3288,45.828],[8.3223,45.854],[8.2704,45.9049],[8.2104,45.9276],[8.1872,45.9477],[8.0906,45.9234],[8.0405,45.9315],[7.9749,45.9036],[7.957,45.9024],[7.9,45.9248],[7.8559,45.9193],[7.8496,45.9397],[7.8982,45.9819],[7.9858,45.9993],[8.0107,46.0297],[8.0182,46.0809],[8.0354,46.0965],[8.0669,46.1006],[8.1106,46.127],[8.1323,46.1594],[8.1295,46.196],[8.1,46.2356],[8.0731,46.2536],[8.0873,46.2718],[8.1285,46.2925],[8.1926,46.3092],[8.2418,46.3541],[8.2915,46.3784],[8.2866,46.4054],[8.3163,46.4337],[8.3859,46.4502],[8.4279,46.4487],[8.4416,46.4349],[8.4463,46.3822],[8.4266,46.3016],[8.4272,46.2514],[8.4565,46.2248],[8.5103,46.2079],[8.5387,46.1876],[8.6018,46.1228],[8.6775,46.0958],[8.729,46.1082],[8.7471,46.0944],[8.809,46.0897],[8.8344,46.0664],[8.791,46.0187],[8.7679,45.9831],[8.8004,45.9785],[8.871,45.9471],[8.9121,45.8834],[8.9,45.8264],[8.9089,45.8283],[8.9046,45.7787],[8.9478,45.7349],[8.9396,45.705],[8.9068,45.6822],[8.932,45.6512],[8.9779,45.675],[8.994,45.648],[9.0587,45.6614],[9.0724,45.6876],[9.1107,45.6954],[9.1479,45.6865],[9.174,45.6636],[9.1851,45.6645],[9.2022,45.7068],[9.235,45.7276],[9.2472,45.7426],[9.2454,45.7735],[9.2705,45.807],[9.3285,45.8599],[9.3233,45.8958],[9.2849,45.9007],[9.2633,45.9613],[9.2846,45.967],[9.272,46.0222],[9.2951,46.1164],[9.304,46.133],[9.34,46.1535],[9.3684,46.16],[9.4246,46.16],[9.4142,46.1368],[9.4146,46.1045],[9.435,46.0845],[9.5093,46.0628],[9.504,46.0492],[9.5269,46.0114],[9.5792,46.022],[9.6259,46.0515],[9.7496,46.0625],[9.8718,46.044],[9.9272,46.0626],[10.0969,46.0909],[10.0943,46.0652],[10.1098,46.0536],[10.1695,46.057],[10.2242,46.0494],[10.2614,46.0171],[10.2046,46.004],[10.1721,45.9746],[10.1185,45.9532],[10.0981,45.9271],[10.0967,45.9015],[10.1328,45.8631],[10.0857,45.8197],[10.0623,45.7841],[10.0725,45.7159],[10.064,45.6967],[10.0361,45.6846],[9.9289,45.6654],[9.8567,45.5797],[9.8599,45.5393],[9.889,45.4626],[9.8915,45.4267],[9.8188,45.4555],[9.8073,45.425],[9.7681,45.431],[9.7649,45.4474],[9.7141,45.4823],[9.6745,45.4368],[9.6234,45.4643],[9.5886,45.4701],[9.5649,45.4582],[9.5103,45.512],[9.4735,45.4512],[9.461,45.4671],[9.4376,45.4697],[9.417,45.4465],[9.4148,45.4074],[9.3715,45.3806],[9.3615,45.3598],[9.3771,45.3294],[9.378,45.3063],[9.3388,45.3129],[9.3091,45.3279],[9.2204,45.3276],[9.1713,45.2991],[9.043,45.3036],[9.0134,45.3265],[8.9884,45.3216],[9.0104,45.279],[8.983,45.265],[8.9406,45.3042],[8.8647,45.3593],[8.832,45.4082]]]}},
{"type":"Feature","properties":{"entityId":"milan-signoria","from":1334,"to":1335,"certainty":"estimated","source":"유럽 쪽은 Natural Earth 1:10m admin-1(v5.1.2) 현대 행정구역 조각을 그 시기 국경에 맞춰 묶고, 조각이 역사 경계와 다른 곳은 선을 그어 나눈 근사. 유럽 밖(시베리아·중앙아시아·극동)은 대략적인 추정. 운영자 검수 필요"},"geometry":{"type":"Polygon","coordinates":[[[9.4735,45.4512],[9.461,45.4671],[9.4376,45.4697],[9.417,45.4465],[9.4148,45.4074],[9.3715,45.3806],[9.3615,45.3598],[9.3771,45.3294],[9.378,45.3063],[9.3388,45.3129],[9.3091,45.3279],[9.2204,45.3276],[9.1713,45.2991],[9.043,45.3036],[9.0134,45.3265],[8.9884,45.3216],[9.0104,45.279],[8.983,45.265],[8.9406,45.3042],[8.8647,45.3593],[8.832,45.4082],[8.7651,45.3907],[8.735,45.3755],[8.7558,45.3542],[8.7119,45.3302],[8.7027,45.3048],[8.6587,45.3164],[8.6329,45.3528],[8.5722,45.3667],[8.5465,45.3642],[8.5126,45.3135],[8.4715,45.3259],[8.4996,45.3477],[8.4835,45.3793],[8.4498,45.3847],[8.4068,45.4242],[8.3914,45.6062],[8.3523,45.6424],[8.3105,45.6971],[8.3694,45.6994],[8.3847,45.725],[8.3499,45.7724],[8.3169,45.7693],[8.3288,45.828],[8.3223,45.854],[8.2704,45.9049],[8.2104,45.9276],[8.1872,45.9477],[8.0906,45.9234],[8.0405,45.9315],[7.9749,45.9036],[7.957,45.9024],[7.9,45.9248],[7.8559,45.9193],[7.8496,45.9397],[7.8982,45.9819],[7.9858,45.9993],[8.0107,46.0297],[8.0182,46.0809],[8.0354,46.0965],[8.0669,46.1006],[8.1106,46.127],[8.1323,46.1594],[8.1295,46.196],[8.1,46.2356],[8.0731,46.2536],[8.0873,46.2718],[8.1285,46.2925],[8.1926,46.3092],[8.2418,46.3541],[8.2915,46.3784],[8.2866,46.4054],[8.3163,46.4337],[8.3859,46.4502],[8.4279,46.4487],[8.4416,46.4349],[8.4463,46.3822],[8.4266,46.3016],[8.4272,46.2514],[8.4565,46.2248],[8.5103,46.2079],[8.5387,46.1876],[8.6018,46.1228],[8.6775,46.0958],[8.729,46.1082],[8.7471,46.0944],[8.809,46.0897],[8.8344,46.0664],[8.791,46.0187],[8.7679,45.9831],[8.8004,45.9785],[8.871,45.9471],[8.9121,45.8834],[8.9,45.8264],[8.9089,45.8283],[8.9046,45.7787],[8.9478,45.7349],[8.9396,45.705],[8.9068,45.6822],[8.932,45.6512],[8.9779,45.675],[8.994,45.648],[9.0587,45.6614],[9.0724,45.6876],[9.1107,45.6954],[9.1479,45.6865],[9.174,45.6636],[9.1851,45.6645],[9.2022,45.7068],[9.235,45.7276],[9.2472,45.7426],[9.2454,45.7735],[9.2705,45.807],[9.3285,45.8599],[9.3233,45.8958],[9.2849,45.9007],[9.2633,45.9613],[9.2846,45.967],[9.272,46.0222],[9.2951,46.1164],[9.304,46.133],[9.34,46.1535],[9.3684,46.16],[9.4246,46.16],[9.4142,46.1368],[9.4146,46.1045],[9.435,46.0845],[9.5093,46.0628],[9.504,46.0492],[9.5269,46.0114],[9.5792,46.022],[9.6259,46.0515],[9.7496,46.0625],[9.8718,46.044],[9.9272,46.0626],[10.0969,46.0909],[10.0943,46.0652],[10.1098,46.0536],[10.1695,46.057],[10.2242,46.0494],[10.2614,46.0171],[10.2046,46.004],[10.1721,45.9746],[10.1185,45.9532],[10.0981,45.9271],[10.0967,45.9015],[10.1328,45.8631],[10.0857,45.8197],[10.0623,45.7841],[10.0725,45.7159],[10.064,45.6967],[10.0361,45.6846],[9.9289,45.6654],[9.8567,45.5797],[9.8599,45.5393],[9.889,45.4626],[9.8915,45.4267],[9.8855,45.3705],[9.9015,45.3507],[10.0083,45.2954],[10.0775,45.2783],[10.1102,45.2594],[10.2214,45.2319],[10.2532,45.2552],[10.3091,45.218],[10.3178,45.2047],[10.3221,45.1833],[10.3923,45.1518],[10.4802,45.1457],[10.4897,45.1092],[10.4684,45.0953],[10.4164,45.0873],[10.4133,45.0423],[10.4897,45.0567],[10.5235,45.08],[10.5296,45.0396],[10.4685,45.0108],[10.4557,44.9824],[10.5333,45.0031],[10.5621,45.0036],[10.5607,44.984],[10.5388,44.9671],[10.4862,44.9531],[10.4641,44.9372],[10.5015,44.9194],[10.4436,44.9367],[10.414,44.9848],[10.3992,44.9913],[10.3504,44.984],[10.2237,45.0382],[10.1835,45.0466],[10.1049,45.0352],[10.0719,45.0375],[10.0463,45.0658],[10.0215,45.1101],[9.9866,45.1287],[9.916,45.108],[9.9231,45.1301],[9.8829,45.1341],[9.8672,45.1604],[9.8128,45.1667],[9.793,45.1787],[9.7712,45.2162],[9.7069,45.2646],[9.6766,45.2708],[9.6104,45.3081],[9.5845,45.3597],[9.5673,45.3668],[9.5535,45.3426],[9.5237,45.3458],[9.4842,45.3759],[9.4683,45.3799],[9.4636,45.4321],[9.4735,45.4512]]]}},
{"type":"Feature","properties":{"entityId":"milan-signoria","from":1335,"to":1337,"certainty":"estimated","source":"유럽 쪽은 Natural Earth 1:10m admin-1(v5.1.2) 현대 행정구역 조각을 그 시기 국경에 맞춰 묶고, 조각이 역사 경계와 다른 곳은 선을 그어 나눈 근사. 유럽 밖(시베리아·중앙아시아·극동)은 대략적인 추정. 운영자 검수 필요"},"geometry":{"type":"Polygon","coordinates":[[[7.8496,45.9397],[7.8982,45.9819],[7.9858,45.9993],[8.0107,46.0297],[8.0182,46.0809],[8.0354,46.0965],[8.0669,46.1006],[8.1106,46.127],[8.1323,46.1594],[8.1295,46.196],[8.1,46.2356],[8.0731,46.2536],[8.0873,46.2718],[8.1285,46.2925],[8.1926,46.3092],[8.2418,46.3541],[8.2915,46.3784],[8.2866,46.4054],[8.3163,46.4337],[8.3859,46.4502],[8.396,46.4909],[8.4476,46.5046],[8.4769,46.5318],[8.5098,46.5509],[8.5238,46.5785],[8.5487,46.585],[8.6363,46.5712],[8.6779,46.5836],[8.7112,46.573],[8.7884,46.5681],[8.8473,46.5752],[8.8981,46.5893],[8.9148,46.6204],[8.956,46.6306],[8.9648,46.6148],[9.0221,46.6049],[9.0385,46.5907],[9.0152,46.5335],[9.0486,46.4809],[9.0773,46.4823],[9.0978,46.4161],[9.0891,46.3637],[9.057,46.299],[9.0875,46.2206],[9.1638,46.173],[9.1813,46.2041],[9.2248,46.2312],[9.2397,46.267],[9.269,46.3094],[9.2738,46.3443],[9.2604,46.3797],[9.2609,46.4167],[9.238,46.4365],[9.2632,46.4851],[9.2823,46.4974],[9.331,46.5015],[9.3771,46.4687],[9.4107,46.4889],[9.4379,46.492],[9.4438,46.3961],[9.4516,46.3704],[9.4826,46.3568],[9.5153,46.3086],[9.5597,46.2927],[9.6743,46.2918],[9.7084,46.3117],[9.7093,46.3424],[9.7309,46.3507],[9.7681,46.3386],[9.8554,46.367],[9.899,46.3722],[9.964,46.3561],[9.9776,46.2981],[10.0317,46.2601],[10.0427,46.2205],[10.0757,46.22],[10.1458,46.2433],[10.1589,46.2624],[10.1049,46.3094],[10.0918,46.329],[10.105,46.3614],[10.1332,46.3811],[10.1334,46.414],[10.0421,46.4327],[10.0263,46.4463],[10.044,46.467],[10.0269,46.4932],[10.0328,46.533],[10.0712,46.5644],[10.0878,46.6044],[10.1921,46.6268],[10.2338,46.618],[10.2347,46.5753],[10.2759,46.5655],[10.2954,46.5511],[10.3543,46.5483],[10.4259,46.5353],[10.4518,46.5467],[10.4939,46.4945],[10.5413,46.4895],[10.6247,46.4545],[10.6387,46.4111],[10.6189,46.3754],[10.5634,46.3674],[10.5279,46.3426],[10.5096,46.3365],[10.4712,46.3546],[10.4459,46.3481],[10.367,46.2931],[10.3179,46.2774],[10.291,46.2213],[10.1785,46.173],[10.1538,46.1348],[10.1781,46.0764],[10.1695,46.057],[10.2242,46.0494],[10.2614,46.0171],[10.2046,46.004],[10.1721,45.9746],[10.1185,45.9532],[10.0981,45.9271],[10.0967,45.9015],[10.1328,45.8631],[10.0857,45.8197],[10.0623,45.7841],[10.0725,45.7159],[10.064,45.6967],[10.0361,45.6846],[9.9289,45.6654],[9.8567,45.5797],[9.8599,45.5393],[9.889,45.4626],[9.8915,45.4267],[9.8855,45.3705],[9.9015,45.3507],[10.0083,45.2954],[10.0775,45.2783],[10.1102,45.2594],[10.2214,45.2319],[10.2532,45.2552],[10.3091,45.218],[10.3178,45.2047],[10.3221,45.1833],[10.3923,45.1518],[10.4802,45.1457],[10.4897,45.1092],[10.4684,45.0953],[10.4164,45.0873],[10.4133,45.0423],[10.4897,45.0567],[10.5235,45.08],[10.5296,45.0396],[10.4685,45.0108],[10.4557,44.9824],[10.5333,45.0031],[10.5621,45.0036],[10.5607,44.984],[10.5388,44.9671],[10.4862,44.9531],[10.4641,44.9372],[10.5015,44.9194],[10.4436,44.9367],[10.414,44.9848],[10.3992,44.9913],[10.3504,44.984],[10.2237,45.0382],[10.1835,45.0466],[10.1049,45.0352],[10.0719,45.0375],[10.0463,45.0658],[10.0215,45.1101],[9.9866,45.1287],[9.916,45.108],[9.9231,45.1301],[9.8829,45.1341],[9.8996,45.0992],[9.8808,45.0916],[9.8302,45.0963],[9.8402,45.0738],[9.7522,45.108],[9.7525,45.082],[9.7223,45.0723],[9.6814,45.0753],[9.6369,45.0939],[9.6404,45.1261],[9.6145,45.1255],[9.5904,45.1126],[9.546,45.1327],[9.5316,45.1653],[9.4387,45.1876],[9.3712,45.2376],[9.312,45.2466],[9.3338,45.276],[9.3388,45.3129],[9.3091,45.3279],[9.2204,45.3276],[9.1713,45.2991],[9.043,45.3036],[9.0134,45.3265],[8.9884,45.3216],[9.0104,45.279],[8.983,45.265],[8.9406,45.3042],[8.8647,45.3593],[8.832,45.4082],[8.7651,45.3907],[8.735,45.3755],[8.7558,45.3542],[8.7119,45.3302],[8.7027,45.3048],[8.6587,45.3164],[8.6329,45.3528],[8.5722,45.3667],[8.5465,45.3642],[8.5126,45.3135],[8.5001,45.2877],[8.5156,45.277],[8.534,45.2176],[8.559,45.1931],[8.5566,45.1648],[8.5021,45.1806],[8.4971,45.198],[8.4047,45.2045],[8.3702,45.1973],[8.3345,45.1711],[8.2688,45.1783],[8.2208,45.1649],[8.1992,45.1761],[8.1721,45.1595],[8.1519,45.1686],[8.1051,45.1865],[8.0596,45.1825],[7.9883,45.2634],[7.9836,45.3134],[7.9557,45.3281],[7.9727,45.3424],[8.0105,45.3404],[8.0245,45.3522],[8.0101,45.4026],[8.027,45.4031],[8.1122,45.3782],[8.1452,45.3964],[8.1686,45.4359],[8.2042,45.4492],[8.2195,45.4713],[8.263,45.5043],[8.2895,45.5565],[8.2675,45.5835],[8.2649,45.6049],[8.2907,45.6312],[8.2804,45.6618],[8.1822,45.7419],[8.1296,45.757],[8.0979,45.7443],[8.0784,45.7209],[8.0258,45.7356],[7.9424,45.7239],[7.9163,45.7297],[7.8823,45.7529],[7.8635,45.806],[7.8477,45.9077],[7.8559,45.9193],[7.8496,45.9397]]]}},
{"type":"Feature","properties":{"entityId":"milan-signoria","from":1337,"to":1344,"certainty":"estimated","source":"유럽 쪽은 Natural Earth 1:10m admin-1(v5.1.2) 현대 행정구역 조각을 그 시기 국경에 맞춰 묶고, 조각이 역사 경계와 다른 곳은 선을 그어 나눈 근사. 유럽 밖(시베리아·중앙아시아·극동)은 대략적인 추정. 운영자 검수 필요"},"geometry":{"type":"Polygon","coordinates":[[[7.8496,45.9397],[7.8982,45.9819],[7.9858,45.9993],[8.0107,46.0297],[8.0182,46.0809],[8.0354,46.0965],[8.0669,46.1006],[8.1106,46.127],[8.1323,46.1594],[8.1295,46.196],[8.1,46.2356],[8.0731,46.2536],[8.0873,46.2718],[8.1285,46.2925],[8.1926,46.3092],[8.2418,46.3541],[8.2915,46.3784],[8.2866,46.4054],[8.3163,46.4337],[8.3859,46.4502],[8.396,46.4909],[8.4476,46.5046],[8.4769,46.5318],[8.5098,46.5509],[8.5238,46.5785],[8.5487,46.585],[8.6363,46.5712],[8.6779,46.5836],[8.7112,46.573],[8.7884,46.5681],[8.8473,46.5752],[8.8981,46.5893],[8.9148,46.6204],[8.956,46.6306],[8.9648,46.6148],[9.0221,46.6049],[9.0385,46.5907],[9.0152,46.5335],[9.0486,46.4809],[9.0773,46.4823],[9.0978,46.4161],[9.0891,46.3637],[9.057,46.299],[9.0875,46.2206],[9.1638,46.173],[9.1813,46.2041],[9.2248,46.2312],[9.2397,46.267],[9.269,46.3094],[9.2738,46.3443],[9.2604,46.3797],[9.2609,46.4167],[9.238,46.4365],[9.2632,46.4851],[9.2823,46.4974],[9.331,46.5015],[9.3771,46.4687],[9.4107,46.4889],[9.4379,46.492],[9.4438,46.3961],[9.4516,46.3704],[9.4826,46.3568],[9.5153,46.3086],[9.5597,46.2927],[9.6743,46.2918],[9.7084,46.3117],[9.7093,46.3424],[9.7309,46.3507],[9.7681,46.3386],[9.8554,46.367],[9.899,46.3722],[9.964,46.3561],[9.9776,46.2981],[10.0317,46.2601],[10.0427,46.2205],[10.0757,46.22],[10.1458,46.2433],[10.1589,46.2624],[10.1049,46.3094],[10.0918,46.329],[10.105,46.3614],[10.1332,46.3811],[10.1334,46.414],[10.0421,46.4327],[10.0263,46.4463],[10.044,46.467],[10.0269,46.4932],[10.0328,46.533],[10.0712,46.5644],[10.0878,46.6044],[10.1921,46.6268],[10.2338,46.618],[10.2347,46.5753],[10.2759,46.5655],[10.2954,46.5511],[10.3543,46.5483],[10.4259,46.5353],[10.4518,46.5467],[10.4939,46.4945],[10.5413,46.4895],[10.6247,46.4545],[10.6387,46.4111],[10.6189,46.3754],[10.5634,46.3674],[10.5279,46.3426],[10.5777,46.3127],[10.5902,46.2334],[10.5673,46.1935],[10.5586,46.118],[10.5152,46.082],[10.4908,46.0269],[10.4686,46.0118],[10.4591,45.985],[10.4956,45.9693],[10.5195,45.9167],[10.5072,45.8775],[10.5229,45.8413],[10.559,45.8244],[10.5562,45.8072],[10.5792,45.7947],[10.621,45.8088],[10.6653,45.8115],[10.6874,45.8453],[10.7286,45.8488],[10.7674,45.8416],[10.8124,45.845],[10.8449,45.8341],[10.8025,45.7889],[10.7829,45.7563],[10.6442,45.6096],[10.6405,45.563],[10.6504,45.498],[10.643,45.448],[10.6618,45.419],[10.6161,45.382],[10.5625,45.3822],[10.5059,45.409],[10.4807,45.4113],[10.4548,45.3891],[10.4682,45.3561],[10.4632,45.3286],[10.4352,45.3159],[10.4022,45.2784],[10.3969,45.2539],[10.3583,45.2389],[10.3614,45.2154],[10.3178,45.2047],[10.3221,45.1833],[10.3923,45.1518],[10.4802,45.1457],[10.4897,45.1092],[10.4684,45.0953],[10.4164,45.0873],[10.4133,45.0423],[10.4897,45.0567],[10.5235,45.08],[10.5296,45.0396],[10.4685,45.0108],[10.4557,44.9824],[10.5333,45.0031],[10.5621,45.0036],[10.5607,44.984],[10.5388,44.9671],[10.4862,44.9531],[10.4641,44.9372],[10.5015,44.9194],[10.4436,44.9367],[10.414,44.9848],[10.3992,44.9913],[10.3504,44.984],[10.2237,45.0382],[10.1835,45.0466],[10.1049,45.0352],[10.0719,45.0375],[10.0369,44.9914],[9.9997,44.9604],[9.9905,44.9264],[10.007,44.8718],[9.9899,44.8549],[9.9289,44.8336],[9.8952,44.8105],[9.86,44.7608],[9.8298,44.7597],[9.7663,44.7064],[9.7651,44.6812],[9.702,44.6713],[9.6769,44.6842],[9.6392,44.6674],[9.6053,44.6287],[9.5076,44.5569],[9.4913,44.551],[9.441,44.5734],[9.4142,44.5941],[9.3518,44.5831],[9.3018,44.606],[9.2638,44.6041],[9.2251,44.6203],[9.2031,44.6138],[9.2014,44.6821],[9.2421,44.683],[9.2475,44.7144],[9.2749,44.6961],[9.3091,44.6957],[9.3226,44.7162],[9.3059,44.7588],[9.3552,44.8265],[9.356,44.8642],[9.3026,44.8962],[9.3065,44.9249],[9.3831,45.045],[9.425,45.1012],[9.5119,45.1012],[9.5419,45.086],[9.546,45.1327],[9.5316,45.1653],[9.4387,45.1876],[9.3712,45.2376],[9.312,45.2466],[9.3338,45.276],[9.3388,45.3129],[9.3091,45.3279],[9.2204,45.3276],[9.1713,45.2991],[9.043,45.3036],[9.0134,45.3265],[8.9884,45.3216],[9.0104,45.279],[8.983,45.265],[8.9406,45.3042],[8.8647,45.3593],[8.832,45.4082],[8.7651,45.3907],[8.735,45.3755],[8.7558,45.3542],[8.7119,45.3302],[8.7027,45.3048],[8.6587,45.3164],[8.6329,45.3528],[8.5722,45.3667],[8.5465,45.3642],[8.5126,45.3135],[8.5001,45.2877],[8.5156,45.277],[8.534,45.2176],[8.559,45.1931],[8.5566,45.1648],[8.5021,45.1806],[8.4971,45.198],[8.4047,45.2045],[8.3702,45.1973],[8.3345,45.1711],[8.2688,45.1783],[8.2208,45.1649],[8.1992,45.1761],[8.1721,45.1595],[8.1519,45.1686],[8.1051,45.1865],[8.0596,45.1825],[7.9883,45.2634],[7.9836,45.3134],[7.9557,45.3281],[7.9727,45.3424],[8.0105,45.3404],[8.0245,45.3522],[8.0101,45.4026],[8.027,45.4031],[8.1122,45.3782],[8.1452,45.3964],[8.1686,45.4359],[8.2042,45.4492],[8.2195,45.4713],[8.263,45.5043],[8.2895,45.5565],[8.2675,45.5835],[8.2649,45.6049],[8.2907,45.6312],[8.2804,45.6618],[8.1822,45.7419],[8.1296,45.757],[8.0979,45.7443],[8.0784,45.7209],[8.0258,45.7356],[7.9424,45.7239],[7.9163,45.7297],[7.8823,45.7529],[7.8635,45.806],[7.8477,45.9077],[7.8559,45.9193],[7.8496,45.9397]]]}},
{"type":"Feature","properties":{"entityId":"milan-signoria","from":1344,"to":1346,"certainty":"estimated","source":"유럽 쪽은 Natural Earth 1:10m admin-1(v5.1.2) 현대 행정구역 조각을 그 시기 국경에 맞춰 묶고, 조각이 역사 경계와 다른 곳은 선을 그어 나눈 근사. 유럽 밖(시베리아·중앙아시아·극동)은 대략적인 추정. 운영자 검수 필요"},"geometry":{"type":"MultiPolygon","coordinates":[[[[7.8496,45.9397],[7.8982,45.9819],[7.9858,45.9993],[8.0107,46.0297],[8.0182,46.0809],[8.0354,46.0965],[8.0669,46.1006],[8.1106,46.127],[8.1323,46.1594],[8.1295,46.196],[8.1,46.2356],[8.0731,46.2536],[8.0873,46.2718],[8.1285,46.2925],[8.1926,46.3092],[8.2418,46.3541],[8.2915,46.3784],[8.2866,46.4054],[8.3163,46.4337],[8.3859,46.4502],[8.396,46.4909],[8.4476,46.5046],[8.4769,46.5318],[8.5098,46.5509],[8.5238,46.5785],[8.5487,46.585],[8.6363,46.5712],[8.6779,46.5836],[8.7112,46.573],[8.7884,46.5681],[8.8473,46.5752],[8.8981,46.5893],[8.9148,46.6204],[8.956,46.6306],[8.9648,46.6148],[9.0221,46.6049],[9.0385,46.5907],[9.0152,46.5335],[9.0486,46.4809],[9.0773,46.4823],[9.0978,46.4161],[9.0891,46.3637],[9.057,46.299],[9.0875,46.2206],[9.1638,46.173],[9.1813,46.2041],[9.2248,46.2312],[9.2397,46.267],[9.269,46.3094],[9.2738,46.3443],[9.2604,46.3797],[9.2609,46.4167],[9.238,46.4365],[9.2632,46.4851],[9.2823,46.4974],[9.331,46.5015],[9.3771,46.4687],[9.4107,46.4889],[9.4379,46.492],[9.4438,46.3961],[9.4516,46.3704],[9.4826,46.3568],[9.5153,46.3086],[9.5597,46.2927],[9.6743,46.2918],[9.7084,46.3117],[9.7093,46.3424],[9.7309,46.3507],[9.7681,46.3386],[9.8554,46.367],[9.899,46.3722],[9.964,46.3561],[9.9776,46.2981],[10.0317,46.2601],[10.0427,46.2205],[10.0757,46.22],[10.1458,46.2433],[10.1589,46.2624],[10.1049,46.3094],[10.0918,46.329],[10.105,46.3614],[10.1332,46.3811],[10.1334,46.414],[10.0421,46.4327],[10.0263,46.4463],[10.044,46.467],[10.0269,46.4932],[10.0328,46.533],[10.0712,46.5644],[10.0878,46.6044],[10.1921,46.6268],[10.2338,46.618],[10.2347,46.5753],[10.2759,46.5655],[10.2954,46.5511],[10.3543,46.5483],[10.4259,46.5353],[10.4518,46.5467],[10.4939,46.4945],[10.5413,46.4895],[10.6247,46.4545],[10.6387,46.4111],[10.6189,46.3754],[10.5634,46.3674],[10.5279,46.3426],[10.5777,46.3127],[10.5902,46.2334],[10.5673,46.1935],[10.5586,46.118],[10.5152,46.082],[10.4908,46.0269],[10.4686,46.0118],[10.4591,45.985],[10.4956,45.9693],[10.5195,45.9167],[10.5072,45.8775],[10.5229,45.8413],[10.559,45.8244],[10.5562,45.8072],[10.5792,45.7947],[10.621,45.8088],[10.6653,45.8115],[10.6874,45.8453],[10.7286,45.8488],[10.7674,45.8416],[10.8124,45.845],[10.8449,45.8341],[10.8025,45.7889],[10.7829,45.7563],[10.6442,45.6096],[10.6405,45.563],[10.6504,45.498],[10.643,45.448],[10.6618,45.419],[10.6161,45.382],[10.5625,45.3822],[10.5059,45.409],[10.4807,45.4113],[10.4548,45.3891],[10.4682,45.3561],[10.4632,45.3286],[10.4352,45.3159],[10.4022,45.2784],[10.3969,45.2539],[10.3583,45.2389],[10.3614,45.2154],[10.3178,45.2047],[10.3221,45.1833],[10.3923,45.1518],[10.4802,45.1457],[10.4897,45.1092],[10.4684,45.0953],[10.4164,45.0873],[10.4133,45.0423],[10.4897,45.0567],[10.5235,45.08],[10.5296,45.0396],[10.4685,45.0108],[10.4557,44.9824],[10.5333,45.0031],[10.5621,45.0036],[10.5607,44.984],[10.5388,44.9671],[10.4862,44.9531],[10.4641,44.9372],[10.5015,44.9194],[10.4436,44.9367],[10.414,44.9848],[10.3992,44.9913],[10.3504,44.984],[10.2237,45.0382],[10.1835,45.0466],[10.1049,45.0352],[10.0719,45.0375],[10.0369,44.9914],[9.9997,44.9604],[9.9905,44.9264],[10.007,44.8718],[9.9899,44.8549],[9.9289,44.8336],[9.8952,44.8105],[9.86,44.7608],[9.8298,44.7597],[9.7663,44.7064],[9.7651,44.6812],[9.702,44.6713],[9.6769,44.6842],[9.6392,44.6674],[9.6053,44.6287],[9.5076,44.5569],[9.4913,44.551],[9.441,44.5734],[9.4142,44.5941],[9.3518,44.5831],[9.3018,44.606],[9.2638,44.6041],[9.2251,44.6203],[9.2031,44.6138],[9.2014,44.6821],[9.2421,44.683],[9.2475,44.7144],[9.2749,44.6961],[9.3091,44.6957],[9.3226,44.7162],[9.3059,44.7588],[9.3552,44.8265],[9.356,44.8642],[9.3026,44.8962],[9.3065,44.9249],[9.3831,45.045],[9.425,45.1012],[9.5119,45.1012],[9.5419,45.086],[9.546,45.1327],[9.5316,45.1653],[9.4387,45.1876],[9.3712,45.2376],[9.312,45.2466],[9.3338,45.276],[9.3388,45.3129],[9.3091,45.3279],[9.2204,45.3276],[9.1713,45.2991],[9.043,45.3036],[9.0134,45.3265],[8.9884,45.3216],[9.0104,45.279],[8.983,45.265],[8.9406,45.3042],[8.8647,45.3593],[8.832,45.4082],[8.7651,45.3907],[8.735,45.3755],[8.7558,45.3542],[8.7119,45.3302],[8.7027,45.3048],[8.6587,45.3164],[8.6329,45.3528],[8.5722,45.3667],[8.5465,45.3642],[8.5126,45.3135],[8.5001,45.2877],[8.5156,45.277],[8.534,45.2176],[8.559,45.1931],[8.5566,45.1648],[8.5021,45.1806],[8.4971,45.198],[8.4047,45.2045],[8.3702,45.1973],[8.3345,45.1711],[8.2688,45.1783],[8.2208,45.1649],[8.1992,45.1761],[8.1721,45.1595],[8.1519,45.1686],[8.1051,45.1865],[8.0596,45.1825],[7.9883,45.2634],[7.9836,45.3134],[7.9557,45.3281],[7.9727,45.3424],[8.0105,45.3404],[8.0245,45.3522],[8.0101,45.4026],[8.027,45.4031],[8.1122,45.3782],[8.1452,45.3964],[8.1686,45.4359],[8.2042,45.4492],[8.2195,45.4713],[8.263,45.5043],[8.2895,45.5565],[8.2675,45.5835],[8.2649,45.6049],[8.2907,45.6312],[8.2804,45.6618],[8.1822,45.7419],[8.1296,45.757],[8.0979,45.7443],[8.0784,45.7209],[8.0258,45.7356],[7.9424,45.7239],[7.9163,45.7297],[7.8823,45.7529],[7.8635,45.806],[7.8477,45.9077],[7.8559,45.9193],[7.8496,45.9397]]],[[[7.9434,44.8463],[7.8907,44.8999],[7.8877,44.9211],[7.9021,44.9659],[7.9295,44.9865],[7.9389,45.0495],[7.8997,45.0605],[7.8935,45.0903],[7.989,45.1257],[8.0468,45.1281],[8.0751,45.0974],[8.0966,45.1257],[8.129,45.123],[8.1104,45.0988],[8.1425,45.0494],[8.1611,45.0373],[8.1923,45.0386],[8.2231,45.0138],[8.2379,45.0559],[8.3032,45.0722],[8.3386,45.0436],[8.3517,44.9979],[8.3884,44.9634],[8.3835,44.9342],[8.3622,44.9118],[8.3723,44.864],[8.3949,44.8445],[8.4243,44.8433],[8.4224,44.8192],[8.4978,44.7947],[8.4989,44.7674],[8.4776,44.7515],[8.422,44.7335],[8.4086,44.6922],[8.3463,44.6898],[8.3495,44.6319],[8.3195,44.6137],[8.3232,44.5903],[8.3604,44.577],[8.3293,44.5593],[8.2948,44.5607],[8.2655,44.5217],[8.2498,44.5346],[8.2341,44.5615],[8.2417,44.5773],[8.1975,44.6328],[8.2318,44.6826],[8.2655,44.7028],[8.2503,44.7243],[8.221,44.7275],[8.1912,44.7489],[8.153,44.7125],[8.1279,44.7457],[8.0923,44.7553],[8.1224,44.7858],[8.1292,44.8115],[8.0908,44.819],[8.024,44.8059],[7.993,44.8214],[7.974,44.8506],[7.9434,44.8463]]]]}},
{"type":"Feature","properties":{"entityId":"milan-signoria","from":1346,"to":1348,"certainty":"estimated","source":"유럽 쪽은 Natural Earth 1:10m admin-1(v5.1.2) 현대 행정구역 조각을 그 시기 국경에 맞춰 묶고, 조각이 역사 경계와 다른 곳은 선을 그어 나눈 근사. 유럽 밖(시베리아·중앙아시아·극동)은 대략적인 추정. 운영자 검수 필요"},"geometry":{"type":"MultiPolygon","coordinates":[[[[7.8496,45.9397],[7.8982,45.9819],[7.9858,45.9993],[8.0107,46.0297],[8.0182,46.0809],[8.0354,46.0965],[8.0669,46.1006],[8.1106,46.127],[8.1323,46.1594],[8.1295,46.196],[8.1,46.2356],[8.0731,46.2536],[8.0873,46.2718],[8.1285,46.2925],[8.1926,46.3092],[8.2418,46.3541],[8.2915,46.3784],[8.2866,46.4054],[8.3163,46.4337],[8.3859,46.4502],[8.396,46.4909],[8.4476,46.5046],[8.4769,46.5318],[8.5098,46.5509],[8.5238,46.5785],[8.5487,46.585],[8.6363,46.5712],[8.6779,46.5836],[8.7112,46.573],[8.7884,46.5681],[8.8473,46.5752],[8.8981,46.5893],[8.9148,46.6204],[8.956,46.6306],[8.9648,46.6148],[9.0221,46.6049],[9.0385,46.5907],[9.0152,46.5335],[9.0486,46.4809],[9.0773,46.4823],[9.0978,46.4161],[9.0891,46.3637],[9.057,46.299],[9.0875,46.2206],[9.1638,46.173],[9.1813,46.2041],[9.2248,46.2312],[9.2397,46.267],[9.269,46.3094],[9.2738,46.3443],[9.2604,46.3797],[9.2609,46.4167],[9.238,46.4365],[9.2632,46.4851],[9.2823,46.4974],[9.331,46.5015],[9.3771,46.4687],[9.4107,46.4889],[9.4379,46.492],[9.4438,46.3961],[9.4516,46.3704],[9.4826,46.3568],[9.5153,46.3086],[9.5597,46.2927],[9.6743,46.2918],[9.7084,46.3117],[9.7093,46.3424],[9.7309,46.3507],[9.7681,46.3386],[9.8554,46.367],[9.899,46.3722],[9.964,46.3561],[9.9776,46.2981],[10.0317,46.2601],[10.0427,46.2205],[10.0757,46.22],[10.1458,46.2433],[10.1589,46.2624],[10.1049,46.3094],[10.0918,46.329],[10.105,46.3614],[10.1332,46.3811],[10.1334,46.414],[10.0421,46.4327],[10.0263,46.4463],[10.044,46.467],[10.0269,46.4932],[10.0328,46.533],[10.0712,46.5644],[10.0878,46.6044],[10.1921,46.6268],[10.2338,46.618],[10.2347,46.5753],[10.2759,46.5655],[10.2954,46.5511],[10.3543,46.5483],[10.4259,46.5353],[10.4518,46.5467],[10.4939,46.4945],[10.5413,46.4895],[10.6247,46.4545],[10.6387,46.4111],[10.6189,46.3754],[10.5634,46.3674],[10.5279,46.3426],[10.5777,46.3127],[10.5902,46.2334],[10.5673,46.1935],[10.5586,46.118],[10.5152,46.082],[10.4908,46.0269],[10.4686,46.0118],[10.4591,45.985],[10.4956,45.9693],[10.5195,45.9167],[10.5072,45.8775],[10.5229,45.8413],[10.559,45.8244],[10.5562,45.8072],[10.5792,45.7947],[10.621,45.8088],[10.6653,45.8115],[10.6874,45.8453],[10.7286,45.8488],[10.7674,45.8416],[10.8124,45.845],[10.8449,45.8341],[10.8025,45.7889],[10.7829,45.7563],[10.6442,45.6096],[10.6405,45.563],[10.6504,45.498],[10.643,45.448],[10.6618,45.419],[10.6161,45.382],[10.5625,45.3822],[10.5059,45.409],[10.4807,45.4113],[10.4548,45.3891],[10.4682,45.3561],[10.4632,45.3286],[10.4352,45.3159],[10.4022,45.2784],[10.3969,45.2539],[10.3583,45.2389],[10.3614,45.2154],[10.3178,45.2047],[10.3221,45.1833],[10.3923,45.1518],[10.4802,45.1457],[10.4897,45.1092],[10.4684,45.0953],[10.4164,45.0873],[10.4133,45.0423],[10.4897,45.0567],[10.5235,45.08],[10.5296,45.0396],[10.4685,45.0108],[10.4557,44.9824],[10.5333,45.0031],[10.5621,45.0036],[10.5607,44.984],[10.5388,44.9671],[10.4862,44.9531],[10.4641,44.9372],[10.5015,44.9194],[10.4631,44.8939],[10.4645,44.853],[10.4343,44.7952],[10.4356,44.7091],[10.4186,44.673],[10.4005,44.5687],[10.364,44.5403],[10.3134,44.4874],[10.2633,44.4508],[10.2197,44.4063],[10.15,44.3678],[10.1357,44.3418],[10.0726,44.3521],[9.9913,44.4066],[10.002,44.4326],[9.9899,44.448],[9.9356,44.4704],[9.8663,44.483],[9.8356,44.4763],[9.7621,44.4094],[9.7436,44.3857],[9.6915,44.3728],[9.6898,44.3577],[9.6514,44.4062],[9.5985,44.4272],[9.5124,44.429],[9.4764,44.4125],[9.4361,44.4199],[9.451,44.4687],[9.4936,44.5117],[9.4913,44.551],[9.441,44.5734],[9.4142,44.5941],[9.3518,44.5831],[9.3018,44.606],[9.2638,44.6041],[9.2251,44.6203],[9.2031,44.6138],[9.2014,44.6821],[9.2421,44.683],[9.2475,44.7144],[9.2749,44.6961],[9.3091,44.6957],[9.3226,44.7162],[9.3059,44.7588],[9.3552,44.8265],[9.356,44.8642],[9.3026,44.8962],[9.3065,44.9249],[9.3831,45.045],[9.425,45.1012],[9.5119,45.1012],[9.5419,45.086],[9.546,45.1327],[9.5316,45.1653],[9.4387,45.1876],[9.3712,45.2376],[9.312,45.2466],[9.3338,45.276],[9.3388,45.3129],[9.3091,45.3279],[9.2204,45.3276],[9.1713,45.2991],[9.043,45.3036],[9.0134,45.3265],[8.9884,45.3216],[9.0104,45.279],[8.983,45.265],[8.9406,45.3042],[8.8647,45.3593],[8.832,45.4082],[8.7651,45.3907],[8.735,45.3755],[8.7558,45.3542],[8.7119,45.3302],[8.7027,45.3048],[8.6587,45.3164],[8.6329,45.3528],[8.5722,45.3667],[8.5465,45.3642],[8.5126,45.3135],[8.5001,45.2877],[8.5156,45.277],[8.534,45.2176],[8.559,45.1931],[8.5566,45.1648],[8.5021,45.1806],[8.4971,45.198],[8.4047,45.2045],[8.3702,45.1973],[8.3345,45.1711],[8.2688,45.1783],[8.2208,45.1649],[8.1992,45.1761],[8.1721,45.1595],[8.1519,45.1686],[8.1051,45.1865],[8.0596,45.1825],[7.9883,45.2634],[7.9836,45.3134],[7.9557,45.3281],[7.9727,45.3424],[8.0105,45.3404],[8.0245,45.3522],[8.0101,45.4026],[8.027,45.4031],[8.1122,45.3782],[8.1452,45.3964],[8.1686,45.4359],[8.2042,45.4492],[8.2195,45.4713],[8.263,45.5043],[8.2895,45.5565],[8.2675,45.5835],[8.2649,45.6049],[8.2907,45.6312],[8.2804,45.6618],[8.1822,45.7419],[8.1296,45.757],[8.0979,45.7443],[8.0784,45.7209],[8.0258,45.7356],[7.9424,45.7239],[7.9163,45.7297],[7.8823,45.7529],[7.8635,45.806],[7.8477,45.9077],[7.8559,45.9193],[7.8496,45.9397]]],[[[7.9434,44.8463],[7.8907,44.8999],[7.8877,44.9211],[7.9021,44.9659],[7.9295,44.9865],[7.9389,45.0495],[7.8997,45.0605],[7.8935,45.0903],[7.989,45.1257],[8.0468,45.1281],[8.0751,45.0974],[8.0966,45.1257],[8.129,45.123],[8.1104,45.0988],[8.1425,45.0494],[8.1611,45.0373],[8.1923,45.0386],[8.2231,45.0138],[8.2379,45.0559],[8.3032,45.0722],[8.3386,45.0436],[8.3517,44.9979],[8.3884,44.9634],[8.3835,44.9342],[8.3622,44.9118],[8.3723,44.864],[8.3949,44.8445],[8.4243,44.8433],[8.4224,44.8192],[8.4978,44.7947],[8.4989,44.7674],[8.4776,44.7515],[8.422,44.7335],[8.4086,44.6922],[8.3463,44.6898],[8.3495,44.6319],[8.3195,44.6137],[8.3232,44.5903],[8.3604,44.577],[8.3293,44.5593],[8.2948,44.5607],[8.2655,44.5217],[8.2498,44.5346],[8.2341,44.5615],[8.2417,44.5773],[8.1975,44.6328],[8.2318,44.6826],[8.2655,44.7028],[8.2503,44.7243],[8.221,44.7275],[8.1912,44.7489],[8.153,44.7125],[8.1279,44.7457],[8.0923,44.7553],[8.1224,44.7858],[8.1292,44.8115],[8.0908,44.819],[8.024,44.8059],[7.993,44.8214],[7.974,44.8506],[7.9434,44.8463]]]]}},
{"type":"Feature","properties":{"entityId":"milan-signoria","from":1348,"to":1351,"certainty":"estimated","source":"유럽 쪽은 Natural Earth 1:10m admin-1(v5.1.2) 현대 행정구역 조각을 그 시기 국경에 맞춰 묶고, 조각이 역사 경계와 다른 곳은 선을 그어 나눈 근사. 유럽 밖(시베리아·중앙아시아·극동)은 대략적인 추정. 운영자 검수 필요"},"geometry":{"type":"Polygon","coordinates":[[[7.8477,45.9077],[7.8635,45.806],[7.8823,45.7529],[7.9163,45.7297],[7.9424,45.7239],[8.0258,45.7356],[8.0784,45.7209],[8.0979,45.7443],[8.1296,45.757],[8.1822,45.7419],[8.2804,45.6618],[8.2907,45.6312],[8.2649,45.6049],[8.2675,45.5835],[8.2895,45.5565],[8.263,45.5043],[8.2195,45.4713],[8.2042,45.4492],[8.1686,45.4359],[8.1452,45.3964],[8.1122,45.3782],[8.027,45.4031],[8.0101,45.4026],[8.0245,45.3522],[8.0105,45.3404],[7.9727,45.3424],[7.9557,45.3281],[7.9836,45.3134],[7.9883,45.2634],[8.0596,45.1825],[8.1051,45.1865],[8.1519,45.1686],[8.129,45.123],[8.0966,45.1257],[8.0751,45.0974],[8.0468,45.1281],[7.989,45.1257],[7.8935,45.0903],[7.8997,45.0605],[7.9389,45.0495],[7.9295,44.9865],[7.9021,44.9659],[7.8877,44.9211],[7.8907,44.8999],[7.9434,44.8463],[7.974,44.8506],[7.993,44.8214],[8.024,44.8059],[8.0908,44.819],[8.1292,44.8115],[8.1224,44.7858],[8.0923,44.7553],[8.1279,44.7457],[8.153,44.7125],[8.1912,44.7489],[8.221,44.7275],[8.2503,44.7243],[8.2655,44.7028],[8.2318,44.6826],[8.1975,44.6328],[8.2417,44.5773],[8.2341,44.5615],[8.2498,44.5346],[8.2655,44.5217],[8.3596,44.481],[8.4141,44.5161],[8.5642,44.5162],[8.6014,44.5493],[8.613,44.5875],[8.7246,44.5786],[8.7648,44.5297],[8.7761,44.5031],[8.8183,44.5409],[8.8257,44.5588],[8.8961,44.5604],[8.9075,44.5695],[8.9079,44.6082],[8.878,44.64],[8.9231,44.6828],[8.9592,44.6826],[8.9759,44.6723],[9.041,44.6322],[9.0891,44.6193],[9.1158,44.5894],[9.1485,44.5811],[9.1993,44.5993],[9.2031,44.6138],[9.2251,44.6203],[9.2638,44.6041],[9.3018,44.606],[9.3518,44.5831],[9.4142,44.5941],[9.441,44.5734],[9.4913,44.551],[9.4936,44.5117],[9.451,44.4687],[9.4361,44.4199],[9.4764,44.4125],[9.5124,44.429],[9.5985,44.4272],[9.6514,44.4062],[9.6898,44.3577],[9.6915,44.3728],[9.7436,44.3857],[9.7621,44.4094],[9.8356,44.4763],[9.8663,44.483],[9.9356,44.4704],[9.9899,44.448],[10.002,44.4326],[9.9913,44.4066],[10.0726,44.3521],[10.1357,44.3418],[10.15,44.3678],[10.2197,44.4063],[10.2633,44.4508],[10.3134,44.4874],[10.364,44.5403],[10.4005,44.5687],[10.4186,44.673],[10.4356,44.7091],[10.4343,44.7952],[10.4645,44.853],[10.4631,44.8939],[10.5015,44.9194],[10.4641,44.9372],[10.4862,44.9531],[10.5388,44.9671],[10.5607,44.984],[10.5621,45.0036],[10.5333,45.0031],[10.4557,44.9824],[10.4685,45.0108],[10.5296,45.0396],[10.5235,45.08],[10.4897,45.0567],[10.4133,45.0423],[10.4164,45.0873],[10.4684,45.0953],[10.4897,45.1092],[10.4802,45.1457],[10.3923,45.1518],[10.3221,45.1833],[10.3178,45.2047],[10.3614,45.2154],[10.3583,45.2389],[10.3969,45.2539],[10.4022,45.2784],[10.4352,45.3159],[10.4632,45.3286],[10.4682,45.3561],[10.4548,45.3891],[10.4807,45.4113],[10.5059,45.409],[10.5625,45.3822],[10.6161,45.382],[10.6618,45.419],[10.643,45.448],[10.6504,45.498],[10.6405,45.563],[10.6442,45.6096],[10.7829,45.7563],[10.8025,45.7889],[10.8449,45.8341],[10.8124,45.845],[10.7674,45.8416],[10.7286,45.8488],[10.6874,45.8453],[10.6653,45.8115],[10.621,45.8088],[10.5792,45.7947],[10.5562,45.8072],[10.559,45.8244],[10.5229,45.8413],[10.5072,45.8775],[10.5195,45.9167],[10.4956,45.9693],[10.4591,45.985],[10.4686,46.0118],[10.4908,46.0269],[10.5152,46.082],[10.5586,46.118],[10.5673,46.1935],[10.5902,46.2334],[10.5777,46.3127],[10.5279,46.3426],[10.5634,46.3674],[10.6189,46.3754],[10.6387,46.4111],[10.6247,46.4545],[10.5413,46.4895],[10.4939,46.4945],[10.4518,46.5467],[10.4259,46.5353],[10.3543,46.5483],[10.2954,46.5511],[10.2759,46.5655],[10.2347,46.5753],[10.2338,46.618],[10.1921,46.6268],[10.0878,46.6044],[10.0712,46.5644],[10.0328,46.533],[10.0269,46.4932],[10.044,46.467],[10.0263,46.4463],[10.0421,46.4327],[10.1334,46.414],[10.1332,46.3811],[10.105,46.3614],[10.0918,46.329],[10.1049,46.3094],[10.1589,46.2624],[10.1458,46.2433],[10.0757,46.22],[10.0427,46.2205],[10.0317,46.2601],[9.9776,46.2981],[9.964,46.3561],[9.899,46.3722],[9.8554,46.367],[9.7681,46.3386],[9.7309,46.3507],[9.7093,46.3424],[9.7084,46.3117],[9.6743,46.2918],[9.5597,46.2927],[9.5153,46.3086],[9.4826,46.3568],[9.4516,46.3704],[9.4438,46.3961],[9.4379,46.492],[9.4107,46.4889],[9.3771,46.4687],[9.331,46.5015],[9.2823,46.4974],[9.2632,46.4851],[9.238,46.4365],[9.2609,46.4167],[9.2604,46.3797],[9.2738,46.3443],[9.269,46.3094],[9.2397,46.267],[9.2248,46.2312],[9.1813,46.2041],[9.1638,46.173],[9.0875,46.2206],[9.057,46.299],[9.0891,46.3637],[9.0978,46.4161],[9.0773,46.4823],[9.0486,46.4809],[9.0152,46.5335],[9.0385,46.5907],[9.0221,46.6049],[8.9648,46.6148],[8.956,46.6306],[8.9148,46.6204],[8.8981,46.5893],[8.8473,46.5752],[8.7884,46.5681],[8.7112,46.573],[8.6779,46.5836],[8.6363,46.5712],[8.5487,46.585],[8.5238,46.5785],[8.5098,46.5509],[8.4769,46.5318],[8.4476,46.5046],[8.396,46.4909],[8.3859,46.4502],[8.3163,46.4337],[8.2866,46.4054],[8.2915,46.3784],[8.2418,46.3541],[8.1926,46.3092],[8.1285,46.2925],[8.0873,46.2718],[8.0731,46.2536],[8.1,46.2356],[8.1295,46.196],[8.1323,46.1594],[8.1106,46.127],[8.0669,46.1006],[8.0354,46.0965],[8.0182,46.0809],[8.0107,46.0297],[7.9858,45.9993],[7.8982,45.9819],[7.8496,45.9397],[7.8559,45.9193],[7.8477,45.9077]],[[8.5001,45.2877],[8.5126,45.3135],[8.5465,45.3642],[8.5722,45.3667],[8.6329,45.3528],[8.6587,45.3164],[8.7027,45.3048],[8.7119,45.3302],[8.7558,45.3542],[8.735,45.3755],[8.7651,45.3907],[8.832,45.4082],[8.8647,45.3593],[8.9406,45.3042],[8.983,45.265],[9.0104,45.279],[8.9884,45.3216],[9.0134,45.3265],[9.043,45.3036],[9.1713,45.2991],[9.2204,45.3276],[9.3091,45.3279],[9.3388,45.3129],[9.3338,45.276],[9.312,45.2466],[9.3712,45.2376],[9.4387,45.1876],[9.5316,45.1653],[9.546,45.1327],[9.5419,45.086],[9.5119,45.1012],[9.425,45.1012],[9.3831,45.045],[9.3065,44.9249],[9.3026,44.8962],[9.356,44.8642],[9.3552,44.8265],[9.3059,44.7588],[9.3226,44.7162],[9.3091,44.6957],[9.2749,44.6961],[9.2475,44.7144],[9.2421,44.683],[9.2014,44.6821],[9.2059,44.7208],[9.1714,44.7856],[9.1406,44.8156],[9.0937,44.8181],[9.0483,44.8488],[9.0503,44.8834],[8.9965,44.9179],[8.9701,44.9444],[8.9571,44.9813],[8.8824,45.0005],[8.8782,45.05],[8.8779,45.0538],[8.8504,45.0584],[8.8296,45.05],[8.7741,45.0276],[8.75,45.027],[8.6691,45.0248],[8.6455,45.0412],[8.6076,45.108],[8.5733,45.1371],[8.5566,45.1648],[8.559,45.1931],[8.534,45.2176],[8.5156,45.277],[8.5001,45.2877]]]}},
{"type":"Feature","properties":{"entityId":"milan-signoria","from":1351,"to":1359,"certainty":"estimated","source":"유럽 쪽은 Natural Earth 1:10m admin-1(v5.1.2) 현대 행정구역 조각을 그 시기 국경에 맞춰 묶고, 조각이 역사 경계와 다른 곳은 선을 그어 나눈 근사. 유럽 밖(시베리아·중앙아시아·극동)은 대략적인 추정. 운영자 검수 필요"},"geometry":{"type":"MultiPolygon","coordinates":[[[[7.8477,45.9077],[7.8635,45.806],[7.8823,45.7529],[7.9163,45.7297],[7.9424,45.7239],[8.0258,45.7356],[8.0784,45.7209],[8.0979,45.7443],[8.1296,45.757],[8.1822,45.7419],[8.2804,45.6618],[8.2907,45.6312],[8.2649,45.6049],[8.2675,45.5835],[8.2895,45.5565],[8.263,45.5043],[8.2195,45.4713],[8.2042,45.4492],[8.1686,45.4359],[8.1452,45.3964],[8.1122,45.3782],[8.027,45.4031],[8.0101,45.4026],[8.0245,45.3522],[8.0105,45.3404],[7.9727,45.3424],[7.9557,45.3281],[7.9836,45.3134],[7.9883,45.2634],[8.0596,45.1825],[8.1051,45.1865],[8.1519,45.1686],[8.129,45.123],[8.0966,45.1257],[8.0751,45.0974],[8.0468,45.1281],[7.989,45.1257],[7.8935,45.0903],[7.8997,45.0605],[7.9389,45.0495],[7.9295,44.9865],[7.9021,44.9659],[7.8877,44.9211],[7.8907,44.8999],[7.9434,44.8463],[7.974,44.8506],[7.993,44.8214],[8.024,44.8059],[8.0908,44.819],[8.1292,44.8115],[8.1224,44.7858],[8.0923,44.7553],[8.1279,44.7457],[8.153,44.7125],[8.1912,44.7489],[8.221,44.7275],[8.2503,44.7243],[8.2655,44.7028],[8.2318,44.6826],[8.1975,44.6328],[8.2417,44.5773],[8.2341,44.5615],[8.2498,44.5346],[8.2655,44.5217],[8.3596,44.481],[8.4141,44.5161],[8.5642,44.5162],[8.6014,44.5493],[8.613,44.5875],[8.7246,44.5786],[8.7648,44.5297],[8.7761,44.5031],[8.8183,44.5409],[8.8257,44.5588],[8.8961,44.5604],[8.9075,44.5695],[8.9079,44.6082],[8.878,44.64],[8.9231,44.6828],[8.9592,44.6826],[8.9759,44.6723],[9.041,44.6322],[9.0891,44.6193],[9.1158,44.5894],[9.1485,44.5811],[9.1993,44.5993],[9.2031,44.6138],[9.2251,44.6203],[9.2638,44.6041],[9.3018,44.606],[9.3518,44.5831],[9.4142,44.5941],[9.441,44.5734],[9.4913,44.551],[9.4936,44.5117],[9.451,44.4687],[9.4361,44.4199],[9.4764,44.4125],[9.5124,44.429],[9.5985,44.4272],[9.6514,44.4062],[9.6898,44.3577],[9.6915,44.3728],[9.7436,44.3857],[9.7621,44.4094],[9.8356,44.4763],[9.8663,44.483],[9.9356,44.4704],[9.9899,44.448],[10.002,44.4326],[9.9913,44.4066],[10.0726,44.3521],[10.1357,44.3418],[10.15,44.3678],[10.2197,44.4063],[10.2633,44.4508],[10.3134,44.4874],[10.364,44.5403],[10.4005,44.5687],[10.4186,44.673],[10.4356,44.7091],[10.4343,44.7952],[10.4645,44.853],[10.4631,44.8939],[10.5015,44.9194],[10.4641,44.9372],[10.4862,44.9531],[10.5388,44.9671],[10.5607,44.984],[10.5621,45.0036],[10.5333,45.0031],[10.4557,44.9824],[10.4685,45.0108],[10.5296,45.0396],[10.5235,45.08],[10.4897,45.0567],[10.4133,45.0423],[10.4164,45.0873],[10.4684,45.0953],[10.4897,45.1092],[10.4802,45.1457],[10.3923,45.1518],[10.3221,45.1833],[10.3178,45.2047],[10.3614,45.2154],[10.3583,45.2389],[10.3969,45.2539],[10.4022,45.2784],[10.4352,45.3159],[10.4632,45.3286],[10.4682,45.3561],[10.4548,45.3891],[10.4807,45.4113],[10.5059,45.409],[10.5625,45.3822],[10.6161,45.382],[10.6618,45.419],[10.643,45.448],[10.6504,45.498],[10.6405,45.563],[10.6442,45.6096],[10.7829,45.7563],[10.8025,45.7889],[10.8449,45.8341],[10.8124,45.845],[10.7674,45.8416],[10.7286,45.8488],[10.6874,45.8453],[10.6653,45.8115],[10.621,45.8088],[10.5792,45.7947],[10.5562,45.8072],[10.559,45.8244],[10.5229,45.8413],[10.5072,45.8775],[10.5195,45.9167],[10.4956,45.9693],[10.4591,45.985],[10.4686,46.0118],[10.4908,46.0269],[10.5152,46.082],[10.5586,46.118],[10.5673,46.1935],[10.5902,46.2334],[10.5777,46.3127],[10.5279,46.3426],[10.5634,46.3674],[10.6189,46.3754],[10.6387,46.4111],[10.6247,46.4545],[10.5413,46.4895],[10.4939,46.4945],[10.4518,46.5467],[10.4259,46.5353],[10.3543,46.5483],[10.2954,46.5511],[10.2759,46.5655],[10.2347,46.5753],[10.2338,46.618],[10.1921,46.6268],[10.0878,46.6044],[10.0712,46.5644],[10.0328,46.533],[10.0269,46.4932],[10.044,46.467],[10.0263,46.4463],[10.0421,46.4327],[10.1334,46.414],[10.1332,46.3811],[10.105,46.3614],[10.0918,46.329],[10.1049,46.3094],[10.1589,46.2624],[10.1458,46.2433],[10.0757,46.22],[10.0427,46.2205],[10.0317,46.2601],[9.9776,46.2981],[9.964,46.3561],[9.899,46.3722],[9.8554,46.367],[9.7681,46.3386],[9.7309,46.3507],[9.7093,46.3424],[9.7084,46.3117],[9.6743,46.2918],[9.5597,46.2927],[9.5153,46.3086],[9.4826,46.3568],[9.4516,46.3704],[9.4438,46.3961],[9.4379,46.492],[9.4107,46.4889],[9.3771,46.4687],[9.331,46.5015],[9.2823,46.4974],[9.2632,46.4851],[9.238,46.4365],[9.2609,46.4167],[9.2604,46.3797],[9.2738,46.3443],[9.269,46.3094],[9.2397,46.267],[9.2248,46.2312],[9.1813,46.2041],[9.1638,46.173],[9.0875,46.2206],[9.057,46.299],[9.0891,46.3637],[9.0978,46.4161],[9.0773,46.4823],[9.0486,46.4809],[9.0152,46.5335],[9.0385,46.5907],[9.0221,46.6049],[8.9648,46.6148],[8.956,46.6306],[8.9148,46.6204],[8.8981,46.5893],[8.8473,46.5752],[8.7884,46.5681],[8.7112,46.573],[8.6779,46.5836],[8.6363,46.5712],[8.5487,46.585],[8.5238,46.5785],[8.5098,46.5509],[8.4769,46.5318],[8.4476,46.5046],[8.396,46.4909],[8.3859,46.4502],[8.3163,46.4337],[8.2866,46.4054],[8.2915,46.3784],[8.2418,46.3541],[8.1926,46.3092],[8.1285,46.2925],[8.0873,46.2718],[8.0731,46.2536],[8.1,46.2356],[8.1295,46.196],[8.1323,46.1594],[8.1106,46.127],[8.0669,46.1006],[8.0354,46.0965],[8.0182,46.0809],[8.0107,46.0297],[7.9858,45.9993],[7.8982,45.9819],[7.8496,45.9397],[7.8559,45.9193],[7.8477,45.9077]],[[8.5001,45.2877],[8.5126,45.3135],[8.5465,45.3642],[8.5722,45.3667],[8.6329,45.3528],[8.6587,45.3164],[8.7027,45.3048],[8.7119,45.3302],[8.7558,45.3542],[8.735,45.3755],[8.7651,45.3907],[8.832,45.4082],[8.8647,45.3593],[8.9406,45.3042],[8.983,45.265],[9.0104,45.279],[8.9884,45.3216],[9.0134,45.3265],[9.043,45.3036],[9.1713,45.2991],[9.2204,45.3276],[9.3091,45.3279],[9.3388,45.3129],[9.3338,45.276],[9.312,45.2466],[9.3712,45.2376],[9.4387,45.1876],[9.5316,45.1653],[9.546,45.1327],[9.5419,45.086],[9.5119,45.1012],[9.425,45.1012],[9.3831,45.045],[9.3065,44.9249],[9.3026,44.8962],[9.356,44.8642],[9.3552,44.8265],[9.3059,44.7588],[9.3226,44.7162],[9.3091,44.6957],[9.2749,44.6961],[9.2475,44.7144],[9.2421,44.683],[9.2014,44.6821],[9.2059,44.7208],[9.1714,44.7856],[9.1406,44.8156],[9.0937,44.8181],[9.0483,44.8488],[9.0503,44.8834],[8.9965,44.9179],[8.9701,44.9444],[8.9571,44.9813],[8.8824,45.0005],[8.8782,45.05],[8.8779,45.0538],[8.8504,45.0584],[8.8296,45.05],[8.7741,45.0276],[8.75,45.027],[8.6691,45.0248],[8.6455,45.0412],[8.6076,45.108],[8.5733,45.1371],[8.5566,45.1648],[8.559,45.1931],[8.534,45.2176],[8.5156,45.277],[8.5001,45.2877]]],[[[10.8082,44.1502],[10.8159,44.1135],[10.9232,44.068],[10.9866,44.1277],[11.0173,44.1335],[11.0013,44.1127],[11.0483,44.0924],[11.2001,44.1047],[11.246,44.1069],[11.2551,44.119],[11.2064,44.1361],[11.2036,44.1588],[11.2911,44.1708],[11.342,44.2087],[11.3757,44.2117],[11.392,44.2324],[11.4319,44.2271],[11.496,44.1665],[11.5263,44.1622],[11.5422,44.2014],[11.5736,44.2292],[11.6211,44.2444],[11.6643,44.2874],[11.6834,44.3182],[11.7168,44.3069],[11.7562,44.3188],[11.8203,44.3957],[11.8197,44.4131],[11.7923,44.4304],[11.7824,44.471],[11.7475,44.4949],[11.7506,44.5144],[11.7838,44.5304],[11.7893,44.5544],[11.7615,44.572],[11.7959,44.6205],[11.7882,44.6366],[11.7497,44.6508],[11.6941,44.6299],[11.6732,44.6359],[11.6063,44.6964],[11.4677,44.7523],[11.375,44.7775],[11.3551,44.7703],[11.2866,44.7119],[11.2646,44.707],[11.2726,44.7488],[11.2596,44.7668],[11.2933,44.8027],[11.2636,44.8042],[11.1495,44.792],[11.1296,44.7808],[11.108,44.7072],[11.0781,44.647],[11.1103,44.6292],[11.1317,44.6013],[11.1363,44.5682],[11.118,44.5344],[11.0728,44.529],[11.0493,44.474],[11.0081,44.4623],[10.9924,44.4444],[11.0448,44.4092],[11.0266,44.3784],[11.039,44.34],[11.0206,44.3076],[10.9609,44.3016],[10.9507,44.2873],[10.9698,44.2602],[10.9606,44.2325],[10.9188,44.2142],[10.855,44.2309],[10.8521,44.206],[10.8228,44.1842],[10.8082,44.1502]]]]}},
{"type":"Feature","properties":{"entityId":"milan-signoria","from":1359,"to":1360,"certainty":"estimated","source":"유럽 쪽은 Natural Earth 1:10m admin-1(v5.1.2) 현대 행정구역 조각을 그 시기 국경에 맞춰 묶고, 조각이 역사 경계와 다른 곳은 선을 그어 나눈 근사. 유럽 밖(시베리아·중앙아시아·극동)은 대략적인 추정. 운영자 검수 필요"},"geometry":{"type":"MultiPolygon","coordinates":[[[[7.8477,45.9077],[7.8635,45.806],[7.8823,45.7529],[7.9163,45.7297],[7.9424,45.7239],[8.0258,45.7356],[8.0784,45.7209],[8.0979,45.7443],[8.1296,45.757],[8.1822,45.7419],[8.2804,45.6618],[8.2907,45.6312],[8.2649,45.6049],[8.2675,45.5835],[8.2895,45.5565],[8.263,45.5043],[8.2195,45.4713],[8.2042,45.4492],[8.1686,45.4359],[8.1452,45.3964],[8.1122,45.3782],[8.027,45.4031],[8.0101,45.4026],[8.0245,45.3522],[8.0105,45.3404],[7.9727,45.3424],[7.9557,45.3281],[7.9836,45.3134],[7.9883,45.2634],[8.0596,45.1825],[8.1051,45.1865],[8.1519,45.1686],[8.129,45.123],[8.0966,45.1257],[8.0751,45.0974],[8.0468,45.1281],[7.989,45.1257],[7.8935,45.0903],[7.8997,45.0605],[7.9389,45.0495],[7.9295,44.9865],[7.9021,44.9659],[7.8877,44.9211],[7.8907,44.8999],[7.9434,44.8463],[7.974,44.8506],[7.993,44.8214],[8.024,44.8059],[8.0908,44.819],[8.1292,44.8115],[8.1224,44.7858],[8.0923,44.7553],[8.1279,44.7457],[8.153,44.7125],[8.1912,44.7489],[8.221,44.7275],[8.2503,44.7243],[8.2655,44.7028],[8.2318,44.6826],[8.1975,44.6328],[8.2417,44.5773],[8.2341,44.5615],[8.2498,44.5346],[8.2655,44.5217],[8.3596,44.481],[8.4141,44.5161],[8.5642,44.5162],[8.6014,44.5493],[8.613,44.5875],[8.7246,44.5786],[8.7648,44.5297],[8.7761,44.5031],[8.8183,44.5409],[8.8257,44.5588],[8.8961,44.5604],[8.9075,44.5695],[8.9079,44.6082],[8.878,44.64],[8.9231,44.6828],[8.9592,44.6826],[8.9759,44.6723],[9.041,44.6322],[9.0891,44.6193],[9.1158,44.5894],[9.1485,44.5811],[9.1993,44.5993],[9.2031,44.6138],[9.2251,44.6203],[9.2638,44.6041],[9.3018,44.606],[9.3518,44.5831],[9.4142,44.5941],[9.441,44.5734],[9.4913,44.551],[9.4936,44.5117],[9.451,44.4687],[9.4361,44.4199],[9.4764,44.4125],[9.5124,44.429],[9.5985,44.4272],[9.6514,44.4062],[9.6898,44.3577],[9.6915,44.3728],[9.7436,44.3857],[9.7621,44.4094],[9.8356,44.4763],[9.8663,44.483],[9.9356,44.4704],[9.9899,44.448],[10.002,44.4326],[9.9913,44.4066],[10.0726,44.3521],[10.1357,44.3418],[10.15,44.3678],[10.2197,44.4063],[10.2633,44.4508],[10.3134,44.4874],[10.364,44.5403],[10.4005,44.5687],[10.4186,44.673],[10.4356,44.7091],[10.4343,44.7952],[10.4645,44.853],[10.4631,44.8939],[10.5015,44.9194],[10.4641,44.9372],[10.4862,44.9531],[10.5388,44.9671],[10.5607,44.984],[10.5621,45.0036],[10.5333,45.0031],[10.4557,44.9824],[10.4685,45.0108],[10.5296,45.0396],[10.5235,45.08],[10.4897,45.0567],[10.4133,45.0423],[10.4164,45.0873],[10.4684,45.0953],[10.4897,45.1092],[10.4802,45.1457],[10.3923,45.1518],[10.3221,45.1833],[10.3178,45.2047],[10.3614,45.2154],[10.3583,45.2389],[10.3969,45.2539],[10.4022,45.2784],[10.4352,45.3159],[10.4632,45.3286],[10.4682,45.3561],[10.4548,45.3891],[10.4807,45.4113],[10.5059,45.409],[10.5625,45.3822],[10.6161,45.382],[10.6618,45.419],[10.643,45.448],[10.6504,45.498],[10.6405,45.563],[10.6442,45.6096],[10.7829,45.7563],[10.8025,45.7889],[10.8449,45.8341],[10.8124,45.845],[10.7674,45.8416],[10.7286,45.8488],[10.6874,45.8453],[10.6653,45.8115],[10.621,45.8088],[10.5792,45.7947],[10.5562,45.8072],[10.559,45.8244],[10.5229,45.8413],[10.5072,45.8775],[10.5195,45.9167],[10.4956,45.9693],[10.4591,45.985],[10.4686,46.0118],[10.4908,46.0269],[10.5152,46.082],[10.5586,46.118],[10.5673,46.1935],[10.5902,46.2334],[10.5777,46.3127],[10.5279,46.3426],[10.5634,46.3674],[10.6189,46.3754],[10.6387,46.4111],[10.6247,46.4545],[10.5413,46.4895],[10.4939,46.4945],[10.4518,46.5467],[10.4259,46.5353],[10.3543,46.5483],[10.2954,46.5511],[10.2759,46.5655],[10.2347,46.5753],[10.2338,46.618],[10.1921,46.6268],[10.0878,46.6044],[10.0712,46.5644],[10.0328,46.533],[10.0269,46.4932],[10.044,46.467],[10.0263,46.4463],[10.0421,46.4327],[10.1334,46.414],[10.1332,46.3811],[10.105,46.3614],[10.0918,46.329],[10.1049,46.3094],[10.1589,46.2624],[10.1458,46.2433],[10.0757,46.22],[10.0427,46.2205],[10.0317,46.2601],[9.9776,46.2981],[9.964,46.3561],[9.899,46.3722],[9.8554,46.367],[9.7681,46.3386],[9.7309,46.3507],[9.7093,46.3424],[9.7084,46.3117],[9.6743,46.2918],[9.5597,46.2927],[9.5153,46.3086],[9.4826,46.3568],[9.4516,46.3704],[9.4438,46.3961],[9.4379,46.492],[9.4107,46.4889],[9.3771,46.4687],[9.331,46.5015],[9.2823,46.4974],[9.2632,46.4851],[9.238,46.4365],[9.2609,46.4167],[9.2604,46.3797],[9.2738,46.3443],[9.269,46.3094],[9.2397,46.267],[9.2248,46.2312],[9.1813,46.2041],[9.1638,46.173],[9.0875,46.2206],[9.057,46.299],[9.0891,46.3637],[9.0978,46.4161],[9.0773,46.4823],[9.0486,46.4809],[9.0152,46.5335],[9.0385,46.5907],[9.0221,46.6049],[8.9648,46.6148],[8.956,46.6306],[8.9148,46.6204],[8.8981,46.5893],[8.8473,46.5752],[8.7884,46.5681],[8.7112,46.573],[8.6779,46.5836],[8.6363,46.5712],[8.5487,46.585],[8.5238,46.5785],[8.5098,46.5509],[8.4769,46.5318],[8.4476,46.5046],[8.396,46.4909],[8.3859,46.4502],[8.3163,46.4337],[8.2866,46.4054],[8.2915,46.3784],[8.2418,46.3541],[8.1926,46.3092],[8.1285,46.2925],[8.0873,46.2718],[8.0731,46.2536],[8.1,46.2356],[8.1295,46.196],[8.1323,46.1594],[8.1106,46.127],[8.0669,46.1006],[8.0354,46.0965],[8.0182,46.0809],[8.0107,46.0297],[7.9858,45.9993],[7.8982,45.9819],[7.8496,45.9397],[7.8559,45.9193],[7.8477,45.9077]]],[[[10.8082,44.1502],[10.8159,44.1135],[10.9232,44.068],[10.9866,44.1277],[11.0173,44.1335],[11.0013,44.1127],[11.0483,44.0924],[11.2001,44.1047],[11.246,44.1069],[11.2551,44.119],[11.2064,44.1361],[11.2036,44.1588],[11.2911,44.1708],[11.342,44.2087],[11.3757,44.2117],[11.392,44.2324],[11.4319,44.2271],[11.496,44.1665],[11.5263,44.1622],[11.5422,44.2014],[11.5736,44.2292],[11.6211,44.2444],[11.6643,44.2874],[11.6834,44.3182],[11.7168,44.3069],[11.7562,44.3188],[11.8203,44.3957],[11.8197,44.4131],[11.7923,44.4304],[11.7824,44.471],[11.7475,44.4949],[11.7506,44.5144],[11.7838,44.5304],[11.7893,44.5544],[11.7615,44.572],[11.7959,44.6205],[11.7882,44.6366],[11.7497,44.6508],[11.6941,44.6299],[11.6732,44.6359],[11.6063,44.6964],[11.4677,44.7523],[11.375,44.7775],[11.3551,44.7703],[11.2866,44.7119],[11.2646,44.707],[11.2726,44.7488],[11.2596,44.7668],[11.2933,44.8027],[11.2636,44.8042],[11.1495,44.792],[11.1296,44.7808],[11.108,44.7072],[11.0781,44.647],[11.1103,44.6292],[11.1317,44.6013],[11.1363,44.5682],[11.118,44.5344],[11.0728,44.529],[11.0493,44.474],[11.0081,44.4623],[10.9924,44.4444],[11.0448,44.4092],[11.0266,44.3784],[11.039,44.34],[11.0206,44.3076],[10.9609,44.3016],[10.9507,44.2873],[10.9698,44.2602],[10.9606,44.2325],[10.9188,44.2142],[10.855,44.2309],[10.8521,44.206],[10.8228,44.1842],[10.8082,44.1502]]]]}},
{"type":"Feature","properties":{"entityId":"milan-signoria","from":1360,"to":1387,"certainty":"estimated","source":"유럽 쪽은 Natural Earth 1:10m admin-1(v5.1.2) 현대 행정구역 조각을 그 시기 국경에 맞춰 묶고, 조각이 역사 경계와 다른 곳은 선을 그어 나눈 근사. 유럽 밖(시베리아·중앙아시아·극동)은 대략적인 추정. 운영자 검수 필요"},"geometry":{"type":"Polygon","coordinates":[[[7.8477,45.9077],[7.8635,45.806],[7.8823,45.7529],[7.9163,45.7297],[7.9424,45.7239],[8.0258,45.7356],[8.0784,45.7209],[8.0979,45.7443],[8.1296,45.757],[8.1822,45.7419],[8.2804,45.6618],[8.2907,45.6312],[8.2649,45.6049],[8.2675,45.5835],[8.2895,45.5565],[8.263,45.5043],[8.2195,45.4713],[8.2042,45.4492],[8.1686,45.4359],[8.1452,45.3964],[8.1122,45.3782],[8.027,45.4031],[8.0101,45.4026],[8.0245,45.3522],[8.0105,45.3404],[7.9727,45.3424],[7.9557,45.3281],[7.9836,45.3134],[7.9883,45.2634],[8.0596,45.1825],[8.1051,45.1865],[8.1519,45.1686],[8.129,45.123],[8.0966,45.1257],[8.0751,45.0974],[8.0468,45.1281],[7.989,45.1257],[7.8935,45.0903],[7.8997,45.0605],[7.9389,45.0495],[7.9295,44.9865],[7.9021,44.9659],[7.8877,44.9211],[7.8907,44.8999],[7.9434,44.8463],[7.974,44.8506],[7.993,44.8214],[8.024,44.8059],[8.0908,44.819],[8.1292,44.8115],[8.1224,44.7858],[8.0923,44.7553],[8.1279,44.7457],[8.153,44.7125],[8.1912,44.7489],[8.221,44.7275],[8.2503,44.7243],[8.2655,44.7028],[8.2318,44.6826],[8.1975,44.6328],[8.2417,44.5773],[8.2341,44.5615],[8.2498,44.5346],[8.2655,44.5217],[8.3596,44.481],[8.4141,44.5161],[8.5642,44.5162],[8.6014,44.5493],[8.613,44.5875],[8.7246,44.5786],[8.7648,44.5297],[8.7761,44.5031],[8.8183,44.5409],[8.8257,44.5588],[8.8961,44.5604],[8.9075,44.5695],[8.9079,44.6082],[8.878,44.64],[8.9231,44.6828],[8.9592,44.6826],[8.9759,44.6723],[9.041,44.6322],[9.0891,44.6193],[9.1158,44.5894],[9.1485,44.5811],[9.1993,44.5993],[9.2031,44.6138],[9.2251,44.6203],[9.2638,44.6041],[9.3018,44.606],[9.3518,44.5831],[9.4142,44.5941],[9.441,44.5734],[9.4913,44.551],[9.4936,44.5117],[9.451,44.4687],[9.4361,44.4199],[9.4764,44.4125],[9.5124,44.429],[9.5985,44.4272],[9.6514,44.4062],[9.6898,44.3577],[9.6915,44.3728],[9.7436,44.3857],[9.7621,44.4094],[9.8356,44.4763],[9.8663,44.483],[9.9356,44.4704],[9.9899,44.448],[10.002,44.4326],[9.9913,44.4066],[10.0726,44.3521],[10.1357,44.3418],[10.15,44.3678],[10.2197,44.4063],[10.2633,44.4508],[10.3134,44.4874],[10.364,44.5403],[10.4005,44.5687],[10.4186,44.673],[10.4356,44.7091],[10.4343,44.7952],[10.4645,44.853],[10.4631,44.8939],[10.5015,44.9194],[10.4641,44.9372],[10.4862,44.9531],[10.5388,44.9671],[10.5607,44.984],[10.5621,45.0036],[10.5333,45.0031],[10.4557,44.9824],[10.4685,45.0108],[10.5296,45.0396],[10.5235,45.08],[10.4897,45.0567],[10.4133,45.0423],[10.4164,45.0873],[10.4684,45.0953],[10.4897,45.1092],[10.4802,45.1457],[10.3923,45.1518],[10.3221,45.1833],[10.3178,45.2047],[10.3614,45.2154],[10.3583,45.2389],[10.3969,45.2539],[10.4022,45.2784],[10.4352,45.3159],[10.4632,45.3286],[10.4682,45.3561],[10.4548,45.3891],[10.4807,45.4113],[10.5059,45.409],[10.5625,45.3822],[10.6161,45.382],[10.6618,45.419],[10.643,45.448],[10.6504,45.498],[10.6405,45.563],[10.6442,45.6096],[10.7829,45.7563],[10.8025,45.7889],[10.8449,45.8341],[10.8124,45.845],[10.7674,45.8416],[10.7286,45.8488],[10.6874,45.8453],[10.6653,45.8115],[10.621,45.8088],[10.5792,45.7947],[10.5562,45.8072],[10.559,45.8244],[10.5229,45.8413],[10.5072,45.8775],[10.5195,45.9167],[10.4956,45.9693],[10.4591,45.985],[10.4686,46.0118],[10.4908,46.0269],[10.5152,46.082],[10.5586,46.118],[10.5673,46.1935],[10.5902,46.2334],[10.5777,46.3127],[10.5279,46.3426],[10.5634,46.3674],[10.6189,46.3754],[10.6387,46.4111],[10.6247,46.4545],[10.5413,46.4895],[10.4939,46.4945],[10.4518,46.5467],[10.4259,46.5353],[10.3543,46.5483],[10.2954,46.5511],[10.2759,46.5655],[10.2347,46.5753],[10.2338,46.618],[10.1921,46.6268],[10.0878,46.6044],[10.0712,46.5644],[10.0328,46.533],[10.0269,46.4932],[10.044,46.467],[10.0263,46.4463],[10.0421,46.4327],[10.1334,46.414],[10.1332,46.3811],[10.105,46.3614],[10.0918,46.329],[10.1049,46.3094],[10.1589,46.2624],[10.1458,46.2433],[10.0757,46.22],[10.0427,46.2205],[10.0317,46.2601],[9.9776,46.2981],[9.964,46.3561],[9.899,46.3722],[9.8554,46.367],[9.7681,46.3386],[9.7309,46.3507],[9.7093,46.3424],[9.7084,46.3117],[9.6743,46.2918],[9.5597,46.2927],[9.5153,46.3086],[9.4826,46.3568],[9.4516,46.3704],[9.4438,46.3961],[9.4379,46.492],[9.4107,46.4889],[9.3771,46.4687],[9.331,46.5015],[9.2823,46.4974],[9.2632,46.4851],[9.238,46.4365],[9.2609,46.4167],[9.2604,46.3797],[9.2738,46.3443],[9.269,46.3094],[9.2397,46.267],[9.2248,46.2312],[9.1813,46.2041],[9.1638,46.173],[9.0875,46.2206],[9.057,46.299],[9.0891,46.3637],[9.0978,46.4161],[9.0773,46.4823],[9.0486,46.4809],[9.0152,46.5335],[9.0385,46.5907],[9.0221,46.6049],[8.9648,46.6148],[8.956,46.6306],[8.9148,46.6204],[8.8981,46.5893],[8.8473,46.5752],[8.7884,46.5681],[8.7112,46.573],[8.6779,46.5836],[8.6363,46.5712],[8.5487,46.585],[8.5238,46.5785],[8.5098,46.5509],[8.4769,46.5318],[8.4476,46.5046],[8.396,46.4909],[8.3859,46.4502],[8.3163,46.4337],[8.2866,46.4054],[8.2915,46.3784],[8.2418,46.3541],[8.1926,46.3092],[8.1285,46.2925],[8.0873,46.2718],[8.0731,46.2536],[8.1,46.2356],[8.1295,46.196],[8.1323,46.1594],[8.1106,46.127],[8.0669,46.1006],[8.0354,46.0965],[8.0182,46.0809],[8.0107,46.0297],[7.9858,45.9993],[7.8982,45.9819],[7.8496,45.9397],[7.8559,45.9193],[7.8477,45.9077]]]}},
{"type":"Feature","properties":{"entityId":"milan-signoria","from":1387,"to":1388,"certainty":"estimated","source":"유럽 쪽은 Natural Earth 1:10m admin-1(v5.1.2) 현대 행정구역 조각을 그 시기 국경에 맞춰 묶고, 조각이 역사 경계와 다른 곳은 선을 그어 나눈 근사. 유럽 밖(시베리아·중앙아시아·극동)은 대략적인 추정. 운영자 검수 필요"},"geometry":{"type":"Polygon","coordinates":[[[7.8477,45.9077],[7.8635,45.806],[7.8823,45.7529],[7.9163,45.7297],[7.9424,45.7239],[8.0258,45.7356],[8.0784,45.7209],[8.0979,45.7443],[8.1296,45.757],[8.1822,45.7419],[8.2804,45.6618],[8.2907,45.6312],[8.2649,45.6049],[8.2675,45.5835],[8.2895,45.5565],[8.263,45.5043],[8.2195,45.4713],[8.2042,45.4492],[8.1686,45.4359],[8.1452,45.3964],[8.1122,45.3782],[8.027,45.4031],[8.0101,45.4026],[8.0245,45.3522],[8.0105,45.3404],[7.9727,45.3424],[7.9557,45.3281],[7.9836,45.3134],[7.9883,45.2634],[8.0596,45.1825],[8.1051,45.1865],[8.1519,45.1686],[8.129,45.123],[8.1104,45.0988],[8.1425,45.0494],[8.1611,45.0373],[8.1923,45.0386],[8.2231,45.0138],[8.2379,45.0559],[8.3032,45.0722],[8.3386,45.0436],[8.3517,44.9979],[8.3884,44.9634],[8.3835,44.9342],[8.3622,44.9118],[8.3723,44.864],[8.3949,44.8445],[8.4243,44.8433],[8.4224,44.8192],[8.4978,44.7947],[8.4989,44.7674],[8.4776,44.7515],[8.422,44.7335],[8.4086,44.6922],[8.3463,44.6898],[8.3495,44.6319],[8.3195,44.6137],[8.3232,44.5903],[8.3604,44.577],[8.3293,44.5593],[8.2948,44.5607],[8.2655,44.5217],[8.3596,44.481],[8.4141,44.5161],[8.5642,44.5162],[8.6014,44.5493],[8.613,44.5875],[8.7246,44.5786],[8.7648,44.5297],[8.7761,44.5031],[8.8183,44.5409],[8.8257,44.5588],[8.8961,44.5604],[8.9075,44.5695],[8.9079,44.6082],[8.878,44.64],[8.9231,44.6828],[8.9592,44.6826],[8.9759,44.6723],[9.041,44.6322],[9.0891,44.6193],[9.1158,44.5894],[9.1485,44.5811],[9.1993,44.5993],[9.2031,44.6138],[9.2251,44.6203],[9.2638,44.6041],[9.3018,44.606],[9.3518,44.5831],[9.4142,44.5941],[9.441,44.5734],[9.4913,44.551],[9.4936,44.5117],[9.451,44.4687],[9.4361,44.4199],[9.4764,44.4125],[9.5124,44.429],[9.5985,44.4272],[9.6514,44.4062],[9.6898,44.3577],[9.6915,44.3728],[9.7436,44.3857],[9.7621,44.4094],[9.8356,44.4763],[9.8663,44.483],[9.9356,44.4704],[9.9899,44.448],[10.002,44.4326],[9.9913,44.4066],[10.0726,44.3521],[10.1357,44.3418],[10.15,44.3678],[10.2197,44.4063],[10.2633,44.4508],[10.3134,44.4874],[10.364,44.5403],[10.4005,44.5687],[10.4186,44.673],[10.4356,44.7091],[10.4343,44.7952],[10.4645,44.853],[10.4631,44.8939],[10.5015,44.9194],[10.4641,44.9372],[10.4862,44.9531],[10.5388,44.9671],[10.5607,44.984],[10.5621,45.0036],[10.5333,45.0031],[10.4557,44.9824],[10.4685,45.0108],[10.5296,45.0396],[10.5235,45.08],[10.4897,45.0567],[10.4133,45.0423],[10.4164,45.0873],[10.4684,45.0953],[10.4897,45.1092],[10.4802,45.1457],[10.3923,45.1518],[10.3221,45.1833],[10.3178,45.2047],[10.3614,45.2154],[10.3583,45.2389],[10.3969,45.2539],[10.4022,45.2784],[10.4352,45.3159],[10.4632,45.3286],[10.4682,45.3561],[10.4548,45.3891],[10.4807,45.4113],[10.5059,45.409],[10.5625,45.3822],[10.6161,45.382],[10.6618,45.419],[10.7024,45.4228],[10.7052,45.3738],[10.7179,45.3674],[10.6975,45.3203],[10.7402,45.316],[10.7611,45.2937],[10.7868,45.309],[10.8357,45.2809],[10.8486,45.2631],[10.9459,45.2097],[11.0038,45.1837],[11.0128,45.152],[11.054,45.1472],[11.0483,45.1226],[11.0908,45.0993],[11.1549,45.1193],[11.2103,45.1043],[11.3325,45.0895],[11.3584,45.0635],[11.3859,45.053],[11.4258,45.0663],[11.4452,45.0927],[11.4111,45.1216],[11.4186,45.1318],[11.4007,45.2301],[11.406,45.2523],[11.4872,45.2659],[11.5428,45.2463],[11.6024,45.2439],[11.6183,45.2602],[11.5843,45.2855],[11.5911,45.3133],[11.6261,45.3333],[11.6167,45.387],[11.6898,45.4383],[11.7052,45.4658],[11.738,45.472],[11.7459,45.4882],[11.7429,45.5348],[11.7305,45.5556],[11.7066,45.5589],[11.6582,45.5389],[11.6699,45.5761],[11.646,45.6063],[11.6494,45.6354],[11.6817,45.6486],[11.7113,45.6763],[11.8218,45.6871],[11.8136,45.7145],[11.8308,45.7606],[11.8164,45.7864],[11.7503,45.8118],[11.7425,45.8416],[11.7997,45.8806],[11.7771,45.8947],[11.7739,45.9269],[11.7281,45.9388],[11.7064,45.9751],[11.6848,45.9843],[11.6538,45.9754],[11.5993,45.9794],[11.5788,46.0062],[11.541,46.016],[11.4861,46.0099],[11.4406,45.9876],[11.3926,45.9811],[11.383,45.9448],[11.359,45.9229],[11.3147,45.9394],[11.2787,45.919],[11.2581,45.8839],[11.2005,45.8109],[11.1825,45.7784],[11.1849,45.7547],[11.1307,45.6996],[11.0636,45.7126],[11.0067,45.7129],[10.9791,45.6918],[10.9318,45.6819],[10.9027,45.7083],[10.8703,45.7221],[10.8787,45.7614],[10.9002,45.7841],[10.8846,45.8169],[10.8449,45.8341],[10.8124,45.845],[10.7674,45.8416],[10.7286,45.8488],[10.6874,45.8453],[10.6653,45.8115],[10.621,45.8088],[10.5792,45.7947],[10.5562,45.8072],[10.559,45.8244],[10.5229,45.8413],[10.5072,45.8775],[10.5195,45.9167],[10.4956,45.9693],[10.4591,45.985],[10.4686,46.0118],[10.4908,46.0269],[10.5152,46.082],[10.5586,46.118],[10.5673,46.1935],[10.5902,46.2334],[10.5777,46.3127],[10.5279,46.3426],[10.5634,46.3674],[10.6189,46.3754],[10.6387,46.4111],[10.6247,46.4545],[10.5413,46.4895],[10.4939,46.4945],[10.4518,46.5467],[10.4259,46.5353],[10.3543,46.5483],[10.2954,46.5511],[10.2759,46.5655],[10.2347,46.5753],[10.2338,46.618],[10.1921,46.6268],[10.0878,46.6044],[10.0712,46.5644],[10.0328,46.533],[10.0269,46.4932],[10.044,46.467],[10.0263,46.4463],[10.0421,46.4327],[10.1334,46.414],[10.1332,46.3811],[10.105,46.3614],[10.0918,46.329],[10.1049,46.3094],[10.1589,46.2624],[10.1458,46.2433],[10.0757,46.22],[10.0427,46.2205],[10.0317,46.2601],[9.9776,46.2981],[9.964,46.3561],[9.899,46.3722],[9.8554,46.367],[9.7681,46.3386],[9.7309,46.3507],[9.7093,46.3424],[9.7084,46.3117],[9.6743,46.2918],[9.5597,46.2927],[9.5153,46.3086],[9.4826,46.3568],[9.4516,46.3704],[9.4438,46.3961],[9.4379,46.492],[9.4107,46.4889],[9.3771,46.4687],[9.331,46.5015],[9.2823,46.4974],[9.2632,46.4851],[9.238,46.4365],[9.2609,46.4167],[9.2604,46.3797],[9.2738,46.3443],[9.269,46.3094],[9.2397,46.267],[9.2248,46.2312],[9.1813,46.2041],[9.1638,46.173],[9.0875,46.2206],[9.057,46.299],[9.0891,46.3637],[9.0978,46.4161],[9.0773,46.4823],[9.0486,46.4809],[9.0152,46.5335],[9.0385,46.5907],[9.0221,46.6049],[8.9648,46.6148],[8.956,46.6306],[8.9148,46.6204],[8.8981,46.5893],[8.8473,46.5752],[8.7884,46.5681],[8.7112,46.573],[8.6779,46.5836],[8.6363,46.5712],[8.5487,46.585],[8.5238,46.5785],[8.5098,46.5509],[8.4769,46.5318],[8.4476,46.5046],[8.396,46.4909],[8.3859,46.4502],[8.3163,46.4337],[8.2866,46.4054],[8.2915,46.3784],[8.2418,46.3541],[8.1926,46.3092],[8.1285,46.2925],[8.0873,46.2718],[8.0731,46.2536],[8.1,46.2356],[8.1295,46.196],[8.1323,46.1594],[8.1106,46.127],[8.0669,46.1006],[8.0354,46.0965],[8.0182,46.0809],[8.0107,46.0297],[7.9858,45.9993],[7.8982,45.9819],[7.8496,45.9397],[7.8559,45.9193],[7.8477,45.9077]]]}},
{"type":"Feature","properties":{"entityId":"milan-signoria","from":1388,"to":1390,"certainty":"estimated","source":"유럽 쪽은 Natural Earth 1:10m admin-1(v5.1.2) 현대 행정구역 조각을 그 시기 국경에 맞춰 묶고, 조각이 역사 경계와 다른 곳은 선을 그어 나눈 근사. 유럽 밖(시베리아·중앙아시아·극동)은 대략적인 추정. 운영자 검수 필요"},"geometry":{"type":"Polygon","coordinates":[[[7.8477,45.9077],[7.8635,45.806],[7.8823,45.7529],[7.9163,45.7297],[7.9424,45.7239],[8.0258,45.7356],[8.0784,45.7209],[8.0979,45.7443],[8.1296,45.757],[8.1822,45.7419],[8.2804,45.6618],[8.2907,45.6312],[8.2649,45.6049],[8.2675,45.5835],[8.2895,45.5565],[8.263,45.5043],[8.2195,45.4713],[8.2042,45.4492],[8.1686,45.4359],[8.1452,45.3964],[8.1122,45.3782],[8.027,45.4031],[8.0101,45.4026],[8.0245,45.3522],[8.0105,45.3404],[7.9727,45.3424],[7.9557,45.3281],[7.9836,45.3134],[7.9883,45.2634],[8.0596,45.1825],[8.1051,45.1865],[8.1519,45.1686],[8.129,45.123],[8.1104,45.0988],[8.1425,45.0494],[8.1611,45.0373],[8.1923,45.0386],[8.2231,45.0138],[8.2379,45.0559],[8.3032,45.0722],[8.3386,45.0436],[8.3517,44.9979],[8.3884,44.9634],[8.3835,44.9342],[8.3622,44.9118],[8.3723,44.864],[8.3949,44.8445],[8.4243,44.8433],[8.4224,44.8192],[8.4978,44.7947],[8.4989,44.7674],[8.4776,44.7515],[8.422,44.7335],[8.4086,44.6922],[8.3463,44.6898],[8.3495,44.6319],[8.3195,44.6137],[8.3232,44.5903],[8.3604,44.577],[8.3293,44.5593],[8.2948,44.5607],[8.2655,44.5217],[8.3596,44.481],[8.4141,44.5161],[8.5642,44.5162],[8.6014,44.5493],[8.613,44.5875],[8.7246,44.5786],[8.7648,44.5297],[8.7761,44.5031],[8.8183,44.5409],[8.8257,44.5588],[8.8961,44.5604],[8.9075,44.5695],[8.9079,44.6082],[8.878,44.64],[8.9231,44.6828],[8.9592,44.6826],[8.9759,44.6723],[9.041,44.6322],[9.0891,44.6193],[9.1158,44.5894],[9.1485,44.5811],[9.1993,44.5993],[9.2031,44.6138],[9.2251,44.6203],[9.2638,44.6041],[9.3018,44.606],[9.3518,44.5831],[9.4142,44.5941],[9.441,44.5734],[9.4913,44.551],[9.4936,44.5117],[9.451,44.4687],[9.4361,44.4199],[9.4764,44.4125],[9.5124,44.429],[9.5985,44.4272],[9.6514,44.4062],[9.6898,44.3577],[9.6915,44.3728],[9.7436,44.3857],[9.7621,44.4094],[9.8356,44.4763],[9.8663,44.483],[9.9356,44.4704],[9.9899,44.448],[10.002,44.4326],[9.9913,44.4066],[10.0726,44.3521],[10.1357,44.3418],[10.15,44.3678],[10.2197,44.4063],[10.2633,44.4508],[10.3134,44.4874],[10.364,44.5403],[10.4005,44.5687],[10.4186,44.673],[10.4356,44.7091],[10.4343,44.7952],[10.4645,44.853],[10.4631,44.8939],[10.5015,44.9194],[10.5655,44.9157],[10.6327,44.9395],[10.6803,44.9871],[10.7372,44.986],[10.7634,44.9649],[10.7645,44.9436],[10.8596,44.927],[10.8878,44.914],[10.9748,44.9359],[10.9994,44.9534],[11.0831,44.9619],[11.1447,44.9457],[11.1634,44.9315],[11.257,44.9473],[11.275,44.9425],[11.303,44.9601],[11.3709,44.9581],[11.4215,44.9499],[11.419,44.9669],[11.3889,44.9736],[11.3051,45.013],[11.2727,45.0338],[11.2728,45.0596],[11.1957,45.0634],[11.1929,45.0939],[11.2103,45.1043],[11.3325,45.0895],[11.3584,45.0635],[11.3859,45.053],[11.4258,45.0663],[11.4452,45.0927],[11.4111,45.1216],[11.4186,45.1318],[11.4966,45.1114],[11.5395,45.1284],[11.6025,45.1258],[11.6631,45.1079],[11.7187,45.1103],[11.7538,45.0987],[11.8009,45.1284],[11.84,45.1389],[11.9619,45.1432],[11.9755,45.1843],[11.9875,45.1906],[12.0973,45.2057],[12.1525,45.1942],[12.1608,45.2189],[12.2019,45.2474],[12.1994,45.2746],[12.198,45.2922],[12.1491,45.2922],[12.0834,45.3267],[12.0368,45.3151],[12.0167,45.343],[12.0334,45.3602],[11.9823,45.384],[11.9759,45.3977],[12.0239,45.4326],[12.0271,45.4561],[11.9915,45.4542],[11.9815,45.4707],[12.0045,45.5141],[12.0254,45.5311],[12.0396,45.5715],[12.0708,45.5763],[12.0924,45.5984],[12.069,45.6401],[12.0096,45.6413],[11.9981,45.624],[11.9547,45.6106],[11.9055,45.6247],[11.8706,45.6707],[11.8218,45.6871],[11.8136,45.7145],[11.8308,45.7606],[11.8164,45.7864],[11.7503,45.8118],[11.7425,45.8416],[11.7997,45.8806],[11.8213,45.8996],[11.8613,45.8828],[11.9252,45.885],[11.9426,45.9015],[11.9614,45.9542],[11.9874,45.9682],[12.0631,45.9637],[12.1099,46.0027],[12.1916,46.0041],[12.2353,46.022],[12.3043,46.0737],[12.3309,46.0822],[12.4224,46.0431],[12.4415,46.0799],[12.502,46.111],[12.4914,46.1614],[12.4607,46.1814],[12.4565,46.2064],[12.4148,46.2267],[12.3828,46.2299],[12.3359,46.2695],[12.3704,46.3063],[12.4366,46.3321],[12.4653,46.3564],[12.5001,46.4042],[12.5202,46.4423],[12.5512,46.4574],[12.5931,46.4637],[12.6655,46.4579],[12.6671,46.4806],[12.6464,46.5018],[12.6914,46.5273],[12.7571,46.5345],[12.7614,46.5726],[12.7485,46.641],[12.6974,46.6405],[12.6714,46.6525],[12.6202,46.6565],[12.562,46.6512],[12.4999,46.6721],[12.4696,46.6758],[12.3992,46.6397],[12.3825,46.6181],[12.3407,46.6282],[12.3024,46.6146],[12.2531,46.6109],[12.214,46.5961],[12.1779,46.6348],[12.1386,46.6443],[12.0991,46.6678],[12.0803,46.6499],[12.0712,46.6131],[12.022,46.5394],[11.8519,46.5142],[11.8322,46.504],[11.8342,46.4838],[11.8808,46.4714],[11.8957,46.4548],[11.8667,46.4324],[11.8504,46.3845],[11.8029,46.3662],[11.8039,46.3453],[11.8499,46.3045],[11.8535,46.2737],[11.8876,46.2727],[11.9274,46.2506],[11.9204,46.2228],[11.9694,46.1963],[11.8965,46.1327],[11.7998,46.1057],[11.7121,46.1011],[11.699,46.0871],[11.7047,46.0534],[11.6845,46.0303],[11.6848,45.9843],[11.6538,45.9754],[11.5993,45.9794],[11.5788,46.0062],[11.541,46.016],[11.4861,46.0099],[11.4406,45.9876],[11.3926,45.9811],[11.383,45.9448],[11.359,45.9229],[11.3147,45.9394],[11.2787,45.919],[11.2581,45.8839],[11.2005,45.8109],[11.1825,45.7784],[11.1849,45.7547],[11.1307,45.6996],[11.0636,45.7126],[11.0067,45.7129],[10.9791,45.6918],[10.9318,45.6819],[10.9027,45.7083],[10.8703,45.7221],[10.8787,45.7614],[10.9002,45.7841],[10.8846,45.8169],[10.8449,45.8341],[10.8124,45.845],[10.7674,45.8416],[10.7286,45.8488],[10.6874,45.8453],[10.6653,45.8115],[10.621,45.8088],[10.5792,45.7947],[10.5562,45.8072],[10.559,45.8244],[10.5229,45.8413],[10.5072,45.8775],[10.5195,45.9167],[10.4956,45.9693],[10.4591,45.985],[10.4686,46.0118],[10.4908,46.0269],[10.5152,46.082],[10.5586,46.118],[10.5673,46.1935],[10.5902,46.2334],[10.5777,46.3127],[10.5279,46.3426],[10.5634,46.3674],[10.6189,46.3754],[10.6387,46.4111],[10.6247,46.4545],[10.5413,46.4895],[10.4939,46.4945],[10.4518,46.5467],[10.4259,46.5353],[10.3543,46.5483],[10.2954,46.5511],[10.2759,46.5655],[10.2347,46.5753],[10.2338,46.618],[10.1921,46.6268],[10.0878,46.6044],[10.0712,46.5644],[10.0328,46.533],[10.0269,46.4932],[10.044,46.467],[10.0263,46.4463],[10.0421,46.4327],[10.1334,46.414],[10.1332,46.3811],[10.105,46.3614],[10.0918,46.329],[10.1049,46.3094],[10.1589,46.2624],[10.1458,46.2433],[10.0757,46.22],[10.0427,46.2205],[10.0317,46.2601],[9.9776,46.2981],[9.964,46.3561],[9.899,46.3722],[9.8554,46.367],[9.7681,46.3386],[9.7309,46.3507],[9.7093,46.3424],[9.7084,46.3117],[9.6743,46.2918],[9.5597,46.2927],[9.5153,46.3086],[9.4826,46.3568],[9.4516,46.3704],[9.4438,46.3961],[9.4379,46.492],[9.4107,46.4889],[9.3771,46.4687],[9.331,46.5015],[9.2823,46.4974],[9.2632,46.4851],[9.238,46.4365],[9.2609,46.4167],[9.2604,46.3797],[9.2738,46.3443],[9.269,46.3094],[9.2397,46.267],[9.2248,46.2312],[9.1813,46.2041],[9.1638,46.173],[9.0875,46.2206],[9.057,46.299],[9.0891,46.3637],[9.0978,46.4161],[9.0773,46.4823],[9.0486,46.4809],[9.0152,46.5335],[9.0385,46.5907],[9.0221,46.6049],[8.9648,46.6148],[8.956,46.6306],[8.9148,46.6204],[8.8981,46.5893],[8.8473,46.5752],[8.7884,46.5681],[8.7112,46.573],[8.6779,46.5836],[8.6363,46.5712],[8.5487,46.585],[8.5238,46.5785],[8.5098,46.5509],[8.4769,46.5318],[8.4476,46.5046],[8.396,46.4909],[8.3859,46.4502],[8.3163,46.4337],[8.2866,46.4054],[8.2915,46.3784],[8.2418,46.3541],[8.1926,46.3092],[8.1285,46.2925],[8.0873,46.2718],[8.0731,46.2536],[8.1,46.2356],[8.1295,46.196],[8.1323,46.1594],[8.1106,46.127],[8.0669,46.1006],[8.0354,46.0965],[8.0182,46.0809],[8.0107,46.0297],[7.9858,45.9993],[7.8982,45.9819],[7.8496,45.9397],[7.8559,45.9193],[7.8477,45.9077]]]}},
{"type":"Feature","properties":{"entityId":"milan-signoria","from":1390,"to":1395,"certainty":"estimated","source":"유럽 쪽은 Natural Earth 1:10m admin-1(v5.1.2) 현대 행정구역 조각을 그 시기 국경에 맞춰 묶고, 조각이 역사 경계와 다른 곳은 선을 그어 나눈 근사. 유럽 밖(시베리아·중앙아시아·극동)은 대략적인 추정. 운영자 검수 필요"},"geometry":{"type":"Polygon","coordinates":[[[7.8477,45.9077],[7.8635,45.806],[7.8823,45.7529],[7.9163,45.7297],[7.9424,45.7239],[8.0258,45.7356],[8.0784,45.7209],[8.0979,45.7443],[8.1296,45.757],[8.1822,45.7419],[8.2804,45.6618],[8.2907,45.6312],[8.2649,45.6049],[8.2675,45.5835],[8.2895,45.5565],[8.263,45.5043],[8.2195,45.4713],[8.2042,45.4492],[8.1686,45.4359],[8.1452,45.3964],[8.1122,45.3782],[8.027,45.4031],[8.0101,45.4026],[8.0245,45.3522],[8.0105,45.3404],[7.9727,45.3424],[7.9557,45.3281],[7.9836,45.3134],[7.9883,45.2634],[8.0596,45.1825],[8.1051,45.1865],[8.1519,45.1686],[8.129,45.123],[8.1104,45.0988],[8.1425,45.0494],[8.1611,45.0373],[8.1923,45.0386],[8.2231,45.0138],[8.2379,45.0559],[8.3032,45.0722],[8.3386,45.0436],[8.3517,44.9979],[8.3884,44.9634],[8.3835,44.9342],[8.3622,44.9118],[8.3723,44.864],[8.3949,44.8445],[8.4243,44.8433],[8.4224,44.8192],[8.4978,44.7947],[8.4989,44.7674],[8.4776,44.7515],[8.422,44.7335],[8.4086,44.6922],[8.3463,44.6898],[8.3495,44.6319],[8.3195,44.6137],[8.3232,44.5903],[8.3604,44.577],[8.3293,44.5593],[8.2948,44.5607],[8.2655,44.5217],[8.3596,44.481],[8.4141,44.5161],[8.5642,44.5162],[8.6014,44.5493],[8.613,44.5875],[8.7246,44.5786],[8.7648,44.5297],[8.7761,44.5031],[8.8183,44.5409],[8.8257,44.5588],[8.8961,44.5604],[8.9075,44.5695],[8.9079,44.6082],[8.878,44.64],[8.9231,44.6828],[8.9592,44.6826],[8.9759,44.6723],[9.041,44.6322],[9.0891,44.6193],[9.1158,44.5894],[9.1485,44.5811],[9.1993,44.5993],[9.2031,44.6138],[9.2251,44.6203],[9.2638,44.6041],[9.3018,44.606],[9.3518,44.5831],[9.4142,44.5941],[9.441,44.5734],[9.4913,44.551],[9.4936,44.5117],[9.451,44.4687],[9.4361,44.4199],[9.4764,44.4125],[9.5124,44.429],[9.5985,44.4272],[9.6514,44.4062],[9.6898,44.3577],[9.6915,44.3728],[9.7436,44.3857],[9.7621,44.4094],[9.8356,44.4763],[9.8663,44.483],[9.9356,44.4704],[9.9899,44.448],[10.002,44.4326],[9.9913,44.4066],[10.0726,44.3521],[10.1357,44.3418],[10.15,44.3678],[10.2197,44.4063],[10.2633,44.4508],[10.3134,44.4874],[10.364,44.5403],[10.4005,44.5687],[10.4186,44.673],[10.4356,44.7091],[10.4343,44.7952],[10.4645,44.853],[10.4631,44.8939],[10.5015,44.9194],[10.5655,44.9157],[10.6327,44.9395],[10.6803,44.9871],[10.7372,44.986],[10.7634,44.9649],[10.7645,44.9436],[10.8596,44.927],[10.8878,44.914],[10.9748,44.9359],[10.9994,44.9534],[11.0831,44.9619],[11.1447,44.9457],[11.1634,44.9315],[11.257,44.9473],[11.275,44.9425],[11.303,44.9601],[11.3709,44.9581],[11.4215,44.9499],[11.419,44.9669],[11.3889,44.9736],[11.3051,45.013],[11.2727,45.0338],[11.2728,45.0596],[11.1957,45.0634],[11.1929,45.0939],[11.2103,45.1043],[11.3325,45.0895],[11.3584,45.0635],[11.3859,45.053],[11.4258,45.0663],[11.4452,45.0927],[11.4111,45.1216],[11.4186,45.1318],[11.4007,45.2301],[11.406,45.2523],[11.4872,45.2659],[11.5428,45.2463],[11.6024,45.2439],[11.6183,45.2602],[11.5843,45.2855],[11.5911,45.3133],[11.6261,45.3333],[11.6167,45.387],[11.6898,45.4383],[11.7052,45.4658],[11.738,45.472],[11.7459,45.4882],[11.7429,45.5348],[11.7305,45.5556],[11.7066,45.5589],[11.6582,45.5389],[11.6699,45.5761],[11.646,45.6063],[11.6494,45.6354],[11.6817,45.6486],[11.7113,45.6763],[11.8218,45.6871],[11.8136,45.7145],[11.8308,45.7606],[11.8164,45.7864],[11.7503,45.8118],[11.7425,45.8416],[11.7997,45.8806],[11.8213,45.8996],[11.8613,45.8828],[11.9252,45.885],[11.9426,45.9015],[11.9614,45.9542],[11.9874,45.9682],[12.0631,45.9637],[12.1099,46.0027],[12.1916,46.0041],[12.2353,46.022],[12.3043,46.0737],[12.3309,46.0822],[12.4224,46.0431],[12.4415,46.0799],[12.502,46.111],[12.4914,46.1614],[12.4607,46.1814],[12.4565,46.2064],[12.4148,46.2267],[12.3828,46.2299],[12.3359,46.2695],[12.3704,46.3063],[12.4366,46.3321],[12.4653,46.3564],[12.5001,46.4042],[12.5202,46.4423],[12.5512,46.4574],[12.5931,46.4637],[12.6655,46.4579],[12.6671,46.4806],[12.6464,46.5018],[12.6914,46.5273],[12.7571,46.5345],[12.7614,46.5726],[12.7485,46.641],[12.6974,46.6405],[12.6714,46.6525],[12.6202,46.6565],[12.562,46.6512],[12.4999,46.6721],[12.4696,46.6758],[12.3992,46.6397],[12.3825,46.6181],[12.3407,46.6282],[12.3024,46.6146],[12.2531,46.6109],[12.214,46.5961],[12.1779,46.6348],[12.1386,46.6443],[12.0991,46.6678],[12.0803,46.6499],[12.0712,46.6131],[12.022,46.5394],[11.8519,46.5142],[11.8322,46.504],[11.8342,46.4838],[11.8808,46.4714],[11.8957,46.4548],[11.8667,46.4324],[11.8504,46.3845],[11.8029,46.3662],[11.8039,46.3453],[11.8499,46.3045],[11.8535,46.2737],[11.8876,46.2727],[11.9274,46.2506],[11.9204,46.2228],[11.9694,46.1963],[11.8965,46.1327],[11.7998,46.1057],[11.7121,46.1011],[11.699,46.0871],[11.7047,46.0534],[11.6845,46.0303],[11.6848,45.9843],[11.6538,45.9754],[11.5993,45.9794],[11.5788,46.0062],[11.541,46.016],[11.4861,46.0099],[11.4406,45.9876],[11.3926,45.9811],[11.383,45.9448],[11.359,45.9229],[11.3147,45.9394],[11.2787,45.919],[11.2581,45.8839],[11.2005,45.8109],[11.1825,45.7784],[11.1849,45.7547],[11.1307,45.6996],[11.0636,45.7126],[11.0067,45.7129],[10.9791,45.6918],[10.9318,45.6819],[10.9027,45.7083],[10.8703,45.7221],[10.8787,45.7614],[10.9002,45.7841],[10.8846,45.8169],[10.8449,45.8341],[10.8124,45.845],[10.7674,45.8416],[10.7286,45.8488],[10.6874,45.8453],[10.6653,45.8115],[10.621,45.8088],[10.5792,45.7947],[10.5562,45.8072],[10.559,45.8244],[10.5229,45.8413],[10.5072,45.8775],[10.5195,45.9167],[10.4956,45.9693],[10.4591,45.985],[10.4686,46.0118],[10.4908,46.0269],[10.5152,46.082],[10.5586,46.118],[10.5673,46.1935],[10.5902,46.2334],[10.5777,46.3127],[10.5279,46.3426],[10.5634,46.3674],[10.6189,46.3754],[10.6387,46.4111],[10.6247,46.4545],[10.5413,46.4895],[10.4939,46.4945],[10.4518,46.5467],[10.4259,46.5353],[10.3543,46.5483],[10.2954,46.5511],[10.2759,46.5655],[10.2347,46.5753],[10.2338,46.618],[10.1921,46.6268],[10.0878,46.6044],[10.0712,46.5644],[10.0328,46.533],[10.0269,46.4932],[10.044,46.467],[10.0263,46.4463],[10.0421,46.4327],[10.1334,46.414],[10.1332,46.3811],[10.105,46.3614],[10.0918,46.329],[10.1049,46.3094],[10.1589,46.2624],[10.1458,46.2433],[10.0757,46.22],[10.0427,46.2205],[10.0317,46.2601],[9.9776,46.2981],[9.964,46.3561],[9.899,46.3722],[9.8554,46.367],[9.7681,46.3386],[9.7309,46.3507],[9.7093,46.3424],[9.7084,46.3117],[9.6743,46.2918],[9.5597,46.2927],[9.5153,46.3086],[9.4826,46.3568],[9.4516,46.3704],[9.4438,46.3961],[9.4379,46.492],[9.4107,46.4889],[9.3771,46.4687],[9.331,46.5015],[9.2823,46.4974],[9.2632,46.4851],[9.238,46.4365],[9.2609,46.4167],[9.2604,46.3797],[9.2738,46.3443],[9.269,46.3094],[9.2397,46.267],[9.2248,46.2312],[9.1813,46.2041],[9.1638,46.173],[9.0875,46.2206],[9.057,46.299],[9.0891,46.3637],[9.0978,46.4161],[9.0773,46.4823],[9.0486,46.4809],[9.0152,46.5335],[9.0385,46.5907],[9.0221,46.6049],[8.9648,46.6148],[8.956,46.6306],[8.9148,46.6204],[8.8981,46.5893],[8.8473,46.5752],[8.7884,46.5681],[8.7112,46.573],[8.6779,46.5836],[8.6363,46.5712],[8.5487,46.585],[8.5238,46.5785],[8.5098,46.5509],[8.4769,46.5318],[8.4476,46.5046],[8.396,46.4909],[8.3859,46.4502],[8.3163,46.4337],[8.2866,46.4054],[8.2915,46.3784],[8.2418,46.3541],[8.1926,46.3092],[8.1285,46.2925],[8.0873,46.2718],[8.0731,46.2536],[8.1,46.2356],[8.1295,46.196],[8.1323,46.1594],[8.1106,46.127],[8.0669,46.1006],[8.0354,46.0965],[8.0182,46.0809],[8.0107,46.0297],[7.9858,45.9993],[7.8982,45.9819],[7.8496,45.9397],[7.8559,45.9193],[7.8477,45.9077]]]}}
]}
