{"type":"FeatureCollection","features":[
{"type":"Feature","properties":{"entityId":"milan","from":1526,"to":1535,"certainty":"estimated","source":"유럽 쪽은 Natural Earth 1:10m admin-1(v5.1.2) 현대 행정구역 조각을 그 시기 국경에 맞춰 묶고, 조각이 역사 경계와 다른 곳은 선을 그어 나눈 근사. 유럽 밖(시베리아·중앙아시아·극동)은 대략적인 추정. 운영자 검수 필요"},"geometry":{"type":"Polygon","coordinates":[[[7.8496,45.9397],[7.8559,45.9193],[7.9,45.9248],[7.957,45.9024],[7.9749,45.9036],[8.0405,45.9315],[8.0906,45.9234],[8.1872,45.9477],[8.2104,45.9276],[8.2704,45.9049],[8.3223,45.854],[8.3288,45.828],[8.3169,45.7693],[8.3499,45.7724],[8.3847,45.725],[8.3694,45.6994],[8.3105,45.6971],[8.3523,45.6424],[8.3914,45.6062],[8.4068,45.4242],[8.4498,45.3847],[8.4835,45.3793],[8.4996,45.3477],[8.4715,45.3259],[8.5126,45.3135],[8.5001,45.2877],[8.5156,45.277],[8.534,45.2176],[8.559,45.1931],[8.5566,45.1648],[8.5021,45.1806],[8.4971,45.198],[8.4047,45.2045],[8.3702,45.1973],[8.3345,45.1711],[8.2688,45.1783],[8.2208,45.1649],[8.1992,45.1761],[8.1721,45.1595],[8.1519,45.1686],[8.129,45.123],[8.1104,45.0988],[8.1425,45.0494],[8.1611,45.0373],[8.1923,45.0386],[8.2231,45.0138],[8.2379,45.0559],[8.3032,45.0722],[8.3386,45.0436],[8.3517,44.9979],[8.3884,44.9634],[8.3835,44.9342],[8.3622,44.9118],[8.3723,44.864],[8.3949,44.8445],[8.4243,44.8433],[8.4224,44.8192],[8.4978,44.7947],[8.4989,44.7674],[8.4776,44.7515],[8.422,44.7335],[8.4086,44.6922],[8.3463,44.6898],[8.3495,44.6319],[8.3195,44.6137],[8.3232,44.5903],[8.3604,44.577],[8.3293,44.5593],[8.2948,44.5607],[8.2655,44.5217],[8.3596,44.481],[8.4141,44.5161],[8.5642,44.5162],[8.6014,44.5493],[8.613,44.5875],[8.7246,44.5786],[8.7648,44.5297],[8.7761,44.5031],[8.8183,44.5409],[8.8257,44.5588],[8.8961,44.5604],[8.9075,44.5695],[8.9079,44.6082],[8.878,44.64],[8.9231,44.6828],[8.9592,44.6826],[8.9759,44.6723],[9.041,44.6322],[9.0891,44.6193],[9.1158,44.5894],[9.1485,44.5811],[9.1993,44.5993],[9.2031,44.6138],[9.2014,44.6821],[9.2421,44.683],[9.2475,44.7144],[9.2749,44.6961],[9.3091,44.6957],[9.3226,44.7162],[9.3059,44.7588],[9.3552,44.8265],[9.356,44.8642],[9.3026,44.8962],[9.3065,44.9249],[9.3831,45.045],[9.425,45.1012],[9.5119,45.1012],[9.5419,45.086],[9.546,45.1327],[9.5904,45.1126],[9.6145,45.1255],[9.6404,45.1261],[9.6369,45.0939],[9.6814,45.0753],[9.7223,45.0723],[9.7525,45.082],[9.7522,45.108],[9.8402,45.0738],[9.8302,45.0963],[9.8808,45.0916],[9.8996,45.0992],[9.8829,45.1341],[9.9231,45.1301],[9.916,45.108],[9.9866,45.1287],[10.0215,45.1101],[10.0463,45.0658],[10.0719,45.0375],[10.1049,45.0352],[10.1835,45.0466],[10.2237,45.0382],[10.3504,44.984],[10.3992,44.9913],[10.414,44.9848],[10.4436,44.9367],[10.5015,44.9194],[10.5655,44.9157],[10.6327,44.9395],[10.6803,44.9871],[10.7372,44.986],[10.7634,44.9649],[10.7645,44.9436],[10.8596,44.927],[10.8878,44.914],[10.9748,44.9359],[10.9994,44.9534],[11.0831,44.9619],[11.1447,44.9457],[11.1634,44.9315],[11.257,44.9473],[11.275,44.9425],[11.303,44.9601],[11.3709,44.9581],[11.4215,44.9499],[11.419,44.9669],[11.3889,44.9736],[11.3051,45.013],[11.2727,45.0338],[11.2728,45.0596],[11.1957,45.0634],[11.1929,45.0939],[11.2103,45.1043],[11.1549,45.1193],[11.0908,45.0993],[11.0483,45.1226],[11.054,45.1472],[11.0128,45.152],[11.0038,45.1837],[10.9459,45.2097],[10.8486,45.2631],[10.8357,45.2809],[10.7868,45.309],[10.7611,45.2937],[10.7402,45.316],[10.6975,45.3203],[10.7179,45.3674],[10.7052,45.3738],[10.7024,45.4228],[10.6618,45.419],[10.6161,45.382],[10.5625,45.3822],[10.5059,45.409],[10.4807,45.4113],[10.4548,45.3891],[10.4682,45.3561],[10.4632,45.3286],[10.4352,45.3159],[10.4022,45.2784],[10.3969,45.2539],[10.3583,45.2389],[10.3614,45.2154],[10.3178,45.2047],[10.3091,45.218],[10.2532,45.2552],[10.2214,45.2319],[10.1102,45.2594],[10.0775,45.2783],[10.0083,45.2954],[9.9015,45.3507],[9.8855,45.3705],[9.8915,45.4267],[9.8188,45.4555],[9.8073,45.425],[9.7681,45.431],[9.7649,45.4474],[9.7141,45.4823],[9.6745,45.4368],[9.6234,45.4643],[9.5886,45.4701],[9.5649,45.4582],[9.5103,45.512],[9.5339,45.5588],[9.5271,45.6044],[9.4964,45.6453],[9.4828,45.6718],[9.4558,45.6999],[9.4478,45.7499],[9.4562,45.7608],[9.5187,45.784],[9.4808,45.8183],[9.4666,45.8494],[9.5134,45.8826],[9.5163,45.9022],[9.5401,45.9456],[9.5027,45.9701],[9.4915,46.0116],[9.5269,46.0114],[9.504,46.0492],[9.5093,46.0628],[9.435,46.0845],[9.4146,46.1045],[9.4142,46.1368],[9.4246,46.16],[9.4408,46.2145],[9.4214,46.2199],[9.3736,46.212],[9.3288,46.235],[9.2248,46.2312],[9.1813,46.2041],[9.1638,46.173],[9.0906,46.1382],[9.0721,46.1189],[9.0592,46.0618],[9.0021,46.0393],[9.0156,45.9931],[8.9827,45.972],[9.0108,45.9267],[9.0517,45.9155],[9.0593,45.882],[9.0344,45.8481],[9.0024,45.8207],[8.9396,45.8348],[8.9089,45.8283],[8.9,45.8264],[8.9121,45.8834],[8.871,45.9471],[8.8004,45.9785],[8.7679,45.9831],[8.791,46.0187],[8.8344,46.0664],[8.809,46.0897],[8.7471,46.0944],[8.729,46.1082],[8.6775,46.0958],[8.6018,46.1228],[8.5387,46.1876],[8.5103,46.2079],[8.4565,46.2248],[8.4272,46.2514],[8.4266,46.3016],[8.4463,46.3822],[8.4416,46.4349],[8.4279,46.4487],[8.3859,46.4502],[8.3163,46.4337],[8.2866,46.4054],[8.2915,46.3784],[8.2418,46.3541],[8.1926,46.3092],[8.1285,46.2925],[8.0873,46.2718],[8.0731,46.2536],[8.1,46.2356],[8.1295,46.196],[8.1323,46.1594],[8.1106,46.127],[8.0669,46.1006],[8.0354,46.0965],[8.0182,46.0809],[8.0107,46.0297],[7.9858,45.9993],[7.8982,45.9819],[7.8496,45.9397]]]}}
]}
