{"type":"FeatureCollection","features":[
{"type":"Feature","properties":{"entityId":"moldavia","from":1815,"to":1856,"certainty":"estimated","source":"유럽 쪽은 Natural Earth 1:10m admin-1(v5.1.2) 현대 행정구역 조각을 그 시기 국경에 맞춰 묶고, 조각이 역사 경계와 다른 곳은 선을 그어 나눈 근사. 유럽 밖(시베리아·중앙아시아·극동)은 대략적인 추정. 운영자 검수 필요"},"geometry":{"type":"Polygon","coordinates":[[[25.6713,47.0579],[25.6721,47.0799],[25.6962,47.123],[25.7408,47.1597],[25.7951,47.1866],[25.8196,47.2069],[25.8194,47.2246],[25.7715,47.2685],[25.7942,47.2779],[25.8785,47.2333],[25.909,47.234],[25.9821,47.2575],[26.0396,47.2454],[26.1104,47.2541],[26.2229,47.2537],[26.2594,47.2599],[26.3531,47.2932],[26.3958,47.2968],[26.4327,47.2888],[26.4823,47.2536],[26.559,47.2656],[26.5727,47.2857],[26.5114,47.3244],[26.5005,47.3409],[26.5212,47.3534],[26.6261,47.3449],[26.6561,47.3529],[26.6734,47.4127],[26.6585,47.4267],[26.6172,47.4307],[26.5676,47.4681],[26.5621,47.5284],[26.5463,47.5806],[26.5267,47.614],[26.4161,47.7065],[26.397,47.7284],[26.2833,47.8263],[26.1416,47.8963],[26.1194,47.9175],[26.1025,47.9783],[26.1731,47.9931],[26.2048,48.0374],[26.2553,48.0723],[26.287,48.1247],[26.3035,48.212],[26.3303,48.2085],[26.3974,48.2262],[26.4447,48.2277],[26.5874,48.2494],[26.6179,48.259],[26.6657,48.2742],[26.6885,48.2748],[26.744,48.2556],[26.8049,48.2583],[26.8447,48.2333],[26.8555,48.2378],[26.8977,48.209],[26.908,48.1845],[26.9381,48.2048],[26.9631,48.1754],[26.9976,48.1666],[26.9666,48.1434],[27.0127,48.1281],[27.0251,48.135],[27.048,48.1214],[27.0343,48.1018],[27.0592,48.0581],[27.1093,48.0335],[27.089,48.0198],[27.0958,48.0056],[27.1215,48.0132],[27.1437,47.9868],[27.1698,47.9738],[27.151,47.9578],[27.1783,47.9421],[27.1607,47.9217],[27.2124,47.8895],[27.2124,47.8479],[27.2534,47.8281],[27.2192,47.8138],[27.2647,47.7646],[27.2881,47.7507],[27.2951,47.7182],[27.272,47.715],[27.304,47.6665],[27.3692,47.6083],[27.4294,47.5781],[27.4313,47.5726],[27.4461,47.5349],[27.4595,47.5332],[27.4731,47.4918],[27.5072,47.478],[27.5482,47.4743],[27.583,47.4507],[27.5625,47.4165],[27.5803,47.406],[27.5724,47.3752],[27.5887,47.3674],[27.6369,47.3067],[27.7228,47.2833],[27.7536,47.2514],[27.7524,47.2389],[27.7883,47.2043],[27.8066,47.1446],[27.8499,47.1285],[27.8438,47.1144],[27.9384,47.0611],[27.9387,47.0466],[28.0083,47.0263],[28.028,47.033],[28.0381,47.0155],[28.0827,46.9715],[28.105,46.9202],[28.1226,46.8423],[28.1378,46.8062],[28.1782,46.7586],[28.1781,46.7398],[28.2341,46.6624],[28.2451,46.6315],[28.2471,46.6072],[28.2254,46.5696],[28.2341,46.5531],[28.2211,46.5412],[28.219,46.5037],[28.2458,46.4755],[28.2461,46.4279],[28.2261,46.4154],[28.2268,46.3955],[28.2129,46.3887],[28.2071,46.3582],[28.1879,46.3438],[28.1929,46.3112],[28.1778,46.287],[28.1352,46.2693],[28.1321,46.2399],[28.109,46.2341],[28.1447,46.1832],[28.1105,46.1015],[28.1078,46.0961],[28.0845,46.0246],[28.0861,46.0006],[28.125,45.9184],[28.1174,45.8952],[28.1311,45.8714],[28.1105,45.8543],[28.1133,45.8254],[28.155,45.7618],[28.168,45.6325],[28.1208,45.6277],[28.0621,45.5936],[28.1409,45.5602],[28.1654,45.5283],[28.1659,45.4946],[28.1995,45.4618],[28.2151,45.4504],[28.1908,45.417],[28.1249,45.428],[28.0437,45.4113],[28.0302,45.3954],[27.9213,45.4095],[27.8555,45.4074],[27.8202,45.4124],[27.7652,45.4331],[27.7026,45.477],[27.6373,45.4755],[27.5801,45.4933],[27.5209,45.4777],[27.4832,45.4573],[27.4328,45.4067],[27.4235,45.3865],[27.3557,45.3869],[27.3076,45.3965],[27.2761,45.4349],[27.191,45.4492],[27.1471,45.4304],[27.1378,45.4678],[27.0638,45.4507],[27.0062,45.4818],[26.9992,45.5152],[26.9758,45.5333],[26.9071,45.5452],[26.8945,45.5187],[26.8315,45.5284],[26.7548,45.5633],[26.6694,45.6212],[26.6467,45.6279],[26.569,45.6248],[26.5322,45.6504],[26.4664,45.7309],[26.4246,45.7732],[26.3804,45.8029],[26.4048,45.9175],[26.4209,45.9505],[26.4848,46.0212],[26.4681,46.0274],[26.4406,46.0748],[26.4021,46.0943],[26.4149,46.128],[26.4001,46.1445],[26.325,46.1794],[26.2932,46.1601],[26.2516,46.1503],[26.259,46.1881],[26.2799,46.2265],[26.2869,46.2762],[26.3002,46.302],[26.2927,46.3197],[26.2471,46.3266],[26.1823,46.3057],[26.1595,46.3125],[26.1682,46.35],[26.1619,46.3731],[26.1326,46.3907],[26.0387,46.4033],[26.0189,46.4268],[26.0325,46.4683],[26.0699,46.4872],[26.0691,46.4986],[26.0289,46.5485],[26.012,46.5936],[26.0088,46.668],[25.9271,46.6819],[25.907,46.6748],[25.915,46.6356],[25.889,46.6348],[25.8409,46.6702],[25.8282,46.6936],[25.8165,46.8592],[25.832,46.8853],[25.8668,46.8837],[25.8658,46.9128],[25.7918,46.9661],[25.7627,47.0125],[25.7371,47.039],[25.6713,47.0579]]]}},
{"type":"Feature","properties":{"entityId":"moldavia","from":1856,"to":1859,"certainty":"estimated","source":"유럽 쪽은 Natural Earth 1:10m admin-1(v5.1.2) 현대 행정구역 조각을 그 시기 국경에 맞춰 묶고, 조각이 역사 경계와 다른 곳은 선을 그어 나눈 근사. 유럽 밖(시베리아·중앙아시아·극동)은 대략적인 추정. 운영자 검수 필요"},"geometry":{"type":"Polygon","coordinates":[[[25.6713,47.0579],[25.7371,47.039],[25.7627,47.0125],[25.7918,46.9661],[25.8658,46.9128],[25.8668,46.8837],[25.832,46.8853],[25.8165,46.8592],[25.8282,46.6936],[25.8409,46.6702],[25.889,46.6348],[25.915,46.6356],[25.907,46.6748],[25.9271,46.6819],[26.0088,46.668],[26.012,46.5936],[26.0289,46.5485],[26.0691,46.4986],[26.0699,46.4872],[26.0325,46.4683],[26.0189,46.4268],[26.0387,46.4033],[26.1326,46.3907],[26.1619,46.3731],[26.1682,46.35],[26.1595,46.3125],[26.1823,46.3057],[26.2471,46.3266],[26.2927,46.3197],[26.3002,46.302],[26.2869,46.2762],[26.2799,46.2265],[26.259,46.1881],[26.2516,46.1503],[26.2932,46.1601],[26.325,46.1794],[26.4001,46.1445],[26.4149,46.128],[26.4021,46.0943],[26.4406,46.0748],[26.4681,46.0274],[26.4848,46.0212],[26.4209,45.9505],[26.4048,45.9175],[26.3804,45.8029],[26.4246,45.7732],[26.4664,45.7309],[26.5322,45.6504],[26.569,45.6248],[26.6467,45.6279],[26.6694,45.6212],[26.7548,45.5633],[26.8315,45.5284],[26.8945,45.5187],[26.9071,45.5452],[26.9758,45.5333],[26.9992,45.5152],[27.0062,45.4818],[27.0638,45.4507],[27.1378,45.4678],[27.1471,45.4304],[27.191,45.4492],[27.2761,45.4349],[27.3076,45.3965],[27.3557,45.3869],[27.4235,45.3865],[27.4328,45.4067],[27.4832,45.4573],[27.5209,45.4777],[27.5801,45.4933],[27.6373,45.4755],[27.7026,45.477],[27.7652,45.4331],[27.8202,45.4124],[27.8555,45.4074],[27.9213,45.4095],[28.0302,45.3954],[28.0437,45.4113],[28.1249,45.428],[28.1908,45.417],[28.2151,45.4504],[28.2669,45.4405],[28.2864,45.4217],[28.2812,45.4018],[28.3302,45.3229],[28.4052,45.2951],[28.4942,45.2789],[28.577,45.2481],[28.7101,45.227],[28.7787,45.2311],[28.8027,45.2442],[28.7673,45.2578],[28.7615,45.2818],[28.7902,45.2921],[28.7897,45.3214],[28.8163,45.3261],[28.8809,45.3062],[28.9299,45.2791],[28.9528,45.2851],[28.9665,45.3199],[29.0182,45.3309],[29.0695,45.3608],[29.1743,45.389],[29.2282,45.4237],[29.2818,45.4223],[29.3221,45.4438],[29.3537,45.4359],[29.4306,45.4304],[29.5697,45.395],[29.6503,45.3461],[29.6671,45.3119],[29.6723,45.2729],[29.659,45.2159],[29.6954,45.2213],[29.7088,45.2233],[29.7562,45.3212],[29.7502,45.3858],[29.73,45.4126],[29.7378,45.4201],[29.7559,45.4279],[29.7541,45.4356],[30.1793,45.842],[30.186,45.8456],[30.1,45.88],[29.75,45.9],[29.3,45.88],[28.8,45.83],[28.62,45.95],[28.45,46.2],[28.1493,46.2752],[28.1778,46.287],[28.1929,46.3112],[28.1879,46.3438],[28.2071,46.3582],[28.2129,46.3887],[28.2268,46.3955],[28.2261,46.4154],[28.2461,46.4279],[28.2458,46.4755],[28.219,46.5037],[28.2211,46.5412],[28.2341,46.5531],[28.2254,46.5696],[28.2471,46.6072],[28.2451,46.6315],[28.2341,46.6624],[28.1781,46.7398],[28.1782,46.7586],[28.1378,46.8062],[28.1226,46.8423],[28.105,46.9202],[28.0827,46.9715],[28.0381,47.0155],[28.028,47.033],[28.0083,47.0263],[27.9387,47.0466],[27.9384,47.0611],[27.8438,47.1144],[27.8499,47.1285],[27.8066,47.1446],[27.7883,47.2043],[27.7524,47.2389],[27.7536,47.2514],[27.7228,47.2833],[27.6369,47.3067],[27.5887,47.3674],[27.5724,47.3752],[27.5803,47.406],[27.5625,47.4165],[27.583,47.4507],[27.5482,47.4743],[27.5072,47.478],[27.4731,47.4918],[27.4595,47.5332],[27.4461,47.5349],[27.4313,47.5726],[27.4294,47.5781],[27.3692,47.6083],[27.304,47.6665],[27.272,47.715],[27.2951,47.7182],[27.2881,47.7507],[27.2647,47.7646],[27.2192,47.8138],[27.2534,47.8281],[27.2124,47.8479],[27.2124,47.8895],[27.1607,47.9217],[27.1783,47.9421],[27.151,47.9578],[27.1698,47.9738],[27.1437,47.9868],[27.1215,48.0132],[27.0958,48.0056],[27.089,48.0198],[27.1093,48.0335],[27.0592,48.0581],[27.0343,48.1018],[27.048,48.1214],[27.0251,48.135],[27.0127,48.1281],[26.9666,48.1434],[26.9976,48.1666],[26.9631,48.1754],[26.9381,48.2048],[26.908,48.1845],[26.8977,48.209],[26.8555,48.2378],[26.8447,48.2333],[26.8049,48.2583],[26.744,48.2556],[26.6885,48.2748],[26.6657,48.2742],[26.6179,48.259],[26.5874,48.2494],[26.4447,48.2277],[26.3974,48.2262],[26.3303,48.2085],[26.3035,48.212],[26.287,48.1247],[26.2553,48.0723],[26.2048,48.0374],[26.1731,47.9931],[26.1025,47.9783],[26.1194,47.9175],[26.1416,47.8963],[26.2833,47.8263],[26.397,47.7284],[26.4161,47.7065],[26.5267,47.614],[26.5463,47.5806],[26.5621,47.5284],[26.5676,47.4681],[26.6172,47.4307],[26.6585,47.4267],[26.6734,47.4127],[26.6561,47.3529],[26.6261,47.3449],[26.5212,47.3534],[26.5005,47.3409],[26.5114,47.3244],[26.5727,47.2857],[26.559,47.2656],[26.4823,47.2536],[26.4327,47.2888],[26.3958,47.2968],[26.3531,47.2932],[26.2594,47.2599],[26.2229,47.2537],[26.1104,47.2541],[26.0396,47.2454],[25.9821,47.2575],[25.909,47.234],[25.8785,47.2333],[25.7942,47.2779],[25.7715,47.2685],[25.8194,47.2246],[25.8196,47.2069],[25.7951,47.1866],[25.7408,47.1597],[25.6962,47.123],[25.6721,47.0799],[25.6713,47.0579]]]}}
]}
