{"type":"FeatureCollection","features":[
{"type":"Feature","properties":{"entityId":"moldova","from":1992,"to":null,"certainty":"estimated","source":"유럽 쪽은 Natural Earth 1:10m admin-1(v5.1.2) 현대 행정구역 조각을 그 시기 국경에 맞춰 묶고, 조각이 역사 경계와 다른 곳은 선을 그어 나눈 근사. 유럽 밖(시베리아·중앙아시아·극동)은 대략적인 추정. 운영자 검수 필요"},"geometry":{"type":"Polygon","coordinates":[[[29.8988,46.5531],[29.9161,46.5188],[29.9602,46.5059],[29.9706,46.4917],[29.9949,46.4985],[30.0217,46.4707],[30.0141,46.462],[30.077,46.4228],[30.1316,46.4228],[30.0811,46.3742],[30.0373,46.3689],[29.9187,46.3737],[29.8847,46.3642],[29.8478,46.3415],[29.8082,46.3547],[29.8003,46.3984],[29.7796,46.4211],[29.7141,46.4712],[29.7029,46.4283],[29.6544,46.4227],[29.6455,46.3756],[29.6156,46.3618],[29.583,46.3697],[29.5414,46.413],[29.4809,46.4252],[29.4753,46.4476],[29.4882,46.4694],[29.4567,46.4844],[29.4182,46.4625],[29.3747,46.4162],[29.3621,46.4159],[29.3208,46.4687],[29.2891,46.4516],[29.2833,46.3974],[29.2592,46.3944],[29.2007,46.3571],[29.1834,46.3776],[29.2056,46.4061],[29.2068,46.5025],[29.1831,46.538],[29.1627,46.5381],[29.0559,46.4987],[29.0203,46.4895],[28.9458,46.4548],[28.9254,46.4328],[28.9192,46.4047],[28.9273,46.368],[28.9449,46.3207],[28.9458,46.305],[28.9329,46.2726],[28.9335,46.259],[28.9841,46.2212],[29.0098,46.2044],[29.0154,46.1826],[28.9808,46.1321],[28.9464,46.1051],[28.9412,46.0647],[28.9589,46.021],[28.9569,46.0014],[28.932,45.9932],[28.7576,45.9612],[28.7292,45.9386],[28.7284,45.922],[28.7464,45.8706],[28.7383,45.8376],[28.6698,45.812],[28.6698,45.7773],[28.6436,45.7665],[28.5767,45.7619],[28.5635,45.7355],[28.5614,45.7166],[28.5042,45.6937],[28.474,45.6579],[28.5113,45.635],[28.5231,45.5932],[28.5369,45.5798],[28.5037,45.5661],[28.5065,45.5206],[28.4809,45.502],[28.4168,45.5038],[28.3419,45.5176],[28.2704,45.5215],[28.2173,45.4933],[28.1995,45.4618],[28.1659,45.4946],[28.1654,45.5283],[28.1409,45.5602],[28.0621,45.5936],[28.1208,45.6277],[28.168,45.6325],[28.155,45.7618],[28.1133,45.8254],[28.1105,45.8543],[28.1311,45.8714],[28.1174,45.8952],[28.125,45.9184],[28.0861,46.0006],[28.0845,46.0246],[28.1078,46.0961],[28.1105,46.1015],[28.1447,46.1832],[28.109,46.2341],[28.1321,46.2399],[28.1352,46.2693],[28.1778,46.287],[28.1929,46.3112],[28.1879,46.3438],[28.2071,46.3582],[28.2129,46.3887],[28.2268,46.3955],[28.2261,46.4154],[28.2461,46.4279],[28.2458,46.4755],[28.219,46.5037],[28.2211,46.5412],[28.2341,46.5531],[28.2254,46.5696],[28.2471,46.6072],[28.2451,46.6315],[28.2341,46.6624],[28.1781,46.7398],[28.1782,46.7586],[28.1378,46.8062],[28.1226,46.8423],[28.105,46.9202],[28.0827,46.9715],[28.0381,47.0155],[28.028,47.033],[28.0083,47.0263],[27.9387,47.0466],[27.9384,47.0611],[27.8438,47.1144],[27.8499,47.1285],[27.8066,47.1446],[27.7883,47.2043],[27.7524,47.2389],[27.7536,47.2514],[27.7228,47.2833],[27.6369,47.3067],[27.5887,47.3674],[27.5724,47.3752],[27.5803,47.406],[27.5625,47.4165],[27.583,47.4507],[27.5482,47.4743],[27.5072,47.478],[27.4731,47.4918],[27.4595,47.5332],[27.4461,47.5349],[27.4313,47.5726],[27.4294,47.5781],[27.3692,47.6083],[27.304,47.6665],[27.272,47.715],[27.2951,47.7182],[27.2881,47.7507],[27.2647,47.7646],[27.2192,47.8138],[27.2534,47.8281],[27.2124,47.8479],[27.2124,47.8895],[27.1607,47.9217],[27.1783,47.9421],[27.151,47.9578],[27.1698,47.9738],[27.1437,47.9868],[27.1215,48.0132],[27.0958,48.0056],[27.089,48.0198],[27.1093,48.0335],[27.0592,48.0581],[27.0343,48.1018],[27.048,48.1214],[27.0251,48.135],[27.0127,48.1281],[26.9666,48.1434],[26.9976,48.1666],[26.9631,48.1754],[26.9381,48.2048],[26.908,48.1845],[26.8977,48.209],[26.8555,48.2378],[26.8447,48.2333],[26.8049,48.2583],[26.744,48.2556],[26.6885,48.2748],[26.6657,48.2742],[26.6179,48.259],[26.6361,48.2949],[26.6691,48.3088],[26.6798,48.3302],[26.6994,48.3251],[26.7359,48.2918],[26.7546,48.2861],[26.7857,48.2941],[26.7894,48.3259],[26.7775,48.3662],[26.7881,48.376],[26.8169,48.3717],[26.8428,48.3937],[26.876,48.384],[26.9432,48.3513],[26.9906,48.3624],[27.0331,48.3602],[27.0263,48.3971],[27.1758,48.3618],[27.2086,48.3606],[27.2519,48.3783],[27.306,48.4237],[27.3422,48.4361],[27.3898,48.415],[27.4202,48.4171],[27.4809,48.4514],[27.5038,48.4724],[27.5571,48.4744],[27.583,48.486],[27.6048,48.4841],[27.6069,48.4578],[27.627,48.4513],[27.7518,48.452],[27.7853,48.4416],[27.8499,48.4096],[27.8854,48.3784],[27.9264,48.3394],[28.0032,48.3259],[28.0559,48.3215],[28.0928,48.3021],[28.0983,48.2841],[28.0787,48.2449],[28.1311,48.2396],[28.1785,48.2589],[28.1999,48.2117],[28.2403,48.2116],[28.2945,48.2365],[28.3406,48.2401],[28.3682,48.2306],[28.3634,48.191],[28.3222,48.1632],[28.3174,48.1354],[28.3496,48.1297],[28.3886,48.1686],[28.4116,48.1707],[28.4369,48.1499],[28.419,48.1222],[28.4474,48.0828],[28.49,48.0655],[28.4998,48.1089],[28.5434,48.088],[28.5191,48.0523],[28.4813,48.0332],[28.4666,47.9972],[28.4965,47.9878],[28.5055,47.9587],[28.4962,47.9155],[28.478,47.8886],[28.504,47.8833],[28.5305,47.8929],[28.5692,47.8871],[28.637,47.8421],[28.6692,47.8581],[28.6568,47.8772],[28.6579,47.8987],[28.6832,47.9339],[28.7204,47.9527],[28.7556,47.9572],[28.7848,47.9828],[28.8128,47.9654],[28.8303,47.9411],[28.8289,47.9171],[28.861,47.8997],[28.9421,47.8832],[28.9803,47.8755],[29.0181,47.8535],[29.0175,47.8269],[28.9803,47.7656],[28.9756,47.7434],[28.9803,47.6874],[28.9954,47.6509],[28.9865,47.6223],[29.0157,47.5821],[29.0267,47.5295],[29.0486,47.5062],[29.0928,47.4874],[29.108,47.4694],[29.0901,47.4373],[29.0824,47.4064],[29.0514,47.3904],[29.0254,47.4009],[29.0084,47.3964],[28.9819,47.3633],[29.0217,47.3331],[29.0711,47.2958],[29.0737,47.2463],[29.1101,47.2336],[29.151,47.2448],[29.1633,47.2309],[29.1633,47.2308],[29.1789,47.1971],[29.1632,47.1919],[29.1444,47.1629],[29.1119,47.1499],[29.0691,47.1015],[29.0987,47.0921],[29.1243,47.0742],[29.1561,47.1136],[29.1892,47.1118],[29.1938,47.1238],[29.1789,47.1561],[29.2003,47.1631],[29.2267,47.1493],[29.2365,47.1624],[29.2922,47.1358],[29.295,47.122],[29.3293,47.1082],[29.3775,47.0708],[29.3806,47.0289],[29.3639,47.0332],[29.3724,47.0043],[29.3409,46.992],[29.295,46.9922],[29.3159,46.9587],[29.3496,46.937],[29.3757,46.9352],[29.4355,46.9575],[29.4617,46.951],[29.4706,46.9416],[29.4762,46.8897],[29.441,46.8593],[29.4504,46.8242],[29.4825,46.7929],[29.5029,46.7963],[29.5533,46.7671],[29.5701,46.7238],[29.6162,46.6986],[29.6516,46.6926],[29.6662,46.6763],[29.7276,46.6701],[29.7583,46.6588],[29.7754,46.6291],[29.7475,46.6176],[29.7276,46.5944],[29.7754,46.5807],[29.8232,46.6012],[29.8399,46.5825],[29.8673,46.5807],[29.8988,46.5531]]]}}
]}
