{
 "type": "FeatureCollection",
 "features": [
  {
   "type": "Feature",
   "properties": {
    "entityId": "mongolia",
    "from": 1921,
    "to": null,
    "certainty": "estimated",
    "source": "중고등학교 한국사 교과서 시대별 지도의 일반적인 경계를 따른 대략적인 추정. 운영자 검수 필요"
   },
   "geometry": {
    "type": "Polygon",
    "coordinates": [
     [
      [
       87.5,
       49.2
      ],
      [
       88.2,
       48.5
      ],
      [
       88.8,
       48.12
      ],
      [
       89.6,
       47.92
      ],
      [
       90.3,
       47.65
      ],
      [
       90.95,
       46.75
      ],
      [
       90.9,
       45.95
      ],
      [
       90.67,
       45.6
      ],
      [
       91.2,
       45.15
      ],
      [
       92.9,
       45.02
      ],
      [
       93.66,
       44.9
      ],
      [
       95.05,
       44.26
      ],
      [
       95.47,
       43.99
      ],
      [
       95.86,
       43.28
      ],
      [
       96.4,
       42.72
      ],
      [
       97.2,
       42.79
      ],
      [
       98.25,
       42.68
      ],
      [
       99.47,
       42.57
      ],
      [
       100.1,
       42.67
      ],
      [
       101,
       42.5
      ],
      [
       101.71,
       42.47
      ],
      [
       102.16,
       42.16
      ],
      [
       103.07,
       42.01
      ],
      [
       104,
       41.8
      ],
      [
       104.5,
       41.66
      ],
      [
       105.12,
       41.66
      ],
      [
       105.87,
       41.99
      ],
      [
       106.77,
       42.29
      ],
      [
       107.75,
       42.4
      ],
      [
       108.87,
       42.43
      ],
      [
       109.86,
       42.61
      ],
      [
       110.4,
       42.77
      ],
      [
       111.19,
       43.39
      ],
      [
       111.64,
       43.56
      ],
      [
       111.68,
       44.04
      ],
      [
       111.41,
       44.42
      ],
      [
       111.62,
       44.83
      ],
      [
       112.03,
       45.08
      ],
      [
       113.05,
       44.81
      ],
      [
       113.93,
       44.91
      ],
      [
       114.92,
       45.38
      ],
      [
       115.93,
       45.63
      ],
      [
       116.62,
       46.31
      ],
      [
       117.55,
       46.59
      ],
      [
       118.58,
       46.69
      ],
      [
       119.1189,
       46.6434
      ],
      [
       119,
       47
      ],
      [
       118.7624,
       47.1782
      ],
      [
       117.8,
       47
      ],
      [
       117.8,
       47.9
      ],
      [
       116.7,
       49.85
      ],
      [
       114,
       50.2
      ],
      [
       108,
       50.5
      ],
      [
       102,
       51.5
      ],
      [
       100.0282,
       51.3592
      ],
      [
       95,
       51
      ],
      [
       90,
       50
      ],
      [
       87.5,
       49.2
      ]
     ]
    ]
   }
  }
 ]
}
