{"type":"FeatureCollection","features":[
{"type":"Feature","properties":{"entityId":"montenegro","from":1815,"to":1878,"certainty":"estimated","source":"유럽 쪽은 Natural Earth 1:10m admin-1(v5.1.2) 현대 행정구역 조각을 그 시기 국경에 맞춰 묶고, 조각이 역사 경계와 다른 곳은 선을 그어 나눈 근사. 유럽 밖(시베리아·중앙아시아·극동)은 대략적인 추정. 운영자 검수 필요"},"geometry":{"type":"Polygon","coordinates":[[[18.6483,42.6293],[18.6663,42.5936],[18.684,42.5765],[18.698,42.5405],[18.7605,42.5074],[18.7721,42.4767],[18.7705,42.45],[18.785,42.45],[18.785,42.38],[18.7788,42.38],[18.7791,42.3793],[18.7936,42.3542],[18.7971,42.36],[18.8296,42.3518],[18.8529,42.3442],[18.8846,42.3395],[18.9142,42.3201],[18.9225,42.3021],[18.9286,42.2892],[18.9457,42.2653],[18.9959,42.2216],[19.0009,42.2085],[18.9792,42.19],[19.2781,42.19],[19.2834,42.198],[19.2396,42.2342],[19.2184,42.246],[19.1889,42.2496],[19.136,42.2672],[19.1095,42.3003],[19.1351,42.3356],[19.1426,42.3709],[19.0346,42.4524],[18.9596,42.4943],[18.9853,42.5063],[19,42.502],[19,42.48],[19.5315,42.48],[19.5493,42.5086],[19.5937,42.5448],[19.605,42.5848],[19.658,42.6346],[19.676,42.6467],[19.6993,42.6548],[19.7221,42.6461],[19.7375,42.6244],[19.7469,42.5889],[19.7635,42.5948],[19.823,42.6273],[19.8595,42.663],[19.9094,42.6893],[19.8592,42.7327],[19.8592,42.7497],[19.8776,42.7633],[19.7759,42.7851],[19.7323,42.8086],[19.6873,42.8264],[19.6757,42.8253],[19.6711,42.8698],[19.679,42.8816],[19.5783,42.9015],[19.4491,42.8992],[19.3723,42.9345],[19.3417,42.9536],[19.3317,42.9901],[19.3352,43.0114],[19.3494,43.0216],[19.3809,43.0276],[19.4111,43.0452],[19.3873,43.072],[19.3576,43.0971],[19.3212,43.1205],[19.1875,43.1888],[19.1426,43.2021],[19.072,43.1977],[19.048,43.2156],[19.0225,43.2965],[19.0029,43.2739],[18.9895,43.272],[18.994,43.1632],[19.0037,43.1381],[19.0252,43.1111],[19.0247,43.0942],[18.9772,43.0941],[18.9508,43.0712],[18.9309,43.0301],[18.9367,43.0023],[18.9838,42.9794],[18.9882,42.9389],[18.9781,42.9334],[19.0125,42.9221],[19.0897,42.8824],[19.1456,42.865],[19.2086,42.8589],[19.2187,42.8397],[19.2057,42.792],[19.2107,42.7595],[19.2131,42.7082],[19.1779,42.695],[19.1255,42.6988],[19.0723,42.7088],[19.0144,42.6873],[18.9971,42.6641],[18.9952,42.6349],[18.9817,42.6222],[18.9372,42.6202],[18.9143,42.6575],[18.8599,42.6908],[18.7971,42.6953],[18.7274,42.7181],[18.696,42.6851],[18.6838,42.6419],[18.6483,42.6293]]]}},
{"type":"Feature","properties":{"entityId":"montenegro","from":1878,"to":1913,"certainty":"estimated","source":"유럽 쪽은 Natural Earth 1:10m admin-1(v5.1.2) 현대 행정구역 조각을 그 시기 국경에 맞춰 묶고, 조각이 역사 경계와 다른 곳은 선을 그어 나눈 근사. 유럽 밖(시베리아·중앙아시아·극동)은 대략적인 추정. 운영자 검수 필요"},"geometry":{"type":"Polygon","coordinates":[[[18.434,42.9369],[18.4733,42.8626],[18.4437,42.8345],[18.4674,42.7692],[18.5022,42.7274],[18.5397,42.6955],[18.55,42.6681],[18.5428,42.6264],[18.6013,42.6244],[18.6483,42.6293],[18.6663,42.5936],[18.684,42.5765],[18.698,42.5405],[18.7605,42.5074],[18.7721,42.4767],[18.7705,42.45],[18.785,42.45],[18.785,42.38],[18.7788,42.38],[18.7791,42.3793],[18.7936,42.3542],[18.7971,42.36],[18.8296,42.3518],[18.8529,42.3442],[18.8846,42.3395],[18.9142,42.3201],[18.9225,42.3021],[18.9286,42.2892],[18.9457,42.2653],[18.9959,42.2216],[19.0009,42.2085],[18.9792,42.19],[18.9714,42.1833],[18.9816,42.1671],[18.9919,42.1637],[18.9811,42.1637],[19.0157,42.1237],[19.0539,42.0795],[19.0976,42.0289],[19.1075,42.0174],[19.161,41.9555],[19.1616,41.9553],[19.1623,41.9479],[19.1703,41.938],[19.2202,41.9189],[19.2679,41.9071],[19.3394,41.8702],[19.3469,41.864],[19.3651,41.8524],[19.3649,41.889],[19.3453,41.9103],[19.3529,41.9385],[19.3464,41.9615],[19.3658,41.9697],[19.371,41.9866],[19.3542,42.0087],[19.3506,42.0278],[19.3566,42.0648],[19.3749,42.0947],[19.37,42.1065],[19.355,42.12],[19.2978,42.1517],[19.272,42.1807],[19.2781,42.19],[19.2834,42.198],[19.3046,42.2151],[19.4004,42.3259],[19.4172,42.3741],[19.4817,42.4345],[19.5178,42.458],[19.5315,42.48],[19.5493,42.5086],[19.5937,42.5448],[19.605,42.5848],[19.658,42.6346],[19.676,42.6467],[19.6993,42.6548],[19.7221,42.6461],[19.7375,42.6244],[19.7469,42.5889],[19.7635,42.5948],[19.823,42.6273],[19.8595,42.663],[19.9094,42.6893],[19.8592,42.7327],[19.8592,42.7497],[19.8776,42.7633],[19.7759,42.7851],[19.7323,42.8086],[19.6873,42.8264],[19.6757,42.8253],[19.6711,42.8698],[19.679,42.8816],[19.6988,42.9075],[19.6581,42.9403],[19.6644,42.9536],[19.6632,42.9788],[19.6485,42.999],[19.6216,43.0137],[19.5448,43.0281],[19.5145,43.0417],[19.4595,43.0496],[19.4256,43.0514],[19.4111,43.0452],[19.3873,43.072],[19.3576,43.0971],[19.3212,43.1205],[19.1875,43.1888],[19.1426,43.2021],[19.072,43.1977],[19.048,43.2156],[19.0225,43.2965],[19.0029,43.2739],[18.9895,43.272],[18.9595,43.3035],[18.9573,43.3259],[18.8991,43.3519],[18.8212,43.3414],[18.8335,43.3242],[18.8072,43.318],[18.6795,43.2495],[18.6643,43.2332],[18.6884,43.2245],[18.6453,43.1802],[18.6211,43.1246],[18.6211,43.0964],[18.639,43.0202],[18.539,43.0239],[18.483,43.0146],[18.4528,42.9934],[18.434,42.9369]]]}},
{"type":"Feature","properties":{"entityId":"montenegro","from":1913,"to":1919,"certainty":"estimated","source":"유럽 쪽은 Natural Earth 1:10m admin-1(v5.1.2) 현대 행정구역 조각을 그 시기 국경에 맞춰 묶고, 조각이 역사 경계와 다른 곳은 선을 그어 나눈 근사. 유럽 밖(시베리아·중앙아시아·극동)은 대략적인 추정. 운영자 검수 필요"},"geometry":{"type":"Polygon","coordinates":[[[18.434,42.9369],[18.4733,42.8626],[18.4437,42.8345],[18.4674,42.7692],[18.5022,42.7274],[18.5397,42.6955],[18.55,42.6681],[18.5428,42.6264],[18.6013,42.6244],[18.6483,42.6293],[18.6663,42.5936],[18.684,42.5765],[18.698,42.5405],[18.7605,42.5074],[18.7721,42.4767],[18.7705,42.45],[18.785,42.45],[18.785,42.38],[18.7788,42.38],[18.7791,42.3793],[18.7936,42.3542],[18.7971,42.36],[18.8296,42.3518],[18.8529,42.3442],[18.8846,42.3395],[18.9142,42.3201],[18.9225,42.3021],[18.9286,42.2892],[18.9457,42.2653],[18.9959,42.2216],[19.0009,42.2085],[18.9792,42.19],[18.9714,42.1833],[18.9816,42.1671],[18.9919,42.1637],[18.9811,42.1637],[19.0157,42.1237],[19.0539,42.0795],[19.0976,42.0289],[19.1075,42.0174],[19.161,41.9555],[19.1616,41.9553],[19.1623,41.9479],[19.1703,41.938],[19.2202,41.9189],[19.2679,41.9071],[19.3394,41.8702],[19.3469,41.864],[19.3651,41.8524],[19.3649,41.889],[19.3453,41.9103],[19.3529,41.9385],[19.3464,41.9615],[19.3658,41.9697],[19.371,41.9866],[19.3542,42.0087],[19.3506,42.0278],[19.3566,42.0648],[19.3749,42.0947],[19.37,42.1065],[19.355,42.12],[19.2978,42.1517],[19.272,42.1807],[19.2781,42.19],[19.2834,42.198],[19.3046,42.2151],[19.4004,42.3259],[19.4172,42.3741],[19.4817,42.4345],[19.5178,42.458],[19.5315,42.48],[19.5493,42.5086],[19.5937,42.5448],[19.605,42.5848],[19.658,42.6346],[19.676,42.6467],[19.6993,42.6548],[19.7221,42.6461],[19.7375,42.6244],[19.7469,42.5889],[19.7339,42.5626],[19.7343,42.5244],[19.7516,42.4934],[19.8014,42.4681],[19.8291,42.4687],[19.8733,42.4868],[19.9075,42.5064],[19.9563,42.5053],[19.9818,42.5108],[20.0177,42.5462],[20.0392,42.5578],[20.065,42.5468],[20.0856,42.53],[20.1355,42.5096],[20.1527,42.4934],[20.1808,42.4431],[20.1997,42.4278],[20.1975,42.3874],[20.2212,42.3637],[20.2296,42.3267],[20.2496,42.3186],[20.3334,42.3179],[20.457,42.2505],[20.4737,42.2371],[20.5358,42.2811],[20.5807,42.297],[20.5981,42.3171],[20.5807,42.3284],[20.5327,42.3532],[20.5094,42.3782],[20.5104,42.4417],[20.5063,42.469],[20.5168,42.4905],[20.541,42.5021],[20.6171,42.5236],[20.6829,42.5607],[20.7162,42.5607],[20.7592,42.6094],[20.7361,42.6095],[20.7026,42.6199],[20.6964,42.6426],[20.684,42.6629],[20.647,42.6747],[20.6237,42.6972],[20.6218,42.722],[20.6406,42.7631],[20.6452,42.7881],[20.6307,42.8231],[20.6138,42.8493],[20.5921,42.8696],[20.5642,42.8824],[20.4944,42.8875],[20.4988,42.8779],[20.4763,42.8555],[20.428,42.8406],[20.3454,42.8274],[20.3552,42.8662],[20.3536,42.891],[20.3371,42.907],[20.2756,42.9299],[20.2232,42.9577],[20.1946,42.9668],[20.1295,42.9736],[20.1169,42.9767],[20.0563,43.0208],[20.0544,43.0222],[20.0199,43.0473],[19.9597,43.0786],[19.9292,43.1139],[19.9071,43.1133],[19.8722,43.0904],[19.8051,43.09],[19.7818,43.0965],[19.7428,43.1265],[19.7136,43.1656],[19.6846,43.1567],[19.6187,43.1682],[19.5809,43.1878],[19.5478,43.2188],[19.5124,43.2406],[19.4731,43.2933],[19.414,43.3384],[19.3556,43.3931],[19.2184,43.4382],[19.1922,43.4545],[19.1759,43.4809],[19.1752,43.5096],[19.1953,43.5328],[19.1228,43.5359],[19.096,43.5129],[19.0381,43.511],[19.0002,43.5479],[18.9775,43.5462],[18.911,43.5073],[18.9056,43.4906],[18.9512,43.4638],[18.9463,43.4439],[18.9683,43.4481],[19.0099,43.411],[19.0396,43.3507],[19.0697,43.3088],[19.0225,43.2965],[19.0029,43.2739],[18.9895,43.272],[18.9595,43.3035],[18.9573,43.3259],[18.8991,43.3519],[18.8212,43.3414],[18.8335,43.3242],[18.8072,43.318],[18.6795,43.2495],[18.6643,43.2332],[18.6884,43.2245],[18.6453,43.1802],[18.6211,43.1246],[18.6211,43.0964],[18.639,43.0202],[18.539,43.0239],[18.483,43.0146],[18.4528,42.9934],[18.434,42.9369]]]}}
]}
