{
 "type": "FeatureCollection",
 "features": [
  {
   "type": "Feature",
   "properties": {
    "entityId": "mulgil",
    "from": 450,
    "to": 551,
    "certainty": "estimated",
    "source": "중고등학교 한국사 교과서 시대별 지도의 일반적인 경계를 따른 대략적인 추정. 운영자 검수 필요"
   },
   "geometry": {
    "type": "MultiPolygon",
    "coordinates": [
     [
      [
       [
        124.5,
        43.0769
       ],
       [
        125,
        43
       ],
       [
        124.5,
        43.1667
       ],
       [
        124.5,
        43.0769
       ]
      ]
     ],
     [
      [
       [
        126.5,
        46.2
       ],
       [
        127,
        46.3
       ],
       [
        128.8,
        45.5
       ],
       [
        128.8,
        43.7
       ],
       [
        130.3,
        43.4
       ],
       [
        130.8353,
        42.9718
       ],
       [
        130.6111,
        42.3889
       ],
       [
        130.7,
        42.3
       ],
       [
        131,
        42.1
       ],
       [
        131.5,
        41
       ],
       [
        130.8571,
        38.5
       ],
       [
        136,
        38.5
       ],
       [
        136,
        43.9
       ],
       [
        137,
        44.5
       ],
       [
        141.5,
        44.5
       ],
       [
        141.5,
        48.5
       ],
       [
        136,
        48.5
       ],
       [
        136,
        49.5
       ],
       [
        126.5,
        49.5
       ],
       [
        126.5,
        46.2
       ]
      ]
     ]
    ]
   }
  },
  {
   "type": "Feature",
   "properties": {
    "entityId": "mulgil",
    "from": 551,
    "to": 553,
    "certainty": "estimated",
    "source": "중고등학교 한국사 교과서 시대별 지도의 일반적인 경계를 따른 대략적인 추정. 운영자 검수 필요"
   },
   "geometry": {
    "type": "Polygon",
    "coordinates": [
     [
      [
       124.5,
       44.0889
      ],
      [
       124.6,
       44.2
      ],
      [
       125.5,
       45
      ],
      [
       127,
       45.3
      ],
      [
       129,
       44.8
      ],
      [
       130.5,
       43.8
      ],
      [
       131.2,
       43
      ],
      [
       131.4,
       42.6
      ],
      [
       131.8,
       42.2
      ],
      [
       131.1569,
       41.7548
      ],
      [
       131.5,
       41
      ],
      [
       130.8571,
       38.5
      ],
      [
       136,
       38.5
      ],
      [
       136,
       43.9
      ],
      [
       137,
       44.5
      ],
      [
       141.5,
       44.5
      ],
      [
       141.5,
       48.5
      ],
      [
       136,
       48.5
      ],
      [
       136,
       49.5
      ],
      [
       126.5,
       49.5
      ],
      [
       126.5,
       45.5
      ],
      [
       124.5,
       45.5
      ],
      [
       124.5,
       44.0889
      ]
     ]
    ]
   }
  },
  {
   "type": "Feature",
   "properties": {
    "entityId": "mulgil",
    "from": 553,
    "to": 560,
    "certainty": "estimated",
    "source": "중고등학교 한국사 교과서 시대별 지도의 일반적인 경계를 따른 대략적인 추정. 운영자 검수 필요"
   },
   "geometry": {
    "type": "Polygon",
    "coordinates": [
     [
      [
       124.5,
       44.0889
      ],
      [
       124.6,
       44.2
      ],
      [
       125.5,
       45
      ],
      [
       127,
       45.3
      ],
      [
       129,
       44.8
      ],
      [
       130.5,
       43.8
      ],
      [
       131.2,
       43
      ],
      [
       131.4,
       42.6
      ],
      [
       131.8,
       42.2
      ],
      [
       131.1569,
       41.7548
      ],
      [
       131.5,
       41
      ],
      [
       130.8645,
       38.5285
      ],
      [
       130.9167,
       38.5
      ],
      [
       136,
       38.5
      ],
      [
       136,
       43.9
      ],
      [
       137,
       44.5
      ],
      [
       141.5,
       44.5
      ],
      [
       141.5,
       48.5
      ],
      [
       136,
       48.5
      ],
      [
       136,
       49.5
      ],
      [
       126.5,
       49.5
      ],
      [
       126.5,
       45.5
      ],
      [
       124.5,
       45.5
      ],
      [
       124.5,
       44.0889
      ]
     ]
    ]
   }
  }
 ]
}
