{"type":"FeatureCollection","features":[
{"type":"Feature","properties":{"entityId":"nagorno-karabakh","from":1994,"to":2020,"certainty":"estimated","source":"유럽 쪽은 Natural Earth 1:10m admin-1(v5.1.2) 현대 행정구역 조각을 그 시기 국경에 맞춰 묶고, 조각이 역사 경계와 다른 곳은 선을 그어 나눈 근사. 유럽 밖(시베리아·중앙아시아·극동)은 대략적인 추정. 운영자 검수 필요"},"geometry":{"type":"Polygon","coordinates":[[[45.5763,39.9939],[45.5776,39.984],[45.5794,39.9702],[45.6111,39.9592],[45.7154,39.9509],[45.7644,39.9221],[45.8091,39.8512],[45.8619,39.8045],[45.8832,39.7961],[45.9792,39.7685],[46.0066,39.7479],[46.0451,39.6876],[46.0765,39.6681],[46.1145,39.6596],[46.1461,39.6385],[46.1696,39.6041],[46.2065,39.5879],[46.2412,39.5935],[46.3095,39.6205],[46.3437,39.6186],[46.3814,39.585],[46.4162,39.574],[46.4793,39.5787],[46.512,39.5676],[46.5273,39.5382],[46.492,39.5102],[46.4986,39.4831],[46.479,39.4618],[46.4057,39.4512],[46.374,39.436],[46.3609,39.4103],[46.3746,39.3788],[46.4074,39.3591],[46.4793,39.3342],[46.4953,39.324],[46.5177,39.2788],[46.5991,39.2225],[46.5264,39.1858],[46.5141,39.1844],[46.4534,39.2084],[46.4183,39.2119],[46.3953,39.1952],[46.3963,39.1644],[46.4218,39.1446],[46.4793,39.1148],[46.4975,39.0535],[46.4946,39.0255],[46.4758,38.9756],[46.4793,38.9394],[46.514,38.8822],[46.5537,38.8898],[46.5854,38.9077],[46.6107,38.934],[46.6388,38.9795],[46.6704,39.0049],[46.7284,39.028],[46.7448,39.0403],[46.7738,39.0854],[46.8117,39.1085],[46.8374,39.1432],[46.8664,39.1654],[46.8987,39.1717],[46.9416,39.1589],[47.0136,39.187],[47.0361,39.207],[47.0529,39.2449],[47.1022,39.3084],[47.1501,39.3311],[47.2613,39.3664],[47.2195,39.3931],[47.1634,39.3849],[47.1241,39.4363],[47.1101,39.4422],[47.13,39.47],[47.19,39.53],[47.22,39.62],[47.25,39.7],[47.26,39.8],[47.2002,39.8598],[47.2002,39.8598],[47.2,39.86],[47.1099,39.923],[47.0945,39.9256],[47.0724,39.9747],[47.0881,39.9834],[47.08,40.02],[47.02,40.08],[46.97,40.16],[46.9,40.25],[46.78,40.31],[46.6299,40.3663],[46.6243,40.364],[46.5689,40.3477],[46.5345,40.3131],[46.4293,40.263],[46.3178,40.2762],[46.234,40.2857],[46.1558,40.3075],[46.0858,40.3022],[45.9537,40.3151],[45.8974,40.2983],[45.8885,40.262],[45.9246,40.2662],[45.9792,40.2236],[45.9811,40.206],[45.9508,40.1172],[45.9095,40.0827],[45.894,40.0291],[45.8738,40.0098],[45.8039,40.0045],[45.6396,40.0254],[45.5763,39.9939]]]}},
{"type":"Feature","properties":{"entityId":"nagorno-karabakh","from":2020,"to":2023,"certainty":"estimated","source":"유럽 쪽은 Natural Earth 1:10m admin-1(v5.1.2) 현대 행정구역 조각을 그 시기 국경에 맞춰 묶고, 조각이 역사 경계와 다른 곳은 선을 그어 나눈 근사. 유럽 밖(시베리아·중앙아시아·극동)은 대략적인 추정. 운영자 검수 필요"},"geometry":{"type":"Polygon","coordinates":[[[46.4,40.22],[46.42,39.98],[46.4497,39.9577],[46.451,39.9581],[46.4371,39.9282],[46.4451,39.9024],[46.4886,39.8757],[46.5232,39.8203],[46.5403,39.7577],[46.5858,39.7628],[46.6271,39.7787],[46.6695,39.7827],[46.741,39.7718],[46.7584,39.7684],[46.7769,39.7568],[46.7875,39.7224],[46.7894,39.6555],[46.8411,39.6269],[46.9061,39.6684],[46.9051,39.6717],[47.05,39.65],[47.1169,39.6538],[47.138,39.6617],[47.1742,39.6846],[47.249,39.6973],[47.25,39.7],[47.26,39.8],[47.2002,39.8598],[47.1851,39.8607],[47.1564,39.8287],[47.0996,39.8392],[47.0037,39.883],[46.9604,39.8751],[46.9298,39.8221],[46.8527,39.7953],[46.8946,39.856],[46.9149,39.8768],[46.9236,39.9037],[46.8826,39.9184],[46.8476,39.9439],[46.8226,39.9884],[46.7743,40.0073],[46.7334,39.9983],[46.6979,40.0182],[46.7616,40.033],[46.7661,40.0691],[46.8064,40.1166],[46.8141,40.1507],[46.9309,40.1933],[46.9316,40.2093],[46.9,40.25],[46.8,40.3],[46.76,40.3],[46.72,40.19],[46.58,40.22],[46.4,40.22]]]}}
]}
