{"type":"FeatureCollection","features":[
{"type":"Feature","properties":{"entityId":"navarre","from":1000,"to":1035,"certainty":"estimated","source":"유럽 쪽은 Natural Earth 1:10m admin-1(v5.1.2) 현대 행정구역 조각을 그 시기 국경에 맞춰 묶고, 조각이 역사 경계와 다른 곳은 선을 그어 나눈 근사. 유럽 밖(시베리아·중앙아시아·극동)은 대략적인 추정. 운영자 검수 필요"},"geometry":{"type":"MultiPolygon","coordinates":[[[[-3.4416,43.2333],[-3.4409,43.1881],[-3.4238,43.1406],[-3.3624,43.1579],[-3.2785,43.1973],[-3.2297,43.187],[-3.1515,43.1814],[-3.1418,43.1651],[-3.1726,43.1314],[-3.1418,43.1041],[-3.1485,43.0504],[-3.1651,43.0267],[-3.1216,43.0136],[-3.0735,43.014],[-3.0553,43.0431],[-3.0367,43.0497],[-2.9874,43.0089],[-2.9993,42.9895],[-3.0394,42.987],[-3.0123,42.9585],[-2.9834,42.951],[-2.9875,42.9263],[-3.0292,42.9102],[-3.0847,42.9055],[-3.141,42.9161],[-3.1512,42.9343],[-3.1883,42.9467],[-3.2332,42.9382],[-3.2791,42.8872],[-3.2759,42.8747],[-3.2174,42.8297],[-3.2027,42.8551],[-3.1591,42.8646],[-3.1302,42.8886],[-3.1125,42.8683],[-3.1512,42.8176],[-3.1196,42.7687],[-3.0635,42.7853],[-2.9687,42.7378],[-2.8525,42.6654],[-2.8373,42.6441],[-2.9067,42.6263],[-3.0142,42.6409],[-3.0569,42.6373],[-3.0758,42.6257],[-3.0605,42.5994],[-3.1139,42.5484],[-3.1107,42.5368],[-3.07,42.5291],[-3.0832,42.4915],[-3.0492,42.4523],[-3.0582,42.4259],[-3.056,42.3803],[-3.0784,42.3555],[-3.1079,42.349],[-3.0879,42.27],[-3.1022,42.2178],[-3.1204,42.1963],[-3.0778,42.1377],[-3.0552,42.1253],[-3.0263,42.088],[-3.0108,42.0821],[-2.9342,42.0827],[-2.9102,42.0234],[-2.8709,42.0147],[-2.8128,42.0381],[-2.7963,42.056],[-2.7859,42.1011],[-2.7622,42.1181],[-2.7172,42.1142],[-2.7157,42.0799],[-2.7342,42.0641],[-2.7436,42.0225],[-2.6718,42.0005],[-2.5729,42.0002],[-2.5369,42.0526],[-2.5157,42.0688],[-2.5116,42.1051],[-2.4815,42.1082],[-2.4374,42.1319],[-2.3474,42.1422],[-2.2812,42.1299],[-2.2722,42.1019],[-2.2455,42.0895],[-2.1897,42.1041],[-2.1379,42.1016],[-2.1227,42.0907],[-2.149,42.0648],[-2.1462,42.0432],[-2.1166,42.022],[-2.1106,41.9634],[-2.0952,41.9527],[-1.9983,41.9335],[-1.9779,41.9205],[-1.9225,41.9257],[-1.8577,41.9548],[-1.8445,41.982],[-1.8524,42.0012],[-1.7766,41.993],[-1.7236,41.9606],[-1.6946,41.9533],[-1.6572,41.9622],[-1.6219,41.9512],[-1.5559,41.9116],[-1.4833,41.9222],[-1.4193,41.9089],[-1.3831,41.9437],[-1.3612,41.9838],[-1.316,42.0371],[-1.3239,42.0673],[-1.3507,42.0727],[-1.3942,42.1276],[-1.3966,42.178],[-1.4164,42.2206],[-1.384,42.3004],[-1.3345,42.3499],[-1.3504,42.3868],[-1.342,42.4148],[-1.2727,42.4876],[-1.2845,42.5166],[-1.2574,42.5532],[-1.2053,42.5581],[-1.185,42.5846],[-1.1533,42.6054],[-1.145,42.6414],[-1.0445,42.65],[-1.0246,42.6961],[-0.9771,42.7057],[-0.9044,42.7426],[-0.9092,42.7069],[-0.883,42.6888],[-0.8845,42.6691],[-0.9247,42.6464],[-0.9048,42.6131],[-0.8968,42.4943],[-0.8888,42.4718],[-0.8982,42.4326],[-0.8423,42.4075],[-0.8389,42.3687],[-0.898,42.3],[-0.7958,42.3],[-0.7727,42.345],[-0.7802,42.3919],[-0.7554,42.3917],[-0.7401,42.3753],[-0.735,42.3],[0.7457,42.3],[0.7511,42.348],[0.7464,42.3905],[0.7329,42.4269],[0.7151,42.4431],[0.7014,42.4843],[0.7303,42.5007],[0.7306,42.5197],[0.7615,42.5693],[0.7655,42.6099],[0.7084,42.6342],[0.6756,42.6887],[0.6634,42.6962],[0.6436,42.6845],[0.6082,42.688],[0.4835,42.6853],[0.4669,42.6904],[0.3893,42.6851],[0.3542,42.7175],[0.336,42.7127],[0.2902,42.6703],[0.2754,42.6687],[0.2384,42.7104],[0.1692,42.7265],[0.1342,42.7152],[0.0728,42.7085],[-0.0043,42.6875],[-0.0389,42.6851],[-0.119,42.7169],[-0.1636,42.778],[-0.1614,42.7953],[-0.2084,42.7839],[-0.2351,42.7862],[-0.247,42.8048],[-0.3051,42.8308],[-0.3228,42.8425],[-0.4239,42.7907],[-0.4545,42.7889],[-0.5084,42.8075],[-0.5339,42.808],[-0.5356,42.7842],[-0.5787,42.7773],[-0.5829,42.7958],[-0.6095,42.8114],[-0.6483,42.8498],[-0.7004,42.8764],[-0.7301,42.8775],[-0.7459,42.8939],[-0.745,42.9187],[-0.7597,42.9465],[-0.7864,42.9533],[-0.8635,42.9431],[-0.9432,42.9479],[-0.9815,42.957],[-1.0285,42.9867],[-1.0797,42.9934],[-1.1124,43.0083],[-1.1499,43.0057],[-1.2169,43.0393],[-1.2749,43.0468],[-1.3106,43.0695],[-1.3086,43.1136],[-1.3483,43.0931],[-1.3576,43.0468],[-1.3831,43.0292],[-1.435,43.0357],[-1.4753,43.0601],[-1.4878,43.0818],[-1.4258,43.1353],[-1.3997,43.2067],[-1.4035,43.2433],[-1.4322,43.265],[-1.4664,43.2608],[-1.5081,43.2768],[-1.559,43.2841],[-1.5876,43.2516],[-1.639,43.2557],[-1.645,43.2924],[-1.6739,43.3042],[-1.7497,43.2948],[-1.7682,43.3309],[-1.7969,43.3411],[-1.7941,43.386],[-1.8006,43.3894],[-1.8006,43.4067],[-1.762,43.4067],[-1.762,43.4982],[-1.7614,43.4982],[-1.7614,43.5425],[-1.7997,43.5425],[-1.8381,43.4982],[-1.8393,43.4968],[-1.9028,43.4234],[-1.9938,43.4252],[-2.1803,43.4289],[-2.2735,43.4308],[-2.3201,43.4317],[-2.3668,43.4326],[-2.4134,43.4336],[-2.46,43.4345],[-2.5533,43.4364],[-2.7397,43.4401],[-2.7558,43.4503],[-2.8064,43.4441],[-2.8744,43.4547],[-2.8748,43.4547],[-2.9256,43.4437],[-2.9803,43.4448],[-3.0672,43.4465],[-3.1106,43.4474],[-3.1106,43.4012],[-3.1541,43.4012],[-3.1541,43.362],[-3.1506,43.3602],[-3.1495,43.3244],[-3.1602,43.3078],[-3.2035,43.2923],[-3.2352,43.2991],[-3.3229,43.3001],[-3.4309,43.2435],[-3.4416,43.2333]],[[-3.3042,43.2607],[-3.2861,43.2564],[-3.2674,43.2274],[-3.2992,43.2169],[-3.3042,43.2607]],[[-2.8681,42.7514],[-2.8166,42.794],[-2.7528,42.797],[-2.6389,42.7742],[-2.6081,42.7766],[-2.5561,42.7564],[-2.5619,42.7391],[-2.6008,42.7044],[-2.5595,42.6735],[-2.5258,42.6895],[-2.5129,42.6534],[-2.5382,42.6434],[-2.5569,42.6534],[-2.6341,42.6548],[-2.6844,42.6703],[-2.7524,42.6818],[-2.8141,42.7029],[-2.8653,42.7363],[-2.8681,42.7514]]],[[[-1.1945,42.4243],[-1.1904,42.4028],[-1.1581,42.426],[-1.1639,42.4409],[-1.1945,42.4243]]],[[[-1.1342,42.4467],[-1.0755,42.4326],[-1.0672,42.4458],[-1.1061,42.483],[-1.1342,42.4467]]]]}},
{"type":"Feature","properties":{"entityId":"navarre","from":1035,"to":1076,"certainty":"estimated","source":"유럽 쪽은 Natural Earth 1:10m admin-1(v5.1.2) 현대 행정구역 조각을 그 시기 국경에 맞춰 묶고, 조각이 역사 경계와 다른 곳은 선을 그어 나눈 근사. 유럽 밖(시베리아·중앙아시아·극동)은 대략적인 추정. 운영자 검수 필요"},"geometry":{"type":"MultiPolygon","coordinates":[[[[-1.7497,43.2948],[-1.6739,43.3042],[-1.645,43.2924],[-1.639,43.2557],[-1.5876,43.2516],[-1.559,43.2841],[-1.5081,43.2768],[-1.4664,43.2608],[-1.4322,43.265],[-1.4035,43.2433],[-1.3997,43.2067],[-1.4258,43.1353],[-1.4878,43.0818],[-1.4753,43.0601],[-1.435,43.0357],[-1.3831,43.0292],[-1.3576,43.0468],[-1.3483,43.0931],[-1.3086,43.1136],[-1.3106,43.0695],[-1.2749,43.0468],[-1.2169,43.0393],[-1.1499,43.0057],[-1.1124,43.0083],[-1.0797,42.9934],[-1.0285,42.9867],[-0.9815,42.957],[-0.9432,42.9479],[-0.8635,42.9431],[-0.7864,42.9533],[-0.7597,42.9465],[-0.745,42.9187],[-0.8062,42.9044],[-0.8192,42.8761],[-0.8462,42.8495],[-0.8569,42.7869],[-0.9044,42.7426],[-0.9771,42.7057],[-1.0246,42.6961],[-1.0445,42.65],[-1.145,42.6414],[-1.1533,42.6054],[-1.185,42.5846],[-1.2053,42.5581],[-1.2574,42.5532],[-1.2845,42.5166],[-1.2727,42.4876],[-1.342,42.4148],[-1.3504,42.3868],[-1.3345,42.3499],[-1.384,42.3004],[-1.4164,42.2206],[-1.3966,42.178],[-1.3942,42.1276],[-1.3507,42.0727],[-1.3239,42.0673],[-1.316,42.0371],[-1.3612,41.9838],[-1.3831,41.9437],[-1.4193,41.9089],[-1.4833,41.9222],[-1.5559,41.9116],[-1.6219,41.9512],[-1.6572,41.9622],[-1.6946,41.9533],[-1.7236,41.9606],[-1.7766,41.993],[-1.8524,42.0012],[-1.8445,41.982],[-1.8577,41.9548],[-1.9225,41.9257],[-1.9779,41.9205],[-1.9983,41.9335],[-2.0952,41.9527],[-2.1106,41.9634],[-2.1166,42.022],[-2.1462,42.0432],[-2.149,42.0648],[-2.1227,42.0907],[-2.1379,42.1016],[-2.1897,42.1041],[-2.2455,42.0895],[-2.2722,42.1019],[-2.2812,42.1299],[-2.3474,42.1422],[-2.4374,42.1319],[-2.4815,42.1082],[-2.5116,42.1051],[-2.5157,42.0688],[-2.5369,42.0526],[-2.5729,42.0002],[-2.6718,42.0005],[-2.7436,42.0225],[-2.7342,42.0641],[-2.7157,42.0799],[-2.7172,42.1142],[-2.7622,42.1181],[-2.7859,42.1011],[-2.7963,42.056],[-2.8128,42.0381],[-2.8709,42.0147],[-2.9102,42.0234],[-2.9342,42.0827],[-3.0108,42.0821],[-3.0263,42.088],[-3.0552,42.1253],[-3.0778,42.1377],[-3.1204,42.1963],[-3.1022,42.2178],[-3.0879,42.27],[-3.1079,42.349],[-3.0784,42.3555],[-3.056,42.3803],[-3.0582,42.4259],[-3.0492,42.4523],[-3.0832,42.4915],[-3.07,42.5291],[-3.1107,42.5368],[-3.1139,42.5484],[-3.0605,42.5994],[-3.0758,42.6257],[-3.0569,42.6373],[-3.0142,42.6409],[-2.9067,42.6263],[-2.8373,42.6441],[-2.8525,42.6654],[-2.9687,42.7378],[-3.0635,42.7853],[-3.1196,42.7687],[-3.1512,42.8176],[-3.1125,42.8683],[-3.1302,42.8886],[-3.1591,42.8646],[-3.2027,42.8551],[-3.2174,42.8297],[-3.2759,42.8747],[-3.2791,42.8872],[-3.2332,42.9382],[-3.1883,42.9467],[-3.1512,42.9343],[-3.141,42.9161],[-3.0847,42.9055],[-3.0292,42.9102],[-2.9875,42.9263],[-2.9834,42.951],[-3.0123,42.9585],[-3.0394,42.987],[-2.9993,42.9895],[-2.9874,43.0089],[-3.0367,43.0497],[-3.0553,43.0431],[-3.0735,43.014],[-3.1216,43.0136],[-3.1651,43.0267],[-3.1485,43.0504],[-3.1418,43.1041],[-3.1726,43.1314],[-3.1418,43.1651],[-3.1515,43.1814],[-3.2297,43.187],[-3.2785,43.1973],[-3.3624,43.1579],[-3.4238,43.1406],[-3.4409,43.1881],[-3.4416,43.2333],[-3.4309,43.2435],[-3.3229,43.3001],[-3.2352,43.2991],[-3.2035,43.2923],[-3.1602,43.3078],[-3.1495,43.3244],[-3.1506,43.3602],[-3.1541,43.362],[-3.1541,43.4012],[-3.1106,43.4012],[-3.1106,43.4474],[-3.0672,43.4465],[-2.9803,43.4448],[-2.9256,43.4437],[-2.8748,43.4547],[-2.8746,43.4547],[-2.8744,43.4547],[-2.8064,43.4441],[-2.7558,43.4503],[-2.7397,43.4401],[-2.5533,43.4364],[-2.46,43.4345],[-2.4134,43.4336],[-2.3668,43.4326],[-2.3201,43.4317],[-2.2735,43.4308],[-2.1803,43.4289],[-1.9938,43.4252],[-1.9028,43.4234],[-1.8393,43.4968],[-1.8381,43.4982],[-1.7997,43.5425],[-1.7614,43.5425],[-1.7614,43.4982],[-1.762,43.4982],[-1.762,43.4694],[-1.762,43.4677],[-1.762,43.4406],[-1.762,43.4372],[-1.762,43.4067],[-1.8006,43.4067],[-1.8006,43.3894],[-1.7941,43.386],[-1.7969,43.3411],[-1.7682,43.3309],[-1.7497,43.2948]],[[-3.2992,43.2169],[-3.2674,43.2274],[-3.2861,43.2564],[-3.3042,43.2607],[-3.2992,43.2169]],[[-2.7528,42.797],[-2.8166,42.794],[-2.8681,42.7514],[-2.8653,42.7363],[-2.8141,42.7029],[-2.7524,42.6818],[-2.6844,42.6703],[-2.6341,42.6548],[-2.5569,42.6534],[-2.5382,42.6434],[-2.5129,42.6534],[-2.5258,42.6895],[-2.5595,42.6735],[-2.6008,42.7044],[-2.5619,42.7391],[-2.5561,42.7564],[-2.6081,42.7766],[-2.6389,42.7742],[-2.7528,42.797]]],[[[-1.1639,42.4409],[-1.1581,42.426],[-1.1904,42.4028],[-1.1945,42.4243],[-1.1639,42.4409]]],[[[-1.1061,42.483],[-1.0672,42.4458],[-1.0755,42.4326],[-1.1342,42.4467],[-1.1061,42.483]]]]}},
{"type":"Feature","properties":{"entityId":"navarre","from":1076,"to":1136,"certainty":"estimated","source":"유럽 쪽은 Natural Earth 1:10m admin-1(v5.1.2) 현대 행정구역 조각을 그 시기 국경에 맞춰 묶고, 조각이 역사 경계와 다른 곳은 선을 그어 나눈 근사. 유럽 밖(시베리아·중앙아시아·극동)은 대략적인 추정. 운영자 검수 필요"},"geometry":{"type":"MultiPolygon","coordinates":[[[[-1.7497,43.2948],[-1.6739,43.3042],[-1.645,43.2924],[-1.639,43.2557],[-1.5876,43.2516],[-1.559,43.2841],[-1.5081,43.2768],[-1.4664,43.2608],[-1.4322,43.265],[-1.4035,43.2433],[-1.3997,43.2067],[-1.4258,43.1353],[-1.4878,43.0818],[-1.4753,43.0601],[-1.435,43.0357],[-1.3831,43.0292],[-1.3576,43.0468],[-1.3483,43.0931],[-1.3086,43.1136],[-1.3106,43.0695],[-1.2749,43.0468],[-1.2169,43.0393],[-1.1499,43.0057],[-1.1124,43.0083],[-1.0797,42.9934],[-1.0285,42.9867],[-0.9815,42.957],[-0.9432,42.9479],[-0.8635,42.9431],[-0.7864,42.9533],[-0.7597,42.9465],[-0.745,42.9187],[-0.8062,42.9044],[-0.8192,42.8761],[-0.8462,42.8495],[-0.8569,42.7869],[-0.9044,42.7426],[-0.9771,42.7057],[-1.0246,42.6961],[-1.0445,42.65],[-1.145,42.6414],[-1.1533,42.6054],[-1.185,42.5846],[-1.2053,42.5581],[-1.2574,42.5532],[-1.2845,42.5166],[-1.2727,42.4876],[-1.342,42.4148],[-1.3504,42.3868],[-1.3345,42.3499],[-1.384,42.3004],[-1.4164,42.2206],[-1.3966,42.178],[-1.3942,42.1276],[-1.3507,42.0727],[-1.3239,42.0673],[-1.316,42.0371],[-1.3612,41.9838],[-1.3831,41.9437],[-1.4193,41.9089],[-1.4833,41.9222],[-1.5559,41.9116],[-1.6219,41.9512],[-1.6572,41.9622],[-1.6946,41.9533],[-1.7236,41.9606],[-1.7766,41.993],[-1.8524,42.0012],[-1.8906,42.0253],[-1.9013,42.0456],[-1.8961,42.0761],[-1.8358,42.1279],[-1.8234,42.1456],[-1.7742,42.14],[-1.7541,42.1464],[-1.7131,42.1361],[-1.6858,42.149],[-1.6971,42.2158],[-1.7958,42.2565],[-1.8293,42.2776],[-1.8619,42.2842],[-1.8635,42.3049],[-1.9013,42.3254],[-1.9767,42.393],[-2.0324,42.393],[-2.0696,42.4148],[-2.0553,42.4284],[-2.0765,42.4426],[-2.172,42.4414],[-2.206,42.4464],[-2.2387,42.472],[-2.2784,42.4899],[-2.3433,42.483],[-2.4061,42.4971],[-2.394,42.565],[-2.4059,42.5961],[-2.4213,42.5988],[-2.4501,42.576],[-2.4814,42.5859],[-2.4927,42.6093],[-2.4087,42.6602],[-2.3659,42.6379],[-2.3284,42.643],[-2.2927,42.6631],[-2.312,42.6829],[-2.3207,42.721],[-2.2849,42.7447],[-2.2744,42.791],[-2.2423,42.8392],[-2.253,42.9001],[-2.2141,42.9496],[-2.1329,42.9469],[-2.0947,42.9755],[-2.0427,42.9945],[-2.0406,43.0276],[-2.0146,43.067],[-1.9267,43.1144],[-1.9125,43.1351],[-1.9187,43.1922],[-1.9085,43.2183],[-1.8893,43.2116],[-1.8211,43.2386],[-1.7913,43.2774],[-1.7497,43.2948]]],[[[-1.1639,42.4409],[-1.1581,42.426],[-1.1904,42.4028],[-1.1945,42.4243],[-1.1639,42.4409]]],[[[-1.1061,42.483],[-1.0672,42.4458],[-1.0755,42.4326],[-1.1342,42.4467],[-1.1061,42.483]]]]}},
{"type":"Feature","properties":{"entityId":"navarre","from":1136,"to":1200,"certainty":"estimated","source":"유럽 쪽은 Natural Earth 1:10m admin-1(v5.1.2) 현대 행정구역 조각을 그 시기 국경에 맞춰 묶고, 조각이 역사 경계와 다른 곳은 선을 그어 나눈 근사. 유럽 밖(시베리아·중앙아시아·극동)은 대략적인 추정. 운영자 검수 필요"},"geometry":{"type":"MultiPolygon","coordinates":[[[[-2.8373,42.6441],[-2.8525,42.6654],[-2.9687,42.7378],[-3.0635,42.7853],[-3.1196,42.7687],[-3.1512,42.8176],[-3.1125,42.8683],[-3.1302,42.8886],[-3.1591,42.8646],[-3.2027,42.8551],[-3.2174,42.8297],[-3.2759,42.8747],[-3.2791,42.8872],[-3.2332,42.9382],[-3.1883,42.9467],[-3.1512,42.9343],[-3.141,42.9161],[-3.0847,42.9055],[-3.0292,42.9102],[-2.9875,42.9263],[-2.9834,42.951],[-3.0123,42.9585],[-3.0394,42.987],[-2.9993,42.9895],[-2.9874,43.0089],[-3.0367,43.0497],[-3.0553,43.0431],[-3.0735,43.014],[-3.1216,43.0136],[-3.1651,43.0267],[-3.1485,43.0504],[-3.1418,43.1041],[-3.1726,43.1314],[-3.1418,43.1651],[-3.1041,43.1452],[-3.0433,43.1547],[-3.0218,43.1917],[-2.9993,43.205],[-2.9705,43.1933],[-2.9359,43.1469],[-2.954,43.1093],[-2.9483,43.0839],[-2.8954,43.0475],[-2.8627,43.0488],[-2.7819,43.0267],[-2.7384,43.0332],[-2.6979,43.0206],[-2.6405,43.0227],[-2.6298,43.0355],[-2.6568,43.0758],[-2.6225,43.0877],[-2.6002,43.0815],[-2.5465,43.088],[-2.514,43.0932],[-2.4983,43.1187],[-2.5071,43.1615],[-2.4889,43.1837],[-2.4905,43.2224],[-2.4594,43.2273],[-2.4182,43.2675],[-2.4402,43.2881],[-2.4068,43.3293],[-2.4134,43.3316],[-2.4134,43.3472],[-2.4134,43.3763],[-2.3668,43.3763],[-2.3668,43.4004],[-2.3668,43.4049],[-2.3668,43.4326],[-2.3201,43.4317],[-2.2735,43.4308],[-2.1803,43.4289],[-1.9938,43.4252],[-1.9028,43.4234],[-1.8393,43.4968],[-1.8381,43.4982],[-1.7997,43.5425],[-1.7614,43.5425],[-1.7614,43.4982],[-1.762,43.4982],[-1.762,43.4694],[-1.762,43.4677],[-1.762,43.4406],[-1.762,43.4372],[-1.762,43.4067],[-1.8006,43.4067],[-1.8006,43.3894],[-1.7941,43.386],[-1.7969,43.3411],[-1.7682,43.3309],[-1.7497,43.2948],[-1.6739,43.3042],[-1.645,43.2924],[-1.639,43.2557],[-1.5876,43.2516],[-1.559,43.2841],[-1.5081,43.2768],[-1.4664,43.2608],[-1.4322,43.265],[-1.4035,43.2433],[-1.3997,43.2067],[-1.4258,43.1353],[-1.4878,43.0818],[-1.4753,43.0601],[-1.435,43.0357],[-1.3831,43.0292],[-1.3576,43.0468],[-1.3483,43.0931],[-1.3086,43.1136],[-1.3106,43.0695],[-1.2749,43.0468],[-1.2169,43.0393],[-1.1499,43.0057],[-1.1124,43.0083],[-1.0797,42.9934],[-1.0285,42.9867],[-0.9815,42.957],[-0.9432,42.9479],[-0.8635,42.9431],[-0.7864,42.9533],[-0.7597,42.9465],[-0.745,42.9187],[-0.8062,42.9044],[-0.8192,42.8761],[-0.8462,42.8495],[-0.8569,42.7869],[-0.9044,42.7426],[-0.9771,42.7057],[-1.0246,42.6961],[-1.0445,42.65],[-1.145,42.6414],[-1.1533,42.6054],[-1.185,42.5846],[-1.2053,42.5581],[-1.2574,42.5532],[-1.2845,42.5166],[-1.2727,42.4876],[-1.342,42.4148],[-1.3504,42.3868],[-1.3345,42.3499],[-1.384,42.3004],[-1.4164,42.2206],[-1.3966,42.178],[-1.3942,42.1276],[-1.3507,42.0727],[-1.3239,42.0673],[-1.316,42.0371],[-1.3612,41.9838],[-1.3831,41.9437],[-1.4193,41.9089],[-1.4833,41.9222],[-1.5559,41.9116],[-1.6219,41.9512],[-1.6572,41.9622],[-1.6946,41.9533],[-1.7236,41.9606],[-1.7766,41.993],[-1.8524,42.0012],[-1.8906,42.0253],[-1.9013,42.0456],[-1.8961,42.0761],[-1.8358,42.1279],[-1.8234,42.1456],[-1.7742,42.14],[-1.7541,42.1464],[-1.7131,42.1361],[-1.6858,42.149],[-1.6971,42.2158],[-1.7958,42.2565],[-1.8293,42.2776],[-1.8619,42.2842],[-1.8635,42.3049],[-1.9013,42.3254],[-1.9767,42.393],[-2.0324,42.393],[-2.0696,42.4148],[-2.0553,42.4284],[-2.0765,42.4426],[-2.172,42.4414],[-2.206,42.4464],[-2.2387,42.472],[-2.2784,42.4899],[-2.3433,42.483],[-2.4061,42.4971],[-2.462,42.5073],[-2.5015,42.5377],[-2.5288,42.5172],[-2.5835,42.4967],[-2.5851,42.512],[-2.6179,42.5077],[-2.6847,42.5378],[-2.6856,42.5818],[-2.6994,42.5977],[-2.7474,42.6187],[-2.7697,42.6088],[-2.78,42.5856],[-2.8268,42.5902],[-2.8373,42.6441]],[[-2.7528,42.797],[-2.8166,42.794],[-2.8681,42.7514],[-2.8653,42.7363],[-2.8141,42.7029],[-2.7524,42.6818],[-2.6844,42.6703],[-2.6341,42.6548],[-2.5569,42.6534],[-2.5382,42.6434],[-2.5129,42.6534],[-2.5258,42.6895],[-2.5595,42.6735],[-2.6008,42.7044],[-2.5619,42.7391],[-2.5561,42.7564],[-2.6081,42.7766],[-2.6389,42.7742],[-2.7528,42.797]]],[[[-1.1639,42.4409],[-1.1581,42.426],[-1.1904,42.4028],[-1.1945,42.4243],[-1.1639,42.4409]]],[[[-1.1061,42.483],[-1.0672,42.4458],[-1.0755,42.4326],[-1.1342,42.4467],[-1.1061,42.483]]]]}},
{"type":"Feature","properties":{"entityId":"navarre","from":1200,"to":1512,"certainty":"estimated","source":"유럽 쪽은 Natural Earth 1:10m admin-1(v5.1.2) 현대 행정구역 조각을 그 시기 국경에 맞춰 묶고, 조각이 역사 경계와 다른 곳은 선을 그어 나눈 근사. 유럽 밖(시베리아·중앙아시아·극동)은 대략적인 추정. 운영자 검수 필요"},"geometry":{"type":"MultiPolygon","coordinates":[[[[-1.7497,43.2948],[-1.6739,43.3042],[-1.645,43.2924],[-1.639,43.2557],[-1.5876,43.2516],[-1.559,43.2841],[-1.5081,43.2768],[-1.4664,43.2608],[-1.4322,43.265],[-1.4035,43.2433],[-1.3997,43.2067],[-1.4258,43.1353],[-1.4878,43.0818],[-1.4753,43.0601],[-1.435,43.0357],[-1.3831,43.0292],[-1.3576,43.0468],[-1.3483,43.0931],[-1.3086,43.1136],[-1.3106,43.0695],[-1.2749,43.0468],[-1.2169,43.0393],[-1.1499,43.0057],[-1.1124,43.0083],[-1.0797,42.9934],[-1.0285,42.9867],[-0.9815,42.957],[-0.9432,42.9479],[-0.8635,42.9431],[-0.7864,42.9533],[-0.7597,42.9465],[-0.745,42.9187],[-0.8062,42.9044],[-0.8192,42.8761],[-0.8462,42.8495],[-0.8569,42.7869],[-0.9044,42.7426],[-0.9771,42.7057],[-1.0246,42.6961],[-1.0445,42.65],[-1.145,42.6414],[-1.1533,42.6054],[-1.185,42.5846],[-1.2053,42.5581],[-1.2574,42.5532],[-1.2845,42.5166],[-1.2727,42.4876],[-1.342,42.4148],[-1.3504,42.3868],[-1.3345,42.3499],[-1.384,42.3004],[-1.4164,42.2206],[-1.3966,42.178],[-1.3942,42.1276],[-1.3507,42.0727],[-1.3239,42.0673],[-1.316,42.0371],[-1.3612,41.9838],[-1.3831,41.9437],[-1.4193,41.9089],[-1.4833,41.9222],[-1.5559,41.9116],[-1.6219,41.9512],[-1.6572,41.9622],[-1.6946,41.9533],[-1.7236,41.9606],[-1.7766,41.993],[-1.8524,42.0012],[-1.8906,42.0253],[-1.9013,42.0456],[-1.8961,42.0761],[-1.8358,42.1279],[-1.8234,42.1456],[-1.7742,42.14],[-1.7541,42.1464],[-1.7131,42.1361],[-1.6858,42.149],[-1.6971,42.2158],[-1.7958,42.2565],[-1.8293,42.2776],[-1.8619,42.2842],[-1.8635,42.3049],[-1.9013,42.3254],[-1.9767,42.393],[-2.0324,42.393],[-2.0696,42.4148],[-2.0553,42.4284],[-2.0765,42.4426],[-2.172,42.4414],[-2.206,42.4464],[-2.2387,42.472],[-2.2784,42.4899],[-2.3433,42.483],[-2.4061,42.4971],[-2.394,42.565],[-2.4059,42.5961],[-2.4213,42.5988],[-2.4501,42.576],[-2.4814,42.5859],[-2.4927,42.6093],[-2.4087,42.6602],[-2.3659,42.6379],[-2.3284,42.643],[-2.2927,42.6631],[-2.312,42.6829],[-2.3207,42.721],[-2.2849,42.7447],[-2.2744,42.791],[-2.2423,42.8392],[-2.253,42.9001],[-2.2141,42.9496],[-2.1329,42.9469],[-2.0947,42.9755],[-2.0427,42.9945],[-2.0406,43.0276],[-2.0146,43.067],[-1.9267,43.1144],[-1.9125,43.1351],[-1.9187,43.1922],[-1.9085,43.2183],[-1.8893,43.2116],[-1.8211,43.2386],[-1.7913,43.2774],[-1.7497,43.2948]]],[[[-1.1639,42.4409],[-1.1581,42.426],[-1.1904,42.4028],[-1.1945,42.4243],[-1.1639,42.4409]]],[[[-1.1061,42.483],[-1.0672,42.4458],[-1.0755,42.4326],[-1.1342,42.4467],[-1.1061,42.483]]]]}}
]}
