{"type":"FeatureCollection","features":[
{"type":"Feature","properties":{"entityId":"netherlands","from":1814,"to":1815,"certainty":"estimated","source":"유럽 쪽은 Natural Earth 1:10m admin-1(v5.1.2) 현대 행정구역 조각을 그 시기 국경에 맞춰 묶고, 조각이 역사 경계와 다른 곳은 선을 그어 나눈 근사. 유럽 밖(시베리아·중앙아시아·극동)은 대략적인 추정. 운영자 검수 필요"},"geometry":{"type":"MultiPolygon","coordinates":[[[[2.5218,51.0875],[2.537,51.0646],[2.557,51.0012],[2.6085,50.9611],[2.6117,50.9412],[2.5769,50.9115],[2.5967,50.8676],[2.59,50.842],[2.6204,50.8165],[2.6919,50.8088],[2.7066,50.7888],[2.7438,50.7662],[2.7682,50.7332],[2.8667,50.7001],[2.9001,50.7031],[2.9302,50.7362],[2.9714,50.7578],[3.0238,50.7683],[3.1033,50.7841],[3.1292,50.7791],[3.1628,50.7499],[3.1969,50.7092],[3.2244,50.7052],[3.2438,50.6721],[3.2298,50.6554],[3.2643,50.5702],[3.271,50.5269],[3.2999,50.5075],[3.3436,50.4929],[3.3854,50.4916],[3.4292,50.5018],[3.4629,50.5191],[3.4915,50.5171],[3.4991,50.4868],[3.5637,50.4865],[3.6083,50.4765],[3.6444,50.4455],[3.6529,50.3602],[3.6617,50.3193],[3.6969,50.2982],[3.7415,50.3431],[3.7987,50.3485],[3.8402,50.3452],[3.8959,50.3253],[3.9821,50.3426],[4.0227,50.3381],[4.0979,50.2948],[4.1253,50.2571],[4.1437,50.2516],[4.1628,50.273],[4.2037,50.252],[4.1573,50.2127],[4.1258,50.1282],[4.1806,50.1272],[4.21,50.0602],[4.1373,50.0251],[4.1317,49.975],[4.1877,49.9555],[4.2159,49.9544],[4.2776,49.9602],[4.4277,49.9336],[4.4648,49.9356],[4.6042,49.9802],[4.6567,49.9891],[4.6729,50.0164],[4.6819,50.0839],[4.7886,50.1534],[4.8156,50.1613],[4.8201,50.1464],[4.8719,50.1398],[4.8629,50.0841],[4.846,50.0907],[4.8272,50.0641],[4.8267,50.036],[4.7883,49.9743],[4.7973,49.9443],[4.8446,49.9317],[4.8594,49.8917],[4.8369,49.848],[4.8492,49.8316],[4.849,49.7942],[4.8842,49.7841],[4.9684,49.797],[4.9892,49.8234],[4.9849,49.8513],[5.0599,49.8861],[5.0432,49.8969],[5.0687,49.9124],[5.1189,49.9253],[5.0972,49.9393],[5.101,49.9616],[5.0626,49.9848],[5.0094,49.9827],[4.9911,50.0303],[5.0496,50.0637],[5.0662,50.1248],[5.0721,50.0968],[5.0933,50.092],[5.187,50.0962],[5.2673,50.1203],[5.2418,50.1355],[5.2703,50.1414],[5.2796,50.1595],[5.2441,50.186],[5.2444,50.2062],[5.2059,50.2199],[5.2533,50.2271],[5.2507,50.2388],[5.284,50.2492],[5.2945,50.2404],[5.3652,50.2697],[5.3927,50.2881],[5.3834,50.3192],[5.3401,50.3118],[5.3944,50.3378],[5.3802,50.3496],[5.4012,50.3676],[5.3924,50.3805],[5.4257,50.4006],[5.4057,50.4234],[5.4251,50.4308],[5.4685,50.4091],[5.5086,50.426],[5.5316,50.3951],[5.5877,50.4006],[5.6703,50.3577],[5.7208,50.3575],[5.7034,50.3326],[5.7206,50.3041],[5.7476,50.2998],[5.7207,50.2631],[5.8738,50.2715],[5.8455,50.2846],[5.8678,50.3195],[5.8493,50.3295],[5.8581,50.3479],[5.9793,50.3309],[5.9814,50.3297],[5.95,50.38],[5.93,50.48],[5.97,50.6],[5.95,50.75],[5.95,50.7505],[5.9949,50.7499],[5.973,50.7818],[6.0036,50.8126],[6.0005,50.8304],[6.0456,50.8442],[6.0631,50.8709],[6.0637,50.9075],[5.9999,50.9294],[6.0037,50.9737],[5.9277,50.9777],[5.8746,50.9654],[5.8736,50.9906],[5.8525,51.0428],[5.8805,51.0521],[5.9196,51.0297],[5.9503,51.0395],[5.9829,51.0747],[6.0754,51.1204],[6.1324,51.1398],[6.1473,51.1523],[6.1263,51.1646],[6.1571,51.1793],[6.1341,51.1842],[6.0843,51.1627],[6.0537,51.1894],[6.0652,51.2316],[6.0965,51.2588],[6.1478,51.3182],[6.1936,51.3445],[6.2078,51.3877],[6.1927,51.399],[6.2053,51.4584],[6.1933,51.5093],[6.0865,51.5955],[6.0992,51.6445],[6.0315,51.663],[6.0086,51.6812],[6.022,51.7095],[5.9783,51.7298],[5.9393,51.7319],[5.9461,51.7463],[5.9641,51.7766],[5.928,51.8067],[5.9481,51.823],[5.9889,51.8275],[6.0433,51.8469],[6.084,51.8537],[6.1561,51.8421],[6.093,51.8853],[6.127,51.8967],[6.2252,51.8625],[6.2564,51.8668],[6.2874,51.8462],[6.342,51.8367],[6.345,51.8211],[6.3825,51.8276],[6.3785,51.8601],[6.4425,51.8484],[6.4794,51.853],[6.5286,51.8764],[6.6282,51.8975],[6.7167,51.8993],[6.7438,51.9083],[6.7898,51.9511],[6.8107,51.9606],[6.804,51.9844],[6.7782,52.0013],[6.675,52.0348],[6.6799,52.0605],[6.7114,52.0673],[6.7329,52.092],[6.7716,52.1088],[6.8307,52.1129],[6.8848,52.1603],[6.9477,52.1828],[6.9819,52.214],[7.0266,52.2386],[7.0125,52.2849],[7.0398,52.3286],[7.0482,52.3651],[7.0342,52.3908],[6.9733,52.4514],[6.9515,52.4375],[6.9002,52.4319],[6.8203,52.4468],[6.7412,52.4537],[6.6951,52.4756],[6.684,52.526],[6.6717,52.5417],[6.7438,52.5597],[6.711,52.5766],[6.7018,52.6191],[6.7191,52.6268],[6.7705,52.641],[6.8654,52.642],[6.9184,52.6322],[6.9677,52.6367],[7.0185,52.626],[7.0367,52.6474],[7.044,52.6826],[7.0533,52.7906],[7.0722,52.8413],[7.0799,52.8544],[7.1619,52.9326],[7.1836,52.9661],[7.1944,53.0338],[7.1851,53.1054],[7.1727,53.1258],[7.1985,53.2006],[7.1946,53.245],[7.1962,53.246],[7.1962,53.2903],[7.1656,53.2903],[7.1656,53.293],[7.1045,53.293],[7.1045,53.3028],[7.044,53.3028],[7.0434,53.303],[7.0434,53.3345],[6.9823,53.3345],[6.9823,53.3487],[6.9494,53.3487],[6.9494,53.4413],[6.9518,53.4413],[6.9518,53.4722],[6.9212,53.4722],[6.9212,53.4982],[6.9065,53.4822],[6.8601,53.4838],[6.7379,53.4881],[6.4935,53.4965],[6.463,53.4976],[6.4324,53.4987],[6.4018,53.4997],[6.3713,53.5008],[6.3408,53.5018],[6.3245,53.5024],[6.3189,53.5072],[6.3345,53.511],[6.3337,53.5111],[6.3343,53.5112],[6.3338,53.5112],[6.3345,53.5114],[6.3118,53.5132],[6.3108,53.5141],[6.305,53.5138],[6.2913,53.5149],[6.2909,53.5149],[6.2752,53.5122],[6.2118,53.5089],[6.2017,53.5067],[6.1269,53.5092],[6.0753,53.511],[6.0749,53.511],[6.0046,53.4895],[5.9333,53.4678],[5.9138,53.4739],[5.8856,53.4732],[5.8773,53.4749],[5.8769,53.4749],[5.7077,53.4732],[5.6537,53.4663],[5.6541,53.4659],[5.6537,53.4659],[5.6545,53.4652],[5.6419,53.4634],[5.6361,53.4487],[5.679,53.4301],[5.7363,53.4435],[5.7854,53.4474],[5.8556,53.4474],[5.876,53.4502],[5.5158,53.3402],[5.2714,53.2655],[5.1492,53.2282],[5.0881,53.2095],[5.0576,53.2002],[5.027,53.1908],[4.9883,53.179],[4.9495,53.1672],[4.8974,53.1512],[4.8872,53.1644],[4.8872,53.1833],[4.8868,53.1831],[4.8868,53.1833],[4.8858,53.1827],[4.8858,53.1867],[4.8543,53.1877],[4.8057,53.133],[4.7597,53.1091],[4.7167,53.096],[4.7068,53.093],[4.4064,52.5894],[4.3168,52.4391],[4.2944,52.4015],[4.2719,52.3639],[4.2271,52.2887],[4.0493,51.9907],[4.0225,51.9944],[4.01,51.9801],[4.0257,51.951],[3.9638,51.8472],[3.9627,51.8474],[3.8623,51.8161],[3.8716,51.7883],[3.9339,51.7971],[3.9173,51.7693],[3.9016,51.743],[3.8101,51.7473],[3.7928,51.7457],[3.7892,51.7459],[3.7888,51.7459],[3.7825,51.7448],[3.7258,51.7397],[3.7054,51.7314],[3.6988,51.7303],[3.6988,51.7288],[3.6895,51.725],[3.6867,51.6927],[3.7206,51.6768],[3.7654,51.6784],[3.7758,51.6858],[3.8159,51.693],[3.8244,51.69],[3.8596,51.6726],[3.8284,51.6204],[3.8118,51.6115],[3.5604,51.5946],[3.5469,51.5894],[3.5008,51.5775],[3.4838,51.5652],[3.4575,51.5551],[3.447,51.546],[3.4619,51.519],[3.4948,51.5009],[3.5321,51.4626],[3.4881,51.4392],[3.4608,51.4246],[3.4179,51.4017],[3.3878,51.3857],[3.3828,51.3847],[3.3496,51.3778],[3.3477,51.3774],[3.3126,51.3702],[3.2775,51.3629],[3.2236,51.3518],[3.2073,51.3464],[3.1248,51.3297],[2.9983,51.2774],[2.9608,51.265],[2.9162,51.2478],[2.6523,51.1824],[2.5658,51.1609],[2.5226,51.1502],[2.5226,51.0877],[2.5218,51.0875]]],[[[4.8789,53.2209],[4.9102,53.2125],[4.9575,53.2456],[4.9716,53.2538],[5.1105,53.3079],[5.1098,53.3079],[5.1103,53.3081],[5.11,53.3081],[5.1105,53.3083],[5.1006,53.3085],[5.1048,53.3096],[5.0545,53.3138],[5.0428,53.3097],[5.0277,53.31],[5.0273,53.31],[4.9972,53.2937],[4.9865,53.29],[4.9212,53.2537],[4.917,53.2504],[4.9084,53.2458],[4.9087,53.2455],[4.9084,53.2454],[4.9095,53.2446],[4.8789,53.2209]]],[[[5.1789,53.3854],[5.1799,53.3531],[5.2083,53.3527],[5.3469,53.3892],[5.427,53.4064],[5.4817,53.4127],[5.4797,53.4172],[5.5821,53.4381],[5.5815,53.4382],[5.5819,53.4383],[5.5815,53.4384],[5.5821,53.4385],[5.5701,53.441],[5.5853,53.4536],[5.437,53.4365],[5.4284,53.4326],[5.4161,53.4315],[5.1893,53.3916],[5.1898,53.3914],[5.1895,53.3914],[5.1898,53.3913],[5.1893,53.3912],[5.1958,53.3891],[5.1789,53.3854]]],[[[6.0075,50.2187],[6.0276,50.2081],[6.0103,50.2657],[6.0075,50.2187]]],[[[6.0199,50.1947],[6.0215,50.1717],[6.03,50.2],[6.0295,50.2017],[6.0199,50.1947]]]]}},
{"type":"Feature","properties":{"entityId":"netherlands","from":1815,"to":1830,"certainty":"estimated","source":"유럽 쪽은 Natural Earth 1:10m admin-1(v5.1.2) 현대 행정구역 조각을 그 시기 국경에 맞춰 묶고, 조각이 역사 경계와 다른 곳은 선을 그어 나눈 근사. 유럽 밖(시베리아·중앙아시아·극동)은 대략적인 추정. 운영자 검수 필요"},"geometry":{"type":"MultiPolygon","coordinates":[[[[2.5218,51.0875],[2.537,51.0646],[2.557,51.0012],[2.6085,50.9611],[2.6117,50.9412],[2.5769,50.9115],[2.5967,50.8676],[2.59,50.842],[2.6204,50.8165],[2.6919,50.8088],[2.7066,50.7888],[2.7438,50.7662],[2.7682,50.7332],[2.8667,50.7001],[2.9001,50.7031],[2.9302,50.7362],[2.9714,50.7578],[3.0238,50.7683],[3.1033,50.7841],[3.1292,50.7791],[3.1628,50.7499],[3.1969,50.7092],[3.2244,50.7052],[3.2438,50.6721],[3.2298,50.6554],[3.2643,50.5702],[3.271,50.5269],[3.2999,50.5075],[3.3436,50.4929],[3.3854,50.4916],[3.4292,50.5018],[3.4629,50.5191],[3.4915,50.5171],[3.4991,50.4868],[3.5637,50.4865],[3.6083,50.4765],[3.6444,50.4455],[3.6529,50.3602],[3.6617,50.3193],[3.6969,50.2982],[3.7415,50.3431],[3.7987,50.3485],[3.8402,50.3452],[3.8959,50.3253],[3.9821,50.3426],[4.0227,50.3381],[4.0979,50.2948],[4.1253,50.2571],[4.1437,50.2516],[4.1628,50.273],[4.2037,50.252],[4.1573,50.2127],[4.1258,50.1282],[4.1806,50.1272],[4.21,50.0602],[4.1373,50.0251],[4.1317,49.975],[4.1877,49.9555],[4.2159,49.9544],[4.2776,49.9602],[4.4277,49.9336],[4.4648,49.9356],[4.6042,49.9802],[4.6567,49.9891],[4.6729,50.0164],[4.6819,50.0839],[4.7886,50.1534],[4.8156,50.1613],[4.8201,50.1464],[4.8719,50.1398],[4.8629,50.0841],[4.846,50.0907],[4.8272,50.0641],[4.8267,50.036],[4.7883,49.9743],[4.7973,49.9443],[4.8446,49.9317],[4.8594,49.8917],[4.8369,49.848],[4.8492,49.8316],[4.849,49.7942],[4.8842,49.7841],[4.9684,49.797],[4.9892,49.8234],[4.9849,49.8513],[5.0599,49.8861],[5.0432,49.8969],[5.0687,49.9124],[5.1189,49.9253],[5.0972,49.9393],[5.101,49.9616],[5.0626,49.9848],[5.0094,49.9827],[4.9911,50.0303],[5.0496,50.0637],[5.0662,50.1248],[5.0721,50.0968],[5.0933,50.092],[5.187,50.0962],[5.2673,50.1203],[5.2418,50.1355],[5.2703,50.1414],[5.2796,50.1595],[5.2441,50.186],[5.2444,50.2062],[5.2059,50.2199],[5.2533,50.2271],[5.2507,50.2388],[5.284,50.2492],[5.2945,50.2404],[5.3652,50.2697],[5.3927,50.2881],[5.3834,50.3192],[5.3401,50.3118],[5.3944,50.3378],[5.3802,50.3496],[5.4012,50.3676],[5.3924,50.3805],[5.4257,50.4006],[5.4057,50.4234],[5.4251,50.4308],[5.4685,50.4091],[5.5086,50.426],[5.5316,50.3951],[5.5877,50.4006],[5.6703,50.3577],[5.7208,50.3575],[5.7034,50.3326],[5.7206,50.3041],[5.7476,50.2998],[5.7207,50.2631],[5.8738,50.2715],[5.8455,50.2846],[5.8678,50.3195],[5.8493,50.3295],[5.8581,50.3479],[5.9793,50.3309],[5.9814,50.3297],[5.95,50.38],[5.93,50.48],[5.97,50.6],[5.95,50.75],[5.95,50.7505],[5.9949,50.7499],[5.973,50.7818],[6.0036,50.8126],[6.0005,50.8304],[6.0456,50.8442],[6.0631,50.8709],[6.0637,50.9075],[5.9999,50.9294],[6.0037,50.9737],[5.9277,50.9777],[5.8746,50.9654],[5.8736,50.9906],[5.8525,51.0428],[5.8805,51.0521],[5.9196,51.0297],[5.9503,51.0395],[5.9829,51.0747],[6.0754,51.1204],[6.1324,51.1398],[6.1473,51.1523],[6.1263,51.1646],[6.1571,51.1793],[6.1341,51.1842],[6.0843,51.1627],[6.0537,51.1894],[6.0652,51.2316],[6.0965,51.2588],[6.1478,51.3182],[6.1936,51.3445],[6.2078,51.3877],[6.1927,51.399],[6.2053,51.4584],[6.1933,51.5093],[6.0865,51.5955],[6.0992,51.6445],[6.0315,51.663],[6.0086,51.6812],[6.022,51.7095],[5.9783,51.7298],[5.9393,51.7319],[5.9461,51.7463],[5.9641,51.7766],[5.928,51.8067],[5.9481,51.823],[5.9889,51.8275],[6.0433,51.8469],[6.084,51.8537],[6.1561,51.8421],[6.093,51.8853],[6.127,51.8967],[6.2252,51.8625],[6.2564,51.8668],[6.2874,51.8462],[6.342,51.8367],[6.345,51.8211],[6.3825,51.8276],[6.3785,51.8601],[6.4425,51.8484],[6.4794,51.853],[6.5286,51.8764],[6.6282,51.8975],[6.7167,51.8993],[6.7438,51.9083],[6.7898,51.9511],[6.8107,51.9606],[6.804,51.9844],[6.7782,52.0013],[6.675,52.0348],[6.6799,52.0605],[6.7114,52.0673],[6.7329,52.092],[6.7716,52.1088],[6.8307,52.1129],[6.8848,52.1603],[6.9477,52.1828],[6.9819,52.214],[7.0266,52.2386],[7.0125,52.2849],[7.0398,52.3286],[7.0482,52.3651],[7.0342,52.3908],[6.9733,52.4514],[6.9515,52.4375],[6.9002,52.4319],[6.8203,52.4468],[6.7412,52.4537],[6.6951,52.4756],[6.684,52.526],[6.6717,52.5417],[6.7438,52.5597],[6.711,52.5766],[6.7018,52.6191],[6.7191,52.6268],[6.7705,52.641],[6.8654,52.642],[6.9184,52.6322],[6.9677,52.6367],[7.0185,52.626],[7.0367,52.6474],[7.044,52.6826],[7.0533,52.7906],[7.0722,52.8413],[7.0799,52.8544],[7.1619,52.9326],[7.1836,52.9661],[7.1944,53.0338],[7.1851,53.1054],[7.1727,53.1258],[7.1985,53.2006],[7.1946,53.245],[7.1962,53.246],[7.1962,53.2903],[7.1656,53.2903],[7.1656,53.293],[7.1045,53.293],[7.1045,53.3028],[7.044,53.3028],[7.0434,53.303],[7.0434,53.3345],[6.9823,53.3345],[6.9823,53.3487],[6.9494,53.3487],[6.9494,53.4413],[6.9518,53.4413],[6.9518,53.4722],[6.9212,53.4722],[6.9212,53.4982],[6.9065,53.4822],[6.8601,53.4838],[6.7379,53.4881],[6.4935,53.4965],[6.463,53.4976],[6.4324,53.4987],[6.4018,53.4997],[6.3713,53.5008],[6.3408,53.5018],[6.3245,53.5024],[6.3189,53.5072],[6.3345,53.511],[6.3337,53.5111],[6.3343,53.5112],[6.3338,53.5112],[6.3345,53.5114],[6.3118,53.5132],[6.3108,53.5141],[6.305,53.5138],[6.2913,53.5149],[6.2909,53.5149],[6.2752,53.5122],[6.2118,53.5089],[6.2017,53.5067],[6.1269,53.5092],[6.0753,53.511],[6.0749,53.511],[6.0046,53.4895],[5.9333,53.4678],[5.9138,53.4739],[5.8856,53.4732],[5.8773,53.4749],[5.8769,53.4749],[5.7077,53.4732],[5.6537,53.4663],[5.6541,53.4659],[5.6537,53.4659],[5.6545,53.4652],[5.6419,53.4634],[5.6361,53.4487],[5.679,53.4301],[5.7363,53.4435],[5.7854,53.4474],[5.8556,53.4474],[5.876,53.4502],[5.5158,53.3402],[5.2714,53.2655],[5.1492,53.2282],[5.0881,53.2095],[5.0576,53.2002],[5.027,53.1908],[4.9883,53.179],[4.9495,53.1672],[4.8974,53.1512],[4.8872,53.1644],[4.8872,53.1833],[4.8868,53.1831],[4.8868,53.1833],[4.8858,53.1827],[4.8858,53.1867],[4.8543,53.1877],[4.8057,53.133],[4.7597,53.1091],[4.7167,53.096],[4.7068,53.093],[4.4064,52.5894],[4.3168,52.4391],[4.2944,52.4015],[4.2719,52.3639],[4.2271,52.2887],[4.0493,51.9907],[4.0225,51.9944],[4.01,51.9801],[4.0257,51.951],[3.9638,51.8472],[3.9627,51.8474],[3.8623,51.8161],[3.8716,51.7883],[3.9339,51.7971],[3.9173,51.7693],[3.9016,51.743],[3.8101,51.7473],[3.7928,51.7457],[3.7892,51.7459],[3.7888,51.7459],[3.7825,51.7448],[3.7258,51.7397],[3.7054,51.7314],[3.6988,51.7303],[3.6988,51.7288],[3.6895,51.725],[3.6867,51.6927],[3.7206,51.6768],[3.7654,51.6784],[3.7758,51.6858],[3.8159,51.693],[3.8244,51.69],[3.8596,51.6726],[3.8284,51.6204],[3.8118,51.6115],[3.5604,51.5946],[3.5469,51.5894],[3.5008,51.5775],[3.4838,51.5652],[3.4575,51.5551],[3.447,51.546],[3.4619,51.519],[3.4948,51.5009],[3.5321,51.4626],[3.4881,51.4392],[3.4179,51.4017],[3.3878,51.3857],[3.3828,51.3847],[3.3496,51.3778],[3.3477,51.3774],[3.3126,51.3702],[3.2775,51.3629],[3.2236,51.3518],[3.2073,51.3464],[3.1248,51.3297],[2.9983,51.2774],[2.9608,51.265],[2.9162,51.2478],[2.6523,51.1824],[2.5658,51.1609],[2.5226,51.1502],[2.5226,51.0877],[2.5218,51.0875]]],[[[4.8789,53.2209],[4.9102,53.2125],[4.9575,53.2456],[4.9716,53.2538],[5.1105,53.3079],[5.1098,53.3079],[5.1103,53.3081],[5.11,53.3081],[5.1105,53.3083],[5.1006,53.3085],[5.1048,53.3096],[5.0545,53.3138],[5.0428,53.3097],[5.0277,53.31],[5.0273,53.31],[4.9972,53.2937],[4.9865,53.29],[4.9212,53.2537],[4.917,53.2504],[4.9084,53.2458],[4.9087,53.2455],[4.9084,53.2454],[4.9095,53.2446],[4.8789,53.2209]]],[[[5.1789,53.3854],[5.1799,53.3531],[5.2083,53.3527],[5.3469,53.3892],[5.427,53.4064],[5.4817,53.4127],[5.4797,53.4172],[5.5821,53.4381],[5.5815,53.4382],[5.5819,53.4383],[5.5815,53.4384],[5.5821,53.4385],[5.5701,53.441],[5.5853,53.4536],[5.437,53.4365],[5.4284,53.4326],[5.4161,53.4315],[5.1893,53.3916],[5.1898,53.3914],[5.1895,53.3914],[5.1898,53.3913],[5.1893,53.3912],[5.1958,53.3891],[5.1789,53.3854]]],[[[6.0075,50.2187],[6.0276,50.2081],[6.0103,50.2657],[6.0075,50.2187]]],[[[6.0199,50.1947],[6.0215,50.1717],[6.03,50.2],[6.0295,50.2017],[6.0199,50.1947]]]]}},
{"type":"Feature","properties":{"entityId":"netherlands","from":1830,"to":null,"certainty":"estimated","source":"유럽 쪽은 Natural Earth 1:10m admin-1(v5.1.2) 현대 행정구역 조각을 그 시기 국경에 맞춰 묶고, 조각이 역사 경계와 다른 곳은 선을 그어 나눈 근사. 유럽 밖(시베리아·중앙아시아·극동)은 대략적인 추정. 운영자 검수 필요"},"geometry":{"type":"MultiPolygon","coordinates":[[[[6.7716,52.1088],[6.7329,52.092],[6.7114,52.0673],[6.6799,52.0605],[6.675,52.0348],[6.7782,52.0013],[6.804,51.9844],[6.8107,51.9606],[6.7898,51.9511],[6.7438,51.9083],[6.7167,51.8993],[6.6282,51.8975],[6.5286,51.8764],[6.4794,51.853],[6.4425,51.8484],[6.3785,51.8601],[6.3825,51.8276],[6.345,51.8211],[6.342,51.8367],[6.2874,51.8462],[6.2564,51.8668],[6.2252,51.8625],[6.127,51.8967],[6.093,51.8853],[6.1561,51.8421],[6.084,51.8537],[6.0433,51.8469],[5.9889,51.8275],[5.9481,51.823],[5.928,51.8067],[5.9641,51.7766],[5.9461,51.7463],[5.9393,51.7319],[5.9783,51.7298],[6.022,51.7095],[6.0086,51.6812],[6.0315,51.663],[6.0992,51.6445],[6.0865,51.5955],[6.1933,51.5093],[6.2053,51.4584],[6.1927,51.399],[6.2078,51.3877],[6.1936,51.3445],[6.1478,51.3182],[6.0965,51.2588],[6.0652,51.2316],[6.0537,51.1894],[6.0843,51.1627],[6.1341,51.1842],[6.1571,51.1793],[6.1263,51.1646],[6.1473,51.1523],[6.1324,51.1398],[6.0754,51.1204],[5.9829,51.0747],[5.9503,51.0395],[5.9196,51.0297],[5.8805,51.0521],[5.8525,51.0428],[5.8736,50.9906],[5.8746,50.9654],[5.9277,50.9777],[6.0037,50.9737],[5.9999,50.9294],[6.0637,50.9075],[6.0631,50.8709],[6.0456,50.8442],[6.0005,50.8304],[6.0036,50.8126],[5.973,50.7818],[5.9949,50.7499],[5.8913,50.7512],[5.7932,50.7521],[5.7524,50.7734],[5.7328,50.7589],[5.6884,50.7608],[5.7005,50.7956],[5.6574,50.8076],[5.6245,50.8303],[5.6223,50.8527],[5.6945,50.9037],[5.7176,50.9092],[5.764,50.9594],[5.7224,50.9594],[5.7776,51.0236],[5.7715,51.0581],[5.7913,51.055],[5.8118,51.0823],[5.8049,51.0966],[5.846,51.1034],[5.8232,51.1187],[5.8405,51.1389],[5.8291,51.1565],[5.7814,51.1524],[5.7472,51.1776],[5.718,51.1846],[5.659,51.1791],[5.625,51.1969],[5.5514,51.2168],[5.5352,51.262],[5.5167,51.2772],[5.4716,51.2881],[5.3891,51.2587],[5.2707,51.2618],[5.2395,51.2569],[5.2154,51.2587],[5.2149,51.2943],[5.1973,51.3083],[5.1229,51.3134],[5.1026,51.3507],[5.0681,51.3745],[5.0653,51.4059],[5.0799,51.4385],[5.0603,51.462],[5.0121,51.4743],[4.9958,51.4467],[4.9571,51.411],[4.9103,51.3919],[4.8533,51.4061],[4.7833,51.4076],[4.7791,51.4264],[4.8227,51.4137],[4.8154,51.4311],[4.8239,51.4756],[4.7642,51.4962],[4.7312,51.4856],[4.6539,51.4262],[4.6301,51.4182],[4.5406,51.4201],[4.5215,51.4286],[4.5332,51.4676],[4.4831,51.4743],[4.3771,51.4429],[4.3799,51.4095],[4.4162,51.374],[4.3922,51.3504],[4.3456,51.3523],[4.2811,51.3689],[4.2611,51.3694],[4.2579,51.3783],[4.237,51.3783],[4.237,51.3816],[4.1904,51.3816],[4.1904,51.375],[4.2215,51.368],[4.2079,51.3306],[4.1686,51.2969],[4.119,51.2724],[3.995,51.2332],[3.927,51.2063],[3.8087,51.2053],[3.7814,51.2199],[3.7762,51.2545],[3.7573,51.2623],[3.6351,51.2878],[3.5848,51.2895],[3.5143,51.281],[3.5012,51.2403],[3.4539,51.2356],[3.3988,51.2447],[3.3674,51.2635],[3.3532,51.2886],[3.3581,51.3367],[3.3494,51.3752],[3.3477,51.3749],[3.3477,51.3774],[3.3496,51.3778],[3.3828,51.3847],[3.3878,51.3857],[3.4179,51.4017],[3.4881,51.4392],[3.5321,51.4626],[3.4948,51.5009],[3.4619,51.519],[3.447,51.546],[3.4575,51.5551],[3.4838,51.5652],[3.5008,51.5775],[3.5469,51.5894],[3.5604,51.5946],[3.8118,51.6115],[3.8284,51.6204],[3.8596,51.6726],[3.8244,51.69],[3.8159,51.693],[3.7758,51.6858],[3.7654,51.6784],[3.7206,51.6768],[3.6867,51.6927],[3.6895,51.725],[3.6988,51.7288],[3.6988,51.7303],[3.7054,51.7314],[3.7258,51.7397],[3.7825,51.7448],[3.7888,51.7459],[3.7891,51.7459],[3.7892,51.7459],[3.7928,51.7457],[3.8101,51.7473],[3.9016,51.743],[3.9173,51.7693],[3.9339,51.7971],[3.8716,51.7883],[3.8623,51.8161],[3.9627,51.8474],[3.9638,51.8472],[4.0257,51.951],[4.01,51.9801],[4.0225,51.9944],[4.0493,51.9907],[4.2271,52.2887],[4.2719,52.3639],[4.2944,52.4015],[4.3168,52.4391],[4.4064,52.5894],[4.7068,53.093],[4.7167,53.096],[4.7597,53.1091],[4.8057,53.133],[4.8543,53.1877],[4.8858,53.1867],[4.8858,53.1827],[4.8868,53.1833],[4.8868,53.1831],[4.8872,53.1833],[4.8872,53.1644],[4.8974,53.1512],[4.9495,53.1672],[4.9883,53.179],[5.027,53.1908],[5.0576,53.2002],[5.0881,53.2095],[5.1492,53.2282],[5.2714,53.2655],[5.5158,53.3402],[5.876,53.4502],[5.8556,53.4474],[5.7854,53.4474],[5.7363,53.4435],[5.679,53.4301],[5.6361,53.4487],[5.6419,53.4634],[5.6545,53.4652],[5.6537,53.4659],[5.6541,53.4659],[5.6539,53.4661],[5.6537,53.4663],[5.7077,53.4732],[5.8769,53.4749],[5.8773,53.4749],[5.8856,53.4732],[5.9138,53.4739],[5.9333,53.4678],[6.0046,53.4895],[6.0749,53.511],[6.0753,53.511],[6.1269,53.5092],[6.2017,53.5067],[6.2118,53.5089],[6.2752,53.5122],[6.2909,53.5149],[6.2912,53.5149],[6.2913,53.5149],[6.305,53.5138],[6.3108,53.5141],[6.3118,53.5132],[6.3345,53.5114],[6.3338,53.5112],[6.3343,53.5112],[6.3337,53.5111],[6.3345,53.511],[6.3189,53.5072],[6.3245,53.5024],[6.3408,53.5018],[6.3713,53.5008],[6.4018,53.4997],[6.4324,53.4987],[6.463,53.4976],[6.4935,53.4965],[6.7379,53.4881],[6.8601,53.4838],[6.9065,53.4822],[6.9212,53.4982],[6.9212,53.4722],[6.9518,53.4722],[6.9518,53.4413],[6.9494,53.4413],[6.9494,53.4105],[6.9494,53.3796],[6.9494,53.3487],[6.9823,53.3487],[6.9823,53.3345],[7.0129,53.3345],[7.0434,53.3345],[7.0434,53.303],[7.044,53.3028],[7.074,53.3028],[7.1045,53.3028],[7.1045,53.293],[7.1351,53.293],[7.1656,53.293],[7.1656,53.2903],[7.1962,53.2903],[7.1962,53.246],[7.1946,53.245],[7.1985,53.2006],[7.1727,53.1258],[7.1851,53.1054],[7.1944,53.0338],[7.1836,52.9661],[7.1619,52.9326],[7.0799,52.8544],[7.0722,52.8413],[7.0533,52.7906],[7.044,52.6826],[7.0367,52.6474],[7.0185,52.626],[6.9677,52.6367],[6.9184,52.6322],[6.8654,52.642],[6.7705,52.641],[6.7191,52.6268],[6.7018,52.6191],[6.711,52.5766],[6.7438,52.5597],[6.6717,52.5417],[6.684,52.526],[6.6951,52.4756],[6.7412,52.4537],[6.8203,52.4468],[6.9002,52.4319],[6.9515,52.4375],[6.9733,52.4514],[7.0342,52.3908],[7.0482,52.3651],[7.0398,52.3286],[7.0125,52.2849],[7.0266,52.2386],[6.9819,52.214],[6.9477,52.1828],[6.8848,52.1603],[6.8307,52.1129],[6.7716,52.1088]]],[[[4.917,53.2504],[4.9212,53.2537],[4.9865,53.29],[4.9972,53.2937],[5.0273,53.31],[5.0277,53.31],[5.0428,53.3097],[5.0545,53.3138],[5.1048,53.3096],[5.1006,53.3085],[5.1105,53.3083],[5.11,53.3081],[5.1103,53.3081],[5.1098,53.3079],[5.1105,53.3079],[4.9716,53.2538],[4.9575,53.2456],[4.9102,53.2125],[4.8789,53.2209],[4.9095,53.2446],[4.9084,53.2454],[4.9087,53.2455],[4.9086,53.2456],[4.9084,53.2458],[4.917,53.2504]]],[[[5.4797,53.4172],[5.4817,53.4127],[5.427,53.4064],[5.3469,53.3892],[5.2083,53.3527],[5.1799,53.3531],[5.1789,53.3854],[5.1958,53.3891],[5.1893,53.3912],[5.1898,53.3913],[5.1895,53.3914],[5.1898,53.3914],[5.1893,53.3916],[5.4161,53.4315],[5.4284,53.4326],[5.437,53.4365],[5.5853,53.4536],[5.5701,53.441],[5.5821,53.4385],[5.5815,53.4384],[5.5819,53.4383],[5.5815,53.4382],[5.5821,53.4381],[5.4797,53.4172]]]]}}
]}
