{
 "type": "FeatureCollection",
 "features": [
  {
   "type": "Feature",
   "properties": {
    "entityId": "nine-forts-disputed",
    "from": 1107,
    "to": 1109,
    "certainty": "disputed",
    "source": "중고등학교 한국사 교과서 시대별 지도의 일반적인 경계를 따른 대략적인 추정. 운영자 검수 필요"
   },
   "geometry": {
    "type": "Polygon",
    "coordinates": [
     [
      [
       128.3,
       40.8
      ],
      [
       129.3,
       40.3
      ],
      [
       130.5,
       40.9
      ],
      [
       131.1389,
       41.7944
      ],
      [
       131,
       42.1
      ],
      [
       130.7,
       42.3
      ],
      [
       130.4,
       42.6
      ],
      [
       130,
       42.9
      ],
      [
       129.7,
       42.45
      ],
      [
       128.9,
       42.05
      ],
      [
       128.3,
       41.5786
      ],
      [
       128.3,
       40.8
      ]
     ]
    ]
   }
  }
 ]
}
