{"type":"FeatureCollection","features":[
{"type":"Feature","properties":{"entityId":"nogai-horde","from":1440,"to":1521,"certainty":"estimated","source":"유럽 쪽은 Natural Earth 1:10m admin-1(v5.1.2) 현대 행정구역 조각을 그 시기 국경에 맞춰 묶고, 조각이 역사 경계와 다른 곳은 선을 그어 나눈 근사. 유럽 밖(시베리아·중앙아시아·극동)은 대략적인 추정. 운영자 검수 필요"},"geometry":{"type":"Polygon","coordinates":[[[47.9451,53.3743],[47.967,53.3457],[48.0345,53.3146],[48.1021,53.2459],[48.1002,53.2169],[48.1207,53.1794],[48.1436,53.1619],[48.1961,53.1506],[48.2044,53.1405],[48.1485,53.0587],[48.2216,52.9989],[48.2394,53.0009],[48.2761,53.0592],[48.3482,53.0664],[48.3616,53.0514],[48.3193,53.0001],[48.3243,52.9844],[48.3903,52.9704],[48.5217,52.9782],[48.5661,52.9487],[48.5925,52.9194],[48.5903,52.8806],[48.5397,52.8303],[48.437,52.7804],[48.4222,52.7709],[48.3873,52.7177],[48.3633,52.7045],[48.3512,52.6694],[48.3824,52.6636],[48.4769,52.6851],[48.5239,52.6818],[48.5947,52.6459],[48.6186,52.6412],[48.6815,52.6471],[48.6997,52.6392],[48.7301,52.568],[48.7457,52.5568],[48.8181,52.5536],[48.8454,52.5262],[48.8655,52.4842],[48.8907,52.411],[48.9235,52.4275],[48.9361,52.4752],[48.9844,52.4901],[49.0414,52.4857],[49.0864,52.493],[49.1592,52.4858],[49.2057,52.5077],[49.287,52.4935],[49.3437,52.4687],[49.3511,52.4367],[49.3167,52.4006],[49.3475,52.3865],[49.3947,52.4058],[49.423,52.401],[49.4452,52.3612],[49.4777,52.3314],[49.5069,52.3289],[49.5252,52.3526],[49.5171,52.3897],[49.5702,52.4016],[49.6278,52.3664],[49.6397,52.3446],[49.6195,52.3296],[49.6504,52.2915],[49.6553,52.2628],[49.6844,52.2661],[49.7045,52.2905],[49.7316,52.2762],[49.8123,52.1931],[49.9769,52.1836],[49.9993,52.2034],[50.0178,52.1988],[50.0676,52.1587],[50.1385,52.1501],[50.2215,52.1299],[50.2059,52.1012],[50.1712,52.0845],[50.1675,52.0236],[50.2359,52.0351],[50.2902,52.0219],[50.3147,52.0572],[50.3439,52.0483],[50.3548,52.0149],[50.4022,51.9966],[50.5174,51.9914],[50.5587,51.9637],[50.6507,51.958],[50.7221,51.928],[50.7315,51.914],[50.7162,51.8407],[50.7202,51.8092],[50.767,51.7594],[50.8209,51.7526],[50.8578,51.7353],[50.9007,51.6871],[50.9254,51.6797],[51.1698,51.6695],[51.2339,51.6855],[51.2762,51.6516],[51.3085,51.6371],[51.3719,51.6296],[51.382,51.6098],[51.3732,51.5716],[51.3392,51.555],[51.2417,51.5437],[51.2365,51.5359],[51.273,51.4926],[51.3042,51.4716],[51.3795,51.4671],[51.4619,51.4753],[51.515,51.4927],[51.5598,51.5346],[51.5843,51.5349],[51.6205,51.5187],[51.6244,51.481],[51.6474,51.4512],[51.6933,51.4541],[51.7823,51.4929],[51.783,51.5298],[51.7647,51.5933],[51.8692,51.6731],[51.9248,51.6783],[51.9786,51.6604],[52.0353,51.6524],[52.0918,51.6587],[52.111,51.6703],[52.148,51.7161],[52.1741,51.7252],[52.2582,51.7242],[52.2796,51.7353],[52.3078,51.7745],[52.3349,51.7637],[52.3777,51.6601],[52.4445,51.5802],[52.4724,51.515],[52.5058,51.4789],[52.5537,51.458],[52.5751,51.4671],[52.6798,51.459],[52.7009,51.4768],[52.7455,51.487],[52.7798,51.5081],[52.8207,51.487],[52.8965,51.4853],[52.8828,51.4671],[52.9051,51.462],[52.9841,51.4728],[52.9989,51.4802],[53.0371,51.4897],[53.0971,51.4884],[53.1558,51.4964],[53.1533,51.5127],[53.1905,51.5125],[53.1999,51.5025],[53.4,51.53],[54.3,51.7],[55.1,51.77],[55.8,51.75],[56.6,51.55],[57.3,51.45],[57.9,51.3],[58.57,51.2],[58.9,51.6],[59.15,52.2],[59.1573,52.2881],[59.0849,52.3319],[59.0465,52.3499],[58.9935,52.3636],[58.9734,52.3786],[58.983,52.422],[58.9694,52.4328],[58.8772,52.4535],[58.828,52.4327],[58.7907,52.4483],[58.7682,52.5025],[58.7766,52.5255],[58.8385,52.5406],[58.8123,52.5867],[58.7534,52.6056],[58.7237,52.6451],[58.7776,52.7037],[58.7841,52.7248],[58.7795,52.7789],[58.7488,52.8354],[58.7519,52.8655],[58.7856,52.9049],[58.7982,52.9462],[58.8333,52.9697],[58.8441,53.0085],[59.0276,53.015],[58.9908,53.0535],[58.9258,53.0526],[58.9004,53.0659],[58.9007,53.1441],[58.8914,53.1884],[58.829,53.1997],[58.823,53.218],[58.8324,53.2953],[58.8651,53.3199],[58.8685,53.5018],[58.9023,53.5488],[58.8772,53.5591],[58.8302,53.5571],[58.8209,53.5956],[58.8955,53.6432],[58.9068,53.6658],[58.8849,53.7077],[58.8728,53.7585],[58.9093,53.7967],[58.9062,53.8616],[58.9475,53.8997],[58.9214,53.9237],[58.9558,53.9748],[59.0141,53.9582],[59.075,53.9738],[59.1378,53.9766],[59.162,53.9929],[59.2626,54.1396],[59.2919,54.1702],[59.344,54.1851],[59.4081,54.1779],[59.4913,54.1959],[59.5442,54.1961],[59.6457,54.1583],[59.6939,54.1291],[59.7349,54.1494],[59.727,54.1941],[59.8005,54.242],[59.7862,54.2924],[59.7714,54.3045],[59.6667,54.3397],[59.7206,54.3805],[59.7463,54.4471],[59.741,54.4602],[59.6904,54.48],[59.6795,54.4981],[59.7256,54.5502],[59.7939,54.5654],[59.8597,54.603],[59.8979,54.6572],[59.9097,54.7157],[59.9706,54.7855],[59.9746,54.8014],[59.9192,54.8322],[59.944,54.8574],[59.9029,54.8667],[59.8299,54.8455],[59.806,54.8464],[59.7568,54.8735],[59.6315,54.9111],[59.6138,54.8667],[59.5349,54.8414],[59.5117,54.7897],[59.4526,54.7519],[59.4041,54.7026],[59.318,54.6735],[59.2609,54.6259],[59.2278,54.6112],[59.1424,54.6174],[59.0614,54.6319],[59.0303,54.6134],[58.9771,54.6049],[58.8976,54.5826],[58.8081,54.5678],[58.7369,54.5378],[58.7148,54.509],[58.6475,54.4772],[58.6138,54.4703],[58.5343,54.5136],[58.4535,54.5267],[58.3637,54.5475],[58.2063,54.5151],[58.1672,54.4816],[58.0977,54.4608],[57.9714,54.3928],[57.9067,54.407],[57.8702,54.4506],[57.8077,54.4858],[57.7429,54.5006],[57.7389,54.5212],[57.7503,54.5692],[57.7417,54.5831],[57.5941,54.6287],[57.5736,54.6437],[57.5813,54.6733],[57.5204,54.6679],[57.5155,54.6928],[57.497,54.7006],[57.3861,54.7198],[57.3527,54.7471],[57.249,54.7728],[57.1867,54.8023],[57.1651,54.819],[57.1528,54.8583],[57.1633,54.8774],[57.2328,54.9319],[57.243,54.9571],[57.183,54.9995],[57.1438,55.0526],[57.1369,55.0921],[57.171,55.1239],[57.2339,55.1503],[57.2419,55.1753],[57.2152,55.2138],[57.2487,55.2254],[57.2636,55.2619],[57.3,55.2565],[57.3291,55.2652],[57.3973,55.3146],[57.4337,55.3271],[57.518,55.334],[57.6749,55.3001],[57.7374,55.3022],[57.9166,55.293],[58.0302,55.2748],[58.0506,55.2481],[58.144,55.209],[58.1103,55.182],[58.05,55.1642],[57.9949,55.1798],[57.9649,55.1586],[58.0313,55.0747],[58.0186,55.0449],[58.02,54.9998],[57.9703,54.9596],[57.9652,54.9326],[58.0119,54.9166],[58.0537,54.929],[58.1057,54.9571],[58.093,54.976],[58.0893,55.0201],[58.1447,55.0567],[58.1916,55.0783],[58.1508,55.0933],[58.1475,55.1174],[58.2879,55.1707],[58.318,55.1724],[58.366,55.1583],[58.3855,55.1285],[58.364,55.0844],[58.4238,55.0647],[58.4341,55.0518],[58.3936,55.0205],[58.3874,54.9998],[58.4225,54.9988],[58.4982,55.0217],[58.5395,55.0096],[58.5333,54.9578],[58.6195,54.9497],[58.8157,55.0249],[58.8165,55.0423],[58.7677,55.1029],[58.74,55.1164],[58.6531,55.121],[58.5972,55.1308],[58.5755,55.1438],[58.5817,55.1661],[58.6736,55.1885],[58.7027,55.1484],[58.7555,55.1634],[58.7968,55.2028],[58.7897,55.2188],[58.7299,55.2263],[58.7268,55.2575],[58.7462,55.2679],[58.841,55.2597],[58.9004,55.2683],[58.9149,55.287],[58.8553,55.2948],[58.8466,55.3043],[58.872,55.3233],[58.9438,55.3235],[58.9805,55.3033],[58.9664,55.2479],[58.9974,55.2442],[59.1592,55.3316],[59.1781,55.3641],[59.1663,55.3814],[59.1716,55.4146],[59.2013,55.4501],[59.3113,55.4578],[59.3814,55.4797],[59.4446,55.468],[59.4835,55.4704],[59.503,55.4825],[59.5649,55.4996],[59.5933,55.5335],[59.6414,55.5653],[59.6278,55.5916],[59.498,55.5799],[59.4466,55.632],[59.3943,55.6224],[59.3733,55.6066],[59.2728,55.5722],[59.2369,55.5966],[59.2548,55.6141],[59.3365,55.638],[59.3414,55.6475],[59.284,55.6872],[59.2826,55.7106],[59.3136,55.7557],[59.2959,55.7805],[59.165,55.7899],[59.1608,55.8146],[59.2002,55.833],[59.1897,55.8741],[59.2285,55.9106],[59.1735,56.0055],[59.1959,56.0199],[59.269,56.0479],[59.2959,56.0887],[59.2961,56.1309],[59.2787,56.1362],[59.1879,56.1273],[59.1477,56.1492],[59.0815,56.1517],[59.0263,56.1694],[59.007,56.1097],[58.9942,56.0957],[58.9252,56.0612],[58.8243,56.054],[58.7465,56.0628],[58.7213,56.0734],[58.7088,56.102],[58.5966,56.1397],[58.5773,56.1587],[58.543,56.1631],[58.4551,56.1472],[58.4231,56.1097],[58.3863,56.0956],[58.3712,56.0624],[58.3239,56.0605],[58.3077,56.1045],[58.2836,56.1167],[58.2585,56.1041],[58.219,56.1078],[58.0794,56.141],[58.0488,56.1187],[58.0155,56.1139],[57.9072,56.1155],[57.8723,56.1412],[57.8021,56.1506],[57.6727,56.1301],[57.6373,56.0988],[57.5372,56.1002],[57.474,56.1187],[57.4523,56.1359],[57.4777,56.1789],[57.4563,56.205],[57.4108,56.2354],[57.4072,56.2536],[57.4241,56.3035],[57.4084,56.3291],[57.3412,56.3113],[57.2837,56.307],[57.263,56.2979],[57.2672,56.2725],[57.2456,56.2371],[57.1853,56.197],[57.2197,56.1943],[57.2135,56.182],[57.1558,56.1576],[57.0435,56.1524],[57.0293,56.1328],[56.9334,56.1016],[56.8641,56.1081],[56.8179,56.1527],[56.7641,56.1761],[56.7449,56.2158],[56.7297,56.2241],[56.6546,56.2201],[56.6383,56.2275],[56.6248,56.2602],[56.574,56.2632],[56.5022,56.3196],[56.5582,56.3602],[56.5285,56.3833],[56.4489,56.3741],[56.4025,56.3874],[56.3706,56.3783],[56.3669,56.3541],[56.3226,56.345],[56.2753,56.3051],[56.2558,56.299],[56.1993,56.3081],[56.1692,56.2992],[56.0733,56.2895],[56.0353,56.3289],[55.9675,56.3672],[55.929,56.418],[55.9136,56.4663],[55.8758,56.4367],[55.8146,56.4294],[55.7563,56.4388],[55.6842,56.4197],[55.5481,56.3995],[55.5159,56.3869],[55.4477,56.3407],[55.4122,56.3346],[55.3159,56.3299],[55.2523,56.3364],[55.2162,56.3637],[55.1876,56.3455],[55.1724,56.3178],[55.1337,56.3436],[55.1033,56.344],[54.9684,56.3204],[54.9471,56.3364],[54.9502,56.3633],[54.9182,56.392],[54.8557,56.4051],[54.7585,56.4342],[54.7241,56.4492],[54.6573,56.4983],[54.613,56.5109],[54.5904,56.5299],[54.5592,56.5384],[54.5316,56.5149],[54.4754,56.4164],[54.4448,56.3808],[54.4197,56.3376],[54.3896,56.3606],[54.3525,56.3585],[54.3197,56.339],[54.3326,56.32],[54.3714,56.2993],[54.3458,56.2526],[54.2531,56.226],[54.1845,56.1883],[54.1172,56.1582],[54.0829,56.123],[54.0468,56.058],[54.0058,56.0289],[53.9489,56.0222],[53.8378,56.0386],[53.7774,55.9702],[53.6967,55.9651],[53.6455,55.9366],[53.6317,55.9067],[53.7594,55.8662],[53.7805,55.8867],[53.847,55.8794],[53.8687,55.8867],[53.9123,55.8503],[53.9764,55.8527],[53.9973,55.8407],[53.979,55.8272],[53.962,55.791],[53.9833,55.7854],[54.0201,55.8047],[54.0399,55.8021],[54.0429,55.7774],[54.0263,55.7638],[54.0492,55.758],[54.0952,55.7729],[54.1183,55.7493],[54.1768,55.707],[54.2249,55.6964],[54.2296,55.6861],[54.1943,55.6605],[54.1745,55.6236],[54.1436,55.6172],[54.0536,55.5707],[54.0087,55.5571],[53.9969,55.5443],[53.9911,55.4978],[53.943,55.4672],[53.9338,55.4287],[53.891,55.3812],[53.8458,55.367],[53.7227,55.3377],[53.6632,55.2846],[53.603,55.2598],[53.5914,55.2119],[53.512,55.2018],[53.4651,55.2197],[53.4184,55.222],[53.3856,55.2122],[53.343,55.1866],[53.3269,55.1665],[53.2668,55.1647],[53.1468,55.1466],[53.1411,55.0989],[53.2124,55.08],[53.2618,55.0509],[53.2692,55.012],[53.2968,55.0158],[53.3247,55.0017],[53.3717,55.0058],[53.4219,54.9822],[53.4993,54.8913],[53.5335,54.8886],[53.5958,54.9006],[53.6428,54.8999],[53.5787,54.8222],[53.6032,54.8071],[53.6011,54.7832],[53.5815,54.7514],[53.6069,54.7281],[53.5849,54.6877],[53.5528,54.6619],[53.515,54.6155],[53.4141,54.5515],[53.4259,54.4988],[53.3876,54.4569],[53.3791,54.4263],[53.3478,54.3816],[53.3528,54.3488],[53.3736,54.3178],[53.4303,54.2657],[53.4159,54.2264],[53.4311,54.193],[53.4329,54.1477],[53.456,54.1145],[53.4548,54.0758],[53.4705,54.0457],[53.4097,54.0148],[53.3845,53.9738],[53.3571,53.9771],[53.3411,54.0022],[53.2915,54.0241],[53.2731,54.0631],[53.2138,54.0779],[53.1794,54.0936],[53.1414,54.0762],[53.0811,54.068],[53.0672,54.0735],[53.0889,54.1089],[53.0811,54.1204],[53.0352,54.1281],[52.9512,54.1958],[52.9384,54.2138],[52.9703,54.2287],[53.0295,54.2226],[53.0446,54.2424],[53.0861,54.2405],[53.1096,54.2517],[53.1068,54.2864],[53.092,54.3085],[53.0456,54.3387],[53.0053,54.3074],[53.0263,54.289],[53.0009,54.271],[52.936,54.2685],[52.8979,54.2755],[52.8942,54.2915],[52.927,54.2911],[52.9254,54.3105],[52.857,54.3204],[52.7711,54.347],[52.6772,54.3532],[52.629,54.343],[52.5385,54.3773],[52.5015,54.3983],[52.5002,54.453],[52.4398,54.4781],[52.4092,54.4689],[52.404,54.4348],[52.3897,54.4231],[52.3531,54.4238],[52.3656,54.4446],[52.3444,54.4581],[52.304,54.4493],[52.2227,54.4446],[52.1762,54.4105],[52.0995,54.3885],[52.1151,54.3596],[52.0873,54.3416],[52.0623,54.3598],[52.0486,54.4115],[52.0198,54.4328],[51.979,54.4277],[51.9327,54.4363],[51.9413,54.4731],[51.936,54.5276],[51.9156,54.5364],[51.828,54.5334],[51.7627,54.5521],[51.6964,54.5573],[51.6676,54.5671],[51.5555,54.6258],[51.5135,54.6393],[51.4917,54.5965],[51.4087,54.5946],[51.3913,54.6015],[51.3968,54.6521],[51.3792,54.6748],[51.296,54.6416],[51.2509,54.6399],[51.2247,54.6496],[51.1688,54.6373],[51.109,54.5792],[51.0929,54.5535],[51.0277,54.5511],[51.0038,54.5392],[50.9932,54.502],[51.0057,54.4782],[50.9901,54.4198],[50.9555,54.3895],[50.948,54.3476],[50.9185,54.3398],[50.8788,54.3758],[50.8095,54.3763],[50.7334,54.4174],[50.6969,54.4267],[50.6427,54.4101],[50.5944,54.3654],[50.5194,54.3298],[50.4981,54.339],[50.5033,54.3591],[50.46,54.4147],[50.4249,54.4377],[50.3842,54.4858],[50.3512,54.463],[50.301,54.4461],[50.2567,54.4504],[50.2304,54.4946],[50.1961,54.5068],[50.1072,54.5088],[50.0775,54.5165],[50.1225,54.4801],[50.1202,54.4315],[50.2056,54.4181],[50.2017,54.3877],[50.2562,54.3049],[50.2407,54.2227],[50.2078,54.1529],[50.2037,54.1157],[50.2241,54.0738],[50.1974,54.0381],[50.0958,54.0069],[50.0531,53.978],[49.9791,53.9658],[49.9572,53.9068],[50.0178,53.8905],[50.0576,53.8588],[50.0471,53.8343],[50.0076,53.8217],[49.8686,53.8343],[49.8357,53.8545],[49.8476,53.8834],[49.8269,53.8872],[49.7655,53.8774],[49.7611,53.8564],[49.7197,53.837],[49.6087,53.8182],[49.6073,53.8428],[49.561,53.855],[49.4137,53.8683],[49.3545,53.8615],[49.3258,53.8425],[49.2992,53.84],[49.0293,53.8572],[48.9956,53.839],[48.9234,53.774],[48.8743,53.7164],[48.8504,53.7153],[48.6099,53.7448],[48.4911,53.7705],[48.4624,53.7609],[48.4687,53.7378],[48.5144,53.6956],[48.5979,53.6732],[48.5529,53.6553],[48.4564,53.6658],[48.4378,53.6408],[48.4139,53.6356],[48.3539,53.6703],[48.3265,53.6622],[48.3313,53.6245],[48.3554,53.6018],[48.4195,53.59],[48.4348,53.5807],[48.385,53.5523],[48.3756,53.4712],[48.314,53.4535],[48.2685,53.4659],[48.2368,53.4581],[48.2193,53.4288],[48.1736,53.4735],[48.1549,53.4807],[48.0568,53.4761],[48.0055,53.4387],[47.9963,53.4047],[47.9451,53.3743]]]}},
{"type":"Feature","properties":{"entityId":"nogai-horde","from":1521,"to":1556,"certainty":"estimated","source":"유럽 쪽은 Natural Earth 1:10m admin-1(v5.1.2) 현대 행정구역 조각을 그 시기 국경에 맞춰 묶고, 조각이 역사 경계와 다른 곳은 선을 그어 나눈 근사. 유럽 밖(시베리아·중앙아시아·극동)은 대략적인 추정. 운영자 검수 필요"},"geometry":{"type":"Polygon","coordinates":[[[41.1675,50.7805],[41.1931,50.762],[41.3144,50.7246],[41.3688,50.6783],[41.4001,50.625],[41.4291,50.6122],[41.5258,50.5987],[41.5102,50.5656],[41.4675,50.557],[41.4322,50.5311],[41.4202,50.5095],[41.4235,50.4816],[41.4855,50.425],[41.5086,50.3921],[41.4864,50.357],[41.3621,50.2263],[41.4924,50.0836],[41.5681,50.063],[41.595,50.0454],[41.5832,50.0061],[41.6167,49.9622],[41.8761,49.9004],[41.9073,49.872],[42.0008,49.8126],[42.1151,49.7503],[42.1751,49.6921],[42.1784,49.6684],[42.1415,49.6166],[42.1184,49.5696],[42.1078,49.5221],[42.072,49.5018],[42.0669,49.4503],[42.0535,49.4023],[42.0861,49.3579],[42.0889,49.2833],[42.0547,49.2776],[42.0346,49.2549],[42.0642,49.2182],[42.0756,49.1862],[42.0685,49.1585],[42.0952,49.1406],[42.1736,49.1407],[42.2766,49.1594],[42.3438,49.1521],[42.3749,49.1114],[42.3793,49.0745],[42.4106,49.0473],[42.4804,49.0431],[42.6628,48.9673],[42.6604,48.9004],[42.7226,48.845],[42.7413,48.8167],[42.7397,48.7863],[42.6983,48.7571],[42.6511,48.7046],[42.6575,48.6859],[42.7011,48.6244],[42.6918,48.5956],[42.6503,48.5756],[42.6337,48.5516],[42.5578,48.5303],[42.5091,48.5269],[42.4416,48.5048],[42.4009,48.5098],[42.3604,48.4978],[42.2765,48.498],[42.1652,48.464],[42.1296,48.4486],[42.0843,48.4173],[42.0741,48.3919],[42.1169,48.3399],[42.1465,48.2872],[42.1369,48.2787],[42.0753,48.2731],[42.0495,48.2599],[42.051,48.23],[42.0902,48.201],[42.0964,48.1541],[42.051,48.1258],[42.0196,48.0591],[42.0298,48.0285],[42.0776,48.0253],[42.1769,48.0331],[42.2236,48.0301],[42.2825,48.0157],[42.3122,48.0401],[42.3429,48.0448],[42.4919,48.0136],[42.5536,47.9653],[42.7285,47.8541],[42.7473,47.8211],[42.785,47.7311],[42.9014,47.5844],[42.9346,47.5278],[42.9553,47.5103],[43.0039,47.5243],[43.0543,47.5728],[43.1365,47.5743],[43.1568,47.5624],[43.1539,47.5004],[43.1741,47.473],[43.2094,47.4532],[43.2625,47.4502],[43.482,47.4837],[43.6008,47.4827],[43.6606,47.4447],[43.7315,47.4766],[43.6475,47.5474],[43.6336,47.5704],[43.7052,47.6831],[43.729,47.7035],[43.8221,47.7497],[43.8642,47.7618],[43.9515,47.7561],[43.9743,47.7668],[44.0323,47.8161],[44.0385,47.8335],[44.0187,47.865],[44.0588,47.9005],[44.0825,47.909],[44.3891,47.8683],[44.3941,47.9233],[44.4455,47.9604],[44.4669,47.9902],[44.4652,48.0388],[44.4477,48.0497],[44.3471,48.0549],[44.3281,48.0638],[44.3141,48.0941],[44.2957,48.2132],[44.3059,48.2551],[44.3705,48.2513],[44.4011,48.2312],[44.4423,48.2339],[44.4737,48.2142],[44.522,48.2095],[44.5402,48.1969],[44.5497,48.108],[44.5467,48.0631],[44.6104,48.0599],[44.6436,48.0881],[44.6623,48.0893],[44.766,48.0588],[44.7964,48.0613],[44.8673,48.0903],[44.9332,48.1355],[44.9456,48.1602],[44.934,48.179],[44.9626,48.2087],[45.0962,48.1378],[45.1369,48.1118],[45.3006,48.0977],[45.2864,48.1322],[45.2483,48.168],[45.1718,48.1821],[45.1615,48.2324],[45.1495,48.2383],[44.9874,48.2682],[44.9997,48.3111],[44.9883,48.3266],[45.0212,48.3492],[45.0415,48.3946],[45.1179,48.4276],[45.1717,48.439],[45.1939,48.4842],[45.2392,48.4782],[45.3086,48.4343],[45.3472,48.435],[45.3749,48.4641],[45.3358,48.4946],[45.3003,48.5048],[45.2371,48.5002],[45.2074,48.5253],[45.2471,48.5565],[45.3011,48.558],[45.3446,48.543],[45.4257,48.5694],[45.5041,48.5737],[45.6087,48.5928],[45.6791,48.6462],[45.7595,48.6658],[45.8577,48.74],[45.9012,48.7895],[45.9369,48.8146],[45.9483,48.8359],[46.0022,48.8639],[46.0575,48.8689],[46.298,48.84],[46.3333,48.808],[46.4474,48.7618],[46.6202,48.6696],[46.7538,48.9141],[46.8129,48.9538],[46.8881,48.9805],[46.93,49.004],[46.9792,49.0473],[47.0209,49.0968],[47.04,49.1503],[47.0286,49.2015],[46.9792,49.2443],[46.8307,49.3183],[46.7751,49.3325],[46.8999,49.8203],[46.9226,49.8614],[46.9586,49.8841],[47.1774,49.9472],[47.2456,49.9924],[47.3087,50.0448],[47.3286,50.073],[47.3276,50.1093],[47.2731,50.1584],[47.2651,50.1863],[47.3223,50.2374],[47.2948,50.2754],[47.3229,50.3045],[47.3922,50.3232],[47.4345,50.3765],[47.4698,50.4118],[47.5115,50.4369],[47.5569,50.4526],[47.5993,50.4527],[47.6247,50.4408],[47.69,50.3863],[47.7349,50.3701],[47.7765,50.3298],[47.8082,50.3199],[47.8741,50.2664],[47.9134,50.2439],[47.9536,50.2049],[47.9932,50.1818],[48.0122,50.1421],[48.0746,50.1053],[48.0964,50.0785],[48.1125,50.022],[48.1424,49.9638],[48.2004,49.925],[48.2393,49.8648],[48.3122,49.8636],[48.3595,49.834],[48.4176,49.8117],[48.4428,49.815],[48.4791,49.8432],[48.6835,49.8955],[48.7846,49.9334],[48.862,49.9929],[48.8857,50.0199],[48.8741,50.0698],[48.8518,50.0973],[48.7828,50.1115],[48.789,50.173],[48.771,50.211],[48.7289,50.2654],[48.7013,50.3346],[48.6744,50.4785],[48.6787,50.5485],[48.6734,50.5795],[48.6485,50.6016],[48.5729,50.6169],[48.5683,50.6365],[48.6088,50.6479],[48.7396,50.5975],[48.7863,50.5906],[48.8304,50.596],[49.0127,50.6834],[49.1024,50.758],[49.1441,50.7817],[49.2837,50.8037],[49.3694,50.8268],[49.4084,50.8483],[49.4237,50.8821],[49.4055,50.9135],[49.3474,50.9643],[49.3591,50.9927],[49.3927,51.0342],[49.401,51.0671],[49.4231,51.102],[49.4601,51.1162],[49.5397,51.1008],[49.7791,51.1022],[49.8428,51.1507],[49.9868,51.2298],[50.0288,51.243],[50.2075,51.2659],[50.3254,51.3035],[50.3489,51.3226],[50.3376,51.372],[50.3762,51.397],[50.3596,51.4133],[50.3796,51.4212],[50.4392,51.423],[50.4711,51.4361],[50.479,51.4537],[50.5183,51.4598],[50.5314,51.4927],[50.5254,51.5656],[50.5757,51.5884],[50.5817,51.6353],[50.6393,51.6162],[50.6942,51.6112],[50.6587,51.5762],[50.6709,51.5675],[50.72,51.5674],[50.7643,51.5787],[50.7907,51.5973],[50.7945,51.626],[50.7474,51.709],[50.7442,51.7424],[50.767,51.7594],[50.8209,51.7526],[50.8578,51.7353],[50.9007,51.6871],[50.9254,51.6797],[51.1698,51.6695],[51.2339,51.6855],[51.2762,51.6516],[51.3085,51.6371],[51.3719,51.6296],[51.382,51.6098],[51.3732,51.5716],[51.3392,51.555],[51.2417,51.5437],[51.2365,51.5359],[51.273,51.4926],[51.3042,51.4716],[51.3795,51.4671],[51.4619,51.4753],[51.515,51.4927],[51.5598,51.5346],[51.5843,51.5349],[51.6205,51.5187],[51.6244,51.481],[51.6474,51.4512],[51.6933,51.4541],[51.7823,51.4929],[51.783,51.5298],[51.7647,51.5933],[51.8692,51.6731],[51.9248,51.6783],[51.9786,51.6604],[52.0353,51.6524],[52.0918,51.6587],[52.111,51.6703],[52.148,51.7161],[52.1741,51.7252],[52.2582,51.7242],[52.2796,51.7353],[52.3078,51.7745],[52.3349,51.7637],[52.3777,51.6601],[52.4445,51.5802],[52.4724,51.515],[52.5058,51.4789],[52.5537,51.458],[52.5751,51.4671],[52.6798,51.459],[52.7009,51.4768],[52.7455,51.487],[52.7798,51.5081],[52.8207,51.487],[52.8965,51.4853],[52.8828,51.4671],[52.9051,51.462],[52.9841,51.4728],[52.9989,51.4802],[53.0371,51.4897],[53.0971,51.4884],[53.1558,51.4964],[53.1533,51.5127],[53.1905,51.5125],[53.1999,51.5025],[53.4,51.53],[54.3,51.7],[55.1,51.77],[55.8,51.75],[56.6,51.55],[57.3,51.45],[57.9,51.3],[58.57,51.2],[58.9,51.6],[59.15,52.2],[59.1573,52.2881],[59.0849,52.3319],[59.0465,52.3499],[58.9935,52.3636],[58.9734,52.3786],[58.983,52.422],[58.9694,52.4328],[58.8772,52.4535],[58.828,52.4327],[58.7907,52.4483],[58.7682,52.5025],[58.7766,52.5255],[58.8385,52.5406],[58.8123,52.5867],[58.7534,52.6056],[58.7237,52.6451],[58.7776,52.7037],[58.7841,52.7248],[58.7795,52.7789],[58.7488,52.8354],[58.7519,52.8655],[58.7856,52.9049],[58.7982,52.9462],[58.8333,52.9697],[58.8441,53.0085],[59.0276,53.015],[58.9908,53.0535],[58.9258,53.0526],[58.9004,53.0659],[58.9007,53.1441],[58.8914,53.1884],[58.829,53.1997],[58.823,53.218],[58.8324,53.2953],[58.8651,53.3199],[58.8685,53.5018],[58.9023,53.5488],[58.8772,53.5591],[58.8302,53.5571],[58.8209,53.5956],[58.8955,53.6432],[58.9068,53.6658],[58.8849,53.7077],[58.8728,53.7585],[58.9093,53.7967],[58.9062,53.8616],[58.9475,53.8997],[58.9214,53.9237],[58.9558,53.9748],[59.0141,53.9582],[59.075,53.9738],[59.1378,53.9766],[59.162,53.9929],[59.2626,54.1396],[59.2919,54.1702],[59.344,54.1851],[59.4081,54.1779],[59.4913,54.1959],[59.5442,54.1961],[59.6457,54.1583],[59.6939,54.1291],[59.7349,54.1494],[59.727,54.1941],[59.8005,54.242],[59.7862,54.2924],[59.7714,54.3045],[59.6667,54.3397],[59.7206,54.3805],[59.7463,54.4471],[59.741,54.4602],[59.6904,54.48],[59.6795,54.4981],[59.7256,54.5502],[59.7939,54.5654],[59.8597,54.603],[59.8979,54.6572],[59.9097,54.7157],[59.9706,54.7855],[59.9746,54.8014],[59.9192,54.8322],[59.944,54.8574],[59.9029,54.8667],[59.8299,54.8455],[59.806,54.8464],[59.7568,54.8735],[59.6315,54.9111],[59.6138,54.8667],[59.5349,54.8414],[59.5117,54.7897],[59.4526,54.7519],[59.4041,54.7026],[59.318,54.6735],[59.2609,54.6259],[59.2278,54.6112],[59.1424,54.6174],[59.0614,54.6319],[59.0303,54.6134],[58.9771,54.6049],[58.8976,54.5826],[58.8081,54.5678],[58.7369,54.5378],[58.7148,54.509],[58.6475,54.4772],[58.6138,54.4703],[58.5343,54.5136],[58.4535,54.5267],[58.3637,54.5475],[58.2063,54.5151],[58.1672,54.4816],[58.0977,54.4608],[57.9714,54.3928],[57.9067,54.407],[57.8702,54.4506],[57.8077,54.4858],[57.7429,54.5006],[57.7389,54.5212],[57.7503,54.5692],[57.7417,54.5831],[57.5941,54.6287],[57.5736,54.6437],[57.5813,54.6733],[57.5204,54.6679],[57.5155,54.6928],[57.497,54.7006],[57.3861,54.7198],[57.3527,54.7471],[57.249,54.7728],[57.1867,54.8023],[57.1651,54.819],[57.1528,54.8583],[57.1633,54.8774],[57.2328,54.9319],[57.243,54.9571],[57.183,54.9995],[57.1438,55.0526],[57.1369,55.0921],[57.171,55.1239],[57.2339,55.1503],[57.2419,55.1753],[57.2152,55.2138],[57.2487,55.2254],[57.2636,55.2619],[57.3,55.2565],[57.3291,55.2652],[57.3973,55.3146],[57.4337,55.3271],[57.518,55.334],[57.6749,55.3001],[57.7374,55.3022],[57.9166,55.293],[58.0302,55.2748],[58.0506,55.2481],[58.144,55.209],[58.1103,55.182],[58.05,55.1642],[57.9949,55.1798],[57.9649,55.1586],[58.0313,55.0747],[58.0186,55.0449],[58.02,54.9998],[57.9703,54.9596],[57.9652,54.9326],[58.0119,54.9166],[58.0537,54.929],[58.1057,54.9571],[58.093,54.976],[58.0893,55.0201],[58.1447,55.0567],[58.1916,55.0783],[58.1508,55.0933],[58.1475,55.1174],[58.2879,55.1707],[58.318,55.1724],[58.366,55.1583],[58.3855,55.1285],[58.364,55.0844],[58.4238,55.0647],[58.4341,55.0518],[58.3936,55.0205],[58.3874,54.9998],[58.4225,54.9988],[58.4982,55.0217],[58.5395,55.0096],[58.5333,54.9578],[58.6195,54.9497],[58.8157,55.0249],[58.8165,55.0423],[58.7677,55.1029],[58.74,55.1164],[58.6531,55.121],[58.5972,55.1308],[58.5755,55.1438],[58.5817,55.1661],[58.6736,55.1885],[58.7027,55.1484],[58.7555,55.1634],[58.7968,55.2028],[58.7897,55.2188],[58.7299,55.2263],[58.7268,55.2575],[58.7462,55.2679],[58.841,55.2597],[58.9004,55.2683],[58.9149,55.287],[58.8553,55.2948],[58.8466,55.3043],[58.872,55.3233],[58.9438,55.3235],[58.9805,55.3033],[58.9664,55.2479],[58.9974,55.2442],[59.1592,55.3316],[59.1781,55.3641],[59.1663,55.3814],[59.1716,55.4146],[59.2013,55.4501],[59.3113,55.4578],[59.3814,55.4797],[59.4446,55.468],[59.4835,55.4704],[59.503,55.4825],[59.5649,55.4996],[59.5933,55.5335],[59.6414,55.5653],[59.6278,55.5916],[59.498,55.5799],[59.4466,55.632],[59.3943,55.6224],[59.3733,55.6066],[59.2728,55.5722],[59.2369,55.5966],[59.2548,55.6141],[59.3365,55.638],[59.3414,55.6475],[59.284,55.6872],[59.2826,55.7106],[59.3136,55.7557],[59.2959,55.7805],[59.165,55.7899],[59.1608,55.8146],[59.2002,55.833],[59.1897,55.8741],[59.2285,55.9106],[59.1735,56.0055],[59.1959,56.0199],[59.269,56.0479],[59.2959,56.0887],[59.2961,56.1309],[59.2787,56.1362],[59.1879,56.1273],[59.1477,56.1492],[59.0815,56.1517],[59.0263,56.1694],[59.007,56.1097],[58.9942,56.0957],[58.9252,56.0612],[58.8243,56.054],[58.7465,56.0628],[58.7213,56.0734],[58.7088,56.102],[58.5966,56.1397],[58.5773,56.1587],[58.543,56.1631],[58.4551,56.1472],[58.4231,56.1097],[58.3863,56.0956],[58.3712,56.0624],[58.3239,56.0605],[58.3077,56.1045],[58.2836,56.1167],[58.2585,56.1041],[58.219,56.1078],[58.0794,56.141],[58.0488,56.1187],[58.0155,56.1139],[57.9072,56.1155],[57.8723,56.1412],[57.8021,56.1506],[57.6727,56.1301],[57.6373,56.0988],[57.5372,56.1002],[57.474,56.1187],[57.4523,56.1359],[57.4777,56.1789],[57.4563,56.205],[57.4108,56.2354],[57.4072,56.2536],[57.4241,56.3035],[57.4084,56.3291],[57.3412,56.3113],[57.2837,56.307],[57.263,56.2979],[57.2672,56.2725],[57.2456,56.2371],[57.1853,56.197],[57.2197,56.1943],[57.2135,56.182],[57.1558,56.1576],[57.0435,56.1524],[57.0293,56.1328],[56.9334,56.1016],[56.8641,56.1081],[56.8179,56.1527],[56.7641,56.1761],[56.7449,56.2158],[56.7297,56.2241],[56.6546,56.2201],[56.6383,56.2275],[56.6248,56.2602],[56.574,56.2632],[56.5022,56.3196],[56.5582,56.3602],[56.5285,56.3833],[56.4489,56.3741],[56.4025,56.3874],[56.3706,56.3783],[56.3669,56.3541],[56.3226,56.345],[56.2753,56.3051],[56.2558,56.299],[56.1993,56.3081],[56.1692,56.2992],[56.0733,56.2895],[56.0353,56.3289],[55.9675,56.3672],[55.929,56.418],[55.9136,56.4663],[55.8758,56.4367],[55.8146,56.4294],[55.7563,56.4388],[55.6842,56.4197],[55.5481,56.3995],[55.5159,56.3869],[55.4477,56.3407],[55.4122,56.3346],[55.3159,56.3299],[55.2523,56.3364],[55.2162,56.3637],[55.1876,56.3455],[55.1724,56.3178],[55.1337,56.3436],[55.1033,56.344],[54.9684,56.3204],[54.9471,56.3364],[54.9502,56.3633],[54.9182,56.392],[54.8557,56.4051],[54.7585,56.4342],[54.7241,56.4492],[54.6573,56.4983],[54.613,56.5109],[54.5904,56.5299],[54.5592,56.5384],[54.5316,56.5149],[54.4754,56.4164],[54.4448,56.3808],[54.4197,56.3376],[54.3896,56.3606],[54.3525,56.3585],[54.3197,56.339],[54.3326,56.32],[54.3714,56.2993],[54.3458,56.2526],[54.2531,56.226],[54.1845,56.1883],[54.1172,56.1582],[54.0829,56.123],[54.0468,56.058],[54.0058,56.0289],[53.9489,56.0222],[53.8378,56.0386],[53.7774,55.9702],[53.6967,55.9651],[53.6455,55.9366],[53.6317,55.9067],[53.7594,55.8662],[53.7805,55.8867],[53.847,55.8794],[53.8687,55.8867],[53.9123,55.8503],[53.9764,55.8527],[53.9973,55.8407],[53.979,55.8272],[53.962,55.791],[53.9833,55.7854],[54.0201,55.8047],[54.0399,55.8021],[54.0429,55.7774],[54.0263,55.7638],[54.0492,55.758],[54.0952,55.7729],[54.1183,55.7493],[54.1768,55.707],[54.2249,55.6964],[54.2296,55.6861],[54.1943,55.6605],[54.1745,55.6236],[54.1436,55.6172],[54.0536,55.5707],[54.0087,55.5571],[53.9969,55.5443],[53.9911,55.4978],[53.943,55.4672],[53.9338,55.4287],[53.891,55.3812],[53.8458,55.367],[53.7227,55.3377],[53.6632,55.2846],[53.603,55.2598],[53.5914,55.2119],[53.512,55.2018],[53.4651,55.2197],[53.4184,55.222],[53.3856,55.2122],[53.343,55.1866],[53.3269,55.1665],[53.2668,55.1647],[53.1468,55.1466],[53.1411,55.0989],[53.2124,55.08],[53.2618,55.0509],[53.2692,55.012],[53.2968,55.0158],[53.3247,55.0017],[53.3717,55.0058],[53.4219,54.9822],[53.4993,54.8913],[53.5335,54.8886],[53.5958,54.9006],[53.6428,54.8999],[53.5787,54.8222],[53.6032,54.8071],[53.6011,54.7832],[53.5815,54.7514],[53.6069,54.7281],[53.5849,54.6877],[53.5528,54.6619],[53.515,54.6155],[53.4141,54.5515],[53.4259,54.4988],[53.3876,54.4569],[53.3791,54.4263],[53.3478,54.3816],[53.3528,54.3488],[53.3736,54.3178],[53.4303,54.2657],[53.4159,54.2264],[53.4311,54.193],[53.4329,54.1477],[53.456,54.1145],[53.4548,54.0758],[53.4705,54.0457],[53.4097,54.0148],[53.3845,53.9738],[53.3571,53.9771],[53.3411,54.0022],[53.2915,54.0241],[53.2731,54.0631],[53.2138,54.0779],[53.1794,54.0936],[53.1414,54.0762],[53.0811,54.068],[53.0672,54.0735],[53.0889,54.1089],[53.0811,54.1204],[53.0352,54.1281],[52.9512,54.1958],[52.9384,54.2138],[52.9703,54.2287],[53.0295,54.2226],[53.0446,54.2424],[53.0861,54.2405],[53.1096,54.2517],[53.1068,54.2864],[53.092,54.3085],[53.0456,54.3387],[53.0053,54.3074],[53.0263,54.289],[53.0009,54.271],[52.936,54.2685],[52.8979,54.2755],[52.8942,54.2915],[52.927,54.2911],[52.9254,54.3105],[52.857,54.3204],[52.7711,54.347],[52.6772,54.3532],[52.629,54.343],[52.5385,54.3773],[52.5015,54.3983],[52.5002,54.453],[52.4398,54.4781],[52.4092,54.4689],[52.404,54.4348],[52.3897,54.4231],[52.3531,54.4238],[52.3656,54.4446],[52.3444,54.4581],[52.304,54.4493],[52.2227,54.4446],[52.1762,54.4105],[52.0995,54.3885],[52.1151,54.3596],[52.0873,54.3416],[52.0623,54.3598],[52.0486,54.4115],[52.0198,54.4328],[51.979,54.4277],[51.9327,54.4363],[51.9413,54.4731],[51.936,54.5276],[51.9156,54.5364],[51.828,54.5334],[51.7627,54.5521],[51.6964,54.5573],[51.6676,54.5671],[51.5555,54.6258],[51.5135,54.6393],[51.4917,54.5965],[51.4087,54.5946],[51.3913,54.6015],[51.3968,54.6521],[51.3792,54.6748],[51.296,54.6416],[51.2509,54.6399],[51.2247,54.6496],[51.1688,54.6373],[51.109,54.5792],[51.0929,54.5535],[51.0277,54.5511],[51.0038,54.5392],[50.9932,54.502],[51.0057,54.4782],[50.9901,54.4198],[50.9555,54.3895],[50.948,54.3476],[50.9185,54.3398],[50.8788,54.3758],[50.8095,54.3763],[50.7334,54.4174],[50.6969,54.4267],[50.6427,54.4101],[50.5944,54.3654],[50.5194,54.3298],[50.4981,54.339],[50.5033,54.3591],[50.46,54.4147],[50.4249,54.4377],[50.3842,54.4858],[50.3512,54.463],[50.301,54.4461],[50.2567,54.4504],[50.2304,54.4946],[50.1961,54.5068],[50.1072,54.5088],[50.0775,54.5165],[50.1225,54.4801],[50.1202,54.4315],[50.2056,54.4181],[50.2017,54.3877],[50.2562,54.3049],[50.2407,54.2227],[50.2078,54.1529],[50.2037,54.1157],[50.2241,54.0738],[50.1974,54.0381],[50.0958,54.0069],[50.0531,53.978],[49.9791,53.9658],[49.9572,53.9068],[50.0178,53.8905],[50.0576,53.8588],[50.0471,53.8343],[50.0076,53.8217],[49.8686,53.8343],[49.8357,53.8545],[49.8476,53.8834],[49.8269,53.8872],[49.7655,53.8774],[49.7611,53.8564],[49.7197,53.837],[49.6087,53.8182],[49.6073,53.8428],[49.561,53.855],[49.4137,53.8683],[49.3545,53.8615],[49.3258,53.8425],[49.2992,53.84],[49.0293,53.8572],[48.9956,53.839],[48.9234,53.774],[48.8743,53.7164],[48.8504,53.7153],[48.6099,53.7448],[48.4911,53.7705],[48.4624,53.7609],[48.4687,53.7378],[48.5144,53.6956],[48.5979,53.6732],[48.5529,53.6553],[48.4564,53.6658],[48.4378,53.6408],[48.4139,53.6356],[48.3539,53.6703],[48.3265,53.6622],[48.3313,53.6245],[48.3554,53.6018],[48.4195,53.59],[48.4348,53.5807],[48.385,53.5523],[48.3756,53.4712],[48.314,53.4535],[48.2685,53.4659],[48.2368,53.4581],[48.2193,53.4288],[48.1736,53.4735],[48.1549,53.4807],[48.0568,53.4761],[48.0055,53.4387],[47.9963,53.4047],[47.9451,53.3743],[47.967,53.3457],[48.0345,53.3146],[48.1021,53.2459],[48.1002,53.2169],[48.1207,53.1794],[48.1436,53.1619],[48.1961,53.1506],[48.2044,53.1405],[48.1485,53.0587],[48.2216,52.9989],[48.2394,53.0009],[48.2761,53.0592],[48.3482,53.0664],[48.3616,53.0514],[48.3193,53.0001],[48.3243,52.9844],[48.3903,52.9704],[48.5217,52.9782],[48.5661,52.9487],[48.5925,52.9194],[48.5903,52.8806],[48.5397,52.8303],[48.437,52.7804],[48.3453,52.8061],[48.2522,52.8101],[48.1782,52.7918],[48.0983,52.7946],[48.0916,52.7755],[47.9978,52.7544],[48.009,52.733],[48.077,52.7288],[48.0831,52.7094],[48.0618,52.6946],[48.0117,52.6786],[47.9173,52.6748],[47.8994,52.7218],[47.879,52.7272],[47.8349,52.719],[47.7775,52.6803],[47.7818,52.6419],[47.7678,52.6141],[47.7308,52.5867],[47.7078,52.5812],[47.6377,52.6098],[47.5728,52.6162],[47.5308,52.6105],[47.4908,52.5858],[47.4354,52.5698],[47.207,52.5671],[47.1801,52.579],[47.1627,52.6029],[47.1402,52.6043],[47.0704,52.5703],[47.0071,52.5927],[46.9833,52.619],[46.9173,52.6367],[46.8307,52.6163],[46.713,52.6279],[46.6633,52.6607],[46.6101,52.6705],[46.613,52.7029],[46.5821,52.7308],[46.5459,52.7037],[46.5162,52.695],[46.4225,52.6859],[46.3933,52.6751],[46.3178,52.6779],[46.2888,52.6719],[46.273,52.6462],[46.2763,52.6186],[46.229,52.616],[46.2027,52.603],[46.1653,52.603],[46.1468,52.5914],[46.1319,52.547],[46.0863,52.5591],[46.0635,52.5316],[45.9852,52.5001],[45.9715,52.4856],[46.0053,52.4702],[46.0126,52.4545],[45.9796,52.4358],[45.9806,52.4072],[45.8014,52.4432],[45.717,52.4708],[45.7322,52.5228],[45.688,52.515],[45.6444,52.5186],[45.6019,52.495],[45.528,52.4808],[45.5197,52.4466],[45.4315,52.4005],[45.355,52.4189],[45.2643,52.3923],[45.2209,52.397],[45.1773,52.417],[45.1399,52.4205],[45.1008,52.4038],[45.0719,52.3769],[45.1006,52.3493],[45.0886,52.335],[45.0328,52.3209],[44.9771,52.365],[44.9096,52.3775],[44.8725,52.434],[44.8488,52.4498],[44.7853,52.4693],[44.682,52.4792],[44.6465,52.4876],[44.5481,52.5524],[44.5003,52.5212],[44.5383,52.4788],[44.5209,52.4608],[44.5391,52.4321],[44.5148,52.4213],[44.4725,52.4287],[44.4219,52.4158],[44.3783,52.3609],[44.3386,52.3471],[44.3467,52.3161],[44.2171,52.3392],[44.044,52.3495],[43.9555,52.3773],[43.9017,52.401],[43.8441,52.4055],[43.7716,52.4316],[43.747,52.4334],[43.6425,52.4145],[43.5321,52.4263],[43.4768,52.4058],[43.3527,52.3925],[43.3298,52.3985],[43.3198,52.4321],[43.2814,52.4467],[43.1753,52.4621],[43.1242,52.4111],[43.0796,52.4027],[43.0434,52.3949],[42.9965,52.3647],[42.9557,52.376],[42.9199,52.3697],[42.9218,52.3054],[42.8564,52.2392],[42.7714,52.1931],[42.7515,52.1738],[42.7513,52.0778],[42.806,52.0122],[42.7263,51.9941],[42.6941,51.9661],[42.6768,51.8565],[42.6433,51.804],[42.4904,51.6928],[42.4835,51.6595],[42.5115,51.624],[42.4892,51.6077],[42.5296,51.5755],[42.7341,51.479],[42.801,51.4328],[42.8609,51.3814],[42.8418,51.3396],[42.8445,51.3167],[42.8711,51.269],[42.9054,51.2491],[42.8729,51.2313],[42.8441,51.2362],[42.7155,51.2394],[42.6584,51.2257],[42.573,51.1685],[42.3673,51.157],[42.3201,51.1386],[42.2548,51.1325],[42.1435,51.1416],[42.0673,51.16],[41.977,51.2033],[41.9475,51.2042],[41.8549,51.1886],[41.8306,51.1664],[41.7715,51.0667],[41.737,51.0257],[41.6355,50.9815],[41.5402,50.9543],[41.4443,50.9174],[41.3916,50.8795],[41.3698,50.8308],[41.1675,50.7805]]]}}
]}
