{"type":"FeatureCollection","features":[
{"type":"Feature","properties":{"entityId":"odoacer-italy","from":476,"to":477,"certainty":"estimated","source":"유럽 쪽은 Natural Earth 1:10m admin-1(v5.1.2) 현대 행정구역 조각을 그 시기 국경에 맞춰 묶고, 조각이 역사 경계와 다른 곳은 선을 그어 나눈 근사. 유럽 밖(시베리아·중앙아시아·극동)은 대략적인 추정. 운영자 검수 필요"},"geometry":{"type":"MultiPolygon","coordinates":[[[[6.6027,45.1035],[6.6366,45.0745],[6.6397,45.0504],[6.6622,45.0292],[6.6972,45.0269],[6.7235,45.0134],[6.7299,44.9847],[6.7279,44.9287],[6.7782,44.8876],[6.866,44.8557],[6.9327,44.8617],[6.9828,44.847],[7.0071,44.8221],[6.9984,44.7938],[7.019,44.7389],[7.0388,44.7121],[7.0552,44.6849],[6.9828,44.6922],[6.9383,44.658],[6.9456,44.6254],[6.8973,44.5754],[6.8464,44.5475],[6.8388,44.5029],[6.8613,44.4749],[6.9178,44.4363],[6.8772,44.4144],[6.8661,44.3721],[6.8784,44.3546],[6.9212,44.3022],[6.9592,44.2774],[6.9734,44.2494],[6.9961,44.2378],[7.0335,44.2429],[7.145,44.2072],[7.2513,44.16],[7.3093,44.1475],[7.3406,44.1237],[7.3808,44.1229],[7.5548,44.1591],[7.5836,44.1607],[7.6247,44.1801],[7.6556,44.1761],[7.6419,44.1436],[7.6879,44.0908],[7.6899,44.0673],[7.6534,44.0397],[7.6309,43.9935],[7.5569,43.9441],[7.4935,43.8862],[7.4779,43.8655],[7.4797,43.86],[7.515,43.86],[7.515,43.744],[7.5324,43.744],[7.5324,43.7107],[7.6174,43.7257],[7.8501,43.7666],[7.9575,43.8525],[7.9597,43.8529],[8.0314,43.8875],[8.0677,43.8967],[8.0892,43.9199],[8.1302,43.9403],[8.168,43.9565],[8.1527,43.9832],[8.1691,44.0067],[8.2163,44.0452],[8.2217,44.0639],[8.2219,44.0641],[8.3543,44.17],[8.3694,44.1735],[8.4082,44.1935],[8.4106,44.215],[8.4297,44.2303],[8.5276,44.2591],[8.6446,44.2934],[8.6739,44.3021],[8.7032,44.3107],[8.7617,44.3279],[8.8787,44.3622],[8.8903,44.3656],[9.3468,44.1805],[9.4347,44.1448],[9.4639,44.133],[9.5809,44.0855],[9.7037,44.0357],[9.8149,44.0099],[9.9319,43.9828],[9.9904,43.9693],[10.0196,43.9625],[10.0489,43.9557],[10.0993,43.944],[10.1245,43.9382],[10.1496,43.9324],[10.2005,43.9206],[10.2229,43.849],[10.2529,43.7532],[10.283,43.6573],[10.2934,43.5791],[10.3172,43.4926],[10.3263,43.4769],[10.3411,43.4717],[10.4889,42.9998],[10.4776,42.9901],[10.4995,42.9405],[10.5108,42.9315],[10.5788,42.8738],[10.6042,42.8523],[10.6295,42.8308],[10.6802,42.7878],[10.8496,42.6441],[11.0958,42.4353],[11.0869,42.4295],[11.0945,42.4027],[11.1559,42.3663],[11.1772,42.3663],[11.1905,42.355],[11.2936,42.2817],[11.3061,42.2728],[11.3518,42.2403],[11.41,42.199],[11.5265,42.1162],[11.6429,42.0334],[11.6961,41.9956],[12.1049,41.705],[12.1086,41.7029],[12.5743,41.4335],[12.6907,41.3661],[12.7489,41.3325],[12.778,41.3156],[12.8071,41.2988],[12.8861,41.2531],[13.04,41.2398],[13.0446,41.2275],[13.0905,41.2265],[13.0985,41.2347],[13.35,41.2129],[13.5754,41.1933],[13.6277,41.1888],[13.6351,41.1819],[13.65,41.168],[13.6828,41.1374],[13.8139,41.0152],[13.838,40.9927],[13.9184,40.9177],[13.9452,40.8928],[14.0427,40.8019],[14.0412,40.7965],[14.0521,40.7931],[14.0597,40.786],[14.419,40.685],[14.3705,40.6318],[14.3377,40.6244],[14.3298,40.5845],[14.3558,40.5836],[14.422,40.6155],[14.4714,40.6247],[14.4845,40.6315],[14.4914,40.631],[14.5442,40.6136],[14.5713,40.6177],[14.597,40.635],[14.7041,40.6049],[14.9265,40.2797],[14.9069,40.2586],[14.9111,40.2416],[14.9571,40.2316],[14.9605,40.23],[14.9993,40.1733],[15.2164,40.1076],[15.2354,40.0982],[15.2791,40.0477],[15.2612,40.0294],[15.3143,40.0338],[15.3432,40.0041],[15.4101,39.994],[15.4296,39.9998],[15.4378,40.0078],[15.5025,39.9012],[15.5292,39.8571],[15.556,39.8129],[15.6096,39.7246],[15.7194,39.5436],[15.8351,39.3714],[16.013,39.1065],[16.0646,39.0297],[16.0723,39.0182],[16.108,38.965],[16.0403,38.8981],[15.9813,38.8399],[15.9223,38.7816],[15.8922,38.7519],[15.8589,38.665],[15.8445,38.6604],[15.8355,38.6282],[15.8428,38.6226],[15.7897,38.484],[15.7721,38.4379],[15.7055,38.2637],[15.7014,38.2623],[15.6954,38.2532],[15.6506,38.241],[15.6328,38.2203],[15.6441,38.162],[15.6448,38.1366],[15.624,38.0921],[15.6468,38.0594],[15.6474,38.0345],[15.6503,38.0308],[15.6351,38.0091],[15.6658,37.9669],[15.6839,37.9559],[15.6834,37.909],[15.6834,37.9086],[15.6838,37.9087],[15.6838,37.9086],[15.7762,37.9258],[15.9421,37.9331],[16.001,37.919],[16.0632,37.9327],[16.09,37.9492],[16.1255,38.0048],[16.134,38.0389],[16.2186,38.1749],[16.2814,38.2498],[16.4188,38.3333],[16.4351,38.34],[16.4671,38.3487],[16.5614,38.4163],[16.5735,38.4673],[16.577,38.5286],[16.5687,38.5593],[16.5586,38.715],[16.6162,38.8001],[16.6985,38.852],[16.797,38.866],[16.8616,38.8751],[16.8939,38.8797],[16.9261,38.8843],[17.0518,38.9021],[17.0553,38.9175],[17.0706,38.9228],[17.095,38.9191],[17.104,38.8991],[17.1277,38.9288],[17.1724,38.9605],[17.1724,38.9961],[17.1742,38.998],[17.1741,38.9983],[17.1742,38.9984],[17.1724,39.0034],[17.1724,39.0052],[17.2064,39.0295],[17.159,39.0404],[17.1254,39.133],[17.1457,39.2107],[17.1283,39.2389],[17.1694,39.4198],[17.1706,39.4251],[17.1705,39.4251],[17.1706,39.4255],[17.0855,39.4693],[17.0832,39.4705],[17.0004,39.5131],[16.8302,39.6007],[16.5232,39.7588],[16.5298,39.8591],[16.5436,39.8864],[16.5892,39.9198],[16.6316,39.9662],[16.6097,40.0172],[16.6414,40.0799],[16.6572,40.1113],[16.6678,40.1322],[16.6746,40.1427],[16.6795,40.1461],[16.7376,40.211],[16.7553,40.2546],[16.807,40.3261],[16.8285,40.3493],[16.8724,40.3966],[16.9078,40.4348],[16.911,40.4342],[17.0667,40.4049],[17.3781,40.3462],[17.3994,40.331],[17.4241,40.331],[17.4762,40.3139],[17.4881,40.3128],[17.5121,40.3037],[17.6293,40.2989],[17.7248,40.2809],[17.739,40.2782],[17.7725,40.25],[17.8202,40.2098],[17.9889,40.0676],[17.9675,40.0573],[18.0051,40.0449],[18.0221,40.0217],[17.9954,40.0027],[18.0715,39.9115],[18.1306,39.8835],[18.1619,39.8605],[18.2113,39.8393],[18.2654,39.8346],[18.2934,39.811],[18.2935,39.8112],[18.2938,39.811],[18.2997,39.8223],[18.3304,39.8034],[18.3683,39.7966],[18.3865,39.8253],[18.4001,39.8786],[18.3948,39.9049],[18.4234,39.9875],[18.4459,40.0303],[18.4836,40.0552],[18.4919,40.0847],[18.5174,40.1142],[18.4373,40.2679],[18.4093,40.2976],[18.3766,40.3565],[18.2887,40.41],[18.2588,40.4307],[18.2383,40.4577],[18.2117,40.4647],[18.1538,40.492],[18.0381,40.5624],[18.0432,40.602],[18.0158,40.6252],[18.007,40.6507],[17.9617,40.6474],[17.9554,40.6546],[17.9552,40.6547],[17.9558,40.6705],[17.9219,40.683],[17.8577,40.6922],[17.8248,40.7049],[17.7484,40.7476],[17.7166,40.758],[17.5198,40.8778],[17.4995,40.8862],[17.4452,40.9086],[17.4181,40.9197],[17.3909,40.931],[17.2823,40.9757],[17.2764,40.9802],[17.2031,41.021],[17.0571,41.0819],[16.9779,41.1013],[16.7854,41.1807],[16.7063,41.2125],[16.6384,41.2398],[16.6045,41.2535],[16.5705,41.2671],[16.5026,41.2945],[16.4347,41.3218],[16.163,41.4311],[16.0279,41.4854],[16.0013,41.4961],[15.9029,41.5357],[15.9051,41.5523],[15.9241,41.5658],[16.163,41.7358],[16.1698,41.7406],[16.1696,41.7408],[16.1698,41.741],[16.163,41.7471],[16.1535,41.7556],[16.1929,41.7909],[16.1922,41.8214],[16.176,41.8774],[16.1688,41.886],[16.1662,41.8958],[16.1586,41.8982],[16.1405,41.9199],[16.0271,41.9441],[15.9685,41.9388],[15.9646,41.9392],[15.9642,41.9392],[15.95,41.9385],[15.925,41.961],[15.9246,41.961],[15.4408,41.9578],[15.177,41.9561],[15.1441,41.9559],[15.1438,41.9559],[15.1111,41.9796],[14.9131,42.123],[14.8618,42.1601],[14.848,42.1701],[14.6493,42.314],[14.3854,42.5052],[14.3782,42.5104],[14.3311,42.5445],[14.2841,42.5785],[14.19,42.6467],[14.1024,42.7101],[14.0313,42.7616],[13.9603,42.878],[13.9346,42.92],[13.909,42.962],[13.8577,43.046],[13.8535,43.0674],[13.8348,43.1273],[13.8102,43.1648],[13.8045,43.1804],[13.7831,43.2208],[13.7803,43.2365],[13.7457,43.2911],[13.6929,43.3905],[13.6909,43.3933],[13.647,43.4753],[13.617,43.5313],[13.6156,43.5605],[13.5692,43.5803],[13.5432,43.6132],[13.5044,43.6328],[13.4863,43.6206],[13.4293,43.6402],[13.2153,43.7551],[13.1815,43.7732],[13.0798,43.8278],[12.9443,43.9005],[12.9289,43.9158],[12.9032,43.9234],[12.8992,43.9247],[12.7714,43.9933],[12.7385,44.011],[12.7055,44.0287],[12.6396,44.064],[12.5877,44.0919],[12.5078,44.2162],[12.4895,44.2447],[12.4665,44.2804],[12.4436,44.316],[12.3978,44.3873],[12.3861,44.4054],[12.2828,44.5661],[12.2858,44.6027],[12.2713,44.627],[12.3506,44.8112],[12.3757,44.7922],[12.3934,44.7935],[12.4238,44.8203],[12.4392,44.8294],[12.4446,44.8205],[12.4741,44.8458],[12.4929,44.8782],[12.4952,44.8946],[12.4977,44.8987],[12.5061,44.9219],[12.5127,44.9223],[12.5339,44.97],[12.5168,44.9876],[12.4861,44.9912],[12.4861,44.9887],[12.4203,45.0249],[12.4103,45.0322],[12.4134,45.0429],[12.3805,45.0596],[12.3601,45.0915],[12.3536,45.1516],[12.3497,45.1868],[12.3459,45.2219],[12.3382,45.2922],[12.3308,45.3607],[12.3541,45.3925],[12.4126,45.418],[12.4309,45.4157],[12.419,45.4208],[12.5473,45.4768],[12.5936,45.4915],[12.6117,45.4962],[12.66,45.5126],[12.7605,45.5445],[12.7784,45.5527],[12.7808,45.5535],[12.8839,45.601],[12.9045,45.6104],[13.0276,45.6359],[13.0606,45.6367],[13.0956,45.6523],[13.103,45.669],[13.1497,45.7038],[13.1188,45.696],[13.1205,45.6972],[13.1488,45.7354],[13.2505,45.7168],[13.2958,45.7085],[13.341,45.7003],[13.3862,45.692],[13.4011,45.6893],[13.3767,45.6832],[13.4017,45.6754],[13.428,45.6811],[13.432,45.6836],[13.5261,45.6664],[13.6201,45.6492],[13.772,45.6214],[13.7599,45.6135],[13.757,45.6137],[13.7302,45.6131],[13.7118,45.5932],[13.7196,45.5872],[13.6474,45.5418],[13.6109,45.538],[13.5896,45.5358],[13.5686,45.5393],[13.5728,45.53],[13.5786,45.5234],[13.5857,45.5197],[13.5773,45.5171],[13.5479,45.5005],[13.5071,45.5119],[13.5046,45.4839],[13.5208,45.4573],[13.5134,45.4362],[13.5549,45.3611],[13.5413,45.3461],[13.5618,45.3264],[13.5703,45.3253],[13.5766,45.3069],[13.5755,45.3065],[13.5774,45.3046],[13.5915,45.264],[13.5882,45.2596],[13.5942,45.2208],[13.5823,45.1966],[13.5994,45.1713],[13.6006,45.1373],[13.6197,45.1387],[13.6238,45.1232],[13.6126,45.1179],[13.6369,45.0936],[13.6232,45.0731],[13.6813,45.0464],[13.7328,44.9949],[13.7493,44.9825],[13.8073,44.9079],[13.8049,44.8854],[13.8237,44.8868],[13.8339,44.8736],[13.8338,44.8734],[13.7993,44.8646],[13.8491,44.8472],[13.8491,44.8266],[13.897,44.8131],[13.9032,44.7724],[13.918,44.7783],[13.8911,44.8314],[13.9013,44.8292],[13.9017,44.8292],[13.9039,44.8294],[13.9363,44.8199],[13.9517,44.8024],[13.9519,44.8026],[13.9521,44.8024],[13.9597,44.813],[13.9639,44.8118],[14,44.8131],[13.9727,44.8266],[13.9727,44.8314],[14.0288,44.9105],[14.0421,44.9265],[14.0828,44.9839],[14.0689,44.9495],[14.1133,44.9775],[14.1399,44.9713],[14.1637,44.9958],[14.1662,45.0189],[14.1551,45.0678],[14.1745,45.0896],[14.1931,45.1056],[14.1916,45.1088],[14.2077,45.1268],[14.2092,45.1264],[14.2347,45.1546],[14.2026,45.1716],[14.1946,45.275],[14.2105,45.3278],[14.1995,45.3756],[14.2036,45.4039],[14.1389,45.4343],[14.1173,45.473],[14.1455,45.4762],[14.2187,45.4972],[14.2804,45.4811],[14.3268,45.4749],[14.3728,45.4778],[14.4112,45.4932],[14.4689,45.5256],[14.4821,45.5424],[14.4915,45.5792],[14.4986,45.5962],[14.5436,45.6364],[14.5561,45.6567],[14.5691,45.6643],[14.5809,45.6678],[14.5919,45.6634],[14.5941,45.648],[14.5939,45.6162],[14.6031,45.6036],[14.616,45.5941],[14.6503,45.5748],[14.6637,45.5702],[14.6717,45.5568],[14.6685,45.534],[14.6883,45.522],[14.7815,45.4931],[14.7972,45.4652],[14.8388,45.459],[14.8816,45.4698],[14.9008,45.4931],[14.9044,45.5144],[14.9226,45.5149],[14.9454,45.5045],[14.9626,45.4931],[14.9773,45.4917],[15.0074,45.4808],[15.0562,45.4799],[15.0661,45.4739],[15.1393,45.43],[15.1842,45.4256],[15.2258,45.4365],[15.2816,45.451],[15.314,45.4505],[15.3339,45.4585],[15.3614,45.482],[15.311,45.5059],[15.2967,45.523],[15.2822,45.5715],[15.2696,45.5934],[15.2686,45.6017],[15.2879,45.6103],[15.2974,45.6257],[15.3267,45.6323],[15.3531,45.6403],[15.3738,45.6402],[15.3683,45.649],[15.35,45.6696],[15.3308,45.6846],[15.315,45.6809],[15.3049,45.6721],[15.2919,45.6756],[15.2778,45.685],[15.2678,45.6985],[15.2582,45.7051],[15.2509,45.7077],[15.2499,45.7137],[15.2635,45.7304],[15.3038,45.7461],[15.331,45.7525],[15.4298,45.7757],[15.4411,45.7822],[15.4356,45.8021],[15.4513,45.8151],[15.4854,45.8102],[15.5235,45.8268],[15.5497,45.8237],[15.5873,45.8192],[15.6261,45.8202],[15.6661,45.8317],[15.6761,45.8417],[15.6755,45.856],[15.6594,45.8888],[15.6756,45.9252],[15.6754,45.9725],[15.6742,45.9932],[15.682,46.0135],[15.698,46.0362],[15.6929,46.0416],[15.6839,46.0511],[15.6717,46.0574],[15.6437,46.0655],[15.6315,46.0706],[15.6236,46.0764],[15.6235,46.0764],[15.6038,46.091],[15.5899,46.1135],[15.59,46.1387],[15.6043,46.167],[15.6229,46.1917],[15.6266,46.1952],[15.6398,46.2077],[15.6613,46.2153],[15.678,46.2145],[15.7498,46.2108],[15.7689,46.2194],[15.7891,46.2431],[15.7995,46.2486],[15.8031,46.2505],[15.8183,46.2555],[15.8342,46.2584],[15.8793,46.2593],[15.8809,46.2593],[15.8837,46.2594],[15.9189,46.2728],[15.9487,46.2842],[15.9937,46.2906],[16.0192,46.2988],[16.0389,46.3084],[16.0499,46.3167],[16.0524,46.3186],[16.0596,46.3323],[16.0597,46.3453],[16.0574,46.3597],[16.058,46.3775],[16.0887,46.3731],[16.106,46.3737],[16.1316,46.3931],[16.1536,46.3914],[16.1775,46.3756],[16.1918,46.3698],[16.2171,46.3674],[16.2528,46.3734],[16.2756,46.3732],[16.2799,46.3787],[16.2741,46.3921],[16.257,46.3999],[16.2482,46.4133],[16.2494,46.4375],[16.2375,46.4651],[16.2342,46.4849],[16.2349,46.4933],[16.2609,46.5136],[16.2639,46.5159],[16.2954,46.5244],[16.3015,46.5271],[16.3107,46.531],[16.33,46.5355],[16.3403,46.5438],[16.3441,46.547],[16.3517,46.5395],[16.3579,46.547],[16.3695,46.5406],[16.4063,46.5395],[16.4152,46.5356],[16.432,46.5232],[16.4404,46.519],[16.4708,46.5203],[16.4911,46.5151],[16.5153,46.5017],[16.5008,46.5448],[16.4671,46.5647],[16.4302,46.6044],[16.3946,46.619],[16.3764,46.6291],[16.3722,46.6363],[16.3684,46.643],[16.3776,46.6529],[16.3967,46.6591],[16.4026,46.6631],[16.4105,46.6684],[16.405,46.6873],[16.39,46.6942],[16.3714,46.6949],[16.3662,46.6965],[16.3654,46.6967],[16.3576,46.699],[16.3573,46.7158],[16.3434,46.7142],[16.3142,46.7433],[16.2982,46.7758],[16.2995,46.7795],[16.3022,46.787],[16.3111,46.7975],[16.3149,46.802],[16.3218,46.8133],[16.3275,46.8255],[16.3298,46.8344],[16.3253,46.8394],[16.3107,46.84],[16.3019,46.8432],[16.2974,46.847],[16.2822,46.8599],[16.272,46.864],[16.1795,46.8585],[16.1354,46.8558],[16.1302,46.8567],[16.094,46.8628],[16.0529,46.8461],[16.032,46.8376],[16.0284,46.8369],[16.0037,46.8707],[16.0115,46.9133],[16.0545,46.9442],[16.1363,47.0249],[16.1347,47.0402],[16.0895,47.0829],[16.0844,47.1069],[16.095,47.1651],[16.0675,47.2376],[16.0584,47.2911],[16.02,47.3724],[16.0475,47.4106],[16.0717,47.3949],[16.1479,47.443],[16.1135,47.4634],[16.0804,47.5165],[16.0472,47.5062],[15.9983,47.5238],[15.9167,47.5332],[15.8923,47.572],[15.8661,47.5854],[15.8279,47.5889],[15.8287,47.6321],[15.7969,47.6454],[15.7432,47.6367],[15.7261,47.6902],[15.7143,47.7019],[15.6718,47.7042],[15.6386,47.7174],[15.6062,47.7435],[15.5387,47.7474],[15.5001,47.7663],[15.4175,47.7935],[15.3754,47.8196],[15.3391,47.8254],[15.2779,47.8152],[15.2297,47.8193],[15.1871,47.7804],[15.0561,47.7508],[15.0147,47.7524],[14.9296,47.7269],[14.8834,47.7247],[14.8382,47.7505],[14.7341,47.7502],[14.6993,47.7689],[14.7162,47.7935],[14.7189,47.8289],[14.7507,47.9019],[14.6905,47.9372],[14.6066,47.9612],[14.4454,48.043],[14.4272,48.0574],[14.4454,48.0685],[14.4799,48.1179],[14.4694,48.1558],[14.4849,48.2184],[14.52,48.2448],[14.5823,48.2402],[14.6376,48.1971],[14.6755,48.1825],[14.8187,48.2056],[14.862,48.237],[14.9296,48.244],[14.968,48.2252],[14.9754,48.3336],[14.9638,48.3831],[14.94,48.4018],[14.9344,48.434],[14.9098,48.44],[14.8823,48.4712],[14.8871,48.5005],[14.9136,48.4999],[14.9064,48.5271],[14.8393,48.542],[14.7745,48.5625],[14.7116,48.572],[14.6911,48.5865],[14.6592,48.577],[14.6347,48.6023],[14.6019,48.6045],[14.5788,48.6205],[14.522,48.6106],[14.4821,48.6245],[14.4582,48.6432],[14.4436,48.6365],[14.4054,48.5863],[14.3157,48.5579],[14.2165,48.5812],[14.0748,48.5917],[14.0408,48.6012],[14.0062,48.6395],[14.0329,48.6549],[13.9823,48.7065],[13.915,48.731],[13.8559,48.7593],[13.8157,48.7664],[13.7962,48.7798],[13.7247,48.8673],[13.6544,48.8822],[13.6218,48.9091],[13.6087,48.9462],[13.5905,48.9448],[13.5224,48.9693],[13.5021,48.9661],[13.4823,48.9376],[13.4273,48.96],[13.3842,48.993],[13.3724,49.0385],[13.2995,49.0936],[13.2673,49.1056],[13.2068,49.1075],[13.1785,49.1183],[13.1495,49.1548],[13.0558,49.2382],[13.0113,49.2678],[12.9998,49.2949],[12.9229,49.3327],[12.8847,49.3396],[12.8754,49.3239],[12.7978,49.3278],[12.7621,49.3432],[12.7293,49.3911],[12.6435,49.4295],[12.6272,49.4602],[12.623,49.5098],[12.5937,49.515],[12.5623,49.5508],[12.5536,49.5847],[12.502,49.6197],[12.4964,49.67],[12.4196,49.7002],[12.3836,49.7429],[12.3954,49.7579],[12.4527,49.7797],[12.4625,49.8312],[12.4825,49.8272],[12.5129,49.8702],[12.5241,49.905],[12.4627,49.9313],[12.4682,49.9702],[12.3,50.0271],[12.3,49.75],[11.55,49.75],[11.55,49.05],[10.2754,49.05],[10.3542,49.0334],[10.3733,49.0054],[10.4151,48.9829],[10.4588,48.9394],[10.4674,48.915],[10.4482,48.9086],[10.4563,48.8877],[10.4493,48.8456],[10.459,48.8335],[10.4411,48.8042],[10.4324,48.7658],[10.4411,48.7418],[10.4674,48.7358],[10.4951,48.6995],[10.4385,48.6676],[10.4444,48.6993],[10.4242,48.702],[10.3719,48.6645],[10.3544,48.6862],[10.2981,48.7035],[10.2704,48.6811],[10.2892,48.6454],[10.3329,48.6233],[10.3131,48.6082],[10.3229,48.562],[10.315,48.5311],[10.2624,48.5254],[10.2506,48.5052],[10.1534,48.4658],[10.1212,48.4872],[10.0679,48.4722],[10.046,48.458],[10.0366,48.4334],[9.9806,48.3813],[10.0039,48.3681],[10.0541,48.3049],[10.07,48.269],[10.1093,48.148],[10.1362,48.1073],[10.1401,48.0836],[10.1302,48.0349],[10.1007,47.9796],[10.0855,47.9701],[10.1095,47.9378],[10.0982,47.8779],[10.1295,47.8165],[10.0893,47.8017],[10.0802,47.787],[10.114,47.7673],[10.1314,47.6879],[10.1215,47.6739],[10.0934,47.6797],[10.0757,47.6497],[10.0578,47.6782],[10.0339,47.68],[9.9533,47.6595],[9.905,47.6632],[9.8646,47.6748],[9.8342,47.6651],[9.7601,47.6204],[9.715,47.6048],[9.6864,47.6114],[9.6122,47.5877],[9.5541,47.5327],[9.5475,47.5345],[9.2732,47.6501],[9.1969,47.6561],[9.1834,47.6704],[9.1281,47.6704],[9.0166,47.6789],[8.9818,47.6622],[8.9062,47.6518],[8.8519,47.6713],[8.8377,47.6878],[8.8561,47.6907],[8.8302,47.7072],[8.7976,47.72],[8.7707,47.7209],[8.7617,47.7013],[8.7699,47.6951],[8.7171,47.6946],[8.7004,47.7235],[8.7198,47.7473],[8.7131,47.7574],[8.6819,47.7587],[8.657,47.7881],[8.635,47.7846],[8.6298,47.7628],[8.6076,47.7623],[8.6016,47.7946],[8.5582,47.8012],[8.5423,47.795],[8.5516,47.7793],[8.5365,47.7741],[8.4636,47.7639],[8.4501,47.7505],[8.4379,47.7232],[8.4019,47.7071],[8.391,47.6921],[8.3977,47.6763],[8.3913,47.6655],[8.412,47.661],[8.4583,47.6399],[8.4761,47.6404],[8.5197,47.6574],[8.5682,47.6629],[8.5936,47.6582],[8.6016,47.6326],[8.5803,47.639],[8.5763,47.595],[8.5607,47.5894],[8.5517,47.5969],[8.5224,47.6219],[8.4618,47.6061],[8.4489,47.5843],[8.4211,47.5811],[8.3541,47.581],[8.3063,47.5922],[8.2886,47.6158],[8.2511,47.622],[8.179,47.6158],[8.1221,47.5921],[8.0872,47.5674],[8.0423,47.5606],[7.9122,47.5606],[7.8982,47.5878],[7.8197,47.5953],[7.7856,47.5632],[7.7273,47.5504],[7.6834,47.5443],[7.6469,47.5514],[7.6097,47.5647],[7.6123,47.5647],[7.6359,47.5646],[7.6465,47.5715],[7.6597,47.5966],[7.637,47.595],[7.586,47.5846],[7.5855,47.5845],[7.5503,47.5755],[7.5263,47.5665],[7.5209,47.5634],[7.4827,47.5423],[7.5052,47.533],[7.5011,47.5173],[7.4769,47.5149],[7.4858,47.4988],[7.529,47.4939],[7.5339,47.4608],[7.4542,47.452],[7.446,47.4869],[7.426,47.4925],[7.4144,47.484],[7.4276,47.4707],[7.4206,47.4509],[7.4458,47.4389],[7.4551,47.4214],[7.4404,47.4146],[7.3842,47.4131],[7.4112,47.3983],[7.4197,47.3827],[7.4371,47.3793],[7.4527,47.3958],[7.5068,47.3886],[7.5422,47.4108],[7.5774,47.4155],[7.5748,47.4283],[7.6029,47.4312],[7.6266,47.4618],[7.6081,47.4728],[7.6145,47.4841],[7.6497,47.4834],[7.6643,47.4916],[7.7134,47.4673],[7.6904,47.4482],[7.6839,47.4216],[7.6379,47.4065],[7.6396,47.3849],[7.6538,47.3681],[7.7138,47.3662],[7.7521,47.3477],[7.7861,47.3385],[7.8053,47.3636],[7.8705,47.3847],[7.882,47.4024],[7.9289,47.4078],[7.9537,47.4223],[7.9449,47.4406],[7.9549,47.4577],[7.9791,47.4487],[7.9813,47.4312],[8.0057,47.4043],[8.028,47.3981],[8.0291,47.3792],[7.9969,47.3345],[7.9816,47.3283],[7.9019,47.3383],[7.8575,47.3107],[7.8229,47.269],[7.8393,47.2318],[7.8751,47.1767],[7.8871,47.1283],[7.8741,47.1014],[7.8733,47.0481],[7.8975,47.0115],[7.9525,47.0027],[7.93,46.9482],[7.916,46.934],[7.8757,46.9244],[7.8609,46.8779],[7.8705,46.8503],[7.9522,46.8024],[7.9771,46.7789],[8.0437,46.7883],[8.0946,46.7843],[8.1581,46.759],[8.1987,46.7676],[8.2703,46.759],[8.2909,46.7617],[8.3244,46.7777],[8.3682,46.7895],[8.3916,46.7751],[8.4462,46.7692],[8.4376,46.7414],[8.4447,46.6911],[8.4017,46.6887],[8.4094,46.6557],[8.4217,46.6459],[8.4076,46.5932],[8.4374,46.5466],[8.4769,46.5318],[8.4476,46.5046],[8.396,46.4909],[8.3859,46.4502],[8.3163,46.4337],[8.2866,46.4054],[8.2915,46.3784],[8.2418,46.3541],[8.1926,46.3092],[8.1285,46.2925],[8.0873,46.2718],[8.0731,46.2536],[8.1,46.2356],[8.1295,46.196],[8.1323,46.1594],[8.1106,46.127],[8.0669,46.1006],[8.0354,46.0965],[8.0182,46.0809],[8.0107,46.0297],[7.9858,45.9993],[7.8982,45.9819],[7.8496,45.9397],[7.8312,45.9145],[7.7801,45.9181],[7.732,45.9304],[7.694,45.9287],[7.643,45.9663],[7.5411,45.9841],[7.5037,45.9567],[7.453,45.9459],[7.3938,45.9157],[7.3618,45.9078],[7.2867,45.9134],[7.1837,45.8805],[7.1209,45.8761],[7.0669,45.8902],[7.0221,45.9253],[6.9972,45.9113],[6.9692,45.8698],[6.9051,45.8454],[6.8735,45.8448],[6.8707,45.8283],[6.8434,45.8386],[6.8008,45.8265],[6.7827,45.7953],[6.7839,45.765],[6.7959,45.7181],[6.8431,45.6827],[6.8826,45.6755],[6.9186,45.6526],[6.9634,45.6407],[6.9695,45.6258],[6.9549,45.5862],[6.9698,45.567],[6.9828,45.5111],[7.0754,45.4663],[7.0968,45.4354],[7.1607,45.4109],[7.1301,45.3571],[7.0926,45.324],[7.1084,45.2592],[7.0502,45.215],[7.0297,45.2282],[6.9587,45.2098],[6.9138,45.1702],[6.8813,45.1684],[6.8767,45.1412],[6.8441,45.1301],[6.7715,45.1532],[6.7364,45.1573],[6.6944,45.1403],[6.6674,45.1396],[6.6294,45.1235],[6.6027,45.1035]],[[12.3856,43.9245],[12.3957,43.9484],[12.411,43.9597],[12.4166,43.9637],[12.4214,43.9672],[12.4272,43.9694],[12.4533,43.9791],[12.4822,43.9826],[12.4892,43.9731],[12.4907,43.965],[12.4924,43.9564],[12.4915,43.9491],[12.4903,43.9392],[12.4831,43.9292],[12.4822,43.9279],[12.4796,43.9258],[12.478,43.9232],[12.4775,43.9201],[12.4783,43.917],[12.4644,43.9001],[12.4605,43.8953],[12.4413,43.8933],[12.4294,43.8921],[12.4211,43.8952],[12.3996,43.9032],[12.39,43.9179],[12.3856,43.9245]]],[[[7.3369,47.4319],[7.3842,47.4131],[7.3882,47.4333],[7.3369,47.4319]]],[[[10.1068,42.7574],[10.1306,42.7456],[10.1321,42.7426],[10.1373,42.7422],[10.1472,42.7373],[10.2297,42.7354],[10.2348,42.7426],[10.2607,42.7476],[10.2654,42.7446],[10.2918,42.7535],[10.3335,42.7616],[10.3349,42.761],[10.3695,42.7416],[10.3814,42.7226],[10.4036,42.7224],[10.4201,42.7131],[10.4201,42.7134],[10.4205,42.7131],[10.4204,42.7135],[10.4205,42.7135],[10.4189,42.7222],[10.4307,42.7221],[10.4251,42.7408],[10.414,42.7477],[10.4098,42.7704],[10.4119,42.773],[10.4203,42.7764],[10.4367,42.8044],[10.4434,42.8454],[10.422,42.8708],[10.3999,42.8688],[10.3934,42.8561],[10.3589,42.8228],[10.3265,42.8252],[10.3268,42.8262],[10.3066,42.8266],[10.2873,42.828],[10.2869,42.828],[10.2838,42.8271],[10.2721,42.8273],[10.271,42.8231],[10.2473,42.8159],[10.1804,42.813],[10.1582,42.8173],[10.1406,42.8112],[10.1285,42.8107],[10.1252,42.806],[10.1117,42.8013],[10.1068,42.7574]]],[[[13.8491,40.7153],[13.8901,40.6942],[13.9447,40.7016],[13.9658,40.7153],[13.9658,40.7351],[13.9624,40.7362],[13.9629,40.7392],[13.9628,40.7392],[13.9629,40.7396],[13.9181,40.7509],[13.8831,40.7624],[13.8628,40.7624],[13.8491,40.7153]]]]}},
{"type":"Feature","properties":{"entityId":"odoacer-italy","from":477,"to":481,"certainty":"estimated","source":"유럽 쪽은 Natural Earth 1:10m admin-1(v5.1.2) 현대 행정구역 조각을 그 시기 국경에 맞춰 묶고, 조각이 역사 경계와 다른 곳은 선을 그어 나눈 근사. 유럽 밖(시베리아·중앙아시아·극동)은 대략적인 추정. 운영자 검수 필요"},"geometry":{"type":"MultiPolygon","coordinates":[[[[6.6027,45.1035],[6.6366,45.0745],[6.6397,45.0504],[6.6622,45.0292],[6.6972,45.0269],[6.7235,45.0134],[6.7299,44.9847],[6.7279,44.9287],[6.7782,44.8876],[6.866,44.8557],[6.9327,44.8617],[6.9828,44.847],[7.0071,44.8221],[6.9984,44.7938],[7.019,44.7389],[7.0388,44.7121],[7.0552,44.6849],[6.9828,44.6922],[6.9383,44.658],[6.9456,44.6254],[6.8973,44.5754],[6.8464,44.5475],[6.8388,44.5029],[6.8613,44.4749],[6.9178,44.4363],[6.8772,44.4144],[6.8661,44.3721],[6.8784,44.3546],[6.9212,44.3022],[6.9592,44.2774],[6.9734,44.2494],[6.9961,44.2378],[7.0335,44.2429],[7.145,44.2072],[7.2513,44.16],[7.3093,44.1475],[7.3406,44.1237],[7.3808,44.1229],[7.5548,44.1591],[7.5836,44.1607],[7.6247,44.1801],[7.6556,44.1761],[7.6419,44.1436],[7.6879,44.0908],[7.6899,44.0673],[7.6534,44.0397],[7.6309,43.9935],[7.5569,43.9441],[7.4935,43.8862],[7.4779,43.8655],[7.4797,43.86],[7.515,43.86],[7.515,43.744],[7.5324,43.744],[7.5324,43.7107],[7.6174,43.7257],[7.8501,43.7666],[7.9575,43.8525],[7.9597,43.8529],[8.0314,43.8875],[8.0677,43.8967],[8.0892,43.9199],[8.1302,43.9403],[8.168,43.9565],[8.1527,43.9832],[8.1691,44.0067],[8.2163,44.0452],[8.2217,44.0639],[8.2219,44.0641],[8.3543,44.17],[8.3694,44.1735],[8.4082,44.1935],[8.4106,44.215],[8.4297,44.2303],[8.5276,44.2591],[8.6446,44.2934],[8.6739,44.3021],[8.7032,44.3107],[8.7617,44.3279],[8.8787,44.3622],[8.8903,44.3656],[9.3468,44.1805],[9.4347,44.1448],[9.4639,44.133],[9.5809,44.0855],[9.7037,44.0357],[9.8149,44.0099],[9.9319,43.9828],[9.9904,43.9693],[10.0196,43.9625],[10.0489,43.9557],[10.0993,43.944],[10.1245,43.9382],[10.1496,43.9324],[10.2005,43.9206],[10.2229,43.849],[10.2529,43.7532],[10.283,43.6573],[10.2934,43.5791],[10.3172,43.4926],[10.3263,43.4769],[10.3411,43.4717],[10.4889,42.9998],[10.4776,42.9901],[10.4995,42.9405],[10.5108,42.9315],[10.5788,42.8738],[10.6042,42.8523],[10.6295,42.8308],[10.6802,42.7878],[10.8496,42.6441],[11.0958,42.4353],[11.0869,42.4295],[11.0945,42.4027],[11.1559,42.3663],[11.1772,42.3663],[11.1905,42.355],[11.2936,42.2817],[11.3061,42.2728],[11.3518,42.2403],[11.41,42.199],[11.5265,42.1162],[11.6429,42.0334],[11.6961,41.9956],[12.1049,41.705],[12.1086,41.7029],[12.5743,41.4335],[12.6907,41.3661],[12.7489,41.3325],[12.778,41.3156],[12.8071,41.2988],[12.8861,41.2531],[13.04,41.2398],[13.0446,41.2275],[13.0905,41.2265],[13.0985,41.2347],[13.35,41.2129],[13.5754,41.1933],[13.6277,41.1888],[13.6351,41.1819],[13.65,41.168],[13.6828,41.1374],[13.8139,41.0152],[13.838,40.9927],[13.9184,40.9177],[13.9452,40.8928],[14.0427,40.8019],[14.0412,40.7965],[14.0521,40.7931],[14.0597,40.786],[14.419,40.685],[14.3705,40.6318],[14.3377,40.6244],[14.3298,40.5845],[14.3558,40.5836],[14.422,40.6155],[14.4714,40.6247],[14.4845,40.6315],[14.4914,40.631],[14.5442,40.6136],[14.5713,40.6177],[14.597,40.635],[14.7041,40.6049],[14.9265,40.2797],[14.9069,40.2586],[14.9111,40.2416],[14.9571,40.2316],[14.9605,40.23],[14.9993,40.1733],[15.2164,40.1076],[15.2354,40.0982],[15.2791,40.0477],[15.2612,40.0294],[15.3143,40.0338],[15.3432,40.0041],[15.4101,39.994],[15.4296,39.9998],[15.4378,40.0078],[15.5025,39.9012],[15.5292,39.8571],[15.556,39.8129],[15.6096,39.7246],[15.7194,39.5436],[15.8351,39.3714],[16.013,39.1065],[16.0646,39.0297],[16.0723,39.0182],[16.108,38.965],[16.0403,38.8981],[15.9813,38.8399],[15.9223,38.7816],[15.8922,38.7519],[15.8589,38.665],[15.8445,38.6604],[15.8355,38.6282],[15.8428,38.6226],[15.7897,38.484],[15.7721,38.4379],[15.7055,38.2637],[15.7014,38.2623],[15.6954,38.2532],[15.6506,38.241],[15.6328,38.2203],[15.6441,38.162],[15.6448,38.1366],[15.624,38.0921],[15.6468,38.0594],[15.6474,38.0345],[15.6503,38.0308],[15.6351,38.0091],[15.6658,37.9669],[15.6839,37.9559],[15.6834,37.909],[15.6834,37.9086],[15.6838,37.9087],[15.6838,37.9086],[15.7762,37.9258],[15.9421,37.9331],[16.001,37.919],[16.0632,37.9327],[16.09,37.9492],[16.1255,38.0048],[16.134,38.0389],[16.2186,38.1749],[16.2814,38.2498],[16.4188,38.3333],[16.4351,38.34],[16.4671,38.3487],[16.5614,38.4163],[16.5735,38.4673],[16.577,38.5286],[16.5687,38.5593],[16.5586,38.715],[16.6162,38.8001],[16.6985,38.852],[16.797,38.866],[16.8616,38.8751],[16.8939,38.8797],[16.9261,38.8843],[17.0518,38.9021],[17.0553,38.9175],[17.0706,38.9228],[17.095,38.9191],[17.104,38.8991],[17.1277,38.9288],[17.1724,38.9605],[17.1724,38.9961],[17.1742,38.998],[17.1741,38.9983],[17.1742,38.9984],[17.1724,39.0034],[17.1724,39.0052],[17.2064,39.0295],[17.159,39.0404],[17.1254,39.133],[17.1457,39.2107],[17.1283,39.2389],[17.1694,39.4198],[17.1706,39.4251],[17.1705,39.4251],[17.1706,39.4255],[17.0855,39.4693],[17.0832,39.4705],[17.0004,39.5131],[16.8302,39.6007],[16.5232,39.7588],[16.5298,39.8591],[16.5436,39.8864],[16.5892,39.9198],[16.6316,39.9662],[16.6097,40.0172],[16.6414,40.0799],[16.6572,40.1113],[16.6678,40.1322],[16.6746,40.1427],[16.6795,40.1461],[16.7376,40.211],[16.7553,40.2546],[16.807,40.3261],[16.8285,40.3493],[16.8724,40.3966],[16.9078,40.4348],[16.911,40.4342],[17.0667,40.4049],[17.3781,40.3462],[17.3994,40.331],[17.4241,40.331],[17.4762,40.3139],[17.4881,40.3128],[17.5121,40.3037],[17.6293,40.2989],[17.7248,40.2809],[17.739,40.2782],[17.7725,40.25],[17.8202,40.2098],[17.9889,40.0676],[17.9675,40.0573],[18.0051,40.0449],[18.0221,40.0217],[17.9954,40.0027],[18.0715,39.9115],[18.1306,39.8835],[18.1619,39.8605],[18.2113,39.8393],[18.2654,39.8346],[18.2934,39.811],[18.2935,39.8112],[18.2938,39.811],[18.2997,39.8223],[18.3304,39.8034],[18.3683,39.7966],[18.3865,39.8253],[18.4001,39.8786],[18.3948,39.9049],[18.4234,39.9875],[18.4459,40.0303],[18.4836,40.0552],[18.4919,40.0847],[18.5174,40.1142],[18.4373,40.2679],[18.4093,40.2976],[18.3766,40.3565],[18.2887,40.41],[18.2588,40.4307],[18.2383,40.4577],[18.2117,40.4647],[18.1538,40.492],[18.0381,40.5624],[18.0432,40.602],[18.0158,40.6252],[18.007,40.6507],[17.9617,40.6474],[17.9554,40.6546],[17.9552,40.6547],[17.9558,40.6705],[17.9219,40.683],[17.8577,40.6922],[17.8248,40.7049],[17.7484,40.7476],[17.7166,40.758],[17.5198,40.8778],[17.4995,40.8862],[17.4452,40.9086],[17.4181,40.9197],[17.3909,40.931],[17.2823,40.9757],[17.2764,40.9802],[17.2031,41.021],[17.0571,41.0819],[16.9779,41.1013],[16.7854,41.1807],[16.7063,41.2125],[16.6384,41.2398],[16.6045,41.2535],[16.5705,41.2671],[16.5026,41.2945],[16.4347,41.3218],[16.163,41.4311],[16.0279,41.4854],[16.0013,41.4961],[15.9029,41.5357],[15.9051,41.5523],[15.9241,41.5658],[16.163,41.7358],[16.1698,41.7406],[16.1696,41.7408],[16.1698,41.741],[16.163,41.7471],[16.1535,41.7556],[16.1929,41.7909],[16.1922,41.8214],[16.176,41.8774],[16.1688,41.886],[16.1662,41.8958],[16.1586,41.8982],[16.1405,41.9199],[16.0271,41.9441],[15.9685,41.9388],[15.9646,41.9392],[15.9642,41.9392],[15.95,41.9385],[15.925,41.961],[15.9246,41.961],[15.4408,41.9578],[15.177,41.9561],[15.1441,41.9559],[15.1438,41.9559],[15.1111,41.9796],[14.9131,42.123],[14.8618,42.1601],[14.848,42.1701],[14.6493,42.314],[14.3854,42.5052],[14.3782,42.5104],[14.3311,42.5445],[14.2841,42.5785],[14.19,42.6467],[14.1024,42.7101],[14.0313,42.7616],[13.9603,42.878],[13.9346,42.92],[13.909,42.962],[13.8577,43.046],[13.8535,43.0674],[13.8348,43.1273],[13.8102,43.1648],[13.8045,43.1804],[13.7831,43.2208],[13.7803,43.2365],[13.7457,43.2911],[13.6929,43.3905],[13.6909,43.3933],[13.647,43.4753],[13.617,43.5313],[13.6156,43.5605],[13.5692,43.5803],[13.5432,43.6132],[13.5044,43.6328],[13.4863,43.6206],[13.4293,43.6402],[13.2153,43.7551],[13.1815,43.7732],[13.0798,43.8278],[12.9443,43.9005],[12.9289,43.9158],[12.9032,43.9234],[12.8992,43.9247],[12.7714,43.9933],[12.7385,44.011],[12.7055,44.0287],[12.6396,44.064],[12.5877,44.0919],[12.5078,44.2162],[12.4895,44.2447],[12.4665,44.2804],[12.4436,44.316],[12.3978,44.3873],[12.3861,44.4054],[12.2828,44.5661],[12.2858,44.6027],[12.2713,44.627],[12.3506,44.8112],[12.3757,44.7922],[12.3934,44.7935],[12.4238,44.8203],[12.4392,44.8294],[12.4446,44.8205],[12.4741,44.8458],[12.4929,44.8782],[12.4952,44.8946],[12.4977,44.8987],[12.5061,44.9219],[12.5127,44.9223],[12.5339,44.97],[12.5168,44.9876],[12.4861,44.9912],[12.4861,44.9887],[12.4203,45.0249],[12.4103,45.0322],[12.4134,45.0429],[12.3805,45.0596],[12.3601,45.0915],[12.3536,45.1516],[12.3497,45.1868],[12.3459,45.2219],[12.3382,45.2922],[12.3308,45.3607],[12.3541,45.3925],[12.4126,45.418],[12.4309,45.4157],[12.419,45.4208],[12.5473,45.4768],[12.5936,45.4915],[12.6117,45.4962],[12.66,45.5126],[12.7605,45.5445],[12.7784,45.5527],[12.7808,45.5535],[12.8839,45.601],[12.9045,45.6104],[13.0276,45.6359],[13.0606,45.6367],[13.0956,45.6523],[13.103,45.669],[13.1497,45.7038],[13.1188,45.696],[13.1205,45.6972],[13.1488,45.7354],[13.2505,45.7168],[13.2958,45.7085],[13.341,45.7003],[13.3862,45.692],[13.4011,45.6893],[13.3767,45.6832],[13.4017,45.6754],[13.428,45.6811],[13.432,45.6836],[13.5261,45.6664],[13.6201,45.6492],[13.772,45.6214],[13.7599,45.6135],[13.757,45.6137],[13.7302,45.6131],[13.7118,45.5932],[13.7196,45.5872],[13.6474,45.5418],[13.6109,45.538],[13.5896,45.5358],[13.5686,45.5393],[13.5728,45.53],[13.5786,45.5234],[13.5857,45.5197],[13.5773,45.5171],[13.5479,45.5005],[13.5071,45.5119],[13.5046,45.4839],[13.5208,45.4573],[13.5134,45.4362],[13.5549,45.3611],[13.5413,45.3461],[13.5618,45.3264],[13.5703,45.3253],[13.5766,45.3069],[13.5755,45.3065],[13.5774,45.3046],[13.5915,45.264],[13.5882,45.2596],[13.5942,45.2208],[13.5823,45.1966],[13.5994,45.1713],[13.6006,45.1373],[13.6197,45.1387],[13.6238,45.1232],[13.6126,45.1179],[13.6369,45.0936],[13.6232,45.0731],[13.6813,45.0464],[13.7328,44.9949],[13.7493,44.9825],[13.8073,44.9079],[13.8049,44.8854],[13.8237,44.8868],[13.8339,44.8736],[13.8338,44.8734],[13.7993,44.8646],[13.8491,44.8472],[13.8491,44.8266],[13.897,44.8131],[13.9032,44.7724],[13.918,44.7783],[13.8911,44.8314],[13.9013,44.8292],[13.9017,44.8292],[13.9039,44.8294],[13.9363,44.8199],[13.9517,44.8024],[13.9519,44.8026],[13.9521,44.8024],[13.9597,44.813],[13.9639,44.8118],[14,44.8131],[13.9727,44.8266],[13.9727,44.8314],[14.0288,44.9105],[14.0421,44.9265],[14.0828,44.9839],[14.0689,44.9495],[14.1133,44.9775],[14.1399,44.9713],[14.1637,44.9958],[14.1662,45.0189],[14.1551,45.0678],[14.1745,45.0896],[14.1931,45.1056],[14.1916,45.1088],[14.2077,45.1268],[14.2092,45.1264],[14.2347,45.1546],[14.2026,45.1716],[14.1946,45.275],[14.2105,45.3278],[14.1995,45.3756],[14.2036,45.4039],[14.1389,45.4343],[14.1173,45.473],[14.1455,45.4762],[14.2187,45.4972],[14.2804,45.4811],[14.3268,45.4749],[14.3728,45.4778],[14.4112,45.4932],[14.4689,45.5256],[14.4821,45.5424],[14.4915,45.5792],[14.4986,45.5962],[14.5436,45.6364],[14.5561,45.6567],[14.5691,45.6643],[14.5809,45.6678],[14.5919,45.6634],[14.5941,45.648],[14.5939,45.6162],[14.6031,45.6036],[14.616,45.5941],[14.6503,45.5748],[14.6637,45.5702],[14.6717,45.5568],[14.6685,45.534],[14.6883,45.522],[14.7815,45.4931],[14.7972,45.4652],[14.8388,45.459],[14.8816,45.4698],[14.9008,45.4931],[14.9044,45.5144],[14.9226,45.5149],[14.9454,45.5045],[14.9626,45.4931],[14.9773,45.4917],[15.0074,45.4808],[15.0562,45.4799],[15.0661,45.4739],[15.1393,45.43],[15.1842,45.4256],[15.2258,45.4365],[15.2816,45.451],[15.314,45.4505],[15.3339,45.4585],[15.3614,45.482],[15.311,45.5059],[15.2967,45.523],[15.2822,45.5715],[15.2696,45.5934],[15.2686,45.6017],[15.2879,45.6103],[15.2974,45.6257],[15.3267,45.6323],[15.3531,45.6403],[15.3738,45.6402],[15.3683,45.649],[15.35,45.6696],[15.3308,45.6846],[15.315,45.6809],[15.3049,45.6721],[15.2919,45.6756],[15.2778,45.685],[15.2678,45.6985],[15.2582,45.7051],[15.2509,45.7077],[15.2499,45.7137],[15.2635,45.7304],[15.3038,45.7461],[15.331,45.7525],[15.4298,45.7757],[15.4411,45.7822],[15.4356,45.8021],[15.4513,45.8151],[15.4854,45.8102],[15.5235,45.8268],[15.5497,45.8237],[15.5873,45.8192],[15.6261,45.8202],[15.6661,45.8317],[15.6761,45.8417],[15.6755,45.856],[15.6594,45.8888],[15.6756,45.9252],[15.6754,45.9725],[15.6742,45.9932],[15.682,46.0135],[15.698,46.0362],[15.6929,46.0416],[15.6839,46.0511],[15.6717,46.0574],[15.6437,46.0655],[15.6315,46.0706],[15.6236,46.0764],[15.6235,46.0764],[15.6038,46.091],[15.5899,46.1135],[15.59,46.1387],[15.6043,46.167],[15.6229,46.1917],[15.6266,46.1952],[15.6398,46.2077],[15.6613,46.2153],[15.678,46.2145],[15.7498,46.2108],[15.7689,46.2194],[15.7891,46.2431],[15.7995,46.2486],[15.8031,46.2505],[15.8183,46.2555],[15.8342,46.2584],[15.8793,46.2593],[15.8809,46.2593],[15.8837,46.2594],[15.9189,46.2728],[15.9487,46.2842],[15.9937,46.2906],[16.0192,46.2988],[16.0389,46.3084],[16.0499,46.3167],[16.0524,46.3186],[16.0596,46.3323],[16.0597,46.3453],[16.0574,46.3597],[16.058,46.3775],[16.0887,46.3731],[16.106,46.3737],[16.1316,46.3931],[16.1536,46.3914],[16.1775,46.3756],[16.1918,46.3698],[16.2171,46.3674],[16.2528,46.3734],[16.2756,46.3732],[16.2799,46.3787],[16.2741,46.3921],[16.257,46.3999],[16.2482,46.4133],[16.2494,46.4375],[16.2375,46.4651],[16.2342,46.4849],[16.2349,46.4933],[16.2609,46.5136],[16.2639,46.5159],[16.2954,46.5244],[16.3015,46.5271],[16.3107,46.531],[16.33,46.5355],[16.3403,46.5438],[16.3441,46.547],[16.3517,46.5395],[16.3579,46.547],[16.3695,46.5406],[16.4063,46.5395],[16.4152,46.5356],[16.432,46.5232],[16.4404,46.519],[16.4708,46.5203],[16.4911,46.5151],[16.5153,46.5017],[16.5008,46.5448],[16.4671,46.5647],[16.4302,46.6044],[16.3946,46.619],[16.3764,46.6291],[16.3722,46.6363],[16.3684,46.643],[16.3776,46.6529],[16.3967,46.6591],[16.4026,46.6631],[16.4105,46.6684],[16.405,46.6873],[16.39,46.6942],[16.3714,46.6949],[16.3662,46.6965],[16.3654,46.6967],[16.3576,46.699],[16.3573,46.7158],[16.3434,46.7142],[16.3142,46.7433],[16.2982,46.7758],[16.2995,46.7795],[16.3022,46.787],[16.3111,46.7975],[16.3149,46.802],[16.3218,46.8133],[16.3275,46.8255],[16.3298,46.8344],[16.3253,46.8394],[16.3107,46.84],[16.3019,46.8432],[16.2974,46.847],[16.2822,46.8599],[16.272,46.864],[16.1795,46.8585],[16.1354,46.8558],[16.1302,46.8567],[16.094,46.8628],[16.0529,46.8461],[16.032,46.8376],[16.0284,46.8369],[16.0037,46.8707],[16.0115,46.9133],[16.0545,46.9442],[16.1363,47.0249],[16.1347,47.0402],[16.0895,47.0829],[16.0844,47.1069],[16.095,47.1651],[16.0675,47.2376],[16.0584,47.2911],[16.02,47.3724],[16.0475,47.4106],[16.0717,47.3949],[16.1479,47.443],[16.1135,47.4634],[16.0804,47.5165],[16.0472,47.5062],[15.9983,47.5238],[15.9167,47.5332],[15.8923,47.572],[15.8661,47.5854],[15.8279,47.5889],[15.8287,47.6321],[15.7969,47.6454],[15.7432,47.6367],[15.7261,47.6902],[15.7143,47.7019],[15.6718,47.7042],[15.6386,47.7174],[15.6062,47.7435],[15.5387,47.7474],[15.5001,47.7663],[15.4175,47.7935],[15.3754,47.8196],[15.3391,47.8254],[15.2779,47.8152],[15.2297,47.8193],[15.1871,47.7804],[15.0561,47.7508],[15.0147,47.7524],[14.9296,47.7269],[14.8834,47.7247],[14.8382,47.7505],[14.7341,47.7502],[14.6993,47.7689],[14.7162,47.7935],[14.7189,47.8289],[14.7507,47.9019],[14.6905,47.9372],[14.6066,47.9612],[14.4454,48.043],[14.4272,48.0574],[14.4454,48.0685],[14.4799,48.1179],[14.4694,48.1558],[14.4849,48.2184],[14.52,48.2448],[14.5823,48.2402],[14.6376,48.1971],[14.6755,48.1825],[14.8187,48.2056],[14.862,48.237],[14.9296,48.244],[14.968,48.2252],[14.9754,48.3336],[14.9638,48.3831],[14.94,48.4018],[14.9344,48.434],[14.9098,48.44],[14.8823,48.4712],[14.8871,48.5005],[14.9136,48.4999],[14.9064,48.5271],[14.8393,48.542],[14.7745,48.5625],[14.7116,48.572],[14.6911,48.5865],[14.6592,48.577],[14.6347,48.6023],[14.6019,48.6045],[14.5788,48.6205],[14.522,48.6106],[14.4821,48.6245],[14.4582,48.6432],[14.4436,48.6365],[14.4054,48.5863],[14.3157,48.5579],[14.2165,48.5812],[14.0748,48.5917],[14.0408,48.6012],[14.0062,48.6395],[14.0329,48.6549],[13.9823,48.7065],[13.915,48.731],[13.8559,48.7593],[13.8157,48.7664],[13.7962,48.7798],[13.7247,48.8673],[13.6544,48.8822],[13.6218,48.9091],[13.6087,48.9462],[13.5905,48.9448],[13.5224,48.9693],[13.5021,48.9661],[13.4823,48.9376],[13.4273,48.96],[13.3842,48.993],[13.3724,49.0385],[13.2995,49.0936],[13.2673,49.1056],[13.2068,49.1075],[13.1785,49.1183],[13.1495,49.1548],[13.0558,49.2382],[13.0113,49.2678],[12.9998,49.2949],[12.9229,49.3327],[12.8847,49.3396],[12.8754,49.3239],[12.7978,49.3278],[12.7621,49.3432],[12.7293,49.3911],[12.6435,49.4295],[12.6272,49.4602],[12.623,49.5098],[12.5937,49.515],[12.5623,49.5508],[12.5536,49.5847],[12.502,49.6197],[12.4964,49.67],[12.4196,49.7002],[12.3836,49.7429],[12.3954,49.7579],[12.4527,49.7797],[12.4625,49.8312],[12.4825,49.8272],[12.5129,49.8702],[12.5241,49.905],[12.4627,49.9313],[12.4682,49.9702],[12.3,50.0271],[12.3,49.75],[11.55,49.75],[11.55,49.05],[10.2754,49.05],[10.3542,49.0334],[10.3733,49.0054],[10.4151,48.9829],[10.4588,48.9394],[10.4674,48.915],[10.4482,48.9086],[10.4563,48.8877],[10.4493,48.8456],[10.459,48.8335],[10.4411,48.8042],[10.4324,48.7658],[10.4411,48.7418],[10.4674,48.7358],[10.4951,48.6995],[10.4385,48.6676],[10.4444,48.6993],[10.4242,48.702],[10.3719,48.6645],[10.3544,48.6862],[10.2981,48.7035],[10.2704,48.6811],[10.2892,48.6454],[10.3329,48.6233],[10.3131,48.6082],[10.3229,48.562],[10.315,48.5311],[10.2624,48.5254],[10.2506,48.5052],[10.1534,48.4658],[10.1212,48.4872],[10.0679,48.4722],[10.046,48.458],[10.0366,48.4334],[9.9806,48.3813],[10.0039,48.3681],[10.0541,48.3049],[10.07,48.269],[10.1093,48.148],[10.1362,48.1073],[10.1401,48.0836],[10.1302,48.0349],[10.1007,47.9796],[10.0855,47.9701],[10.1095,47.9378],[10.0982,47.8779],[10.1295,47.8165],[10.0893,47.8017],[10.0802,47.787],[10.114,47.7673],[10.1314,47.6879],[10.1215,47.6739],[10.0934,47.6797],[10.0757,47.6497],[10.0578,47.6782],[10.0339,47.68],[9.9533,47.6595],[9.905,47.6632],[9.8646,47.6748],[9.8342,47.6651],[9.7601,47.6204],[9.715,47.6048],[9.6864,47.6114],[9.6122,47.5877],[9.5541,47.5327],[9.5475,47.5345],[9.2732,47.6501],[9.1969,47.6561],[9.1834,47.6704],[9.1281,47.6704],[9.0166,47.6789],[8.9818,47.6622],[8.9062,47.6518],[8.8519,47.6713],[8.8377,47.6878],[8.8561,47.6907],[8.8302,47.7072],[8.7976,47.72],[8.7707,47.7209],[8.7617,47.7013],[8.7699,47.6951],[8.7171,47.6946],[8.7004,47.7235],[8.7198,47.7473],[8.7131,47.7574],[8.6819,47.7587],[8.657,47.7881],[8.635,47.7846],[8.6298,47.7628],[8.6076,47.7623],[8.6016,47.7946],[8.5582,47.8012],[8.5423,47.795],[8.5516,47.7793],[8.5365,47.7741],[8.4636,47.7639],[8.4501,47.7505],[8.4379,47.7232],[8.4019,47.7071],[8.391,47.6921],[8.3977,47.6763],[8.3913,47.6655],[8.412,47.661],[8.4583,47.6399],[8.4761,47.6404],[8.5197,47.6574],[8.5682,47.6629],[8.5936,47.6582],[8.6016,47.6326],[8.5803,47.639],[8.5763,47.595],[8.5607,47.5894],[8.5517,47.5969],[8.5224,47.6219],[8.4618,47.6061],[8.4489,47.5843],[8.4211,47.5811],[8.3541,47.581],[8.3063,47.5922],[8.2886,47.6158],[8.2511,47.622],[8.179,47.6158],[8.1221,47.5921],[8.0872,47.5674],[8.0423,47.5606],[7.9122,47.5606],[7.8982,47.5878],[7.8197,47.5953],[7.7856,47.5632],[7.7273,47.5504],[7.6834,47.5443],[7.6469,47.5514],[7.6097,47.5647],[7.6123,47.5647],[7.6359,47.5646],[7.6465,47.5715],[7.6597,47.5966],[7.637,47.595],[7.586,47.5846],[7.5855,47.5845],[7.5503,47.5755],[7.5263,47.5665],[7.5209,47.5634],[7.4827,47.5423],[7.5052,47.533],[7.5011,47.5173],[7.4769,47.5149],[7.4858,47.4988],[7.529,47.4939],[7.5339,47.4608],[7.4542,47.452],[7.446,47.4869],[7.426,47.4925],[7.4144,47.484],[7.4276,47.4707],[7.4206,47.4509],[7.4458,47.4389],[7.4551,47.4214],[7.4404,47.4146],[7.3842,47.4131],[7.4112,47.3983],[7.4197,47.3827],[7.4371,47.3793],[7.4527,47.3958],[7.5068,47.3886],[7.5422,47.4108],[7.5774,47.4155],[7.5748,47.4283],[7.6029,47.4312],[7.6266,47.4618],[7.6081,47.4728],[7.6145,47.4841],[7.6497,47.4834],[7.6643,47.4916],[7.7134,47.4673],[7.6904,47.4482],[7.6839,47.4216],[7.6379,47.4065],[7.6396,47.3849],[7.6538,47.3681],[7.7138,47.3662],[7.7521,47.3477],[7.7861,47.3385],[7.8053,47.3636],[7.8705,47.3847],[7.882,47.4024],[7.9289,47.4078],[7.9537,47.4223],[7.9449,47.4406],[7.9549,47.4577],[7.9791,47.4487],[7.9813,47.4312],[8.0057,47.4043],[8.028,47.3981],[8.0291,47.3792],[7.9969,47.3345],[7.9816,47.3283],[7.9019,47.3383],[7.8575,47.3107],[7.8229,47.269],[7.8393,47.2318],[7.8751,47.1767],[7.8871,47.1283],[7.8741,47.1014],[7.8733,47.0481],[7.8975,47.0115],[7.9525,47.0027],[7.93,46.9482],[7.916,46.934],[7.8757,46.9244],[7.8609,46.8779],[7.8705,46.8503],[7.9522,46.8024],[7.9771,46.7789],[8.0437,46.7883],[8.0946,46.7843],[8.1581,46.759],[8.1987,46.7676],[8.2703,46.759],[8.2909,46.7617],[8.3244,46.7777],[8.3682,46.7895],[8.3916,46.7751],[8.4462,46.7692],[8.4376,46.7414],[8.4447,46.6911],[8.4017,46.6887],[8.4094,46.6557],[8.4217,46.6459],[8.4076,46.5932],[8.4374,46.5466],[8.4769,46.5318],[8.4476,46.5046],[8.396,46.4909],[8.3859,46.4502],[8.3163,46.4337],[8.2866,46.4054],[8.2915,46.3784],[8.2418,46.3541],[8.1926,46.3092],[8.1285,46.2925],[8.0873,46.2718],[8.0731,46.2536],[8.1,46.2356],[8.1295,46.196],[8.1323,46.1594],[8.1106,46.127],[8.0669,46.1006],[8.0354,46.0965],[8.0182,46.0809],[8.0107,46.0297],[7.9858,45.9993],[7.8982,45.9819],[7.8496,45.9397],[7.8312,45.9145],[7.7801,45.9181],[7.732,45.9304],[7.694,45.9287],[7.643,45.9663],[7.5411,45.9841],[7.5037,45.9567],[7.453,45.9459],[7.3938,45.9157],[7.3618,45.9078],[7.2867,45.9134],[7.1837,45.8805],[7.1209,45.8761],[7.0669,45.8902],[7.0221,45.9253],[6.9972,45.9113],[6.9692,45.8698],[6.9051,45.8454],[6.8735,45.8448],[6.8707,45.8283],[6.8434,45.8386],[6.8008,45.8265],[6.7827,45.7953],[6.7839,45.765],[6.7959,45.7181],[6.8431,45.6827],[6.8826,45.6755],[6.9186,45.6526],[6.9634,45.6407],[6.9695,45.6258],[6.9549,45.5862],[6.9698,45.567],[6.9828,45.5111],[7.0754,45.4663],[7.0968,45.4354],[7.1607,45.4109],[7.1301,45.3571],[7.0926,45.324],[7.1084,45.2592],[7.0502,45.215],[7.0297,45.2282],[6.9587,45.2098],[6.9138,45.1702],[6.8813,45.1684],[6.8767,45.1412],[6.8441,45.1301],[6.7715,45.1532],[6.7364,45.1573],[6.6944,45.1403],[6.6674,45.1396],[6.6294,45.1235],[6.6027,45.1035]],[[12.3856,43.9245],[12.3957,43.9484],[12.411,43.9597],[12.4166,43.9637],[12.4214,43.9672],[12.4272,43.9694],[12.4533,43.9791],[12.4822,43.9826],[12.4892,43.9731],[12.4907,43.965],[12.4924,43.9564],[12.4915,43.9491],[12.4903,43.9392],[12.4831,43.9292],[12.4822,43.9279],[12.4796,43.9258],[12.478,43.9232],[12.4775,43.9201],[12.4783,43.917],[12.4644,43.9001],[12.4605,43.8953],[12.4413,43.8933],[12.4294,43.8921],[12.4211,43.8952],[12.3996,43.9032],[12.39,43.9179],[12.3856,43.9245]]],[[[7.3369,47.4319],[7.3842,47.4131],[7.3882,47.4333],[7.3369,47.4319]]],[[[10.1068,42.7574],[10.1306,42.7456],[10.1321,42.7426],[10.1373,42.7422],[10.1472,42.7373],[10.2297,42.7354],[10.2348,42.7426],[10.2607,42.7476],[10.2654,42.7446],[10.2918,42.7535],[10.3335,42.7616],[10.3349,42.761],[10.3695,42.7416],[10.3814,42.7226],[10.4036,42.7224],[10.4201,42.7131],[10.4201,42.7134],[10.4205,42.7131],[10.4204,42.7135],[10.4205,42.7135],[10.4189,42.7222],[10.4307,42.7221],[10.4251,42.7408],[10.414,42.7477],[10.4098,42.7704],[10.4119,42.773],[10.4203,42.7764],[10.4367,42.8044],[10.4434,42.8454],[10.422,42.8708],[10.3999,42.8688],[10.3934,42.8561],[10.3589,42.8228],[10.3265,42.8252],[10.3268,42.8262],[10.3066,42.8266],[10.2873,42.828],[10.2869,42.828],[10.2838,42.8271],[10.2721,42.8273],[10.271,42.8231],[10.2473,42.8159],[10.1804,42.813],[10.1582,42.8173],[10.1406,42.8112],[10.1285,42.8107],[10.1252,42.806],[10.1117,42.8013],[10.1068,42.7574]]],[[[11.9222,36.8284],[11.9373,36.7888],[11.9387,36.7878],[11.9393,36.7794],[11.9726,36.7624],[11.9961,36.7449],[12.0306,36.7414],[12.0423,36.7548],[12.0513,36.7568],[12.0512,36.7572],[12.0513,36.7572],[12.0501,36.7637],[12.0535,36.7676],[12.0515,36.7904],[12.0334,36.8062],[12.0261,36.8215],[12.0111,36.8258],[11.9995,36.8359],[11.994,36.8306],[11.9515,36.8427],[11.9513,36.8428],[11.9512,36.8428],[11.9469,36.844],[11.9468,36.8439],[11.9465,36.844],[11.9427,36.8386],[11.9222,36.8284]]],[[[12.4274,37.8093],[12.4563,37.7598],[12.4632,37.7281],[12.4325,37.6128],[12.4326,37.6128],[12.4325,37.6124],[12.674,37.5244],[12.7947,37.4804],[12.8551,37.4584],[12.8852,37.4474],[12.9154,37.4364],[13.3983,37.2604],[13.8257,37.1046],[13.8812,37.0928],[14.002,37.067],[14.0322,37.0605],[14.0624,37.0541],[14.1227,37.0412],[14.2434,37.0155],[14.3038,37.0026],[14.3295,36.9971],[14.334,36.994],[14.3642,36.9732],[14.3668,36.9707],[14.4153,36.9092],[14.4758,36.8049],[14.4873,36.7934],[14.5372,36.784],[14.5565,36.7759],[14.6141,36.7672],[14.6622,36.7502],[14.6846,36.726],[14.7443,36.7191],[14.7808,36.6994],[14.8201,36.7154],[14.8878,36.7238],[14.8912,36.723],[14.9697,36.6845],[15.0445,36.6479],[15.1002,36.6206],[15.1003,36.6208],[15.1006,36.6206],[15.1192,36.6663],[15.1349,36.6877],[15.1319,36.6976],[15.2435,36.9717],[15.2445,36.9721],[15.2681,36.9731],[15.2681,36.9939],[15.2888,37.0092],[15.3089,37.0178],[15.3324,37.0116],[15.3123,37.044],[15.295,37.0467],[15.295,37.0558],[15.2948,37.0567],[15.3027,37.0625],[15.3032,37.1012],[15.297,37.1031],[15.3094,37.1334],[15.3093,37.1336],[15.3094,37.1338],[15.251,37.2565],[15.252,37.2577],[15.2494,37.2598],[15.203,37.3571],[15.1798,37.4058],[15.1619,37.4434],[15.1669,37.4544],[15.3004,37.7463],[15.3227,37.795],[15.345,37.8436],[15.4116,37.9893],[15.454,38.0382],[15.5003,38.0849],[15.527,38.1368],[15.5759,38.2002],[15.5636,38.1999],[15.5758,38.2203],[15.6292,38.2638],[15.6516,38.2753],[15.616,38.2802],[15.5593,38.3001],[15.5129,38.2976],[15.5056,38.2922],[15.4998,38.2919],[15.3481,38.2204],[15.3382,38.218],[15.2806,38.2311],[15.2804,38.231],[15.2802,38.2311],[15.245,38.2194],[15.2407,38.2412],[15.2207,38.2102],[15.2037,38.1945],[14.9769,38.1687],[14.9574,38.1692],[14.945,38.1818],[14.9071,38.1877],[14.874,38.1757],[14.855,38.1718],[14.8449,38.1721],[14.8445,38.1721],[14.7905,38.1669],[14.7627,38.1588],[14.7337,38.1576],[14.7127,38.139],[14.4207,38.1081],[14.2747,38.0927],[14.2017,38.0849],[14.1652,38.0811],[14.1286,38.0772],[13.7395,38.036],[13.5944,38.0473],[13.5445,38.0741],[13.5413,38.0941],[13.5135,38.1105],[13.4601,38.1073],[13.4337,38.1113],[13.3833,38.1269],[13.3732,38.1438],[13.3719,38.1728],[13.3102,38.2196],[13.2544,38.2025],[13.2342,38.1912],[13.1597,38.1912],[13.1473,38.184],[13.1009,38.1901],[13.0894,38.166],[13.0547,38.1418],[13.0582,38.1321],[13.0553,38.1304],[13.0491,38.0899],[12.9993,38.0938],[12.9632,38.0966],[12.9272,38.0994],[12.8072,38.1088],[12.7831,38.1335],[12.7609,38.181],[12.7396,38.1781],[12.7353,38.1825],[12.7351,38.1823],[12.7349,38.1825],[12.7304,38.1769],[12.7199,38.1755],[12.721,38.1654],[12.7025,38.1426],[12.6757,38.119],[12.5697,38.1274],[12.5693,38.1274],[12.5497,38.0535],[12.5477,38.0523],[12.5455,38.0482],[12.5234,38.0314],[12.4929,38.0214],[12.5042,38.0112],[12.4905,37.954],[12.4641,37.9129],[12.47,37.9001],[12.4361,37.8197],[12.4362,37.8195],[12.4361,37.8193],[12.4388,37.8126],[12.4274,37.8093]]],[[[13.8491,40.7153],[13.8901,40.6942],[13.9447,40.7016],[13.9658,40.7153],[13.9658,40.7351],[13.9624,40.7362],[13.9629,40.7392],[13.9628,40.7392],[13.9629,40.7396],[13.9181,40.7509],[13.8831,40.7624],[13.8628,40.7624],[13.8491,40.7153]]]]}},
{"type":"Feature","properties":{"entityId":"odoacer-italy","from":481,"to":493,"certainty":"estimated","source":"유럽 쪽은 Natural Earth 1:10m admin-1(v5.1.2) 현대 행정구역 조각을 그 시기 국경에 맞춰 묶고, 조각이 역사 경계와 다른 곳은 선을 그어 나눈 근사. 유럽 밖(시베리아·중앙아시아·극동)은 대략적인 추정. 운영자 검수 필요"},"geometry":{"type":"MultiPolygon","coordinates":[[[[6.6027,45.1035],[6.6366,45.0745],[6.6397,45.0504],[6.6622,45.0292],[6.6972,45.0269],[6.7235,45.0134],[6.7299,44.9847],[6.7279,44.9287],[6.7782,44.8876],[6.866,44.8557],[6.9327,44.8617],[6.9828,44.847],[7.0071,44.8221],[6.9984,44.7938],[7.019,44.7389],[7.0388,44.7121],[7.0552,44.6849],[6.9828,44.6922],[6.9383,44.658],[6.9456,44.6254],[6.8973,44.5754],[6.8464,44.5475],[6.8388,44.5029],[6.8613,44.4749],[6.9178,44.4363],[6.8772,44.4144],[6.8661,44.3721],[6.8784,44.3546],[6.9212,44.3022],[6.9592,44.2774],[6.9734,44.2494],[6.9961,44.2378],[7.0335,44.2429],[7.145,44.2072],[7.2513,44.16],[7.3093,44.1475],[7.3406,44.1237],[7.3808,44.1229],[7.5548,44.1591],[7.5836,44.1607],[7.6247,44.1801],[7.6556,44.1761],[7.6419,44.1436],[7.6879,44.0908],[7.6899,44.0673],[7.6534,44.0397],[7.6309,43.9935],[7.5569,43.9441],[7.4935,43.8862],[7.4779,43.8655],[7.4797,43.86],[7.515,43.86],[7.515,43.744],[7.5324,43.744],[7.5324,43.7107],[7.6174,43.7257],[7.8501,43.7666],[7.9575,43.8525],[7.9597,43.8529],[8.0314,43.8875],[8.0677,43.8967],[8.0892,43.9199],[8.1302,43.9403],[8.168,43.9565],[8.1527,43.9832],[8.1691,44.0067],[8.2163,44.0452],[8.2217,44.0639],[8.2219,44.0641],[8.3543,44.17],[8.3694,44.1735],[8.4082,44.1935],[8.4106,44.215],[8.4297,44.2303],[8.5276,44.2591],[8.6446,44.2934],[8.6739,44.3021],[8.7032,44.3107],[8.7617,44.3279],[8.8787,44.3622],[8.8903,44.3656],[9.3468,44.1805],[9.4347,44.1448],[9.4639,44.133],[9.5809,44.0855],[9.7037,44.0357],[9.8149,44.0099],[9.9319,43.9828],[9.9904,43.9693],[10.0196,43.9625],[10.0489,43.9557],[10.0993,43.944],[10.1245,43.9382],[10.1496,43.9324],[10.2005,43.9206],[10.2229,43.849],[10.2529,43.7532],[10.283,43.6573],[10.2934,43.5791],[10.3172,43.4926],[10.3263,43.4769],[10.3411,43.4717],[10.4889,42.9998],[10.4776,42.9901],[10.4995,42.9405],[10.5108,42.9315],[10.5788,42.8738],[10.6042,42.8523],[10.6295,42.8308],[10.6802,42.7878],[10.8496,42.6441],[11.0958,42.4353],[11.0869,42.4295],[11.0945,42.4027],[11.1559,42.3663],[11.1772,42.3663],[11.1905,42.355],[11.2936,42.2817],[11.3061,42.2728],[11.3518,42.2403],[11.41,42.199],[11.5265,42.1162],[11.6429,42.0334],[11.6961,41.9956],[12.1049,41.705],[12.1086,41.7029],[12.5743,41.4335],[12.6907,41.3661],[12.7489,41.3325],[12.778,41.3156],[12.8071,41.2988],[12.8861,41.2531],[13.04,41.2398],[13.0446,41.2275],[13.0905,41.2265],[13.0985,41.2347],[13.35,41.2129],[13.5754,41.1933],[13.6277,41.1888],[13.6351,41.1819],[13.65,41.168],[13.6828,41.1374],[13.8139,41.0152],[13.838,40.9927],[13.9184,40.9177],[13.9452,40.8928],[14.0427,40.8019],[14.0412,40.7965],[14.0521,40.7931],[14.0597,40.786],[14.419,40.685],[14.3705,40.6318],[14.3377,40.6244],[14.3298,40.5845],[14.3558,40.5836],[14.422,40.6155],[14.4714,40.6247],[14.4845,40.6315],[14.4914,40.631],[14.5442,40.6136],[14.5713,40.6177],[14.597,40.635],[14.7041,40.6049],[14.9265,40.2797],[14.9069,40.2586],[14.9111,40.2416],[14.9571,40.2316],[14.9605,40.23],[14.9993,40.1733],[15.2164,40.1076],[15.2354,40.0982],[15.2791,40.0477],[15.2612,40.0294],[15.3143,40.0338],[15.3432,40.0041],[15.4101,39.994],[15.4296,39.9998],[15.4378,40.0078],[15.5025,39.9012],[15.5292,39.8571],[15.556,39.8129],[15.6096,39.7246],[15.7194,39.5436],[15.8351,39.3714],[16.013,39.1065],[16.0646,39.0297],[16.0723,39.0182],[16.108,38.965],[16.0403,38.8981],[15.9813,38.8399],[15.9223,38.7816],[15.8922,38.7519],[15.8589,38.665],[15.8445,38.6604],[15.8355,38.6282],[15.8428,38.6226],[15.7897,38.484],[15.7721,38.4379],[15.7055,38.2637],[15.7014,38.2623],[15.6954,38.2532],[15.6506,38.241],[15.6328,38.2203],[15.6441,38.162],[15.6448,38.1366],[15.624,38.0921],[15.6468,38.0594],[15.6474,38.0345],[15.6503,38.0308],[15.6351,38.0091],[15.6658,37.9669],[15.6839,37.9559],[15.6834,37.909],[15.6834,37.9086],[15.6838,37.9087],[15.6838,37.9086],[15.7762,37.9258],[15.9421,37.9331],[16.001,37.919],[16.0632,37.9327],[16.09,37.9492],[16.1255,38.0048],[16.134,38.0389],[16.2186,38.1749],[16.2814,38.2498],[16.4188,38.3333],[16.4351,38.34],[16.4671,38.3487],[16.5614,38.4163],[16.5735,38.4673],[16.577,38.5286],[16.5687,38.5593],[16.5586,38.715],[16.6162,38.8001],[16.6985,38.852],[16.797,38.866],[16.8616,38.8751],[16.8939,38.8797],[16.9261,38.8843],[17.0518,38.9021],[17.0553,38.9175],[17.0706,38.9228],[17.095,38.9191],[17.104,38.8991],[17.1277,38.9288],[17.1724,38.9605],[17.1724,38.9961],[17.1742,38.998],[17.1741,38.9983],[17.1742,38.9984],[17.1724,39.0034],[17.1724,39.0052],[17.2064,39.0295],[17.159,39.0404],[17.1254,39.133],[17.1457,39.2107],[17.1283,39.2389],[17.1694,39.4198],[17.1706,39.4251],[17.1705,39.4251],[17.1706,39.4255],[17.0855,39.4693],[17.0832,39.4705],[17.0004,39.5131],[16.8302,39.6007],[16.5232,39.7588],[16.5298,39.8591],[16.5436,39.8864],[16.5892,39.9198],[16.6316,39.9662],[16.6097,40.0172],[16.6414,40.0799],[16.6572,40.1113],[16.6678,40.1322],[16.6746,40.1427],[16.6795,40.1461],[16.7376,40.211],[16.7553,40.2546],[16.807,40.3261],[16.8285,40.3493],[16.8724,40.3966],[16.9078,40.4348],[16.911,40.4342],[17.0667,40.4049],[17.3781,40.3462],[17.3994,40.331],[17.4241,40.331],[17.4762,40.3139],[17.4881,40.3128],[17.5121,40.3037],[17.6293,40.2989],[17.7248,40.2809],[17.739,40.2782],[17.7725,40.25],[17.8202,40.2098],[17.9889,40.0676],[17.9675,40.0573],[18.0051,40.0449],[18.0221,40.0217],[17.9954,40.0027],[18.0715,39.9115],[18.1306,39.8835],[18.1619,39.8605],[18.2113,39.8393],[18.2654,39.8346],[18.2934,39.811],[18.2935,39.8112],[18.2938,39.811],[18.2997,39.8223],[18.3304,39.8034],[18.3683,39.7966],[18.3865,39.8253],[18.4001,39.8786],[18.3948,39.9049],[18.4234,39.9875],[18.4459,40.0303],[18.4836,40.0552],[18.4919,40.0847],[18.5174,40.1142],[18.4373,40.2679],[18.4093,40.2976],[18.3766,40.3565],[18.2887,40.41],[18.2588,40.4307],[18.2383,40.4577],[18.2117,40.4647],[18.1538,40.492],[18.0381,40.5624],[18.0432,40.602],[18.0158,40.6252],[18.007,40.6507],[17.9617,40.6474],[17.9554,40.6546],[17.9552,40.6547],[17.9558,40.6705],[17.9219,40.683],[17.8577,40.6922],[17.8248,40.7049],[17.7484,40.7476],[17.7166,40.758],[17.5198,40.8778],[17.4995,40.8862],[17.4452,40.9086],[17.4181,40.9197],[17.3909,40.931],[17.2823,40.9757],[17.2764,40.9802],[17.2031,41.021],[17.0571,41.0819],[16.9779,41.1013],[16.7854,41.1807],[16.7063,41.2125],[16.6384,41.2398],[16.6045,41.2535],[16.5705,41.2671],[16.5026,41.2945],[16.4347,41.3218],[16.163,41.4311],[16.0279,41.4854],[16.0013,41.4961],[15.9029,41.5357],[15.9051,41.5523],[15.9241,41.5658],[16.163,41.7358],[16.1698,41.7406],[16.1696,41.7408],[16.1698,41.741],[16.163,41.7471],[16.1535,41.7556],[16.1929,41.7909],[16.1922,41.8214],[16.176,41.8774],[16.1688,41.886],[16.1662,41.8958],[16.1586,41.8982],[16.1405,41.9199],[16.0271,41.9441],[15.9685,41.9388],[15.9646,41.9392],[15.9642,41.9392],[15.95,41.9385],[15.925,41.961],[15.9246,41.961],[15.4408,41.9578],[15.177,41.9561],[15.1441,41.9559],[15.1438,41.9559],[15.1111,41.9796],[14.9131,42.123],[14.8618,42.1601],[14.848,42.1701],[14.6493,42.314],[14.3854,42.5052],[14.3782,42.5104],[14.3311,42.5445],[14.2841,42.5785],[14.19,42.6467],[14.1024,42.7101],[14.0313,42.7616],[13.9603,42.878],[13.9346,42.92],[13.909,42.962],[13.8577,43.046],[13.8535,43.0674],[13.8348,43.1273],[13.8102,43.1648],[13.8045,43.1804],[13.7831,43.2208],[13.7803,43.2365],[13.7457,43.2911],[13.6929,43.3905],[13.6909,43.3933],[13.647,43.4753],[13.617,43.5313],[13.6156,43.5605],[13.5692,43.5803],[13.5432,43.6132],[13.5044,43.6328],[13.4863,43.6206],[13.4293,43.6402],[13.2153,43.7551],[13.1815,43.7732],[13.0798,43.8278],[12.9443,43.9005],[12.9289,43.9158],[12.9032,43.9234],[12.8992,43.9247],[12.7714,43.9933],[12.7385,44.011],[12.7055,44.0287],[12.6396,44.064],[12.5877,44.0919],[12.5078,44.2162],[12.4895,44.2447],[12.4665,44.2804],[12.4436,44.316],[12.3978,44.3873],[12.3861,44.4054],[12.2828,44.5661],[12.2858,44.6027],[12.2713,44.627],[12.3506,44.8112],[12.3757,44.7922],[12.3934,44.7935],[12.4238,44.8203],[12.4392,44.8294],[12.4446,44.8205],[12.4741,44.8458],[12.4929,44.8782],[12.4952,44.8946],[12.4977,44.8987],[12.5061,44.9219],[12.5127,44.9223],[12.5339,44.97],[12.5168,44.9876],[12.4861,44.9912],[12.4861,44.9887],[12.4203,45.0249],[12.4103,45.0322],[12.4134,45.0429],[12.3805,45.0596],[12.3601,45.0915],[12.3536,45.1516],[12.3497,45.1868],[12.3459,45.2219],[12.3382,45.2922],[12.3308,45.3607],[12.3541,45.3925],[12.4126,45.418],[12.4309,45.4157],[12.419,45.4208],[12.5473,45.4768],[12.5936,45.4915],[12.6117,45.4962],[12.66,45.5126],[12.7605,45.5445],[12.7784,45.5527],[12.7808,45.5535],[12.8839,45.601],[12.9045,45.6104],[13.0276,45.6359],[13.0606,45.6367],[13.0956,45.6523],[13.103,45.669],[13.1497,45.7038],[13.1188,45.696],[13.1205,45.6972],[13.1488,45.7354],[13.2505,45.7168],[13.2958,45.7085],[13.341,45.7003],[13.3862,45.692],[13.4011,45.6893],[13.3767,45.6832],[13.4017,45.6754],[13.428,45.6811],[13.432,45.6836],[13.5261,45.6664],[13.6201,45.6492],[13.772,45.6214],[13.7599,45.6135],[13.757,45.6137],[13.7302,45.6131],[13.7118,45.5932],[13.7196,45.5872],[13.6474,45.5418],[13.6109,45.538],[13.5896,45.5358],[13.5686,45.5393],[13.5728,45.53],[13.5786,45.5234],[13.5857,45.5197],[13.5773,45.5171],[13.5479,45.5005],[13.5071,45.5119],[13.5046,45.4839],[13.5208,45.4573],[13.5134,45.4362],[13.5549,45.3611],[13.5413,45.3461],[13.5618,45.3264],[13.5703,45.3253],[13.5766,45.3069],[13.5755,45.3065],[13.5774,45.3046],[13.5915,45.264],[13.5882,45.2596],[13.5942,45.2208],[13.5823,45.1966],[13.5994,45.1713],[13.6006,45.1373],[13.6197,45.1387],[13.6238,45.1232],[13.6126,45.1179],[13.6369,45.0936],[13.6232,45.0731],[13.6813,45.0464],[13.7328,44.9949],[13.7493,44.9825],[13.8073,44.9079],[13.8049,44.8854],[13.8237,44.8868],[13.8339,44.8736],[13.8338,44.8734],[13.7993,44.8646],[13.8491,44.8472],[13.8491,44.8266],[13.897,44.8131],[13.9032,44.7724],[13.918,44.7783],[13.8911,44.8314],[13.9013,44.8292],[13.9017,44.8292],[13.9039,44.8294],[13.9363,44.8199],[13.9517,44.8024],[13.9519,44.8026],[13.9521,44.8024],[13.9597,44.813],[13.9639,44.8118],[14,44.8131],[13.9727,44.8266],[13.9727,44.8314],[14.0288,44.9105],[14.0421,44.9265],[14.0828,44.9839],[14.0689,44.9495],[14.1133,44.9775],[14.1399,44.9713],[14.1637,44.9958],[14.1662,45.0189],[14.1551,45.0678],[14.1745,45.0896],[14.1931,45.1056],[14.1916,45.1088],[14.2077,45.1268],[14.2092,45.1264],[14.2347,45.1546],[14.2477,45.1865],[14.2535,45.2235],[14.2551,45.2297],[14.258,45.2339],[14.5334,45.1666],[14.5213,45.1488],[14.5227,45.1465],[14.4897,45.1279],[14.4671,45.1241],[14.4652,45.1142],[14.4377,45.0987],[14.4379,45.0984],[14.4377,45.0983],[14.4407,45.093],[14.4251,45.0873],[14.4601,45.0524],[14.5105,45.0322],[14.5907,45.0233],[14.5997,45.0268],[14.6141,45.0254],[14.6282,44.9949],[14.6289,44.9782],[14.6824,44.9584],[14.6861,44.956],[14.6864,44.9561],[14.6865,44.956],[14.6882,44.9563],[14.7234,44.9433],[14.7568,44.9487],[14.7487,44.9666],[14.8089,44.9768],[14.815,44.9775],[14.7998,45.0052],[14.7744,45.0218],[14.7405,45.0657],[14.7404,45.0658],[14.7405,45.0731],[14.7283,45.0732],[14.7009,45.09],[14.6669,45.1318],[14.6676,45.1339],[14.8374,45.0924],[14.8553,45.081],[14.8598,45.0713],[14.9022,44.9791],[14.9057,44.9717],[14.8937,44.8869],[14.8838,44.8615],[14.8838,44.7888],[14.8895,44.7626],[14.8923,44.733],[14.8838,44.7236],[14.9014,44.6902],[15.0013,44.5785],[15.0444,44.5553],[15.1305,44.4894],[15.155,44.4667],[15.2938,44.3648],[15.308,44.3544],[15.3501,44.3399],[15.3562,44.3378],[15.3771,44.3186],[15.3769,44.3185],[15.3307,44.3014],[15.3086,44.3093],[15.2612,44.3326],[15.3027,44.2991],[15.2883,44.2897],[15.2838,44.2897],[15.2448,44.2772],[15.1981,44.3017],[15.2078,44.2728],[15.2073,44.2724],[15.183,44.2724],[15.1653,44.2679],[15.1576,44.2803],[15.1104,44.2644],[15.1219,44.2564],[15.1218,44.2564],[15.1573,44.2098],[15.1445,44.1955],[15.2127,44.1483],[15.2129,44.131],[15.2783,44.0856],[15.3195,44.0452],[15.3581,44.0257],[15.4661,43.9217],[15.492,43.9158],[15.4998,43.9092],[15.5387,43.8847],[15.5469,43.8766],[15.5741,43.8595],[15.5853,43.8554],[15.6415,43.8201],[15.6174,43.8255],[15.633,43.8105],[15.6821,43.7972],[15.7063,43.7634],[15.7242,43.7625],[15.9201,43.5905],[15.9595,43.5382],[15.9681,43.5403],[15.981,43.5257],[15.9735,43.5031],[16.0128,43.504],[16.0396,43.4908],[16.0924,43.4823],[16.441,43.3687],[16.4286,43.3436],[16.4214,43.3176],[16.4215,43.3176],[16.4214,43.3172],[16.4898,43.2859],[16.4996,43.2847],[16.5007,43.2842],[16.564,43.2701],[16.6283,43.2637],[16.7547,43.2665],[16.9169,43.2136],[16.929,43.2097],[17.0302,43.1468],[16.9169,43.1565],[16.8869,43.1591],[16.8644,43.1689],[16.8484,43.1624],[16.7113,43.1741],[16.6943,43.1793],[16.6745,43.1969],[16.6595,43.216],[16.6038,43.2235],[16.5955,43.2205],[16.5719,43.2232],[16.5628,43.229],[16.5205,43.229],[16.5207,43.2288],[16.3746,43.2134],[16.375,43.2132],[16.3748,43.2132],[16.3751,43.2131],[16.3746,43.213],[16.3973,43.2021],[16.3804,43.202],[16.3716,43.1955],[16.4452,43.1708],[16.5393,43.148],[16.551,43.1436],[16.6806,43.1228],[16.9169,43.1191],[17.0788,43.1165],[17.1231,43.089],[17.1489,43.0729],[17.1747,43.0569],[17.2262,43.0249],[17.2274,43.0241],[17.2258,43.0242],[17.221,43.0259],[17.2094,43.0259],[17.1587,43.031],[17.15,43.0303],[17.0733,43.0242],[17.0016,43.0515],[17.0282,43.0242],[17.0275,43.0036],[17.0954,42.9844],[17.1836,42.9843],[17.252,42.9692],[17.2603,42.9667],[17.2807,42.9585],[17.3509,42.9218],[17.3855,42.9163],[17.4284,42.899],[17.442,42.8906],[17.4404,42.8734],[17.4956,42.8572],[17.5086,42.8492],[18.2342,42.5643],[18.2389,42.5591],[18.4119,42.476],[18.4131,42.4619],[18.4745,42.4414],[18.4964,42.4163],[18.4929,42.4424],[18.4677,42.4534],[18.4443,42.4779],[18.4371,42.4934],[18.4364,42.5108],[18.442,42.543],[18.4374,42.5592],[18.459,42.5697],[18.4818,42.5637],[18.4959,42.5709],[18.4867,42.5898],[18.5068,42.5985],[18.5384,42.6183],[18.5428,42.6264],[18.55,42.6681],[18.5397,42.6955],[18.5022,42.7274],[18.4674,42.7692],[18.4437,42.8345],[18.4733,42.8626],[18.434,42.9369],[18.4528,42.9934],[18.483,43.0146],[18.539,43.0239],[18.639,43.0202],[18.6211,43.0964],[18.6211,43.1246],[18.6453,43.1802],[18.6884,43.2245],[18.6643,43.2332],[18.6795,43.2495],[18.8072,43.318],[18.8335,43.3242],[18.8212,43.3414],[18.8991,43.3519],[18.9573,43.3259],[18.9595,43.3035],[18.9895,43.272],[19.0029,43.2739],[19.0225,43.2965],[19.0697,43.3088],[19.0396,43.3507],[19.0099,43.411],[18.9683,43.4481],[18.9463,43.4439],[18.9512,43.4638],[18.9056,43.4906],[18.911,43.5073],[18.9775,43.5462],[19.0002,43.5479],[19.0381,43.511],[19.096,43.5129],[19.1228,43.5359],[19.1953,43.5328],[19.2175,43.5328],[19.2527,43.5886],[19.3009,43.5883],[19.3466,43.6088],[19.3805,43.5856],[19.4107,43.5408],[19.4318,43.5711],[19.4817,43.5608],[19.4756,43.6026],[19.4817,43.6289],[19.5074,43.6472],[19.5057,43.6736],[19.4617,43.7621],[19.3595,43.8422],[19.2754,43.9333],[19.241,43.9524],[19.225,43.9215],[19.1274,43.9987],[19.0057,44.0474],[18.9084,44.092],[18.7366,44.1203],[18.7631,44.1488],[18.7867,44.1804],[18.7924,44.2148],[18.7824,44.2462],[18.7523,44.2992],[18.7452,44.3407],[18.7538,44.3578],[18.8067,44.3736],[18.8382,44.4165],[18.9226,44.4265],[19.0199,44.4759],[19.0284,44.4902],[19.0311,44.5675],[19.0993,44.5942],[19.1472,44.575],[19.1796,44.5383],[19.1863,44.5693],[19.2557,44.6456],[19.2776,44.6849],[19.3084,44.7051],[19.3284,44.734],[19.3637,44.8546],[19.3766,44.863],[19.357,44.8959],[19.3102,44.9124],[19.2395,44.9151],[19.2019,44.9084],[19.1743,44.9254],[19.0846,44.879],[19.0158,44.8656],[18.9749,44.8628],[18.8896,44.8612],[18.8587,44.8685],[18.8421,44.8762],[18.8178,44.8875],[18.7834,44.9137],[18.7726,44.9425],[18.8046,44.9738],[18.789,45.0057],[18.7501,45.0122],[18.7263,45.0261],[18.689,45.0802],[18.6661,45.083],[18.6581,45.0663],[18.6405,45.0654],[18.6167,45.0977],[18.5348,45.0884],[18.5411,45.0553],[18.517,45.0559],[18.4817,45.0669],[18.4518,45.085],[18.412,45.1124],[18.3929,45.1186],[18.3223,45.1229],[18.262,45.1507],[18.2379,45.1575],[18.2023,45.1441],[18.1993,45.119],[18.1749,45.1008],[18.1437,45.0977],[18.0903,45.108],[18.0191,45.1494],[17.9885,45.1438],[17.9277,45.092],[17.9026,45.0778],[17.8357,45.0644],[17.7975,45.082],[17.7657,45.111],[17.7145,45.152],[17.6847,45.164],[17.63,45.1573],[17.5724,45.1204],[17.4893,45.1163],[17.4962,45.1417],[17.4478,45.1343],[17.4341,45.1486],[17.3824,45.1396],[17.269,45.1895],[17.2455,45.1554],[17.1871,45.1486],[17.1246,45.1691],[17.0557,45.2004],[17.0363,45.2305],[17.0083,45.2162],[16.9612,45.2509],[16.9473,45.2357],[16.9244,45.2845],[16.8307,45.217],[16.8242,45.1891],[16.7863,45.1788],[16.587,45.2209],[16.5289,45.2223],[16.4819,45.1995],[16.4355,45.1329],[16.3818,45.1076],[16.382,45.0837],[16.346,45.02],[16.3162,45.0012],[16.2793,45.0072],[16.213,45.0315],[16.1041,45.1125],[16.0675,45.1696],[16.0244,45.1843],[16.0292,45.205],[16.0085,45.2182],[15.8789,45.2172],[15.8248,45.211],[15.8026,45.1965],[15.7617,45.21],[15.7049,45.2009],[15.6394,45.2107],[15.6312,45.2395],[15.6616,45.2681],[15.6564,45.2851],[15.6639,45.3396],[15.6796,45.3488],[15.6651,45.3766],[15.6723,45.3982],[15.6568,45.4152],[15.6765,45.4252],[15.716,45.4208],[15.7799,45.3951],[15.8141,45.3987],[15.8372,45.4363],[15.8425,45.4659],[15.8129,45.5234],[15.7799,45.5225],[15.7392,45.5589],[15.7474,45.5952],[15.7316,45.5886],[15.6633,45.6049],[15.6264,45.6214],[15.5936,45.6205],[15.5756,45.6024],[15.5137,45.6324],[15.5131,45.6473],[15.4738,45.6618],[15.4209,45.6953],[15.3829,45.6904],[15.35,45.6696],[15.3308,45.6846],[15.315,45.6809],[15.3049,45.6721],[15.2919,45.6756],[15.2778,45.685],[15.2678,45.6985],[15.2582,45.7051],[15.2509,45.7077],[15.2499,45.7137],[15.2635,45.7304],[15.3038,45.7461],[15.331,45.7525],[15.4298,45.7757],[15.4411,45.7822],[15.4356,45.8021],[15.4513,45.8151],[15.4854,45.8102],[15.5235,45.8268],[15.5497,45.8237],[15.5873,45.8192],[15.6261,45.8202],[15.6661,45.8317],[15.6761,45.8417],[15.6755,45.856],[15.6594,45.8888],[15.6756,45.9252],[15.6754,45.9725],[15.6742,45.9932],[15.682,46.0135],[15.698,46.0362],[15.6929,46.0416],[15.6839,46.0511],[15.6717,46.0574],[15.6437,46.0655],[15.6315,46.0706],[15.6236,46.0764],[15.6235,46.0764],[15.6038,46.091],[15.5899,46.1135],[15.59,46.1387],[15.6043,46.167],[15.6229,46.1917],[15.6266,46.1952],[15.6398,46.2077],[15.6613,46.2153],[15.678,46.2145],[15.7498,46.2108],[15.7689,46.2194],[15.7891,46.2431],[15.7995,46.2486],[15.8031,46.2505],[15.8183,46.2555],[15.8342,46.2584],[15.8793,46.2593],[15.8809,46.2593],[15.8837,46.2594],[15.9189,46.2728],[15.9487,46.2842],[15.9937,46.2906],[16.0192,46.2988],[16.0389,46.3084],[16.0499,46.3167],[16.0524,46.3186],[16.0596,46.3323],[16.0597,46.3453],[16.0574,46.3597],[16.058,46.3775],[16.0887,46.3731],[16.106,46.3737],[16.1316,46.3931],[16.1536,46.3914],[16.1775,46.3756],[16.1918,46.3698],[16.2171,46.3674],[16.2528,46.3734],[16.2756,46.3732],[16.2799,46.3787],[16.2741,46.3921],[16.257,46.3999],[16.2482,46.4133],[16.2494,46.4375],[16.2375,46.4651],[16.2342,46.4849],[16.2349,46.4933],[16.2609,46.5136],[16.2639,46.5159],[16.2954,46.5244],[16.3015,46.5271],[16.3107,46.531],[16.33,46.5355],[16.3403,46.5438],[16.3441,46.547],[16.3517,46.5395],[16.3579,46.547],[16.3695,46.5406],[16.4063,46.5395],[16.4152,46.5356],[16.432,46.5232],[16.4404,46.519],[16.4708,46.5203],[16.4911,46.5151],[16.5153,46.5017],[16.5008,46.5448],[16.4671,46.5647],[16.4302,46.6044],[16.3946,46.619],[16.3764,46.6291],[16.3722,46.6363],[16.3684,46.643],[16.3776,46.6529],[16.3967,46.6591],[16.4026,46.6631],[16.4105,46.6684],[16.405,46.6873],[16.39,46.6942],[16.3714,46.6949],[16.3662,46.6965],[16.3654,46.6967],[16.3576,46.699],[16.3573,46.7158],[16.3434,46.7142],[16.3142,46.7433],[16.2982,46.7758],[16.2995,46.7795],[16.3022,46.787],[16.3111,46.7975],[16.3149,46.802],[16.3218,46.8133],[16.3275,46.8255],[16.3298,46.8344],[16.3253,46.8394],[16.3107,46.84],[16.3019,46.8432],[16.2974,46.847],[16.2822,46.8599],[16.272,46.864],[16.1795,46.8585],[16.1354,46.8558],[16.1302,46.8567],[16.094,46.8628],[16.0529,46.8461],[16.032,46.8376],[16.0284,46.8369],[16.0037,46.8707],[16.0115,46.9133],[16.0545,46.9442],[16.1363,47.0249],[16.1347,47.0402],[16.0895,47.0829],[16.0844,47.1069],[16.095,47.1651],[16.0675,47.2376],[16.0584,47.2911],[16.02,47.3724],[16.0475,47.4106],[16.0717,47.3949],[16.1479,47.443],[16.1135,47.4634],[16.0804,47.5165],[16.0472,47.5062],[15.9983,47.5238],[15.9167,47.5332],[15.8923,47.572],[15.8661,47.5854],[15.8279,47.5889],[15.8287,47.6321],[15.7969,47.6454],[15.7432,47.6367],[15.7261,47.6902],[15.7143,47.7019],[15.6718,47.7042],[15.6386,47.7174],[15.6062,47.7435],[15.5387,47.7474],[15.5001,47.7663],[15.4175,47.7935],[15.3754,47.8196],[15.3391,47.8254],[15.2779,47.8152],[15.2297,47.8193],[15.1871,47.7804],[15.0561,47.7508],[15.0147,47.7524],[14.9296,47.7269],[14.8834,47.7247],[14.8382,47.7505],[14.7341,47.7502],[14.6993,47.7689],[14.7162,47.7935],[14.7189,47.8289],[14.7507,47.9019],[14.6905,47.9372],[14.6066,47.9612],[14.4454,48.043],[14.4272,48.0574],[14.4454,48.0685],[14.4799,48.1179],[14.4694,48.1558],[14.4849,48.2184],[14.52,48.2448],[14.5823,48.2402],[14.6376,48.1971],[14.6755,48.1825],[14.8187,48.2056],[14.862,48.237],[14.9296,48.244],[14.968,48.2252],[14.9754,48.3336],[14.9638,48.3831],[14.94,48.4018],[14.9344,48.434],[14.9098,48.44],[14.8823,48.4712],[14.8871,48.5005],[14.9136,48.4999],[14.9064,48.5271],[14.8393,48.542],[14.7745,48.5625],[14.7116,48.572],[14.6911,48.5865],[14.6592,48.577],[14.6347,48.6023],[14.6019,48.6045],[14.5788,48.6205],[14.522,48.6106],[14.4821,48.6245],[14.4582,48.6432],[14.4436,48.6365],[14.4054,48.5863],[14.3157,48.5579],[14.2165,48.5812],[14.0748,48.5917],[14.0408,48.6012],[14.0062,48.6395],[14.0329,48.6549],[13.9823,48.7065],[13.915,48.731],[13.8559,48.7593],[13.8157,48.7664],[13.7962,48.7798],[13.7247,48.8673],[13.6544,48.8822],[13.6218,48.9091],[13.6087,48.9462],[13.5905,48.9448],[13.5224,48.9693],[13.5021,48.9661],[13.4823,48.9376],[13.4273,48.96],[13.3842,48.993],[13.3724,49.0385],[13.2995,49.0936],[13.2673,49.1056],[13.2068,49.1075],[13.1785,49.1183],[13.1495,49.1548],[13.0558,49.2382],[13.0113,49.2678],[12.9998,49.2949],[12.9229,49.3327],[12.8847,49.3396],[12.8754,49.3239],[12.7978,49.3278],[12.7621,49.3432],[12.7293,49.3911],[12.6435,49.4295],[12.6272,49.4602],[12.623,49.5098],[12.5937,49.515],[12.5623,49.5508],[12.5536,49.5847],[12.502,49.6197],[12.4964,49.67],[12.4196,49.7002],[12.3836,49.7429],[12.3954,49.7579],[12.4527,49.7797],[12.4625,49.8312],[12.4825,49.8272],[12.5129,49.8702],[12.5241,49.905],[12.4627,49.9313],[12.4682,49.9702],[12.3,50.0271],[12.3,49.75],[11.55,49.75],[11.55,49.05],[10.2754,49.05],[10.3542,49.0334],[10.3733,49.0054],[10.4151,48.9829],[10.4588,48.9394],[10.4674,48.915],[10.4482,48.9086],[10.4563,48.8877],[10.4493,48.8456],[10.459,48.8335],[10.4411,48.8042],[10.4324,48.7658],[10.4411,48.7418],[10.4674,48.7358],[10.4951,48.6995],[10.4385,48.6676],[10.4444,48.6993],[10.4242,48.702],[10.3719,48.6645],[10.3544,48.6862],[10.2981,48.7035],[10.2704,48.6811],[10.2892,48.6454],[10.3329,48.6233],[10.3131,48.6082],[10.3229,48.562],[10.315,48.5311],[10.2624,48.5254],[10.2506,48.5052],[10.1534,48.4658],[10.1212,48.4872],[10.0679,48.4722],[10.046,48.458],[10.0366,48.4334],[9.9806,48.3813],[10.0039,48.3681],[10.0541,48.3049],[10.07,48.269],[10.1093,48.148],[10.1362,48.1073],[10.1401,48.0836],[10.1302,48.0349],[10.1007,47.9796],[10.0855,47.9701],[10.1095,47.9378],[10.0982,47.8779],[10.1295,47.8165],[10.0893,47.8017],[10.0802,47.787],[10.114,47.7673],[10.1314,47.6879],[10.1215,47.6739],[10.0934,47.6797],[10.0757,47.6497],[10.0578,47.6782],[10.0339,47.68],[9.9533,47.6595],[9.905,47.6632],[9.8646,47.6748],[9.8342,47.6651],[9.7601,47.6204],[9.715,47.6048],[9.6864,47.6114],[9.6122,47.5877],[9.5541,47.5327],[9.5475,47.5345],[9.2732,47.6501],[9.1969,47.6561],[9.1834,47.6704],[9.1281,47.6704],[9.0166,47.6789],[8.9818,47.6622],[8.9062,47.6518],[8.8519,47.6713],[8.8377,47.6878],[8.8561,47.6907],[8.8302,47.7072],[8.7976,47.72],[8.7707,47.7209],[8.7617,47.7013],[8.7699,47.6951],[8.7171,47.6946],[8.7004,47.7235],[8.7198,47.7473],[8.7131,47.7574],[8.6819,47.7587],[8.657,47.7881],[8.635,47.7846],[8.6298,47.7628],[8.6076,47.7623],[8.6016,47.7946],[8.5582,47.8012],[8.5423,47.795],[8.5516,47.7793],[8.5365,47.7741],[8.4636,47.7639],[8.4501,47.7505],[8.4379,47.7232],[8.4019,47.7071],[8.391,47.6921],[8.3977,47.6763],[8.3913,47.6655],[8.412,47.661],[8.4583,47.6399],[8.4761,47.6404],[8.5197,47.6574],[8.5682,47.6629],[8.5936,47.6582],[8.6016,47.6326],[8.5803,47.639],[8.5763,47.595],[8.5607,47.5894],[8.5517,47.5969],[8.5224,47.6219],[8.4618,47.6061],[8.4489,47.5843],[8.4211,47.5811],[8.3541,47.581],[8.3063,47.5922],[8.2886,47.6158],[8.2511,47.622],[8.179,47.6158],[8.1221,47.5921],[8.0872,47.5674],[8.0423,47.5606],[7.9122,47.5606],[7.8982,47.5878],[7.8197,47.5953],[7.7856,47.5632],[7.7273,47.5504],[7.6834,47.5443],[7.6469,47.5514],[7.6097,47.5647],[7.6123,47.5647],[7.6359,47.5646],[7.6465,47.5715],[7.6597,47.5966],[7.637,47.595],[7.586,47.5846],[7.5855,47.5845],[7.5503,47.5755],[7.5263,47.5665],[7.5209,47.5634],[7.4827,47.5423],[7.5052,47.533],[7.5011,47.5173],[7.4769,47.5149],[7.4858,47.4988],[7.529,47.4939],[7.5339,47.4608],[7.4542,47.452],[7.446,47.4869],[7.426,47.4925],[7.4144,47.484],[7.4276,47.4707],[7.4206,47.4509],[7.4458,47.4389],[7.4551,47.4214],[7.4404,47.4146],[7.3842,47.4131],[7.4112,47.3983],[7.4197,47.3827],[7.4371,47.3793],[7.4527,47.3958],[7.5068,47.3886],[7.5422,47.4108],[7.5774,47.4155],[7.5748,47.4283],[7.6029,47.4312],[7.6266,47.4618],[7.6081,47.4728],[7.6145,47.4841],[7.6497,47.4834],[7.6643,47.4916],[7.7134,47.4673],[7.6904,47.4482],[7.6839,47.4216],[7.6379,47.4065],[7.6396,47.3849],[7.6538,47.3681],[7.7138,47.3662],[7.7521,47.3477],[7.7861,47.3385],[7.8053,47.3636],[7.8705,47.3847],[7.882,47.4024],[7.9289,47.4078],[7.9537,47.4223],[7.9449,47.4406],[7.9549,47.4577],[7.9791,47.4487],[7.9813,47.4312],[8.0057,47.4043],[8.028,47.3981],[8.0291,47.3792],[7.9969,47.3345],[7.9816,47.3283],[7.9019,47.3383],[7.8575,47.3107],[7.8229,47.269],[7.8393,47.2318],[7.8751,47.1767],[7.8871,47.1283],[7.8741,47.1014],[7.8733,47.0481],[7.8975,47.0115],[7.9525,47.0027],[7.93,46.9482],[7.916,46.934],[7.8757,46.9244],[7.8609,46.8779],[7.8705,46.8503],[7.9522,46.8024],[7.9771,46.7789],[8.0437,46.7883],[8.0946,46.7843],[8.1581,46.759],[8.1987,46.7676],[8.2703,46.759],[8.2909,46.7617],[8.3244,46.7777],[8.3682,46.7895],[8.3916,46.7751],[8.4462,46.7692],[8.4376,46.7414],[8.4447,46.6911],[8.4017,46.6887],[8.4094,46.6557],[8.4217,46.6459],[8.4076,46.5932],[8.4374,46.5466],[8.4769,46.5318],[8.4476,46.5046],[8.396,46.4909],[8.3859,46.4502],[8.3163,46.4337],[8.2866,46.4054],[8.2915,46.3784],[8.2418,46.3541],[8.1926,46.3092],[8.1285,46.2925],[8.0873,46.2718],[8.0731,46.2536],[8.1,46.2356],[8.1295,46.196],[8.1323,46.1594],[8.1106,46.127],[8.0669,46.1006],[8.0354,46.0965],[8.0182,46.0809],[8.0107,46.0297],[7.9858,45.9993],[7.8982,45.9819],[7.8496,45.9397],[7.8312,45.9145],[7.7801,45.9181],[7.732,45.9304],[7.694,45.9287],[7.643,45.9663],[7.5411,45.9841],[7.5037,45.9567],[7.453,45.9459],[7.3938,45.9157],[7.3618,45.9078],[7.2867,45.9134],[7.1837,45.8805],[7.1209,45.8761],[7.0669,45.8902],[7.0221,45.9253],[6.9972,45.9113],[6.9692,45.8698],[6.9051,45.8454],[6.8735,45.8448],[6.8707,45.8283],[6.8434,45.8386],[6.8008,45.8265],[6.7827,45.7953],[6.7839,45.765],[6.7959,45.7181],[6.8431,45.6827],[6.8826,45.6755],[6.9186,45.6526],[6.9634,45.6407],[6.9695,45.6258],[6.9549,45.5862],[6.9698,45.567],[6.9828,45.5111],[7.0754,45.4663],[7.0968,45.4354],[7.1607,45.4109],[7.1301,45.3571],[7.0926,45.324],[7.1084,45.2592],[7.0502,45.215],[7.0297,45.2282],[6.9587,45.2098],[6.9138,45.1702],[6.8813,45.1684],[6.8767,45.1412],[6.8441,45.1301],[6.7715,45.1532],[6.7364,45.1573],[6.6944,45.1403],[6.6674,45.1396],[6.6294,45.1235],[6.6027,45.1035]],[[12.3856,43.9245],[12.3957,43.9484],[12.411,43.9597],[12.4166,43.9637],[12.4214,43.9672],[12.4272,43.9694],[12.4533,43.9791],[12.4822,43.9826],[12.4892,43.9731],[12.4907,43.965],[12.4924,43.9564],[12.4915,43.9491],[12.4903,43.9392],[12.4831,43.9292],[12.4822,43.9279],[12.4796,43.9258],[12.478,43.9232],[12.4775,43.9201],[12.4783,43.917],[12.4644,43.9001],[12.4605,43.8953],[12.4413,43.8933],[12.4294,43.8921],[12.4211,43.8952],[12.3996,43.9032],[12.39,43.9179],[12.3856,43.9245]]],[[[7.3369,47.4319],[7.3842,47.4131],[7.3882,47.4333],[7.3369,47.4319]]],[[[10.1068,42.7574],[10.1306,42.7456],[10.1321,42.7426],[10.1373,42.7422],[10.1472,42.7373],[10.2297,42.7354],[10.2348,42.7426],[10.2607,42.7476],[10.2654,42.7446],[10.2918,42.7535],[10.3335,42.7616],[10.3349,42.761],[10.3695,42.7416],[10.3814,42.7226],[10.4036,42.7224],[10.4201,42.7131],[10.4201,42.7134],[10.4205,42.7131],[10.4204,42.7135],[10.4205,42.7135],[10.4189,42.7222],[10.4307,42.7221],[10.4251,42.7408],[10.414,42.7477],[10.4098,42.7704],[10.4119,42.773],[10.4203,42.7764],[10.4367,42.8044],[10.4434,42.8454],[10.422,42.8708],[10.3999,42.8688],[10.3934,42.8561],[10.3589,42.8228],[10.3265,42.8252],[10.3268,42.8262],[10.3066,42.8266],[10.2873,42.828],[10.2869,42.828],[10.2838,42.8271],[10.2721,42.8273],[10.271,42.8231],[10.2473,42.8159],[10.1804,42.813],[10.1582,42.8173],[10.1406,42.8112],[10.1285,42.8107],[10.1252,42.806],[10.1117,42.8013],[10.1068,42.7574]]],[[[11.9222,36.8284],[11.9373,36.7888],[11.9387,36.7878],[11.9393,36.7794],[11.9726,36.7624],[11.9961,36.7449],[12.0306,36.7414],[12.0423,36.7548],[12.0513,36.7568],[12.0512,36.7572],[12.0513,36.7572],[12.0501,36.7637],[12.0535,36.7676],[12.0515,36.7904],[12.0334,36.8062],[12.0261,36.8215],[12.0111,36.8258],[11.9995,36.8359],[11.994,36.8306],[11.9515,36.8427],[11.9513,36.8428],[11.9512,36.8428],[11.9469,36.844],[11.9468,36.8439],[11.9465,36.844],[11.9427,36.8386],[11.9222,36.8284]]],[[[12.4274,37.8093],[12.4563,37.7598],[12.4632,37.7281],[12.4325,37.6128],[12.4326,37.6128],[12.4325,37.6124],[12.674,37.5244],[12.7947,37.4804],[12.8551,37.4584],[12.8852,37.4474],[12.9154,37.4364],[13.3983,37.2604],[13.8257,37.1046],[13.8812,37.0928],[14.002,37.067],[14.0322,37.0605],[14.0624,37.0541],[14.1227,37.0412],[14.2434,37.0155],[14.3038,37.0026],[14.3295,36.9971],[14.334,36.994],[14.3642,36.9732],[14.3668,36.9707],[14.4153,36.9092],[14.4758,36.8049],[14.4873,36.7934],[14.5372,36.784],[14.5565,36.7759],[14.6141,36.7672],[14.6622,36.7502],[14.6846,36.726],[14.7443,36.7191],[14.7808,36.6994],[14.8201,36.7154],[14.8878,36.7238],[14.8912,36.723],[14.9697,36.6845],[15.0445,36.6479],[15.1002,36.6206],[15.1003,36.6208],[15.1006,36.6206],[15.1192,36.6663],[15.1349,36.6877],[15.1319,36.6976],[15.2435,36.9717],[15.2445,36.9721],[15.2681,36.9731],[15.2681,36.9939],[15.2888,37.0092],[15.3089,37.0178],[15.3324,37.0116],[15.3123,37.044],[15.295,37.0467],[15.295,37.0558],[15.2948,37.0567],[15.3027,37.0625],[15.3032,37.1012],[15.297,37.1031],[15.3094,37.1334],[15.3093,37.1336],[15.3094,37.1338],[15.251,37.2565],[15.252,37.2577],[15.2494,37.2598],[15.203,37.3571],[15.1798,37.4058],[15.1619,37.4434],[15.1669,37.4544],[15.3004,37.7463],[15.3227,37.795],[15.345,37.8436],[15.4116,37.9893],[15.454,38.0382],[15.5003,38.0849],[15.527,38.1368],[15.5759,38.2002],[15.5636,38.1999],[15.5758,38.2203],[15.6292,38.2638],[15.6516,38.2753],[15.616,38.2802],[15.5593,38.3001],[15.5129,38.2976],[15.5056,38.2922],[15.4998,38.2919],[15.3481,38.2204],[15.3382,38.218],[15.2806,38.2311],[15.2804,38.231],[15.2802,38.2311],[15.245,38.2194],[15.2407,38.2412],[15.2207,38.2102],[15.2037,38.1945],[14.9769,38.1687],[14.9574,38.1692],[14.945,38.1818],[14.9071,38.1877],[14.874,38.1757],[14.855,38.1718],[14.8449,38.1721],[14.8445,38.1721],[14.7905,38.1669],[14.7627,38.1588],[14.7337,38.1576],[14.7127,38.139],[14.4207,38.1081],[14.2747,38.0927],[14.2017,38.0849],[14.1652,38.0811],[14.1286,38.0772],[13.7395,38.036],[13.5944,38.0473],[13.5445,38.0741],[13.5413,38.0941],[13.5135,38.1105],[13.4601,38.1073],[13.4337,38.1113],[13.3833,38.1269],[13.3732,38.1438],[13.3719,38.1728],[13.3102,38.2196],[13.2544,38.2025],[13.2342,38.1912],[13.1597,38.1912],[13.1473,38.184],[13.1009,38.1901],[13.0894,38.166],[13.0547,38.1418],[13.0582,38.1321],[13.0553,38.1304],[13.0491,38.0899],[12.9993,38.0938],[12.9632,38.0966],[12.9272,38.0994],[12.8072,38.1088],[12.7831,38.1335],[12.7609,38.181],[12.7396,38.1781],[12.7353,38.1825],[12.7351,38.1823],[12.7349,38.1825],[12.7304,38.1769],[12.7199,38.1755],[12.721,38.1654],[12.7025,38.1426],[12.6757,38.119],[12.5697,38.1274],[12.5693,38.1274],[12.5497,38.0535],[12.5477,38.0523],[12.5455,38.0482],[12.5234,38.0314],[12.4929,38.0214],[12.5042,38.0112],[12.4905,37.954],[12.4641,37.9129],[12.47,37.9001],[12.4361,37.8197],[12.4362,37.8195],[12.4361,37.8193],[12.4388,37.8126],[12.4274,37.8093]]],[[[13.8491,40.7153],[13.8901,40.6942],[13.9447,40.7016],[13.9658,40.7153],[13.9658,40.7351],[13.9624,40.7362],[13.9629,40.7392],[13.9628,40.7392],[13.9629,40.7396],[13.9181,40.7509],[13.8831,40.7624],[13.8628,40.7624],[13.8491,40.7153]]],[[[14.2777,45.128],[14.2874,45.1011],[14.3161,45.0766],[14.3405,45.0202],[14.3405,44.9807],[14.303,44.9428],[14.3015,44.9434],[14.3009,44.9407],[14.3009,44.9406],[14.2942,44.9086],[14.3141,44.8938],[14.3298,44.8339],[14.3544,44.8201],[14.3648,44.8004],[14.3745,44.7539],[14.3894,44.7524],[14.3961,44.734],[14.3945,44.7076],[14.4279,44.6566],[14.473,44.6203],[14.5204,44.6215],[14.5139,44.6622],[14.4778,44.7019],[14.4724,44.7135],[14.4739,44.7545],[14.4615,44.7795],[14.4593,44.8018],[14.4666,44.8048],[14.4555,44.8396],[14.4525,44.8694],[14.4626,44.9401],[14.471,44.9539],[14.4661,44.9837],[14.4467,44.9873],[14.3949,45.031],[14.3697,45.0814],[14.3636,45.1302],[14.3641,45.1576],[14.3593,45.1646],[14.3589,45.1682],[14.3585,45.1682],[14.3571,45.168],[14.3562,45.1693],[14.3137,45.1724],[14.295,45.1494],[14.2865,45.1456],[14.2866,45.1453],[14.2865,45.1452],[14.2883,45.1411],[14.2777,45.128]]],[[[14.6579,44.7988],[14.6649,44.7931],[14.6789,44.7702],[14.6977,44.7667],[14.6995,44.7652],[14.7061,44.7651],[14.7617,44.7546],[14.806,44.7357],[14.8496,44.7032],[14.8502,44.7169],[14.8553,44.7147],[14.8552,44.7149],[14.8557,44.7147],[14.8554,44.7152],[14.8557,44.7151],[14.8506,44.7239],[14.8512,44.7373],[14.8224,44.7714],[14.8112,44.7771],[14.7657,44.821],[14.7549,44.8453],[14.7464,44.8457],[14.739,44.8534],[14.7325,44.8465],[14.6901,44.8487],[14.6897,44.8487],[14.6883,44.8468],[14.6858,44.8472],[14.6873,44.8454],[14.6717,44.8244],[14.6609,44.8001],[14.661,44.7999],[14.6609,44.7997],[14.6618,44.7983],[14.6579,44.7988]]],[[[14.7401,44.6973],[14.7513,44.6801],[14.7615,44.6586],[14.8093,44.6177],[14.8841,44.5445],[14.9072,44.4972],[14.8975,44.4909],[14.9158,44.4837],[14.9957,44.4334],[15.039,44.3935],[15.0966,44.3588],[15.1071,44.3506],[15.1104,44.3463],[15.0967,44.34],[15.1288,44.312],[15.1724,44.2991],[15.1309,44.3264],[15.1368,44.3275],[15.1614,44.3084],[15.1616,44.3086],[15.1618,44.3084],[15.1761,44.3242],[15.1989,44.317],[15.2271,44.3264],[15.2061,44.3441],[15.2122,44.3466],[15.2137,44.3468],[15.2351,44.3362],[15.2544,44.34],[15.2394,44.3499],[15.241,44.3501],[15.2407,44.3503],[15.2408,44.3503],[15.2406,44.3504],[15.241,44.3505],[15.1434,44.4164],[15.1005,44.4489],[15.0514,44.4938],[15.0755,44.4841],[15.0412,44.5275],[15.0051,44.5358],[15.0018,44.5382],[14.9663,44.5734],[14.9041,44.61],[14.9004,44.6099],[14.8989,44.6109],[14.8557,44.6179],[14.8053,44.6491],[14.7846,44.6646],[14.78,44.6695],[14.7412,44.7016],[14.7444,44.6947],[14.7405,44.6977],[14.7409,44.6971],[14.7401,44.6977],[14.7406,44.6969],[14.7401,44.6973]]],[[[14.8496,44.1756],[14.8701,44.1408],[14.9044,44.1145],[15.0421,43.9914],[15.0428,43.9904],[15.1066,43.9254],[15.1365,43.903],[15.1386,43.9079],[15.1508,43.9108],[15.1844,43.9016],[15.1955,43.8952],[15.1985,43.8977],[15.201,43.897],[15.201,43.8971],[15.2014,43.897],[15.2029,43.9013],[15.2168,43.9128],[15.1764,43.9334],[15.0266,44.0571],[15.0227,44.0722],[14.9906,44.0868],[14.9529,44.1179],[14.9403,44.1252],[14.9391,44.1271],[14.9102,44.1428],[14.8665,44.1682],[14.8667,44.1678],[14.8661,44.1682],[14.8665,44.1676],[14.8661,44.1678],[14.8671,44.1661],[14.8496,44.1756]]],[[[15.0625,44.1619],[15.0655,44.1573],[15.0646,44.1578],[15.0648,44.1575],[15.0642,44.1578],[15.0645,44.1572],[15.0642,44.1574],[15.075,44.1383],[15.0821,44.1314],[15.0871,44.1237],[15.1218,44.0922],[15.1891,44.0478],[15.2061,44.049],[15.2431,44.0297],[15.2544,44.0179],[15.2471,44.0467],[15.2303,44.0621],[15.2302,44.0623],[15.2298,44.0625],[15.2258,44.0662],[15.0625,44.1619]]],[[[15.2612,44.0111],[15.3027,43.9664],[15.3066,43.9642],[15.309,43.9612],[15.3579,43.9259],[15.3587,43.9194],[15.4071,43.8961],[15.4461,43.8875],[15.4387,43.8988],[15.439,43.8987],[15.4385,43.8992],[15.439,43.8991],[15.4372,43.9011],[15.4188,43.9291],[15.4058,43.9354],[15.3883,43.9545],[15.384,43.9702],[15.3719,43.9724],[15.3706,43.9738],[15.323,43.991],[15.2964,44.0056],[15.2724,44.0093],[15.2698,44.0103],[15.27,44.0101],[15.2694,44.0103],[15.2697,44.0098],[15.2694,44.0099],[15.2695,44.0098],[15.2612,44.0111]]],[[[16.6317,42.9826],[16.659,42.9779],[16.6662,42.9596],[16.6767,42.9501],[16.6384,42.9348],[16.6726,42.9218],[16.6914,42.9282],[16.7191,42.9219],[16.7382,42.9127],[16.8498,42.8953],[16.8502,42.8953],[16.8844,42.9043],[16.8987,42.9058],[16.9729,42.9267],[16.9845,42.9272],[17.0874,42.9144],[17.0878,42.9144],[17.1048,42.9147],[17.1074,42.9143],[17.1145,42.9149],[17.1886,42.9162],[17.1882,42.9166],[17.1886,42.9166],[17.1841,42.9205],[17.2002,42.9218],[17.1318,42.9696],[17.1111,42.9643],[17.0321,42.9826],[16.9917,42.9798],[16.9726,42.9825],[16.9722,42.9825],[16.8356,42.9686],[16.7388,42.9833],[16.7205,42.9901],[16.6861,42.9913],[16.6522,42.9964],[16.6522,42.9963],[16.6518,42.9964],[16.652,42.996],[16.6518,42.996],[16.6532,42.9924],[16.6527,42.9924],[16.6317,42.9826]]],[[[17.3237,42.7908],[17.3738,42.76],[17.3859,42.7709],[17.7489,42.6946],[17.7427,42.701],[17.743,42.7009],[17.7425,42.7012],[17.7428,42.7011],[17.7423,42.7014],[17.7426,42.7013],[17.7423,42.7015],[17.743,42.7013],[17.7417,42.702],[17.7305,42.7134],[17.6699,42.7384],[17.6098,42.769],[17.4334,42.8003],[17.433,42.8003],[17.3898,42.7985],[17.3724,42.7953],[17.3738,42.8026],[17.3237,42.7908]]]]}}
]}
