{"type":"FeatureCollection","features":[
{"type":"Feature","properties":{"entityId":"odrysian-kingdom","from":-26,"to":46,"certainty":"estimated","source":"유럽 쪽은 Natural Earth 1:10m admin-1(v5.1.2) 현대 행정구역 조각을 그 시기 국경에 맞춰 묶고, 조각이 역사 경계와 다른 곳은 선을 그어 나눈 근사. 유럽 밖(시베리아·중앙아시아·극동)은 대략적인 추정. 운영자 검수 필요"},"geometry":{"type":"Polygon","coordinates":[[[22.345,42.3134],[22.4436,42.2144],[22.4814,42.1933],[22.5069,42.1489],[22.5311,42.1291],[22.6178,42.0827],[22.6272,42.0791],[22.6759,42.0606],[22.7057,42.0559],[22.7251,42.0425],[22.7809,42.0432],[22.7989,42.0212],[22.827,42.0251],[22.8456,42.0074],[22.8754,42.0331],[22.8969,42.0304],[22.9336,42.086],[22.959,42.0871],[22.9762,42.0683],[23.0051,42.0699],[23.0607,42.0487],[23.1227,42.0576],[23.2006,42.0917],[23.2605,42.0929],[23.3872,42.0623],[23.4443,42.0697],[23.4936,42.0991],[23.5475,42.0841],[23.5808,42.1144],[23.6002,42.1509],[23.6984,42.1668],[23.718,42.1605],[23.7631,42.1776],[23.7726,42.1582],[23.8096,42.1329],[23.8133,42.0962],[23.8013,42.0627],[23.8205,42.0453],[23.7919,42.0207],[23.7666,41.9765],[23.7625,41.9399],[23.7896,41.906],[23.7957,41.8609],[23.8217,41.8238],[23.8682,41.7954],[23.9055,41.7965],[23.9282,41.769],[24.042,41.7104],[24.0726,41.6863],[24.1231,41.6546],[24.0779,41.624],[24.1977,41.5477],[24.2507,41.5635],[24.2864,41.5404],[24.2868,41.5176],[24.3539,41.5191],[24.4388,41.5277],[24.4592,41.5495],[24.5102,41.5617],[24.5309,41.5475],[24.5494,41.4854],[24.5811,41.4602],[24.5958,41.4298],[24.6443,41.4277],[24.6382,41.4177],[24.6471,41.4172],[24.65,41.4],[24.7,41.25],[24.75,41.15],[24.8,41.08],[24.82,40.95],[24.8342,40.8791],[24.9548,40.9411],[24.9555,40.9411],[25.4467,40.852],[25.8819,40.8314],[25.8922,40.8264],[25.9729,40.7875],[25.9901,40.7792],[26.0119,40.7687],[26.019,40.757],[26.0222,40.7517],[26.0371,40.7271],[26.0391,40.7241],[26.0491,40.7089],[26.0443,40.6171],[26.0443,40.6167],[26.0588,40.5951],[26.1343,40.483],[26.1531,40.455],[26.172,40.455],[26.172,40.483],[26.2097,40.483],[26.2097,40.4662],[26.2475,40.4662],[26.2475,40.4985],[26.3606,40.4985],[26.3606,40.5176],[26.4485,40.5176],[26.4485,40.543],[26.4777,40.543],[26.4777,40.5472],[26.5656,40.5472],[26.5656,40.5768],[26.5948,40.5768],[26.5948,40.5803],[26.6827,40.5803],[26.6827,40.6154],[26.7119,40.6154],[26.7119,40.6006],[26.7704,40.6006],[26.7704,40.6582],[26.7805,40.6594],[26.7864,40.7258],[26.9324,40.7149],[26.9319,40.6358],[26.9635,40.561],[26.9944,40.5686],[26.9944,40.5627],[27.0423,40.5937],[27.087,40.6131],[27.1152,40.6137],[27.1777,40.6326],[27.1983,40.6531],[27.2879,40.7036],[27.31,40.7332],[27.35,40.7686],[27.4,40.8128],[27.4248,40.8313],[27.4465,40.8617],[27.4519,40.8789],[27.6063,40.9908],[27.6754,41.0019],[27.7819,41.0069],[27.8153,41.0026],[27.8607,40.9785],[27.9413,40.9711],[27.9826,41.0161],[27.9833,41.0164],[28.0974,41.0218],[28.1548,41.0245],[28.1835,41.0258],[28.1835,41.0814],[28.1747,41.0808],[28.1505,41.2069],[28.1493,41.213],[28.163,41.2732],[28.193,41.3553],[28.1821,41.421],[28.1762,41.4369],[28.1557,41.4922],[28.203,41.5402],[28.222,41.5267],[28.222,41.5384],[28.254,41.5384],[28.254,41.5712],[28.222,41.583],[28.165,41.6039],[28.1523,41.6086],[28.1448,41.6174],[28.1,41.6702],[28.0883,41.7082],[28.0324,41.8897],[28.0449,41.8902],[28.0168,41.9726],[28.0191,42.0085],[27.9873,42.0517],[27.9866,42.0721],[27.9578,42.0943],[27.944,42.1008],[27.6756,42.5786],[27.7148,42.6556],[27.7395,42.6611],[27.7248,42.6752],[27.729,42.6835],[27.7547,42.7061],[27.7925,42.7122],[27.8411,42.7083],[27.8923,42.7105],[27.8949,42.75],[27.8971,42.784],[27.8898,42.82],[27.8909,42.8609],[27.8984,42.8747],[27.904,42.9423],[27.894,42.978],[27.8948,43.0092],[28.0063,43.2283],[28.0311,43.249],[28.0544,43.2932],[28.0775,43.3234],[28.131,43.3662],[28.1766,43.4026],[28.2076,43.4078],[28.2432,43.4078],[28.3065,43.4244],[28.3197,43.4266],[28.4239,43.3989],[28.4595,43.3807],[28.4732,43.3668],[28.4886,43.4064],[28.5603,43.4538],[28.6035,43.5382],[28.5731,43.6061],[28.5737,43.6221],[28.5863,43.7425],[28.5899,43.7981],[28.6297,43.9061],[28.6377,43.9186],[28.6712,44.0033],[28.6552,44.0515],[28.6523,44.1147],[28.7164,44.3902],[28.8271,44.4845],[28.844,44.4937],[28.9097,44.5842],[28.8724,44.5728],[28.806,44.5659],[28.8131,44.6018],[28.8365,44.6269],[28.8542,44.6343],[28.9242,44.6821],[28.9727,44.6702],[28.9387,44.6343],[28.9621,44.6394],[28.9876,44.6753],[28.9675,44.701],[28.8977,44.7168],[28.912,44.6964],[28.8695,44.6618],[28.8464,44.6567],[28.8484,44.6999],[28.8491,44.7164],[28.8564,44.7275],[28.8707,44.7494],[28.8757,44.7551],[28.8794,44.7566],[28.9461,44.7652],[28.9255,44.7837],[28.9524,44.8266],[28.9107,44.8571],[28.8993,44.8948],[29.0533,44.8466],[29.0603,44.8323],[29.0737,44.8348],[29.079,44.7983],[29.0509,44.7637],[28.9749,44.7449],[29.0007,44.6889],[29.0558,44.7352],[29.1309,44.772],[29.2822,44.7972],[29.3159,44.7988],[29.511,44.8205],[29.5618,44.8203],[29.6112,44.8493],[29.6052,44.88],[29.6304,44.9077],[29.6375,44.9837],[29.6563,45.029],[29.6622,45.0927],[29.6735,45.1377],[29.6765,45.1446],[29.6996,45.1618],[29.68,45.1632],[29.6879,45.1938],[29.6954,45.2213],[29.659,45.2159],[29.6723,45.2729],[29.6671,45.3119],[29.6503,45.3461],[29.5697,45.395],[29.4306,45.4304],[29.3537,45.4359],[29.3221,45.4438],[29.2818,45.4223],[29.2282,45.4237],[29.1743,45.389],[29.0695,45.3608],[29.0182,45.3309],[28.9665,45.3199],[28.9528,45.2851],[28.9299,45.2791],[28.8809,45.3062],[28.8163,45.3261],[28.7897,45.3214],[28.7902,45.2921],[28.7615,45.2818],[28.7673,45.2578],[28.8027,45.2442],[28.7787,45.2311],[28.7101,45.227],[28.577,45.2481],[28.4942,45.2789],[28.4052,45.2951],[28.3302,45.3229],[28.2812,45.4018],[28.2864,45.4217],[28.2669,45.4405],[28.2151,45.4504],[28.1908,45.417],[28.1249,45.428],[28.0437,45.4113],[28.0302,45.3954],[28.0217,45.3481],[27.9867,45.2923],[28.0413,45.2584],[28.0755,45.2482],[28.1103,45.2582],[28.1308,45.2377],[28.0977,45.1842],[28.1526,45.1612],[28.178,45.1347],[28.1627,45.1083],[28.1314,45.089],[28.1424,45.0365],[28.1308,45.0186],[28.1414,44.9598],[28.1241,44.9449],[28.125,44.8916],[28.0801,44.8408],[28.0701,44.7959],[28.0548,44.777],[28.0347,44.7632],[27.9951,44.7611],[27.9651,44.7752],[27.9109,44.7753],[27.8769,44.7442],[27.9164,44.6945],[27.978,44.6793],[28.0345,44.631],[28.0214,44.588],[28.0215,44.5525],[28.0039,44.5399],[28.0203,44.5223],[28.0861,44.5047],[28.109,44.4578],[28.0988,44.4304],[28.0482,44.3982],[28.0228,44.3547],[27.9935,44.3044],[27.9675,44.2806],[27.934,44.266],[27.7888,44.2399],[27.7329,44.2099],[27.6918,44.2045],[27.608,44.2055],[27.516,44.1727],[27.4819,44.1458],[27.4449,44.1341],[27.2924,44.1516],[27.2527,44.1215],[27.1002,44.1445],[27.0275,44.177],[27.0015,44.1651],[26.8841,44.1565],[26.7895,44.116],[26.7087,44.1081],[26.6142,44.0849],[26.4158,44.0638],[26.3323,44.0549],[26.2315,44.0275],[26.1507,44.0124],[26.1162,43.9989],[26.0793,43.969],[26.0543,43.9343],[25.934,43.8703],[25.9164,43.8444],[25.8693,43.8009],[25.8063,43.7637],[25.7811,43.732],[25.7329,43.7188],[25.6714,43.7174],[25.6165,43.6877],[25.5566,43.6704],[25.4825,43.6697],[25.4031,43.6501],[25.3596,43.6543],[25.2854,43.6904],[25.2312,43.6561],[25.2173,43.6157],[25.1874,43.5891],[25.1952,43.5582],[25.2194,43.5466],[25.1967,43.5115],[25.136,43.4617],[25.1475,43.4403],[25.1903,43.4421],[25.1991,43.406],[25.2203,43.3741],[25.2257,43.3365],[25.1496,43.2871],[25.1116,43.2799],[25.1165,43.2152],[25.0725,43.1811],[24.9854,43.1959],[24.9617,43.1269],[24.9243,43.1069],[24.9116,43.0663],[24.9202,43.0336],[24.8675,42.9868],[24.8948,42.8888],[24.9776,42.8532],[25.0025,42.8074],[25.0112,42.7585],[24.98,42.7532],[24.9662,42.7321],[24.9247,42.714],[24.8787,42.7102],[24.8277,42.719],[24.7751,42.7191],[24.752,42.7094],[24.704,42.7167],[24.6644,42.7425],[24.6307,42.7753],[24.5853,42.7886],[24.5,42.792],[24.4376,42.7517],[24.3967,42.7549],[24.3325,42.7578],[24.2852,42.7797],[24.1586,42.7809],[24.1386,42.8036],[24.1521,42.8438],[24.1514,42.9087],[24.1293,42.9358],[24.0906,42.9423],[24.0447,42.9788],[24.046,43.0204],[24.0062,43.0602],[23.9775,43.0599],[23.9356,43.0278],[23.9023,43.0428],[23.8035,43.0561],[23.766,43.0679],[23.7167,43.0346],[23.6654,43.0283],[23.6344,43.053],[23.5526,43.0092],[23.4936,43.0706],[23.4352,43.1082],[23.4346,43.1281],[23.4698,43.1369],[23.4314,43.162],[23.3989,43.1629],[23.3627,43.1337],[23.3181,43.1208],[23.2861,43.1292],[23.2203,43.1112],[23.1273,43.1172],[23.1011,43.1318],[23.0289,43.1949],[22.9829,43.1873],[22.974,43.1412],[22.9353,43.0856],[22.8967,43.0627],[22.8842,43.0367],[22.8288,42.9934],[22.7764,42.9797],[22.7396,42.8989],[22.727,42.8869],[22.6662,42.8719],[22.5909,42.8869],[22.5448,42.8717],[22.506,42.8701],[22.4814,42.8467],[22.4304,42.8171],[22.4531,42.7636],[22.4814,42.7398],[22.4421,42.6817],[22.4413,42.6329],[22.4253,42.5729],[22.5249,42.5077],[22.5365,42.4784],[22.5088,42.4049],[22.4698,42.3917],[22.424,42.3259],[22.345,42.3134]]]}}
]}
