{
 "type": "FeatureCollection",
 "features": [
  {
   "type": "Feature",
   "properties": {
    "entityId": "okjeo",
    "from": -56,
    "to": 56,
    "certainty": "estimated",
    "source": "중고등학교 한국사 교과서 시대별 지도의 일반적인 경계를 따른 대략적인 추정. 운영자 검수 필요"
   },
   "geometry": {
    "type": "Polygon",
    "coordinates": [
     [
      [
       127.3,
       41.3
      ],
      [
       127.35,
       39.6
      ],
      [
       127.9,
       39.6
      ],
      [
       129.5,
       39.5
      ],
      [
       130.7733,
       42.8107
      ],
      [
       130.3,
       43
      ],
      [
       129,
       42.4
      ],
      [
       128.2,
       41.6
      ],
      [
       127.3,
       41.3
      ]
     ]
    ]
   }
  }
 ]
}
