{"type":"FeatureCollection","features":[
{"type":"Feature","properties":{"entityId":"old-great-bulgaria","from":632,"to":668,"certainty":"estimated","source":"유럽 쪽은 Natural Earth 1:10m admin-1(v5.1.2) 현대 행정구역 조각을 그 시기 국경에 맞춰 묶고, 조각이 역사 경계와 다른 곳은 선을 그어 나눈 근사. 유럽 밖(시베리아·중앙아시아·극동)은 대략적인 추정. 운영자 검수 필요"},"geometry":{"type":"MultiPolygon","coordinates":[[[[31.5044,46.3734],[31.522,46.3132],[31.5268,46.3077],[31.5271,46.3066],[31.5631,46.258],[31.6999,46.2146],[32.0095,46.1677],[32.1499,46.1538],[32.1498,46.1539],[32.1503,46.1538],[32.1496,46.154],[32.1501,46.154],[32.1494,46.1542],[32.1499,46.1542],[32.1498,46.1543],[32.1503,46.1542],[32.1354,46.1597],[32.1531,46.156],[32.0937,46.1751],[32.0135,46.2046],[31.6391,46.2723],[31.5851,46.3035],[31.5273,46.3566],[31.522,46.3685],[31.5111,46.3715],[31.5095,46.373],[31.5096,46.3725],[31.5091,46.373],[31.5092,46.3725],[31.5091,46.3726],[31.5093,46.372],[31.5044,46.3734]]],[[[31.517,46.575],[31.5244,46.5642],[31.6414,46.4821],[31.6636,46.4721],[31.6865,46.4299],[31.6903,46.4786],[31.6933,46.4804],[31.7143,46.4715],[31.7177,46.4713],[31.7282,46.4138],[31.7362,46.3703],[31.7431,46.3325],[31.7787,46.3267],[31.7725,46.3027],[31.8192,46.2806],[31.8823,46.2791],[31.8828,46.2851],[31.9268,46.2875],[31.9626,46.2788],[31.9684,46.2757],[32.0181,46.2575],[32.0336,46.2617],[32.0347,46.2614],[32.0838,46.2394],[32.1154,46.2145],[32.1698,46.201],[32.2461,46.1669],[32.2625,46.1282],[32.3025,46.1167],[32.5034,46.0761],[32.5437,46.0805],[32.575,46.0973],[32.7982,46.1312],[32.8043,46.1309],[32.8446,46.1214],[32.9131,46.1152],[33.0111,46.1269],[33.2983,46.0803],[33.394,46.0044],[33.4034,45.9969],[33.449,45.9608],[33.4945,45.9247],[33.5018,45.9189],[33.5476,45.8825],[33.4945,45.8532],[33.4911,45.8513],[33.4822,45.8545],[33.41,45.8266],[33.3864,45.8067],[33.2803,45.7654],[33.217,45.7581],[33.1692,45.7844],[33.1592,45.7685],[33.181,45.7552],[33.1798,45.7539],[33.1435,45.7497],[33.0247,45.6911],[32.9368,45.6625],[32.8682,45.6301],[32.8361,45.5981],[32.8267,45.5935],[32.7986,45.5769],[32.7629,45.5644],[32.7578,45.5646],[32.7509,45.5602],[32.6323,45.5188],[32.6263,45.5124],[32.5252,45.4582],[32.4951,45.4355],[32.4816,45.4089],[32.4971,45.3751],[32.4523,45.3275],[32.4526,45.3274],[32.4523,45.3271],[33.036,45.1709],[33.3278,45.0929],[33.4737,45.0538],[33.5465,45.0343],[33.5403,45.021],[33.4815,44.8954],[33.5293,44.8954],[33.5293,44.8462],[33.5573,44.8462],[33.5573,44.8441],[33.5705,44.8525],[33.5808,44.8193],[33.6173,44.8163],[33.6745,44.7916],[33.6893,44.7542],[33.6114,44.7206],[33.6252,44.6614],[33.7091,44.6664],[33.7505,44.624],[33.713,44.5816],[33.7298,44.5539],[33.7692,44.5559],[33.7771,44.5322],[33.8057,44.5273],[33.8521,44.4316],[33.786,44.4247],[33.7653,44.406],[33.73,44.398],[33.7869,44.3956],[33.8815,44.3606],[33.8817,44.3607],[33.8819,44.3606],[33.9,44.3683],[33.9,44.62],[34.3,44.75],[34.7,44.85],[35,44.93],[35.3,45.08],[35.6,45.12],[35.6,44.997],[35.8133,45.031],[35.8278,44.9992],[35.848,44.9924],[35.9168,45.0014],[35.9934,44.998],[36.0235,45.026],[36.0563,45.0306],[36.1194,45.0287],[36.136,45.0214],[36.2246,45.0075],[36.2443,45.011],[36.2541,45.0314],[36.3196,45.0472],[36.3678,45.0488],[36.4401,45.0675],[36.4553,45.0916],[36.4171,45.1263],[36.4272,45.1539],[36.4524,45.232],[36.5136,45.3032],[36.5436,45.3474],[36.5452,45.3474],[36.5749,45.3361],[36.6309,45.3406],[36.6384,45.3513],[36.6135,45.4089],[36.5833,45.4274],[36.533,45.4089],[36.5088,45.4284],[36.5316,45.4693],[36.5314,45.4693],[36.5316,45.4697],[36.5312,45.4697],[36.3053,45.4566],[36.3074,45.4609],[36.284,45.4766],[36.2525,45.4615],[36.1375,45.4621],[36.1003,45.4447],[35.8478,45.43],[35.8577,45.4694],[35.8171,45.4641],[35.7991,45.4272],[35.5092,45.4104],[35.3052,45.5105],[35.1136,45.6046],[35.1054,45.6134],[35.0232,45.7011],[35.0135,45.7159],[35.0131,45.7205],[35.0106,45.7473],[35.0081,45.774],[35.0032,45.8275],[34.965,46.2404],[35.0308,46.2518],[35.075,46.2711],[35.1051,46.2951],[35.1678,46.361],[35.1724,46.3643],[35.2637,46.4038],[35.2686,46.3982],[35.2586,46.3734],[35.2676,46.3511],[35.2911,46.3439],[35.2892,46.3139],[35.2793,46.282],[35.2784,46.2792],[35.2563,46.2623],[35.2305,46.2425],[35.2172,46.2323],[35.2171,46.2322],[35.0881,46.1512],[35.0444,46.1419],[35.0518,46.1284],[35.0389,46.1203],[34.9854,46.0875],[35,46.0736],[35.0623,46.0986],[35.0965,46.1042],[35.1618,46.1282],[35.2095,46.1699],[35.2146,46.1768],[35.2572,46.2042],[35.2661,46.2151],[35.2919,46.2468],[35.3176,46.2784],[35.4003,46.3801],[35.4455,46.406],[35.4481,46.408],[35.5709,46.4783],[35.6287,46.4985],[35.6613,46.5193],[35.7071,46.5563],[35.8181,46.6198],[35.8336,46.6259],[35.9654,46.6536],[36.0741,46.6597],[36.1928,46.6451],[36.1932,46.6451],[36.2237,46.65],[36.2676,46.6256],[36.2783,46.6074],[36.2844,46.6364],[36.3035,46.6592],[36.3233,46.6736],[36.7584,46.6981],[36.7931,46.7149],[36.794,46.7145],[36.7941,46.7146],[36.7944,46.7145],[36.7974,46.717],[36.8011,46.7188],[36.7903,46.6713],[36.7693,46.6374],[36.8123,46.6806],[36.8296,46.7319],[36.8304,46.733],[36.9451,46.7887],[37.0024,46.8165],[37.0598,46.8444],[37.1172,46.8722],[37.1745,46.9001],[37.2024,46.9136],[37.2192,46.9177],[37.2893,46.9167],[37.3174,46.9008],[37.313,46.8756],[37.3352,46.8825],[37.3779,46.9339],[37.4335,46.9879],[37.4838,47.0274],[37.6322,47.0425],[38.0234,47.0822],[38.0262,47.0816],[38.0292,47.0828],[38.0606,47.086],[38.1088,47.0838],[38.1301,47.0747],[38.1081,47.0264],[38.1423,47.0377],[38.1982,47.087],[38.2128,47.0913],[38.2878,47.1141],[38.3635,47.1277],[38.4279,47.1335],[38.4397,47.1413],[38.488,47.15],[38.478,47.1425],[38.5174,47.119],[38.568,47.1152],[38.5531,47.1356],[38.6255,47.1356],[38.6667,47.1435],[38.6696,47.1433],[38.67,47.1433],[38.8294,47.1636],[38.8474,47.1636],[38.8543,47.1668],[38.9292,47.1763],[38.992,47.2404],[39.1196,47.2633],[39.1483,47.0454],[39.0869,47.0284],[39.0752,47.0327],[39.0397,47.0154],[38.8032,46.95],[38.7602,46.9381],[38.6903,46.9188],[38.6554,46.9092],[38.6204,46.8995],[38.4806,46.8609],[38.4746,46.8619],[38.4611,46.8555],[37.7655,46.6632],[37.7376,46.6763],[37.7307,46.6627],[37.7401,46.6562],[37.6724,46.6375],[37.6727,46.6373],[37.6726,46.6373],[37.6727,46.6372],[37.6724,46.6371],[37.7923,46.5526],[37.8273,46.4765],[37.863,46.4548],[37.905,46.411],[37.971,46.3618],[37.9954,46.3544],[38.0187,46.3685],[37.9778,46.3821],[37.9784,46.383],[37.9788,46.383],[38.0259,46.3879],[38.2338,46.2413],[38.0509,46.0574],[38.0379,46.0565],[37.9719,46.04],[37.9401,46.0203],[37.902,45.9508],[37.8934,45.916],[37.8796,45.8852],[37.6353,45.6396],[37.6079,45.6627],[37.5951,45.6353],[37.5896,45.5936],[37.4024,45.4054],[37.1147,45.3417],[37.0667,45.3538],[36.8953,45.43],[36.8333,45.443],[36.7051,45.391],[36.6665,45.3404],[36.688,45.3315],[36.7251,45.3691],[36.7616,45.3483],[36.7636,45.348],[36.7585,45.3408],[36.7888,45.2922],[36.8923,45.3084],[36.9183,45.2984],[36.6752,45.2446],[36.6755,45.2444],[36.6754,45.2444],[36.6756,45.2443],[36.6752,45.2442],[36.7219,45.2124],[36.6861,45.2032],[36.5947,45.2048],[36.5773,45.1942],[36.5931,45.1648],[36.6414,45.1284],[36.7017,45.1038],[36.7415,45.1032],[36.7546,45.1058],[36.9283,45.0721],[36.9506,45.0569],[37.45,45.12],[38,45.15],[38.5,45.08],[38.97,45.03],[39.5,45.15],[39.7,45.2],[40.2,45.35],[40.57,45.43],[41.13,45],[41.5952,44.802],[41.651,44.8966],[41.5871,44.7882],[41.5384,44.7363],[41.504,44.7215],[41.4429,44.717],[41.4175,44.7078],[41.4229,44.6658],[41.4738,44.6321],[41.4858,44.6068],[41.5335,44.6028],[41.5552,44.5879],[41.5666,44.546],[41.5802,44.5337],[41.6204,44.527],[41.6365,44.5066],[41.7019,44.5014],[41.7291,44.4851],[41.7294,44.4586],[41.7715,44.4576],[41.8485,44.4907],[41.9046,44.4948],[41.939,44.4288],[41.9446,44.4029],[41.9723,44.385],[42.038,44.3639],[42.0009,44.3758],[42.05,44.2],[42,43.5],[42.1435,43.2131],[42.1543,43.2175],[42.1854,43.2255],[42.3626,43.2352],[42.4043,43.2837],[42.4142,43.3263],[42.4047,43.3954],[42.4424,43.4366],[42.4787,43.4998],[42.4836,43.5486],[42.4581,43.5949],[42.46,43.6154],[42.5294,43.6373],[42.6318,43.6628],[42.6714,43.6956],[42.6832,43.8072],[42.7191,43.822],[42.8259,43.8128],[42.8521,43.8171],[42.9021,43.8633],[42.9751,43.891],[43.0893,43.8921],[43.1312,43.9091],[43.162,43.9412],[43.2161,43.9501],[43.266,43.9098],[43.3,43.824],[43.3329,43.8055],[43.4288,43.8627],[43.5018,43.8666],[43.6209,43.8441],[43.7287,43.8387],[43.7652,43.8573],[43.7812,43.9097],[43.8034,43.9405],[43.8754,43.9821],[43.9061,43.9942],[43.9714,43.9851],[44.0175,43.9626],[44.106,43.9616],[44.1341,43.9558],[44.1673,43.9257],[44.2585,43.9246],[44.2846,43.9459],[44.4155,43.9986],[44.4168,43.9464],[44.3579,43.9365],[44.3426,43.9126],[44.3025,43.8945],[44.2849,43.8189],[44.3451,43.8124],[44.3993,43.7952],[44.6525,43.8219],[44.6936,43.8299],[44.8035,43.8021],[44.8152,43.7894],[44.8509,43.7009],[44.8291,43.6682],[44.8387,43.6611],[44.8926,43.6521],[44.9614,43.6714],[45,43.7046],[45.0044,43.7582],[45.0606,43.7709],[45.0799,43.7877],[45.0823,43.8765],[45.0616,43.8886],[45.0607,43.9341],[45.0834,43.9528],[45.1897,43.9517],[45.204,43.9477],[45.2101,43.8885],[45.2374,43.8802],[45.4318,43.8786],[45.4495,43.8831],[45.4544,43.9144],[45.4482,43.9733],[45.4591,43.9999],[45.5094,44.0152],[45.5072,44.1034],[45.5225,44.1782],[45.5063,44.1905],[45.3413,44.2003],[45.3151,44.1854],[45.2583,44.1991],[45.1241,44.2024],[45.105,44.2158],[45.1307,44.2683],[45.1876,44.2712],[45.2607,44.2932],[45.3736,44.3071],[45.4045,44.3175],[45.4414,44.3761],[45.4438,44.4025],[45.3984,44.4444],[45.2374,44.4601],[45.2262,44.466],[45.2341,44.5101],[45.272,44.5389],[45.2606,44.5623],[45.2709,44.5906],[45.3361,44.5952],[45.3734,44.6175],[45.4349,44.6175],[45.614,44.766],[45.6463,44.7997],[45.6493,44.8336],[45.6211,44.899],[45.706,44.9758],[45.7119,45.0137],[45.6149,45.1175],[45.5862,45.1583],[45.3525,45.2434],[44.8271,45.4557],[44.7377,45.4966],[44.7063,45.506],[44.5497,45.5093],[44.421,45.5267],[44.2771,45.5802],[44.2072,45.61],[44.1482,45.6525],[44.1161,45.7129],[44.097,45.7739],[44.08,45.7958],[44.0393,45.8206],[43.9699,45.8854],[43.9276,45.9019],[43.8776,45.9455],[43.8091,45.9682],[43.7423,45.9789],[43.5683,45.981],[43.3925,46.016],[43.3567,46.0306],[43.3055,46.0767],[43.2373,46.1124],[43.1743,46.1252],[42.9914,46.1796],[42.9327,46.2324],[42.9054,46.2403],[42.8396,46.2059],[42.8519,46.1772],[42.8346,46.1558],[42.7391,46.0992],[42.6712,46.0884],[42.5335,45.9977],[42.34,45.9719],[42.3174,45.9808],[42.3397,46.1071],[42.3177,46.1255],[42.2036,46.1087],[42.1774,46.0991],[42.1797,46.0558],[42.1516,46.0164],[42.1578,45.9719],[42.1497,45.949],[42.0998,45.9293],[42.0706,45.9565],[42.0363,45.9651],[41.7126,45.996],[41.7201,46.0242],[41.7037,46.0528],[41.6558,46.1053],[41.67,46.1313],[41.648,46.1561],[41.6592,46.1783],[41.726,46.2136],[41.7505,46.2074],[41.7835,46.1696],[41.8401,46.1529],[41.9083,46.1802],[41.9234,46.2164],[41.9624,46.2625],[41.9631,46.2891],[41.995,46.3013],[42.2019,46.3145],[42.2059,46.3227],[42.1794,46.377],[42.1601,46.394],[42.0996,46.4071],[42.0745,46.4354],[42.0501,46.4851],[42.0343,46.5433],[42.0728,46.5583],[42.1809,46.5779],[42.4093,46.5249],[42.4458,46.4829],[42.556,46.4457],[42.5968,46.4109],[42.7401,46.3979],[42.7872,46.3894],[42.9118,46.435],[42.9577,46.4242],[43.0802,46.3598],[43.1803,46.285],[43.2431,46.2471],[43.3188,46.19],[43.3556,46.1724],[43.5106,46.1624],[43.5594,46.1689],[43.646,46.2157],[43.6758,46.2719],[43.7574,46.3693],[43.773,46.4079],[43.8199,46.3896],[43.8594,46.3364],[43.8617,46.2918],[43.9608,46.3361],[43.9702,46.3566],[43.9184,46.416],[43.9277,46.521],[43.9027,46.549],[43.8268,46.5677],[43.8171,46.5887],[43.8744,46.6295],[43.9083,46.6728],[43.9304,46.7227],[44.053,46.799],[44.0726,46.8277],[44.1029,46.8368],[44.1622,46.8329],[44.1902,46.8445],[44.2624,46.9001],[44.3276,47.1108],[44.331,47.4033],[44.334,47.4752],[44.3189,47.4909],[44.2567,47.5059],[44.2455,47.5187],[44.2446,47.5693],[44.2284,47.5746],[44.1263,47.5446],[44.1168,47.5335],[44.1195,47.4288],[44.1096,47.4137],[44.0034,47.4088],[43.9648,47.3855],[43.9533,47.3649],[43.9392,47.2689],[43.9273,47.2668],[43.8023,47.2825],[43.7927,47.2897],[43.7992,47.3706],[43.7567,47.448],[43.7315,47.4766],[43.6606,47.4447],[43.6008,47.4827],[43.482,47.4837],[43.2625,47.4502],[43.2094,47.4532],[43.1741,47.473],[43.1539,47.5004],[43.1568,47.5624],[43.1365,47.5743],[43.0543,47.5728],[43.0039,47.5243],[42.9553,47.5103],[42.9346,47.5278],[42.9014,47.5844],[42.785,47.7311],[42.7473,47.8211],[42.7285,47.8541],[42.5536,47.9653],[42.4919,48.0136],[42.3429,48.0448],[42.3122,48.0401],[42.2825,48.0157],[42.2236,48.0301],[42.1769,48.0331],[42.0776,48.0253],[42.0298,48.0285],[42.0196,48.0591],[42.051,48.1258],[42.0964,48.1541],[42.0902,48.201],[42.051,48.23],[42.0495,48.2599],[42.0753,48.2731],[42.1369,48.2787],[42.1465,48.2872],[42.1169,48.3399],[42.0741,48.3919],[42.0843,48.4173],[42.1296,48.4486],[42.1652,48.464],[42.2765,48.498],[42.3604,48.4978],[42.4009,48.5098],[42.4416,48.5048],[42.5091,48.5269],[42.5578,48.5303],[42.6337,48.5516],[42.6503,48.5756],[42.6918,48.5956],[42.7011,48.6244],[42.6575,48.6859],[42.6511,48.7046],[42.6983,48.7571],[42.7397,48.7863],[42.7413,48.8167],[42.7226,48.845],[42.6604,48.9004],[42.6628,48.9673],[42.4804,49.0431],[42.4106,49.0473],[42.3793,49.0745],[42.3749,49.1114],[42.3438,49.1521],[42.2766,49.1594],[42.1736,49.1407],[42.0952,49.1406],[42.0685,49.1585],[42.0756,49.1862],[42.0642,49.2182],[42.0346,49.2549],[42.0547,49.2776],[42.0889,49.2833],[42.0861,49.3579],[42.0535,49.4023],[42.0669,49.4503],[42.072,49.5018],[42.1078,49.5221],[42.1184,49.5696],[42.1415,49.6166],[42.1784,49.6684],[42.1751,49.6921],[42.1151,49.7503],[42.0008,49.8126],[41.9073,49.872],[41.8761,49.9004],[41.6167,49.9622],[41.5832,50.0061],[41.595,50.0454],[41.5681,50.063],[41.4924,50.0836],[41.3621,50.2263],[41.4864,50.357],[41.5086,50.3921],[41.4855,50.425],[41.4235,50.4816],[41.4202,50.5095],[41.4322,50.5311],[41.4675,50.557],[41.5102,50.5656],[41.5258,50.5987],[41.4291,50.6122],[41.4001,50.625],[41.3688,50.6783],[41.3144,50.7246],[41.1931,50.762],[41.1675,50.7805],[41.3698,50.8308],[41.3916,50.8795],[41.4443,50.9174],[41.5402,50.9543],[41.6355,50.9815],[41.737,51.0257],[41.7715,51.0667],[41.8306,51.1664],[41.8549,51.1886],[41.9475,51.2042],[41.977,51.2033],[42.0673,51.16],[42.1435,51.1416],[42.2548,51.1325],[42.3201,51.1386],[42.3673,51.157],[42.573,51.1685],[42.6584,51.2257],[42.7155,51.2394],[42.8441,51.2362],[42.8729,51.2313],[42.9054,51.2491],[42.8711,51.269],[42.8445,51.3167],[42.8418,51.3396],[42.8609,51.3814],[42.801,51.4328],[42.7341,51.479],[42.5296,51.5755],[42.4892,51.6077],[42.4343,51.6353],[42.4034,51.6329],[42.3703,51.607],[42.3339,51.5941],[42.2737,51.6004],[42.2477,51.6945],[42.1811,51.728],[42.119,51.7141],[42.1252,51.6635],[42.1169,51.6433],[42.0927,51.6428],[42.0444,51.6668],[41.9522,51.6564],[41.8535,51.683],[41.8389,51.7127],[41.7554,51.7096],[41.7089,51.7356],[41.6456,51.7416],[41.5984,51.7618],[41.5565,51.7667],[41.4923,51.8011],[41.4364,51.764],[41.3828,51.7702],[41.3113,51.7938],[41.2905,51.7924],[41.2747,51.77],[41.2843,51.74],[41.2683,51.735],[41.1259,51.7314],[41.0661,51.7102],[41.0283,51.7284],[40.973,51.7412],[40.8919,51.7426],[40.8869,51.7516],[40.9172,51.8027],[40.9203,51.8268],[40.9445,51.8676],[40.9377,51.8902],[40.8799,51.9109],[40.8371,51.9171],[40.8024,51.8985],[40.7723,51.8987],[40.7523,51.9329],[40.7346,51.9404],[40.5038,51.9535],[40.3668,51.9622],[40.2946,51.9564],[40.1386,51.9721],[40.1224,51.9924],[40.0876,51.985],[40.0451,51.9569],[40.0206,51.9539],[39.913,51.9798],[39.8847,51.9717],[39.8801,51.9527],[39.8341,51.9202],[39.7381,51.9245],[39.6638,51.9406],[39.5967,51.9488],[39.4966,51.9727],[39.5122,52.0271],[39.4905,52.0563],[39.4471,52.0822],[39.3571,52.0849],[39.2822,52.1046],[39.1823,52.0982],[39.1628,52.0562],[39.13,52.0683],[39.0974,52.0395],[39.0977,52.0066],[39.0359,51.9883],[38.9944,52.0007],[38.9297,52.0605],[38.8799,52.0925],[38.823,52.0976],[38.7929,52.0859],[38.762,52.0524],[38.7156,52.0706],[38.6976,52.0978],[38.6806,52.0978],[38.6618,52.0721],[38.6222,52.0549],[38.5751,52.0633],[38.5515,52.0326],[38.5288,52.0238],[38.3848,52.0001],[38.2988,51.961],[38.3039,51.9151],[38.362,51.9301],[38.4098,51.9202],[38.4135,51.854],[38.4264,51.8146],[38.3875,51.7851],[38.4141,51.7545],[38.4751,51.7448],[38.5051,51.7319],[38.4098,51.6878],[38.3396,51.6889],[38.2195,51.7078],[38.2015,51.685],[38.2189,51.6318],[38.1492,51.6444],[38.1402,51.6207],[38.1888,51.587],[38.221,51.5543],[38.2764,51.5264],[38.2693,51.4988],[38.2848,51.4739],[38.2729,51.4529],[38.3012,51.3626],[38.3448,51.3731],[38.3511,51.3629],[38.3234,51.3408],[38.3122,51.3094],[38.2915,51.2925],[38.2011,51.3067],[38.1551,51.3293],[38.0273,51.3662],[38.0518,51.3909],[38.0465,51.4197],[37.9319,51.4197],[37.9,51.4007],[37.8777,51.4009],[37.8286,51.4205],[37.7593,51.3885],[37.6667,51.3657],[37.581,51.3708],[37.5386,51.3943],[37.4628,51.381],[37.447,51.3723],[37.3616,51.3844],[37.3417,51.3644],[37.2491,51.331],[37.1894,51.3288],[37.1442,51.3429],[37.1187,51.3015],[37.1304,51.2428],[37.0984,51.2299],[37.0849,51.2504],[37.054,51.2469],[36.9896,51.2004],[36.9302,51.181],[36.8558,51.1858],[36.6887,51.1274],[36.6526,51.1089],[36.6175,51.0798],[36.5996,51.0795],[36.4999,51.122],[36.4762,51.0863],[36.4037,51.1179],[36.3591,51.1258],[36.3136,51.1033],[36.2443,51.1063],[36.2075,51.1251],[36.0986,51.1296],[36.0406,51.1603],[35.9763,51.1575],[35.9397,51.1161],[35.9525,51.0922],[35.9996,51.0577],[35.9542,51.0455],[35.9149,51.011],[35.8769,51.0124],[35.8556,50.9794],[35.8042,50.9382],[35.7668,50.9482],[35.7457,50.9671],[35.7212,50.9672],[35.7176,50.9376],[35.6772,50.9193],[35.6331,50.924],[35.6129,50.9393],[35.5923,50.9211],[35.5464,50.9057],[35.5042,50.9182],[35.5124,50.9471],[35.4494,50.963],[35.401,50.9533],[35.2822,50.9611],[35.2936,50.9376],[35.3417,50.9159],[35.3414,50.8765],[35.3777,50.8337],[35.3791,50.7972],[35.4385,50.7624],[35.4471,50.7343],[35.4454,50.6875],[35.4689,50.6685],[35.3916,50.6464],[35.3777,50.6218],[35.4253,50.5005],[35.4464,50.476],[35.5227,50.4595],[35.5547,50.4333],[35.5702,50.3765],[35.6316,50.345],[35.6922,50.3442],[35.671,50.3199],[35.5955,50.3259],[35.5618,50.3189],[35.4957,50.3189],[35.4938,50.3022],[35.4029,50.3337],[35.3804,50.2922],[35.3292,50.3047],[35.3089,50.2764],[35.269,50.2783],[35.2526,50.2689],[35.2547,50.2442],[35.1947,50.2323],[35.1354,50.245],[35.0887,50.2071],[35.0672,50.215],[35.0376,50.1985],[35.0339,50.1747],[35.0159,50.1721],[34.9794,50.192],[34.9573,50.1669],[34.9082,50.146],[34.9172,50.1324],[34.9132,50.0557],[34.8621,50.0216],[34.8415,50],[34.864,49.9423],[34.8882,49.9177],[34.9546,49.8901],[35.0086,49.8889],[35.0407,49.868],[35.103,49.8477],[35.1483,49.8553],[35.1911,49.832],[35.1913,49.7747],[35.206,49.7429],[35.2303,49.7315],[35.239,49.7045],[35.2769,49.6962],[35.2913,49.6793],[35.3598,49.6684],[35.3813,49.6881],[35.4197,49.6863],[35.4282,49.6639],[35.4198,49.6373],[35.4751,49.5604],[35.3984,49.5548],[35.3962,49.5407],[35.4693,49.5005],[35.4194,49.4809],[35.3627,49.4907],[35.3267,49.4854],[35.3137,49.4678],[35.3306,49.4347],[35.3514,49.4266],[35.3606,49.392],[35.309,49.3421],[35.2633,49.3117],[35.1885,49.292],[35.0902,49.2972],[35.053,49.3162],[35.0246,49.3172],[34.9729,49.2806],[34.9549,49.2396],[34.9746,49.217],[34.9897,49.1775],[34.9839,49.1637],[34.9262,49.183],[34.8911,49.1483],[34.8573,49.1496],[34.8713,49.1687],[34.8367,49.1807],[34.7841,49.1746],[34.7265,49.146],[34.6098,49.1265],[34.4304,49.0746],[34.4083,49.0765],[34.4028,49.0501],[34.3505,49.0144],[34.3567,48.9861],[34.3252,48.9809],[34.3012,48.9639],[34.2743,48.9143],[34.2766,48.8884],[34.3127,48.8613],[34.3159,48.8396],[34.2782,48.8132],[34.2951,48.7844],[34.2375,48.7463],[34.162,48.7844],[34.1097,48.7902],[34.0749,48.805],[34.0402,48.8078],[33.9195,48.8658],[33.9179,48.8638],[33.8872,48.8234],[33.8501,48.7937],[33.8296,48.762],[33.811,48.762],[33.8039,48.7935],[33.7819,48.7802],[33.7713,48.8043],[33.7409,48.8032],[33.7213,48.7863],[33.6946,48.7872],[33.6828,48.8053],[33.6583,48.8062],[33.6194,48.7842],[33.5844,48.7945],[33.5576,48.772],[33.5661,48.7502],[33.6035,48.7203],[33.6594,48.7138],[33.6976,48.6999],[33.7565,48.6977],[33.7751,48.6789],[33.8211,48.6684],[33.7663,48.6457],[33.7225,48.6166],[33.6166,48.5828],[33.5804,48.5594],[33.5638,48.5637],[33.4777,48.541],[33.4492,48.5284],[33.4458,48.5001],[33.4845,48.4439],[33.4724,48.429],[33.487,48.4069],[33.5033,48.3066],[33.5259,48.2974],[33.5162,48.2427],[33.4705,48.228],[33.4564,48.2108],[33.3964,48.1732],[33.3571,48.1843],[33.2947,48.1408],[33.2758,48.1073],[33.257,48.1102],[33.2621,48.1425],[33.25,48.1746],[33.2383,48.1706],[33.2223,48.0904],[33.1871,48.0795],[33.1495,48.0817],[33.12,48.0698],[33.0879,48.039],[33.0575,48.0258],[33.0353,47.9665],[33.0461,47.9602],[33.0314,47.9257],[33.0691,47.911],[33.0823,47.8917],[33.0608,47.8309],[33.0603,47.7756],[33.0821,47.7501],[33.0834,47.7288],[33.0398,47.7261],[32.9838,47.71],[33.0143,47.6626],[33.0184,47.6319],[32.9917,47.6032],[33.0052,47.5917],[33.0893,47.5829],[33.1654,47.5685],[33.1934,47.5539],[33.2932,47.5357],[33.304,47.5136],[33.3335,47.4957],[33.3706,47.5155],[33.4767,47.5299],[33.5033,47.5671],[33.5629,47.5754],[33.5885,47.5569],[33.5753,47.5343],[33.5844,47.5147],[33.6302,47.5076],[33.6544,47.4868],[33.7525,47.491],[33.9018,47.5145],[34.0582,47.4807],[34.1575,47.4739],[34.2037,47.4784],[34.2304,47.4315],[34.2397,47.4098],[34,47.25],[33.7,47],[33.38,46.78],[33,46.7],[32.7,46.65],[32.55,46.61],[32.3,46.58],[31.9022,46.5701],[31.9022,46.575],[31.6988,46.575],[31.7024,46.5552],[31.5643,46.5552],[31.5301,46.575],[31.517,46.575]]]]}}
]}
