{"type":"FeatureCollection","features":[
{"type":"Feature","properties":{"entityId":"osroene","from":-131,"to":214,"certainty":"estimated","source":"유럽 쪽은 Natural Earth 1:10m admin-1(v5.1.2) 현대 행정구역 조각을 그 시기 국경에 맞춰 묶고, 조각이 역사 경계와 다른 곳은 선을 그어 나눈 근사. 유럽 밖(시베리아·중앙아시아·극동)은 대략적인 추정. 운영자 검수 필요"},"geometry":{"type":"Polygon","coordinates":[[[38.026,36.835],[38.0212,36.8711],[38.0406,36.8804],[38.0187,36.9042],[38.0079,36.9571],[37.9669,36.9904],[37.9641,37.014],[37.9788,37.05],[37.9226,37.0419],[37.8682,37.0776],[37.8762,37.1308],[37.8435,37.1866],[37.8525,37.2265],[37.8747,37.2133],[37.8669,37.2493],[37.8406,37.2679],[37.8577,37.3129],[37.879,37.3251],[37.8856,37.3506],[37.9744,37.4354],[37.9897,37.4447],[38.0399,37.446],[38.0655,37.4368],[38.0945,37.4535],[38.1256,37.4337],[38.1702,37.4255],[38.1857,37.4129],[38.2068,37.4535],[38.2499,37.4485],[38.272,37.4764],[38.3408,37.4944],[38.3723,37.4839],[38.4948,37.5006],[38.5154,37.5111],[38.6456,37.6242],[38.8685,37.6514],[38.8005,37.697],[38.836,37.6947],[38.8824,37.7149],[38.9231,37.7135],[38.8889,37.7408],[38.9018,37.7527],[38.9647,37.7613],[38.9539,37.8014],[38.9306,37.8075],[38.8889,37.7886],[38.9085,37.8168],[38.9368,37.8296],[38.9709,37.8228],[38.9709,37.8507],[38.9892,37.878],[38.9783,37.906],[39.0272,37.918],[39.0505,37.9397],[39.0603,37.9879],[39.0896,38.007],[39.1499,38.0207],[39.189,38.0431],[39.2675,38.0091],[39.3486,37.9989],[39.4079,37.997],[39.4626,37.9767],[39.5233,37.9261],[39.5888,37.883],[39.6527,37.8621],[39.6913,37.8339],[39.7385,37.8172],[39.7592,37.8424],[39.8128,37.8136],[39.8486,37.8019],[39.8632,37.7777],[39.8567,37.6694],[39.8843,37.5501],[39.9202,37.4695],[39.9537,37.4174],[40,37.3757],[40.0138,37.2575],[40.1249,37.1697],[40.1372,37.1486],[40.1275,37.069],[40.2179,36.9417],[40.2614,36.9228],[40.1901,36.8844],[40.1527,36.8704],[40.0792,36.8549],[39.9798,36.807],[39.7653,36.7422],[39.4417,36.6924],[39.2396,36.6613],[39.1859,36.6595],[39.0322,36.7012],[38.958,36.6929],[38.7954,36.6867],[38.725,36.6939],[38.6641,36.7195],[38.6352,36.744],[38.5294,36.8337],[38.48,36.8557],[38.2899,36.9017],[38.2243,36.9084],[38.1901,36.9055],[38.123,36.8846],[38.026,36.835]]]}}
]}
