{"type":"FeatureCollection","features":[
{"type":"Feature","properties":{"entityId":"paphlagonia-kingdom","from":-26,"to":-5,"certainty":"estimated","source":"유럽 쪽은 Natural Earth 1:10m admin-1(v5.1.2) 현대 행정구역 조각을 그 시기 국경에 맞춰 묶고, 조각이 역사 경계와 다른 곳은 선을 그어 나눈 근사. 유럽 밖(시베리아·중앙아시아·극동)은 대략적인 추정. 운영자 검수 필요"},"geometry":{"type":"Polygon","coordinates":[[[32.7903,41.8596],[32.9455,41.8923],[32.9667,41.8994],[33.0081,41.9173],[33.0586,41.93],[33.2839,42.0052],[33.2916,42.0062],[33.3245,42.019],[33.3609,42.0207],[33.3895,42.0168],[33.4818,42.0106],[33.5143,42.0185],[34.1518,42.027],[34.1995,42.0276],[34.1995,41.9925],[34.1995,41.9619],[34.2161,41.9601],[34.2209,41.9035],[34.1926,41.8451],[34.1422,41.8002],[34.1404,41.7671],[34.2051,41.7478],[34.2842,41.7453],[34.3443,41.7325],[34.4661,41.7275],[34.5325,41.7132],[34.5879,41.6575],[34.5533,41.5912],[34.4918,41.5523],[34.472,41.5185],[34.4629,41.4798],[34.4798,41.4416],[34.4719,41.3108],[34.4194,41.302],[34.3852,41.2643],[34.3574,41.2094],[34.2871,41.1572],[34.2522,41.0913],[34.2077,41.0393],[34.2264,41.0021],[34.2802,40.9691],[34.2564,40.9194],[34.1145,40.8747],[34.0272,40.8608],[34.0766,40.7982],[34.0442,40.7191],[34.0505,40.6763],[34.0746,40.6391],[34.0787,40.5687],[34.0914,40.5311],[34.1316,40.4749],[34.1502,40.423],[34.1336,40.3897],[34.0818,40.3102],[34.043,40.2999],[33.9642,40.2655],[33.8705,40.2723],[33.5952,40.3396],[33.4597,40.3736],[33.3982,40.3962],[33.36,40.3913],[33.3447,40.338],[33.2714,40.3311],[33.2056,40.3705],[33.1943,40.4048],[33.1726,40.4303],[33.0434,40.5018],[33.0104,40.5306],[32.9586,40.594],[32.6651,40.6979],[32.5862,40.7076],[32.5071,40.7052],[32.5262,40.7887],[32.6305,40.8256],[32.7483,40.8974],[32.7962,40.963],[32.8326,40.9792],[32.9295,40.9711],[33.0265,41.0115],[33.0692,41.093],[33.038,41.1289],[32.9858,41.147],[32.9297,41.1533],[32.9103,41.2606],[32.9194,41.2944],[32.9647,41.3411],[33.017,41.3804],[33.1154,41.3954],[33.0871,41.4439],[33.0589,41.5328],[32.9861,41.5732],[32.9131,41.5548],[32.8522,41.5477],[32.818,41.5764],[32.8085,41.6478],[32.873,41.6823],[32.8366,41.7551],[32.8083,41.7995],[32.7985,41.8597],[32.7903,41.8596]]]}}
]}
