{"type":"FeatureCollection","features":[
{"type":"Feature","properties":{"entityId":"pergamon-kingdom","from":-263,"to":-217,"certainty":"estimated","source":"유럽 쪽은 Natural Earth 1:10m admin-1(v5.1.2) 현대 행정구역 조각을 그 시기 국경에 맞춰 묶고, 조각이 역사 경계와 다른 곳은 선을 그어 나눈 근사. 유럽 밖(시베리아·중앙아시아·극동)은 대략적인 추정. 운영자 검수 필요"},"geometry":{"type":"Polygon","coordinates":[[[26.6753,38.78],[27.2517,38.78],[27.2608,38.792],[27.291,38.8166],[27.3094,38.8497],[27.3271,38.9249],[27.3821,38.9545],[27.4452,38.9744],[27.5101,39.0168],[27.5377,39.0413],[27.5453,39.0939],[27.5081,39.1478],[27.4918,39.1836],[27.4588,39.3037],[27.4201,39.3803],[27.3907,39.4247],[27.3475,39.4558],[27.291,39.4645],[27.1097,39.374],[27.05,39.3512],[26.9936,39.2908],[26.7787,39.17],[26.7844,39.1674],[26.7844,39.1552],[26.7208,39.1552],[26.7208,39.1372],[26.6815,39.1372],[26.6815,39.1074],[26.7208,39.1074],[26.7208,39.0479],[26.8009,38.9874],[26.8017,38.982],[26.6753,38.78]]]}},
{"type":"Feature","properties":{"entityId":"pergamon-kingdom","from":-217,"to":-187,"certainty":"estimated","source":"유럽 쪽은 Natural Earth 1:10m admin-1(v5.1.2) 현대 행정구역 조각을 그 시기 국경에 맞춰 묶고, 조각이 역사 경계와 다른 곳은 선을 그어 나눈 근사. 유럽 밖(시베리아·중앙아시아·극동)은 대략적인 추정. 운영자 검수 필요"},"geometry":{"type":"Polygon","coordinates":[[[26.07,39.4963],[26.0742,39.4745],[26.113,39.4592],[26.1528,39.4592],[26.1717,39.4631],[26.22,39.4265],[26.22,39.4364],[26.2683,39.4364],[26.2683,39.4205],[26.365,39.4205],[26.365,39.4375],[26.4617,39.4375],[26.4617,39.3987],[26.5101,39.3987],[26.5101,39.2619],[26.5584,39.2619],[26.5584,39.2264],[26.599,39.2264],[26.599,39.1967],[26.6396,39.1967],[26.6396,39.1669],[26.6421,39.1669],[26.6421,39.1372],[26.6815,39.1372],[26.6815,39.1074],[26.7208,39.1074],[26.7208,39.0479],[26.8009,38.9874],[26.8017,38.982],[26.6753,38.78],[27.2517,38.78],[27.2608,38.792],[27.291,38.8166],[27.3094,38.8497],[27.3271,38.9249],[27.3821,38.9545],[27.4452,38.9744],[27.5101,39.0168],[27.5377,39.0413],[27.5453,39.0939],[27.5081,39.1478],[27.4918,39.1836],[27.4588,39.3037],[27.4201,39.3803],[27.4966,39.4113],[27.5431,39.3948],[27.586,39.367],[27.6559,39.3517],[27.7264,39.3593],[27.7679,39.3566],[27.823,39.3396],[27.8712,39.3448],[27.8962,39.3134],[27.8659,39.2716],[27.8542,39.2364],[27.8933,39.2219],[27.968,39.2433],[28.0737,39.1527],[28.125,39.063],[28.171,39.0502],[28.2562,39.0711],[28.2936,39.0883],[28.3208,39.1163],[28.4047,39.1194],[28.4799,39.1306],[28.5721,39.1675],[28.6595,39.1566],[28.6578,39.204],[28.6667,39.238],[28.7787,39.2722],[28.8114,39.2906],[28.8497,39.3479],[28.896,39.3997],[28.9088,39.4707],[28.9408,39.5211],[28.947,39.5599],[28.9672,39.5891],[28.9122,39.6199],[28.8198,39.6145],[28.7803,39.6188],[28.7556,39.6483],[28.7116,39.6631],[28.6864,39.6995],[28.6891,39.7473],[28.6738,39.7641],[28.6258,39.7376],[28.5459,39.7452],[28.2814,39.8958],[28.2637,39.927],[28.246,39.9964],[28.227,40.0217],[28.1731,40.0509],[28.1358,40.0963],[28.1128,40.1533],[28.1253,40.1912],[28.149,40.2258],[28.1294,40.2581],[28.1064,40.263],[28.0989,40.2972],[28.1558,40.3364],[28.2081,40.3993],[28.2159,40.3996],[28.2159,40.4444],[28.177,40.4434],[28.138,40.4425],[28.06,40.4405],[27.985,40.4386],[28.0168,40.4511],[28.0344,40.4744],[28.0142,40.4912],[27.9699,40.503],[27.8047,40.5228],[27.7894,40.5142],[27.76,40.5371],[27.7332,40.5306],[27.6843,40.5023],[27.7258,40.4614],[27.7502,40.4576],[27.7563,40.4328],[27.589,40.4286],[27.5522,40.4276],[27.5154,40.4267],[27.4417,40.4248],[27.324,40.4219],[27.3034,40.4584],[27.2715,40.4678],[27.2377,40.4557],[27.1451,40.4537],[27.1431,40.4539],[27.126,40.4533],[27.1207,40.4532],[27.1206,40.4531],[27.0964,40.4523],[27.0333,40.4068],[27.0127,40.3959],[26.9204,40.3977],[26.8972,40.4062],[26.863,40.3999],[26.7534,40.403],[26.69,40.38],[26.62,40.33],[26.52,40.27],[26.44,40.21],[26.3982,40.164],[26.4035,40.139],[26.3936,40.1094],[26.3923,40.108],[26.3694,40.1029],[26.365,40.0787],[26.3143,40.0244],[26.2262,40.0015],[26.1978,40.0089],[26.1815,39.9898],[26.1811,39.9897],[26.1809,39.9891],[26.1677,39.9736],[26.1526,39.9426],[26.1565,39.9013],[26.1512,39.8823],[26.1364,39.8376],[26.1502,39.8292],[26.151,39.8031],[26.1406,39.7427],[26.1538,39.7207],[26.1556,39.6638],[26.1534,39.6524],[26.1272,39.6103],[26.1107,39.5979],[26.095,39.5486],[26.07,39.4963]]]}},
{"type":"Feature","properties":{"entityId":"pergamon-kingdom","from":-187,"to":-132,"certainty":"estimated","source":"유럽 쪽은 Natural Earth 1:10m admin-1(v5.1.2) 현대 행정구역 조각을 그 시기 국경에 맞춰 묶고, 조각이 역사 경계와 다른 곳은 선을 그어 나눈 근사. 유럽 밖(시베리아·중앙아시아·극동)은 대략적인 추정. 운영자 검수 필요"},"geometry":{"type":"MultiPolygon","coordinates":[[[[25.6633,40.1262],[25.7212,40.1048],[25.766,40.0972],[25.8563,40.1079],[25.9004,40.1227],[25.9678,40.1308],[26.0122,40.1461],[26.0122,40.1666],[25.9729,40.1532],[25.9728,40.1584],[25.9763,40.1785],[25.9762,40.1786],[25.9763,40.1789],[25.9725,40.1828],[25.9719,40.2211],[25.9382,40.2416],[25.9133,40.2413],[25.8947,40.236],[25.8751,40.2344],[25.7983,40.2124],[25.759,40.2067],[25.719,40.1872],[25.6862,40.1608],[25.6633,40.1262]]],[[[26.07,39.4963],[26.0742,39.4745],[26.113,39.4592],[26.1528,39.4592],[26.1717,39.4631],[26.22,39.4265],[26.22,39.4364],[26.2683,39.4364],[26.2683,39.4205],[26.365,39.4205],[26.365,39.4375],[26.4617,39.4375],[26.4617,39.3987],[26.5101,39.3987],[26.5101,39.2619],[26.5584,39.2619],[26.5584,39.2264],[26.599,39.2264],[26.599,39.1967],[26.6396,39.1967],[26.6396,39.1669],[26.6421,39.1669],[26.6421,39.1372],[26.6815,39.1372],[26.6815,39.1074],[26.7208,39.1074],[26.7208,39.0479],[26.8009,38.9874],[26.8017,38.982],[26.6753,38.78],[26.561,38.5972],[26.5558,38.6054],[26.5056,38.6527],[26.4656,38.6727],[26.4141,38.6794],[26.3563,38.6617],[26.3486,38.6213],[26.3758,38.5286],[26.4038,38.4875],[26.3879,38.4543],[26.4181,38.4649],[26.4294,38.4409],[26.4151,38.3682],[26.3435,38.37],[26.3431,38.37],[26.3219,38.3339],[26.3143,38.3367],[26.3211,38.3777],[26.3076,38.3579],[26.2941,38.3699],[26.2889,38.3406],[26.3076,38.3231],[26.2859,38.3187],[26.2654,38.2867],[26.2388,38.2958],[26.2346,38.2738],[26.2866,38.2611],[26.3286,38.2351],[26.3344,38.2351],[26.3179,38.2086],[26.3181,38.2085],[26.3179,38.2082],[26.5572,38.0264],[26.6768,37.9356],[26.6768,37.9377],[26.7964,37.9377],[26.7964,37.922],[27.0306,37.922],[27.0306,37.8922],[27.1185,37.8922],[27.1185,37.8324],[27.1477,37.8324],[27.1477,37.8025],[27.173,37.8025],[27.173,37.7753],[27.1445,37.7753],[27.1445,37.7428],[27.1161,37.7428],[27.1161,37.7157],[27.0876,37.7157],[27.0876,37.6892],[27.0591,37.6897],[27.0591,37.7067],[27.0306,37.7066],[27.0048,37.7066],[27.0048,37.6863],[27.0208,37.6742],[27.0115,37.6657],[27.0488,37.6501],[27.0507,37.6497],[27.206,37.3898],[27.2075,37.3764],[27.1908,37.3573],[27.2119,37.3573],[27.2334,37.344],[27.2801,37.266],[27.3291,37.266],[27.3291,37.3393],[27.3769,37.3393],[27.3769,37.4066],[27.4035,37.4126],[27.4811,37.5392],[27.5125,37.5531],[27.5458,37.5545],[27.6196,37.5244],[27.7,37.5149],[27.7704,37.4766],[27.8161,37.4708],[27.8613,37.4798],[27.9073,37.4799],[27.9497,37.4624],[28.0198,37.4598],[28.1414,37.4668],[28.1807,37.4924],[28.2161,37.5473],[28.2699,37.5774],[28.3426,37.5654],[28.4048,37.523],[28.4782,37.4917],[28.6089,37.4775],[28.6208,37.4605],[28.6174,37.4112],[28.6273,37.3825],[28.688,37.3747],[28.7353,37.3599],[28.765,37.3185],[28.7779,37.2721],[28.8115,37.2335],[28.8861,37.2249],[28.9283,37.1766],[29.0019,37.1497],[29.0618,37.1029],[29.0754,37.0655],[29.0902,36.9779],[29.1151,36.9581],[29.1699,36.9549],[29.2704,36.9116],[29.3044,36.9258],[29.3357,36.973],[29.3426,37.038],[29.3904,37.0686],[29.4134,37.0176],[29.3967,36.9597],[29.435,36.9474],[29.4834,36.9959],[29.604,37.0086],[29.6889,36.9143],[29.7445,36.9308],[29.7653,36.95],[30,36.95],[30.35,36.86],[30.6,36.75],[30.6028,36.6465],[30.6203,36.6781],[31.6999,36.6443],[31.8,36.578],[31.8,37.301],[31.5587,37.3407],[31.8154,37.2985],[31.8987,37.2552],[31.963,37.2076],[32.0331,37.1686],[32.0832,37.1266],[32.1279,37.0762],[32.2531,36.9869],[32.3235,36.9582],[32.3272,36.9276],[32.3016,36.9116],[32.2903,36.8814],[32.3053,36.8542],[32.3487,36.8412],[32.4264,36.8321],[32.4475,36.8083],[32.4632,36.7416],[32.4562,36.6734],[32.4906,36.6016],[32.5316,36.5338],[32.5587,36.5062],[32.632,36.4703],[32.6517,36.438],[32.7173,36.445],[32.7824,36.4316],[32.8425,36.4328],[32.8994,36.4533],[32.9582,36.4644],[33.0524,36.4666],[33.0762,36.4855],[33.1022,36.5535],[33.1318,36.5613],[33.2048,36.5344],[33.231,36.5607],[33.2068,36.5909],[33.1612,36.6185],[33.1084,36.6296],[33.0684,36.6632],[33.0435,36.6727],[33.0193,36.7283],[32.982,36.7716],[32.9795,36.8038],[33.0336,36.8141],[33.1079,36.8464],[33.1312,36.8211],[33.1673,36.8134],[33.1888,36.8426],[33.2007,36.8871],[33.2327,36.918],[33.27,36.928],[33.3719,36.988],[33.4132,36.9972],[33.54,37.0066],[33.6194,37.0318],[33.7021,37.0372],[33.7366,37.0287],[33.7975,37.0471],[33.8706,37.0577],[33.9668,37.1162],[34.0027,37.1288],[34.0786,37.133],[34.149,37.155],[34.1832,37.1879],[34.2105,37.2013],[34.2979,37.2254],[34.3539,37.248],[34.3986,37.2822],[34.4819,37.3089],[34.5001,37.3199],[34.5122,37.352],[34.4891,37.3949],[34.4272,37.4432],[34.3891,37.4865],[34.3941,37.5611],[34.4329,37.6086],[34.4568,37.6603],[34.4455,37.7171],[34.4128,37.7531],[34.3733,37.7835],[34.3005,37.8753],[34.2063,37.9099],[34.1731,37.9506],[34.1598,38.0023],[34.0849,38.0118],[34.0094,37.9981],[33.9321,37.9736],[33.8538,37.9578],[33.7746,37.9608],[33.6189,37.9521],[33.4997,37.9318],[33.4561,37.9332],[33.4155,37.9637],[33.3485,38.0292],[33.3251,38.1088],[33.3012,38.1271],[33.2647,38.2045],[33.2721,38.286],[33.294,38.3571],[33.3177,38.4098],[33.353,38.4526],[33.3675,38.5315],[33.3895,38.5649],[33.4474,38.6161],[33.4666,38.6436],[33.4449,38.6837],[33.4134,38.7197],[33.3662,38.7987],[33.3638,38.8568],[33.3796,38.9687],[33.3744,39.0226],[33.3206,39.1199],[33.2227,39.1752],[33.1661,39.1889],[33.1048,39.2221],[33.0624,39.2221],[33.0321,39.1755],[33.0236,39.1236],[33.0091,39.1051],[32.9658,39.1105],[32.908,39.1449],[32.86,39.1572],[32.7579,39.0921],[32.7218,39.0544],[32.6761,39.0338],[32.6015,39.0584],[32.538,39.0356],[32.4787,38.9972],[32.436,39],[32.3676,39.0413],[32.2823,39.0635],[32.2321,39.059],[32.127,39.0342],[32.0906,39.0435],[31.9482,39.1364],[31.8614,39.1714],[31.9383,39.2045],[31.9561,39.2255],[31.9999,39.2327],[32.0427,39.2751],[32.0358,39.3053],[32.0043,39.3223],[31.9833,39.3482],[31.9752,39.4049],[31.9905,39.4652],[31.9912,39.4959],[31.9651,39.5349],[31.9469,39.5865],[31.897,39.6206],[31.8473,39.7259],[31.8408,39.7758],[31.8817,39.8118],[31.8795,39.8383],[31.845,39.8761],[31.7823,39.8905],[31.757,39.9203],[31.7261,39.9941],[31.727,40.0235],[31.6812,40.0184],[31.6403,40.0401],[31.6041,40.03],[31.5315,40.0291],[31.4926,40.0221],[31.4598,40.0301],[31.4308,40.0236],[31.3891,40.0569],[31.3389,40.0483],[31.2469,40.0577],[31.1911,40.0241],[31.1399,40.0436],[31.0816,40.0481],[30.9865,40.0165],[30.9221,40.02],[30.9067,40.1006],[30.8636,40.1428],[30.7988,40.1509],[30.7386,40.1678],[30.6361,40.1646],[30.5554,40.1146],[30.5242,40.0116],[30.4907,39.9653],[30.4395,39.9362],[30.3852,39.9367],[30.3339,39.9197],[30.3016,39.8791],[30.2452,39.8497],[30.235,39.7477],[30.1917,39.6885],[30.1361,39.6388],[30.0241,39.6242],[29.9455,39.6076],[29.902,39.6166],[29.7911,39.6771],[29.7163,39.7093],[29.6658,39.7788],[29.6617,39.8211],[29.6777,39.9063],[29.6183,39.8924],[29.5544,39.8919],[29.4502,39.9235],[29.3995,39.8959],[29.3682,39.8133],[29.3478,39.7969],[29.3202,39.7172],[29.2742,39.6909],[29.2525,39.6458],[29.2461,39.5793],[29.1908,39.5521],[29.1193,39.5516],[29.0048,39.5661],[28.9672,39.5891],[28.9122,39.6199],[28.8198,39.6145],[28.7803,39.6188],[28.7556,39.6483],[28.7116,39.6631],[28.6864,39.6995],[28.6891,39.7473],[28.6738,39.7641],[28.6258,39.7376],[28.5459,39.7452],[28.2814,39.8958],[28.2637,39.927],[28.246,39.9964],[28.227,40.0217],[28.1731,40.0509],[28.1358,40.0963],[28.1128,40.1533],[28.1253,40.1912],[28.149,40.2258],[28.1294,40.2581],[28.1064,40.263],[28.0989,40.2972],[28.1558,40.3364],[28.2081,40.3993],[28.2159,40.3996],[28.2159,40.4444],[28.177,40.4434],[28.138,40.4425],[28.06,40.4405],[27.985,40.4386],[28.0168,40.4511],[28.0344,40.4744],[28.0142,40.4912],[27.9699,40.503],[27.8047,40.5228],[27.7894,40.5142],[27.76,40.5371],[27.7332,40.5306],[27.6843,40.5023],[27.7258,40.4614],[27.7502,40.4576],[27.7563,40.4328],[27.589,40.4286],[27.5522,40.4276],[27.5154,40.4267],[27.4417,40.4248],[27.324,40.4219],[27.3034,40.4584],[27.2715,40.4678],[27.2377,40.4557],[27.1451,40.4537],[27.1431,40.4539],[27.126,40.4533],[27.1207,40.4532],[27.1206,40.4531],[27.0964,40.4523],[27.0333,40.4068],[27.0127,40.3959],[26.9204,40.3977],[26.8972,40.4062],[26.863,40.3999],[26.7534,40.403],[26.7477,40.4032],[26.9017,40.5028],[26.9481,40.5328],[26.9944,40.5627],[26.9944,40.5686],[26.9635,40.561],[26.9319,40.6358],[26.9324,40.7149],[26.7864,40.7258],[26.7805,40.6594],[26.7704,40.6582],[26.7704,40.6006],[26.7119,40.6006],[26.7119,40.6154],[26.6827,40.6154],[26.6827,40.5803],[26.5948,40.5803],[26.5948,40.5768],[26.5656,40.5768],[26.5656,40.5472],[26.4777,40.5472],[26.4777,40.543],[26.4485,40.543],[26.4485,40.5176],[26.3606,40.5176],[26.3606,40.4985],[26.2475,40.4985],[26.2475,40.4662],[26.2097,40.4662],[26.2097,40.483],[26.172,40.483],[26.172,40.455],[26.1531,40.455],[26.172,40.4269],[26.2097,40.3709],[26.2323,40.3372],[26.21,40.3219],[26.2181,40.2969],[26.2531,40.2689],[26.2531,40.2479],[26.2602,40.2031],[26.247,40.1808],[26.2147,40.1461],[26.1902,40.0942],[26.1575,40.0553],[26.1776,40.0507],[26.2306,40.0649],[26.2731,40.0926],[26.328,40.1187],[26.3758,40.1535],[26.3702,40.1593],[26.3992,40.178],[26.3963,40.1728],[26.3982,40.164],[26.4035,40.139],[26.3936,40.1094],[26.3923,40.108],[26.3694,40.1029],[26.365,40.0787],[26.3143,40.0244],[26.2262,40.0015],[26.1978,40.0089],[26.1815,39.9898],[26.1811,39.9897],[26.1809,39.9891],[26.1677,39.9736],[26.1526,39.9426],[26.1565,39.9013],[26.1512,39.8823],[26.1364,39.8376],[26.1502,39.8292],[26.151,39.8031],[26.1406,39.7427],[26.1538,39.7207],[26.1556,39.6638],[26.1534,39.6524],[26.1272,39.6103],[26.1107,39.5979],[26.095,39.5486],[26.07,39.4963]]]]}}
]}
