{"type":"FeatureCollection","features":[
{"type":"Feature","properties":{"entityId":"poland-kingdom","from":1320,"to":1349,"certainty":"estimated","source":"유럽 쪽은 Natural Earth 1:10m admin-1(v5.1.2) 현대 행정구역 조각을 그 시기 국경에 맞춰 묶고, 조각이 역사 경계와 다른 곳은 선을 그어 나눈 근사. 유럽 밖(시베리아·중앙아시아·극동)은 대략적인 추정. 운영자 검수 필요"},"geometry":{"type":"Polygon","coordinates":[[[15.8257,52.6497],[15.8296,52.5938],[15.8649,52.5348],[15.885,52.4633],[15.8849,52.4333],[15.8366,52.4242],[15.899,52.3485],[15.9012,52.287],[15.8687,52.2281],[15.8498,52.169],[15.857,52.1037],[15.9079,52.0649],[15.963,52.0468],[16.0039,51.9896],[16.0394,51.9676],[16.0939,51.9718],[16.1105,51.9654],[16.0984,51.8917],[16.1132,51.8649],[16.1562,51.8467],[16.2015,51.8375],[16.2747,51.8682],[16.3399,51.8237],[16.3711,51.7492],[16.4585,51.7596],[16.4991,51.7529],[16.6118,51.7149],[16.6295,51.6897],[16.6328,51.6571],[16.6761,51.6095],[16.7731,51.5759],[16.8277,51.5383],[16.943,51.5127],[17.1496,51.5354],[17.1874,51.5889],[17.2293,51.5943],[17.3468,51.594],[17.4573,51.5751],[17.5566,51.535],[17.5328,51.4816],[17.4952,51.4503],[17.5007,51.407],[17.5239,51.3703],[17.583,51.3617],[17.6443,51.3694],[17.6824,51.3628],[17.7184,51.3447],[17.6902,51.3026],[17.7016,51.2],[17.7146,51.1502],[17.7492,51.1514],[17.7822,51.1407],[17.8012,51.0948],[17.8537,51.068],[17.9174,51.0658],[18.0358,51.0932],[18.1501,51.1361],[18.1726,51.1108],[18.202,51.0959],[18.4257,51.0596],[18.4964,51.0608],[18.5305,51.0826],[18.5806,51.0334],[18.6556,50.9952],[18.6356,50.9505],[18.68,50.93],[19.03,50.58],[19.1,50.3],[19.17,50.235],[19.19,50.2],[19.22,50.15],[19.23,50.08],[19.2,50.03],[19.2032,50.0294],[19.1679,50.0039],[19.1237,49.9537],[19.1124,49.9202],[19.1325,49.9032],[19.1591,49.9015],[19.1805,49.884],[19.1826,49.8506],[19.2125,49.816],[19.2635,49.8031],[19.2989,49.7483],[19.3688,49.7176],[19.4364,49.7099],[19.433,49.6836],[19.4074,49.6403],[19.4489,49.6004],[19.5052,49.5634],[19.5568,49.4539],[19.5948,49.4416],[19.6348,49.4413],[19.627,49.4019],[19.6845,49.3891],[19.7693,49.3931],[19.7836,49.3576],[19.7895,49.3092],[19.7832,49.29],[19.8068,49.2752],[19.7518,49.2191],[19.7607,49.1942],[19.832,49.1859],[19.8683,49.2008],[19.9059,49.2228],[19.9657,49.2157],[20.0173,49.1839],[20.0505,49.1732],[20.07,49.1831],[20.086,49.243],[20.1302,49.3039],[20.1604,49.3056],[20.2072,49.3342],[20.2844,49.3386],[20.3074,49.3866],[20.3295,49.3918],[20.3705,49.3817],[20.4221,49.383],[20.4375,49.4025],[20.5221,49.3744],[20.5677,49.3764],[20.6053,49.4],[20.6895,49.4005],[20.7783,49.3312],[20.8493,49.3205],[20.9006,49.2926],[20.9424,49.2959],[21.0172,49.3524],[21.0725,49.3572],[21.0685,49.3814],[21.0333,49.3997],[21.0535,49.4145],[21.1249,49.4237],[21.1726,49.3983],[21.2112,49.4111],[21.2425,49.4413],[21.2744,49.4473],[21.3304,49.4278],[21.4279,49.4098],[21.5144,49.4172],[21.6012,49.4265],[21.6663,49.4018],[21.6917,49.4022],[21.7576,49.3489],[21.7994,49.3748],[21.8196,49.3772],[21.8746,49.3484],[21.9284,49.3308],[21.9645,49.3086],[21.9932,49.2782],[22.0124,49.2111],[22.0408,49.1975],[22.1115,49.1886],[22.1557,49.1715],[22.198,49.172],[22.2159,49.14],[22.2629,49.1306],[22.3394,49.1265],[22.3901,49.093],[22.4268,49.0856],[22.505,49.0834],[22.5396,49.0722],[22.5808,49.0814],[22.6429,49.0432],[22.7553,49.0447],[22.784,49.0214],[22.8553,48.994],[22.865,49.0132],[22.8475,49.0337],[22.8534,49.0848],[22.7781,49.1203],[22.7488,49.1456],[22.7057,49.1688],[22.6817,49.1612],[22.7029,49.195],[22.7378,49.2754],[22.7242,49.3671],[22.7142,49.3906],[22.6796,49.4189],[22.6669,49.4784],[22.6409,49.5288],[22.6658,49.5674],[22.7417,49.6337],[22.7773,49.6805],[22.8266,49.6974],[22.8882,49.7697],[22.9244,49.7854],[22.9512,49.8266],[22.993,49.8544],[23.1015,49.9571],[23.1778,50.004],[23.2079,50.034],[23.4364,50.1935],[23.5653,50.2578],[23.6587,50.327],[23.6957,50.3768],[23.7475,50.3894],[23.9287,50.3908],[23.9813,50.4048],[24.0032,50.4377],[24.0107,50.4928],[24.075,50.5143],[24.1077,50.5408],[24.0954,50.5569],[24.0853,50.6044],[24.1082,50.6303],[24.0749,50.6902],[24.081,50.713],[24.0269,50.728],[24.0128,50.7433],[24.0259,50.767],[23.9743,50.7762],[23.9576,50.808],[23.9699,50.8252],[24.0205,50.8386],[24.0469,50.8291],[24.1309,50.8391],[24.1302,50.8689],[24.0469,50.898],[23.9793,50.9375],[23.9551,50.9836],[23.9117,51.0068],[23.9042,51.0627],[23.8545,51.1215],[23.8747,51.1361],[23.816,51.1788],[23.7652,51.199],[23.7427,51.2163],[23.6873,51.2924],[23.6352,51.3047],[23.634,51.3393],[23.6839,51.3703],[23.6789,51.3941],[23.6976,51.4044],[23.6487,51.454],[23.6628,51.4802],[23.6148,51.4972],[23.6062,51.5174],[23.5728,51.5397],[23.574,51.5553],[23.5399,51.6071],[23.5438,51.6438],[23.5324,51.659],[23.5604,51.672],[23.5466,51.7136],[23.5604,51.7545],[23.6175,51.7865],[23.6287,51.8098],[23.5946,51.8433],[23.6214,51.8956],[23.6222,51.9279],[23.6476,51.9741],[23.6764,51.9941],[23.6375,52.0845],[23.5794,52.1215],[23.5125,52.1244],[23.4847,52.1586],[23.4505,52.1859],[23.4367,52.1757],[23.3885,52.1842],[23.3958,52.1996],[23.2123,52.2317],[23.1897,52.2405],[23.1945,52.2715],[23.1761,52.2851],[23.1502,52.2816],[23.087,52.2923],[23.055,52.2554],[22.96,52.1693],[22.9313,52.1282],[22.8983,52.1021],[22.8593,52.0932],[22.7421,52.1303],[22.7012,52.1361],[22.6665,52.1178],[22.6553,52.0902],[22.5997,52.0623],[22.4898,52.0687],[22.4514,52.066],[22.3559,52.0219],[22.3208,52.0149],[22.2701,52.0208],[22.1332,52.004],[21.9884,52.0045],[21.9123,51.991],[21.8413,51.9584],[21.8476,51.9331],[21.8835,51.8789],[21.8875,51.8524],[21.9118,51.8152],[21.9468,51.7821],[21.8917,51.7614],[21.8532,51.7277],[21.9036,51.6796],[21.8969,51.6568],[21.872,51.6421],[21.8011,51.6266],[21.7282,51.6336],[21.6925,51.6427],[21.6563,51.6367],[21.6473,51.6009],[21.6748,51.5766],[21.7541,51.5618],[21.7962,51.5697],[21.8212,51.5626],[21.8262,51.5282],[21.8476,51.4984],[21.8324,51.4804],[21.8632,51.4784],[21.8622,51.4375],[21.8145,51.4047],[21.8124,51.3803],[21.8524,51.3504],[21.8342,51.2914],[21.836,51.2705],[21.8035,51.2484],[21.7716,51.1515],[21.7909,51.0936],[21.8154,51.0551],[21.4956,51.0132],[21.33,51.0458],[21.2531,51.05],[21.1847,51.078],[21.174,51.1099],[21.1441,51.1311],[21.1357,51.1647],[21.1055,51.1712],[21.0447,51.1268],[21.0117,51.1149],[20.8728,51.101],[20.7517,51.1168],[20.726,51.129],[20.6816,51.1669],[20.5169,51.2304],[20.4873,51.2775],[20.4321,51.2899],[20.4287,51.3194],[20.4414,51.3466],[20.5054,51.3841],[20.5222,51.4116],[20.5223,51.4437],[20.4725,51.4639],[20.4514,51.5428],[20.4216,51.5872],[20.4476,51.6435],[20.5255,51.6435],[20.5854,51.6234],[20.6581,51.6171],[20.6736,51.6574],[20.6583,51.6828],[20.6045,51.7177],[20.5952,51.7462],[20.6193,51.7796],[20.6129,51.796],[20.554,51.8448],[20.4816,51.8795],[20.4151,51.8985],[20.3091,51.891],[20.2731,51.8982],[20.2669,51.9332],[20.2162,51.9743],[20.2079,51.9955],[20.2413,52.0076],[20.2517,52.0577],[20.1988,52.0845],[20.1002,52.104],[20.0799,52.1318],[20.0638,52.1925],[19.9695,52.2207],[19.9182,52.2677],[19.881,52.2656],[19.8492,52.2456],[19.6414,52.2192],[19.5489,52.2651],[19.4975,52.2799],[19.3923,52.2935],[19.2959,52.3342],[19.3066,52.3681],[19.3805,52.4426],[19.3559,52.474],[19.3611,52.5124],[19.3877,52.5455],[19.455,52.6647],[19.4979,52.6717],[19.497,52.7048],[19.4404,52.7868],[19.4688,52.8204],[19.4739,52.8573],[19.4584,52.8983],[19.5073,52.8945],[19.5889,52.9451],[19.6458,52.9309],[19.6635,52.9872],[19.6487,53.0553],[19.6999,53.0698],[19.7479,53.0931],[19.7329,53.1846],[19.7096,53.22],[19.45,53.22],[19.3,53.18],[19.05,53.1],[18.95,53.0167],[18.95,52.93],[18.45,52.93],[18.45,53.1],[18.3,53.1],[18.1,53.13],[18.3,53.25],[18.42,53.35],[18.55,53.43],[18.72,53.52],[18.8046,53.6046],[18.7594,53.6252],[18.6779,53.6321],[18.583,53.6053],[18.4978,53.6354],[18.3179,53.6532],[18.2557,53.6942],[18.2205,53.696],[18.0511,53.681],[17.9241,53.6956],[17.8971,53.6832],[17.8564,53.6388],[17.7877,53.6236],[17.7556,53.6058],[17.7455,53.5573],[17.6832,53.5424],[17.5445,53.5639],[17.5076,53.5616],[17.4554,53.5069],[17.4252,53.444],[17.3972,53.4338],[17.3528,53.4656],[17.2993,53.4831],[17.0957,53.4881],[17.0372,53.5093],[16.9958,53.5529],[16.9477,53.5882],[16.8722,53.5946],[16.8365,53.5852],[16.7908,53.525],[16.7653,53.4612],[16.7351,53.4577],[16.5511,53.4606],[16.5285,53.4415],[16.5296,53.4017],[16.5451,53.366],[16.6078,53.3296],[16.6833,53.318],[16.7204,53.3064],[16.7516,53.2824],[16.7579,53.2537],[16.7036,53.2058],[16.6747,53.1893],[16.601,53.1755],[16.4562,53.1247],[16.3753,53.0482],[16.2788,52.9932],[16.2174,52.9787],[16.155,52.9736],[16.0938,52.9956],[16.0385,53.0067],[16.0186,52.9491],[16.0219,52.8853],[15.9246,52.8096],[15.9553,52.7923],[15.9768,52.7431],[15.9479,52.7198],[15.8311,52.6933],[15.8257,52.6497]]]}},
{"type":"Feature","properties":{"entityId":"poland-kingdom","from":1349,"to":1351,"certainty":"estimated","source":"유럽 쪽은 Natural Earth 1:10m admin-1(v5.1.2) 현대 행정구역 조각을 그 시기 국경에 맞춰 묶고, 조각이 역사 경계와 다른 곳은 선을 그어 나눈 근사. 유럽 밖(시베리아·중앙아시아·극동)은 대략적인 추정. 운영자 검수 필요"},"geometry":{"type":"Polygon","coordinates":[[[15.8257,52.6497],[15.8296,52.5938],[15.8649,52.5348],[15.885,52.4633],[15.8849,52.4333],[15.8366,52.4242],[15.899,52.3485],[15.9012,52.287],[15.8687,52.2281],[15.8498,52.169],[15.857,52.1037],[15.9079,52.0649],[15.963,52.0468],[16.0039,51.9896],[16.0394,51.9676],[16.0939,51.9718],[16.1105,51.9654],[16.0984,51.8917],[16.1132,51.8649],[16.1562,51.8467],[16.2015,51.8375],[16.2747,51.8682],[16.3399,51.8237],[16.3711,51.7492],[16.4585,51.7596],[16.4991,51.7529],[16.6118,51.7149],[16.6295,51.6897],[16.6328,51.6571],[16.6761,51.6095],[16.7731,51.5759],[16.8277,51.5383],[16.943,51.5127],[17.1496,51.5354],[17.1874,51.5889],[17.2293,51.5943],[17.3468,51.594],[17.4573,51.5751],[17.5566,51.535],[17.5328,51.4816],[17.4952,51.4503],[17.5007,51.407],[17.5239,51.3703],[17.583,51.3617],[17.6443,51.3694],[17.6824,51.3628],[17.7184,51.3447],[17.6902,51.3026],[17.7016,51.2],[17.7146,51.1502],[17.7492,51.1514],[17.7822,51.1407],[17.8012,51.0948],[17.8537,51.068],[17.9174,51.0658],[18.0358,51.0932],[18.1501,51.1361],[18.1726,51.1108],[18.202,51.0959],[18.4257,51.0596],[18.4964,51.0608],[18.5305,51.0826],[18.5806,51.0334],[18.6556,50.9952],[18.6356,50.9505],[18.68,50.93],[19.03,50.58],[19.1,50.3],[19.17,50.235],[19.19,50.2],[19.22,50.15],[19.23,50.08],[19.2,50.03],[19.2032,50.0294],[19.1679,50.0039],[19.1237,49.9537],[19.1124,49.9202],[19.1325,49.9032],[19.1591,49.9015],[19.1805,49.884],[19.1826,49.8506],[19.2125,49.816],[19.2635,49.8031],[19.2989,49.7483],[19.3688,49.7176],[19.4364,49.7099],[19.433,49.6836],[19.4074,49.6403],[19.4489,49.6004],[19.5052,49.5634],[19.5568,49.4539],[19.5948,49.4416],[19.6348,49.4413],[19.627,49.4019],[19.6845,49.3891],[19.7693,49.3931],[19.7836,49.3576],[19.7895,49.3092],[19.7832,49.29],[19.8068,49.2752],[19.7518,49.2191],[19.7607,49.1942],[19.832,49.1859],[19.8683,49.2008],[19.9059,49.2228],[19.9657,49.2157],[20.0173,49.1839],[20.0505,49.1732],[20.07,49.1831],[20.086,49.243],[20.1302,49.3039],[20.1604,49.3056],[20.2072,49.3342],[20.2844,49.3386],[20.3074,49.3866],[20.3295,49.3918],[20.3705,49.3817],[20.4221,49.383],[20.4375,49.4025],[20.5221,49.3744],[20.5677,49.3764],[20.6053,49.4],[20.6895,49.4005],[20.7783,49.3312],[20.8493,49.3205],[20.9006,49.2926],[20.9424,49.2959],[21.0172,49.3524],[21.0725,49.3572],[21.0685,49.3814],[21.0333,49.3997],[21.0535,49.4145],[21.1249,49.4237],[21.1726,49.3983],[21.2112,49.4111],[21.2425,49.4413],[21.2744,49.4473],[21.3304,49.4278],[21.4279,49.4098],[21.5144,49.4172],[21.6012,49.4265],[21.6663,49.4018],[21.6917,49.4022],[21.7576,49.3489],[21.7994,49.3748],[21.8196,49.3772],[21.8746,49.3484],[21.9284,49.3308],[21.9645,49.3086],[21.9932,49.2782],[22.0124,49.2111],[22.0408,49.1975],[22.1115,49.1886],[22.1557,49.1715],[22.198,49.172],[22.2159,49.14],[22.2629,49.1306],[22.3394,49.1265],[22.3901,49.093],[22.4268,49.0856],[22.505,49.0834],[22.5396,49.0722],[22.5808,49.0814],[22.6429,49.0432],[22.7553,49.0447],[22.784,49.0214],[22.8553,48.994],[22.865,49.0132],[22.9024,48.9833],[22.892,48.9354],[22.926,48.9041],[22.9612,48.8843],[22.9821,48.859],[23.0117,48.8547],[23.105,48.8713],[23.1376,48.8522],[23.1798,48.7903],[23.2016,48.7771],[23.2576,48.7722],[23.2982,48.7812],[23.3085,48.7502],[23.3505,48.772],[23.378,48.7371],[23.4458,48.7267],[23.4985,48.7312],[23.5329,48.7237],[23.6124,48.7038],[23.6745,48.6545],[23.709,48.643],[23.7715,48.6447],[23.7817,48.6034],[23.8471,48.5628],[23.8949,48.5496],[23.9168,48.5154],[23.9074,48.4887],[23.9427,48.4704],[24.0015,48.5001],[24.0462,48.5051],[24.1138,48.5322],[24.137,48.5275],[24.1407,48.4712],[24.1312,48.4345],[24.1408,48.3799],[24.1777,48.3546],[24.2341,48.3505],[24.2707,48.3572],[24.3054,48.3883],[24.3317,48.3748],[24.3458,48.3402],[24.3916,48.3311],[24.4949,48.2666],[24.5415,48.2128],[24.5216,48.1711],[24.5384,48.1345],[24.6068,48.0886],[24.6393,48.0476],[24.5882,47.9959],[24.5698,47.9373],[24.6085,47.9219],[24.6493,47.8952],[24.6615,47.8539],[24.7128,47.8259],[24.7937,47.8045],[24.8207,47.7841],[24.8778,47.7187],[24.9289,47.7139],[24.9341,47.7572],[24.9809,47.8284],[24.9826,47.8519],[24.9629,47.9125],[24.9348,47.9474],[24.9276,47.9896],[24.9345,48.0135],[24.9797,48.0707],[24.9892,48.1002],[25.0174,48.1186],[25.0545,48.1286],[25.1063,48.1695],[25.137,48.1793],[25.1364,48.2276],[25.1961,48.2568],[25.2926,48.3402],[25.3696,48.3802],[25.4474,48.4],[25.5132,48.4029],[25.5637,48.389],[25.5851,48.3929],[25.6004,48.4326],[25.6044,48.5324],[25.5777,48.5808],[25.565,48.621],[25.5724,48.6385],[25.6362,48.6781],[25.7151,48.6645],[25.7312,48.6352],[25.7533,48.6326],[25.7666,48.6576],[25.7935,48.6701],[25.8596,48.6187],[25.863,48.6008],[25.9116,48.5881],[25.9602,48.5964],[25.9856,48.6235],[26.0247,48.6214],[26.0491,48.6477],[26.0623,48.6284],[26.0526,48.5717],[26.0798,48.5473],[26.1172,48.5419],[26.1297,48.5546],[26.1058,48.5809],[26.1049,48.6111],[26.1458,48.5964],[26.1495,48.5396],[26.1809,48.5267],[26.2567,48.5334],[26.3266,48.5116],[26.3805,48.5171],[26.354,48.5616],[26.3689,48.5761],[26.3067,48.6056],[26.3163,48.6428],[26.285,48.6412],[26.2819,48.6616],[26.2355,48.685],[26.2513,48.7524],[26.2285,48.7792],[26.2642,48.8082],[26.2387,48.8188],[26.2143,48.847],[26.2229,48.8972],[26.1954,48.9],[26.2023,48.935],[26.1891,48.953],[26.1985,48.9845],[26.2212,49.0007],[26.1995,49.0413],[26.2284,49.0669],[26.2109,49.1191],[26.2218,49.148],[26.1992,49.1746],[26.2078,49.2273],[26.2417,49.2412],[26.2563,49.2936],[26.2344,49.3195],[26.2391,49.342],[26.2291,49.397],[26.1985,49.4153],[26.1484,49.5165],[26.1643,49.544],[26.2087,49.5669],[26.2239,49.62],[26.2,49.62],[26,49.75],[25.8,49.85],[25.6,49.92],[25.3898,49.9873],[25.4038,49.9797],[25.3727,49.9965],[25.3676,50.0131],[25.2959,50.0413],[25.2023,50.095],[25.1854,50.128],[25.1929,50.1816],[25.1677,50.22],[25.2075,50.2501],[25.1957,50.288],[25.1529,50.2925],[25.1041,50.2794],[25.0635,50.2948],[25.0638,50.3345],[25.0489,50.3473],[25.0039,50.3457],[24.9319,50.3702],[24.9114,50.3481],[24.8484,50.3549],[24.773,50.3405],[24.7052,50.3496],[24.6882,50.3767],[24.6394,50.3974],[24.6342,50.4134],[24.591,50.417],[24.5526,50.4384],[24.5418,50.4109],[24.5042,50.4106],[24.4988,50.4397],[24.4567,50.4614],[24.4634,50.4788],[24.5132,50.4867],[24.5354,50.5001],[24.5306,50.5241],[24.5008,50.5455],[24.4343,50.549],[24.4054,50.5674],[24.3795,50.6009],[24.3459,50.6089],[24.3214,50.5926],[24.2479,50.5818],[24.2179,50.5892],[24.1647,50.6402],[24.1259,50.6418],[24.1082,50.6303],[24.0749,50.6902],[24.081,50.713],[24.0269,50.728],[24.0128,50.7433],[24.0259,50.767],[23.9743,50.7762],[23.9576,50.808],[23.9699,50.8252],[24.0205,50.8386],[24.0469,50.8291],[24.1309,50.8391],[24.1302,50.8689],[24.0469,50.898],[23.9793,50.9375],[23.9551,50.9836],[23.9117,51.0068],[23.9042,51.0627],[23.8545,51.1215],[23.8747,51.1361],[23.816,51.1788],[23.7652,51.199],[23.7427,51.2163],[23.6873,51.2924],[23.6352,51.3047],[23.634,51.3393],[23.6839,51.3703],[23.6789,51.3941],[23.6976,51.4044],[23.6487,51.454],[23.6628,51.4802],[23.6148,51.4972],[23.6062,51.5174],[23.5728,51.5397],[23.574,51.5553],[23.5399,51.6071],[23.5438,51.6438],[23.5324,51.659],[23.5604,51.672],[23.5466,51.7136],[23.5604,51.7545],[23.6175,51.7865],[23.6287,51.8098],[23.5946,51.8433],[23.6214,51.8956],[23.6222,51.9279],[23.6476,51.9741],[23.6764,51.9941],[23.6375,52.0845],[23.5794,52.1215],[23.5125,52.1244],[23.4847,52.1586],[23.4505,52.1859],[23.4367,52.1757],[23.3885,52.1842],[23.3958,52.1996],[23.2123,52.2317],[23.1897,52.2405],[23.1945,52.2715],[23.1761,52.2851],[23.1502,52.2816],[23.087,52.2923],[23.055,52.2554],[22.96,52.1693],[22.9313,52.1282],[22.8983,52.1021],[22.8593,52.0932],[22.7421,52.1303],[22.7012,52.1361],[22.6665,52.1178],[22.6553,52.0902],[22.5997,52.0623],[22.4898,52.0687],[22.4514,52.066],[22.3559,52.0219],[22.3208,52.0149],[22.2701,52.0208],[22.1332,52.004],[21.9884,52.0045],[21.9123,51.991],[21.8413,51.9584],[21.8476,51.9331],[21.8835,51.8789],[21.8875,51.8524],[21.9118,51.8152],[21.9468,51.7821],[21.8917,51.7614],[21.8532,51.7277],[21.9036,51.6796],[21.8969,51.6568],[21.872,51.6421],[21.8011,51.6266],[21.7282,51.6336],[21.6925,51.6427],[21.6563,51.6367],[21.6473,51.6009],[21.6748,51.5766],[21.7541,51.5618],[21.7962,51.5697],[21.8212,51.5626],[21.8262,51.5282],[21.8476,51.4984],[21.8324,51.4804],[21.8632,51.4784],[21.8622,51.4375],[21.8145,51.4047],[21.8124,51.3803],[21.8524,51.3504],[21.8342,51.2914],[21.836,51.2705],[21.8035,51.2484],[21.7716,51.1515],[21.7909,51.0936],[21.8154,51.0551],[21.4956,51.0132],[21.33,51.0458],[21.2531,51.05],[21.1847,51.078],[21.174,51.1099],[21.1441,51.1311],[21.1357,51.1647],[21.1055,51.1712],[21.0447,51.1268],[21.0117,51.1149],[20.8728,51.101],[20.7517,51.1168],[20.726,51.129],[20.6816,51.1669],[20.5169,51.2304],[20.4873,51.2775],[20.4321,51.2899],[20.4287,51.3194],[20.4414,51.3466],[20.5054,51.3841],[20.5222,51.4116],[20.5223,51.4437],[20.4725,51.4639],[20.4514,51.5428],[20.4216,51.5872],[20.4476,51.6435],[20.5255,51.6435],[20.5854,51.6234],[20.6581,51.6171],[20.6736,51.6574],[20.6583,51.6828],[20.6045,51.7177],[20.5952,51.7462],[20.6193,51.7796],[20.6129,51.796],[20.554,51.8448],[20.4816,51.8795],[20.4151,51.8985],[20.3091,51.891],[20.2731,51.8982],[20.2669,51.9332],[20.2162,51.9743],[20.2079,51.9955],[20.2413,52.0076],[20.2517,52.0577],[20.1988,52.0845],[20.1002,52.104],[20.0799,52.1318],[20.0638,52.1925],[19.9695,52.2207],[19.9182,52.2677],[19.881,52.2656],[19.8492,52.2456],[19.6414,52.2192],[19.5489,52.2651],[19.4975,52.2799],[19.3923,52.2935],[19.2959,52.3342],[19.3066,52.3681],[19.3805,52.4426],[19.3559,52.474],[19.3611,52.5124],[19.3877,52.5455],[19.455,52.6647],[19.4979,52.6717],[19.497,52.7048],[19.4404,52.7868],[19.4688,52.8204],[19.4739,52.8573],[19.4584,52.8983],[19.5073,52.8945],[19.5889,52.9451],[19.6458,52.9309],[19.6635,52.9872],[19.6487,53.0553],[19.6999,53.0698],[19.7479,53.0931],[19.7329,53.1846],[19.7096,53.22],[19.45,53.22],[19.3,53.18],[19.05,53.1],[18.95,53.0167],[18.95,52.93],[18.45,52.93],[18.45,53.1],[18.3,53.1],[18.1,53.13],[18.3,53.25],[18.42,53.35],[18.55,53.43],[18.72,53.52],[18.8046,53.6046],[18.7594,53.6252],[18.6779,53.6321],[18.583,53.6053],[18.4978,53.6354],[18.3179,53.6532],[18.2557,53.6942],[18.2205,53.696],[18.0511,53.681],[17.9241,53.6956],[17.8971,53.6832],[17.8564,53.6388],[17.7877,53.6236],[17.7556,53.6058],[17.7455,53.5573],[17.6832,53.5424],[17.5445,53.5639],[17.5076,53.5616],[17.4554,53.5069],[17.4252,53.444],[17.3972,53.4338],[17.3528,53.4656],[17.2993,53.4831],[17.0957,53.4881],[17.0372,53.5093],[16.9958,53.5529],[16.9477,53.5882],[16.8722,53.5946],[16.8365,53.5852],[16.7908,53.525],[16.7653,53.4612],[16.7351,53.4577],[16.5511,53.4606],[16.5285,53.4415],[16.5296,53.4017],[16.5451,53.366],[16.6078,53.3296],[16.6833,53.318],[16.7204,53.3064],[16.7516,53.2824],[16.7579,53.2537],[16.7036,53.2058],[16.6747,53.1893],[16.601,53.1755],[16.4562,53.1247],[16.3753,53.0482],[16.2788,52.9932],[16.2174,52.9787],[16.155,52.9736],[16.0938,52.9956],[16.0385,53.0067],[16.0186,52.9491],[16.0219,52.8853],[15.9246,52.8096],[15.9553,52.7923],[15.9768,52.7431],[15.9479,52.7198],[15.8311,52.6933],[15.8257,52.6497]]]}},
{"type":"Feature","properties":{"entityId":"poland-kingdom","from":1351,"to":1372,"certainty":"estimated","source":"유럽 쪽은 Natural Earth 1:10m admin-1(v5.1.2) 현대 행정구역 조각을 그 시기 국경에 맞춰 묶고, 조각이 역사 경계와 다른 곳은 선을 그어 나눈 근사. 유럽 밖(시베리아·중앙아시아·극동)은 대략적인 추정. 운영자 검수 필요"},"geometry":{"type":"Polygon","coordinates":[[[15.8257,52.6497],[15.8296,52.5938],[15.8649,52.5348],[15.885,52.4633],[15.8849,52.4333],[15.8366,52.4242],[15.899,52.3485],[15.9012,52.287],[15.8687,52.2281],[15.8498,52.169],[15.857,52.1037],[15.9079,52.0649],[15.963,52.0468],[16.0039,51.9896],[16.0394,51.9676],[16.0939,51.9718],[16.1105,51.9654],[16.0984,51.8917],[16.1132,51.8649],[16.1562,51.8467],[16.2015,51.8375],[16.2747,51.8682],[16.3399,51.8237],[16.3711,51.7492],[16.4585,51.7596],[16.4991,51.7529],[16.6118,51.7149],[16.6295,51.6897],[16.6328,51.6571],[16.6761,51.6095],[16.7731,51.5759],[16.8277,51.5383],[16.943,51.5127],[17.1496,51.5354],[17.1874,51.5889],[17.2293,51.5943],[17.3468,51.594],[17.4573,51.5751],[17.5566,51.535],[17.5328,51.4816],[17.4952,51.4503],[17.5007,51.407],[17.5239,51.3703],[17.583,51.3617],[17.6443,51.3694],[17.6824,51.3628],[17.7184,51.3447],[17.6902,51.3026],[17.7016,51.2],[17.7146,51.1502],[17.7492,51.1514],[17.7822,51.1407],[17.8012,51.0948],[17.8537,51.068],[17.9174,51.0658],[18.0358,51.0932],[18.1501,51.1361],[18.1726,51.1108],[18.202,51.0959],[18.4257,51.0596],[18.4964,51.0608],[18.5305,51.0826],[18.5806,51.0334],[18.6556,50.9952],[18.6356,50.9505],[18.68,50.93],[19.03,50.58],[19.1,50.3],[19.17,50.235],[19.19,50.2],[19.22,50.15],[19.23,50.08],[19.2,50.03],[19.2032,50.0294],[19.1679,50.0039],[19.1237,49.9537],[19.1124,49.9202],[19.1325,49.9032],[19.1591,49.9015],[19.1805,49.884],[19.1826,49.8506],[19.2125,49.816],[19.2635,49.8031],[19.2989,49.7483],[19.3688,49.7176],[19.4364,49.7099],[19.433,49.6836],[19.4074,49.6403],[19.4489,49.6004],[19.5052,49.5634],[19.5568,49.4539],[19.5948,49.4416],[19.6348,49.4413],[19.627,49.4019],[19.6845,49.3891],[19.7693,49.3931],[19.7836,49.3576],[19.7895,49.3092],[19.7832,49.29],[19.8068,49.2752],[19.7518,49.2191],[19.7607,49.1942],[19.832,49.1859],[19.8683,49.2008],[19.9059,49.2228],[19.9657,49.2157],[20.0173,49.1839],[20.0505,49.1732],[20.07,49.1831],[20.086,49.243],[20.1302,49.3039],[20.1604,49.3056],[20.2072,49.3342],[20.2844,49.3386],[20.3074,49.3866],[20.3295,49.3918],[20.3705,49.3817],[20.4221,49.383],[20.4375,49.4025],[20.5221,49.3744],[20.5677,49.3764],[20.6053,49.4],[20.6895,49.4005],[20.7783,49.3312],[20.8493,49.3205],[20.9006,49.2926],[20.9424,49.2959],[21.0172,49.3524],[21.0725,49.3572],[21.0685,49.3814],[21.0333,49.3997],[21.0535,49.4145],[21.1249,49.4237],[21.1726,49.3983],[21.2112,49.4111],[21.2425,49.4413],[21.2744,49.4473],[21.3304,49.4278],[21.4279,49.4098],[21.5144,49.4172],[21.6012,49.4265],[21.6663,49.4018],[21.6917,49.4022],[21.7576,49.3489],[21.7994,49.3748],[21.8196,49.3772],[21.8746,49.3484],[21.9284,49.3308],[21.9645,49.3086],[21.9932,49.2782],[22.0124,49.2111],[22.0408,49.1975],[22.1115,49.1886],[22.1557,49.1715],[22.198,49.172],[22.2159,49.14],[22.2629,49.1306],[22.3394,49.1265],[22.3901,49.093],[22.4268,49.0856],[22.505,49.0834],[22.5396,49.0722],[22.5808,49.0814],[22.6429,49.0432],[22.7553,49.0447],[22.784,49.0214],[22.8553,48.994],[22.865,49.0132],[22.9024,48.9833],[22.892,48.9354],[22.926,48.9041],[22.9612,48.8843],[22.9821,48.859],[23.0117,48.8547],[23.105,48.8713],[23.1376,48.8522],[23.1798,48.7903],[23.2016,48.7771],[23.2576,48.7722],[23.2982,48.7812],[23.3085,48.7502],[23.3505,48.772],[23.378,48.7371],[23.4458,48.7267],[23.4985,48.7312],[23.5329,48.7237],[23.6124,48.7038],[23.6745,48.6545],[23.709,48.643],[23.7715,48.6447],[23.7817,48.6034],[23.8471,48.5628],[23.8949,48.5496],[23.9168,48.5154],[23.9074,48.4887],[23.9427,48.4704],[24.0015,48.5001],[24.0462,48.5051],[24.1138,48.5322],[24.137,48.5275],[24.1407,48.4712],[24.1312,48.4345],[24.1408,48.3799],[24.1777,48.3546],[24.2341,48.3505],[24.2707,48.3572],[24.3054,48.3883],[24.3317,48.3748],[24.3458,48.3402],[24.3916,48.3311],[24.4949,48.2666],[24.5415,48.2128],[24.5216,48.1711],[24.5384,48.1345],[24.6068,48.0886],[24.6393,48.0476],[24.5882,47.9959],[24.5698,47.9373],[24.6085,47.9219],[24.6493,47.8952],[24.6615,47.8539],[24.7128,47.8259],[24.7937,47.8045],[24.8207,47.7841],[24.8778,47.7187],[24.9289,47.7139],[24.9341,47.7572],[24.9809,47.8284],[24.9826,47.8519],[24.9629,47.9125],[24.9348,47.9474],[24.9276,47.9896],[24.9345,48.0135],[24.9797,48.0707],[24.9892,48.1002],[25.0174,48.1186],[25.0545,48.1286],[25.1063,48.1695],[25.137,48.1793],[25.1364,48.2276],[25.1961,48.2568],[25.2926,48.3402],[25.3696,48.3802],[25.4474,48.4],[25.5132,48.4029],[25.5637,48.389],[25.5851,48.3929],[25.6004,48.4326],[25.6044,48.5324],[25.5777,48.5808],[25.565,48.621],[25.5724,48.6385],[25.6362,48.6781],[25.7151,48.6645],[25.7312,48.6352],[25.7533,48.6326],[25.7666,48.6576],[25.7935,48.6701],[25.8596,48.6187],[25.863,48.6008],[25.9116,48.5881],[25.9602,48.5964],[25.9856,48.6235],[26.0247,48.6214],[26.0491,48.6477],[26.0623,48.6284],[26.0526,48.5717],[26.0798,48.5473],[26.1172,48.5419],[26.1297,48.5546],[26.1058,48.5809],[26.1049,48.6111],[26.1458,48.5964],[26.1495,48.5396],[26.1809,48.5267],[26.2567,48.5334],[26.3266,48.5116],[26.3805,48.5171],[26.354,48.5616],[26.3689,48.5761],[26.3067,48.6056],[26.3163,48.6428],[26.285,48.6412],[26.2819,48.6616],[26.2355,48.685],[26.2513,48.7524],[26.2285,48.7792],[26.2642,48.8082],[26.2387,48.8188],[26.2143,48.847],[26.2229,48.8972],[26.1954,48.9],[26.2023,48.935],[26.1891,48.953],[26.1985,48.9845],[26.2212,49.0007],[26.1995,49.0413],[26.2284,49.0669],[26.2109,49.1191],[26.2218,49.148],[26.1992,49.1746],[26.2078,49.2273],[26.2417,49.2412],[26.2563,49.2936],[26.2344,49.3195],[26.2391,49.342],[26.2291,49.397],[26.1985,49.4153],[26.1484,49.5165],[26.1643,49.544],[26.2087,49.5669],[26.2239,49.62],[26.2,49.62],[26,49.75],[25.8,49.85],[25.6,49.92],[25.3898,49.9873],[25.4038,49.9797],[25.3727,49.9965],[25.3676,50.0131],[25.2959,50.0413],[25.2023,50.095],[25.1854,50.128],[25.1929,50.1816],[25.1677,50.22],[25.2075,50.2501],[25.1957,50.288],[25.1529,50.2925],[25.1041,50.2794],[25.0635,50.2948],[25.0638,50.3345],[25.0489,50.3473],[25.0039,50.3457],[24.9319,50.3702],[24.9114,50.3481],[24.8484,50.3549],[24.773,50.3405],[24.7052,50.3496],[24.6882,50.3767],[24.6394,50.3974],[24.6342,50.4134],[24.591,50.417],[24.5526,50.4384],[24.5418,50.4109],[24.5042,50.4106],[24.4988,50.4397],[24.4567,50.4614],[24.4634,50.4788],[24.5132,50.4867],[24.5354,50.5001],[24.5306,50.5241],[24.5008,50.5455],[24.4343,50.549],[24.4054,50.5674],[24.3795,50.6009],[24.3459,50.6089],[24.3214,50.5926],[24.2479,50.5818],[24.2179,50.5892],[24.1647,50.6402],[24.1259,50.6418],[24.1082,50.6303],[24.0749,50.6902],[24.081,50.713],[24.0269,50.728],[24.0128,50.7433],[24.0259,50.767],[23.9743,50.7762],[23.9576,50.808],[23.9699,50.8252],[24.0205,50.8386],[24.0469,50.8291],[24.1309,50.8391],[24.1302,50.8689],[24.0469,50.898],[23.9793,50.9375],[23.9551,50.9836],[23.9117,51.0068],[23.9042,51.0627],[23.8545,51.1215],[23.8747,51.1361],[23.816,51.1788],[23.7652,51.199],[23.7427,51.2163],[23.6873,51.2924],[23.6352,51.3047],[23.634,51.3393],[23.6839,51.3703],[23.6789,51.3941],[23.6976,51.4044],[23.6487,51.454],[23.6628,51.4802],[23.6148,51.4972],[23.6062,51.5174],[23.5728,51.5397],[23.574,51.5553],[23.5399,51.6071],[23.5438,51.6438],[23.5324,51.659],[23.5604,51.672],[23.5466,51.7136],[23.5604,51.7545],[23.6175,51.7865],[23.6287,51.8098],[23.5946,51.8433],[23.6214,51.8956],[23.6222,51.9279],[23.6476,51.9741],[23.6764,51.9941],[23.6375,52.0845],[23.5794,52.1215],[23.5125,52.1244],[23.4847,52.1586],[23.4505,52.1859],[23.4367,52.1757],[23.3885,52.1842],[23.3958,52.1996],[23.2123,52.2317],[23.1897,52.2405],[23.1945,52.2715],[23.1761,52.2851],[23.1502,52.2816],[23.087,52.2923],[23.039,52.2892],[23.0521,52.3096],[23.0058,52.337],[22.9845,52.3301],[22.9751,52.3528],[22.9228,52.3723],[22.8446,52.3656],[22.689,52.3854],[22.6119,52.3873],[22.5627,52.4041],[22.5388,52.4294],[22.5448,52.4625],[22.5198,52.4733],[22.5114,52.4946],[22.5151,52.5151],[22.5176,52.5294],[22.4119,52.6006],[22.4118,52.6597],[22.3997,52.695],[22.3942,52.7413],[22.4,52.75],[22.5,53.05],[22.42,53.19],[22.74,53.49],[23.1,53.68],[23.4,53.75],[23.4863,53.9227],[23.4856,53.9393],[23.4904,53.9506],[23.4629,53.9725],[23.4593,53.9923],[23.4965,54.022],[23.4962,54.0446],[23.4739,54.1126],[23.4325,54.1693],[23.3823,54.1879],[23.336,54.2263],[23.316,54.2363],[23.2354,54.2542],[23.1171,54.3035],[23.0501,54.2948],[23.0321,54.3096],[23.0416,54.341],[22.9897,54.3534],[22.9733,54.3754],[22.9188,54.3811],[22.8589,54.3992],[22.8113,54.3926],[22.7887,54.3366],[22.7317,54.3017],[22.6653,54.2753],[22.4422,54.257],[22.3481,54.1786],[22.4491,54.0992],[22.4652,54.0417],[22.516,54.0124],[22.6221,53.9248],[22.6185,53.8782],[22.5779,53.8322],[22.543,53.7739],[22.4856,53.7379],[22.207,53.6352],[22.1099,53.5699],[21.9373,53.4993],[21.8626,53.4927],[21.8016,53.4708],[21.7388,53.4576],[21.5957,53.4626],[21.523,53.4435],[21.402,53.4379],[21.3774,53.4299],[21.3488,53.3961],[21.308,53.3788],[21.2626,53.3746],[21.1737,53.3796],[21.0979,53.3256],[21.0079,53.3084],[20.9123,53.3086],[20.8391,53.2834],[20.7756,53.2754],[20.704,53.2759],[20.6346,53.2346],[20.4948,53.1861],[20.4198,53.182],[20.3889,53.1675],[20.3719,53.1337],[20.3158,53.1063],[20.2406,53.098],[19.9248,53.1273],[19.8768,53.1511],[19.8371,53.1437],[19.8112,53.1129],[19.7479,53.0931],[19.7329,53.1846],[19.7096,53.22],[19.45,53.22],[19.3,53.18],[19.05,53.1],[18.95,53.0167],[18.95,52.93],[18.45,52.93],[18.45,53.1],[18.3,53.1],[18.1,53.13],[18.3,53.25],[18.42,53.35],[18.55,53.43],[18.72,53.52],[18.8046,53.6046],[18.7594,53.6252],[18.6779,53.6321],[18.583,53.6053],[18.4978,53.6354],[18.3179,53.6532],[18.2557,53.6942],[18.2205,53.696],[18.0511,53.681],[17.9241,53.6956],[17.8971,53.6832],[17.8564,53.6388],[17.7877,53.6236],[17.7556,53.6058],[17.7455,53.5573],[17.6832,53.5424],[17.5445,53.5639],[17.5076,53.5616],[17.4554,53.5069],[17.4252,53.444],[17.3972,53.4338],[17.3528,53.4656],[17.2993,53.4831],[17.0957,53.4881],[17.0372,53.5093],[16.9958,53.5529],[16.9477,53.5882],[16.8722,53.5946],[16.8365,53.5852],[16.7908,53.525],[16.7653,53.4612],[16.7351,53.4577],[16.5511,53.4606],[16.5285,53.4415],[16.5296,53.4017],[16.5451,53.366],[16.6078,53.3296],[16.6833,53.318],[16.7204,53.3064],[16.7516,53.2824],[16.7579,53.2537],[16.7036,53.2058],[16.6747,53.1893],[16.601,53.1755],[16.4562,53.1247],[16.3753,53.0482],[16.2788,52.9932],[16.2174,52.9787],[16.155,52.9736],[16.0938,52.9956],[16.0385,53.0067],[16.0186,52.9491],[16.0219,52.8853],[15.9246,52.8096],[15.9553,52.7923],[15.9768,52.7431],[15.9479,52.7198],[15.8311,52.6933],[15.8257,52.6497]]]}},
{"type":"Feature","properties":{"entityId":"poland-kingdom","from":1372,"to":1387,"certainty":"estimated","source":"유럽 쪽은 Natural Earth 1:10m admin-1(v5.1.2) 현대 행정구역 조각을 그 시기 국경에 맞춰 묶고, 조각이 역사 경계와 다른 곳은 선을 그어 나눈 근사. 유럽 밖(시베리아·중앙아시아·극동)은 대략적인 추정. 운영자 검수 필요"},"geometry":{"type":"Polygon","coordinates":[[[15.8257,52.6497],[15.8296,52.5938],[15.8649,52.5348],[15.885,52.4633],[15.8849,52.4333],[15.8366,52.4242],[15.899,52.3485],[15.9012,52.287],[15.8687,52.2281],[15.8498,52.169],[15.857,52.1037],[15.9079,52.0649],[15.963,52.0468],[16.0039,51.9896],[16.0394,51.9676],[16.0939,51.9718],[16.1105,51.9654],[16.0984,51.8917],[16.1132,51.8649],[16.1562,51.8467],[16.2015,51.8375],[16.2747,51.8682],[16.3399,51.8237],[16.3711,51.7492],[16.4585,51.7596],[16.4991,51.7529],[16.6118,51.7149],[16.6295,51.6897],[16.6328,51.6571],[16.6761,51.6095],[16.7731,51.5759],[16.8277,51.5383],[16.943,51.5127],[17.1496,51.5354],[17.1874,51.5889],[17.2293,51.5943],[17.3468,51.594],[17.4573,51.5751],[17.5566,51.535],[17.5328,51.4816],[17.4952,51.4503],[17.5007,51.407],[17.5239,51.3703],[17.583,51.3617],[17.6443,51.3694],[17.6824,51.3628],[17.7184,51.3447],[17.6902,51.3026],[17.7016,51.2],[17.7146,51.1502],[17.7492,51.1514],[17.7822,51.1407],[17.8012,51.0948],[17.8537,51.068],[17.9174,51.0658],[18.0358,51.0932],[18.1501,51.1361],[18.1726,51.1108],[18.202,51.0959],[18.4257,51.0596],[18.4964,51.0608],[18.5305,51.0826],[18.5806,51.0334],[18.6556,50.9952],[18.6356,50.9505],[18.68,50.93],[19.03,50.58],[19.1,50.3],[19.17,50.235],[19.19,50.2],[19.22,50.15],[19.23,50.08],[19.2,50.03],[19.2032,50.0294],[19.1679,50.0039],[19.1237,49.9537],[19.1124,49.9202],[19.1325,49.9032],[19.1591,49.9015],[19.1805,49.884],[19.1826,49.8506],[19.2125,49.816],[19.2635,49.8031],[19.2989,49.7483],[19.3688,49.7176],[19.4364,49.7099],[19.433,49.6836],[19.4074,49.6403],[19.4489,49.6004],[19.5052,49.5634],[19.5568,49.4539],[19.5948,49.4416],[19.6348,49.4413],[19.627,49.4019],[19.6845,49.3891],[19.7693,49.3931],[19.7836,49.3576],[19.7895,49.3092],[19.7832,49.29],[19.8068,49.2752],[19.7518,49.2191],[19.7607,49.1942],[19.832,49.1859],[19.8683,49.2008],[19.9059,49.2228],[19.9657,49.2157],[20.0173,49.1839],[20.0505,49.1732],[20.07,49.1831],[20.086,49.243],[20.1302,49.3039],[20.1604,49.3056],[20.2072,49.3342],[20.2844,49.3386],[20.3074,49.3866],[20.3295,49.3918],[20.3705,49.3817],[20.4221,49.383],[20.4375,49.4025],[20.5221,49.3744],[20.5677,49.3764],[20.6053,49.4],[20.6895,49.4005],[20.7783,49.3312],[20.8493,49.3205],[20.9006,49.2926],[20.9424,49.2959],[21.0172,49.3524],[21.0725,49.3572],[21.0685,49.3814],[21.0333,49.3997],[21.0535,49.4145],[21.1249,49.4237],[21.1726,49.3983],[21.2112,49.4111],[21.2425,49.4413],[21.2744,49.4473],[21.3304,49.4278],[21.4279,49.4098],[21.5144,49.4172],[21.6012,49.4265],[21.6663,49.4018],[21.6917,49.4022],[21.7576,49.3489],[21.7994,49.3748],[21.8196,49.3772],[21.8746,49.3484],[21.9284,49.3308],[21.9645,49.3086],[21.9932,49.2782],[22.0124,49.2111],[22.0408,49.1975],[22.1115,49.1886],[22.1557,49.1715],[22.198,49.172],[22.2159,49.14],[22.2629,49.1306],[22.3394,49.1265],[22.3901,49.093],[22.4268,49.0856],[22.505,49.0834],[22.5396,49.0722],[22.5808,49.0814],[22.6429,49.0432],[22.7553,49.0447],[22.784,49.0214],[22.8553,48.994],[22.865,49.0132],[22.8475,49.0337],[22.8534,49.0848],[22.7781,49.1203],[22.7488,49.1456],[22.7057,49.1688],[22.6817,49.1612],[22.7029,49.195],[22.7378,49.2754],[22.7242,49.3671],[22.7142,49.3906],[22.6796,49.4189],[22.6669,49.4784],[22.6409,49.5288],[22.6658,49.5674],[22.7417,49.6337],[22.7773,49.6805],[22.8266,49.6974],[22.8882,49.7697],[22.9244,49.7854],[22.9512,49.8266],[22.993,49.8544],[23.1015,49.9571],[23.1778,50.004],[23.2079,50.034],[23.4364,50.1935],[23.5653,50.2578],[23.6587,50.327],[23.6957,50.3768],[23.7475,50.3894],[23.9287,50.3908],[23.9813,50.4048],[24.0032,50.4377],[24.0107,50.4928],[24.075,50.5143],[24.1077,50.5408],[24.0954,50.5569],[24.0853,50.6044],[24.1082,50.6303],[24.0749,50.6902],[24.081,50.713],[24.0269,50.728],[24.0128,50.7433],[24.0259,50.767],[23.9743,50.7762],[23.9576,50.808],[23.9699,50.8252],[24.0205,50.8386],[24.0469,50.8291],[24.1309,50.8391],[24.1302,50.8689],[24.0469,50.898],[23.9793,50.9375],[23.9551,50.9836],[23.9117,51.0068],[23.9042,51.0627],[23.8545,51.1215],[23.8747,51.1361],[23.816,51.1788],[23.7652,51.199],[23.7427,51.2163],[23.6873,51.2924],[23.6352,51.3047],[23.634,51.3393],[23.6839,51.3703],[23.6789,51.3941],[23.6976,51.4044],[23.6487,51.454],[23.6628,51.4802],[23.6148,51.4972],[23.6062,51.5174],[23.5728,51.5397],[23.574,51.5553],[23.5399,51.6071],[23.5438,51.6438],[23.5324,51.659],[23.5604,51.672],[23.5466,51.7136],[23.5604,51.7545],[23.6175,51.7865],[23.6287,51.8098],[23.5946,51.8433],[23.6214,51.8956],[23.6222,51.9279],[23.6476,51.9741],[23.6764,51.9941],[23.6375,52.0845],[23.5794,52.1215],[23.5125,52.1244],[23.4847,52.1586],[23.4505,52.1859],[23.4367,52.1757],[23.3885,52.1842],[23.3958,52.1996],[23.2123,52.2317],[23.1897,52.2405],[23.1945,52.2715],[23.1761,52.2851],[23.1502,52.2816],[23.087,52.2923],[23.039,52.2892],[23.0521,52.3096],[23.0058,52.337],[22.9845,52.3301],[22.9751,52.3528],[22.9228,52.3723],[22.8446,52.3656],[22.689,52.3854],[22.6119,52.3873],[22.5627,52.4041],[22.5388,52.4294],[22.5448,52.4625],[22.5198,52.4733],[22.5114,52.4946],[22.5151,52.5151],[22.5176,52.5294],[22.4119,52.6006],[22.4118,52.6597],[22.3997,52.695],[22.3942,52.7413],[22.4,52.75],[22.5,53.05],[22.42,53.19],[22.74,53.49],[23.1,53.68],[23.4,53.75],[23.4863,53.9227],[23.4856,53.9393],[23.4904,53.9506],[23.4629,53.9725],[23.4593,53.9923],[23.4965,54.022],[23.4962,54.0446],[23.4739,54.1126],[23.4325,54.1693],[23.3823,54.1879],[23.336,54.2263],[23.316,54.2363],[23.2354,54.2542],[23.1171,54.3035],[23.0501,54.2948],[23.0321,54.3096],[23.0416,54.341],[22.9897,54.3534],[22.9733,54.3754],[22.9188,54.3811],[22.8589,54.3992],[22.8113,54.3926],[22.7887,54.3366],[22.7317,54.3017],[22.6653,54.2753],[22.4422,54.257],[22.3481,54.1786],[22.4491,54.0992],[22.4652,54.0417],[22.516,54.0124],[22.6221,53.9248],[22.6185,53.8782],[22.5779,53.8322],[22.543,53.7739],[22.4856,53.7379],[22.207,53.6352],[22.1099,53.5699],[21.9373,53.4993],[21.8626,53.4927],[21.8016,53.4708],[21.7388,53.4576],[21.5957,53.4626],[21.523,53.4435],[21.402,53.4379],[21.3774,53.4299],[21.3488,53.3961],[21.308,53.3788],[21.2626,53.3746],[21.1737,53.3796],[21.0979,53.3256],[21.0079,53.3084],[20.9123,53.3086],[20.8391,53.2834],[20.7756,53.2754],[20.704,53.2759],[20.6346,53.2346],[20.4948,53.1861],[20.4198,53.182],[20.3889,53.1675],[20.3719,53.1337],[20.3158,53.1063],[20.2406,53.098],[19.9248,53.1273],[19.8768,53.1511],[19.8371,53.1437],[19.8112,53.1129],[19.7479,53.0931],[19.7329,53.1846],[19.7096,53.22],[19.45,53.22],[19.3,53.18],[19.05,53.1],[18.95,53.0167],[18.95,52.93],[18.45,52.93],[18.45,53.1],[18.3,53.1],[18.1,53.13],[18.3,53.25],[18.42,53.35],[18.55,53.43],[18.72,53.52],[18.8046,53.6046],[18.7594,53.6252],[18.6779,53.6321],[18.583,53.6053],[18.4978,53.6354],[18.3179,53.6532],[18.2557,53.6942],[18.2205,53.696],[18.0511,53.681],[17.9241,53.6956],[17.8971,53.6832],[17.8564,53.6388],[17.7877,53.6236],[17.7556,53.6058],[17.7455,53.5573],[17.6832,53.5424],[17.5445,53.5639],[17.5076,53.5616],[17.4554,53.5069],[17.4252,53.444],[17.3972,53.4338],[17.3528,53.4656],[17.2993,53.4831],[17.0957,53.4881],[17.0372,53.5093],[16.9958,53.5529],[16.9477,53.5882],[16.8722,53.5946],[16.8365,53.5852],[16.7908,53.525],[16.7653,53.4612],[16.7351,53.4577],[16.5511,53.4606],[16.5285,53.4415],[16.5296,53.4017],[16.5451,53.366],[16.6078,53.3296],[16.6833,53.318],[16.7204,53.3064],[16.7516,53.2824],[16.7579,53.2537],[16.7036,53.2058],[16.6747,53.1893],[16.601,53.1755],[16.4562,53.1247],[16.3753,53.0482],[16.2788,52.9932],[16.2174,52.9787],[16.155,52.9736],[16.0938,52.9956],[16.0385,53.0067],[16.0186,52.9491],[16.0219,52.8853],[15.9246,52.8096],[15.9553,52.7923],[15.9768,52.7431],[15.9479,52.7198],[15.8311,52.6933],[15.8257,52.6497]]]}},
{"type":"Feature","properties":{"entityId":"poland-kingdom","from":1387,"to":1430,"certainty":"estimated","source":"유럽 쪽은 Natural Earth 1:10m admin-1(v5.1.2) 현대 행정구역 조각을 그 시기 국경에 맞춰 묶고, 조각이 역사 경계와 다른 곳은 선을 그어 나눈 근사. 유럽 밖(시베리아·중앙아시아·극동)은 대략적인 추정. 운영자 검수 필요"},"geometry":{"type":"Polygon","coordinates":[[[15.8257,52.6497],[15.8296,52.5938],[15.8649,52.5348],[15.885,52.4633],[15.8849,52.4333],[15.8366,52.4242],[15.899,52.3485],[15.9012,52.287],[15.8687,52.2281],[15.8498,52.169],[15.857,52.1037],[15.9079,52.0649],[15.963,52.0468],[16.0039,51.9896],[16.0394,51.9676],[16.0939,51.9718],[16.1105,51.9654],[16.0984,51.8917],[16.1132,51.8649],[16.1562,51.8467],[16.2015,51.8375],[16.2747,51.8682],[16.3399,51.8237],[16.3711,51.7492],[16.4585,51.7596],[16.4991,51.7529],[16.6118,51.7149],[16.6295,51.6897],[16.6328,51.6571],[16.6761,51.6095],[16.7731,51.5759],[16.8277,51.5383],[16.943,51.5127],[17.1496,51.5354],[17.1874,51.5889],[17.2293,51.5943],[17.3468,51.594],[17.4573,51.5751],[17.5566,51.535],[17.5328,51.4816],[17.4952,51.4503],[17.5007,51.407],[17.5239,51.3703],[17.583,51.3617],[17.6443,51.3694],[17.6824,51.3628],[17.7184,51.3447],[17.6902,51.3026],[17.7016,51.2],[17.7146,51.1502],[17.7492,51.1514],[17.7822,51.1407],[17.8012,51.0948],[17.8537,51.068],[17.9174,51.0658],[18.0358,51.0932],[18.1501,51.1361],[18.1726,51.1108],[18.202,51.0959],[18.4257,51.0596],[18.4964,51.0608],[18.5305,51.0826],[18.5806,51.0334],[18.6556,50.9952],[18.6356,50.9505],[18.68,50.93],[19.03,50.58],[19.1,50.3],[19.17,50.235],[19.19,50.2],[19.22,50.15],[19.23,50.08],[19.2,50.03],[19.2032,50.0294],[19.1679,50.0039],[19.1237,49.9537],[19.1124,49.9202],[19.1325,49.9032],[19.1591,49.9015],[19.1805,49.884],[19.1826,49.8506],[19.2125,49.816],[19.2635,49.8031],[19.2989,49.7483],[19.3688,49.7176],[19.4364,49.7099],[19.433,49.6836],[19.4074,49.6403],[19.4489,49.6004],[19.5052,49.5634],[19.5568,49.4539],[19.5948,49.4416],[19.6348,49.4413],[19.627,49.4019],[19.6845,49.3891],[19.7693,49.3931],[19.7836,49.3576],[19.7895,49.3092],[19.7832,49.29],[19.8068,49.2752],[19.7518,49.2191],[19.7607,49.1942],[19.832,49.1859],[19.8683,49.2008],[19.9059,49.2228],[19.9657,49.2157],[20.0173,49.1839],[20.0505,49.1732],[20.07,49.1831],[20.086,49.243],[20.1302,49.3039],[20.1604,49.3056],[20.2072,49.3342],[20.2844,49.3386],[20.3074,49.3866],[20.3295,49.3918],[20.3705,49.3817],[20.4221,49.383],[20.4375,49.4025],[20.5221,49.3744],[20.5677,49.3764],[20.6053,49.4],[20.6895,49.4005],[20.7783,49.3312],[20.8493,49.3205],[20.9006,49.2926],[20.9424,49.2959],[21.0172,49.3524],[21.0725,49.3572],[21.0685,49.3814],[21.0333,49.3997],[21.0535,49.4145],[21.1249,49.4237],[21.1726,49.3983],[21.2112,49.4111],[21.2425,49.4413],[21.2744,49.4473],[21.3304,49.4278],[21.4279,49.4098],[21.5144,49.4172],[21.6012,49.4265],[21.6663,49.4018],[21.6917,49.4022],[21.7576,49.3489],[21.7994,49.3748],[21.8196,49.3772],[21.8746,49.3484],[21.9284,49.3308],[21.9645,49.3086],[21.9932,49.2782],[22.0124,49.2111],[22.0408,49.1975],[22.1115,49.1886],[22.1557,49.1715],[22.198,49.172],[22.2159,49.14],[22.2629,49.1306],[22.3394,49.1265],[22.3901,49.093],[22.4268,49.0856],[22.505,49.0834],[22.5396,49.0722],[22.5808,49.0814],[22.6429,49.0432],[22.7553,49.0447],[22.784,49.0214],[22.8553,48.994],[22.865,49.0132],[22.9024,48.9833],[22.892,48.9354],[22.926,48.9041],[22.9612,48.8843],[22.9821,48.859],[23.0117,48.8547],[23.105,48.8713],[23.1376,48.8522],[23.1798,48.7903],[23.2016,48.7771],[23.2576,48.7722],[23.2982,48.7812],[23.3085,48.7502],[23.3505,48.772],[23.378,48.7371],[23.4458,48.7267],[23.4985,48.7312],[23.5329,48.7237],[23.6124,48.7038],[23.6745,48.6545],[23.709,48.643],[23.7715,48.6447],[23.7817,48.6034],[23.8471,48.5628],[23.8949,48.5496],[23.9168,48.5154],[23.9074,48.4887],[23.9427,48.4704],[24.0015,48.5001],[24.0462,48.5051],[24.1138,48.5322],[24.137,48.5275],[24.1407,48.4712],[24.1312,48.4345],[24.1408,48.3799],[24.1777,48.3546],[24.2341,48.3505],[24.2707,48.3572],[24.3054,48.3883],[24.3317,48.3748],[24.3458,48.3402],[24.3916,48.3311],[24.4949,48.2666],[24.5415,48.2128],[24.5216,48.1711],[24.5384,48.1345],[24.6068,48.0886],[24.6393,48.0476],[24.5882,47.9959],[24.5698,47.9373],[24.6085,47.9219],[24.6493,47.8952],[24.6615,47.8539],[24.7128,47.8259],[24.7937,47.8045],[24.8207,47.7841],[24.8778,47.7187],[24.9289,47.7139],[24.9341,47.7572],[24.9809,47.8284],[24.9826,47.8519],[24.9629,47.9125],[24.9348,47.9474],[24.9276,47.9896],[24.9345,48.0135],[24.9797,48.0707],[24.9892,48.1002],[25.0174,48.1186],[25.0545,48.1286],[25.1063,48.1695],[25.137,48.1793],[25.1364,48.2276],[25.1961,48.2568],[25.2926,48.3402],[25.3696,48.3802],[25.4474,48.4],[25.5132,48.4029],[25.5637,48.389],[25.5851,48.3929],[25.6004,48.4326],[25.6044,48.5324],[25.5777,48.5808],[25.565,48.621],[25.5724,48.6385],[25.6362,48.6781],[25.7151,48.6645],[25.7312,48.6352],[25.7533,48.6326],[25.7666,48.6576],[25.7935,48.6701],[25.8596,48.6187],[25.863,48.6008],[25.9116,48.5881],[25.9602,48.5964],[25.9856,48.6235],[26.0247,48.6214],[26.0491,48.6477],[26.0623,48.6284],[26.0526,48.5717],[26.0798,48.5473],[26.1172,48.5419],[26.1297,48.5546],[26.1058,48.5809],[26.1049,48.6111],[26.1458,48.5964],[26.1495,48.5396],[26.1809,48.5267],[26.2567,48.5334],[26.3266,48.5116],[26.3805,48.5171],[26.354,48.5616],[26.3689,48.5761],[26.3067,48.6056],[26.3163,48.6428],[26.285,48.6412],[26.2819,48.6616],[26.2355,48.685],[26.2513,48.7524],[26.2285,48.7792],[26.2642,48.8082],[26.2387,48.8188],[26.2143,48.847],[26.2229,48.8972],[26.1954,48.9],[26.2023,48.935],[26.1891,48.953],[26.1985,48.9845],[26.2212,49.0007],[26.1995,49.0413],[26.2284,49.0669],[26.2109,49.1191],[26.2218,49.148],[26.1992,49.1746],[26.2078,49.2273],[26.2417,49.2412],[26.2563,49.2936],[26.2344,49.3195],[26.2391,49.342],[26.2291,49.397],[26.1985,49.4153],[26.1484,49.5165],[26.1643,49.544],[26.2087,49.5669],[26.2239,49.62],[26.2,49.62],[26,49.75],[25.8,49.85],[25.6,49.92],[25.3898,49.9873],[25.4038,49.9797],[25.3727,49.9965],[25.3676,50.0131],[25.2959,50.0413],[25.2023,50.095],[25.1854,50.128],[25.1929,50.1816],[25.1677,50.22],[25.2075,50.2501],[25.1957,50.288],[25.1529,50.2925],[25.1041,50.2794],[25.0635,50.2948],[25.0638,50.3345],[25.0489,50.3473],[25.0039,50.3457],[24.9319,50.3702],[24.9114,50.3481],[24.8484,50.3549],[24.773,50.3405],[24.7052,50.3496],[24.6882,50.3767],[24.6394,50.3974],[24.6342,50.4134],[24.591,50.417],[24.5526,50.4384],[24.5418,50.4109],[24.5042,50.4106],[24.4988,50.4397],[24.4567,50.4614],[24.4634,50.4788],[24.5132,50.4867],[24.5354,50.5001],[24.5306,50.5241],[24.5008,50.5455],[24.4343,50.549],[24.4054,50.5674],[24.3795,50.6009],[24.3459,50.6089],[24.3214,50.5926],[24.2479,50.5818],[24.2179,50.5892],[24.1647,50.6402],[24.1259,50.6418],[24.1082,50.6303],[24.0749,50.6902],[24.081,50.713],[24.0269,50.728],[24.0128,50.7433],[24.0259,50.767],[23.9743,50.7762],[23.9576,50.808],[23.9699,50.8252],[24.0205,50.8386],[24.0469,50.8291],[24.1309,50.8391],[24.1302,50.8689],[24.0469,50.898],[23.9793,50.9375],[23.9551,50.9836],[23.9117,51.0068],[23.9042,51.0627],[23.8545,51.1215],[23.8747,51.1361],[23.816,51.1788],[23.7652,51.199],[23.7427,51.2163],[23.6873,51.2924],[23.6352,51.3047],[23.634,51.3393],[23.6839,51.3703],[23.6789,51.3941],[23.6976,51.4044],[23.6487,51.454],[23.6628,51.4802],[23.6148,51.4972],[23.6062,51.5174],[23.5728,51.5397],[23.574,51.5553],[23.5399,51.6071],[23.5438,51.6438],[23.5324,51.659],[23.5604,51.672],[23.5466,51.7136],[23.5604,51.7545],[23.6175,51.7865],[23.6287,51.8098],[23.5946,51.8433],[23.6214,51.8956],[23.6222,51.9279],[23.6476,51.9741],[23.6764,51.9941],[23.6375,52.0845],[23.5794,52.1215],[23.5125,52.1244],[23.4847,52.1586],[23.4505,52.1859],[23.4367,52.1757],[23.3885,52.1842],[23.3958,52.1996],[23.2123,52.2317],[23.1897,52.2405],[23.1945,52.2715],[23.1761,52.2851],[23.1502,52.2816],[23.087,52.2923],[23.039,52.2892],[23.0521,52.3096],[23.0058,52.337],[22.9845,52.3301],[22.9751,52.3528],[22.9228,52.3723],[22.8446,52.3656],[22.689,52.3854],[22.6119,52.3873],[22.5627,52.4041],[22.5388,52.4294],[22.5448,52.4625],[22.5198,52.4733],[22.5114,52.4946],[22.5151,52.5151],[22.5176,52.5294],[22.4119,52.6006],[22.4118,52.6597],[22.3997,52.695],[22.3942,52.7413],[22.4,52.75],[22.5,53.05],[22.42,53.19],[22.74,53.49],[23.1,53.68],[23.4,53.75],[23.4863,53.9227],[23.4856,53.9393],[23.4904,53.9506],[23.4629,53.9725],[23.4593,53.9923],[23.4965,54.022],[23.4962,54.0446],[23.4739,54.1126],[23.4325,54.1693],[23.3823,54.1879],[23.336,54.2263],[23.316,54.2363],[23.2354,54.2542],[23.1171,54.3035],[23.0501,54.2948],[23.0321,54.3096],[23.0416,54.341],[22.9897,54.3534],[22.9733,54.3754],[22.9188,54.3811],[22.8589,54.3992],[22.8113,54.3926],[22.7887,54.3366],[22.7317,54.3017],[22.6653,54.2753],[22.4422,54.257],[22.3481,54.1786],[22.4491,54.0992],[22.4652,54.0417],[22.516,54.0124],[22.6221,53.9248],[22.6185,53.8782],[22.5779,53.8322],[22.543,53.7739],[22.4856,53.7379],[22.207,53.6352],[22.1099,53.5699],[21.9373,53.4993],[21.8626,53.4927],[21.8016,53.4708],[21.7388,53.4576],[21.5957,53.4626],[21.523,53.4435],[21.402,53.4379],[21.3774,53.4299],[21.3488,53.3961],[21.308,53.3788],[21.2626,53.3746],[21.1737,53.3796],[21.0979,53.3256],[21.0079,53.3084],[20.9123,53.3086],[20.8391,53.2834],[20.7756,53.2754],[20.704,53.2759],[20.6346,53.2346],[20.4948,53.1861],[20.4198,53.182],[20.3889,53.1675],[20.3719,53.1337],[20.3158,53.1063],[20.2406,53.098],[19.9248,53.1273],[19.8768,53.1511],[19.8371,53.1437],[19.8112,53.1129],[19.7479,53.0931],[19.7329,53.1846],[19.7096,53.22],[19.45,53.22],[19.3,53.18],[19.05,53.1],[18.95,53.0167],[18.95,52.93],[18.45,52.93],[18.45,53.1],[18.3,53.1],[18.1,53.13],[18.3,53.25],[18.42,53.35],[18.55,53.43],[18.72,53.52],[18.8046,53.6046],[18.7594,53.6252],[18.6779,53.6321],[18.583,53.6053],[18.4978,53.6354],[18.3179,53.6532],[18.2557,53.6942],[18.2205,53.696],[18.0511,53.681],[17.9241,53.6956],[17.8971,53.6832],[17.8564,53.6388],[17.7877,53.6236],[17.7556,53.6058],[17.7455,53.5573],[17.6832,53.5424],[17.5445,53.5639],[17.5076,53.5616],[17.4554,53.5069],[17.4252,53.444],[17.3972,53.4338],[17.3528,53.4656],[17.2993,53.4831],[17.0957,53.4881],[17.0372,53.5093],[16.9958,53.5529],[16.9477,53.5882],[16.8722,53.5946],[16.8365,53.5852],[16.7908,53.525],[16.7653,53.4612],[16.7351,53.4577],[16.5511,53.4606],[16.5285,53.4415],[16.5296,53.4017],[16.5451,53.366],[16.6078,53.3296],[16.6833,53.318],[16.7204,53.3064],[16.7516,53.2824],[16.7579,53.2537],[16.7036,53.2058],[16.6747,53.1893],[16.601,53.1755],[16.4562,53.1247],[16.3753,53.0482],[16.2788,52.9932],[16.2174,52.9787],[16.155,52.9736],[16.0938,52.9956],[16.0385,53.0067],[16.0186,52.9491],[16.0219,52.8853],[15.9246,52.8096],[15.9553,52.7923],[15.9768,52.7431],[15.9479,52.7198],[15.8311,52.6933],[15.8257,52.6497]]]}},
{"type":"Feature","properties":{"entityId":"poland-kingdom","from":1430,"to":1466,"certainty":"estimated","source":"유럽 쪽은 Natural Earth 1:10m admin-1(v5.1.2) 현대 행정구역 조각을 그 시기 국경에 맞춰 묶고, 조각이 역사 경계와 다른 곳은 선을 그어 나눈 근사. 유럽 밖(시베리아·중앙아시아·극동)은 대략적인 추정. 운영자 검수 필요"},"geometry":{"type":"Polygon","coordinates":[[[15.8257,52.6497],[15.8296,52.5938],[15.8649,52.5348],[15.885,52.4633],[15.8849,52.4333],[15.8366,52.4242],[15.899,52.3485],[15.9012,52.287],[15.8687,52.2281],[15.8498,52.169],[15.857,52.1037],[15.9079,52.0649],[15.963,52.0468],[16.0039,51.9896],[16.0394,51.9676],[16.0939,51.9718],[16.1105,51.9654],[16.0984,51.8917],[16.1132,51.8649],[16.1562,51.8467],[16.2015,51.8375],[16.2747,51.8682],[16.3399,51.8237],[16.3711,51.7492],[16.4585,51.7596],[16.4991,51.7529],[16.6118,51.7149],[16.6295,51.6897],[16.6328,51.6571],[16.6761,51.6095],[16.7731,51.5759],[16.8277,51.5383],[16.943,51.5127],[17.1496,51.5354],[17.1874,51.5889],[17.2293,51.5943],[17.3468,51.594],[17.4573,51.5751],[17.5566,51.535],[17.5328,51.4816],[17.4952,51.4503],[17.5007,51.407],[17.5239,51.3703],[17.583,51.3617],[17.6443,51.3694],[17.6824,51.3628],[17.7184,51.3447],[17.6902,51.3026],[17.7016,51.2],[17.7146,51.1502],[17.7492,51.1514],[17.7822,51.1407],[17.8012,51.0948],[17.8537,51.068],[17.9174,51.0658],[18.0358,51.0932],[18.1501,51.1361],[18.1726,51.1108],[18.202,51.0959],[18.4257,51.0596],[18.4964,51.0608],[18.5305,51.0826],[18.5806,51.0334],[18.6556,50.9952],[18.6356,50.9505],[18.68,50.93],[19.03,50.58],[19.1,50.3],[19.17,50.235],[19.19,50.2],[19.22,50.15],[19.23,50.08],[19.2,50.03],[19.2032,50.0294],[19.1679,50.0039],[19.1237,49.9537],[19.1124,49.9202],[19.1325,49.9032],[19.1591,49.9015],[19.1805,49.884],[19.1826,49.8506],[19.2125,49.816],[19.2635,49.8031],[19.2989,49.7483],[19.3688,49.7176],[19.4364,49.7099],[19.433,49.6836],[19.4074,49.6403],[19.4489,49.6004],[19.5052,49.5634],[19.5568,49.4539],[19.5948,49.4416],[19.6348,49.4413],[19.627,49.4019],[19.6845,49.3891],[19.7693,49.3931],[19.7836,49.3576],[19.7895,49.3092],[19.7832,49.29],[19.8068,49.2752],[19.7518,49.2191],[19.7607,49.1942],[19.832,49.1859],[19.8683,49.2008],[19.9059,49.2228],[19.9657,49.2157],[20.0173,49.1839],[20.0505,49.1732],[20.07,49.1831],[20.086,49.243],[20.1302,49.3039],[20.1604,49.3056],[20.2072,49.3342],[20.2844,49.3386],[20.3074,49.3866],[20.3295,49.3918],[20.3705,49.3817],[20.4221,49.383],[20.4375,49.4025],[20.5221,49.3744],[20.5677,49.3764],[20.6053,49.4],[20.6895,49.4005],[20.7783,49.3312],[20.8493,49.3205],[20.9006,49.2926],[20.9424,49.2959],[21.0172,49.3524],[21.0725,49.3572],[21.0685,49.3814],[21.0333,49.3997],[21.0535,49.4145],[21.1249,49.4237],[21.1726,49.3983],[21.2112,49.4111],[21.2425,49.4413],[21.2744,49.4473],[21.3304,49.4278],[21.4279,49.4098],[21.5144,49.4172],[21.6012,49.4265],[21.6663,49.4018],[21.6917,49.4022],[21.7576,49.3489],[21.7994,49.3748],[21.8196,49.3772],[21.8746,49.3484],[21.9284,49.3308],[21.9645,49.3086],[21.9932,49.2782],[22.0124,49.2111],[22.0408,49.1975],[22.1115,49.1886],[22.1557,49.1715],[22.198,49.172],[22.2159,49.14],[22.2629,49.1306],[22.3394,49.1265],[22.3901,49.093],[22.4268,49.0856],[22.505,49.0834],[22.5396,49.0722],[22.5808,49.0814],[22.6429,49.0432],[22.7553,49.0447],[22.784,49.0214],[22.8553,48.994],[22.865,49.0132],[22.9024,48.9833],[22.892,48.9354],[22.926,48.9041],[22.9612,48.8843],[22.9821,48.859],[23.0117,48.8547],[23.105,48.8713],[23.1376,48.8522],[23.1798,48.7903],[23.2016,48.7771],[23.2576,48.7722],[23.2982,48.7812],[23.3085,48.7502],[23.3505,48.772],[23.378,48.7371],[23.4458,48.7267],[23.4985,48.7312],[23.5329,48.7237],[23.6124,48.7038],[23.6745,48.6545],[23.709,48.643],[23.7715,48.6447],[23.7817,48.6034],[23.8471,48.5628],[23.8949,48.5496],[23.9168,48.5154],[23.9074,48.4887],[23.9427,48.4704],[24.0015,48.5001],[24.0462,48.5051],[24.1138,48.5322],[24.137,48.5275],[24.1407,48.4712],[24.1312,48.4345],[24.1408,48.3799],[24.1777,48.3546],[24.2341,48.3505],[24.2707,48.3572],[24.3054,48.3883],[24.3317,48.3748],[24.3458,48.3402],[24.3916,48.3311],[24.4949,48.2666],[24.5415,48.2128],[24.5216,48.1711],[24.5384,48.1345],[24.6068,48.0886],[24.6393,48.0476],[24.5882,47.9959],[24.5698,47.9373],[24.6085,47.9219],[24.6493,47.8952],[24.6615,47.8539],[24.7128,47.8259],[24.7937,47.8045],[24.8207,47.7841],[24.8778,47.7187],[24.9289,47.7139],[24.9341,47.7572],[24.9809,47.8284],[24.9826,47.8519],[24.9629,47.9125],[24.9348,47.9474],[24.9276,47.9896],[24.9345,48.0135],[24.9797,48.0707],[24.9892,48.1002],[25.0174,48.1186],[25.0545,48.1286],[25.1063,48.1695],[25.137,48.1793],[25.1364,48.2276],[25.1961,48.2568],[25.2926,48.3402],[25.3696,48.3802],[25.4474,48.4],[25.5132,48.4029],[25.5637,48.389],[25.5851,48.3929],[25.6004,48.4326],[25.6044,48.5324],[25.5777,48.5808],[25.565,48.621],[25.5724,48.6385],[25.6362,48.6781],[25.7151,48.6645],[25.7312,48.6352],[25.7533,48.6326],[25.7666,48.6576],[25.7935,48.6701],[25.8596,48.6187],[25.863,48.6008],[25.9116,48.5881],[25.9602,48.5964],[25.9856,48.6235],[26.0247,48.6214],[26.0491,48.6477],[26.0623,48.6284],[26.0526,48.5717],[26.0798,48.5473],[26.1172,48.5419],[26.1297,48.5546],[26.1058,48.5809],[26.1049,48.6111],[26.1458,48.5964],[26.1495,48.5396],[26.1809,48.5267],[26.2567,48.5334],[26.3266,48.5116],[26.3805,48.5171],[26.404,48.5341],[26.4706,48.5381],[26.5153,48.5149],[26.5399,48.4789],[26.5664,48.4574],[26.6219,48.4583],[26.607,48.4923],[26.6273,48.5084],[26.6436,48.4925],[26.709,48.4969],[26.6709,48.5267],[26.6144,48.5402],[26.6328,48.5624],[26.7218,48.5352],[26.7392,48.5577],[26.7161,48.5778],[26.7172,48.5948],[26.7406,48.5889],[26.7497,48.5616],[26.7728,48.551],[26.7876,48.5683],[26.7831,48.5935],[26.8081,48.6091],[26.8292,48.6018],[26.8226,48.5812],[26.8414,48.5463],[26.885,48.5435],[26.9247,48.5751],[26.9453,48.5814],[27.1134,48.5593],[27.147,48.5819],[27.1814,48.5819],[27.2141,48.5701],[27.2476,48.5704],[27.2618,48.5957],[27.2344,48.6185],[27.2947,48.6161],[27.3218,48.6009],[27.3704,48.6297],[27.3932,48.6837],[27.4018,48.7316],[27.3962,48.7609],[27.4246,48.7768],[27.4032,48.8152],[27.3999,48.8689],[27.3721,48.9301],[27.3984,48.957],[27.3802,48.9868],[27.3987,49.0207],[27.4707,49.0759],[27.5005,49.1261],[27.5683,49.122],[27.6157,49.1599],[27.7155,49.134],[27.7672,49.116],[27.8106,49.1418],[27.8651,49.1502],[27.889,49.1626],[27.8778,49.21],[27.8567,49.2494],[27.8773,49.2769],[27.8521,49.3049],[27.8442,49.335],[27.8192,49.3412],[27.8088,49.3863],[27.844,49.3961],[27.826,49.4299],[27.7645,49.4303],[27.74,49.4402],[27.7628,49.4667],[27.7293,49.4886],[27.7321,49.5262],[27.7748,49.5272],[27.786,49.5461],[27.7666,49.5632],[27.8156,49.6309],[27.8077,49.6471],[27.7515,49.6735],[27.7625,49.693],[27.6,49.68],[27.2,49.62],[26.6,49.66],[26.2336,49.6356],[26.2249,49.6234],[26.2239,49.62],[26.2,49.62],[26,49.75],[25.8,49.85],[25.6,49.92],[25.3898,49.9873],[25.4038,49.9797],[25.3727,49.9965],[25.3676,50.0131],[25.2959,50.0413],[25.2023,50.095],[25.1854,50.128],[25.1929,50.1816],[25.1677,50.22],[25.2075,50.2501],[25.1957,50.288],[25.1529,50.2925],[25.1041,50.2794],[25.0635,50.2948],[25.0638,50.3345],[25.0489,50.3473],[25.0039,50.3457],[24.9319,50.3702],[24.9114,50.3481],[24.8484,50.3549],[24.773,50.3405],[24.7052,50.3496],[24.6882,50.3767],[24.6394,50.3974],[24.6342,50.4134],[24.591,50.417],[24.5526,50.4384],[24.5418,50.4109],[24.5042,50.4106],[24.4988,50.4397],[24.4567,50.4614],[24.4634,50.4788],[24.5132,50.4867],[24.5354,50.5001],[24.5306,50.5241],[24.5008,50.5455],[24.4343,50.549],[24.4054,50.5674],[24.3795,50.6009],[24.3459,50.6089],[24.3214,50.5926],[24.2479,50.5818],[24.2179,50.5892],[24.1647,50.6402],[24.1259,50.6418],[24.1082,50.6303],[24.0749,50.6902],[24.081,50.713],[24.0269,50.728],[24.0128,50.7433],[24.0259,50.767],[23.9743,50.7762],[23.9576,50.808],[23.9699,50.8252],[24.0205,50.8386],[24.0469,50.8291],[24.1309,50.8391],[24.1302,50.8689],[24.0469,50.898],[23.9793,50.9375],[23.9551,50.9836],[23.9117,51.0068],[23.9042,51.0627],[23.8545,51.1215],[23.8747,51.1361],[23.816,51.1788],[23.7652,51.199],[23.7427,51.2163],[23.6873,51.2924],[23.6352,51.3047],[23.634,51.3393],[23.6839,51.3703],[23.6789,51.3941],[23.6976,51.4044],[23.6487,51.454],[23.6628,51.4802],[23.6148,51.4972],[23.6062,51.5174],[23.5728,51.5397],[23.574,51.5553],[23.5399,51.6071],[23.5438,51.6438],[23.5324,51.659],[23.5604,51.672],[23.5466,51.7136],[23.5604,51.7545],[23.6175,51.7865],[23.6287,51.8098],[23.5946,51.8433],[23.6214,51.8956],[23.6222,51.9279],[23.6476,51.9741],[23.6764,51.9941],[23.6375,52.0845],[23.5794,52.1215],[23.5125,52.1244],[23.4847,52.1586],[23.4505,52.1859],[23.4367,52.1757],[23.3885,52.1842],[23.3958,52.1996],[23.2123,52.2317],[23.1897,52.2405],[23.1945,52.2715],[23.1761,52.2851],[23.1502,52.2816],[23.087,52.2923],[23.039,52.2892],[23.0521,52.3096],[23.0058,52.337],[22.9845,52.3301],[22.9751,52.3528],[22.9228,52.3723],[22.8446,52.3656],[22.689,52.3854],[22.6119,52.3873],[22.5627,52.4041],[22.5388,52.4294],[22.5448,52.4625],[22.5198,52.4733],[22.5114,52.4946],[22.5151,52.5151],[22.5176,52.5294],[22.4119,52.6006],[22.4118,52.6597],[22.3997,52.695],[22.3942,52.7413],[22.4,52.75],[22.5,53.05],[22.42,53.19],[22.74,53.49],[23.1,53.68],[23.4,53.75],[23.4863,53.9227],[23.4856,53.9393],[23.4904,53.9506],[23.4629,53.9725],[23.4593,53.9923],[23.4965,54.022],[23.4962,54.0446],[23.4739,54.1126],[23.4325,54.1693],[23.3823,54.1879],[23.336,54.2263],[23.316,54.2363],[23.2354,54.2542],[23.1171,54.3035],[23.0501,54.2948],[23.0321,54.3096],[23.0416,54.341],[22.9897,54.3534],[22.9733,54.3754],[22.9188,54.3811],[22.8589,54.3992],[22.8113,54.3926],[22.7887,54.3366],[22.7317,54.3017],[22.6653,54.2753],[22.4422,54.257],[22.3481,54.1786],[22.4491,54.0992],[22.4652,54.0417],[22.516,54.0124],[22.6221,53.9248],[22.6185,53.8782],[22.5779,53.8322],[22.543,53.7739],[22.4856,53.7379],[22.207,53.6352],[22.1099,53.5699],[21.9373,53.4993],[21.8626,53.4927],[21.8016,53.4708],[21.7388,53.4576],[21.5957,53.4626],[21.523,53.4435],[21.402,53.4379],[21.3774,53.4299],[21.3488,53.3961],[21.308,53.3788],[21.2626,53.3746],[21.1737,53.3796],[21.0979,53.3256],[21.0079,53.3084],[20.9123,53.3086],[20.8391,53.2834],[20.7756,53.2754],[20.704,53.2759],[20.6346,53.2346],[20.4948,53.1861],[20.4198,53.182],[20.3889,53.1675],[20.3719,53.1337],[20.3158,53.1063],[20.2406,53.098],[19.9248,53.1273],[19.8768,53.1511],[19.8371,53.1437],[19.8112,53.1129],[19.7479,53.0931],[19.7329,53.1846],[19.7096,53.22],[19.45,53.22],[19.3,53.18],[19.05,53.1],[18.95,53.0167],[18.95,52.93],[18.45,52.93],[18.45,53.1],[18.3,53.1],[18.1,53.13],[18.3,53.25],[18.42,53.35],[18.55,53.43],[18.72,53.52],[18.8046,53.6046],[18.7594,53.6252],[18.6779,53.6321],[18.583,53.6053],[18.4978,53.6354],[18.3179,53.6532],[18.2557,53.6942],[18.2205,53.696],[18.0511,53.681],[17.9241,53.6956],[17.8971,53.6832],[17.8564,53.6388],[17.7877,53.6236],[17.7556,53.6058],[17.7455,53.5573],[17.6832,53.5424],[17.5445,53.5639],[17.5076,53.5616],[17.4554,53.5069],[17.4252,53.444],[17.3972,53.4338],[17.3528,53.4656],[17.2993,53.4831],[17.0957,53.4881],[17.0372,53.5093],[16.9958,53.5529],[16.9477,53.5882],[16.8722,53.5946],[16.8365,53.5852],[16.7908,53.525],[16.7653,53.4612],[16.7351,53.4577],[16.5511,53.4606],[16.5285,53.4415],[16.5296,53.4017],[16.5451,53.366],[16.6078,53.3296],[16.6833,53.318],[16.7204,53.3064],[16.7516,53.2824],[16.7579,53.2537],[16.7036,53.2058],[16.6747,53.1893],[16.601,53.1755],[16.4562,53.1247],[16.3753,53.0482],[16.2788,52.9932],[16.2174,52.9787],[16.155,52.9736],[16.0938,52.9956],[16.0385,53.0067],[16.0186,52.9491],[16.0219,52.8853],[15.9246,52.8096],[15.9553,52.7923],[15.9768,52.7431],[15.9479,52.7198],[15.8311,52.6933],[15.8257,52.6497]]]}},
{"type":"Feature","properties":{"entityId":"poland-kingdom","from":1466,"to":1569,"certainty":"estimated","source":"유럽 쪽은 Natural Earth 1:10m admin-1(v5.1.2) 현대 행정구역 조각을 그 시기 국경에 맞춰 묶고, 조각이 역사 경계와 다른 곳은 선을 그어 나눈 근사. 유럽 밖(시베리아·중앙아시아·극동)은 대략적인 추정. 운영자 검수 필요"},"geometry":{"type":"Polygon","coordinates":[[[15.8257,52.6497],[15.8296,52.5938],[15.8649,52.5348],[15.885,52.4633],[15.8849,52.4333],[15.8366,52.4242],[15.899,52.3485],[15.9012,52.287],[15.8687,52.2281],[15.8498,52.169],[15.857,52.1037],[15.9079,52.0649],[15.963,52.0468],[16.0039,51.9896],[16.0394,51.9676],[16.0939,51.9718],[16.1105,51.9654],[16.0984,51.8917],[16.1132,51.8649],[16.1562,51.8467],[16.2015,51.8375],[16.2747,51.8682],[16.3399,51.8237],[16.3711,51.7492],[16.4585,51.7596],[16.4991,51.7529],[16.6118,51.7149],[16.6295,51.6897],[16.6328,51.6571],[16.6761,51.6095],[16.7731,51.5759],[16.8277,51.5383],[16.943,51.5127],[17.1496,51.5354],[17.1874,51.5889],[17.2293,51.5943],[17.3468,51.594],[17.4573,51.5751],[17.5566,51.535],[17.5328,51.4816],[17.4952,51.4503],[17.5007,51.407],[17.5239,51.3703],[17.583,51.3617],[17.6443,51.3694],[17.6824,51.3628],[17.7184,51.3447],[17.6902,51.3026],[17.7016,51.2],[17.7146,51.1502],[17.7492,51.1514],[17.7822,51.1407],[17.8012,51.0948],[17.8537,51.068],[17.9174,51.0658],[18.0358,51.0932],[18.1501,51.1361],[18.1726,51.1108],[18.202,51.0959],[18.4257,51.0596],[18.4964,51.0608],[18.5305,51.0826],[18.5806,51.0334],[18.6556,50.9952],[18.6356,50.9505],[18.68,50.93],[19.03,50.58],[19.1,50.3],[19.17,50.235],[19.19,50.2],[19.22,50.15],[19.23,50.08],[19.2,50.03],[19.2032,50.0294],[19.1679,50.0039],[19.1237,49.9537],[19.1124,49.9202],[19.1325,49.9032],[19.1591,49.9015],[19.1805,49.884],[19.1826,49.8506],[19.2125,49.816],[19.2635,49.8031],[19.2989,49.7483],[19.3688,49.7176],[19.4364,49.7099],[19.433,49.6836],[19.4074,49.6403],[19.4489,49.6004],[19.5052,49.5634],[19.5568,49.4539],[19.5948,49.4416],[19.6348,49.4413],[19.627,49.4019],[19.6845,49.3891],[19.7693,49.3931],[19.7836,49.3576],[19.7895,49.3092],[19.7832,49.29],[19.8068,49.2752],[19.7518,49.2191],[19.7607,49.1942],[19.832,49.1859],[19.8683,49.2008],[19.9059,49.2228],[19.9657,49.2157],[20.0173,49.1839],[20.0505,49.1732],[20.07,49.1831],[20.086,49.243],[20.1302,49.3039],[20.1604,49.3056],[20.2072,49.3342],[20.2844,49.3386],[20.3074,49.3866],[20.3295,49.3918],[20.3705,49.3817],[20.4221,49.383],[20.4375,49.4025],[20.5221,49.3744],[20.5677,49.3764],[20.6053,49.4],[20.6895,49.4005],[20.7783,49.3312],[20.8493,49.3205],[20.9006,49.2926],[20.9424,49.2959],[21.0172,49.3524],[21.0725,49.3572],[21.0685,49.3814],[21.0333,49.3997],[21.0535,49.4145],[21.1249,49.4237],[21.1726,49.3983],[21.2112,49.4111],[21.2425,49.4413],[21.2744,49.4473],[21.3304,49.4278],[21.4279,49.4098],[21.5144,49.4172],[21.6012,49.4265],[21.6663,49.4018],[21.6917,49.4022],[21.7576,49.3489],[21.7994,49.3748],[21.8196,49.3772],[21.8746,49.3484],[21.9284,49.3308],[21.9645,49.3086],[21.9932,49.2782],[22.0124,49.2111],[22.0408,49.1975],[22.1115,49.1886],[22.1557,49.1715],[22.198,49.172],[22.2159,49.14],[22.2629,49.1306],[22.3394,49.1265],[22.3901,49.093],[22.4268,49.0856],[22.505,49.0834],[22.5396,49.0722],[22.5808,49.0814],[22.6429,49.0432],[22.7553,49.0447],[22.784,49.0214],[22.8553,48.994],[22.865,49.0132],[22.9024,48.9833],[22.892,48.9354],[22.926,48.9041],[22.9612,48.8843],[22.9821,48.859],[23.0117,48.8547],[23.105,48.8713],[23.1376,48.8522],[23.1798,48.7903],[23.2016,48.7771],[23.2576,48.7722],[23.2982,48.7812],[23.3085,48.7502],[23.3505,48.772],[23.378,48.7371],[23.4458,48.7267],[23.4985,48.7312],[23.5329,48.7237],[23.6124,48.7038],[23.6745,48.6545],[23.709,48.643],[23.7715,48.6447],[23.7817,48.6034],[23.8471,48.5628],[23.8949,48.5496],[23.9168,48.5154],[23.9074,48.4887],[23.9427,48.4704],[24.0015,48.5001],[24.0462,48.5051],[24.1138,48.5322],[24.137,48.5275],[24.1407,48.4712],[24.1312,48.4345],[24.1408,48.3799],[24.1777,48.3546],[24.2341,48.3505],[24.2707,48.3572],[24.3054,48.3883],[24.3317,48.3748],[24.3458,48.3402],[24.3916,48.3311],[24.4949,48.2666],[24.5415,48.2128],[24.5216,48.1711],[24.5384,48.1345],[24.6068,48.0886],[24.6393,48.0476],[24.5882,47.9959],[24.5698,47.9373],[24.6085,47.9219],[24.6493,47.8952],[24.6615,47.8539],[24.7128,47.8259],[24.7937,47.8045],[24.8207,47.7841],[24.8778,47.7187],[24.9289,47.7139],[24.9341,47.7572],[24.9809,47.8284],[24.9826,47.8519],[24.9629,47.9125],[24.9348,47.9474],[24.9276,47.9896],[24.9345,48.0135],[24.9797,48.0707],[24.9892,48.1002],[25.0174,48.1186],[25.0545,48.1286],[25.1063,48.1695],[25.137,48.1793],[25.1364,48.2276],[25.1961,48.2568],[25.2926,48.3402],[25.3696,48.3802],[25.4474,48.4],[25.5132,48.4029],[25.5637,48.389],[25.5851,48.3929],[25.6004,48.4326],[25.6044,48.5324],[25.5777,48.5808],[25.565,48.621],[25.5724,48.6385],[25.6362,48.6781],[25.7151,48.6645],[25.7312,48.6352],[25.7533,48.6326],[25.7666,48.6576],[25.7935,48.6701],[25.8596,48.6187],[25.863,48.6008],[25.9116,48.5881],[25.9602,48.5964],[25.9856,48.6235],[26.0247,48.6214],[26.0491,48.6477],[26.0623,48.6284],[26.0526,48.5717],[26.0798,48.5473],[26.1172,48.5419],[26.1297,48.5546],[26.1058,48.5809],[26.1049,48.6111],[26.1458,48.5964],[26.1495,48.5396],[26.1809,48.5267],[26.2567,48.5334],[26.3266,48.5116],[26.3805,48.5171],[26.404,48.5341],[26.4706,48.5381],[26.5153,48.5149],[26.5399,48.4789],[26.5664,48.4574],[26.6219,48.4583],[26.607,48.4923],[26.6273,48.5084],[26.6436,48.4925],[26.709,48.4969],[26.6709,48.5267],[26.6144,48.5402],[26.6328,48.5624],[26.7218,48.5352],[26.7392,48.5577],[26.7161,48.5778],[26.7172,48.5948],[26.7406,48.5889],[26.7497,48.5616],[26.7728,48.551],[26.7876,48.5683],[26.7831,48.5935],[26.8081,48.6091],[26.8292,48.6018],[26.8226,48.5812],[26.8414,48.5463],[26.885,48.5435],[26.9247,48.5751],[26.9453,48.5814],[27.1134,48.5593],[27.147,48.5819],[27.1814,48.5819],[27.2141,48.5701],[27.2476,48.5704],[27.2618,48.5957],[27.2344,48.6185],[27.2947,48.6161],[27.3218,48.6009],[27.3704,48.6297],[27.3932,48.6837],[27.4018,48.7316],[27.3962,48.7609],[27.4246,48.7768],[27.4032,48.8152],[27.3999,48.8689],[27.3721,48.9301],[27.3984,48.957],[27.3802,48.9868],[27.3987,49.0207],[27.4707,49.0759],[27.5005,49.1261],[27.5683,49.122],[27.6157,49.1599],[27.7155,49.134],[27.7672,49.116],[27.8106,49.1418],[27.8651,49.1502],[27.889,49.1626],[27.8778,49.21],[27.8567,49.2494],[27.8773,49.2769],[27.8521,49.3049],[27.8442,49.335],[27.8192,49.3412],[27.8088,49.3863],[27.844,49.3961],[27.826,49.4299],[27.7645,49.4303],[27.74,49.4402],[27.7628,49.4667],[27.7293,49.4886],[27.7321,49.5262],[27.7748,49.5272],[27.786,49.5461],[27.7666,49.5632],[27.8156,49.6309],[27.8077,49.6471],[27.7515,49.6735],[27.7625,49.693],[27.6,49.68],[27.2,49.62],[26.6,49.66],[26.2336,49.6356],[26.2249,49.6234],[26.2239,49.62],[26.2,49.62],[26,49.75],[25.8,49.85],[25.6,49.92],[25.3898,49.9873],[25.4038,49.9797],[25.3727,49.9965],[25.3676,50.0131],[25.2959,50.0413],[25.2023,50.095],[25.1854,50.128],[25.1929,50.1816],[25.1677,50.22],[25.2075,50.2501],[25.1957,50.288],[25.1529,50.2925],[25.1041,50.2794],[25.0635,50.2948],[25.0638,50.3345],[25.0489,50.3473],[25.0039,50.3457],[24.9319,50.3702],[24.9114,50.3481],[24.8484,50.3549],[24.773,50.3405],[24.7052,50.3496],[24.6882,50.3767],[24.6394,50.3974],[24.6342,50.4134],[24.591,50.417],[24.5526,50.4384],[24.5418,50.4109],[24.5042,50.4106],[24.4988,50.4397],[24.4567,50.4614],[24.4634,50.4788],[24.5132,50.4867],[24.5354,50.5001],[24.5306,50.5241],[24.5008,50.5455],[24.4343,50.549],[24.4054,50.5674],[24.3795,50.6009],[24.3459,50.6089],[24.3214,50.5926],[24.2479,50.5818],[24.2179,50.5892],[24.1647,50.6402],[24.1259,50.6418],[24.1082,50.6303],[24.0749,50.6902],[24.081,50.713],[24.0269,50.728],[24.0128,50.7433],[24.0259,50.767],[23.9743,50.7762],[23.9576,50.808],[23.9699,50.8252],[24.0205,50.8386],[24.0469,50.8291],[24.1309,50.8391],[24.1302,50.8689],[24.0469,50.898],[23.9793,50.9375],[23.9551,50.9836],[23.9117,51.0068],[23.9042,51.0627],[23.8545,51.1215],[23.8747,51.1361],[23.816,51.1788],[23.7652,51.199],[23.7427,51.2163],[23.6873,51.2924],[23.6352,51.3047],[23.634,51.3393],[23.6839,51.3703],[23.6789,51.3941],[23.6976,51.4044],[23.6487,51.454],[23.6628,51.4802],[23.6148,51.4972],[23.6062,51.5174],[23.5728,51.5397],[23.574,51.5553],[23.5399,51.6071],[23.5438,51.6438],[23.5324,51.659],[23.5604,51.672],[23.5466,51.7136],[23.5604,51.7545],[23.6175,51.7865],[23.6287,51.8098],[23.5946,51.8433],[23.6214,51.8956],[23.6222,51.9279],[23.6476,51.9741],[23.6764,51.9941],[23.6375,52.0845],[23.5794,52.1215],[23.5125,52.1244],[23.4847,52.1586],[23.4505,52.1859],[23.4367,52.1757],[23.3885,52.1842],[23.3958,52.1996],[23.2123,52.2317],[23.1897,52.2405],[23.1945,52.2715],[23.1761,52.2851],[23.1502,52.2816],[23.087,52.2923],[23.039,52.2892],[23.0521,52.3096],[23.0058,52.337],[22.9845,52.3301],[22.9751,52.3528],[22.9228,52.3723],[22.8446,52.3656],[22.689,52.3854],[22.6119,52.3873],[22.5627,52.4041],[22.5388,52.4294],[22.5448,52.4625],[22.5198,52.4733],[22.5114,52.4946],[22.5151,52.5151],[22.5176,52.5294],[22.4119,52.6006],[22.4118,52.6597],[22.3997,52.695],[22.3942,52.7413],[22.4,52.75],[22.5,53.05],[22.42,53.19],[22.74,53.49],[23.1,53.68],[23.4,53.75],[23.4863,53.9227],[23.4856,53.9393],[23.4904,53.9506],[23.4629,53.9725],[23.4593,53.9923],[23.4965,54.022],[23.4962,54.0446],[23.4739,54.1126],[23.4325,54.1693],[23.3823,54.1879],[23.336,54.2263],[23.316,54.2363],[23.2354,54.2542],[23.1171,54.3035],[23.0501,54.2948],[23.0321,54.3096],[23.0416,54.341],[22.9897,54.3534],[22.9733,54.3754],[22.9188,54.3811],[22.8589,54.3992],[22.8113,54.3926],[22.7887,54.3366],[22.7317,54.3017],[22.6653,54.2753],[22.4422,54.257],[22.3481,54.1786],[22.4491,54.0992],[22.4652,54.0417],[22.516,54.0124],[22.6221,53.9248],[22.6185,53.8782],[22.5779,53.8322],[22.543,53.7739],[22.4856,53.7379],[22.207,53.6352],[22.1099,53.5699],[21.9373,53.4993],[21.8626,53.4927],[21.8016,53.4708],[21.7388,53.4576],[21.5957,53.4626],[21.523,53.4435],[21.402,53.4379],[21.3774,53.4299],[21.3488,53.3961],[21.308,53.3788],[21.2626,53.3746],[21.1737,53.3796],[21.0979,53.3256],[21.0079,53.3084],[20.9123,53.3086],[20.8391,53.2834],[20.7756,53.2754],[20.704,53.2759],[20.6346,53.2346],[20.4948,53.1861],[20.4198,53.182],[20.3889,53.1675],[20.3719,53.1337],[20.3158,53.1063],[20.2406,53.098],[19.9248,53.1273],[19.8768,53.1511],[19.8371,53.1437],[19.8112,53.1129],[19.7479,53.0931],[19.7329,53.1846],[19.7096,53.22],[19.6813,53.263],[19.6256,53.2864],[19.5115,53.3043],[19.4045,53.3429],[19.2855,53.3645],[19.2396,53.4122],[19.2148,53.4552],[19.1283,53.5559],[19.1681,53.6],[18.86,53.6],[18.86,53.88],[19.5,53.88],[19.5,53.7873],[19.5201,53.8251],[19.5504,53.8493],[19.5544,53.8822],[19.5044,53.8903],[19.4054,53.8855],[19.3698,53.8958],[19.3892,53.9352],[19.3632,53.9561],[19.3708,53.95],[19.55,53.95],[19.6,54.1],[19.75,54.1],[19.95,54.05],[20.1,54],[20.15,53.88],[20.2,53.75],[20.35,53.68],[20.55,53.66],[20.8,53.7],[21,53.78],[21.15,53.88],[21.28,54],[21.2,54.12],[21,54.1],[20.6,54.2],[20.4,54.22],[20.05,54.36],[19.975,54.4275],[19.7583,54.4343],[19.6803,54.4367],[19.6095,54.4567],[19.6133,54.4588],[19.6133,54.4645],[19.6038,54.4593],[19.5746,54.4429],[19.5606,54.435],[19.5391,54.4282],[19.1874,54.4325],[18.95,54.4354],[18.697,54.4385],[18.6214,54.6823],[18.4614,54.7094],[18.45,54.727],[18.4381,54.7453],[18.45,54.7447],[18.5022,54.7418],[18.6786,54.6654],[18.7659,54.6419],[18.784,54.6235],[18.8176,54.5981],[18.8343,54.6167],[18.814,54.6432],[18.7517,54.6901],[18.6743,54.7169],[18.535,54.77],[18.45,54.7971],[18.3226,54.8377],[18.3188,54.8377],[18.3169,54.8383],[18.1524,54.8383],[18.113,54.8362],[18.0846,54.836],[18.0507,54.8333],[18.05,54.82],[17.98,54.65],[17.9,54.5],[17.85,54.35],[17.75,54.2],[17.62,54.05],[17.5,53.9],[17.4,53.6],[17.3356,53.4712],[17.3528,53.4656],[17.2993,53.4831],[17.0957,53.4881],[17.0372,53.5093],[16.9958,53.5529],[16.9477,53.5882],[16.8722,53.5946],[16.8365,53.5852],[16.7908,53.525],[16.7653,53.4612],[16.7351,53.4577],[16.5511,53.4606],[16.5285,53.4415],[16.5296,53.4017],[16.5451,53.366],[16.6078,53.3296],[16.6833,53.318],[16.7204,53.3064],[16.7516,53.2824],[16.7579,53.2537],[16.7036,53.2058],[16.6747,53.1893],[16.601,53.1755],[16.4562,53.1247],[16.3753,53.0482],[16.2788,52.9932],[16.2174,52.9787],[16.155,52.9736],[16.0938,52.9956],[16.0385,53.0067],[16.0186,52.9491],[16.0219,52.8853],[15.9246,52.8096],[15.9553,52.7923],[15.9768,52.7431],[15.9479,52.7198],[15.8311,52.6933],[15.8257,52.6497]]]}}
]}
