{"type":"FeatureCollection","features":[
{"type":"Feature","properties":{"entityId":"polemonid-pontus","from":-26,"to":-2,"certainty":"estimated","source":"유럽 쪽은 Natural Earth 1:10m admin-1(v5.1.2) 현대 행정구역 조각을 그 시기 국경에 맞춰 묶고, 조각이 역사 경계와 다른 곳은 선을 그어 나눈 근사. 유럽 밖(시베리아·중앙아시아·극동)은 대략적인 추정. 운영자 검수 필요"},"geometry":{"type":"MultiPolygon","coordinates":[[[[35.0315,40.8182],[35.0412,40.7911],[35.1088,40.6891],[35.1401,40.6741],[35.3064,40.6522],[35.3816,40.6181],[35.4324,40.6077],[35.4575,40.5622],[35.4579,40.5254],[35.4347,40.4527],[35.3485,40.3523],[35.3273,40.234],[35.3631,40.2006],[35.4604,40.2003],[35.5098,40.1886],[35.5783,40.1292],[35.6574,40.0868],[35.7503,40.0927],[35.829,40.0805],[35.9228,40.091],[36.0064,40.1147],[36.0478,40.0827],[36.0394,39.9877],[36.0887,39.9237],[36.1167,39.8505],[36.1653,39.7843],[36.2003,39.7696],[36.213,39.7244],[36.1835,39.6426],[36.1104,39.5867],[36.0243,39.5351],[35.959,39.4659],[35.9346,39.4275],[35.9033,39.3952],[35.8576,39.3694],[35.8199,39.3344],[35.8724,39.3315],[35.921,39.3122],[35.9514,39.2736],[36.0166,39.2594],[36.1115,39.2057],[36.2104,39.1955],[36.2867,39.2164],[36.4521,39.1982],[36.5013,39.1686],[36.5513,39.1551],[36.6412,39.1788],[36.7343,39.1788],[36.8205,39.1663],[36.8998,39.1335],[36.9363,39.0442],[36.8936,38.9497],[36.8515,38.8755],[36.8253,38.7963],[36.7739,38.6743],[36.7502,38.6404],[36.7475,38.5994],[36.8789,38.625],[37.0088,38.6105],[37.0597,38.5881],[37.2844,38.6036],[37.3429,38.6249],[37.3936,38.6613],[37.4447,38.7082],[37.5098,38.7366],[37.5805,38.7968],[37.5969,38.8343],[37.5614,38.9222],[37.5516,38.9694],[37.5736,39.0082],[37.6176,39.017],[37.7022,38.9843],[37.7858,38.9983],[37.932,39.0623],[38.01,39.0637],[38.0802,39.0802],[38.1477,39.0726],[38.2123,39.0876],[38.2839,39.1297],[38.3617,39.1503],[38.384,39.1773],[38.3926,39.211],[38.3817,39.2427],[38.3875,39.2791],[38.3689,39.3374],[38.3667,39.3886],[38.403,39.426],[38.4385,39.444],[38.4467,39.4599],[38.4238,39.4841],[38.3556,39.5265],[38.3442,39.5648],[38.3671,39.5991],[38.3786,39.7035],[38.4527,39.7872],[38.49,39.8026],[38.5297,39.8052],[38.5402,39.8328],[38.5192,39.852],[38.4462,39.8382],[38.3772,39.8363],[38.3692,39.8679],[38.4067,39.9507],[38.4511,39.9708],[38.4977,39.9431],[38.5464,39.937],[38.5932,39.9627],[38.6456,39.9715],[38.7372,39.9655],[38.7585,40.0038],[38.7616,40.0549],[38.8055,40.0525],[38.8925,40.0576],[38.9333,40.0713],[38.989,40.0488],[39.0496,40.0391],[39.1583,39.9901],[39.2331,39.9607],[39.2665,39.9303],[39.327,39.9163],[39.3854,39.8933],[39.447,39.888],[39.5058,39.8926],[39.5647,39.8892],[39.622,39.8938],[39.6764,39.9147],[39.7879,39.9348],[39.8317,39.9709],[39.8691,40.0148],[39.8328,40.0769],[39.8115,40.144],[39.8276,40.2092],[39.86,40.2669],[39.8674,40.4136],[39.834,40.561],[39.8699,40.5749],[39.8633,40.5994],[39.8836,40.6118],[39.9138,40.603],[39.9747,40.5503],[40.0159,40.5327],[40.1017,40.5307],[40.1846,40.5104],[40.2279,40.5112],[40.3267,40.53],[40.4294,40.5295],[40.4894,40.5421],[40.6514,40.6041],[40.7918,40.6291],[40.8219,40.6866],[40.8575,40.698],[40.9016,40.6983],[40.9444,40.709],[41.0509,40.7784],[41.1274,40.8129],[41.2055,40.7792],[41.3293,40.7645],[41.3653,40.7547],[41.3727,40.7221],[41.347,40.6864],[41.3334,40.601],[41.4013,40.5556],[41.4935,40.5818],[41.5788,40.6243],[41.6566,40.6412],[41.7347,40.6236],[41.8208,40.5876],[41.8664,40.6397],[41.868,40.6847],[41.8874,40.7244],[41.9272,40.7551],[41.9526,40.7956],[41.946,40.8385],[41.9589,40.8775],[42.0228,40.911],[41.75,40.95],[41.6,41.1],[41.5,41.3],[41.52,41.48],[41.52,41.5271],[41.51,41.5173],[41.5094,41.5168],[41.5073,41.5159],[41.4566,41.4934],[41.4289,41.4811],[41.2999,41.424],[41.2354,41.3954],[41.2032,41.3812],[41.1709,41.3669],[41.1387,41.3526],[41.0418,41.3097],[40.5257,41.0811],[40.3967,41.024],[40.3725,41.0132],[40.3645,41.0141],[40.3322,41.0174],[40.2677,41.0242],[40.0096,41.0511],[39.5124,41.1029],[39.512,41.1029],[39.4935,41.1004],[39.4929,41.101],[39.4302,41.1125],[39.4118,41.1038],[39.2158,41.0735],[39.1683,41.0797],[39.1483,41.0725],[39.1263,41.0596],[39.0204,41.0433],[38.9275,41.0426],[38.8824,41.0219],[38.8532,41.0174],[38.8403,41.0139],[38.3495,40.9488],[38.3334,40.9532],[38.1962,40.9902],[38.1619,40.9994],[38.1276,41.0087],[38.0589,41.0272],[37.7843,41.1013],[37.7839,41.1226],[37.7346,41.1148],[37.6983,41.1246],[37.6898,41.1404],[37.6751,41.1308],[37.2741,41.239],[37.224,41.2525],[37.1989,41.2593],[37.1739,41.2661],[37.1739,41.2497],[37.1489,41.2497],[37.1489,41.1468],[37.1517,41.1468],[37.0984,41.0866],[37.0423,41.0418],[36.9991,40.9797],[36.9203,40.9458],[36.8807,40.9124],[36.8284,40.8878],[36.746,40.875],[36.7052,40.8625],[36.6872,40.8866],[36.6529,40.9056],[36.6,40.9068],[36.5526,40.8902],[36.4431,40.8704],[36.3355,40.9292],[36.3071,40.9738],[36.2792,40.9969],[36.2429,41.007],[36.2031,40.9878],[36.1855,40.9422],[36.1548,40.9014],[36.0735,40.8548],[36.0314,40.8474],[35.9532,40.8759],[35.8208,40.8772],[35.7823,40.8831],[35.7061,40.8788],[35.673,40.886],[35.6388,40.931],[35.4941,41.015],[35.4611,41.0294],[35.4,41.0207],[35.0893,41.0869],[35.098,41.0591],[35.0619,41.0138],[35.0493,40.9837],[35.0466,40.8836],[35.0315,40.8182]]],[[[39.986,43.389],[40.0176,43.3825],[40.322,43.1285],[40.8764,43.0134],[41.0947,42.8735],[41.1047,42.8466],[41.1502,42.7956],[41.2031,42.8041],[41.4524,42.6444],[41.5065,42.4979],[41.5348,42.4213],[41.549,42.383],[41.5632,42.3446],[41.6092,42.22],[41.6198,42.1913],[41.6481,42.1147],[41.6609,42.08],[41.6622,42.0764],[41.6764,42.038],[41.6906,41.9997],[41.7043,41.9625],[41.7039,41.9613],[41.6903,41.923],[41.6768,41.8847],[41.5681,41.5782],[41.558,41.5644],[41.5229,41.53],[41.5325,41.53],[41.5208,41.5142],[41.6273,41.4805],[41.7026,41.489],[41.7185,41.4596],[41.761,41.4535],[41.813,41.4218],[41.8627,41.4518],[41.894,41.4855],[41.948,41.5056],[42.0196,41.4851],[42.0835,41.5001],[42.1118,41.4935],[42.1584,41.4999],[42.1893,41.4817],[42.2625,41.4823],[42.4379,41.4309],[42.451,41.4314],[42.4838,41.4422],[42.5455,41.5096],[42.555,41.5503],[42.5866,41.5791],[42.5473,41.6355],[42.4977,41.6743],[42.4812,41.701],[42.495,41.733],[42.4959,41.7677],[42.4817,41.7987],[42.5312,41.8027],[42.5761,41.7936],[42.6017,41.8217],[42.6496,41.8334],[42.7114,41.8059],[42.8171,41.8261],[42.903,41.8124],[42.9481,41.8118],[42.9909,41.8252],[43.0936,41.832],[43.1274,41.8254],[43.4262,41.9166],[43.4335,41.9554],[43.4695,41.9793],[43.4847,42.0151],[43.4889,42.0574],[43.549,42.0963],[43.5807,42.1511],[43.6082,42.1702],[43.6077,42.2281],[43.6159,42.2578],[43.6835,42.2935],[43.7602,42.309],[43.7728,42.374],[43.7501,42.394],[43.6617,42.3743],[43.6228,42.3787],[43.5874,42.3947],[43.669,42.4433],[43.808,42.4515],[43.8271,42.4582],[43.8489,42.4874],[43.9022,42.5156],[43.9082,42.5662],[43.8854,42.5792],[43.7511,42.5987],[43.7226,42.6249],[43.7257,42.6544],[43.7887,42.6931],[43.8118,42.7173],[43.8006,42.7465],[43.756,42.7631],[43.6628,42.7798],[43.5863,42.8356],[43.5174,42.8605],[43.3862,42.8869],[43.1943,42.9268],[43.1752,42.9345],[43.1556,42.9424],[43.0483,43.017],[42.9898,43.0527],[43.0001,43.0987],[42.9148,43.1219],[42.8298,43.1688],[42.7515,43.177],[42.6736,43.1659],[42.6294,43.1413],[42.5959,43.14],[42.5349,43.1651],[42.4797,43.2009],[42.4229,43.229],[42.3626,43.2352],[42.1854,43.2255],[42.1543,43.2175],[42.0753,43.1853],[42.0113,43.1819],[41.9483,43.2001],[41.89,43.207],[41.8203,43.2012],[41.6874,43.2202],[41.6141,43.213],[41.5506,43.2263],[41.5061,43.2598],[41.4276,43.2832],[41.3807,43.3348],[41.3503,43.3434],[41.2788,43.3332],[41.1808,43.3747],[41.1467,43.3799],[41.0425,43.3698],[41.0118,43.3754],[40.875,43.4556],[40.8427,43.4694],[40.7402,43.4953],[40.69,43.5231],[40.6519,43.539],[40.6155,43.5358],[40.5508,43.5112],[40.4798,43.5087],[40.2331,43.5758],[40.1643,43.5758],[40.0967,43.5626],[40.0592,43.5352],[39.9913,43.4063],[39.986,43.389]]]]}},
{"type":"Feature","properties":{"entityId":"polemonid-pontus","from":-2,"to":64,"certainty":"estimated","source":"유럽 쪽은 Natural Earth 1:10m admin-1(v5.1.2) 현대 행정구역 조각을 그 시기 국경에 맞춰 묶고, 조각이 역사 경계와 다른 곳은 선을 그어 나눈 근사. 유럽 밖(시베리아·중앙아시아·극동)은 대략적인 추정. 운영자 검수 필요"},"geometry":{"type":"MultiPolygon","coordinates":[[[[35.8199,39.3344],[35.8724,39.3315],[35.921,39.3122],[35.9514,39.2736],[36.0166,39.2594],[36.1115,39.2057],[36.2104,39.1955],[36.2867,39.2164],[36.4521,39.1982],[36.5013,39.1686],[36.5513,39.1551],[36.6412,39.1788],[36.7343,39.1788],[36.8205,39.1663],[36.8998,39.1335],[36.9363,39.0442],[36.8936,38.9497],[36.8515,38.8755],[36.8253,38.7963],[36.7739,38.6743],[36.7502,38.6404],[36.7475,38.5994],[36.8789,38.625],[37.0088,38.6105],[37.0597,38.5881],[37.2844,38.6036],[37.3429,38.6249],[37.3936,38.6613],[37.4447,38.7082],[37.5098,38.7366],[37.5805,38.7968],[37.5969,38.8343],[37.5614,38.9222],[37.5516,38.9694],[37.5736,39.0082],[37.6176,39.017],[37.7022,38.9843],[37.7858,38.9983],[37.932,39.0623],[38.01,39.0637],[38.0802,39.0802],[38.1477,39.0726],[38.2123,39.0876],[38.2839,39.1297],[38.3617,39.1503],[38.384,39.1773],[38.3926,39.211],[38.3817,39.2427],[38.3875,39.2791],[38.3689,39.3374],[38.3667,39.3886],[38.403,39.426],[38.4385,39.444],[38.4467,39.4599],[38.4238,39.4841],[38.3556,39.5265],[38.3442,39.5648],[38.3671,39.5991],[38.3786,39.7035],[38.4527,39.7872],[38.49,39.8026],[38.5297,39.8052],[38.5402,39.8328],[38.5192,39.852],[38.4462,39.8382],[38.3772,39.8363],[38.3692,39.8679],[38.4067,39.9507],[38.4511,39.9708],[38.4977,39.9431],[38.5464,39.937],[38.5932,39.9627],[38.6456,39.9715],[38.7372,39.9655],[38.7585,40.0038],[38.7616,40.0549],[38.8055,40.0525],[38.8925,40.0576],[38.9333,40.0713],[38.989,40.0488],[39.0496,40.0391],[39.1583,39.9901],[39.2331,39.9607],[39.2665,39.9303],[39.327,39.9163],[39.3854,39.8933],[39.447,39.888],[39.5058,39.8926],[39.5647,39.8892],[39.622,39.8938],[39.6764,39.9147],[39.7879,39.9348],[39.8317,39.9709],[39.8691,40.0148],[39.8328,40.0769],[39.8115,40.144],[39.8276,40.2092],[39.86,40.2669],[39.8674,40.4136],[39.834,40.561],[39.8699,40.5749],[39.8633,40.5994],[39.8836,40.6118],[39.9138,40.603],[39.9747,40.5503],[40.0159,40.5327],[40.1017,40.5307],[40.1846,40.5104],[40.2279,40.5112],[40.3267,40.53],[40.4294,40.5295],[40.4894,40.5421],[40.6514,40.6041],[40.7918,40.6291],[40.8219,40.6866],[40.8575,40.698],[40.9016,40.6983],[40.9444,40.709],[41.0509,40.7784],[41.1274,40.8129],[41.2055,40.7792],[41.3293,40.7645],[41.3653,40.7547],[41.3727,40.7221],[41.347,40.6864],[41.3334,40.601],[41.4013,40.5556],[41.4935,40.5818],[41.5788,40.6243],[41.6566,40.6412],[41.7347,40.6236],[41.8208,40.5876],[41.8664,40.6397],[41.868,40.6847],[41.8874,40.7244],[41.9272,40.7551],[41.9526,40.7956],[41.946,40.8385],[41.9589,40.8775],[42.0228,40.911],[41.75,40.95],[41.6,41.1],[41.5,41.3],[41.52,41.48],[41.52,41.5271],[41.51,41.5173],[41.5094,41.5168],[41.5073,41.5159],[41.4566,41.4934],[41.4289,41.4811],[41.2999,41.424],[41.2354,41.3954],[41.2032,41.3812],[41.1709,41.3669],[41.1387,41.3526],[41.0418,41.3097],[40.5257,41.0811],[40.3967,41.024],[40.3725,41.0132],[40.3645,41.0141],[40.3322,41.0174],[40.2677,41.0242],[40.0096,41.0511],[39.5124,41.1029],[39.512,41.1029],[39.4935,41.1004],[39.4929,41.101],[39.4302,41.1125],[39.4118,41.1038],[39.2158,41.0735],[39.1683,41.0797],[39.1483,41.0725],[39.1263,41.0596],[39.0204,41.0433],[38.9275,41.0426],[38.8824,41.0219],[38.8532,41.0174],[38.8403,41.0139],[38.3495,40.9488],[38.3334,40.9532],[38.1962,40.9902],[38.1619,40.9994],[38.1276,41.0087],[38.0589,41.0272],[37.7843,41.1013],[37.7839,41.1226],[37.7346,41.1148],[37.6983,41.1246],[37.6898,41.1404],[37.6751,41.1308],[37.2741,41.239],[37.224,41.2525],[37.1989,41.2593],[37.1739,41.2661],[37.1739,41.2497],[37.1489,41.2497],[37.1489,41.1468],[37.1517,41.1468],[37.0984,41.0866],[37.0423,41.0418],[36.9991,40.9797],[36.9203,40.9458],[36.8807,40.9124],[36.8284,40.8878],[36.746,40.875],[36.7052,40.8625],[36.6875,40.836],[36.6989,40.8068],[36.7565,40.792],[36.8118,40.7661],[36.8954,40.7447],[36.9468,40.7203],[37.0134,40.6989],[37.0846,40.6943],[37.1525,40.7019],[37.2197,40.6977],[37.4488,40.5759],[37.5841,40.5694],[37.617,40.5212],[37.6349,40.4612],[37.5841,40.382],[37.5241,40.317],[37.4221,40.2955],[37.3508,40.259],[37.2671,40.2494],[37.1824,40.2529],[37.0894,40.2434],[36.9587,40.2167],[36.9222,40.2049],[36.8077,40.2166],[36.7339,40.1913],[36.6669,40.0345],[36.6349,40.0097],[36.4875,39.9659],[36.3221,39.9597],[36.0887,39.9237],[36.1167,39.8505],[36.1653,39.7843],[36.2003,39.7696],[36.213,39.7244],[36.1835,39.6426],[36.1104,39.5867],[36.0243,39.5351],[35.959,39.4659],[35.9346,39.4275],[35.9033,39.3952],[35.8576,39.3694],[35.8199,39.3344]]],[[[39.986,43.389],[40.0176,43.3825],[40.322,43.1285],[40.8764,43.0134],[41.0947,42.8735],[41.1047,42.8466],[41.1502,42.7956],[41.2031,42.8041],[41.4524,42.6444],[41.5065,42.4979],[41.5348,42.4213],[41.549,42.383],[41.5632,42.3446],[41.6092,42.22],[41.6198,42.1913],[41.6481,42.1147],[41.6609,42.08],[41.6622,42.0764],[41.6764,42.038],[41.6906,41.9997],[41.7043,41.9625],[41.7039,41.9613],[41.6903,41.923],[41.6768,41.8847],[41.5681,41.5782],[41.558,41.5644],[41.5229,41.53],[41.5325,41.53],[41.5208,41.5142],[41.6273,41.4805],[41.7026,41.489],[41.7185,41.4596],[41.761,41.4535],[41.813,41.4218],[41.8627,41.4518],[41.894,41.4855],[41.948,41.5056],[42.0196,41.4851],[42.0835,41.5001],[42.1118,41.4935],[42.1584,41.4999],[42.1893,41.4817],[42.2625,41.4823],[42.4379,41.4309],[42.451,41.4314],[42.4838,41.4422],[42.5455,41.5096],[42.555,41.5503],[42.5866,41.5791],[42.5473,41.6355],[42.4977,41.6743],[42.4812,41.701],[42.495,41.733],[42.4959,41.7677],[42.4817,41.7987],[42.5312,41.8027],[42.5761,41.7936],[42.6017,41.8217],[42.6496,41.8334],[42.7114,41.8059],[42.8171,41.8261],[42.903,41.8124],[42.9481,41.8118],[42.9909,41.8252],[43.0936,41.832],[43.1274,41.8254],[43.4262,41.9166],[43.4335,41.9554],[43.4695,41.9793],[43.4847,42.0151],[43.4889,42.0574],[43.549,42.0963],[43.5807,42.1511],[43.6082,42.1702],[43.6077,42.2281],[43.6159,42.2578],[43.6835,42.2935],[43.7602,42.309],[43.7728,42.374],[43.7501,42.394],[43.6617,42.3743],[43.6228,42.3787],[43.5874,42.3947],[43.669,42.4433],[43.808,42.4515],[43.8271,42.4582],[43.8489,42.4874],[43.9022,42.5156],[43.9082,42.5662],[43.8854,42.5792],[43.7511,42.5987],[43.7226,42.6249],[43.7257,42.6544],[43.7887,42.6931],[43.8118,42.7173],[43.8006,42.7465],[43.756,42.7631],[43.6628,42.7798],[43.5863,42.8356],[43.5174,42.8605],[43.3862,42.8869],[43.1943,42.9268],[43.1752,42.9345],[43.1556,42.9424],[43.0483,43.017],[42.9898,43.0527],[43.0001,43.0987],[42.9148,43.1219],[42.8298,43.1688],[42.7515,43.177],[42.6736,43.1659],[42.6294,43.1413],[42.5959,43.14],[42.5349,43.1651],[42.4797,43.2009],[42.4229,43.229],[42.3626,43.2352],[42.1854,43.2255],[42.1543,43.2175],[42.0753,43.1853],[42.0113,43.1819],[41.9483,43.2001],[41.89,43.207],[41.8203,43.2012],[41.6874,43.2202],[41.6141,43.213],[41.5506,43.2263],[41.5061,43.2598],[41.4276,43.2832],[41.3807,43.3348],[41.3503,43.3434],[41.2788,43.3332],[41.1808,43.3747],[41.1467,43.3799],[41.0425,43.3698],[41.0118,43.3754],[40.875,43.4556],[40.8427,43.4694],[40.7402,43.4953],[40.69,43.5231],[40.6519,43.539],[40.6155,43.5358],[40.5508,43.5112],[40.4798,43.5087],[40.2331,43.5758],[40.1643,43.5758],[40.0967,43.5626],[40.0592,43.5352],[39.9913,43.4063],[39.986,43.389]]]]}}
]}
