{"type":"FeatureCollection","features":[
{"type":"Feature","properties":{"entityId":"polish-duchies","from":1138,"to":1230,"certainty":"estimated","source":"유럽 쪽은 Natural Earth 1:10m admin-1(v5.1.2) 현대 행정구역 조각을 그 시기 국경에 맞춰 묶고, 조각이 역사 경계와 다른 곳은 선을 그어 나눈 근사. 유럽 밖(시베리아·중앙아시아·극동)은 대략적인 추정. 운영자 검수 필요"},"geometry":{"type":"Polygon","coordinates":[[[14.5398,52.4219],[14.5454,52.3822],[14.5901,52.3094],[14.5842,52.2912],[14.6066,52.2758],[14.6969,52.2535],[14.7121,52.2154],[14.6931,52.2],[14.6926,52.1996],[14.707,52.1795],[14.6864,52.121],[14.6964,52.1067],[14.7614,52.0767],[14.7354,52.054],[14.7261,52.0264],[14.6991,51.9925],[14.6956,51.9315],[14.6533,51.8786],[14.5959,51.8424],[14.5858,51.8039],[14.6342,51.769],[14.6484,51.7172],[14.7195,51.6756],[14.7423,51.633],[14.7439,51.6066],[14.7127,51.5674],[14.7068,51.5408],[14.7322,51.5158],[14.7975,51.5021],[14.8414,51.4844],[14.911,51.469],[14.9451,51.4492],[14.9506,51.3965],[14.9638,51.3284],[15.0195,51.2717],[15.0221,51.2368],[15.0049,51.2156],[14.9832,51.1609],[14.98,51.1228],[14.9603,51.1046],[14.9553,51.064],[14.8602,50.9168],[14.8105,50.8771],[14.8104,50.8584],[14.8679,50.8644],[14.9821,50.8591],[14.9849,50.9181],[14.9966,50.9592],[14.961,50.9927],[14.9965,51.0078],[15.0736,51.0026],[15.1079,50.981],[15.1315,51.0058],[15.1561,51.0078],[15.1702,50.978],[15.2271,50.9774],[15.2698,50.9527],[15.2531,50.9141],[15.2878,50.8549],[15.341,50.8317],[15.353,50.813],[15.3497,50.7837],[15.3703,50.7726],[15.4001,50.798],[15.4418,50.8002],[15.5221,50.7824],[15.6419,50.7558],[15.6843,50.7314],[15.7674,50.7442],[15.7976,50.7298],[15.8482,50.6752],[15.8823,50.6742],[15.9415,50.6884],[15.9715,50.6786],[15.9932,50.6494],[15.9964,50.6237],[15.982,50.6036],[16.0245,50.6086],[16.0865,50.6468],[16.1287,50.644],[16.1755,50.6241],[16.2045,50.6363],[16.2191,50.6591],[16.2683,50.6604],[16.3316,50.644],[16.4168,50.5866],[16.4259,50.5676],[16.3945,50.5593],[16.3912,50.5218],[16.3526,50.4928],[16.3034,50.496],[16.28,50.4799],[16.2112,50.4513],[16.1902,50.4242],[16.1996,50.4063],[16.232,50.4026],[16.2625,50.3644],[16.3342,50.3719],[16.3508,50.3606],[16.3532,50.3335],[16.371,50.3184],[16.4378,50.298],[16.5048,50.228],[16.535,50.2077],[16.5573,50.1547],[16.5842,50.1274],[16.6606,50.093],[16.7012,50.0949],[16.7543,50.1323],[16.7953,50.1744],[16.8177,50.1868],[16.8698,50.1897],[16.919,50.2171],[16.9553,50.2135],[16.9603,50.232],[17.0084,50.21],[16.9878,50.2849],[16.9265,50.3193],[16.8979,50.3782],[16.8659,50.4084],[16.893,50.4329],[16.944,50.4203],[17.0847,50.398],[17.1189,50.3812],[17.1876,50.3785],[17.201,50.3432],[17.2461,50.3221],[17.3168,50.3186],[17.3341,50.2957],[17.3348,50.27],[17.355,50.2533],[17.388,50.2726],[17.4191,50.2427],[17.44,50.2427],[17.4694,50.2656],[17.517,50.2684],[17.6064,50.2582],[17.6467,50.2711],[17.6845,50.3124],[17.708,50.311],[17.7345,50.2895],[17.7214,50.2427],[17.7476,50.2175],[17.7382,50.2024],[17.6753,50.1747],[17.5894,50.1632],[17.5842,50.1459],[17.6328,50.1063],[17.6776,50.1077],[17.732,50.0949],[17.7195,50.0809],[17.743,50.0606],[17.7633,50.0252],[17.8394,49.9736],[17.8757,49.9687],[17.9121,49.9758],[17.9416,49.9928],[17.9999,49.9966],[18.0375,50.0072],[18.0069,50.0241],[18.0191,50.0441],[18.0916,50.0172],[18.0982,49.989],[18.162,49.9812],[18.2087,49.9583],[18.2559,49.946],[18.2925,49.9078],[18.3277,49.919],[18.3569,49.9282],[18.3688,49.932],[18.3874,49.9262],[18.4818,49.8966],[18.5444,49.913],[18.5592,49.9072],[18.5673,49.8615],[18.5938,49.8522],[18.5663,49.8316],[18.5668,49.8048],[18.6077,49.743],[18.6177,49.7139],[18.6373,49.7003],[18.6824,49.6958],[18.7277,49.6689],[18.7735,49.6758],[18.7926,49.6608],[18.7993,49.6264],[18.8345,49.5476],[18.8332,49.5103],[18.9322,49.5043],[18.9611,49.4928],[18.9524,49.4759],[18.9623,49.3892],[19.0071,49.3881],[19.0676,49.4061],[19.1166,49.3909],[19.1725,49.4023],[19.2205,49.493],[19.2487,49.5163],[19.3471,49.533],[19.4338,49.5952],[19.4489,49.6004],[19.5052,49.5634],[19.5568,49.4539],[19.5948,49.4416],[19.6348,49.4413],[19.627,49.4019],[19.6845,49.3891],[19.7693,49.3931],[19.7836,49.3576],[19.7895,49.3092],[19.7832,49.29],[19.8068,49.2752],[19.7518,49.2191],[19.7607,49.1942],[19.832,49.1859],[19.8683,49.2008],[19.9059,49.2228],[19.9657,49.2157],[20.0173,49.1839],[20.0505,49.1732],[20.07,49.1831],[20.086,49.243],[20.1302,49.3039],[20.1604,49.3056],[20.2072,49.3342],[20.2844,49.3386],[20.3074,49.3866],[20.3295,49.3918],[20.3705,49.3817],[20.4221,49.383],[20.4375,49.4025],[20.5221,49.3744],[20.5677,49.3764],[20.6053,49.4],[20.6895,49.4005],[20.7783,49.3312],[20.8493,49.3205],[20.9006,49.2926],[20.9424,49.2959],[21.0172,49.3524],[21.0725,49.3572],[21.0685,49.3814],[21.0333,49.3997],[21.0535,49.4145],[21.1249,49.4237],[21.1726,49.3983],[21.2112,49.4111],[21.2425,49.4413],[21.2744,49.4473],[21.3304,49.4278],[21.4279,49.4098],[21.5144,49.4172],[21.6012,49.4265],[21.6663,49.4018],[21.6917,49.4022],[21.7576,49.3489],[21.7994,49.3748],[21.8196,49.3772],[21.8746,49.3484],[21.9284,49.3308],[21.9645,49.3086],[21.9932,49.2782],[22.0124,49.2111],[22.0408,49.1975],[22.1115,49.1886],[22.1557,49.1715],[22.198,49.172],[22.2159,49.14],[22.2629,49.1306],[22.3394,49.1265],[22.3901,49.093],[22.4268,49.0856],[22.505,49.0834],[22.5396,49.0722],[22.5808,49.0814],[22.6429,49.0432],[22.7553,49.0447],[22.784,49.0214],[22.8553,48.994],[22.865,49.0132],[22.8475,49.0337],[22.8534,49.0848],[22.7781,49.1203],[22.7488,49.1456],[22.7057,49.1688],[22.6817,49.1612],[22.7029,49.195],[22.7378,49.2754],[22.7242,49.3671],[22.7142,49.3906],[22.6796,49.4189],[22.6669,49.4784],[22.6409,49.5288],[22.6658,49.5674],[22.7417,49.6337],[22.7773,49.6805],[22.8266,49.6974],[22.8882,49.7697],[22.9244,49.7854],[22.9512,49.8266],[22.993,49.8544],[23.1015,49.9571],[23.1778,50.004],[23.2079,50.034],[23.4364,50.1935],[23.5653,50.2578],[23.6587,50.327],[23.6957,50.3768],[23.7475,50.3894],[23.9287,50.3908],[23.9813,50.4048],[24.0032,50.4377],[24.0107,50.4928],[24.075,50.5143],[24.1077,50.5408],[24.0954,50.5569],[24.0853,50.6044],[24.1082,50.6303],[24.0749,50.6902],[24.081,50.713],[24.0269,50.728],[24.0128,50.7433],[24.0259,50.767],[23.9743,50.7762],[23.9576,50.808],[23.9699,50.8252],[24.0205,50.8386],[24.0469,50.8291],[24.1309,50.8391],[24.1302,50.8689],[24.0469,50.898],[23.9793,50.9375],[23.9551,50.9836],[23.9117,51.0068],[23.9042,51.0627],[23.8545,51.1215],[23.8747,51.1361],[23.816,51.1788],[23.7652,51.199],[23.7427,51.2163],[23.6873,51.2924],[23.6352,51.3047],[23.634,51.3393],[23.6839,51.3703],[23.6789,51.3941],[23.6976,51.4044],[23.6487,51.454],[23.6628,51.4802],[23.6148,51.4972],[23.6062,51.5174],[23.5728,51.5397],[23.574,51.5553],[23.5399,51.6071],[23.5438,51.6438],[23.5324,51.659],[23.5604,51.672],[23.5466,51.7136],[23.5604,51.7545],[23.6175,51.7865],[23.6287,51.8098],[23.5946,51.8433],[23.6214,51.8956],[23.6222,51.9279],[23.6476,51.9741],[23.6764,51.9941],[23.6375,52.0845],[23.5794,52.1215],[23.5125,52.1244],[23.4847,52.1586],[23.4505,52.1859],[23.4367,52.1757],[23.3885,52.1842],[23.3958,52.1996],[23.2123,52.2317],[23.1897,52.2405],[23.1945,52.2715],[23.1761,52.2851],[23.1502,52.2816],[23.087,52.2923],[23.039,52.2892],[23.0521,52.3096],[23.0058,52.337],[22.9845,52.3301],[22.9751,52.3528],[22.9228,52.3723],[22.8446,52.3656],[22.689,52.3854],[22.6119,52.3873],[22.5627,52.4041],[22.5388,52.4294],[22.5448,52.4625],[22.5198,52.4733],[22.5114,52.4946],[22.5151,52.5151],[22.5176,52.5294],[22.4119,52.6006],[22.4118,52.6597],[22.3997,52.695],[22.3942,52.7413],[22.4,52.75],[22.5,53.05],[22.42,53.19],[22.74,53.49],[23.1,53.68],[23.4,53.75],[23.4863,53.9227],[23.4856,53.9393],[23.4904,53.9506],[23.4629,53.9725],[23.4593,53.9923],[23.4965,54.022],[23.4962,54.0446],[23.4739,54.1126],[23.4325,54.1693],[23.3823,54.1879],[23.336,54.2263],[23.316,54.2363],[23.2354,54.2542],[23.1171,54.3035],[23.0501,54.2948],[23.0321,54.3096],[23.0416,54.341],[22.9897,54.3534],[22.9733,54.3754],[22.9188,54.3811],[22.8589,54.3992],[22.8113,54.3926],[22.7887,54.3366],[22.7317,54.3017],[22.6653,54.2753],[22.4422,54.257],[22.3481,54.1786],[22.4491,54.0992],[22.4652,54.0417],[22.516,54.0124],[22.6221,53.9248],[22.6185,53.8782],[22.5779,53.8322],[22.543,53.7739],[22.4856,53.7379],[22.207,53.6352],[22.1099,53.5699],[21.9373,53.4993],[21.8626,53.4927],[21.8016,53.4708],[21.7388,53.4576],[21.5957,53.4626],[21.523,53.4435],[21.402,53.4379],[21.3774,53.4299],[21.3488,53.3961],[21.308,53.3788],[21.2626,53.3746],[21.1737,53.3796],[21.0979,53.3256],[21.0079,53.3084],[20.9123,53.3086],[20.8391,53.2834],[20.7756,53.2754],[20.704,53.2759],[20.6346,53.2346],[20.4948,53.1861],[20.4198,53.182],[20.3889,53.1675],[20.3719,53.1337],[20.3158,53.1063],[20.2406,53.098],[19.9248,53.1273],[19.8768,53.1511],[19.8371,53.1437],[19.8112,53.1129],[19.7479,53.0931],[19.7329,53.1846],[19.7096,53.22],[19.6813,53.263],[19.6256,53.2864],[19.5115,53.3043],[19.4045,53.3429],[19.2855,53.3645],[19.2396,53.4122],[19.2148,53.4552],[19.1283,53.5559],[19.1681,53.6],[18.86,53.6],[18.86,53.88],[19.5,53.88],[19.5,53.7873],[19.5201,53.8251],[19.5504,53.8493],[19.5544,53.8822],[19.5044,53.8903],[19.4054,53.8855],[19.3698,53.8958],[19.3892,53.9352],[19.3632,53.9561],[19.3118,53.9601],[19.2636,53.9769],[19.2301,54.0095],[19.2093,54.0721],[19.2688,54.112],[19.2958,54.1465],[19.2428,54.2313],[19.2497,54.2654],[19.2739,54.2816],[19.3863,54.2766],[19.3652,54.2282],[19.4347,54.2971],[19.5634,54.3463],[19.6192,54.3535],[19.6839,54.3814],[19.7205,54.391],[19.7583,54.4343],[19.6803,54.4367],[19.6095,54.4567],[19.6133,54.4588],[19.6133,54.4645],[19.6038,54.4593],[19.5746,54.4429],[19.5606,54.435],[19.5391,54.4282],[19.1874,54.4325],[18.95,54.4354],[18.697,54.4385],[18.6214,54.6823],[18.4614,54.7094],[18.45,54.727],[18.4381,54.7453],[18.45,54.7447],[18.5022,54.7418],[18.6786,54.6654],[18.7659,54.6419],[18.784,54.6235],[18.8176,54.5981],[18.8343,54.6167],[18.814,54.6432],[18.7517,54.6901],[18.6743,54.7169],[18.535,54.77],[18.45,54.7971],[18.3226,54.8377],[18.3188,54.8377],[18.3169,54.8383],[18.1524,54.8383],[18.113,54.8362],[18.0846,54.836],[18.0507,54.8333],[18.05,54.82],[17.98,54.65],[17.9,54.5],[17.85,54.35],[17.75,54.2],[17.62,54.05],[17.5,53.9],[17.4,53.6],[17.3356,53.4712],[17.3528,53.4656],[17.2993,53.4831],[17.0957,53.4881],[17.0372,53.5093],[16.9958,53.5529],[16.9477,53.5882],[16.8722,53.5946],[16.8365,53.5852],[16.7908,53.525],[16.7653,53.4612],[16.7351,53.4577],[16.5511,53.4606],[16.5285,53.4415],[16.5296,53.4017],[16.5451,53.366],[16.6078,53.3296],[16.6833,53.318],[16.7204,53.3064],[16.7516,53.2824],[16.7579,53.2537],[16.7036,53.2058],[16.6747,53.1893],[16.601,53.1755],[16.4562,53.1247],[16.3753,53.0482],[16.2788,52.9932],[16.2174,52.9787],[16.155,52.9736],[16.0938,52.9956],[16.0385,53.0067],[16.0567,53.0543],[16.0384,53.0884],[16.0304,53.1032],[15.9801,53.1099],[15.9258,53.1053],[15.8733,53.0803],[15.7836,53.0112],[15.7331,52.9889],[15.527,52.9893],[15.3575,52.9542],[15.301,52.9523],[15.3481,52.9333],[15.3101,52.8896],[15.2487,52.8465],[15.1958,52.842],[15.0298,52.8753],[14.9319,52.8426],[14.8683,52.7581],[14.7899,52.6911],[14.7394,52.6782],[14.6543,52.6699],[14.6324,52.6499],[14.608,52.5965],[14.6448,52.5769],[14.6091,52.5178],[14.6323,52.4967],[14.5916,52.4498],[14.5398,52.4219]]]}},
{"type":"Feature","properties":{"entityId":"polish-duchies","from":1230,"to":1249,"certainty":"estimated","source":"유럽 쪽은 Natural Earth 1:10m admin-1(v5.1.2) 현대 행정구역 조각을 그 시기 국경에 맞춰 묶고, 조각이 역사 경계와 다른 곳은 선을 그어 나눈 근사. 유럽 밖(시베리아·중앙아시아·극동)은 대략적인 추정. 운영자 검수 필요"},"geometry":{"type":"Polygon","coordinates":[[[14.5398,52.4219],[14.5454,52.3822],[14.5901,52.3094],[14.5842,52.2912],[14.6066,52.2758],[14.6969,52.2535],[14.7121,52.2154],[14.6931,52.2],[14.6926,52.1996],[14.707,52.1795],[14.6864,52.121],[14.6964,52.1067],[14.7614,52.0767],[14.7354,52.054],[14.7261,52.0264],[14.6991,51.9925],[14.6956,51.9315],[14.6533,51.8786],[14.5959,51.8424],[14.5858,51.8039],[14.6342,51.769],[14.6484,51.7172],[14.7195,51.6756],[14.7423,51.633],[14.7439,51.6066],[14.7127,51.5674],[14.7068,51.5408],[14.7322,51.5158],[14.7975,51.5021],[14.8414,51.4844],[14.911,51.469],[14.9451,51.4492],[14.9506,51.3965],[14.9638,51.3284],[15.0195,51.2717],[15.0221,51.2368],[15.0049,51.2156],[14.9832,51.1609],[14.98,51.1228],[14.9603,51.1046],[14.9553,51.064],[14.8602,50.9168],[14.8105,50.8771],[14.8104,50.8584],[14.8679,50.8644],[14.9821,50.8591],[14.9849,50.9181],[14.9966,50.9592],[14.961,50.9927],[14.9965,51.0078],[15.0736,51.0026],[15.1079,50.981],[15.1315,51.0058],[15.1561,51.0078],[15.1702,50.978],[15.2271,50.9774],[15.2698,50.9527],[15.2531,50.9141],[15.2878,50.8549],[15.341,50.8317],[15.353,50.813],[15.3497,50.7837],[15.3703,50.7726],[15.4001,50.798],[15.4418,50.8002],[15.5221,50.7824],[15.6419,50.7558],[15.6843,50.7314],[15.7674,50.7442],[15.7976,50.7298],[15.8482,50.6752],[15.8823,50.6742],[15.9415,50.6884],[15.9715,50.6786],[15.9932,50.6494],[15.9964,50.6237],[15.982,50.6036],[16.0245,50.6086],[16.0865,50.6468],[16.1287,50.644],[16.1755,50.6241],[16.2045,50.6363],[16.2191,50.6591],[16.2683,50.6604],[16.3316,50.644],[16.4168,50.5866],[16.4259,50.5676],[16.3945,50.5593],[16.3912,50.5218],[16.3526,50.4928],[16.3034,50.496],[16.28,50.4799],[16.2112,50.4513],[16.1902,50.4242],[16.1996,50.4063],[16.232,50.4026],[16.2625,50.3644],[16.3342,50.3719],[16.3508,50.3606],[16.3532,50.3335],[16.371,50.3184],[16.4378,50.298],[16.5048,50.228],[16.535,50.2077],[16.5573,50.1547],[16.5842,50.1274],[16.6606,50.093],[16.7012,50.0949],[16.7543,50.1323],[16.7953,50.1744],[16.8177,50.1868],[16.8698,50.1897],[16.919,50.2171],[16.9553,50.2135],[16.9603,50.232],[17.0084,50.21],[16.9878,50.2849],[16.9265,50.3193],[16.8979,50.3782],[16.8659,50.4084],[16.893,50.4329],[16.944,50.4203],[17.0847,50.398],[17.1189,50.3812],[17.1876,50.3785],[17.201,50.3432],[17.2461,50.3221],[17.3168,50.3186],[17.3341,50.2957],[17.3348,50.27],[17.355,50.2533],[17.388,50.2726],[17.4191,50.2427],[17.44,50.2427],[17.4694,50.2656],[17.517,50.2684],[17.6064,50.2582],[17.6467,50.2711],[17.6845,50.3124],[17.708,50.311],[17.7345,50.2895],[17.7214,50.2427],[17.7476,50.2175],[17.7382,50.2024],[17.6753,50.1747],[17.5894,50.1632],[17.5842,50.1459],[17.6328,50.1063],[17.6776,50.1077],[17.732,50.0949],[17.7195,50.0809],[17.743,50.0606],[17.7633,50.0252],[17.8394,49.9736],[17.8757,49.9687],[17.9121,49.9758],[17.9416,49.9928],[17.9999,49.9966],[18.0375,50.0072],[18.0069,50.0241],[18.0191,50.0441],[18.0916,50.0172],[18.0982,49.989],[18.162,49.9812],[18.2087,49.9583],[18.2559,49.946],[18.2925,49.9078],[18.3277,49.919],[18.3569,49.9282],[18.3688,49.932],[18.3874,49.9262],[18.4818,49.8966],[18.5444,49.913],[18.5592,49.9072],[18.5673,49.8615],[18.5938,49.8522],[18.5663,49.8316],[18.5668,49.8048],[18.6077,49.743],[18.6177,49.7139],[18.6373,49.7003],[18.6824,49.6958],[18.7277,49.6689],[18.7735,49.6758],[18.7926,49.6608],[18.7993,49.6264],[18.8345,49.5476],[18.8332,49.5103],[18.9322,49.5043],[18.9611,49.4928],[18.9524,49.4759],[18.9623,49.3892],[19.0071,49.3881],[19.0676,49.4061],[19.1166,49.3909],[19.1725,49.4023],[19.2205,49.493],[19.2487,49.5163],[19.3471,49.533],[19.4338,49.5952],[19.4489,49.6004],[19.5052,49.5634],[19.5568,49.4539],[19.5948,49.4416],[19.6348,49.4413],[19.627,49.4019],[19.6845,49.3891],[19.7693,49.3931],[19.7836,49.3576],[19.7895,49.3092],[19.7832,49.29],[19.8068,49.2752],[19.7518,49.2191],[19.7607,49.1942],[19.832,49.1859],[19.8683,49.2008],[19.9059,49.2228],[19.9657,49.2157],[20.0173,49.1839],[20.0505,49.1732],[20.07,49.1831],[20.086,49.243],[20.1302,49.3039],[20.1604,49.3056],[20.2072,49.3342],[20.2844,49.3386],[20.3074,49.3866],[20.3295,49.3918],[20.3705,49.3817],[20.4221,49.383],[20.4375,49.4025],[20.5221,49.3744],[20.5677,49.3764],[20.6053,49.4],[20.6895,49.4005],[20.7783,49.3312],[20.8493,49.3205],[20.9006,49.2926],[20.9424,49.2959],[21.0172,49.3524],[21.0725,49.3572],[21.0685,49.3814],[21.0333,49.3997],[21.0535,49.4145],[21.1249,49.4237],[21.1726,49.3983],[21.2112,49.4111],[21.2425,49.4413],[21.2744,49.4473],[21.3304,49.4278],[21.4279,49.4098],[21.5144,49.4172],[21.6012,49.4265],[21.6663,49.4018],[21.6917,49.4022],[21.7576,49.3489],[21.7994,49.3748],[21.8196,49.3772],[21.8746,49.3484],[21.9284,49.3308],[21.9645,49.3086],[21.9932,49.2782],[22.0124,49.2111],[22.0408,49.1975],[22.1115,49.1886],[22.1557,49.1715],[22.198,49.172],[22.2159,49.14],[22.2629,49.1306],[22.3394,49.1265],[22.3901,49.093],[22.4268,49.0856],[22.505,49.0834],[22.5396,49.0722],[22.5808,49.0814],[22.6429,49.0432],[22.7553,49.0447],[22.784,49.0214],[22.8553,48.994],[22.865,49.0132],[22.8475,49.0337],[22.8534,49.0848],[22.7781,49.1203],[22.7488,49.1456],[22.7057,49.1688],[22.6817,49.1612],[22.7029,49.195],[22.7378,49.2754],[22.7242,49.3671],[22.7142,49.3906],[22.6796,49.4189],[22.6669,49.4784],[22.6409,49.5288],[22.6658,49.5674],[22.7417,49.6337],[22.7773,49.6805],[22.8266,49.6974],[22.8882,49.7697],[22.9244,49.7854],[22.9512,49.8266],[22.993,49.8544],[23.1015,49.9571],[23.1778,50.004],[23.2079,50.034],[23.4364,50.1935],[23.5653,50.2578],[23.6587,50.327],[23.6957,50.3768],[23.7475,50.3894],[23.9287,50.3908],[23.9813,50.4048],[24.0032,50.4377],[24.0107,50.4928],[24.075,50.5143],[24.1077,50.5408],[24.0954,50.5569],[24.0853,50.6044],[24.1082,50.6303],[24.0749,50.6902],[24.081,50.713],[24.0269,50.728],[24.0128,50.7433],[24.0259,50.767],[23.9743,50.7762],[23.9576,50.808],[23.9699,50.8252],[24.0205,50.8386],[24.0469,50.8291],[24.1309,50.8391],[24.1302,50.8689],[24.0469,50.898],[23.9793,50.9375],[23.9551,50.9836],[23.9117,51.0068],[23.9042,51.0627],[23.8545,51.1215],[23.8747,51.1361],[23.816,51.1788],[23.7652,51.199],[23.7427,51.2163],[23.6873,51.2924],[23.6352,51.3047],[23.634,51.3393],[23.6839,51.3703],[23.6789,51.3941],[23.6976,51.4044],[23.6487,51.454],[23.6628,51.4802],[23.6148,51.4972],[23.6062,51.5174],[23.5728,51.5397],[23.574,51.5553],[23.5399,51.6071],[23.5438,51.6438],[23.5324,51.659],[23.5604,51.672],[23.5466,51.7136],[23.5604,51.7545],[23.6175,51.7865],[23.6287,51.8098],[23.5946,51.8433],[23.6214,51.8956],[23.6222,51.9279],[23.6476,51.9741],[23.6764,51.9941],[23.6375,52.0845],[23.5794,52.1215],[23.5125,52.1244],[23.4847,52.1586],[23.4505,52.1859],[23.4367,52.1757],[23.3885,52.1842],[23.3958,52.1996],[23.2123,52.2317],[23.1897,52.2405],[23.1945,52.2715],[23.1761,52.2851],[23.1502,52.2816],[23.087,52.2923],[23.039,52.2892],[23.0521,52.3096],[23.0058,52.337],[22.9845,52.3301],[22.9751,52.3528],[22.9228,52.3723],[22.8446,52.3656],[22.689,52.3854],[22.6119,52.3873],[22.5627,52.4041],[22.5388,52.4294],[22.5448,52.4625],[22.5198,52.4733],[22.5114,52.4946],[22.5151,52.5151],[22.5176,52.5294],[22.4119,52.6006],[22.4118,52.6597],[22.3997,52.695],[22.3942,52.7413],[22.4,52.75],[22.5,53.05],[22.42,53.19],[22.74,53.49],[23.1,53.68],[23.4,53.75],[23.4863,53.9227],[23.4856,53.9393],[23.4904,53.9506],[23.4629,53.9725],[23.4593,53.9923],[23.4965,54.022],[23.4962,54.0446],[23.4739,54.1126],[23.4325,54.1693],[23.3823,54.1879],[23.336,54.2263],[23.316,54.2363],[23.2354,54.2542],[23.1171,54.3035],[23.0501,54.2948],[23.0321,54.3096],[23.0416,54.341],[22.9897,54.3534],[22.9733,54.3754],[22.9188,54.3811],[22.8589,54.3992],[22.8113,54.3926],[22.7887,54.3366],[22.7317,54.3017],[22.6653,54.2753],[22.4422,54.257],[22.3481,54.1786],[22.4491,54.0992],[22.4652,54.0417],[22.516,54.0124],[22.6221,53.9248],[22.6185,53.8782],[22.5779,53.8322],[22.543,53.7739],[22.4856,53.7379],[22.207,53.6352],[22.1099,53.5699],[21.9373,53.4993],[21.8626,53.4927],[21.8016,53.4708],[21.7388,53.4576],[21.5957,53.4626],[21.523,53.4435],[21.402,53.4379],[21.3774,53.4299],[21.3488,53.3961],[21.308,53.3788],[21.2626,53.3746],[21.1737,53.3796],[21.0979,53.3256],[21.0079,53.3084],[20.9123,53.3086],[20.8391,53.2834],[20.7756,53.2754],[20.704,53.2759],[20.6346,53.2346],[20.4948,53.1861],[20.4198,53.182],[20.3889,53.1675],[20.3719,53.1337],[20.3158,53.1063],[20.2406,53.098],[19.9248,53.1273],[19.8768,53.1511],[19.8371,53.1437],[19.8112,53.1129],[19.7479,53.0931],[19.7329,53.1846],[19.7096,53.22],[19.45,53.22],[19.3,53.18],[19.05,53.1],[18.95,53.0167],[18.95,52.93],[18.45,52.93],[18.45,53.1],[18.3,53.1],[18.1,53.13],[18.3,53.25],[18.42,53.35],[18.55,53.43],[18.72,53.52],[18.8046,53.6046],[18.8088,53.6027],[18.8746,53.5623],[18.9601,53.5375],[19.0741,53.5416],[19.1283,53.5559],[19.1681,53.6],[18.86,53.6],[18.86,53.88],[19.5,53.88],[19.5,53.7873],[19.5201,53.8251],[19.5504,53.8493],[19.5544,53.8822],[19.5044,53.8903],[19.4054,53.8855],[19.3698,53.8958],[19.3892,53.9352],[19.3632,53.9561],[19.3118,53.9601],[19.2636,53.9769],[19.2301,54.0095],[19.2093,54.0721],[19.2688,54.112],[19.2958,54.1465],[19.2428,54.2313],[19.2497,54.2654],[19.2739,54.2816],[19.3863,54.2766],[19.3652,54.2282],[19.4347,54.2971],[19.5634,54.3463],[19.6192,54.3535],[19.6839,54.3814],[19.7205,54.391],[19.7583,54.4343],[19.6803,54.4367],[19.6095,54.4567],[19.6133,54.4588],[19.6133,54.4645],[19.6038,54.4593],[19.5746,54.4429],[19.5606,54.435],[19.5391,54.4282],[19.1874,54.4325],[18.95,54.4354],[18.697,54.4385],[18.6214,54.6823],[18.4614,54.7094],[18.45,54.727],[18.4381,54.7453],[18.45,54.7447],[18.5022,54.7418],[18.6786,54.6654],[18.7659,54.6419],[18.784,54.6235],[18.8176,54.5981],[18.8343,54.6167],[18.814,54.6432],[18.7517,54.6901],[18.6743,54.7169],[18.535,54.77],[18.45,54.7971],[18.3226,54.8377],[18.3188,54.8377],[18.3169,54.8383],[18.1524,54.8383],[18.113,54.8362],[18.0846,54.836],[18.0507,54.8333],[18.05,54.82],[17.98,54.65],[17.9,54.5],[17.85,54.35],[17.75,54.2],[17.62,54.05],[17.5,53.9],[17.4,53.6],[17.3356,53.4712],[17.3528,53.4656],[17.2993,53.4831],[17.0957,53.4881],[17.0372,53.5093],[16.9958,53.5529],[16.9477,53.5882],[16.8722,53.5946],[16.8365,53.5852],[16.7908,53.525],[16.7653,53.4612],[16.7351,53.4577],[16.5511,53.4606],[16.5285,53.4415],[16.5296,53.4017],[16.5451,53.366],[16.6078,53.3296],[16.6833,53.318],[16.7204,53.3064],[16.7516,53.2824],[16.7579,53.2537],[16.7036,53.2058],[16.6747,53.1893],[16.601,53.1755],[16.4562,53.1247],[16.3753,53.0482],[16.2788,52.9932],[16.2174,52.9787],[16.155,52.9736],[16.0938,52.9956],[16.0385,53.0067],[16.0567,53.0543],[16.0384,53.0884],[16.0304,53.1032],[15.9801,53.1099],[15.9258,53.1053],[15.8733,53.0803],[15.7836,53.0112],[15.7331,52.9889],[15.527,52.9893],[15.3575,52.9542],[15.301,52.9523],[15.3481,52.9333],[15.3101,52.8896],[15.2487,52.8465],[15.1958,52.842],[15.0298,52.8753],[14.9319,52.8426],[14.8683,52.7581],[14.7899,52.6911],[14.7394,52.6782],[14.6543,52.6699],[14.6324,52.6499],[14.608,52.5965],[14.6448,52.5769],[14.6091,52.5178],[14.6323,52.4967],[14.5916,52.4498],[14.5398,52.4219]]]}},
{"type":"Feature","properties":{"entityId":"polish-duchies","from":1249,"to":1259,"certainty":"estimated","source":"유럽 쪽은 Natural Earth 1:10m admin-1(v5.1.2) 현대 행정구역 조각을 그 시기 국경에 맞춰 묶고, 조각이 역사 경계와 다른 곳은 선을 그어 나눈 근사. 유럽 밖(시베리아·중앙아시아·극동)은 대략적인 추정. 운영자 검수 필요"},"geometry":{"type":"MultiPolygon","coordinates":[[[[14.5398,52.4219],[14.5454,52.3822],[14.5901,52.3094],[14.5842,52.2912],[14.6066,52.2758],[14.6969,52.2535],[14.7121,52.2154],[14.6931,52.2],[15.35,52.2],[15.4,52.5],[15.55,52.7],[15.8,52.82],[15.95,53],[16.0384,53.0884],[16.0304,53.1032],[15.9801,53.1099],[15.9258,53.1053],[15.8733,53.0803],[15.7836,53.0112],[15.7331,52.9889],[15.527,52.9893],[15.3575,52.9542],[15.301,52.9523],[15.3481,52.9333],[15.3101,52.8896],[15.2487,52.8465],[15.1958,52.842],[15.0298,52.8753],[14.9319,52.8426],[14.8683,52.7581],[14.7899,52.6911],[14.7394,52.6782],[14.6543,52.6699],[14.6324,52.6499],[14.608,52.5965],[14.6448,52.5769],[14.6091,52.5178],[14.6323,52.4967],[14.5916,52.4498],[14.5398,52.4219]]],[[[14.8104,50.8584],[14.8679,50.8644],[14.9821,50.8591],[14.9849,50.9181],[14.9966,50.9592],[14.961,50.9927],[14.9965,51.0078],[15.0736,51.0026],[15.1079,50.981],[15.1315,51.0058],[15.1561,51.0078],[15.1702,50.978],[15.2271,50.9774],[15.2698,50.9527],[15.2531,50.9141],[15.2878,50.8549],[15.341,50.8317],[15.353,50.813],[15.3497,50.7837],[15.3703,50.7726],[15.4001,50.798],[15.4418,50.8002],[15.5221,50.7824],[15.6419,50.7558],[15.6843,50.7314],[15.7674,50.7442],[15.7976,50.7298],[15.8482,50.6752],[15.8823,50.6742],[15.9415,50.6884],[15.9715,50.6786],[15.9932,50.6494],[15.9964,50.6237],[15.982,50.6036],[16.0245,50.6086],[16.0865,50.6468],[16.1287,50.644],[16.1755,50.6241],[16.2045,50.6363],[16.2191,50.6591],[16.2683,50.6604],[16.3316,50.644],[16.4168,50.5866],[16.4259,50.5676],[16.3945,50.5593],[16.3912,50.5218],[16.3526,50.4928],[16.3034,50.496],[16.28,50.4799],[16.2112,50.4513],[16.1902,50.4242],[16.1996,50.4063],[16.232,50.4026],[16.2625,50.3644],[16.3342,50.3719],[16.3508,50.3606],[16.3532,50.3335],[16.371,50.3184],[16.4378,50.298],[16.5048,50.228],[16.535,50.2077],[16.5573,50.1547],[16.5842,50.1274],[16.6606,50.093],[16.7012,50.0949],[16.7543,50.1323],[16.7953,50.1744],[16.8177,50.1868],[16.8698,50.1897],[16.919,50.2171],[16.9553,50.2135],[16.9603,50.232],[17.0084,50.21],[16.9878,50.2849],[16.9265,50.3193],[16.8979,50.3782],[16.8659,50.4084],[16.893,50.4329],[16.944,50.4203],[17.0847,50.398],[17.1189,50.3812],[17.1876,50.3785],[17.201,50.3432],[17.2461,50.3221],[17.3168,50.3186],[17.3341,50.2957],[17.3348,50.27],[17.355,50.2533],[17.388,50.2726],[17.4191,50.2427],[17.44,50.2427],[17.4694,50.2656],[17.517,50.2684],[17.6064,50.2582],[17.6467,50.2711],[17.6845,50.3124],[17.708,50.311],[17.7345,50.2895],[17.7214,50.2427],[17.7476,50.2175],[17.7382,50.2024],[17.6753,50.1747],[17.5894,50.1632],[17.5842,50.1459],[17.6328,50.1063],[17.6776,50.1077],[17.732,50.0949],[17.7195,50.0809],[17.743,50.0606],[17.7633,50.0252],[17.8394,49.9736],[17.8757,49.9687],[17.9121,49.9758],[17.9416,49.9928],[17.9999,49.9966],[18.0375,50.0072],[18.0069,50.0241],[18.0191,50.0441],[18.0916,50.0172],[18.0982,49.989],[18.162,49.9812],[18.2087,49.9583],[18.2559,49.946],[18.2925,49.9078],[18.3277,49.919],[18.3569,49.9282],[18.3688,49.932],[18.3874,49.9262],[18.4818,49.8966],[18.5444,49.913],[18.5592,49.9072],[18.5673,49.8615],[18.5938,49.8522],[18.5663,49.8316],[18.5668,49.8048],[18.6077,49.743],[18.6177,49.7139],[18.6373,49.7003],[18.6824,49.6958],[18.7277,49.6689],[18.7735,49.6758],[18.7926,49.6608],[18.7993,49.6264],[18.8345,49.5476],[18.8332,49.5103],[18.9322,49.5043],[18.9611,49.4928],[18.9524,49.4759],[18.9623,49.3892],[19.0071,49.3881],[19.0676,49.4061],[19.1166,49.3909],[19.1725,49.4023],[19.2205,49.493],[19.2487,49.5163],[19.3471,49.533],[19.4338,49.5952],[19.4489,49.6004],[19.5052,49.5634],[19.5568,49.4539],[19.5948,49.4416],[19.6348,49.4413],[19.627,49.4019],[19.6845,49.3891],[19.7693,49.3931],[19.7836,49.3576],[19.7895,49.3092],[19.7832,49.29],[19.8068,49.2752],[19.7518,49.2191],[19.7607,49.1942],[19.832,49.1859],[19.8683,49.2008],[19.9059,49.2228],[19.9657,49.2157],[20.0173,49.1839],[20.0505,49.1732],[20.07,49.1831],[20.086,49.243],[20.1302,49.3039],[20.1604,49.3056],[20.2072,49.3342],[20.2844,49.3386],[20.3074,49.3866],[20.3295,49.3918],[20.3705,49.3817],[20.4221,49.383],[20.4375,49.4025],[20.5221,49.3744],[20.5677,49.3764],[20.6053,49.4],[20.6895,49.4005],[20.7783,49.3312],[20.8493,49.3205],[20.9006,49.2926],[20.9424,49.2959],[21.0172,49.3524],[21.0725,49.3572],[21.0685,49.3814],[21.0333,49.3997],[21.0535,49.4145],[21.1249,49.4237],[21.1726,49.3983],[21.2112,49.4111],[21.2425,49.4413],[21.2744,49.4473],[21.3304,49.4278],[21.4279,49.4098],[21.5144,49.4172],[21.6012,49.4265],[21.6663,49.4018],[21.6917,49.4022],[21.7576,49.3489],[21.7994,49.3748],[21.8196,49.3772],[21.8746,49.3484],[21.9284,49.3308],[21.9645,49.3086],[21.9932,49.2782],[22.0124,49.2111],[22.0408,49.1975],[22.1115,49.1886],[22.1557,49.1715],[22.198,49.172],[22.2159,49.14],[22.2629,49.1306],[22.3394,49.1265],[22.3901,49.093],[22.4268,49.0856],[22.505,49.0834],[22.5396,49.0722],[22.5808,49.0814],[22.6429,49.0432],[22.7553,49.0447],[22.784,49.0214],[22.8553,48.994],[22.865,49.0132],[22.8475,49.0337],[22.8534,49.0848],[22.7781,49.1203],[22.7488,49.1456],[22.7057,49.1688],[22.6817,49.1612],[22.7029,49.195],[22.7378,49.2754],[22.7242,49.3671],[22.7142,49.3906],[22.6796,49.4189],[22.6669,49.4784],[22.6409,49.5288],[22.6658,49.5674],[22.7417,49.6337],[22.7773,49.6805],[22.8266,49.6974],[22.8882,49.7697],[22.9244,49.7854],[22.9512,49.8266],[22.993,49.8544],[23.1015,49.9571],[23.1778,50.004],[23.2079,50.034],[23.4364,50.1935],[23.5653,50.2578],[23.6587,50.327],[23.6957,50.3768],[23.7475,50.3894],[23.9287,50.3908],[23.9813,50.4048],[24.0032,50.4377],[24.0107,50.4928],[24.075,50.5143],[24.1077,50.5408],[24.0954,50.5569],[24.0853,50.6044],[24.1082,50.6303],[24.0749,50.6902],[24.081,50.713],[24.0269,50.728],[24.0128,50.7433],[24.0259,50.767],[23.9743,50.7762],[23.9576,50.808],[23.9699,50.8252],[24.0205,50.8386],[24.0469,50.8291],[24.1309,50.8391],[24.1302,50.8689],[24.0469,50.898],[23.9793,50.9375],[23.9551,50.9836],[23.9117,51.0068],[23.9042,51.0627],[23.8545,51.1215],[23.8747,51.1361],[23.816,51.1788],[23.7652,51.199],[23.7427,51.2163],[23.6873,51.2924],[23.6352,51.3047],[23.634,51.3393],[23.6839,51.3703],[23.6789,51.3941],[23.6976,51.4044],[23.6487,51.454],[23.6628,51.4802],[23.6148,51.4972],[23.6062,51.5174],[23.5728,51.5397],[23.574,51.5553],[23.5399,51.6071],[23.5438,51.6438],[23.5324,51.659],[23.5604,51.672],[23.5466,51.7136],[23.5604,51.7545],[23.6175,51.7865],[23.6287,51.8098],[23.5946,51.8433],[23.6214,51.8956],[23.6222,51.9279],[23.6476,51.9741],[23.6764,51.9941],[23.6375,52.0845],[23.5794,52.1215],[23.5125,52.1244],[23.4847,52.1586],[23.4505,52.1859],[23.4367,52.1757],[23.3885,52.1842],[23.3958,52.1996],[23.2123,52.2317],[23.1897,52.2405],[23.1945,52.2715],[23.1761,52.2851],[23.1502,52.2816],[23.087,52.2923],[23.039,52.2892],[23.0521,52.3096],[23.0058,52.337],[22.9845,52.3301],[22.9751,52.3528],[22.9228,52.3723],[22.8446,52.3656],[22.689,52.3854],[22.6119,52.3873],[22.5627,52.4041],[22.5388,52.4294],[22.5448,52.4625],[22.5198,52.4733],[22.5114,52.4946],[22.5151,52.5151],[22.5176,52.5294],[22.4119,52.6006],[22.4118,52.6597],[22.3997,52.695],[22.3942,52.7413],[22.4,52.75],[22.5,53.05],[22.42,53.19],[22.74,53.49],[23.1,53.68],[23.4,53.75],[23.4863,53.9227],[23.4856,53.9393],[23.4904,53.9506],[23.4629,53.9725],[23.4593,53.9923],[23.4965,54.022],[23.4962,54.0446],[23.4739,54.1126],[23.4325,54.1693],[23.3823,54.1879],[23.336,54.2263],[23.316,54.2363],[23.2354,54.2542],[23.1171,54.3035],[23.0501,54.2948],[23.0321,54.3096],[23.0416,54.341],[22.9897,54.3534],[22.9733,54.3754],[22.9188,54.3811],[22.8589,54.3992],[22.8113,54.3926],[22.7887,54.3366],[22.7317,54.3017],[22.6653,54.2753],[22.4422,54.257],[22.3481,54.1786],[22.4491,54.0992],[22.4652,54.0417],[22.516,54.0124],[22.6221,53.9248],[22.6185,53.8782],[22.5779,53.8322],[22.543,53.7739],[22.4856,53.7379],[22.207,53.6352],[22.1099,53.5699],[21.9373,53.4993],[21.8626,53.4927],[21.8016,53.4708],[21.7388,53.4576],[21.5957,53.4626],[21.523,53.4435],[21.402,53.4379],[21.3774,53.4299],[21.3488,53.3961],[21.308,53.3788],[21.2626,53.3746],[21.1737,53.3796],[21.0979,53.3256],[21.0079,53.3084],[20.9123,53.3086],[20.8391,53.2834],[20.7756,53.2754],[20.704,53.2759],[20.6346,53.2346],[20.4948,53.1861],[20.4198,53.182],[20.3889,53.1675],[20.3719,53.1337],[20.3158,53.1063],[20.2406,53.098],[19.9248,53.1273],[19.8768,53.1511],[19.8371,53.1437],[19.8112,53.1129],[19.7479,53.0931],[19.7329,53.1846],[19.7096,53.22],[19.45,53.22],[19.3,53.18],[19.05,53.1],[18.95,53.0167],[18.95,52.93],[18.45,52.93],[18.45,53.1],[18.3,53.1],[18.1,53.13],[18.3,53.25],[18.42,53.35],[18.55,53.43],[18.72,53.52],[18.8046,53.6046],[18.8088,53.6027],[18.8746,53.5623],[18.9601,53.5375],[19.0741,53.5416],[19.1283,53.5559],[19.1681,53.6],[18.86,53.6],[18.86,53.88],[19.5,53.88],[19.5,53.7873],[19.5201,53.8251],[19.5504,53.8493],[19.5544,53.8822],[19.5044,53.8903],[19.4054,53.8855],[19.3698,53.8958],[19.3892,53.9352],[19.3632,53.9561],[19.3118,53.9601],[19.2636,53.9769],[19.2301,54.0095],[19.2093,54.0721],[19.2688,54.112],[19.2958,54.1465],[19.2428,54.2313],[19.2497,54.2654],[19.2739,54.2816],[19.3863,54.2766],[19.3652,54.2282],[19.4347,54.2971],[19.5634,54.3463],[19.6192,54.3535],[19.6839,54.3814],[19.7205,54.391],[19.7583,54.4343],[19.6803,54.4367],[19.6095,54.4567],[19.6133,54.4588],[19.6133,54.4645],[19.6038,54.4593],[19.5746,54.4429],[19.5606,54.435],[19.5391,54.4282],[19.1874,54.4325],[18.95,54.4354],[18.697,54.4385],[18.6214,54.6823],[18.4614,54.7094],[18.45,54.727],[18.4381,54.7453],[18.45,54.7447],[18.5022,54.7418],[18.6786,54.6654],[18.7659,54.6419],[18.784,54.6235],[18.8176,54.5981],[18.8343,54.6167],[18.814,54.6432],[18.7517,54.6901],[18.6743,54.7169],[18.535,54.77],[18.45,54.7971],[18.3226,54.8377],[18.3188,54.8377],[18.3169,54.8383],[18.1524,54.8383],[18.113,54.8362],[18.0846,54.836],[18.0507,54.8333],[18.05,54.82],[17.98,54.65],[17.9,54.5],[17.85,54.35],[17.75,54.2],[17.62,54.05],[17.5,53.9],[17.4,53.6],[17.3356,53.4712],[17.3528,53.4656],[17.2993,53.4831],[17.0957,53.4881],[17.0372,53.5093],[16.9958,53.5529],[16.9477,53.5882],[16.8722,53.5946],[16.8365,53.5852],[16.7908,53.525],[16.7653,53.4612],[16.7351,53.4577],[16.5511,53.4606],[16.5285,53.4415],[16.5296,53.4017],[16.5451,53.366],[16.6078,53.3296],[16.6833,53.318],[16.7204,53.3064],[16.7516,53.2824],[16.7579,53.2537],[16.7036,53.2058],[16.6747,53.1893],[16.601,53.1755],[16.4562,53.1247],[16.3753,53.0482],[16.2788,52.9932],[16.2174,52.9787],[16.155,52.9736],[16.0938,52.9956],[16.0385,53.0067],[16.0186,52.9491],[16.0219,52.8853],[15.9246,52.8096],[15.9553,52.7923],[15.9768,52.7431],[15.9479,52.7198],[15.8311,52.6933],[15.8257,52.6497],[15.8296,52.5938],[15.8649,52.5348],[15.885,52.4633],[15.8849,52.4333],[15.8366,52.4242],[15.899,52.3485],[15.9012,52.287],[15.8687,52.2281],[15.8498,52.169],[15.857,52.1037],[15.9079,52.0649],[15.963,52.0468],[16.0039,51.9896],[16.0394,51.9676],[16.0939,51.9718],[16.1105,51.9654],[16.0984,51.8917],[16.1132,51.8649],[16.1562,51.8467],[16.2015,51.8375],[16.2747,51.8682],[16.3399,51.8237],[16.3711,51.7492],[16.3221,51.6999],[16.2612,51.6668],[16.182,51.6558],[16.1265,51.6999],[16.1232,51.7345],[16.0965,51.7523],[15.9448,51.7699],[15.9105,51.7272],[15.8804,51.7083],[15.8238,51.6912],[15.7254,51.5716],[15.6147,51.4804],[15.5439,51.4695],[15.4033,51.5178],[15.3301,51.5019],[15.2968,51.4771],[15.2462,51.4227],[15.2171,51.4241],[15.1583,51.456],[15.1294,51.4556],[14.9506,51.3965],[14.9638,51.3284],[15.0195,51.2717],[15.0221,51.2368],[15.0049,51.2156],[14.9832,51.1609],[14.98,51.1228],[14.9603,51.1046],[14.9553,51.064],[14.8602,50.9168],[14.8105,50.8771],[14.8104,50.8584]]]]}},
{"type":"Feature","properties":{"entityId":"polish-duchies","from":1259,"to":1309,"certainty":"estimated","source":"유럽 쪽은 Natural Earth 1:10m admin-1(v5.1.2) 현대 행정구역 조각을 그 시기 국경에 맞춰 묶고, 조각이 역사 경계와 다른 곳은 선을 그어 나눈 근사. 유럽 밖(시베리아·중앙아시아·극동)은 대략적인 추정. 운영자 검수 필요"},"geometry":{"type":"Polygon","coordinates":[[[14.8104,50.8584],[14.8679,50.8644],[14.9821,50.8591],[14.9849,50.9181],[14.9966,50.9592],[14.961,50.9927],[14.9965,51.0078],[15.0736,51.0026],[15.1079,50.981],[15.1315,51.0058],[15.1561,51.0078],[15.1702,50.978],[15.2271,50.9774],[15.2698,50.9527],[15.2531,50.9141],[15.2878,50.8549],[15.341,50.8317],[15.353,50.813],[15.3497,50.7837],[15.3703,50.7726],[15.4001,50.798],[15.4418,50.8002],[15.5221,50.7824],[15.6419,50.7558],[15.6843,50.7314],[15.7674,50.7442],[15.7976,50.7298],[15.8482,50.6752],[15.8823,50.6742],[15.9415,50.6884],[15.9715,50.6786],[15.9932,50.6494],[15.9964,50.6237],[15.982,50.6036],[16.0245,50.6086],[16.0865,50.6468],[16.1287,50.644],[16.1755,50.6241],[16.2045,50.6363],[16.2191,50.6591],[16.2683,50.6604],[16.3316,50.644],[16.4168,50.5866],[16.4259,50.5676],[16.3945,50.5593],[16.3912,50.5218],[16.3526,50.4928],[16.3034,50.496],[16.28,50.4799],[16.2112,50.4513],[16.1902,50.4242],[16.1996,50.4063],[16.232,50.4026],[16.2625,50.3644],[16.3342,50.3719],[16.3508,50.3606],[16.3532,50.3335],[16.371,50.3184],[16.4378,50.298],[16.5048,50.228],[16.535,50.2077],[16.5573,50.1547],[16.5842,50.1274],[16.6606,50.093],[16.7012,50.0949],[16.7543,50.1323],[16.7953,50.1744],[16.8177,50.1868],[16.8698,50.1897],[16.919,50.2171],[16.9553,50.2135],[16.9603,50.232],[17.0084,50.21],[16.9878,50.2849],[16.9265,50.3193],[16.8979,50.3782],[16.8659,50.4084],[16.893,50.4329],[16.944,50.4203],[17.0847,50.398],[17.1189,50.3812],[17.1876,50.3785],[17.201,50.3432],[17.2461,50.3221],[17.3168,50.3186],[17.3341,50.2957],[17.3348,50.27],[17.355,50.2533],[17.388,50.2726],[17.4191,50.2427],[17.44,50.2427],[17.4694,50.2656],[17.517,50.2684],[17.6064,50.2582],[17.6467,50.2711],[17.6845,50.3124],[17.708,50.311],[17.7345,50.2895],[17.7214,50.2427],[17.7476,50.2175],[17.7382,50.2024],[17.6753,50.1747],[17.5894,50.1632],[17.5842,50.1459],[17.6328,50.1063],[17.6776,50.1077],[17.732,50.0949],[17.7195,50.0809],[17.743,50.0606],[17.7633,50.0252],[17.8394,49.9736],[17.8757,49.9687],[17.9121,49.9758],[17.9416,49.9928],[17.9999,49.9966],[18.0375,50.0072],[18.0069,50.0241],[18.0191,50.0441],[18.0916,50.0172],[18.0982,49.989],[18.162,49.9812],[18.2087,49.9583],[18.2559,49.946],[18.2925,49.9078],[18.3277,49.919],[18.3569,49.9282],[18.3688,49.932],[18.3874,49.9262],[18.4818,49.8966],[18.5444,49.913],[18.5592,49.9072],[18.5673,49.8615],[18.5938,49.8522],[18.5663,49.8316],[18.5668,49.8048],[18.6077,49.743],[18.6177,49.7139],[18.6373,49.7003],[18.6824,49.6958],[18.7277,49.6689],[18.7735,49.6758],[18.7926,49.6608],[18.7993,49.6264],[18.8345,49.5476],[18.8332,49.5103],[18.9322,49.5043],[18.9611,49.4928],[18.9524,49.4759],[18.9623,49.3892],[19.0071,49.3881],[19.0676,49.4061],[19.1166,49.3909],[19.1725,49.4023],[19.2205,49.493],[19.2487,49.5163],[19.3471,49.533],[19.4338,49.5952],[19.4489,49.6004],[19.5052,49.5634],[19.5568,49.4539],[19.5948,49.4416],[19.6348,49.4413],[19.627,49.4019],[19.6845,49.3891],[19.7693,49.3931],[19.7836,49.3576],[19.7895,49.3092],[19.7832,49.29],[19.8068,49.2752],[19.7518,49.2191],[19.7607,49.1942],[19.832,49.1859],[19.8683,49.2008],[19.9059,49.2228],[19.9657,49.2157],[20.0173,49.1839],[20.0505,49.1732],[20.07,49.1831],[20.086,49.243],[20.1302,49.3039],[20.1604,49.3056],[20.2072,49.3342],[20.2844,49.3386],[20.3074,49.3866],[20.3295,49.3918],[20.3705,49.3817],[20.4221,49.383],[20.4375,49.4025],[20.5221,49.3744],[20.5677,49.3764],[20.6053,49.4],[20.6895,49.4005],[20.7783,49.3312],[20.8493,49.3205],[20.9006,49.2926],[20.9424,49.2959],[21.0172,49.3524],[21.0725,49.3572],[21.0685,49.3814],[21.0333,49.3997],[21.0535,49.4145],[21.1249,49.4237],[21.1726,49.3983],[21.2112,49.4111],[21.2425,49.4413],[21.2744,49.4473],[21.3304,49.4278],[21.4279,49.4098],[21.5144,49.4172],[21.6012,49.4265],[21.6663,49.4018],[21.6917,49.4022],[21.7576,49.3489],[21.7994,49.3748],[21.8196,49.3772],[21.8746,49.3484],[21.9284,49.3308],[21.9645,49.3086],[21.9932,49.2782],[22.0124,49.2111],[22.0408,49.1975],[22.1115,49.1886],[22.1557,49.1715],[22.198,49.172],[22.2159,49.14],[22.2629,49.1306],[22.3394,49.1265],[22.3901,49.093],[22.4268,49.0856],[22.505,49.0834],[22.5396,49.0722],[22.5808,49.0814],[22.6429,49.0432],[22.7553,49.0447],[22.784,49.0214],[22.8553,48.994],[22.865,49.0132],[22.8475,49.0337],[22.8534,49.0848],[22.7781,49.1203],[22.7488,49.1456],[22.7057,49.1688],[22.6817,49.1612],[22.7029,49.195],[22.7378,49.2754],[22.7242,49.3671],[22.7142,49.3906],[22.6796,49.4189],[22.6669,49.4784],[22.6409,49.5288],[22.6658,49.5674],[22.7417,49.6337],[22.7773,49.6805],[22.8266,49.6974],[22.8882,49.7697],[22.9244,49.7854],[22.9512,49.8266],[22.993,49.8544],[23.1015,49.9571],[23.1778,50.004],[23.2079,50.034],[23.4364,50.1935],[23.5653,50.2578],[23.6587,50.327],[23.6957,50.3768],[23.7475,50.3894],[23.9287,50.3908],[23.9813,50.4048],[24.0032,50.4377],[24.0107,50.4928],[24.075,50.5143],[24.1077,50.5408],[24.0954,50.5569],[24.0853,50.6044],[24.1082,50.6303],[24.0749,50.6902],[24.081,50.713],[24.0269,50.728],[24.0128,50.7433],[24.0259,50.767],[23.9743,50.7762],[23.9576,50.808],[23.9699,50.8252],[24.0205,50.8386],[24.0469,50.8291],[24.1309,50.8391],[24.1302,50.8689],[24.0469,50.898],[23.9793,50.9375],[23.9551,50.9836],[23.9117,51.0068],[23.9042,51.0627],[23.8545,51.1215],[23.8747,51.1361],[23.816,51.1788],[23.7652,51.199],[23.7427,51.2163],[23.6873,51.2924],[23.6352,51.3047],[23.634,51.3393],[23.6839,51.3703],[23.6789,51.3941],[23.6976,51.4044],[23.6487,51.454],[23.6628,51.4802],[23.6148,51.4972],[23.6062,51.5174],[23.5728,51.5397],[23.574,51.5553],[23.5399,51.6071],[23.5438,51.6438],[23.5324,51.659],[23.5604,51.672],[23.5466,51.7136],[23.5604,51.7545],[23.6175,51.7865],[23.6287,51.8098],[23.5946,51.8433],[23.6214,51.8956],[23.6222,51.9279],[23.6476,51.9741],[23.6764,51.9941],[23.6375,52.0845],[23.5794,52.1215],[23.5125,52.1244],[23.4847,52.1586],[23.4505,52.1859],[23.4367,52.1757],[23.3885,52.1842],[23.3958,52.1996],[23.2123,52.2317],[23.1897,52.2405],[23.1945,52.2715],[23.1761,52.2851],[23.1502,52.2816],[23.087,52.2923],[23.039,52.2892],[23.0521,52.3096],[23.0058,52.337],[22.9845,52.3301],[22.9751,52.3528],[22.9228,52.3723],[22.8446,52.3656],[22.689,52.3854],[22.6119,52.3873],[22.5627,52.4041],[22.5388,52.4294],[22.5448,52.4625],[22.5198,52.4733],[22.5114,52.4946],[22.5151,52.5151],[22.5176,52.5294],[22.4119,52.6006],[22.4118,52.6597],[22.3997,52.695],[22.3942,52.7413],[22.4,52.75],[22.5,53.05],[22.42,53.19],[22.74,53.49],[23.1,53.68],[23.4,53.75],[23.4863,53.9227],[23.4856,53.9393],[23.4904,53.9506],[23.4629,53.9725],[23.4593,53.9923],[23.4965,54.022],[23.4962,54.0446],[23.4739,54.1126],[23.4325,54.1693],[23.3823,54.1879],[23.336,54.2263],[23.316,54.2363],[23.2354,54.2542],[23.1171,54.3035],[23.0501,54.2948],[23.0321,54.3096],[23.0416,54.341],[22.9897,54.3534],[22.9733,54.3754],[22.9188,54.3811],[22.8589,54.3992],[22.8113,54.3926],[22.7887,54.3366],[22.7317,54.3017],[22.6653,54.2753],[22.4422,54.257],[22.3481,54.1786],[22.4491,54.0992],[22.4652,54.0417],[22.516,54.0124],[22.6221,53.9248],[22.6185,53.8782],[22.5779,53.8322],[22.543,53.7739],[22.4856,53.7379],[22.207,53.6352],[22.1099,53.5699],[21.9373,53.4993],[21.8626,53.4927],[21.8016,53.4708],[21.7388,53.4576],[21.5957,53.4626],[21.523,53.4435],[21.402,53.4379],[21.3774,53.4299],[21.3488,53.3961],[21.308,53.3788],[21.2626,53.3746],[21.1737,53.3796],[21.0979,53.3256],[21.0079,53.3084],[20.9123,53.3086],[20.8391,53.2834],[20.7756,53.2754],[20.704,53.2759],[20.6346,53.2346],[20.4948,53.1861],[20.4198,53.182],[20.3889,53.1675],[20.3719,53.1337],[20.3158,53.1063],[20.2406,53.098],[19.9248,53.1273],[19.8768,53.1511],[19.8371,53.1437],[19.8112,53.1129],[19.7479,53.0931],[19.7329,53.1846],[19.7096,53.22],[19.45,53.22],[19.3,53.18],[19.05,53.1],[18.95,53.0167],[18.95,52.93],[18.45,52.93],[18.45,53.1],[18.3,53.1],[18.1,53.13],[18.3,53.25],[18.42,53.35],[18.55,53.43],[18.72,53.52],[18.8046,53.6046],[18.8088,53.6027],[18.8746,53.5623],[18.9601,53.5375],[19.0741,53.5416],[19.1283,53.5559],[19.1681,53.6],[18.86,53.6],[18.86,53.88],[19.5,53.88],[19.5,53.7873],[19.5201,53.8251],[19.5504,53.8493],[19.5544,53.8822],[19.5044,53.8903],[19.4054,53.8855],[19.3698,53.8958],[19.3892,53.9352],[19.3632,53.9561],[19.3118,53.9601],[19.2636,53.9769],[19.2301,54.0095],[19.2093,54.0721],[19.2688,54.112],[19.2958,54.1465],[19.2428,54.2313],[19.2497,54.2654],[19.2739,54.2816],[19.3863,54.2766],[19.3652,54.2282],[19.4347,54.2971],[19.5634,54.3463],[19.6192,54.3535],[19.6839,54.3814],[19.7205,54.391],[19.7583,54.4343],[19.6803,54.4367],[19.6095,54.4567],[19.6133,54.4588],[19.6133,54.4645],[19.6038,54.4593],[19.5746,54.4429],[19.5606,54.435],[19.5391,54.4282],[19.1874,54.4325],[18.95,54.4354],[18.697,54.4385],[18.6214,54.6823],[18.4614,54.7094],[18.45,54.727],[18.4381,54.7453],[18.45,54.7447],[18.5022,54.7418],[18.6786,54.6654],[18.7659,54.6419],[18.784,54.6235],[18.8176,54.5981],[18.8343,54.6167],[18.814,54.6432],[18.7517,54.6901],[18.6743,54.7169],[18.535,54.77],[18.45,54.7971],[18.3226,54.8377],[18.3188,54.8377],[18.3169,54.8383],[18.1524,54.8383],[18.113,54.8362],[18.0846,54.836],[18.0507,54.8333],[18.05,54.82],[17.98,54.65],[17.9,54.5],[17.85,54.35],[17.75,54.2],[17.62,54.05],[17.5,53.9],[17.4,53.6],[17.3356,53.4712],[17.3528,53.4656],[17.2993,53.4831],[17.0957,53.4881],[17.0372,53.5093],[16.9958,53.5529],[16.9477,53.5882],[16.8722,53.5946],[16.8365,53.5852],[16.7908,53.525],[16.7653,53.4612],[16.7351,53.4577],[16.5511,53.4606],[16.5285,53.4415],[16.5296,53.4017],[16.5451,53.366],[16.6078,53.3296],[16.6833,53.318],[16.7204,53.3064],[16.7516,53.2824],[16.7579,53.2537],[16.7036,53.2058],[16.6747,53.1893],[16.601,53.1755],[16.4562,53.1247],[16.3753,53.0482],[16.2788,52.9932],[16.2174,52.9787],[16.155,52.9736],[16.0938,52.9956],[16.0385,53.0067],[16.0186,52.9491],[16.0219,52.8853],[15.9246,52.8096],[15.9553,52.7923],[15.9768,52.7431],[15.9479,52.7198],[15.8311,52.6933],[15.8257,52.6497],[15.8296,52.5938],[15.8649,52.5348],[15.885,52.4633],[15.8849,52.4333],[15.8366,52.4242],[15.899,52.3485],[15.9012,52.287],[15.8687,52.2281],[15.8498,52.169],[15.857,52.1037],[15.9079,52.0649],[15.963,52.0468],[16.0039,51.9896],[16.0394,51.9676],[16.0939,51.9718],[16.1105,51.9654],[16.0984,51.8917],[16.1132,51.8649],[16.1562,51.8467],[16.2015,51.8375],[16.2747,51.8682],[16.3399,51.8237],[16.3711,51.7492],[16.3221,51.6999],[16.2612,51.6668],[16.182,51.6558],[16.1265,51.6999],[16.1232,51.7345],[16.0965,51.7523],[15.9448,51.7699],[15.9105,51.7272],[15.8804,51.7083],[15.8238,51.6912],[15.7254,51.5716],[15.6147,51.4804],[15.5439,51.4695],[15.4033,51.5178],[15.3301,51.5019],[15.2968,51.4771],[15.2462,51.4227],[15.2171,51.4241],[15.1583,51.456],[15.1294,51.4556],[14.9506,51.3965],[14.9638,51.3284],[15.0195,51.2717],[15.0221,51.2368],[15.0049,51.2156],[14.9832,51.1609],[14.98,51.1228],[14.9603,51.1046],[14.9553,51.064],[14.8602,50.9168],[14.8105,50.8771],[14.8104,50.8584]]]}},
{"type":"Feature","properties":{"entityId":"polish-duchies","from":1309,"to":1320,"certainty":"estimated","source":"유럽 쪽은 Natural Earth 1:10m admin-1(v5.1.2) 현대 행정구역 조각을 그 시기 국경에 맞춰 묶고, 조각이 역사 경계와 다른 곳은 선을 그어 나눈 근사. 유럽 밖(시베리아·중앙아시아·극동)은 대략적인 추정. 운영자 검수 필요"},"geometry":{"type":"Polygon","coordinates":[[[14.8104,50.8584],[14.8679,50.8644],[14.9821,50.8591],[14.9849,50.9181],[14.9966,50.9592],[14.961,50.9927],[14.9965,51.0078],[15.0736,51.0026],[15.1079,50.981],[15.1315,51.0058],[15.1561,51.0078],[15.1702,50.978],[15.2271,50.9774],[15.2698,50.9527],[15.2531,50.9141],[15.2878,50.8549],[15.341,50.8317],[15.353,50.813],[15.3497,50.7837],[15.3703,50.7726],[15.4001,50.798],[15.4418,50.8002],[15.5221,50.7824],[15.6419,50.7558],[15.6843,50.7314],[15.7674,50.7442],[15.7976,50.7298],[15.8482,50.6752],[15.8823,50.6742],[15.9415,50.6884],[15.9715,50.6786],[15.9932,50.6494],[15.9964,50.6237],[15.982,50.6036],[16.0245,50.6086],[16.0865,50.6468],[16.1287,50.644],[16.1755,50.6241],[16.2045,50.6363],[16.2191,50.6591],[16.2683,50.6604],[16.3316,50.644],[16.4168,50.5866],[16.4259,50.5676],[16.3945,50.5593],[16.3912,50.5218],[16.3526,50.4928],[16.3034,50.496],[16.28,50.4799],[16.2112,50.4513],[16.1902,50.4242],[16.1996,50.4063],[16.232,50.4026],[16.2625,50.3644],[16.3342,50.3719],[16.3508,50.3606],[16.3532,50.3335],[16.371,50.3184],[16.4378,50.298],[16.5048,50.228],[16.535,50.2077],[16.5573,50.1547],[16.5842,50.1274],[16.6606,50.093],[16.7012,50.0949],[16.7543,50.1323],[16.7953,50.1744],[16.8177,50.1868],[16.8698,50.1897],[16.919,50.2171],[16.9553,50.2135],[16.9603,50.232],[17.0084,50.21],[16.9878,50.2849],[16.9265,50.3193],[16.8979,50.3782],[16.8659,50.4084],[16.893,50.4329],[16.944,50.4203],[17.0847,50.398],[17.1189,50.3812],[17.1876,50.3785],[17.201,50.3432],[17.2461,50.3221],[17.3168,50.3186],[17.3341,50.2957],[17.3348,50.27],[17.355,50.2533],[17.388,50.2726],[17.4191,50.2427],[17.44,50.2427],[17.4694,50.2656],[17.517,50.2684],[17.6064,50.2582],[17.6467,50.2711],[17.6845,50.3124],[17.708,50.311],[17.7345,50.2895],[17.7214,50.2427],[17.7476,50.2175],[17.7382,50.2024],[17.6753,50.1747],[17.5894,50.1632],[17.5842,50.1459],[17.6328,50.1063],[17.6776,50.1077],[17.732,50.0949],[17.7195,50.0809],[17.743,50.0606],[17.7633,50.0252],[17.8394,49.9736],[17.8757,49.9687],[17.9121,49.9758],[17.9416,49.9928],[17.9999,49.9966],[18.0375,50.0072],[18.0069,50.0241],[18.0191,50.0441],[18.0916,50.0172],[18.0982,49.989],[18.162,49.9812],[18.2087,49.9583],[18.2559,49.946],[18.2925,49.9078],[18.3277,49.919],[18.3569,49.9282],[18.3688,49.932],[18.3874,49.9262],[18.4818,49.8966],[18.5444,49.913],[18.5592,49.9072],[18.5673,49.8615],[18.5938,49.8522],[18.5663,49.8316],[18.5668,49.8048],[18.6077,49.743],[18.6177,49.7139],[18.6373,49.7003],[18.6824,49.6958],[18.7277,49.6689],[18.7735,49.6758],[18.7926,49.6608],[18.7993,49.6264],[18.8345,49.5476],[18.8332,49.5103],[18.9322,49.5043],[18.9611,49.4928],[18.9524,49.4759],[18.9623,49.3892],[19.0071,49.3881],[19.0676,49.4061],[19.1166,49.3909],[19.1725,49.4023],[19.2205,49.493],[19.2487,49.5163],[19.3471,49.533],[19.4338,49.5952],[19.4489,49.6004],[19.5052,49.5634],[19.5568,49.4539],[19.5948,49.4416],[19.6348,49.4413],[19.627,49.4019],[19.6845,49.3891],[19.7693,49.3931],[19.7836,49.3576],[19.7895,49.3092],[19.7832,49.29],[19.8068,49.2752],[19.7518,49.2191],[19.7607,49.1942],[19.832,49.1859],[19.8683,49.2008],[19.9059,49.2228],[19.9657,49.2157],[20.0173,49.1839],[20.0505,49.1732],[20.07,49.1831],[20.086,49.243],[20.1302,49.3039],[20.1604,49.3056],[20.2072,49.3342],[20.2844,49.3386],[20.3074,49.3866],[20.3295,49.3918],[20.3705,49.3817],[20.4221,49.383],[20.4375,49.4025],[20.5221,49.3744],[20.5677,49.3764],[20.6053,49.4],[20.6895,49.4005],[20.7783,49.3312],[20.8493,49.3205],[20.9006,49.2926],[20.9424,49.2959],[21.0172,49.3524],[21.0725,49.3572],[21.0685,49.3814],[21.0333,49.3997],[21.0535,49.4145],[21.1249,49.4237],[21.1726,49.3983],[21.2112,49.4111],[21.2425,49.4413],[21.2744,49.4473],[21.3304,49.4278],[21.4279,49.4098],[21.5144,49.4172],[21.6012,49.4265],[21.6663,49.4018],[21.6917,49.4022],[21.7576,49.3489],[21.7994,49.3748],[21.8196,49.3772],[21.8746,49.3484],[21.9284,49.3308],[21.9645,49.3086],[21.9932,49.2782],[22.0124,49.2111],[22.0408,49.1975],[22.1115,49.1886],[22.1557,49.1715],[22.198,49.172],[22.2159,49.14],[22.2629,49.1306],[22.3394,49.1265],[22.3901,49.093],[22.4268,49.0856],[22.505,49.0834],[22.5396,49.0722],[22.5808,49.0814],[22.6429,49.0432],[22.7553,49.0447],[22.784,49.0214],[22.8553,48.994],[22.865,49.0132],[22.8475,49.0337],[22.8534,49.0848],[22.7781,49.1203],[22.7488,49.1456],[22.7057,49.1688],[22.6817,49.1612],[22.7029,49.195],[22.7378,49.2754],[22.7242,49.3671],[22.7142,49.3906],[22.6796,49.4189],[22.6669,49.4784],[22.6409,49.5288],[22.6658,49.5674],[22.7417,49.6337],[22.7773,49.6805],[22.8266,49.6974],[22.8882,49.7697],[22.9244,49.7854],[22.9512,49.8266],[22.993,49.8544],[23.1015,49.9571],[23.1778,50.004],[23.2079,50.034],[23.4364,50.1935],[23.5653,50.2578],[23.6587,50.327],[23.6957,50.3768],[23.7475,50.3894],[23.9287,50.3908],[23.9813,50.4048],[24.0032,50.4377],[24.0107,50.4928],[24.075,50.5143],[24.1077,50.5408],[24.0954,50.5569],[24.0853,50.6044],[24.1082,50.6303],[24.0749,50.6902],[24.081,50.713],[24.0269,50.728],[24.0128,50.7433],[24.0259,50.767],[23.9743,50.7762],[23.9576,50.808],[23.9699,50.8252],[24.0205,50.8386],[24.0469,50.8291],[24.1309,50.8391],[24.1302,50.8689],[24.0469,50.898],[23.9793,50.9375],[23.9551,50.9836],[23.9117,51.0068],[23.9042,51.0627],[23.8545,51.1215],[23.8747,51.1361],[23.816,51.1788],[23.7652,51.199],[23.7427,51.2163],[23.6873,51.2924],[23.6352,51.3047],[23.634,51.3393],[23.6839,51.3703],[23.6789,51.3941],[23.6976,51.4044],[23.6487,51.454],[23.6628,51.4802],[23.6148,51.4972],[23.6062,51.5174],[23.5728,51.5397],[23.574,51.5553],[23.5399,51.6071],[23.5438,51.6438],[23.5324,51.659],[23.5604,51.672],[23.5466,51.7136],[23.5604,51.7545],[23.6175,51.7865],[23.6287,51.8098],[23.5946,51.8433],[23.6214,51.8956],[23.6222,51.9279],[23.6476,51.9741],[23.6764,51.9941],[23.6375,52.0845],[23.5794,52.1215],[23.5125,52.1244],[23.4847,52.1586],[23.4505,52.1859],[23.4367,52.1757],[23.3885,52.1842],[23.3958,52.1996],[23.2123,52.2317],[23.1897,52.2405],[23.1945,52.2715],[23.1761,52.2851],[23.1502,52.2816],[23.087,52.2923],[23.039,52.2892],[23.0521,52.3096],[23.0058,52.337],[22.9845,52.3301],[22.9751,52.3528],[22.9228,52.3723],[22.8446,52.3656],[22.689,52.3854],[22.6119,52.3873],[22.5627,52.4041],[22.5388,52.4294],[22.5448,52.4625],[22.5198,52.4733],[22.5114,52.4946],[22.5151,52.5151],[22.5176,52.5294],[22.4119,52.6006],[22.4118,52.6597],[22.3997,52.695],[22.3942,52.7413],[22.4,52.75],[22.5,53.05],[22.42,53.19],[22.74,53.49],[23.1,53.68],[23.4,53.75],[23.4863,53.9227],[23.4856,53.9393],[23.4904,53.9506],[23.4629,53.9725],[23.4593,53.9923],[23.4965,54.022],[23.4962,54.0446],[23.4739,54.1126],[23.4325,54.1693],[23.3823,54.1879],[23.336,54.2263],[23.316,54.2363],[23.2354,54.2542],[23.1171,54.3035],[23.0501,54.2948],[23.0321,54.3096],[23.0416,54.341],[22.9897,54.3534],[22.9733,54.3754],[22.9188,54.3811],[22.8589,54.3992],[22.8113,54.3926],[22.7887,54.3366],[22.7317,54.3017],[22.6653,54.2753],[22.4422,54.257],[22.3481,54.1786],[22.4491,54.0992],[22.4652,54.0417],[22.516,54.0124],[22.6221,53.9248],[22.6185,53.8782],[22.5779,53.8322],[22.543,53.7739],[22.4856,53.7379],[22.207,53.6352],[22.1099,53.5699],[21.9373,53.4993],[21.8626,53.4927],[21.8016,53.4708],[21.7388,53.4576],[21.5957,53.4626],[21.523,53.4435],[21.402,53.4379],[21.3774,53.4299],[21.3488,53.3961],[21.308,53.3788],[21.2626,53.3746],[21.1737,53.3796],[21.0979,53.3256],[21.0079,53.3084],[20.9123,53.3086],[20.8391,53.2834],[20.7756,53.2754],[20.704,53.2759],[20.6346,53.2346],[20.4948,53.1861],[20.4198,53.182],[20.3889,53.1675],[20.3719,53.1337],[20.3158,53.1063],[20.2406,53.098],[19.9248,53.1273],[19.8768,53.1511],[19.8371,53.1437],[19.8112,53.1129],[19.7479,53.0931],[19.7329,53.1846],[19.7096,53.22],[19.45,53.22],[19.3,53.18],[19.05,53.1],[18.95,53.0167],[18.95,52.93],[18.45,52.93],[18.45,53.1],[18.3,53.1],[18.1,53.13],[18.3,53.25],[18.42,53.35],[18.55,53.43],[18.72,53.52],[18.8046,53.6046],[18.7594,53.6252],[18.6779,53.6321],[18.583,53.6053],[18.4978,53.6354],[18.3179,53.6532],[18.2557,53.6942],[18.2205,53.696],[18.0511,53.681],[17.9241,53.6956],[17.8971,53.6832],[17.8564,53.6388],[17.7877,53.6236],[17.7556,53.6058],[17.7455,53.5573],[17.6832,53.5424],[17.5445,53.5639],[17.5076,53.5616],[17.4554,53.5069],[17.4252,53.444],[17.3972,53.4338],[17.3528,53.4656],[17.2993,53.4831],[17.0957,53.4881],[17.0372,53.5093],[16.9958,53.5529],[16.9477,53.5882],[16.8722,53.5946],[16.8365,53.5852],[16.7908,53.525],[16.7653,53.4612],[16.7351,53.4577],[16.5511,53.4606],[16.5285,53.4415],[16.5296,53.4017],[16.5451,53.366],[16.6078,53.3296],[16.6833,53.318],[16.7204,53.3064],[16.7516,53.2824],[16.7579,53.2537],[16.7036,53.2058],[16.6747,53.1893],[16.601,53.1755],[16.4562,53.1247],[16.3753,53.0482],[16.2788,52.9932],[16.2174,52.9787],[16.155,52.9736],[16.0938,52.9956],[16.0385,53.0067],[16.0186,52.9491],[16.0219,52.8853],[15.9246,52.8096],[15.9553,52.7923],[15.9768,52.7431],[15.9479,52.7198],[15.8311,52.6933],[15.8257,52.6497],[15.8296,52.5938],[15.8649,52.5348],[15.885,52.4633],[15.8849,52.4333],[15.8366,52.4242],[15.899,52.3485],[15.9012,52.287],[15.8687,52.2281],[15.8498,52.169],[15.857,52.1037],[15.9079,52.0649],[15.963,52.0468],[16.0039,51.9896],[16.0394,51.9676],[16.0939,51.9718],[16.1105,51.9654],[16.0984,51.8917],[16.1132,51.8649],[16.1562,51.8467],[16.2015,51.8375],[16.2747,51.8682],[16.3399,51.8237],[16.3711,51.7492],[16.3221,51.6999],[16.2612,51.6668],[16.182,51.6558],[16.1265,51.6999],[16.1232,51.7345],[16.0965,51.7523],[15.9448,51.7699],[15.9105,51.7272],[15.8804,51.7083],[15.8238,51.6912],[15.7254,51.5716],[15.6147,51.4804],[15.5439,51.4695],[15.4033,51.5178],[15.3301,51.5019],[15.2968,51.4771],[15.2462,51.4227],[15.2171,51.4241],[15.1583,51.456],[15.1294,51.4556],[14.9506,51.3965],[14.9638,51.3284],[15.0195,51.2717],[15.0221,51.2368],[15.0049,51.2156],[14.9832,51.1609],[14.98,51.1228],[14.9603,51.1046],[14.9553,51.064],[14.8602,50.9168],[14.8105,50.8771],[14.8104,50.8584]]]}},
{"type":"Feature","properties":{"entityId":"polish-duchies","from":1320,"to":1329,"certainty":"estimated","source":"유럽 쪽은 Natural Earth 1:10m admin-1(v5.1.2) 현대 행정구역 조각을 그 시기 국경에 맞춰 묶고, 조각이 역사 경계와 다른 곳은 선을 그어 나눈 근사. 유럽 밖(시베리아·중앙아시아·극동)은 대략적인 추정. 운영자 검수 필요"},"geometry":{"type":"MultiPolygon","coordinates":[[[[14.8104,50.8584],[14.8679,50.8644],[14.9821,50.8591],[14.9849,50.9181],[14.9966,50.9592],[14.961,50.9927],[14.9965,51.0078],[15.0736,51.0026],[15.1079,50.981],[15.1315,51.0058],[15.1561,51.0078],[15.1702,50.978],[15.2271,50.9774],[15.2698,50.9527],[15.2531,50.9141],[15.2878,50.8549],[15.341,50.8317],[15.353,50.813],[15.3497,50.7837],[15.3703,50.7726],[15.4001,50.798],[15.4418,50.8002],[15.5221,50.7824],[15.6419,50.7558],[15.6843,50.7314],[15.7674,50.7442],[15.7976,50.7298],[15.8482,50.6752],[15.8823,50.6742],[15.9415,50.6884],[15.9715,50.6786],[15.9932,50.6494],[15.9964,50.6237],[15.982,50.6036],[16.0245,50.6086],[16.0865,50.6468],[16.1287,50.644],[16.1755,50.6241],[16.2045,50.6363],[16.2191,50.6591],[16.2683,50.6604],[16.3316,50.644],[16.4168,50.5866],[16.4259,50.5676],[16.3945,50.5593],[16.3912,50.5218],[16.3526,50.4928],[16.3034,50.496],[16.28,50.4799],[16.2112,50.4513],[16.1902,50.4242],[16.1996,50.4063],[16.232,50.4026],[16.2625,50.3644],[16.3342,50.3719],[16.3508,50.3606],[16.3532,50.3335],[16.371,50.3184],[16.4378,50.298],[16.5048,50.228],[16.535,50.2077],[16.5573,50.1547],[16.5842,50.1274],[16.6606,50.093],[16.7012,50.0949],[16.7543,50.1323],[16.7953,50.1744],[16.8177,50.1868],[16.8698,50.1897],[16.919,50.2171],[16.9553,50.2135],[16.9603,50.232],[17.0084,50.21],[16.9878,50.2849],[16.9265,50.3193],[16.8979,50.3782],[16.8659,50.4084],[16.893,50.4329],[16.944,50.4203],[17.0847,50.398],[17.1189,50.3812],[17.1876,50.3785],[17.201,50.3432],[17.2461,50.3221],[17.3168,50.3186],[17.3341,50.2957],[17.3348,50.27],[17.355,50.2533],[17.388,50.2726],[17.4191,50.2427],[17.44,50.2427],[17.4694,50.2656],[17.517,50.2684],[17.6064,50.2582],[17.6467,50.2711],[17.6845,50.3124],[17.708,50.311],[17.7345,50.2895],[17.7214,50.2427],[17.7476,50.2175],[17.7382,50.2024],[17.6753,50.1747],[17.5894,50.1632],[17.5842,50.1459],[17.6328,50.1063],[17.6776,50.1077],[17.732,50.0949],[17.7195,50.0809],[17.743,50.0606],[17.7633,50.0252],[17.8394,49.9736],[17.8757,49.9687],[17.9121,49.9758],[17.9416,49.9928],[17.9999,49.9966],[18.0375,50.0072],[18.0069,50.0241],[18.0191,50.0441],[18.0916,50.0172],[18.0982,49.989],[18.162,49.9812],[18.2087,49.9583],[18.2559,49.946],[18.2925,49.9078],[18.3277,49.919],[18.3569,49.9282],[18.3688,49.932],[18.3874,49.9262],[18.4818,49.8966],[18.5444,49.913],[18.5592,49.9072],[18.5673,49.8615],[18.5938,49.8522],[18.5663,49.8316],[18.5668,49.8048],[18.6077,49.743],[18.6177,49.7139],[18.6373,49.7003],[18.6824,49.6958],[18.7277,49.6689],[18.7735,49.6758],[18.7926,49.6608],[18.7993,49.6264],[18.8345,49.5476],[18.8332,49.5103],[18.9322,49.5043],[18.9611,49.4928],[18.9524,49.4759],[18.9623,49.3892],[19.0071,49.3881],[19.0676,49.4061],[19.1166,49.3909],[19.1725,49.4023],[19.2205,49.493],[19.2487,49.5163],[19.3471,49.533],[19.4338,49.5952],[19.4489,49.6004],[19.4074,49.6403],[19.433,49.6836],[19.4364,49.7099],[19.3688,49.7176],[19.2989,49.7483],[19.2635,49.8031],[19.2125,49.816],[19.1826,49.8506],[19.1805,49.884],[19.1591,49.9015],[19.1325,49.9032],[19.1124,49.9202],[19.1237,49.9537],[19.1679,50.0039],[19.2032,50.0294],[19.2,50.03],[19.23,50.08],[19.22,50.15],[19.19,50.2],[19.17,50.235],[19.1,50.3],[19.03,50.58],[18.68,50.93],[18.6356,50.9505],[18.6556,50.9952],[18.5806,51.0334],[18.5305,51.0826],[18.4964,51.0608],[18.4257,51.0596],[18.202,51.0959],[18.1726,51.1108],[18.1501,51.1361],[18.0358,51.0932],[17.9174,51.0658],[17.8537,51.068],[17.8012,51.0948],[17.7822,51.1407],[17.7492,51.1514],[17.7146,51.1502],[17.7016,51.2],[17.6902,51.3026],[17.7184,51.3447],[17.6824,51.3628],[17.6443,51.3694],[17.583,51.3617],[17.5239,51.3703],[17.5007,51.407],[17.4952,51.4503],[17.5328,51.4816],[17.5566,51.535],[17.4573,51.5751],[17.3468,51.594],[17.2293,51.5943],[17.1874,51.5889],[17.1496,51.5354],[16.943,51.5127],[16.8277,51.5383],[16.7731,51.5759],[16.6761,51.6095],[16.6328,51.6571],[16.6295,51.6897],[16.6118,51.7149],[16.4991,51.7529],[16.4585,51.7596],[16.3711,51.7492],[16.3221,51.6999],[16.2612,51.6668],[16.182,51.6558],[16.1265,51.6999],[16.1232,51.7345],[16.0965,51.7523],[15.9448,51.7699],[15.9105,51.7272],[15.8804,51.7083],[15.8238,51.6912],[15.7254,51.5716],[15.6147,51.4804],[15.5439,51.4695],[15.4033,51.5178],[15.3301,51.5019],[15.2968,51.4771],[15.2462,51.4227],[15.2171,51.4241],[15.1583,51.456],[15.1294,51.4556],[14.9506,51.3965],[14.9638,51.3284],[15.0195,51.2717],[15.0221,51.2368],[15.0049,51.2156],[14.9832,51.1609],[14.98,51.1228],[14.9603,51.1046],[14.9553,51.064],[14.8602,50.9168],[14.8105,50.8771],[14.8104,50.8584]]],[[[19.2959,52.3342],[19.3923,52.2935],[19.4975,52.2799],[19.5489,52.2651],[19.6414,52.2192],[19.8492,52.2456],[19.881,52.2656],[19.9182,52.2677],[19.9695,52.2207],[20.0638,52.1925],[20.0799,52.1318],[20.1002,52.104],[20.1988,52.0845],[20.2517,52.0577],[20.2413,52.0076],[20.2079,51.9955],[20.2162,51.9743],[20.2669,51.9332],[20.2731,51.8982],[20.3091,51.891],[20.4151,51.8985],[20.4816,51.8795],[20.554,51.8448],[20.6129,51.796],[20.6193,51.7796],[20.5952,51.7462],[20.6045,51.7177],[20.6583,51.6828],[20.6736,51.6574],[20.6643,51.6332],[20.6581,51.6171],[20.5959,51.6225],[20.5854,51.6234],[20.5255,51.6435],[20.4476,51.6435],[20.4216,51.5872],[20.4369,51.5644],[20.4514,51.5428],[20.4725,51.4639],[20.5223,51.4437],[20.5222,51.4116],[20.5054,51.3841],[20.4414,51.3466],[20.4287,51.3194],[20.4321,51.2899],[20.4873,51.2775],[20.5169,51.2304],[20.6816,51.1669],[20.726,51.129],[20.7517,51.1168],[20.8728,51.101],[21.0117,51.1149],[21.0447,51.1268],[21.1055,51.1712],[21.1357,51.1647],[21.1441,51.1311],[21.174,51.1099],[21.1847,51.078],[21.2531,51.05],[21.33,51.0458],[21.4956,51.0132],[21.8154,51.0551],[21.7909,51.0936],[21.7716,51.1515],[21.8035,51.2484],[21.836,51.2705],[21.8342,51.2914],[21.8524,51.3504],[21.8124,51.3803],[21.8145,51.4047],[21.8622,51.4375],[21.8632,51.4784],[21.8324,51.4804],[21.8476,51.4984],[21.8262,51.5282],[21.8212,51.5626],[21.7962,51.5697],[21.7541,51.5618],[21.6748,51.5766],[21.6473,51.6009],[21.6563,51.6367],[21.6925,51.6427],[21.7282,51.6336],[21.8011,51.6266],[21.872,51.6421],[21.8969,51.6568],[21.9036,51.6796],[21.8532,51.7277],[21.8917,51.7614],[21.9468,51.7821],[21.9118,51.8152],[21.8875,51.8524],[21.8835,51.8789],[21.8476,51.9331],[21.8413,51.9584],[21.9123,51.991],[21.9884,52.0045],[22.1332,52.004],[22.2701,52.0208],[22.3208,52.0149],[22.3559,52.0219],[22.4514,52.066],[22.4898,52.0687],[22.5997,52.0623],[22.6553,52.0902],[22.6665,52.1178],[22.7012,52.1361],[22.7421,52.1303],[22.8593,52.0932],[22.8983,52.1021],[22.9313,52.1282],[22.96,52.1693],[23.055,52.2554],[23.087,52.2923],[23.039,52.2892],[23.0521,52.3096],[23.0058,52.337],[22.9845,52.3301],[22.9751,52.3528],[22.9228,52.3723],[22.8446,52.3656],[22.689,52.3854],[22.6119,52.3873],[22.5627,52.4041],[22.5388,52.4294],[22.5448,52.4625],[22.5198,52.4733],[22.5114,52.4946],[22.5151,52.5151],[22.5176,52.5294],[22.4119,52.6006],[22.4118,52.6597],[22.3997,52.695],[22.3942,52.7413],[22.4,52.75],[22.5,53.05],[22.42,53.19],[22.74,53.49],[23.1,53.68],[23.4,53.75],[23.4863,53.9227],[23.4856,53.9393],[23.4904,53.9506],[23.4629,53.9725],[23.4593,53.9923],[23.4965,54.022],[23.4962,54.0446],[23.4739,54.1126],[23.4325,54.1693],[23.3823,54.1879],[23.336,54.2263],[23.316,54.2363],[23.2354,54.2542],[23.1171,54.3035],[23.0501,54.2948],[23.0321,54.3096],[23.0416,54.341],[22.9897,54.3534],[22.9733,54.3754],[22.9188,54.3811],[22.8589,54.3992],[22.8113,54.3926],[22.7887,54.3366],[22.7317,54.3017],[22.6653,54.2753],[22.4422,54.257],[22.3481,54.1786],[22.4491,54.0992],[22.4652,54.0417],[22.516,54.0124],[22.6221,53.9248],[22.6185,53.8782],[22.5779,53.8322],[22.543,53.7739],[22.4856,53.7379],[22.207,53.6352],[22.1099,53.5699],[21.9373,53.4993],[21.8626,53.4927],[21.8016,53.4708],[21.7388,53.4576],[21.5957,53.4626],[21.523,53.4435],[21.402,53.4379],[21.3774,53.4299],[21.3488,53.3961],[21.308,53.3788],[21.2626,53.3746],[21.1737,53.3796],[21.0979,53.3256],[21.0079,53.3084],[20.9123,53.3086],[20.8391,53.2834],[20.7756,53.2754],[20.704,53.2759],[20.6346,53.2346],[20.4948,53.1861],[20.4198,53.182],[20.3889,53.1675],[20.3719,53.1337],[20.3158,53.1063],[20.2406,53.098],[19.9248,53.1273],[19.8768,53.1511],[19.8371,53.1437],[19.8112,53.1129],[19.7479,53.0931],[19.6999,53.0698],[19.6487,53.0553],[19.6635,52.9872],[19.6458,52.9309],[19.5889,52.9451],[19.5073,52.8945],[19.4584,52.8983],[19.4739,52.8573],[19.4688,52.8204],[19.4404,52.7868],[19.497,52.7048],[19.4979,52.6717],[19.455,52.6647],[19.3877,52.5455],[19.3611,52.5124],[19.3559,52.474],[19.3805,52.4426],[19.3066,52.3681],[19.2959,52.3342]]]]}},
{"type":"Feature","properties":{"entityId":"polish-duchies","from":1329,"to":1351,"certainty":"estimated","source":"유럽 쪽은 Natural Earth 1:10m admin-1(v5.1.2) 현대 행정구역 조각을 그 시기 국경에 맞춰 묶고, 조각이 역사 경계와 다른 곳은 선을 그어 나눈 근사. 유럽 밖(시베리아·중앙아시아·극동)은 대략적인 추정. 운영자 검수 필요"},"geometry":{"type":"Polygon","coordinates":[[[19.2959,52.3342],[19.3923,52.2935],[19.4975,52.2799],[19.5489,52.2651],[19.6414,52.2192],[19.8492,52.2456],[19.881,52.2656],[19.9182,52.2677],[19.9695,52.2207],[20.0638,52.1925],[20.0799,52.1318],[20.1002,52.104],[20.1988,52.0845],[20.2517,52.0577],[20.2413,52.0076],[20.2079,51.9955],[20.2162,51.9743],[20.2669,51.9332],[20.2731,51.8982],[20.3091,51.891],[20.4151,51.8985],[20.4816,51.8795],[20.554,51.8448],[20.6129,51.796],[20.6193,51.7796],[20.5952,51.7462],[20.6045,51.7177],[20.6583,51.6828],[20.6736,51.6574],[20.6643,51.6332],[20.6581,51.6171],[20.5959,51.6225],[20.5854,51.6234],[20.5255,51.6435],[20.4476,51.6435],[20.4216,51.5872],[20.4369,51.5644],[20.4514,51.5428],[20.4725,51.4639],[20.5223,51.4437],[20.5222,51.4116],[20.5054,51.3841],[20.4414,51.3466],[20.4287,51.3194],[20.4321,51.2899],[20.4873,51.2775],[20.5169,51.2304],[20.6816,51.1669],[20.726,51.129],[20.7517,51.1168],[20.8728,51.101],[21.0117,51.1149],[21.0447,51.1268],[21.1055,51.1712],[21.1357,51.1647],[21.1441,51.1311],[21.174,51.1099],[21.1847,51.078],[21.2531,51.05],[21.33,51.0458],[21.4956,51.0132],[21.8154,51.0551],[21.7909,51.0936],[21.7716,51.1515],[21.8035,51.2484],[21.836,51.2705],[21.8342,51.2914],[21.8524,51.3504],[21.8124,51.3803],[21.8145,51.4047],[21.8622,51.4375],[21.8632,51.4784],[21.8324,51.4804],[21.8476,51.4984],[21.8262,51.5282],[21.8212,51.5626],[21.7962,51.5697],[21.7541,51.5618],[21.6748,51.5766],[21.6473,51.6009],[21.6563,51.6367],[21.6925,51.6427],[21.7282,51.6336],[21.8011,51.6266],[21.872,51.6421],[21.8969,51.6568],[21.9036,51.6796],[21.8532,51.7277],[21.8917,51.7614],[21.9468,51.7821],[21.9118,51.8152],[21.8875,51.8524],[21.8835,51.8789],[21.8476,51.9331],[21.8413,51.9584],[21.9123,51.991],[21.9884,52.0045],[22.1332,52.004],[22.2701,52.0208],[22.3208,52.0149],[22.3559,52.0219],[22.4514,52.066],[22.4898,52.0687],[22.5997,52.0623],[22.6553,52.0902],[22.6665,52.1178],[22.7012,52.1361],[22.7421,52.1303],[22.8593,52.0932],[22.8983,52.1021],[22.9313,52.1282],[22.96,52.1693],[23.055,52.2554],[23.087,52.2923],[23.039,52.2892],[23.0521,52.3096],[23.0058,52.337],[22.9845,52.3301],[22.9751,52.3528],[22.9228,52.3723],[22.8446,52.3656],[22.689,52.3854],[22.6119,52.3873],[22.5627,52.4041],[22.5388,52.4294],[22.5448,52.4625],[22.5198,52.4733],[22.5114,52.4946],[22.5151,52.5151],[22.5176,52.5294],[22.4119,52.6006],[22.4118,52.6597],[22.3997,52.695],[22.3942,52.7413],[22.4,52.75],[22.5,53.05],[22.42,53.19],[22.74,53.49],[23.1,53.68],[23.4,53.75],[23.4863,53.9227],[23.4856,53.9393],[23.4904,53.9506],[23.4629,53.9725],[23.4593,53.9923],[23.4965,54.022],[23.4962,54.0446],[23.4739,54.1126],[23.4325,54.1693],[23.3823,54.1879],[23.336,54.2263],[23.316,54.2363],[23.2354,54.2542],[23.1171,54.3035],[23.0501,54.2948],[23.0321,54.3096],[23.0416,54.341],[22.9897,54.3534],[22.9733,54.3754],[22.9188,54.3811],[22.8589,54.3992],[22.8113,54.3926],[22.7887,54.3366],[22.7317,54.3017],[22.6653,54.2753],[22.4422,54.257],[22.3481,54.1786],[22.4491,54.0992],[22.4652,54.0417],[22.516,54.0124],[22.6221,53.9248],[22.6185,53.8782],[22.5779,53.8322],[22.543,53.7739],[22.4856,53.7379],[22.207,53.6352],[22.1099,53.5699],[21.9373,53.4993],[21.8626,53.4927],[21.8016,53.4708],[21.7388,53.4576],[21.5957,53.4626],[21.523,53.4435],[21.402,53.4379],[21.3774,53.4299],[21.3488,53.3961],[21.308,53.3788],[21.2626,53.3746],[21.1737,53.3796],[21.0979,53.3256],[21.0079,53.3084],[20.9123,53.3086],[20.8391,53.2834],[20.7756,53.2754],[20.704,53.2759],[20.6346,53.2346],[20.4948,53.1861],[20.4198,53.182],[20.3889,53.1675],[20.3719,53.1337],[20.3158,53.1063],[20.2406,53.098],[19.9248,53.1273],[19.8768,53.1511],[19.8371,53.1437],[19.8112,53.1129],[19.7479,53.0931],[19.6999,53.0698],[19.6487,53.0553],[19.6635,52.9872],[19.6458,52.9309],[19.5889,52.9451],[19.5073,52.8945],[19.4584,52.8983],[19.4739,52.8573],[19.4688,52.8204],[19.4404,52.7868],[19.497,52.7048],[19.4979,52.6717],[19.455,52.6647],[19.3877,52.5455],[19.3611,52.5124],[19.3559,52.474],[19.3805,52.4426],[19.3066,52.3681],[19.2959,52.3342]]]}}
]}
