{"type":"FeatureCollection","features":[
{"type":"Feature","properties":{"entityId":"pontus-kingdom","from":-263,"to":-182,"certainty":"estimated","source":"유럽 쪽은 Natural Earth 1:10m admin-1(v5.1.2) 현대 행정구역 조각을 그 시기 국경에 맞춰 묶고, 조각이 역사 경계와 다른 곳은 선을 그어 나눈 근사. 유럽 밖(시베리아·중앙아시아·극동)은 대략적인 추정. 운영자 검수 필요"},"geometry":{"type":"Polygon","coordinates":[[[35.5696,41.8782],[35.5961,41.8675],[35.6225,41.8569],[35.7284,41.8142],[35.9403,41.7287],[35.9568,41.7363],[35.9466,41.7262],[35.9627,41.7197],[35.9779,41.7297],[36.033,41.6914],[36.0387,41.689],[36.0449,41.7015],[36.071,41.676],[36.8731,41.3526],[36.9132,41.3364],[37.0736,41.2931],[37.1238,41.2796],[37.1489,41.2728],[37.1739,41.2661],[37.1739,41.2497],[37.1489,41.2497],[37.1489,41.2199],[37.1489,41.1833],[37.1489,41.1468],[37.1517,41.1468],[37.0984,41.0866],[37.0423,41.0418],[36.9991,40.9797],[36.9203,40.9458],[36.8807,40.9124],[36.8284,40.8878],[36.746,40.875],[36.7052,40.8625],[36.6875,40.836],[36.6989,40.8068],[36.7565,40.792],[36.8118,40.7661],[36.8954,40.7447],[36.9468,40.7203],[37.0134,40.6989],[37.0846,40.6943],[37.1525,40.7019],[37.2197,40.6977],[37.4488,40.5759],[37.5841,40.5694],[37.617,40.5212],[37.6349,40.4612],[37.5841,40.382],[37.5241,40.317],[37.4221,40.2955],[37.3508,40.259],[37.2671,40.2494],[37.1824,40.2529],[37.0894,40.2434],[36.9587,40.2167],[36.9222,40.2049],[36.8077,40.2166],[36.7339,40.1913],[36.6669,40.0345],[36.6349,40.0097],[36.4875,39.9659],[36.3221,39.9597],[36.0887,39.9237],[36.0394,39.9877],[36.0478,40.0827],[36.0064,40.1147],[35.9228,40.091],[35.829,40.0805],[35.7503,40.0927],[35.6574,40.0868],[35.5783,40.1292],[35.5098,40.1886],[35.4604,40.2003],[35.3631,40.2006],[35.3273,40.234],[35.2871,40.2228],[35.1914,40.2174],[35.1811,40.1722],[35.1941,40.161],[35.1779,40.1025],[35.151,40.0754],[35.0726,40.039],[35.0266,40.0348],[34.9415,40.0539],[34.7916,39.9977],[34.6711,39.9977],[34.6117,39.9799],[34.4585,40.0007],[34.3613,39.9762],[34.2658,39.9427],[34.109,39.9286],[34.0525,39.9076],[34.0509,39.9586],[34.0976,40.0243],[34.1013,40.0569],[34.0845,40.1091],[34.0164,40.1467],[33.9752,40.218],[33.9642,40.2655],[34.043,40.2999],[34.0818,40.3102],[34.1336,40.3897],[34.1502,40.423],[34.1316,40.4749],[34.0914,40.5311],[34.0787,40.5687],[34.0746,40.6391],[34.0505,40.6763],[34.0442,40.7191],[34.0766,40.7982],[34.0272,40.8608],[34.1145,40.8747],[34.2564,40.9194],[34.2802,40.9691],[34.2264,41.0021],[34.2077,41.0393],[34.2522,41.0913],[34.2871,41.1572],[34.3574,41.2094],[34.3852,41.2643],[34.4194,41.302],[34.4719,41.3108],[34.4985,41.2859],[34.5575,41.2846],[34.5741,41.2705],[34.641,41.2721],[34.6704,41.2661],[34.7239,41.2293],[34.8373,41.2016],[34.8761,41.233],[34.888,41.2698],[34.9418,41.2999],[34.9345,41.3179],[34.9913,41.3348],[35.0239,41.3588],[35.1024,41.3853],[35.1133,41.3998],[35.1328,41.3771],[35.1406,41.3415],[35.1958,41.311],[35.1944,41.2934],[35.2397,41.2892],[35.2963,41.2583],[35.3399,41.2545],[35.3831,41.2602],[35.4338,41.2833],[35.4851,41.2728],[35.5048,41.2845],[35.4895,41.3735],[35.4709,41.4171],[35.4723,41.4755],[35.456,41.5236],[35.4608,41.5742],[35.5001,41.6416],[35.5166,41.639],[35.5166,41.664],[35.5166,41.6823],[35.5166,41.6972],[35.5166,41.7255],[35.5166,41.7309],[35.5431,41.7309],[35.5431,41.7646],[35.5696,41.7646],[35.5696,41.7984],[35.5696,41.8321],[35.5696,41.8782]]]}},
{"type":"Feature","properties":{"entityId":"pontus-kingdom","from":-182,"to":-128,"certainty":"estimated","source":"유럽 쪽은 Natural Earth 1:10m admin-1(v5.1.2) 현대 행정구역 조각을 그 시기 국경에 맞춰 묶고, 조각이 역사 경계와 다른 곳은 선을 그어 나눈 근사. 유럽 밖(시베리아·중앙아시아·극동)은 대략적인 추정. 운영자 검수 필요"},"geometry":{"type":"Polygon","coordinates":[[[37.1739,41.2661],[37.1989,41.2593],[37.224,41.2525],[37.2741,41.239],[37.6751,41.1308],[37.6898,41.1404],[37.6983,41.1246],[37.7346,41.1148],[37.7839,41.1226],[37.7843,41.1013],[38.0589,41.0272],[38.1276,41.0087],[38.1619,40.9994],[38.1962,40.9902],[38.3334,40.9532],[38.3495,40.9488],[38.8403,41.0139],[38.8532,41.0174],[38.8824,41.0219],[38.9275,41.0426],[39.0204,41.0433],[39.1263,41.0596],[39.1483,41.0725],[39.1683,41.0797],[39.2158,41.0735],[39.4118,41.1038],[39.4302,41.1125],[39.4929,41.101],[39.4935,41.1004],[39.512,41.1029],[39.5122,41.1029],[39.5124,41.1029],[40.0096,41.0511],[40.2677,41.0242],[40.3322,41.0174],[40.3645,41.0141],[40.3645,41.0002],[40.3523,40.9941],[40.388,40.9319],[40.413,40.8653],[40.4242,40.7945],[40.4869,40.6733],[40.4754,40.6057],[40.4894,40.5421],[40.4294,40.5295],[40.3267,40.53],[40.2279,40.5112],[40.1846,40.5104],[40.1017,40.5307],[40.0159,40.5327],[39.9747,40.5503],[39.9138,40.603],[39.8836,40.6118],[39.8633,40.5994],[39.8699,40.5749],[39.834,40.561],[39.7859,40.6222],[39.7173,40.6574],[39.6863,40.6395],[39.6747,40.5988],[39.6385,40.5819],[39.5789,40.5878],[39.3452,40.6596],[39.2786,40.7125],[39.2635,40.7711],[39.2213,40.7898],[39.1842,40.7587],[39.1444,40.7714],[39.0244,40.7605],[39.0124,40.7344],[38.9689,40.721],[38.9077,40.6867],[38.8955,40.6609],[38.9086,40.63],[38.8898,40.6037],[38.8487,40.5685],[38.8397,40.516],[38.8423,40.4802],[38.8698,40.4542],[38.9879,40.4325],[39.043,40.3936],[39.0655,40.3884],[39.0598,40.3519],[39.0296,40.333],[38.929,40.2905],[38.9071,40.2699],[38.9102,40.2033],[38.9057,40.167],[38.9147,40.1322],[38.9424,40.1051],[38.9333,40.0713],[38.8925,40.0576],[38.8055,40.0525],[38.7616,40.0549],[38.661,40.0935],[38.5563,40.1194],[38.4542,40.0999],[38.3923,40.1283],[38.3311,40.1647],[38.2748,40.1861],[38.2382,40.2286],[38.2405,40.2852],[38.1583,40.5235],[38.0952,40.4922],[38.0084,40.481],[37.998,40.4688],[38.0016,40.4116],[37.9802,40.4013],[37.8977,40.4041],[37.8614,40.3839],[37.8019,40.3357],[37.7669,40.3319],[37.6901,40.3794],[37.6349,40.4612],[37.5841,40.382],[37.5241,40.317],[37.4221,40.2955],[37.3508,40.259],[37.2671,40.2494],[37.1824,40.2529],[37.0894,40.2434],[36.9587,40.2167],[36.9222,40.2049],[36.8077,40.2166],[36.7339,40.1913],[36.6669,40.0345],[36.6349,40.0097],[36.4875,39.9659],[36.3221,39.9597],[36.0887,39.9237],[36.0394,39.9877],[36.0478,40.0827],[36.0064,40.1147],[35.9228,40.091],[35.829,40.0805],[35.7503,40.0927],[35.6574,40.0868],[35.5783,40.1292],[35.5098,40.1886],[35.4604,40.2003],[35.3631,40.2006],[35.3273,40.234],[35.2871,40.2228],[35.1914,40.2174],[35.1811,40.1722],[35.1941,40.161],[35.1779,40.1025],[35.151,40.0754],[35.0726,40.039],[35.0266,40.0348],[34.9415,40.0539],[34.7916,39.9977],[34.6711,39.9977],[34.6117,39.9799],[34.4585,40.0007],[34.3613,39.9762],[34.2658,39.9427],[34.109,39.9286],[34.0525,39.9076],[34.0509,39.9586],[34.0976,40.0243],[34.1013,40.0569],[34.0845,40.1091],[34.0164,40.1467],[33.9752,40.218],[33.9642,40.2655],[34.043,40.2999],[34.0818,40.3102],[34.1336,40.3897],[34.1502,40.423],[34.1316,40.4749],[34.0914,40.5311],[34.0787,40.5687],[34.0746,40.6391],[34.0505,40.6763],[34.0442,40.7191],[34.0766,40.7982],[34.0272,40.8608],[34.1145,40.8747],[34.2564,40.9194],[34.2802,40.9691],[34.2264,41.0021],[34.2077,41.0393],[34.2522,41.0913],[34.2871,41.1572],[34.3574,41.2094],[34.3852,41.2643],[34.4194,41.302],[34.4719,41.3108],[34.4798,41.4416],[34.4629,41.4798],[34.472,41.5185],[34.4918,41.5523],[34.5533,41.5912],[34.5879,41.6575],[34.5325,41.7132],[34.4661,41.7275],[34.3443,41.7325],[34.2842,41.7453],[34.2051,41.7478],[34.1404,41.7671],[34.1422,41.8002],[34.1926,41.8451],[34.2209,41.9035],[34.2161,41.9601],[34.1995,41.9619],[34.1995,41.9925],[34.1995,42.0276],[34.2471,42.0283],[34.3424,42.0295],[34.533,42.0321],[34.9142,42.0371],[34.9419,42.0693],[34.9481,42.0988],[35.0239,42.0925],[35.0488,42.0651],[35.0453,42.0545],[35.1066,42.0397],[35.1588,42.0404],[35.1604,42.0415],[35.1862,42.0425],[35.2076,42.0242],[35.3048,41.985],[35.5166,41.8996],[35.5696,41.8782],[35.5961,41.8675],[35.6225,41.8569],[35.7284,41.8142],[35.9403,41.7287],[35.9568,41.7363],[35.9466,41.7262],[35.9627,41.7197],[35.9779,41.7297],[36.033,41.6914],[36.0387,41.689],[36.0449,41.7015],[36.071,41.676],[36.8731,41.3526],[36.9132,41.3364],[37.0736,41.2931],[37.1238,41.2796],[37.1489,41.2728],[37.1739,41.2661]]]}},
{"type":"Feature","properties":{"entityId":"pontus-kingdom","from":-128,"to":-115,"certainty":"estimated","source":"유럽 쪽은 Natural Earth 1:10m admin-1(v5.1.2) 현대 행정구역 조각을 그 시기 국경에 맞춰 묶고, 조각이 역사 경계와 다른 곳은 선을 그어 나눈 근사. 유럽 밖(시베리아·중앙아시아·극동)은 대략적인 추정. 운영자 검수 필요"},"geometry":{"type":"MultiPolygon","coordinates":[[[[29.8881,38.7069],[30.0957,38.8042],[30.1649,38.8858],[30.1924,38.953],[30.2183,38.9949],[30.2535,39.0807],[30.3721,39.1224],[30.4418,39.2063],[30.4772,39.1996],[30.5049,39.1784],[30.5437,39.1241],[30.6212,39.0869],[30.668,39.093],[30.7698,39.1412],[30.8685,39.2109],[30.9186,39.1926],[30.9622,39.1546],[31.035,39.1791],[31.1072,39.2226],[31.1462,39.23],[31.2165,39.2725],[31.2577,39.2819],[31.3281,39.2239],[31.3783,39.1357],[31.4528,39.0912],[31.5819,39.1019],[31.6596,39.1003],[31.6978,39.0926],[31.6747,39.0005],[31.7236,38.9675],[31.7149,38.9277],[31.6383,38.8291],[31.608,38.7821],[31.5922,38.7288],[31.5948,38.6664],[31.5072,38.5771],[31.4308,38.5141],[31.2544,38.423],[31.207,38.4396],[31.1622,38.4908],[31.1238,38.5124],[31.0996,38.5152],[31.0304,38.4598],[30.9056,38.3805],[30.8447,38.3249],[30.7811,38.2777],[30.7051,38.2545],[30.6623,38.25],[30.6055,38.2137],[30.5302,38.193],[30.4812,38.1495],[30.429,38.1122],[30.3903,38.0946],[30.3,38.0244],[30.2322,37.9932],[30.2111,37.9619],[30.1977,37.8584],[30.1653,37.8104],[30.0934,37.7792],[30.0153,37.7765],[29.9264,37.7819],[29.8455,37.7593],[29.8008,37.8212],[29.7337,37.8464],[29.6641,37.8537],[29.6648,37.9558],[29.6799,37.9843],[29.7438,38.0074],[30.0132,38.1666],[30.0409,38.1915],[30.0255,38.2582],[29.9985,38.2833],[29.8915,38.4248],[29.7533,38.4502],[29.7508,38.4777],[29.7739,38.5007],[29.8071,38.5812],[29.8681,38.6277],[29.8832,38.6654],[29.8881,38.7069]]],[[[37.1739,41.2661],[37.1989,41.2593],[37.224,41.2525],[37.2741,41.239],[37.6751,41.1308],[37.6898,41.1404],[37.6983,41.1246],[37.7346,41.1148],[37.7839,41.1226],[37.7843,41.1013],[38.0589,41.0272],[38.1276,41.0087],[38.1619,40.9994],[38.1962,40.9902],[38.3334,40.9532],[38.3495,40.9488],[38.8403,41.0139],[38.8532,41.0174],[38.8824,41.0219],[38.9275,41.0426],[39.0204,41.0433],[39.1263,41.0596],[39.1483,41.0725],[39.1683,41.0797],[39.2158,41.0735],[39.4118,41.1038],[39.4302,41.1125],[39.4929,41.101],[39.4935,41.1004],[39.512,41.1029],[39.5122,41.1029],[39.5124,41.1029],[40.0096,41.0511],[40.2677,41.0242],[40.3322,41.0174],[40.3645,41.0141],[40.3645,41.0002],[40.3523,40.9941],[40.388,40.9319],[40.413,40.8653],[40.4242,40.7945],[40.4869,40.6733],[40.4754,40.6057],[40.4894,40.5421],[40.4294,40.5295],[40.3267,40.53],[40.2279,40.5112],[40.1846,40.5104],[40.1017,40.5307],[40.0159,40.5327],[39.9747,40.5503],[39.9138,40.603],[39.8836,40.6118],[39.8633,40.5994],[39.8699,40.5749],[39.834,40.561],[39.7859,40.6222],[39.7173,40.6574],[39.6863,40.6395],[39.6747,40.5988],[39.6385,40.5819],[39.5789,40.5878],[39.3452,40.6596],[39.2786,40.7125],[39.2635,40.7711],[39.2213,40.7898],[39.1842,40.7587],[39.1444,40.7714],[39.0244,40.7605],[39.0124,40.7344],[38.9689,40.721],[38.9077,40.6867],[38.8955,40.6609],[38.9086,40.63],[38.8898,40.6037],[38.8487,40.5685],[38.8397,40.516],[38.8423,40.4802],[38.8698,40.4542],[38.9879,40.4325],[39.043,40.3936],[39.0655,40.3884],[39.0598,40.3519],[39.0296,40.333],[38.929,40.2905],[38.9071,40.2699],[38.9102,40.2033],[38.9057,40.167],[38.9147,40.1322],[38.9424,40.1051],[38.9333,40.0713],[38.8925,40.0576],[38.8055,40.0525],[38.7616,40.0549],[38.661,40.0935],[38.5563,40.1194],[38.4542,40.0999],[38.3923,40.1283],[38.3311,40.1647],[38.2748,40.1861],[38.2382,40.2286],[38.2405,40.2852],[38.1583,40.5235],[38.0952,40.4922],[38.0084,40.481],[37.998,40.4688],[38.0016,40.4116],[37.9802,40.4013],[37.8977,40.4041],[37.8614,40.3839],[37.8019,40.3357],[37.7669,40.3319],[37.6901,40.3794],[37.6349,40.4612],[37.5841,40.382],[37.5241,40.317],[37.4221,40.2955],[37.3508,40.259],[37.2671,40.2494],[37.1824,40.2529],[37.0894,40.2434],[36.9587,40.2167],[36.9222,40.2049],[36.8077,40.2166],[36.7339,40.1913],[36.6669,40.0345],[36.6349,40.0097],[36.4875,39.9659],[36.3221,39.9597],[36.0887,39.9237],[36.0394,39.9877],[36.0478,40.0827],[36.0064,40.1147],[35.9228,40.091],[35.829,40.0805],[35.7503,40.0927],[35.6574,40.0868],[35.5783,40.1292],[35.5098,40.1886],[35.4604,40.2003],[35.3631,40.2006],[35.3273,40.234],[35.2871,40.2228],[35.1914,40.2174],[35.1811,40.1722],[35.1941,40.161],[35.1779,40.1025],[35.151,40.0754],[35.0726,40.039],[35.0266,40.0348],[34.9415,40.0539],[34.7916,39.9977],[34.6711,39.9977],[34.6117,39.9799],[34.4585,40.0007],[34.3613,39.9762],[34.2658,39.9427],[34.109,39.9286],[34.0525,39.9076],[34.0509,39.9586],[34.0976,40.0243],[34.1013,40.0569],[34.0845,40.1091],[34.0164,40.1467],[33.9752,40.218],[33.9642,40.2655],[34.043,40.2999],[34.0818,40.3102],[34.1336,40.3897],[34.1502,40.423],[34.1316,40.4749],[34.0914,40.5311],[34.0787,40.5687],[34.0746,40.6391],[34.0505,40.6763],[34.0442,40.7191],[34.0766,40.7982],[34.0272,40.8608],[34.1145,40.8747],[34.2564,40.9194],[34.2802,40.9691],[34.2264,41.0021],[34.2077,41.0393],[34.2522,41.0913],[34.2871,41.1572],[34.3574,41.2094],[34.3852,41.2643],[34.4194,41.302],[34.4719,41.3108],[34.4798,41.4416],[34.4629,41.4798],[34.472,41.5185],[34.4918,41.5523],[34.5533,41.5912],[34.5879,41.6575],[34.5325,41.7132],[34.4661,41.7275],[34.3443,41.7325],[34.2842,41.7453],[34.2051,41.7478],[34.1404,41.7671],[34.1422,41.8002],[34.1926,41.8451],[34.2209,41.9035],[34.2161,41.9601],[34.1995,41.9619],[34.1995,41.9925],[34.1995,42.0276],[34.2471,42.0283],[34.3424,42.0295],[34.533,42.0321],[34.9142,42.0371],[34.9419,42.0693],[34.9481,42.0988],[35.0239,42.0925],[35.0488,42.0651],[35.0453,42.0545],[35.1066,42.0397],[35.1588,42.0404],[35.1604,42.0415],[35.1862,42.0425],[35.2076,42.0242],[35.3048,41.985],[35.5166,41.8996],[35.5696,41.8782],[35.5961,41.8675],[35.6225,41.8569],[35.7284,41.8142],[35.9403,41.7287],[35.9568,41.7363],[35.9466,41.7262],[35.9627,41.7197],[35.9779,41.7297],[36.033,41.6914],[36.0387,41.689],[36.0449,41.7015],[36.071,41.676],[36.8731,41.3526],[36.9132,41.3364],[37.0736,41.2931],[37.1238,41.2796],[37.1489,41.2728],[37.1739,41.2661]]]]}},
{"type":"Feature","properties":{"entityId":"pontus-kingdom","from":-115,"to":-111,"certainty":"estimated","source":"유럽 쪽은 Natural Earth 1:10m admin-1(v5.1.2) 현대 행정구역 조각을 그 시기 국경에 맞춰 묶고, 조각이 역사 경계와 다른 곳은 선을 그어 나눈 근사. 유럽 밖(시베리아·중앙아시아·극동)은 대략적인 추정. 운영자 검수 필요"},"geometry":{"type":"Polygon","coordinates":[[[37.1739,41.2661],[37.1989,41.2593],[37.224,41.2525],[37.2741,41.239],[37.6751,41.1308],[37.6898,41.1404],[37.6983,41.1246],[37.7346,41.1148],[37.7839,41.1226],[37.7843,41.1013],[38.0589,41.0272],[38.1276,41.0087],[38.1619,40.9994],[38.1962,40.9902],[38.3334,40.9532],[38.3495,40.9488],[38.8403,41.0139],[38.8532,41.0174],[38.8824,41.0219],[38.9275,41.0426],[39.0204,41.0433],[39.1263,41.0596],[39.1483,41.0725],[39.1683,41.0797],[39.2158,41.0735],[39.4118,41.1038],[39.4302,41.1125],[39.4929,41.101],[39.4935,41.1004],[39.512,41.1029],[39.5122,41.1029],[39.5124,41.1029],[40.0096,41.0511],[40.2677,41.0242],[40.3322,41.0174],[40.3645,41.0141],[40.3645,41.0002],[40.3523,40.9941],[40.388,40.9319],[40.413,40.8653],[40.4242,40.7945],[40.4869,40.6733],[40.4754,40.6057],[40.4894,40.5421],[40.4294,40.5295],[40.3267,40.53],[40.2279,40.5112],[40.1846,40.5104],[40.1017,40.5307],[40.0159,40.5327],[39.9747,40.5503],[39.9138,40.603],[39.8836,40.6118],[39.8633,40.5994],[39.8699,40.5749],[39.834,40.561],[39.7859,40.6222],[39.7173,40.6574],[39.6863,40.6395],[39.6747,40.5988],[39.6385,40.5819],[39.5789,40.5878],[39.3452,40.6596],[39.2786,40.7125],[39.2635,40.7711],[39.2213,40.7898],[39.1842,40.7587],[39.1444,40.7714],[39.0244,40.7605],[39.0124,40.7344],[38.9689,40.721],[38.9077,40.6867],[38.8955,40.6609],[38.9086,40.63],[38.8898,40.6037],[38.8487,40.5685],[38.8397,40.516],[38.8423,40.4802],[38.8698,40.4542],[38.9879,40.4325],[39.043,40.3936],[39.0655,40.3884],[39.0598,40.3519],[39.0296,40.333],[38.929,40.2905],[38.9071,40.2699],[38.9102,40.2033],[38.9057,40.167],[38.9147,40.1322],[38.9424,40.1051],[38.9333,40.0713],[38.8925,40.0576],[38.8055,40.0525],[38.7616,40.0549],[38.661,40.0935],[38.5563,40.1194],[38.4542,40.0999],[38.3923,40.1283],[38.3311,40.1647],[38.2748,40.1861],[38.2382,40.2286],[38.2405,40.2852],[38.1583,40.5235],[38.0952,40.4922],[38.0084,40.481],[37.998,40.4688],[38.0016,40.4116],[37.9802,40.4013],[37.8977,40.4041],[37.8614,40.3839],[37.8019,40.3357],[37.7669,40.3319],[37.6901,40.3794],[37.6349,40.4612],[37.5841,40.382],[37.5241,40.317],[37.4221,40.2955],[37.3508,40.259],[37.2671,40.2494],[37.1824,40.2529],[37.0894,40.2434],[36.9587,40.2167],[36.9222,40.2049],[36.8077,40.2166],[36.7339,40.1913],[36.6669,40.0345],[36.6349,40.0097],[36.4875,39.9659],[36.3221,39.9597],[36.0887,39.9237],[36.0394,39.9877],[36.0478,40.0827],[36.0064,40.1147],[35.9228,40.091],[35.829,40.0805],[35.7503,40.0927],[35.6574,40.0868],[35.5783,40.1292],[35.5098,40.1886],[35.4604,40.2003],[35.3631,40.2006],[35.3273,40.234],[35.2871,40.2228],[35.1914,40.2174],[35.1811,40.1722],[35.1941,40.161],[35.1779,40.1025],[35.151,40.0754],[35.0726,40.039],[35.0266,40.0348],[34.9415,40.0539],[34.7916,39.9977],[34.6711,39.9977],[34.6117,39.9799],[34.4585,40.0007],[34.3613,39.9762],[34.2658,39.9427],[34.109,39.9286],[34.0525,39.9076],[34.0509,39.9586],[34.0976,40.0243],[34.1013,40.0569],[34.0845,40.1091],[34.0164,40.1467],[33.9752,40.218],[33.9642,40.2655],[34.043,40.2999],[34.0818,40.3102],[34.1336,40.3897],[34.1502,40.423],[34.1316,40.4749],[34.0914,40.5311],[34.0787,40.5687],[34.0746,40.6391],[34.0505,40.6763],[34.0442,40.7191],[34.0766,40.7982],[34.0272,40.8608],[34.1145,40.8747],[34.2564,40.9194],[34.2802,40.9691],[34.2264,41.0021],[34.2077,41.0393],[34.2522,41.0913],[34.2871,41.1572],[34.3574,41.2094],[34.3852,41.2643],[34.4194,41.302],[34.4719,41.3108],[34.4798,41.4416],[34.4629,41.4798],[34.472,41.5185],[34.4918,41.5523],[34.5533,41.5912],[34.5879,41.6575],[34.5325,41.7132],[34.4661,41.7275],[34.3443,41.7325],[34.2842,41.7453],[34.2051,41.7478],[34.1404,41.7671],[34.1422,41.8002],[34.1926,41.8451],[34.2209,41.9035],[34.2161,41.9601],[34.1995,41.9619],[34.1995,41.9925],[34.1995,42.0276],[34.2471,42.0283],[34.3424,42.0295],[34.533,42.0321],[34.9142,42.0371],[34.9419,42.0693],[34.9481,42.0988],[35.0239,42.0925],[35.0488,42.0651],[35.0453,42.0545],[35.1066,42.0397],[35.1588,42.0404],[35.1604,42.0415],[35.1862,42.0425],[35.2076,42.0242],[35.3048,41.985],[35.5166,41.8996],[35.5696,41.8782],[35.5961,41.8675],[35.6225,41.8569],[35.7284,41.8142],[35.9403,41.7287],[35.9568,41.7363],[35.9466,41.7262],[35.9627,41.7197],[35.9779,41.7297],[36.033,41.6914],[36.0387,41.689],[36.0449,41.7015],[36.071,41.676],[36.8731,41.3526],[36.9132,41.3364],[37.0736,41.2931],[37.1238,41.2796],[37.1489,41.2728],[37.1739,41.2661]]]}},
{"type":"Feature","properties":{"entityId":"pontus-kingdom","from":-111,"to":-107,"certainty":"estimated","source":"유럽 쪽은 Natural Earth 1:10m admin-1(v5.1.2) 현대 행정구역 조각을 그 시기 국경에 맞춰 묶고, 조각이 역사 경계와 다른 곳은 선을 그어 나눈 근사. 유럽 밖(시베리아·중앙아시아·극동)은 대략적인 추정. 운영자 검수 필요"},"geometry":{"type":"Polygon","coordinates":[[[33.9642,40.2655],[33.9752,40.218],[34.0164,40.1467],[34.0845,40.1091],[34.1013,40.0569],[34.0976,40.0243],[34.0509,39.9586],[34.0525,39.9076],[34.109,39.9286],[34.2658,39.9427],[34.3613,39.9762],[34.4585,40.0007],[34.6117,39.9799],[34.6711,39.9977],[34.7916,39.9977],[34.9415,40.0539],[35.0266,40.0348],[35.0726,40.039],[35.151,40.0754],[35.1779,40.1025],[35.1941,40.161],[35.1811,40.1722],[35.1914,40.2174],[35.2871,40.2228],[35.3273,40.234],[35.3631,40.2006],[35.4604,40.2003],[35.5098,40.1886],[35.5783,40.1292],[35.6574,40.0868],[35.7503,40.0927],[35.829,40.0805],[35.9228,40.091],[36.0064,40.1147],[36.0478,40.0827],[36.0394,39.9877],[36.0887,39.9237],[36.3221,39.9597],[36.4875,39.9659],[36.6349,40.0097],[36.6669,40.0345],[36.7339,40.1913],[36.8077,40.2166],[36.9222,40.2049],[36.9587,40.2167],[37.0894,40.2434],[37.1824,40.2529],[37.2671,40.2494],[37.3,40.2532],[37.3,38.6093],[37.3429,38.6249],[37.3936,38.6613],[37.4447,38.7082],[37.5098,38.7366],[37.5805,38.7968],[37.5969,38.8343],[37.5614,38.9222],[37.5516,38.9694],[37.5736,39.0082],[37.6176,39.017],[37.7022,38.9843],[37.7858,38.9983],[37.932,39.0623],[38.01,39.0637],[38.0802,39.0802],[38.1477,39.0726],[38.2123,39.0876],[38.2839,39.1297],[38.3617,39.1503],[38.384,39.1773],[38.3926,39.211],[38.3817,39.2427],[38.3875,39.2791],[38.3689,39.3374],[38.3667,39.3886],[38.403,39.426],[38.4385,39.444],[38.4467,39.4599],[38.4238,39.4841],[38.3556,39.5265],[38.3442,39.5648],[38.3671,39.5991],[38.3786,39.7035],[38.4527,39.7872],[38.49,39.8026],[38.5297,39.8052],[38.5402,39.8328],[38.5192,39.852],[38.4462,39.8382],[38.3772,39.8363],[38.3692,39.8679],[38.4067,39.9507],[38.4511,39.9708],[38.4977,39.9431],[38.5464,39.937],[38.5932,39.9627],[38.6456,39.9715],[38.7372,39.9655],[38.7585,40.0038],[38.7616,40.0549],[38.8055,40.0525],[38.8925,40.0576],[38.9333,40.0713],[38.9424,40.1051],[38.9147,40.1322],[38.9057,40.167],[38.9102,40.2033],[38.9071,40.2699],[38.929,40.2905],[39.0296,40.333],[39.0598,40.3519],[39.0655,40.3884],[39.043,40.3936],[38.9879,40.4325],[38.8698,40.4542],[38.8423,40.4802],[38.8397,40.516],[38.8487,40.5685],[38.8898,40.6037],[38.9086,40.63],[38.8955,40.6609],[38.9077,40.6867],[38.9689,40.721],[39.0124,40.7344],[39.0244,40.7605],[39.1444,40.7714],[39.1842,40.7587],[39.2213,40.7898],[39.2635,40.7711],[39.2786,40.7125],[39.3452,40.6596],[39.5789,40.5878],[39.6385,40.5819],[39.6747,40.5988],[39.6863,40.6395],[39.7173,40.6574],[39.7859,40.6222],[39.834,40.561],[39.8699,40.5749],[39.8633,40.5994],[39.8836,40.6118],[39.9138,40.603],[39.9747,40.5503],[40.0159,40.5327],[40.1017,40.5307],[40.1846,40.5104],[40.2279,40.5112],[40.3267,40.53],[40.4294,40.5295],[40.4894,40.5421],[40.4754,40.6057],[40.4869,40.6733],[40.4242,40.7945],[40.413,40.8653],[40.388,40.9319],[40.3523,40.9941],[40.3645,41.0002],[40.3645,41.0141],[40.3322,41.0174],[40.2677,41.0242],[40.0096,41.0511],[39.5124,41.1029],[39.512,41.1029],[39.4935,41.1004],[39.4929,41.101],[39.4302,41.1125],[39.4118,41.1038],[39.2158,41.0735],[39.1683,41.0797],[39.1483,41.0725],[39.1263,41.0596],[39.0204,41.0433],[38.9275,41.0426],[38.8824,41.0219],[38.8532,41.0174],[38.8403,41.0139],[38.3495,40.9488],[38.3334,40.9532],[38.1962,40.9902],[38.1619,40.9994],[38.1276,41.0087],[38.0589,41.0272],[37.7843,41.1013],[37.7839,41.1226],[37.7346,41.1148],[37.6983,41.1246],[37.6898,41.1404],[37.6751,41.1308],[37.2741,41.239],[37.224,41.2525],[37.1989,41.2593],[37.1739,41.2661],[37.1489,41.2728],[37.1238,41.2796],[37.0736,41.2931],[36.9132,41.3364],[36.8731,41.3526],[36.071,41.676],[36.0449,41.7015],[36.0387,41.689],[36.033,41.6914],[35.9779,41.7297],[35.9627,41.7197],[35.9466,41.7262],[35.9568,41.7363],[35.9403,41.7287],[35.7284,41.8142],[35.6225,41.8569],[35.5961,41.8675],[35.5166,41.8996],[35.3048,41.985],[35.2076,42.0242],[35.1862,42.0425],[35.1604,42.0415],[35.1588,42.0404],[35.1066,42.0397],[35.0453,42.0545],[35.0488,42.0651],[35.0239,42.0925],[34.9481,42.0988],[34.9419,42.0693],[34.9142,42.0371],[34.533,42.0321],[34.3424,42.0295],[34.2471,42.0283],[34.1995,42.0276],[34.1995,41.9619],[34.2161,41.9601],[34.2209,41.9035],[34.1926,41.8451],[34.1422,41.8002],[34.1404,41.7671],[34.2051,41.7478],[34.2842,41.7453],[34.3443,41.7325],[34.4661,41.7275],[34.5325,41.7132],[34.5879,41.6575],[34.5533,41.5912],[34.4918,41.5523],[34.472,41.5185],[34.4629,41.4798],[34.4798,41.4416],[34.4719,41.3108],[34.4194,41.302],[34.3852,41.2643],[34.3574,41.2094],[34.2871,41.1572],[34.2522,41.0913],[34.2077,41.0393],[34.2264,41.0021],[34.2802,40.9691],[34.2564,40.9194],[34.1145,40.8747],[34.0272,40.8608],[34.0766,40.7982],[34.0442,40.7191],[34.0505,40.6763],[34.0746,40.6391],[34.0787,40.5687],[34.0914,40.5311],[34.1316,40.4749],[34.1502,40.423],[34.1336,40.3897],[34.0818,40.3102],[34.043,40.2999],[33.9642,40.2655]]]}},
{"type":"Feature","properties":{"entityId":"pontus-kingdom","from":-107,"to":-94,"certainty":"estimated","source":"유럽 쪽은 Natural Earth 1:10m admin-1(v5.1.2) 현대 행정구역 조각을 그 시기 국경에 맞춰 묶고, 조각이 역사 경계와 다른 곳은 선을 그어 나눈 근사. 유럽 밖(시베리아·중앙아시아·극동)은 대략적인 추정. 운영자 검수 필요"},"geometry":{"type":"MultiPolygon","coordinates":[[[[32.0604,41.5809],[32.1341,41.5994],[32.1901,41.5571],[32.2507,41.5369],[32.2709,41.4843],[32.3072,41.4156],[32.287,41.3308],[32.1981,41.2419],[32.182,41.1893],[32.1496,41.1085],[32.1494,41.0192],[32.1983,41.0181],[32.284,41.0039],[32.2783,40.9486],[32.3303,40.9328],[32.3769,40.9106],[32.4922,40.8678],[32.5295,40.8152],[32.5262,40.7887],[32.5071,40.7052],[32.5862,40.7076],[32.6651,40.6979],[32.9586,40.594],[33.0104,40.5306],[33.0434,40.5018],[33.1726,40.4303],[33.1943,40.4048],[33.2056,40.3705],[33.2714,40.3311],[33.3447,40.338],[33.36,40.3913],[33.3982,40.3962],[33.4597,40.3736],[33.5952,40.3396],[33.8705,40.2723],[33.9642,40.2655],[33.9752,40.218],[34.0164,40.1467],[34.0845,40.1091],[34.1013,40.0569],[34.0976,40.0243],[34.0509,39.9586],[34.0525,39.9076],[34.109,39.9286],[34.2658,39.9427],[34.3613,39.9762],[34.4585,40.0007],[34.6117,39.9799],[34.6711,39.9977],[34.7916,39.9977],[34.9415,40.0539],[35.0266,40.0348],[35.0726,40.039],[35.151,40.0754],[35.1779,40.1025],[35.1941,40.161],[35.1811,40.1722],[35.1914,40.2174],[35.2871,40.2228],[35.3273,40.234],[35.3631,40.2006],[35.4604,40.2003],[35.5098,40.1886],[35.5783,40.1292],[35.6574,40.0868],[35.7503,40.0927],[35.829,40.0805],[35.9228,40.091],[36.0064,40.1147],[36.0478,40.0827],[36.0394,39.9877],[36.0887,39.9237],[36.1167,39.8505],[36.1653,39.7843],[36.2003,39.7696],[36.213,39.7244],[36.1835,39.6426],[36.1104,39.5867],[36.0243,39.5351],[35.959,39.4659],[35.9346,39.4275],[35.9033,39.3952],[35.8576,39.3694],[35.8199,39.3344],[35.8724,39.3315],[35.921,39.3122],[35.9514,39.2736],[36.0166,39.2594],[36.1115,39.2057],[36.2104,39.1955],[36.2867,39.2164],[36.4521,39.1982],[36.5013,39.1686],[36.5513,39.1551],[36.6412,39.1788],[36.7343,39.1788],[36.8205,39.1663],[36.8998,39.1335],[36.9363,39.0442],[36.8936,38.9497],[36.8515,38.8755],[36.8253,38.7963],[36.7739,38.6743],[36.7502,38.6404],[36.7475,38.5994],[36.8789,38.625],[37.0088,38.6105],[37.0597,38.5881],[37.2844,38.6036],[37.3429,38.6249],[37.3936,38.6613],[37.4447,38.7082],[37.5098,38.7366],[37.5805,38.7968],[37.5969,38.8343],[37.5614,38.9222],[37.5516,38.9694],[37.5736,39.0082],[37.6176,39.017],[37.7022,38.9843],[37.7858,38.9983],[37.932,39.0623],[38.01,39.0637],[38.0802,39.0802],[38.1477,39.0726],[38.2123,39.0876],[38.2839,39.1297],[38.3617,39.1503],[38.384,39.1773],[38.3926,39.211],[38.3817,39.2427],[38.3875,39.2791],[38.3689,39.3374],[38.3667,39.3886],[38.403,39.426],[38.4385,39.444],[38.4467,39.4599],[38.4238,39.4841],[38.3556,39.5265],[38.3442,39.5648],[38.3671,39.5991],[38.3786,39.7035],[38.4527,39.7872],[38.49,39.8026],[38.5297,39.8052],[38.5402,39.8328],[38.5192,39.852],[38.4462,39.8382],[38.3772,39.8363],[38.3692,39.8679],[38.4067,39.9507],[38.4511,39.9708],[38.4977,39.9431],[38.5464,39.937],[38.5932,39.9627],[38.6456,39.9715],[38.7372,39.9655],[38.7585,40.0038],[38.7616,40.0549],[38.8055,40.0525],[38.8925,40.0576],[38.9333,40.0713],[38.989,40.0488],[39.0496,40.0391],[39.1583,39.9901],[39.2331,39.9607],[39.2665,39.9303],[39.327,39.9163],[39.3854,39.8933],[39.447,39.888],[39.5058,39.8926],[39.5647,39.8892],[39.622,39.8938],[39.6764,39.9147],[39.7879,39.9348],[39.8317,39.9709],[39.8691,40.0148],[39.8328,40.0769],[39.8115,40.144],[39.8276,40.2092],[39.86,40.2669],[39.8674,40.4136],[39.834,40.561],[39.8699,40.5749],[39.8633,40.5994],[39.8836,40.6118],[39.9138,40.603],[39.9747,40.5503],[40.0159,40.5327],[40.1017,40.5307],[40.1846,40.5104],[40.2279,40.5112],[40.3267,40.53],[40.4294,40.5295],[40.4894,40.5421],[40.6514,40.6041],[40.7918,40.6291],[40.8219,40.6866],[40.8575,40.698],[40.9016,40.6983],[40.9444,40.709],[41.0509,40.7784],[41.1274,40.8129],[41.2055,40.7792],[41.3293,40.7645],[41.3653,40.7547],[41.3727,40.7221],[41.347,40.6864],[41.3334,40.601],[41.4013,40.5556],[41.4935,40.5818],[41.5788,40.6243],[41.6566,40.6412],[41.7347,40.6236],[41.8208,40.5876],[41.8664,40.6397],[41.868,40.6847],[41.8874,40.7244],[41.9272,40.7551],[41.9526,40.7956],[41.946,40.8385],[41.9589,40.8775],[42.0228,40.911],[42.0244,40.9119],[42.0923,40.9167],[42.1612,40.9109],[42.2792,40.9249],[42.3415,41.0197],[42.4292,41.0919],[42.5121,41.1235],[42.5387,41.1912],[42.5103,41.261],[42.472,41.3316],[42.451,41.4314],[42.4838,41.4422],[42.5455,41.5096],[42.555,41.5503],[42.5866,41.5791],[42.5473,41.6355],[42.4977,41.6743],[42.4812,41.701],[42.495,41.733],[42.4959,41.7677],[42.4817,41.7987],[42.5312,41.8027],[42.5761,41.7936],[42.6017,41.8217],[42.6496,41.8334],[42.7114,41.8059],[42.8171,41.8261],[42.903,41.8124],[42.9481,41.8118],[42.9909,41.8252],[43.0936,41.832],[43.1274,41.8254],[43.4262,41.9166],[43.4335,41.9554],[43.4695,41.9793],[43.4847,42.0151],[43.4889,42.0574],[43.549,42.0963],[43.5807,42.1511],[43.6082,42.1702],[43.6077,42.2281],[43.6159,42.2578],[43.6835,42.2935],[43.7602,42.309],[43.7728,42.374],[43.7501,42.394],[43.6617,42.3743],[43.6228,42.3787],[43.5874,42.3947],[43.669,42.4433],[43.808,42.4515],[43.8271,42.4582],[43.8489,42.4874],[43.9022,42.5156],[43.9082,42.5662],[43.8854,42.5792],[43.7511,42.5987],[43.7226,42.6249],[43.7257,42.6544],[43.7887,42.6931],[43.8118,42.7173],[43.8006,42.7465],[43.756,42.7631],[43.6628,42.7798],[43.5863,42.8356],[43.5174,42.8605],[43.3862,42.8869],[43.1943,42.9268],[43.1752,42.9345],[43.1556,42.9424],[43.0483,43.017],[42.9898,43.0527],[43.0001,43.0987],[42.9148,43.1219],[42.8298,43.1688],[42.7515,43.177],[42.6736,43.1659],[42.6294,43.1413],[42.5959,43.14],[42.5349,43.1651],[42.4797,43.2009],[42.4229,43.229],[42.3626,43.2352],[42.1854,43.2255],[42.1543,43.2175],[42.0753,43.1853],[42.0113,43.1819],[41.9483,43.2001],[41.89,43.207],[41.8203,43.2012],[41.6874,43.2202],[41.6141,43.213],[41.5506,43.2263],[41.5061,43.2598],[41.4276,43.2832],[41.3807,43.3348],[41.3503,43.3434],[41.2788,43.3332],[41.1808,43.3747],[41.1467,43.3799],[41.0425,43.3698],[41.0118,43.3754],[40.875,43.4556],[40.8427,43.4694],[40.7402,43.4953],[40.69,43.5231],[40.6519,43.539],[40.6155,43.5358],[40.5508,43.5112],[40.4798,43.5087],[40.2331,43.5758],[40.1643,43.5758],[40.0967,43.5626],[40.0592,43.5352],[39.9913,43.4063],[39.986,43.389],[40.0176,43.3825],[40.322,43.1285],[40.8764,43.0134],[41.0947,42.8735],[41.1047,42.8466],[41.1502,42.7956],[41.2031,42.8041],[41.4524,42.6444],[41.5065,42.4979],[41.5348,42.4213],[41.549,42.383],[41.5632,42.3446],[41.6092,42.22],[41.6198,42.1913],[41.6481,42.1147],[41.6609,42.08],[41.6622,42.0764],[41.6764,42.038],[41.6906,41.9997],[41.7043,41.9625],[41.7039,41.9613],[41.6903,41.923],[41.6768,41.8847],[41.5681,41.5782],[41.558,41.5644],[41.5229,41.53],[41.52,41.5271],[41.51,41.5173],[41.5094,41.5168],[41.5073,41.5159],[41.4566,41.4934],[41.4289,41.4811],[41.2999,41.424],[41.2354,41.3954],[41.2032,41.3812],[41.1709,41.3669],[41.1387,41.3526],[41.0418,41.3097],[40.5257,41.0811],[40.3967,41.024],[40.3725,41.0132],[40.3645,41.0141],[40.3322,41.0174],[40.2677,41.0242],[40.0096,41.0511],[39.5124,41.1029],[39.512,41.1029],[39.4935,41.1004],[39.4929,41.101],[39.4302,41.1125],[39.4118,41.1038],[39.2158,41.0735],[39.1683,41.0797],[39.1483,41.0725],[39.1263,41.0596],[39.0204,41.0433],[38.9275,41.0426],[38.8824,41.0219],[38.8532,41.0174],[38.8403,41.0139],[38.3495,40.9488],[38.3334,40.9532],[38.1962,40.9902],[38.1619,40.9994],[38.1276,41.0087],[38.0589,41.0272],[37.7843,41.1013],[37.7839,41.1226],[37.7346,41.1148],[37.6983,41.1246],[37.6898,41.1404],[37.6751,41.1308],[37.2741,41.239],[37.224,41.2525],[37.1989,41.2593],[37.1739,41.2661],[37.1489,41.2728],[37.1238,41.2796],[37.0736,41.2931],[36.9132,41.3364],[36.8731,41.3526],[36.071,41.676],[36.0449,41.7015],[36.0387,41.689],[36.033,41.6914],[35.9779,41.7297],[35.9627,41.7197],[35.9466,41.7262],[35.9568,41.7363],[35.9403,41.7287],[35.7284,41.8142],[35.6225,41.8569],[35.5961,41.8675],[35.5166,41.8996],[35.3048,41.985],[35.2076,42.0242],[35.1862,42.0425],[35.1604,42.0415],[35.1588,42.0404],[35.1066,42.0397],[35.0453,42.0545],[35.0488,42.0651],[35.0239,42.0925],[34.9481,42.0988],[34.9419,42.0693],[34.9142,42.0371],[34.533,42.0321],[34.3424,42.0295],[34.2471,42.0283],[34.1995,42.0276],[34.1518,42.027],[33.5143,42.0185],[33.4818,42.0106],[33.3895,42.0168],[33.3609,42.0207],[33.3245,42.019],[33.2916,42.0062],[33.2839,42.0052],[33.0586,41.93],[33.0081,41.9173],[32.9667,41.8994],[32.9455,41.8923],[32.7903,41.8596],[32.7554,41.8591],[32.6792,41.8363],[32.6126,41.8395],[32.5836,41.816],[32.5681,41.8127],[32.5484,41.8157],[32.4685,41.783],[32.3785,41.7534],[32.3772,41.7541],[32.3754,41.7524],[32.3047,41.7291],[32.296,41.7236],[32.2634,41.7202],[32.2434,41.6929],[32.2322,41.6833],[32.1274,41.617],[32.0604,41.5809]]],[[[33.3271,44.5654],[33.5013,44.5011],[33.5176,44.4905],[33.5272,44.4915],[33.6035,44.4634],[33.6298,44.448],[33.6454,44.4251],[33.73,44.398],[33.7653,44.406],[33.786,44.4247],[33.8521,44.4316],[33.8057,44.5273],[33.7771,44.5322],[33.7692,44.5559],[33.7298,44.5539],[33.713,44.5816],[33.7505,44.624],[33.7091,44.6664],[33.6252,44.6614],[33.6114,44.7206],[33.6893,44.7542],[33.6745,44.7916],[33.6173,44.8163],[33.5808,44.8193],[33.5705,44.8525],[33.5573,44.8441],[33.5573,44.8462],[33.5293,44.8462],[33.5293,44.8954],[33.4815,44.8954],[33.4584,44.8462],[33.4353,44.7969],[33.3892,44.6983],[33.3271,44.5658],[33.3273,44.5657],[33.3271,44.5654]]],[[[35.45,45.1],[35.6,45.12],[35.6,44.997],[35.8133,45.031],[35.8278,44.9992],[35.848,44.9924],[35.9168,45.0014],[35.9934,44.998],[36.0235,45.026],[36.0563,45.0306],[36.1194,45.0287],[36.136,45.0214],[36.2246,45.0075],[36.2443,45.011],[36.2541,45.0314],[36.3196,45.0472],[36.3678,45.0488],[36.4401,45.0675],[36.4553,45.0916],[36.4171,45.1263],[36.4272,45.1539],[36.4524,45.232],[36.5136,45.3032],[36.5436,45.3474],[36.5452,45.3474],[36.5749,45.3361],[36.6309,45.3406],[36.6384,45.3513],[36.6135,45.4089],[36.5833,45.4274],[36.533,45.4089],[36.5088,45.4284],[36.5316,45.4693],[36.5314,45.4693],[36.5316,45.4697],[36.5312,45.4697],[36.3053,45.4566],[36.3074,45.4609],[36.284,45.4766],[36.2525,45.4615],[36.1375,45.4621],[36.1003,45.4447],[35.8478,45.43],[35.8577,45.4694],[35.8171,45.4641],[35.7991,45.4272],[35.5092,45.4104],[35.45,45.4394],[35.45,45.1]]],[[[36.5773,45.1942],[36.5931,45.1648],[36.6414,45.1284],[36.7017,45.1038],[36.7415,45.1032],[36.7546,45.1058],[36.9283,45.0721],[36.9506,45.0569],[37.45,45.12],[37.8778,45.1433],[38.05,45.35],[37.75,45.55],[37.5462,45.55],[37.4024,45.4054],[37.1147,45.3417],[37.0667,45.3538],[36.8953,45.43],[36.8333,45.443],[36.7051,45.391],[36.6665,45.3404],[36.688,45.3315],[36.7251,45.3691],[36.7616,45.3483],[36.7636,45.348],[36.7585,45.3408],[36.7888,45.2922],[36.8923,45.3084],[36.9183,45.2984],[36.6752,45.2446],[36.6755,45.2444],[36.6754,45.2444],[36.6756,45.2443],[36.6752,45.2442],[36.7219,45.2124],[36.6861,45.2032],[36.5947,45.2048],[36.5773,45.1942]]]]}},
{"type":"Feature","properties":{"entityId":"pontus-kingdom","from":-94,"to":-62,"certainty":"estimated","source":"유럽 쪽은 Natural Earth 1:10m admin-1(v5.1.2) 현대 행정구역 조각을 그 시기 국경에 맞춰 묶고, 조각이 역사 경계와 다른 곳은 선을 그어 나눈 근사. 유럽 밖(시베리아·중앙아시아·극동)은 대략적인 추정. 운영자 검수 필요"},"geometry":{"type":"MultiPolygon","coordinates":[[[[33.3271,44.5654],[33.5013,44.5011],[33.5176,44.4905],[33.5272,44.4915],[33.6035,44.4634],[33.6298,44.448],[33.6454,44.4251],[33.73,44.398],[33.7653,44.406],[33.786,44.4247],[33.8521,44.4316],[33.8057,44.5273],[33.7771,44.5322],[33.7692,44.5559],[33.7298,44.5539],[33.713,44.5816],[33.7505,44.624],[33.7091,44.6664],[33.6252,44.6614],[33.6114,44.7206],[33.6893,44.7542],[33.6745,44.7916],[33.6173,44.8163],[33.5808,44.8193],[33.5705,44.8525],[33.5573,44.8441],[33.5573,44.8462],[33.5293,44.8462],[33.5293,44.8954],[33.4815,44.8954],[33.4584,44.8462],[33.4353,44.7969],[33.3892,44.6983],[33.3271,44.5658],[33.3273,44.5657],[33.3271,44.5654]]],[[[33.9642,40.2655],[33.9752,40.218],[34.0164,40.1467],[34.0845,40.1091],[34.1013,40.0569],[34.0976,40.0243],[34.0509,39.9586],[34.0525,39.9076],[34.109,39.9286],[34.2658,39.9427],[34.3613,39.9762],[34.4585,40.0007],[34.6117,39.9799],[34.6711,39.9977],[34.7916,39.9977],[34.9415,40.0539],[35.0266,40.0348],[35.0726,40.039],[35.151,40.0754],[35.1779,40.1025],[35.1941,40.161],[35.1811,40.1722],[35.1914,40.2174],[35.2871,40.2228],[35.3273,40.234],[35.3631,40.2006],[35.4604,40.2003],[35.5098,40.1886],[35.5783,40.1292],[35.6574,40.0868],[35.7503,40.0927],[35.829,40.0805],[35.9228,40.091],[36.0064,40.1147],[36.0478,40.0827],[36.0394,39.9877],[36.0887,39.9237],[36.1167,39.8505],[36.1653,39.7843],[36.2003,39.7696],[36.213,39.7244],[36.1835,39.6426],[36.1104,39.5867],[36.0243,39.5351],[35.959,39.4659],[35.9346,39.4275],[35.9033,39.3952],[35.8576,39.3694],[35.8199,39.3344],[35.8724,39.3315],[35.921,39.3122],[35.9514,39.2736],[36.0166,39.2594],[36.1115,39.2057],[36.2104,39.1955],[36.2867,39.2164],[36.4521,39.1982],[36.5013,39.1686],[36.5513,39.1551],[36.6412,39.1788],[36.7343,39.1788],[36.8205,39.1663],[36.8998,39.1335],[36.9363,39.0442],[36.8936,38.9497],[36.8515,38.8755],[36.8253,38.7963],[36.7739,38.6743],[36.7502,38.6404],[36.7475,38.5994],[36.8789,38.625],[37.0088,38.6105],[37.0597,38.5881],[37.2844,38.6036],[37.3429,38.6249],[37.3936,38.6613],[37.4447,38.7082],[37.5098,38.7366],[37.5805,38.7968],[37.5969,38.8343],[37.5614,38.9222],[37.5516,38.9694],[37.5736,39.0082],[37.6176,39.017],[37.7022,38.9843],[37.7858,38.9983],[37.932,39.0623],[38.01,39.0637],[38.0802,39.0802],[38.1477,39.0726],[38.2123,39.0876],[38.2839,39.1297],[38.3617,39.1503],[38.384,39.1773],[38.3926,39.211],[38.3817,39.2427],[38.3875,39.2791],[38.3689,39.3374],[38.3667,39.3886],[38.403,39.426],[38.4385,39.444],[38.4467,39.4599],[38.4238,39.4841],[38.3556,39.5265],[38.3442,39.5648],[38.3671,39.5991],[38.3786,39.7035],[38.4527,39.7872],[38.49,39.8026],[38.5297,39.8052],[38.5402,39.8328],[38.5192,39.852],[38.4462,39.8382],[38.3772,39.8363],[38.3692,39.8679],[38.4067,39.9507],[38.4511,39.9708],[38.4977,39.9431],[38.5464,39.937],[38.5932,39.9627],[38.6456,39.9715],[38.7372,39.9655],[38.7585,40.0038],[38.7616,40.0549],[38.8055,40.0525],[38.8925,40.0576],[38.9333,40.0713],[38.989,40.0488],[39.0496,40.0391],[39.1583,39.9901],[39.2331,39.9607],[39.2665,39.9303],[39.327,39.9163],[39.3854,39.8933],[39.447,39.888],[39.5058,39.8926],[39.5647,39.8892],[39.622,39.8938],[39.6764,39.9147],[39.7879,39.9348],[39.8317,39.9709],[39.8691,40.0148],[39.8328,40.0769],[39.8115,40.144],[39.8276,40.2092],[39.86,40.2669],[39.8674,40.4136],[39.834,40.561],[39.8699,40.5749],[39.8633,40.5994],[39.8836,40.6118],[39.9138,40.603],[39.9747,40.5503],[40.0159,40.5327],[40.1017,40.5307],[40.1846,40.5104],[40.2279,40.5112],[40.3267,40.53],[40.4294,40.5295],[40.4894,40.5421],[40.6514,40.6041],[40.7918,40.6291],[40.8219,40.6866],[40.8575,40.698],[40.9016,40.6983],[40.9444,40.709],[41.0509,40.7784],[41.1274,40.8129],[41.2055,40.7792],[41.3293,40.7645],[41.3653,40.7547],[41.3727,40.7221],[41.347,40.6864],[41.3334,40.601],[41.4013,40.5556],[41.4935,40.5818],[41.5788,40.6243],[41.6566,40.6412],[41.7347,40.6236],[41.8208,40.5876],[41.8664,40.6397],[41.868,40.6847],[41.8874,40.7244],[41.9272,40.7551],[41.9526,40.7956],[41.946,40.8385],[41.9589,40.8775],[42.0228,40.911],[42.0244,40.9119],[42.0923,40.9167],[42.1612,40.9109],[42.2792,40.9249],[42.3415,41.0197],[42.4292,41.0919],[42.5121,41.1235],[42.5387,41.1912],[42.5103,41.261],[42.472,41.3316],[42.451,41.4314],[42.4838,41.4422],[42.5455,41.5096],[42.555,41.5503],[42.5866,41.5791],[42.5473,41.6355],[42.4977,41.6743],[42.4812,41.701],[42.495,41.733],[42.4959,41.7677],[42.4817,41.7987],[42.5312,41.8027],[42.5761,41.7936],[42.6017,41.8217],[42.6496,41.8334],[42.7114,41.8059],[42.8171,41.8261],[42.903,41.8124],[42.9481,41.8118],[42.9909,41.8252],[43.0936,41.832],[43.1274,41.8254],[43.4262,41.9166],[43.4335,41.9554],[43.4695,41.9793],[43.4847,42.0151],[43.4889,42.0574],[43.549,42.0963],[43.5807,42.1511],[43.6082,42.1702],[43.6077,42.2281],[43.6159,42.2578],[43.6835,42.2935],[43.7602,42.309],[43.7728,42.374],[43.7501,42.394],[43.6617,42.3743],[43.6228,42.3787],[43.5874,42.3947],[43.669,42.4433],[43.808,42.4515],[43.8271,42.4582],[43.8489,42.4874],[43.9022,42.5156],[43.9082,42.5662],[43.8854,42.5792],[43.7511,42.5987],[43.7226,42.6249],[43.7257,42.6544],[43.7887,42.6931],[43.8118,42.7173],[43.8006,42.7465],[43.756,42.7631],[43.6628,42.7798],[43.5863,42.8356],[43.5174,42.8605],[43.3862,42.8869],[43.1943,42.9268],[43.1752,42.9345],[43.1556,42.9424],[43.0483,43.017],[42.9898,43.0527],[43.0001,43.0987],[42.9148,43.1219],[42.8298,43.1688],[42.7515,43.177],[42.6736,43.1659],[42.6294,43.1413],[42.5959,43.14],[42.5349,43.1651],[42.4797,43.2009],[42.4229,43.229],[42.3626,43.2352],[42.1854,43.2255],[42.1543,43.2175],[42.0753,43.1853],[42.0113,43.1819],[41.9483,43.2001],[41.89,43.207],[41.8203,43.2012],[41.6874,43.2202],[41.6141,43.213],[41.5506,43.2263],[41.5061,43.2598],[41.4276,43.2832],[41.3807,43.3348],[41.3503,43.3434],[41.2788,43.3332],[41.1808,43.3747],[41.1467,43.3799],[41.0425,43.3698],[41.0118,43.3754],[40.875,43.4556],[40.8427,43.4694],[40.7402,43.4953],[40.69,43.5231],[40.6519,43.539],[40.6155,43.5358],[40.5508,43.5112],[40.4798,43.5087],[40.2331,43.5758],[40.1643,43.5758],[40.0967,43.5626],[40.0592,43.5352],[39.9913,43.4063],[39.986,43.389],[40.0176,43.3825],[40.322,43.1285],[40.8764,43.0134],[41.0947,42.8735],[41.1047,42.8466],[41.1502,42.7956],[41.2031,42.8041],[41.4524,42.6444],[41.5065,42.4979],[41.5348,42.4213],[41.549,42.383],[41.5632,42.3446],[41.6092,42.22],[41.6198,42.1913],[41.6481,42.1147],[41.6609,42.08],[41.6622,42.0764],[41.6764,42.038],[41.6906,41.9997],[41.7043,41.9625],[41.7039,41.9613],[41.6903,41.923],[41.6768,41.8847],[41.5681,41.5782],[41.558,41.5644],[41.5229,41.53],[41.52,41.5271],[41.51,41.5173],[41.5094,41.5168],[41.5073,41.5159],[41.4566,41.4934],[41.4289,41.4811],[41.2999,41.424],[41.2354,41.3954],[41.2032,41.3812],[41.1709,41.3669],[41.1387,41.3526],[41.0418,41.3097],[40.5257,41.0811],[40.3967,41.024],[40.3725,41.0132],[40.3645,41.0141],[40.3322,41.0174],[40.2677,41.0242],[40.0096,41.0511],[39.5124,41.1029],[39.512,41.1029],[39.4935,41.1004],[39.4929,41.101],[39.4302,41.1125],[39.4118,41.1038],[39.2158,41.0735],[39.1683,41.0797],[39.1483,41.0725],[39.1263,41.0596],[39.0204,41.0433],[38.9275,41.0426],[38.8824,41.0219],[38.8532,41.0174],[38.8403,41.0139],[38.3495,40.9488],[38.3334,40.9532],[38.1962,40.9902],[38.1619,40.9994],[38.1276,41.0087],[38.0589,41.0272],[37.7843,41.1013],[37.7839,41.1226],[37.7346,41.1148],[37.6983,41.1246],[37.6898,41.1404],[37.6751,41.1308],[37.2741,41.239],[37.224,41.2525],[37.1989,41.2593],[37.1739,41.2661],[37.1489,41.2728],[37.1238,41.2796],[37.0736,41.2931],[36.9132,41.3364],[36.8731,41.3526],[36.071,41.676],[36.0449,41.7015],[36.0387,41.689],[36.033,41.6914],[35.9779,41.7297],[35.9627,41.7197],[35.9466,41.7262],[35.9568,41.7363],[35.9403,41.7287],[35.7284,41.8142],[35.6225,41.8569],[35.5961,41.8675],[35.5166,41.8996],[35.3048,41.985],[35.2076,42.0242],[35.1862,42.0425],[35.1604,42.0415],[35.1588,42.0404],[35.1066,42.0397],[35.0453,42.0545],[35.0488,42.0651],[35.0239,42.0925],[34.9481,42.0988],[34.9419,42.0693],[34.9142,42.0371],[34.533,42.0321],[34.3424,42.0295],[34.2471,42.0283],[34.1995,42.0276],[34.1995,41.9619],[34.2161,41.9601],[34.2209,41.9035],[34.1926,41.8451],[34.1422,41.8002],[34.1404,41.7671],[34.2051,41.7478],[34.2842,41.7453],[34.3443,41.7325],[34.4661,41.7275],[34.5325,41.7132],[34.5879,41.6575],[34.5533,41.5912],[34.4918,41.5523],[34.472,41.5185],[34.4629,41.4798],[34.4798,41.4416],[34.4719,41.3108],[34.4194,41.302],[34.3852,41.2643],[34.3574,41.2094],[34.2871,41.1572],[34.2522,41.0913],[34.2077,41.0393],[34.2264,41.0021],[34.2802,40.9691],[34.2564,40.9194],[34.1145,40.8747],[34.0272,40.8608],[34.0766,40.7982],[34.0442,40.7191],[34.0505,40.6763],[34.0746,40.6391],[34.0787,40.5687],[34.0914,40.5311],[34.1316,40.4749],[34.1502,40.423],[34.1336,40.3897],[34.0818,40.3102],[34.043,40.2999],[33.9642,40.2655]]],[[[35.45,45.1],[35.6,45.12],[35.6,44.997],[35.8133,45.031],[35.8278,44.9992],[35.848,44.9924],[35.9168,45.0014],[35.9934,44.998],[36.0235,45.026],[36.0563,45.0306],[36.1194,45.0287],[36.136,45.0214],[36.2246,45.0075],[36.2443,45.011],[36.2541,45.0314],[36.3196,45.0472],[36.3678,45.0488],[36.4401,45.0675],[36.4553,45.0916],[36.4171,45.1263],[36.4272,45.1539],[36.4524,45.232],[36.5136,45.3032],[36.5436,45.3474],[36.5452,45.3474],[36.5749,45.3361],[36.6309,45.3406],[36.6384,45.3513],[36.6135,45.4089],[36.5833,45.4274],[36.533,45.4089],[36.5088,45.4284],[36.5316,45.4693],[36.5314,45.4693],[36.5316,45.4697],[36.5312,45.4697],[36.3053,45.4566],[36.3074,45.4609],[36.284,45.4766],[36.2525,45.4615],[36.1375,45.4621],[36.1003,45.4447],[35.8478,45.43],[35.8577,45.4694],[35.8171,45.4641],[35.7991,45.4272],[35.5092,45.4104],[35.45,45.4394],[35.45,45.1]]],[[[36.5773,45.1942],[36.5931,45.1648],[36.6414,45.1284],[36.7017,45.1038],[36.7415,45.1032],[36.7546,45.1058],[36.9283,45.0721],[36.9506,45.0569],[37.45,45.12],[37.8778,45.1433],[38.05,45.35],[37.75,45.55],[37.5462,45.55],[37.4024,45.4054],[37.1147,45.3417],[37.0667,45.3538],[36.8953,45.43],[36.8333,45.443],[36.7051,45.391],[36.6665,45.3404],[36.688,45.3315],[36.7251,45.3691],[36.7616,45.3483],[36.7636,45.348],[36.7585,45.3408],[36.7888,45.2922],[36.8923,45.3084],[36.9183,45.2984],[36.6752,45.2446],[36.6755,45.2444],[36.6754,45.2444],[36.6756,45.2443],[36.6752,45.2442],[36.7219,45.2124],[36.6861,45.2032],[36.5947,45.2048],[36.5773,45.1942]]]]}}
]}
