{"type":"FeatureCollection","features":[
{"type":"Feature","properties":{"entityId":"provence-kingdom","from":855,"to":863,"certainty":"estimated","source":"유럽 쪽은 Natural Earth 1:10m admin-1(v5.1.2) 현대 행정구역 조각을 그 시기 국경에 맞춰 묶고, 조각이 역사 경계와 다른 곳은 선을 그어 나눈 근사. 유럽 밖(시베리아·중앙아시아·극동)은 대략적인 추정. 운영자 검수 필요"},"geometry":{"type":"MultiPolygon","coordinates":[[[[4.1987,43.3194],[4.2471,43.3303],[4.2955,43.3411],[4.3922,43.3627],[4.5558,43.3993],[4.5808,43.3958],[4.5663,43.3711],[4.5923,43.3599],[4.6659,43.3475],[4.8203,43.3464],[4.8224,43.3626],[4.846,43.3594],[4.8558,43.3418],[4.8792,43.3548],[5.0519,43.3311],[5.0648,43.328],[5.0748,43.328],[5.3541,43.2897],[5.3573,43.2803],[5.3692,43.2704],[5.347,43.2159],[5.4398,43.2076],[5.5174,43.2074],[5.542,43.2028],[5.5727,43.1691],[5.6124,43.1604],[5.6329,43.1856],[5.6717,43.1783],[5.6752,43.1763],[5.6963,43.1469],[5.741,43.1321],[5.7515,43.1317],[5.8085,43.0984],[5.8089,43.0984],[5.817,43.0985],[5.7819,43.0791],[5.819,43.0535],[5.8566,43.0448],[5.8753,43.0688],[5.9403,43.0709],[5.9514,43.08],[5.9106,43.0932],[5.9038,43.0992],[5.9985,43.0999],[6.0165,43.0989],[6.027,43.0782],[6.0846,43.0824],[6.1145,43.0724],[6.1147,43.0725],[6.1149,43.0724],[6.1175,43.0733],[6.1321,43.0526],[6.0977,43.0313],[6.1801,43.0359],[6.1528,43.0481],[6.162,43.0887],[6.245,43.1174],[6.2804,43.1187],[6.3423,43.0908],[6.3754,43.0908],[6.3661,43.1186],[6.3785,43.1361],[6.4038,43.1455],[6.5285,43.1285],[6.5289,43.1285],[6.6061,43.1766],[6.6099,43.1734],[6.6798,43.2016],[6.6745,43.2192],[6.7673,43.2771],[6.9335,43.3806],[6.9373,43.383],[7.0118,43.4294],[7.049,43.4526],[7.0863,43.4758],[7.1073,43.4889],[7.2,43.5466],[7.2773,43.5948],[7.3624,43.6479],[7.4029,43.6731],[7.3624,43.6731],[7.3624,43.7192],[7.3658,43.7227],[7.3673,43.7341],[7.3727,43.7458],[7.3875,43.7579],[7.407,43.7635],[7.4262,43.7555],[7.4375,43.7434],[7.4474,43.7488],[7.4474,43.744],[7.4899,43.744],[7.4899,43.7885],[7.5023,43.7922],[7.4779,43.8655],[7.4935,43.8862],[7.5569,43.9441],[7.6309,43.9935],[7.6348,44.0015],[7.6534,44.0397],[7.6899,44.0673],[7.6879,44.0908],[7.6419,44.1436],[7.6556,44.1761],[7.6247,44.1801],[7.5836,44.1607],[7.5548,44.1591],[7.43,44.1331],[7.3808,44.1229],[7.3406,44.1237],[7.3093,44.1475],[7.2513,44.16],[7.145,44.2072],[7.0335,44.2429],[6.9961,44.2378],[6.9734,44.2494],[6.9592,44.2774],[6.9212,44.3022],[6.8784,44.3546],[6.8661,44.3721],[6.8772,44.4144],[6.9178,44.4363],[6.8613,44.4749],[6.8388,44.5029],[6.8464,44.5475],[6.8973,44.5754],[6.9456,44.6254],[6.9383,44.658],[6.9828,44.6922],[7.0552,44.6849],[7.0388,44.7121],[7.019,44.7389],[6.9984,44.7938],[7.0071,44.8221],[6.9828,44.847],[6.9327,44.8617],[6.866,44.8557],[6.7782,44.8876],[6.7279,44.9287],[6.7299,44.9847],[6.7235,45.0134],[6.6972,45.0269],[6.6622,45.0292],[6.6397,45.0504],[6.6366,45.0745],[6.6027,45.1035],[6.6294,45.1235],[6.6674,45.1396],[6.6944,45.1403],[6.7364,45.1573],[6.7715,45.1532],[6.8441,45.1301],[6.8767,45.1412],[6.8813,45.1684],[6.9138,45.1702],[6.9587,45.2098],[7.0297,45.2282],[7.0502,45.215],[7.1084,45.2592],[7.0926,45.324],[7.1301,45.3571],[7.1607,45.4109],[7.0968,45.4354],[7.0754,45.4663],[6.9828,45.5111],[6.9698,45.567],[6.9549,45.5862],[6.9695,45.6258],[6.9634,45.6407],[6.9186,45.6526],[6.8826,45.6755],[6.8431,45.6827],[6.7959,45.7181],[6.7839,45.765],[6.7113,45.7275],[6.6895,45.7281],[6.6978,45.7585],[6.68,45.7803],[6.6497,45.7928],[6.6027,45.7966],[6.5529,45.8256],[6.5418,45.8437],[6.5622,45.8855],[6.5338,45.9066],[6.5123,45.9066],[6.4628,45.867],[6.4286,45.8095],[6.3679,45.7705],[6.3488,45.723],[6.3302,45.7039],[6.2814,45.684],[6.2428,45.6866],[6.1958,45.7302],[6.1368,45.7591],[6.1049,45.7595],[6.0736,45.7434],[6.0032,45.7521],[5.9842,45.765],[5.9695,45.8047],[5.9544,45.8141],[5.8973,45.8229],[5.878,45.8507],[5.8673,45.9226],[5.8404,45.9388],[5.8242,46.0502],[5.8252,46.0953],[5.8459,46.111],[5.8716,46.0933],[5.9055,46.1226],[5.9588,46.1305],[5.9829,46.1708],[5.9548,46.1999],[5.9585,46.212],[5.9829,46.2227],[6.0429,46.2431],[6.0677,46.2416],[6.0897,46.2464],[6.1007,46.3014],[6.1186,46.3318],[6.1351,46.3704],[6.1082,46.3965],[6.059,46.4174],[5.9689,46.3448],[5.9521,46.3233],[5.8809,46.2755],[5.8396,46.2674],[5.7305,46.2712],[5.7144,46.2777],[5.6978,46.3121],[5.6479,46.344],[5.5954,46.3],[5.5099,46.2607],[5.4699,46.2769],[5.4691,46.3203],[5.3754,46.3604],[5.3639,46.3914],[5.3203,46.4084],[5.311,46.4554],[5.2404,46.4687],[5.1786,46.5054],[5.1252,46.509],[5.0641,46.4927],[5.0253,46.4933],[4.96,46.5095],[4.9376,46.5016],[4.9119,46.4472],[4.8993,46.3961],[4.8742,46.3597],[4.8728,46.3376],[4.8186,46.2573],[4.7952,46.1923],[4.7978,46.1718],[4.7392,46.177],[4.7202,46.1886],[4.7031,46.2247],[4.7041,46.2475],[4.6774,46.2613],[4.673,46.2882],[4.6381,46.2992],[4.6057,46.2631],[4.5812,46.2659],[4.5543,46.2887],[4.5176,46.2762],[4.4085,46.2898],[4.3839,46.2248],[4.4327,46.1915],[4.4322,46.1507],[4.357,46.1418],[4.2584,46.0667],[4.2526,46.0498],[4.3003,46.023],[4.2998,45.9986],[4.253,45.9849],[4.2589,45.9703],[4.3277,45.942],[4.3403,45.9247],[4.3309,45.8975],[4.3421,45.8782],[4.3723,45.8659],[4.3938,45.8428],[4.3834,45.8182],[4.3442,45.7777],[4.3442,45.7603],[4.3968,45.7494],[4.3992,45.7374],[4.3654,45.6985],[4.3842,45.6544],[4.4356,45.6134],[4.497,45.5847],[4.5461,45.5776],[4.6069,45.5843],[4.6402,45.5813],[4.6659,45.5549],[4.6543,45.4912],[4.6791,45.4779],[4.7182,45.4797],[4.76,45.4445],[4.7554,45.4021],[4.7698,45.3657],[4.7759,45.3372],[4.8114,45.2963],[4.8141,45.1974],[4.8273,45.1579],[4.8228,45.1112],[4.8447,45.101],[4.8584,45.0656],[4.851,45.0215],[4.8926,44.9495],[4.8686,44.8848],[4.8306,44.8509],[4.8283,44.837],[4.7776,44.7954],[4.769,44.7547],[4.7964,44.6964],[4.7895,44.6585],[4.74,44.6063],[4.7213,44.5734],[4.7034,44.4747],[4.677,44.4372],[4.6575,44.3268],[4.6578,44.2817],[4.6856,44.2403],[4.6881,44.2194],[4.7213,44.1902],[4.719,44.1247],[4.7295,44.0859],[4.7779,44.0843],[4.8444,44.0221],[4.8475,44.0022],[4.8209,44.0004],[4.822,43.9758],[4.8064,43.9529],[4.7728,43.9328],[4.7267,43.9172],[4.6409,43.8706],[4.6464,43.7949],[4.6169,43.741],[4.6049,43.696],[4.5415,43.7129],[4.4995,43.7063],[4.4516,43.6666],[4.4296,43.6248],[4.4599,43.6178],[4.4483,43.5873],[4.413,43.5819],[4.4004,43.5622],[4.3371,43.5321],[4.2476,43.501],[4.2313,43.4715],[4.2059,43.4599],[4.1987,43.4626],[4.1987,43.3194]]],[[[7.4899,43.7033],[7.5324,43.7107],[7.5324,43.744],[7.4899,43.744],[7.4899,43.7033]]]]}},
{"type":"Feature","properties":{"entityId":"provence-kingdom","from":879,"to":933,"certainty":"estimated","source":"유럽 쪽은 Natural Earth 1:10m admin-1(v5.1.2) 현대 행정구역 조각을 그 시기 국경에 맞춰 묶고, 조각이 역사 경계와 다른 곳은 선을 그어 나눈 근사. 유럽 밖(시베리아·중앙아시아·극동)은 대략적인 추정. 운영자 검수 필요"},"geometry":{"type":"MultiPolygon","coordinates":[[[[4.1987,43.3194],[4.2471,43.3303],[4.2955,43.3411],[4.3922,43.3627],[4.5558,43.3993],[4.5808,43.3958],[4.5663,43.3711],[4.5923,43.3599],[4.6659,43.3475],[4.8203,43.3464],[4.8224,43.3626],[4.846,43.3594],[4.8558,43.3418],[4.8792,43.3548],[5.0519,43.3311],[5.0648,43.328],[5.0748,43.328],[5.3541,43.2897],[5.3573,43.2803],[5.3692,43.2704],[5.347,43.2159],[5.4398,43.2076],[5.5174,43.2074],[5.542,43.2028],[5.5727,43.1691],[5.6124,43.1604],[5.6329,43.1856],[5.6717,43.1783],[5.6752,43.1763],[5.6963,43.1469],[5.741,43.1321],[5.7515,43.1317],[5.8085,43.0984],[5.8089,43.0984],[5.817,43.0985],[5.7819,43.0791],[5.819,43.0535],[5.8566,43.0448],[5.8753,43.0688],[5.9403,43.0709],[5.9514,43.08],[5.9106,43.0932],[5.9038,43.0992],[5.9985,43.0999],[6.0165,43.0989],[6.027,43.0782],[6.0846,43.0824],[6.1145,43.0724],[6.1147,43.0725],[6.1149,43.0724],[6.1175,43.0733],[6.1321,43.0526],[6.0977,43.0313],[6.1801,43.0359],[6.1528,43.0481],[6.162,43.0887],[6.245,43.1174],[6.2804,43.1187],[6.3423,43.0908],[6.3754,43.0908],[6.3661,43.1186],[6.3785,43.1361],[6.4038,43.1455],[6.5285,43.1285],[6.5289,43.1285],[6.6061,43.1766],[6.6099,43.1734],[6.6798,43.2016],[6.6745,43.2192],[6.7673,43.2771],[6.9335,43.3806],[6.9373,43.383],[7.0118,43.4294],[7.049,43.4526],[7.0863,43.4758],[7.1073,43.4889],[7.2,43.5466],[7.2773,43.5948],[7.3624,43.6479],[7.4029,43.6731],[7.3624,43.6731],[7.3624,43.7192],[7.3658,43.7227],[7.3673,43.7341],[7.3727,43.7458],[7.3875,43.7579],[7.407,43.7635],[7.4262,43.7555],[7.4375,43.7434],[7.4474,43.7488],[7.4474,43.744],[7.4899,43.744],[7.4899,43.7885],[7.5023,43.7922],[7.4779,43.8655],[7.4935,43.8862],[7.5569,43.9441],[7.6309,43.9935],[7.6348,44.0015],[7.6534,44.0397],[7.6899,44.0673],[7.6879,44.0908],[7.6419,44.1436],[7.6556,44.1761],[7.6247,44.1801],[7.5836,44.1607],[7.5548,44.1591],[7.43,44.1331],[7.3808,44.1229],[7.3406,44.1237],[7.3093,44.1475],[7.2513,44.16],[7.145,44.2072],[7.0335,44.2429],[6.9961,44.2378],[6.9734,44.2494],[6.9592,44.2774],[6.9212,44.3022],[6.8784,44.3546],[6.8661,44.3721],[6.8772,44.4144],[6.9178,44.4363],[6.8613,44.4749],[6.8388,44.5029],[6.8464,44.5475],[6.8973,44.5754],[6.9456,44.6254],[6.9383,44.658],[6.9828,44.6922],[7.0552,44.6849],[7.0388,44.7121],[7.019,44.7389],[6.9984,44.7938],[7.0071,44.8221],[6.9828,44.847],[6.9327,44.8617],[6.866,44.8557],[6.7782,44.8876],[6.7279,44.9287],[6.7299,44.9847],[6.7235,45.0134],[6.6972,45.0269],[6.6622,45.0292],[6.6397,45.0504],[6.6366,45.0745],[6.6027,45.1035],[6.6294,45.1235],[6.6674,45.1396],[6.6944,45.1403],[6.7364,45.1573],[6.7715,45.1532],[6.8441,45.1301],[6.8767,45.1412],[6.8813,45.1684],[6.9138,45.1702],[6.9587,45.2098],[7.0297,45.2282],[7.0502,45.215],[7.1084,45.2592],[7.0926,45.324],[7.1301,45.3571],[7.1607,45.4109],[7.0968,45.4354],[7.0754,45.4663],[6.9828,45.5111],[6.9698,45.567],[6.9549,45.5862],[6.9695,45.6258],[6.9634,45.6407],[6.9186,45.6526],[6.8826,45.6755],[6.8431,45.6827],[6.7959,45.7181],[6.7839,45.765],[6.7113,45.7275],[6.6895,45.7281],[6.6978,45.7585],[6.68,45.7803],[6.6497,45.7928],[6.6027,45.7966],[6.5529,45.8256],[6.5418,45.8437],[6.5622,45.8855],[6.5338,45.9066],[6.5123,45.9066],[6.4628,45.867],[6.4286,45.8095],[6.3679,45.7705],[6.3488,45.723],[6.3302,45.7039],[6.2814,45.684],[6.2428,45.6866],[6.1958,45.7302],[6.1368,45.7591],[6.1049,45.7595],[6.0736,45.7434],[6.0032,45.7521],[5.9842,45.765],[5.9695,45.8047],[5.9544,45.8141],[5.8973,45.8229],[5.878,45.8507],[5.8673,45.9226],[5.8404,45.9388],[5.8242,46.0502],[5.8252,46.0953],[5.8459,46.111],[5.8716,46.0933],[5.9055,46.1226],[5.9588,46.1305],[5.9829,46.1708],[5.9548,46.1999],[5.9585,46.212],[5.9829,46.2227],[6.0429,46.2431],[6.0677,46.2416],[6.0897,46.2464],[6.1007,46.3014],[6.1186,46.3318],[6.1351,46.3704],[6.1082,46.3965],[6.059,46.4174],[5.9689,46.3448],[5.9521,46.3233],[5.8809,46.2755],[5.8396,46.2674],[5.7305,46.2712],[5.7144,46.2777],[5.6978,46.3121],[5.6479,46.344],[5.5954,46.3],[5.5099,46.2607],[5.4699,46.2769],[5.4691,46.3203],[5.3754,46.3604],[5.3639,46.3914],[5.3203,46.4084],[5.311,46.4554],[5.2404,46.4687],[5.1786,46.5054],[5.1252,46.509],[5.0641,46.4927],[5.0253,46.4933],[4.96,46.5095],[4.9376,46.5016],[4.9119,46.4472],[4.8993,46.3961],[4.8742,46.3597],[4.8728,46.3376],[4.8186,46.2573],[4.7952,46.1923],[4.7978,46.1718],[4.7392,46.177],[4.7202,46.1886],[4.7031,46.2247],[4.7041,46.2475],[4.6774,46.2613],[4.673,46.2882],[4.6381,46.2992],[4.6057,46.2631],[4.5812,46.2659],[4.5543,46.2887],[4.5176,46.2762],[4.4085,46.2898],[4.3839,46.2248],[4.4327,46.1915],[4.4322,46.1507],[4.357,46.1418],[4.2584,46.0667],[4.2526,46.0498],[4.3003,46.023],[4.2998,45.9986],[4.253,45.9849],[4.2589,45.9703],[4.3277,45.942],[4.3403,45.9247],[4.3309,45.8975],[4.3421,45.8782],[4.3723,45.8659],[4.3938,45.8428],[4.3834,45.8182],[4.3442,45.7777],[4.3442,45.7603],[4.3968,45.7494],[4.3992,45.7374],[4.3654,45.6985],[4.3842,45.6544],[4.4356,45.6134],[4.497,45.5847],[4.5461,45.5776],[4.6069,45.5843],[4.6402,45.5813],[4.6659,45.5549],[4.6543,45.4912],[4.6791,45.4779],[4.7182,45.4797],[4.76,45.4445],[4.7554,45.4021],[4.7698,45.3657],[4.7759,45.3372],[4.8114,45.2963],[4.8141,45.1974],[4.8273,45.1579],[4.8228,45.1112],[4.8447,45.101],[4.8584,45.0656],[4.851,45.0215],[4.8926,44.9495],[4.8686,44.8848],[4.8306,44.8509],[4.8283,44.837],[4.7776,44.7954],[4.769,44.7547],[4.7964,44.6964],[4.7895,44.6585],[4.74,44.6063],[4.7213,44.5734],[4.7034,44.4747],[4.677,44.4372],[4.6575,44.3268],[4.6578,44.2817],[4.6856,44.2403],[4.6881,44.2194],[4.7213,44.1902],[4.719,44.1247],[4.7295,44.0859],[4.7779,44.0843],[4.8444,44.0221],[4.8475,44.0022],[4.8209,44.0004],[4.822,43.9758],[4.8064,43.9529],[4.7728,43.9328],[4.7267,43.9172],[4.6409,43.8706],[4.6464,43.7949],[4.6169,43.741],[4.6049,43.696],[4.5415,43.7129],[4.4995,43.7063],[4.4516,43.6666],[4.4296,43.6248],[4.4599,43.6178],[4.4483,43.5873],[4.413,43.5819],[4.4004,43.5622],[4.3371,43.5321],[4.2476,43.501],[4.2313,43.4715],[4.2059,43.4599],[4.1987,43.4626],[4.1987,43.3194]]],[[[7.4899,43.7033],[7.5324,43.7107],[7.5324,43.744],[7.4899,43.744],[7.4899,43.7033]]]]}}
]}
