{"type":"FeatureCollection","features":[
{"type":"Feature","properties":{"entityId":"provence","from":1300,"to":1388,"certainty":"estimated","source":"유럽 쪽은 Natural Earth 1:10m admin-1(v5.1.2) 현대 행정구역 조각을 그 시기 국경에 맞춰 묶고, 조각이 역사 경계와 다른 곳은 선을 그어 나눈 근사. 유럽 밖(시베리아·중앙아시아·극동)은 대략적인 추정. 운영자 검수 필요"},"geometry":{"type":"MultiPolygon","coordinates":[[[[4.1987,43.3194],[4.2471,43.3303],[4.2955,43.3411],[4.3922,43.3627],[4.5558,43.3993],[4.5808,43.3958],[4.5663,43.3711],[4.5923,43.3599],[4.6659,43.3475],[4.8203,43.3464],[4.8224,43.3626],[4.846,43.3594],[4.8558,43.3418],[4.8792,43.3548],[5.0519,43.3311],[5.0648,43.328],[5.0748,43.328],[5.3541,43.2897],[5.3573,43.2803],[5.3692,43.2704],[5.347,43.2159],[5.4398,43.2076],[5.5174,43.2074],[5.542,43.2028],[5.5727,43.1691],[5.6124,43.1604],[5.6329,43.1856],[5.6717,43.1783],[5.6752,43.1763],[5.6963,43.1469],[5.741,43.1321],[5.7515,43.1317],[5.8085,43.0984],[5.8089,43.0984],[5.817,43.0985],[5.7819,43.0791],[5.819,43.0535],[5.8566,43.0448],[5.8753,43.0688],[5.9403,43.0709],[5.9514,43.08],[5.9106,43.0932],[5.9038,43.0992],[5.9985,43.0999],[6.0165,43.0989],[6.027,43.0782],[6.0846,43.0824],[6.1145,43.0724],[6.1147,43.0725],[6.1149,43.0724],[6.1175,43.0733],[6.1321,43.0526],[6.0977,43.0313],[6.1801,43.0359],[6.1528,43.0481],[6.162,43.0887],[6.245,43.1174],[6.2804,43.1187],[6.3423,43.0908],[6.3754,43.0908],[6.3661,43.1186],[6.3785,43.1361],[6.4038,43.1455],[6.5285,43.1285],[6.5289,43.1285],[6.6061,43.1766],[6.6099,43.1734],[6.6798,43.2016],[6.6745,43.2192],[6.7673,43.2771],[6.9335,43.3806],[6.9373,43.383],[7.0118,43.4294],[7.049,43.4526],[7.0863,43.4758],[7.1073,43.4889],[7.2,43.5466],[7.2773,43.5948],[7.3624,43.6479],[7.4029,43.6731],[7.3624,43.6731],[7.3624,43.7192],[7.3658,43.7227],[7.3673,43.7341],[7.3727,43.7458],[7.3875,43.7579],[7.407,43.7635],[7.4262,43.7555],[7.4375,43.7434],[7.4474,43.7488],[7.4474,43.744],[7.4899,43.744],[7.4899,43.7885],[7.5023,43.7922],[7.4779,43.8655],[7.4935,43.8862],[7.5569,43.9441],[7.6309,43.9935],[7.6348,44.0015],[7.6534,44.0397],[7.6899,44.0673],[7.6879,44.0908],[7.6419,44.1436],[7.6556,44.1761],[7.6247,44.1801],[7.5836,44.1607],[7.5548,44.1591],[7.43,44.1331],[7.3808,44.1229],[7.3406,44.1237],[7.3093,44.1475],[7.2513,44.16],[7.145,44.2072],[7.0335,44.2429],[6.9961,44.2378],[6.9734,44.2494],[6.9592,44.2774],[6.9212,44.3022],[6.8784,44.3546],[6.8661,44.3721],[6.8772,44.4144],[6.9178,44.4363],[6.8613,44.4749],[6.8388,44.5029],[6.8464,44.5475],[6.8973,44.5754],[6.9456,44.6254],[6.9383,44.658],[6.919,44.6609],[6.8739,44.6292],[6.7919,44.5995],[6.7137,44.5434],[6.684,44.5406],[6.669,44.5036],[6.6304,44.4524],[6.6129,44.4468],[6.5128,44.4492],[6.4674,44.4589],[6.4326,44.4785],[6.3652,44.5347],[6.3247,44.4936],[6.297,44.4767],[6.2587,44.4678],[6.2697,44.4222],[6.236,44.3847],[6.2171,44.3893],[6.1835,44.428],[6.1625,44.4344],[6.1349,44.4721],[6.0735,44.4676],[6.032,44.4344],[5.9817,44.4141],[5.9558,44.3955],[5.9373,44.3624],[5.9086,44.337],[5.9196,44.306],[5.9143,44.2685],[5.8639,44.2965],[5.8353,44.3005],[5.8231,44.2765],[5.9008,44.1999],[5.8688,44.1925],[5.8051,44.2107],[5.7063,44.1887],[5.6789,44.1907],[5.6751,44.1566],[5.6494,44.1538],[5.6382,44.1722],[5.5904,44.1782],[5.5369,44.1357],[5.5062,44.1218],[5.5026,44.0634],[5.5377,44.0609],[5.5385,44.0212],[5.5084,43.9696],[5.5301,43.943],[5.5619,43.9429],[5.5862,43.9216],[5.5855,43.8897],[5.5474,43.8382],[5.5447,43.8176],[5.6094,43.835],[5.6628,43.8121],[5.7538,43.7321],[5.7109,43.7061],[5.6444,43.6949],[5.5825,43.666],[5.5309,43.6693],[5.4136,43.6952],[5.3366,43.7398],[5.2546,43.7493],[5.1926,43.7491],[5.0872,43.7868],[4.9685,43.8667],[4.9059,43.8955],[4.7728,43.9328],[4.7267,43.9172],[4.6409,43.8706],[4.6464,43.7949],[4.6169,43.741],[4.6049,43.696],[4.5415,43.7129],[4.4995,43.7063],[4.4516,43.6666],[4.4296,43.6248],[4.4599,43.6178],[4.4483,43.5873],[4.413,43.5819],[4.4004,43.5622],[4.3371,43.5321],[4.2476,43.501],[4.2313,43.4715],[4.2059,43.4599],[4.1987,43.4626],[4.1987,43.3194]]],[[[7.4899,43.7033],[7.5324,43.7107],[7.5324,43.744],[7.4899,43.744],[7.4899,43.7033]]]]}},
{"type":"Feature","properties":{"entityId":"provence","from":1388,"to":1481,"certainty":"estimated","source":"유럽 쪽은 Natural Earth 1:10m admin-1(v5.1.2) 현대 행정구역 조각을 그 시기 국경에 맞춰 묶고, 조각이 역사 경계와 다른 곳은 선을 그어 나눈 근사. 유럽 밖(시베리아·중앙아시아·극동)은 대략적인 추정. 운영자 검수 필요"},"geometry":{"type":"Polygon","coordinates":[[[4.1987,43.3194],[4.2471,43.3303],[4.2955,43.3411],[4.3922,43.3627],[4.5558,43.3993],[4.5808,43.3958],[4.5663,43.3711],[4.5923,43.3599],[4.6659,43.3475],[4.8203,43.3464],[4.8224,43.3626],[4.846,43.3594],[4.8558,43.3418],[4.8792,43.3548],[5.0519,43.3311],[5.0648,43.328],[5.0748,43.328],[5.3541,43.2897],[5.3573,43.2803],[5.3692,43.2704],[5.347,43.2159],[5.4398,43.2076],[5.5174,43.2074],[5.542,43.2028],[5.5727,43.1691],[5.6124,43.1604],[5.6329,43.1856],[5.6717,43.1783],[5.6752,43.1763],[5.6963,43.1469],[5.741,43.1321],[5.7515,43.1317],[5.8085,43.0984],[5.8089,43.0984],[5.817,43.0985],[5.7819,43.0791],[5.819,43.0535],[5.8566,43.0448],[5.8753,43.0688],[5.9403,43.0709],[5.9514,43.08],[5.9106,43.0932],[5.9038,43.0992],[5.9985,43.0999],[6.0165,43.0989],[6.027,43.0782],[6.0846,43.0824],[6.1145,43.0724],[6.1147,43.0725],[6.1149,43.0724],[6.1175,43.0733],[6.1321,43.0526],[6.0977,43.0313],[6.1801,43.0359],[6.1528,43.0481],[6.162,43.0887],[6.245,43.1174],[6.2804,43.1187],[6.3423,43.0908],[6.3754,43.0908],[6.3661,43.1186],[6.3785,43.1361],[6.4038,43.1455],[6.5285,43.1285],[6.5289,43.1285],[6.6061,43.1766],[6.6099,43.1734],[6.6798,43.2016],[6.6745,43.2192],[6.7673,43.2771],[6.9335,43.3806],[6.9373,43.383],[7.0118,43.4294],[7.049,43.4526],[7.0863,43.4758],[7.1073,43.4889],[7.2,43.5466],[7.2,43.64],[7.19,43.76],[7.17,43.83],[6.98,43.86],[6.9115,43.8943],[6.9423,43.8972],[6.9155,43.9212],[6.8582,43.9555],[6.8187,44.0067],[6.7576,44.0373],[6.7454,44.0998],[6.695,44.1531],[6.7023,44.1885],[6.7308,44.2459],[6.799,44.3184],[6.8784,44.3546],[6.8661,44.3721],[6.8772,44.4144],[6.9178,44.4363],[6.8613,44.4749],[6.8388,44.5029],[6.8464,44.5475],[6.8973,44.5754],[6.9456,44.6254],[6.9383,44.658],[6.919,44.6609],[6.8739,44.6292],[6.7919,44.5995],[6.7137,44.5434],[6.684,44.5406],[6.669,44.5036],[6.6304,44.4524],[6.6129,44.4468],[6.5128,44.4492],[6.4674,44.4589],[6.4326,44.4785],[6.3652,44.5347],[6.3247,44.4936],[6.297,44.4767],[6.2587,44.4678],[6.2697,44.4222],[6.236,44.3847],[6.2171,44.3893],[6.1835,44.428],[6.1625,44.4344],[6.1349,44.4721],[6.0735,44.4676],[6.032,44.4344],[5.9817,44.4141],[5.9558,44.3955],[5.9373,44.3624],[5.9086,44.337],[5.9196,44.306],[5.9143,44.2685],[5.8639,44.2965],[5.8353,44.3005],[5.8231,44.2765],[5.9008,44.1999],[5.8688,44.1925],[5.8051,44.2107],[5.7063,44.1887],[5.6789,44.1907],[5.6751,44.1566],[5.6494,44.1538],[5.6382,44.1722],[5.5904,44.1782],[5.5369,44.1357],[5.5062,44.1218],[5.5026,44.0634],[5.5377,44.0609],[5.5385,44.0212],[5.5084,43.9696],[5.5301,43.943],[5.5619,43.9429],[5.5862,43.9216],[5.5855,43.8897],[5.5474,43.8382],[5.5447,43.8176],[5.6094,43.835],[5.6628,43.8121],[5.7538,43.7321],[5.7109,43.7061],[5.6444,43.6949],[5.5825,43.666],[5.5309,43.6693],[5.4136,43.6952],[5.3366,43.7398],[5.2546,43.7493],[5.1926,43.7491],[5.0872,43.7868],[4.9685,43.8667],[4.9059,43.8955],[4.7728,43.9328],[4.7267,43.9172],[4.6409,43.8706],[4.6464,43.7949],[4.6169,43.741],[4.6049,43.696],[4.5415,43.7129],[4.4995,43.7063],[4.4516,43.6666],[4.4296,43.6248],[4.4599,43.6178],[4.4483,43.5873],[4.413,43.5819],[4.4004,43.5622],[4.3371,43.5321],[4.2476,43.501],[4.2313,43.4715],[4.2059,43.4599],[4.1987,43.4626],[4.1987,43.3194]]]}}
]}
