{"type":"FeatureCollection","features":[
{"type":"Feature","properties":{"entityId":"pskov-republic","from":1400,"to":1510,"certainty":"estimated","source":"유럽 쪽은 Natural Earth 1:10m admin-1(v5.1.2) 현대 행정구역 조각을 그 시기 국경에 맞춰 묶고, 조각이 역사 경계와 다른 곳은 선을 그어 나눈 근사. 유럽 밖(시베리아·중앙아시아·극동)은 대략적인 추정. 운영자 검수 필요"},"geometry":{"type":"Polygon","coordinates":[[[27.328,57.5832],[27.3529,57.5276],[27.5282,57.5285],[27.5256,57.4684],[27.5113,57.4304],[27.5363,57.4157],[27.6408,57.389],[27.6944,57.3564],[27.708,57.3481],[27.8091,57.3139],[27.8403,57.2906],[27.8461,57.2673],[27.8412,57.2112],[27.8243,57.1591],[27.794,57.1434],[27.701,57.1188],[27.6822,57.1037],[27.6961,57.0855],[27.7455,57.068],[27.7458,57.0315],[27.7234,56.9988],[27.7151,56.9574],[27.6487,56.8793],[27.6284,56.8442],[27.6444,56.8418],[27.6612,56.8393],[27.7441,56.8648],[27.7864,56.8713],[27.8308,56.8643],[27.9135,56.8202],[27.9189,56.8059],[27.8761,56.7594],[27.8655,56.7427],[27.8826,56.7255],[27.981,56.687],[27.9913,56.67],[27.9922,56.625],[27.9923,56.6245],[28.4,56.65],[29,56.55],[29.6,56.4],[30.6,56.1],[31.2,56],[31.24,55.92],[31.38,55.92],[31.38,55.9327],[31.3786,55.9345],[31.3447,55.964],[31.38,55.9761],[31.38,56.3073],[31.3414,56.3094],[31.2978,56.3475],[31.2311,56.3462],[31.2154,56.4354],[31.187,56.4512],[31.1442,56.4514],[31.0622,56.4731],[31.0266,56.4747],[31.0126,56.4939],[31.0166,56.5191],[31.0693,56.6002],[31.0793,56.6344],[31.0637,56.6738],[31.0412,56.6844],[30.9756,56.6701],[30.935,56.6836],[30.9131,56.6564],[30.8794,56.6553],[30.8617,56.6666],[30.8168,56.7203],[30.8217,56.7578],[30.7834,56.7656],[30.7976,56.8002],[30.8372,56.8085],[30.8828,56.8028],[30.9043,56.849],[30.8963,56.8967],[30.9449,56.9013],[30.9781,56.9169],[31.0001,56.9652],[30.8825,56.9559],[30.844,56.9371],[30.7997,56.9532],[30.6581,56.9641],[30.6448,56.9819],[30.6463,57.05],[30.6701,57.1403],[30.6435,57.1758],[30.6468,57.1908],[30.7221,57.2103],[30.7308,57.226],[30.7667,57.2386],[30.7731,57.2577],[30.5156,57.3181],[30.4736,57.3378],[30.4412,57.3653],[30.4829,57.3797],[30.4944,57.4136],[30.4859,57.4594],[30.4928,57.4876],[30.5436,57.5324],[30.6088,57.6174],[30.5175,57.651],[30.4721,57.6822],[30.5119,57.7232],[30.5178,57.7464],[30.4288,57.7687],[30.4164,57.7831],[30.499,57.797],[30.5178,57.8072],[30.5457,57.8462],[30.53,57.8866],[30.1677,57.9116],[30.135,57.9264],[30.0719,57.9412],[29.9505,57.944],[29.9251,57.9527],[29.9181,57.9755],[29.9926,58.016],[30.0013,58.0372],[29.9405,58.0236],[29.8895,58.0374],[29.8203,58.0835],[29.7612,58.0919],[29.7152,58.0706],[29.6794,58.0773],[29.6947,58.167],[29.6601,58.209],[29.6585,58.2436],[29.6922,58.2647],[29.7708,58.3016],[29.825,58.3485],[29.9255,58.3924],[29.975,58.4447],[29.8729,58.4471],[29.7858,58.4403],[29.7147,58.4551],[29.6588,58.4506],[29.6194,58.4565],[29.5387,58.4799],[29.524,58.4934],[29.5642,58.5301],[29.5071,58.5368],[29.4801,58.5547],[29.4491,58.5945],[29.2558,58.6202],[29.2474,58.6295],[29.2973,58.6375],[29.2999,58.6493],[29.257,58.6948],[29.2315,58.7062],[29.1069,58.7315],[29.0383,58.7682],[28.9632,58.7876],[28.9787,58.8115],[28.9465,58.8198],[28.8194,58.8269],[28.7566,58.827],[28.5517,58.8651],[28.423,58.8578],[28.3217,58.8601],[28.2718,58.8565],[28.1874,58.9169],[28.1661,58.9536],[28.131,58.9901],[28.0627,58.9857],[27.9736,59.0028],[27.9349,58.9954],[27.8732,59.0144],[27.742,58.9794],[27.6959,58.9772],[27.4778,58.8754],[27.4463,58.8189],[27.4106,58.7549],[27.4288,58.7094],[27.5549,58.3952],[27.4941,58.3195],[27.4828,58.2686],[27.4954,58.2215],[27.5196,58.1945],[27.5797,58.1259],[27.6304,58.0883],[27.6366,58.0592],[27.6316,58.0042],[27.6691,57.992],[27.6752,57.9678],[27.6594,57.9325],[27.6731,57.9128],[27.7744,57.8907],[27.7993,57.8611],[27.7635,57.8387],[27.7007,57.8248],[27.5563,57.8131],[27.5246,57.8073],[27.5539,57.7948],[27.5024,57.7725],[27.5078,57.7148],[27.4904,57.7046],[27.4077,57.689],[27.377,57.6567],[27.387,57.6276],[27.3748,57.5979],[27.328,57.5832]]]}}
]}
