{"type":"FeatureCollection","features":[
{"type":"Feature","properties":{"entityId":"ragusa","from":1600,"to":1808,"certainty":"estimated","source":"유럽 쪽은 Natural Earth 1:10m admin-1(v5.1.2) 현대 행정구역 조각을 그 시기 국경에 맞춰 묶고, 조각이 역사 경계와 다른 곳은 선을 그어 나눈 근사. 유럽 밖(시베리아·중앙아시아·극동)은 대략적인 추정. 운영자 검수 필요"},"geometry":{"type":"MultiPolygon","coordinates":[[[[16.6317,42.9826],[16.659,42.9779],[16.6662,42.9596],[16.6767,42.9501],[16.6384,42.9348],[16.6726,42.9218],[16.6914,42.9282],[16.7191,42.9219],[16.7382,42.9127],[16.8498,42.8953],[16.8502,42.8953],[16.8844,42.9043],[16.8987,42.9058],[16.9729,42.9267],[16.9845,42.9272],[17.0874,42.9144],[17.0878,42.9144],[17.1048,42.9147],[17.1074,42.9143],[17.1145,42.9149],[17.1886,42.9162],[17.1882,42.9166],[17.1886,42.9166],[17.1841,42.9205],[17.2002,42.9218],[17.1318,42.9696],[17.1111,42.9643],[17.0321,42.9826],[16.9917,42.9798],[16.9726,42.9825],[16.9722,42.9825],[16.8356,42.9686],[16.7388,42.9833],[16.7205,42.9901],[16.6861,42.9913],[16.6522,42.9964],[16.6522,42.9963],[16.6518,42.9964],[16.652,42.996],[16.6518,42.996],[16.6532,42.9924],[16.6527,42.9924],[16.6317,42.9826]]],[[[17.0016,43.0515],[17.0282,43.0242],[17.0275,43.0036],[17.0954,42.9844],[17.1836,42.9843],[17.252,42.9692],[17.2603,42.9667],[17.2807,42.9585],[17.3509,42.9218],[17.3855,42.9163],[17.4284,42.899],[17.442,42.8906],[17.4404,42.8734],[17.4956,42.8572],[17.5086,42.8492],[18.2342,42.5643],[18.2389,42.5591],[18.4119,42.476],[18.4131,42.4619],[18.4745,42.4414],[18.4964,42.4163],[18.4929,42.4424],[18.4677,42.4534],[18.4443,42.4779],[18.4371,42.4934],[18.4364,42.5108],[18.442,42.543],[18.4374,42.5592],[18.3698,42.5744],[18.3387,42.6025],[18.3116,42.6012],[18.2241,42.6281],[17.9719,42.755],[17.9045,42.8045],[17.8585,42.817],[17.8272,42.8531],[17.8262,42.8886],[17.8118,42.9099],[17.7867,42.9014],[17.7016,42.9195],[17.6795,42.9157],[17.6533,42.8909],[17.6385,42.8976],[17.6385,42.8854],[17.6127,42.893],[17.587,42.9005],[17.587,42.921],[17.5733,42.9272],[17.5354,42.9272],[17.5354,42.9538],[17.5612,42.9471],[17.5612,42.9338],[17.587,42.9283],[17.587,42.9387],[17.5807,42.9421],[17.6345,42.9504],[17.6627,42.9657],[17.6593,42.9934],[17.6523,43.0055],[17.62,42.97],[17.5,42.96],[17.4,43],[17.15,43.025],[17.15,43.0303],[17.0733,43.0242],[17.0016,43.0515]]],[[[17.3237,42.7908],[17.3738,42.76],[17.3859,42.7709],[17.7489,42.6946],[17.7427,42.701],[17.743,42.7009],[17.7425,42.7012],[17.7428,42.7011],[17.7423,42.7014],[17.7426,42.7013],[17.7423,42.7015],[17.743,42.7013],[17.7417,42.702],[17.7305,42.7134],[17.6699,42.7384],[17.6098,42.769],[17.4334,42.8003],[17.433,42.8003],[17.3898,42.7985],[17.3724,42.7953],[17.3738,42.8026],[17.3237,42.7908]]]]}}
]}
