{"type":"FeatureCollection","features":[
{"type":"Feature","properties":{"entityId":"romania","from":1859,"to":1878,"certainty":"estimated","source":"유럽 쪽은 Natural Earth 1:10m admin-1(v5.1.2) 현대 행정구역 조각을 그 시기 국경에 맞춰 묶고, 조각이 역사 경계와 다른 곳은 선을 그어 나눈 근사. 유럽 밖(시베리아·중앙아시아·극동)은 대략적인 추정. 운영자 검수 필요"},"geometry":{"type":"Polygon","coordinates":[[[22.0342,44.5962],[22.0362,44.5895],[22.0452,44.5692],[22.0763,44.5507],[22.1043,44.5096],[22.1482,44.5009],[22.1851,44.5151],[22.3197,44.6853],[22.3807,44.7005],[22.4261,44.7337],[22.4837,44.724],[22.5533,44.6692],[22.6212,44.6374],[22.7001,44.6306],[22.7652,44.5828],[22.7417,44.5519],[22.7001,44.5418],[22.6212,44.5692],[22.5656,44.5554],[22.5567,44.5215],[22.5355,44.5075],[22.4841,44.4998],[22.477,44.464],[22.501,44.4419],[22.5051,44.4041],[22.5494,44.349],[22.5828,44.3284],[22.6815,44.3053],[22.6895,44.2917],[22.6916,44.2284],[22.9064,44.1229],[23.0083,44.1004],[23.031,44.0931],[23.0401,44.0623],[23.023,44.0316],[22.9881,44.0177],[22.9058,44.004],[22.8859,43.9945],[22.8505,43.897],[22.8634,43.8554],[22.9196,43.8342],[23.0526,43.8428],[23.1318,43.8479],[23.2345,43.8773],[23.3252,43.8866],[23.4847,43.8806],[23.5927,43.8374],[23.6209,43.834],[23.7208,43.8458],[23.7999,43.8185],[24.1496,43.7547],[24.3367,43.7593],[24.3755,43.7639],[24.4312,43.7942],[24.5001,43.7995],[24.6618,43.7557],[24.7526,43.7388],[24.9637,43.7496],[25.0816,43.7189],[25.2113,43.7119],[25.2854,43.6904],[25.3596,43.6543],[25.4031,43.6501],[25.4825,43.6697],[25.5566,43.6704],[25.6165,43.6877],[25.6714,43.7174],[25.7329,43.7188],[25.7811,43.732],[25.8063,43.7637],[25.8693,43.8009],[25.9164,43.8444],[25.934,43.8703],[26.0543,43.9343],[26.0793,43.969],[26.1162,43.9989],[26.1507,44.0124],[26.2315,44.0275],[26.3323,44.0549],[26.4158,44.0638],[26.6142,44.0849],[26.7087,44.1081],[26.7895,44.116],[26.8841,44.1565],[27.0015,44.1651],[27.0275,44.177],[27.1002,44.1445],[27.2527,44.1215],[27.2924,44.1516],[27.4449,44.1341],[27.4819,44.1458],[27.516,44.1727],[27.608,44.2055],[27.6918,44.2045],[27.7329,44.2099],[27.7888,44.2399],[27.934,44.266],[27.9675,44.2806],[27.9935,44.3044],[28.0228,44.3547],[28.0482,44.3982],[28.0988,44.4304],[28.109,44.4578],[28.0861,44.5047],[28.0203,44.5223],[28.0039,44.5399],[28.0215,44.5525],[28.0214,44.588],[28.0345,44.631],[27.978,44.6793],[27.9164,44.6945],[27.8769,44.7442],[27.9109,44.7753],[27.9651,44.7752],[27.9951,44.7611],[28.0347,44.7632],[28.0548,44.777],[28.0701,44.7959],[28.0801,44.8408],[28.125,44.8916],[28.1241,44.9449],[28.1414,44.9598],[28.1308,45.0186],[28.1424,45.0365],[28.1314,45.089],[28.1627,45.1083],[28.178,45.1347],[28.1526,45.1612],[28.0977,45.1842],[28.1308,45.2377],[28.1103,45.2582],[28.0755,45.2482],[28.0413,45.2584],[27.9867,45.2923],[28.0217,45.3481],[28.0302,45.3954],[28.0437,45.4113],[28.1249,45.428],[28.1908,45.417],[28.2151,45.4504],[28.2669,45.4405],[28.2864,45.4217],[28.2812,45.4018],[28.3302,45.3229],[28.4052,45.2951],[28.4942,45.2789],[28.577,45.2481],[28.7101,45.227],[28.7787,45.2311],[28.8027,45.2442],[28.7673,45.2578],[28.7615,45.2818],[28.7902,45.2921],[28.7897,45.3214],[28.8163,45.3261],[28.8809,45.3062],[28.9299,45.2791],[28.9528,45.2851],[28.9665,45.3199],[29.0182,45.3309],[29.0695,45.3608],[29.1743,45.389],[29.2282,45.4237],[29.2818,45.4223],[29.3221,45.4438],[29.3537,45.4359],[29.4306,45.4304],[29.5697,45.395],[29.6503,45.3461],[29.6671,45.3119],[29.6723,45.2729],[29.659,45.2159],[29.6954,45.2213],[29.7088,45.2233],[29.7562,45.3212],[29.7502,45.3858],[29.73,45.4126],[29.7378,45.4201],[29.7559,45.4279],[29.7541,45.4356],[30.1793,45.842],[30.186,45.8456],[30.1,45.88],[29.75,45.9],[29.3,45.88],[28.8,45.83],[28.62,45.95],[28.45,46.2],[28.1493,46.2752],[28.1778,46.287],[28.1929,46.3112],[28.1879,46.3438],[28.2071,46.3582],[28.2129,46.3887],[28.2268,46.3955],[28.2261,46.4154],[28.2461,46.4279],[28.2458,46.4755],[28.219,46.5037],[28.2211,46.5412],[28.2341,46.5531],[28.2254,46.5696],[28.2471,46.6072],[28.2451,46.6315],[28.2341,46.6624],[28.1781,46.7398],[28.1782,46.7586],[28.1378,46.8062],[28.1226,46.8423],[28.105,46.9202],[28.0827,46.9715],[28.0381,47.0155],[28.028,47.033],[28.0083,47.0263],[27.9387,47.0466],[27.9384,47.0611],[27.8438,47.1144],[27.8499,47.1285],[27.8066,47.1446],[27.7883,47.2043],[27.7524,47.2389],[27.7536,47.2514],[27.7228,47.2833],[27.6369,47.3067],[27.5887,47.3674],[27.5724,47.3752],[27.5803,47.406],[27.5625,47.4165],[27.583,47.4507],[27.5482,47.4743],[27.5072,47.478],[27.4731,47.4918],[27.4595,47.5332],[27.4461,47.5349],[27.4313,47.5726],[27.4294,47.5781],[27.3692,47.6083],[27.304,47.6665],[27.272,47.715],[27.2951,47.7182],[27.2881,47.7507],[27.2647,47.7646],[27.2192,47.8138],[27.2534,47.8281],[27.2124,47.8479],[27.2124,47.8895],[27.1607,47.9217],[27.1783,47.9421],[27.151,47.9578],[27.1698,47.9738],[27.1437,47.9868],[27.1215,48.0132],[27.0958,48.0056],[27.089,48.0198],[27.1093,48.0335],[27.0592,48.0581],[27.0343,48.1018],[27.048,48.1214],[27.0251,48.135],[27.0127,48.1281],[26.9666,48.1434],[26.9976,48.1666],[26.9631,48.1754],[26.9381,48.2048],[26.908,48.1845],[26.8977,48.209],[26.8555,48.2378],[26.8447,48.2333],[26.8049,48.2583],[26.744,48.2556],[26.6885,48.2748],[26.6657,48.2742],[26.6179,48.259],[26.5874,48.2494],[26.4447,48.2277],[26.3974,48.2262],[26.3303,48.2085],[26.3035,48.212],[26.287,48.1247],[26.2553,48.0723],[26.2048,48.0374],[26.1731,47.9931],[26.1025,47.9783],[26.1194,47.9175],[26.1416,47.8963],[26.2833,47.8263],[26.397,47.7284],[26.4161,47.7065],[26.5267,47.614],[26.5463,47.5806],[26.5621,47.5284],[26.5676,47.4681],[26.6172,47.4307],[26.6585,47.4267],[26.6734,47.4127],[26.6561,47.3529],[26.6261,47.3449],[26.5212,47.3534],[26.5005,47.3409],[26.5114,47.3244],[26.5727,47.2857],[26.559,47.2656],[26.4823,47.2536],[26.4327,47.2888],[26.3958,47.2968],[26.3531,47.2932],[26.2594,47.2599],[26.2229,47.2537],[26.1104,47.2541],[26.0396,47.2454],[25.9821,47.2575],[25.909,47.234],[25.8785,47.2333],[25.7942,47.2779],[25.7715,47.2685],[25.8194,47.2246],[25.8196,47.2069],[25.7951,47.1866],[25.7408,47.1597],[25.6962,47.123],[25.6721,47.0799],[25.6713,47.0579],[25.7371,47.039],[25.7627,47.0125],[25.7918,46.9661],[25.8658,46.9128],[25.8668,46.8837],[25.832,46.8853],[25.8165,46.8592],[25.8282,46.6936],[25.8409,46.6702],[25.889,46.6348],[25.915,46.6356],[25.907,46.6748],[25.9271,46.6819],[26.0088,46.668],[26.012,46.5936],[26.0289,46.5485],[26.0691,46.4986],[26.0699,46.4872],[26.0325,46.4683],[26.0189,46.4268],[26.0387,46.4033],[26.1326,46.3907],[26.1619,46.3731],[26.1682,46.35],[26.1595,46.3125],[26.1823,46.3057],[26.2471,46.3266],[26.2927,46.3197],[26.3002,46.302],[26.2869,46.2762],[26.2799,46.2265],[26.259,46.1881],[26.2516,46.1503],[26.2932,46.1601],[26.325,46.1794],[26.4001,46.1445],[26.4149,46.128],[26.4021,46.0943],[26.4406,46.0748],[26.4681,46.0274],[26.4848,46.0212],[26.4209,45.9505],[26.4048,45.9175],[26.3804,45.8029],[26.395,45.7498],[26.3667,45.6852],[26.3427,45.6553],[26.3286,45.6181],[26.2847,45.6028],[26.2346,45.6256],[26.2156,45.6122],[26.2075,45.5832],[26.1889,45.5745],[26.1005,45.5644],[26.046,45.4823],[25.9989,45.4886],[25.9458,45.5102],[25.9028,45.5006],[25.8913,45.4654],[25.8627,45.4416],[25.8231,45.4455],[25.7904,45.4733],[25.7502,45.4659],[25.6933,45.4794],[25.6278,45.4847],[25.4588,45.4636],[25.4298,45.4523],[25.4027,45.4392],[25.3703,45.3994],[25.3092,45.3885],[25.2759,45.4165],[25.2208,45.5034],[25.0951,45.5696],[24.9839,45.58],[24.8687,45.5739],[24.8388,45.5631],[24.8004,45.595],[24.7719,45.6029],[24.7091,45.5988],[24.5272,45.5618],[24.3218,45.563],[24.1689,45.537],[24.0683,45.4964],[23.9606,45.5122],[23.794,45.508],[23.7526,45.4861],[23.7097,45.4798],[23.6469,45.4505],[23.6261,45.4519],[23.5842,45.4473],[23.5808,45.4323],[23.5999,45.3819],[23.5858,45.3526],[23.5237,45.3379],[23.4304,45.3038],[23.3984,45.3182],[23.3575,45.3215],[23.2441,45.2952],[23.1895,45.2718],[23.0908,45.2794],[23.027,45.2597],[22.9761,45.2748],[22.9334,45.2767],[22.8814,45.2949],[22.6691,45.2405],[22.601,45.1977],[22.5727,45.1708],[22.5661,45.1388],[22.6346,45.1275],[22.6411,45.0924],[22.5989,45.0602],[22.5666,45.0239],[22.5337,44.9342],[22.4918,44.8846],[22.467,44.8393],[22.4418,44.7694],[22.4212,44.7521],[22.3878,44.7537],[22.3542,44.7777],[22.3112,44.7779],[22.2626,44.8083],[22.2219,44.8062],[22.2057,44.7613],[22.1653,44.7022],[22.1608,44.6644],[22.1727,44.6339],[22.169,44.609],[22.1499,44.5977],[22.0888,44.6032],[22.0342,44.5962]]]}},
{"type":"Feature","properties":{"entityId":"romania","from":1878,"to":1913,"certainty":"estimated","source":"유럽 쪽은 Natural Earth 1:10m admin-1(v5.1.2) 현대 행정구역 조각을 그 시기 국경에 맞춰 묶고, 조각이 역사 경계와 다른 곳은 선을 그어 나눈 근사. 유럽 밖(시베리아·중앙아시아·극동)은 대략적인 추정. 운영자 검수 필요"},"geometry":{"type":"Polygon","coordinates":[[[25.4298,45.4523],[25.4588,45.4636],[25.6278,45.4847],[25.6933,45.4794],[25.7502,45.4659],[25.7904,45.4733],[25.8231,45.4455],[25.8627,45.4416],[25.8913,45.4654],[25.9028,45.5006],[25.9458,45.5102],[25.9989,45.4886],[26.046,45.4823],[26.1005,45.5644],[26.1889,45.5745],[26.2075,45.5832],[26.2156,45.6122],[26.2346,45.6256],[26.2847,45.6028],[26.3286,45.6181],[26.3427,45.6553],[26.3667,45.6852],[26.395,45.7498],[26.3804,45.8029],[26.4048,45.9175],[26.4209,45.9505],[26.4848,46.0212],[26.4681,46.0274],[26.4406,46.0748],[26.4021,46.0943],[26.4149,46.128],[26.4001,46.1445],[26.325,46.1794],[26.2932,46.1601],[26.2516,46.1503],[26.259,46.1881],[26.2799,46.2265],[26.2869,46.2762],[26.3002,46.302],[26.2927,46.3197],[26.2471,46.3266],[26.1823,46.3057],[26.1595,46.3125],[26.1682,46.35],[26.1619,46.3731],[26.1326,46.3907],[26.0387,46.4033],[26.0189,46.4268],[26.0325,46.4683],[26.0699,46.4872],[26.0691,46.4986],[26.0289,46.5485],[26.012,46.5936],[26.0088,46.668],[25.9271,46.6819],[25.907,46.6748],[25.915,46.6356],[25.889,46.6348],[25.8409,46.6702],[25.8282,46.6936],[25.8165,46.8592],[25.832,46.8853],[25.8668,46.8837],[25.8658,46.9128],[25.7918,46.9661],[25.7627,47.0125],[25.7371,47.039],[25.6713,47.0579],[25.6721,47.0799],[25.6962,47.123],[25.7408,47.1597],[25.7951,47.1866],[25.8196,47.2069],[25.8194,47.2246],[25.7715,47.2685],[25.7942,47.2779],[25.8785,47.2333],[25.909,47.234],[25.9821,47.2575],[26.0396,47.2454],[26.1104,47.2541],[26.2229,47.2537],[26.2594,47.2599],[26.3531,47.2932],[26.3958,47.2968],[26.4327,47.2888],[26.4823,47.2536],[26.559,47.2656],[26.5727,47.2857],[26.5114,47.3244],[26.5005,47.3409],[26.5212,47.3534],[26.6261,47.3449],[26.6561,47.3529],[26.6734,47.4127],[26.6585,47.4267],[26.6172,47.4307],[26.5676,47.4681],[26.5621,47.5284],[26.5463,47.5806],[26.5267,47.614],[26.4161,47.7065],[26.397,47.7284],[26.2833,47.8263],[26.1416,47.8963],[26.1194,47.9175],[26.1025,47.9783],[26.1731,47.9931],[26.2048,48.0374],[26.2553,48.0723],[26.287,48.1247],[26.3035,48.212],[26.3303,48.2085],[26.3974,48.2262],[26.4447,48.2277],[26.5874,48.2494],[26.6179,48.259],[26.6657,48.2742],[26.6885,48.2748],[26.744,48.2556],[26.8049,48.2583],[26.8447,48.2333],[26.8555,48.2378],[26.8977,48.209],[26.908,48.1845],[26.9381,48.2048],[26.9631,48.1754],[26.9976,48.1666],[26.9666,48.1434],[27.0127,48.1281],[27.0251,48.135],[27.048,48.1214],[27.0343,48.1018],[27.0592,48.0581],[27.1093,48.0335],[27.089,48.0198],[27.0958,48.0056],[27.1215,48.0132],[27.1437,47.9868],[27.1698,47.9738],[27.151,47.9578],[27.1783,47.9421],[27.1607,47.9217],[27.2124,47.8895],[27.2124,47.8479],[27.2534,47.8281],[27.2192,47.8138],[27.2647,47.7646],[27.2881,47.7507],[27.2951,47.7182],[27.272,47.715],[27.304,47.6665],[27.3692,47.6083],[27.4294,47.5781],[27.4313,47.5726],[27.4461,47.5349],[27.4595,47.5332],[27.4731,47.4918],[27.5072,47.478],[27.5482,47.4743],[27.583,47.4507],[27.5625,47.4165],[27.5803,47.406],[27.5724,47.3752],[27.5887,47.3674],[27.6369,47.3067],[27.7228,47.2833],[27.7536,47.2514],[27.7524,47.2389],[27.7883,47.2043],[27.8066,47.1446],[27.8499,47.1285],[27.8438,47.1144],[27.9384,47.0611],[27.9387,47.0466],[28.0083,47.0263],[28.028,47.033],[28.0381,47.0155],[28.0827,46.9715],[28.105,46.9202],[28.1226,46.8423],[28.1378,46.8062],[28.1782,46.7586],[28.1781,46.7398],[28.2341,46.6624],[28.2451,46.6315],[28.2471,46.6072],[28.2254,46.5696],[28.2341,46.5531],[28.2211,46.5412],[28.219,46.5037],[28.2458,46.4755],[28.2461,46.4279],[28.2261,46.4154],[28.2268,46.3955],[28.2129,46.3887],[28.2071,46.3582],[28.1879,46.3438],[28.1929,46.3112],[28.1778,46.287],[28.1352,46.2693],[28.1321,46.2399],[28.109,46.2341],[28.1447,46.1832],[28.1105,46.1015],[28.1078,46.0961],[28.0845,46.0246],[28.0861,46.0006],[28.125,45.9184],[28.1174,45.8952],[28.1311,45.8714],[28.1105,45.8543],[28.1133,45.8254],[28.155,45.7618],[28.168,45.6325],[28.1208,45.6277],[28.0621,45.5936],[28.1409,45.5602],[28.1654,45.5283],[28.1659,45.4946],[28.1995,45.4618],[28.2151,45.4504],[28.2669,45.4405],[28.2864,45.4217],[28.2812,45.4018],[28.3302,45.3229],[28.4052,45.2951],[28.4942,45.2789],[28.577,45.2481],[28.7101,45.227],[28.7787,45.2311],[28.8027,45.2442],[28.7673,45.2578],[28.7615,45.2818],[28.7902,45.2921],[28.7897,45.3214],[28.8163,45.3261],[28.8809,45.3062],[28.9299,45.2791],[28.9528,45.2851],[28.9665,45.3199],[29.0182,45.3309],[29.0695,45.3608],[29.1743,45.389],[29.2282,45.4237],[29.2818,45.4223],[29.3221,45.4438],[29.3537,45.4359],[29.4306,45.4304],[29.5697,45.395],[29.6503,45.3461],[29.6671,45.3119],[29.6723,45.2729],[29.659,45.2159],[29.6954,45.2213],[29.6879,45.1938],[29.68,45.1632],[29.6996,45.1618],[29.6765,45.1446],[29.6735,45.1377],[29.6622,45.0927],[29.6563,45.029],[29.6375,44.9837],[29.6304,44.9077],[29.6052,44.88],[29.6112,44.8493],[29.5618,44.8203],[29.511,44.8205],[29.3159,44.7988],[29.2822,44.7972],[29.1309,44.772],[29.0558,44.7352],[29.0007,44.6889],[28.9749,44.7449],[29.0509,44.7637],[29.079,44.7983],[29.0737,44.8348],[29.0603,44.8323],[29.0533,44.8466],[28.8993,44.8948],[28.9107,44.8571],[28.9524,44.8266],[28.9255,44.7837],[28.9461,44.7652],[28.8794,44.7566],[28.8757,44.7551],[28.8707,44.7494],[28.8564,44.7275],[28.8491,44.7164],[28.8484,44.6999],[28.8464,44.6567],[28.8695,44.6618],[28.912,44.6964],[28.8977,44.7168],[28.9675,44.701],[28.9876,44.6753],[28.9621,44.6394],[28.9387,44.6343],[28.9727,44.6702],[28.9242,44.6821],[28.8542,44.6343],[28.8365,44.6269],[28.8131,44.6018],[28.806,44.5659],[28.8724,44.5728],[28.9097,44.5842],[28.844,44.4937],[28.8271,44.4845],[28.7164,44.3902],[28.6523,44.1147],[28.6552,44.0515],[28.6712,44.0033],[28.6377,43.9186],[28.6297,43.9061],[28.5899,43.7981],[28.5863,43.7425],[28.5737,43.6221],[28.5784,43.7413],[28.4346,43.7352],[28.2213,43.762],[28.0148,43.83],[27.981,43.8493],[27.9358,43.9644],[27.9121,43.9933],[27.8565,43.9886],[27.7873,43.9604],[27.7217,43.9487],[27.6825,43.9873],[27.6563,44.0239],[27.6334,44.0298],[27.5745,44.0163],[27.3838,44.0151],[27.3417,44.0531],[27.2853,44.0725],[27.2643,44.0898],[27.269,44.1124],[27.2527,44.1215],[27.1002,44.1445],[27.0275,44.177],[27.0015,44.1651],[26.8841,44.1565],[26.7895,44.116],[26.7087,44.1081],[26.6142,44.0849],[26.4158,44.0638],[26.3323,44.0549],[26.2315,44.0275],[26.1507,44.0124],[26.1162,43.9989],[26.0793,43.969],[26.0543,43.9343],[25.934,43.8703],[25.9164,43.8444],[25.8693,43.8009],[25.8063,43.7637],[25.7811,43.732],[25.7329,43.7188],[25.6714,43.7174],[25.6165,43.6877],[25.5566,43.6704],[25.4825,43.6697],[25.4031,43.6501],[25.3596,43.6543],[25.2854,43.6904],[25.2113,43.7119],[25.0816,43.7189],[24.9637,43.7496],[24.7526,43.7388],[24.6618,43.7557],[24.5001,43.7995],[24.4312,43.7942],[24.3755,43.7639],[24.3367,43.7593],[24.1496,43.7547],[23.7999,43.8185],[23.7208,43.8458],[23.6209,43.834],[23.5927,43.8374],[23.4847,43.8806],[23.3252,43.8866],[23.2345,43.8773],[23.1318,43.8479],[23.0526,43.8428],[22.9196,43.8342],[22.8634,43.8554],[22.8505,43.897],[22.8859,43.9945],[22.9058,44.004],[22.9881,44.0177],[23.023,44.0316],[23.0401,44.0623],[23.031,44.0931],[23.0083,44.1004],[22.9064,44.1229],[22.6916,44.2284],[22.6895,44.2917],[22.6815,44.3053],[22.5828,44.3284],[22.5494,44.349],[22.5051,44.4041],[22.501,44.4419],[22.477,44.464],[22.4841,44.4998],[22.5355,44.5075],[22.5567,44.5215],[22.5656,44.5554],[22.6212,44.5692],[22.7001,44.5418],[22.7417,44.5519],[22.7652,44.5828],[22.7001,44.6306],[22.6212,44.6374],[22.5533,44.6692],[22.4837,44.724],[22.4261,44.7337],[22.3807,44.7005],[22.3197,44.6853],[22.1851,44.5151],[22.1482,44.5009],[22.1043,44.5096],[22.0763,44.5507],[22.0452,44.5692],[22.0362,44.5895],[22.0342,44.5962],[22.0888,44.6032],[22.1499,44.5977],[22.169,44.609],[22.1727,44.6339],[22.1608,44.6644],[22.1653,44.7022],[22.2057,44.7613],[22.2219,44.8062],[22.2626,44.8083],[22.3112,44.7779],[22.3542,44.7777],[22.3878,44.7537],[22.4212,44.7521],[22.4418,44.7694],[22.467,44.8393],[22.4918,44.8846],[22.5337,44.9342],[22.5666,45.0239],[22.5989,45.0602],[22.6411,45.0924],[22.6346,45.1275],[22.5661,45.1388],[22.5727,45.1708],[22.601,45.1977],[22.6691,45.2405],[22.8814,45.2949],[22.9334,45.2767],[22.9761,45.2748],[23.027,45.2597],[23.0908,45.2794],[23.1895,45.2718],[23.2441,45.2952],[23.3575,45.3215],[23.3984,45.3182],[23.4304,45.3038],[23.5237,45.3379],[23.5858,45.3526],[23.5999,45.3819],[23.5808,45.4323],[23.5842,45.4473],[23.6261,45.4519],[23.6469,45.4505],[23.7097,45.4798],[23.7526,45.4861],[23.794,45.508],[23.9606,45.5122],[24.0683,45.4964],[24.1689,45.537],[24.3218,45.563],[24.5272,45.5618],[24.7091,45.5988],[24.7719,45.6029],[24.8004,45.595],[24.8388,45.5631],[24.8687,45.5739],[24.9839,45.58],[25.0951,45.5696],[25.2208,45.5034],[25.2759,45.4165],[25.3092,45.3885],[25.3703,45.3994],[25.4027,45.4392],[25.4298,45.4523]]]}},
{"type":"Feature","properties":{"entityId":"romania","from":1913,"to":1918,"certainty":"estimated","source":"유럽 쪽은 Natural Earth 1:10m admin-1(v5.1.2) 현대 행정구역 조각을 그 시기 국경에 맞춰 묶고, 조각이 역사 경계와 다른 곳은 선을 그어 나눈 근사. 유럽 밖(시베리아·중앙아시아·극동)은 대략적인 추정. 운영자 검수 필요"},"geometry":{"type":"Polygon","coordinates":[[[26.3323,44.0549],[26.2315,44.0275],[26.1507,44.0124],[26.1162,43.9989],[26.0793,43.969],[26.0543,43.9343],[25.934,43.8703],[25.9164,43.8444],[25.8693,43.8009],[25.8063,43.7637],[25.7811,43.732],[25.7329,43.7188],[25.6714,43.7174],[25.6165,43.6877],[25.5566,43.6704],[25.4825,43.6697],[25.4031,43.6501],[25.3596,43.6543],[25.2854,43.6904],[25.2113,43.7119],[25.0816,43.7189],[24.9637,43.7496],[24.7526,43.7388],[24.6618,43.7557],[24.5001,43.7995],[24.4312,43.7942],[24.3755,43.7639],[24.3367,43.7593],[24.1496,43.7547],[23.7999,43.8185],[23.7208,43.8458],[23.6209,43.834],[23.5927,43.8374],[23.4847,43.8806],[23.3252,43.8866],[23.2345,43.8773],[23.1318,43.8479],[23.0526,43.8428],[22.9196,43.8342],[22.8634,43.8554],[22.8505,43.897],[22.8859,43.9945],[22.9058,44.004],[22.9881,44.0177],[23.023,44.0316],[23.0401,44.0623],[23.031,44.0931],[23.0083,44.1004],[22.9064,44.1229],[22.6916,44.2284],[22.6895,44.2917],[22.6815,44.3053],[22.5828,44.3284],[22.5494,44.349],[22.5051,44.4041],[22.501,44.4419],[22.477,44.464],[22.4841,44.4998],[22.5355,44.5075],[22.5567,44.5215],[22.5656,44.5554],[22.6212,44.5692],[22.7001,44.5418],[22.7417,44.5519],[22.7652,44.5828],[22.7001,44.6306],[22.6212,44.6374],[22.5533,44.6692],[22.4837,44.724],[22.4261,44.7337],[22.3807,44.7005],[22.3197,44.6853],[22.1851,44.5151],[22.1482,44.5009],[22.1043,44.5096],[22.0763,44.5507],[22.0452,44.5692],[22.0362,44.5895],[22.0342,44.5962],[22.0888,44.6032],[22.1499,44.5977],[22.169,44.609],[22.1727,44.6339],[22.1608,44.6644],[22.1653,44.7022],[22.2057,44.7613],[22.2219,44.8062],[22.2626,44.8083],[22.3112,44.7779],[22.3542,44.7777],[22.3878,44.7537],[22.4212,44.7521],[22.4418,44.7694],[22.467,44.8393],[22.4918,44.8846],[22.5337,44.9342],[22.5666,45.0239],[22.5989,45.0602],[22.6411,45.0924],[22.6346,45.1275],[22.5661,45.1388],[22.5727,45.1708],[22.601,45.1977],[22.6691,45.2405],[22.8814,45.2949],[22.9334,45.2767],[22.9761,45.2748],[23.027,45.2597],[23.0908,45.2794],[23.1895,45.2718],[23.2441,45.2952],[23.3575,45.3215],[23.3984,45.3182],[23.4304,45.3038],[23.5237,45.3379],[23.5858,45.3526],[23.5999,45.3819],[23.5808,45.4323],[23.5842,45.4473],[23.6261,45.4519],[23.6469,45.4505],[23.7097,45.4798],[23.7526,45.4861],[23.794,45.508],[23.9606,45.5122],[24.0683,45.4964],[24.1689,45.537],[24.3218,45.563],[24.5272,45.5618],[24.7091,45.5988],[24.7719,45.6029],[24.8004,45.595],[24.8388,45.5631],[24.8687,45.5739],[24.9839,45.58],[25.0951,45.5696],[25.2208,45.5034],[25.2759,45.4165],[25.3092,45.3885],[25.3703,45.3994],[25.4027,45.4392],[25.4298,45.4523],[25.4588,45.4636],[25.6278,45.4847],[25.6933,45.4794],[25.7502,45.4659],[25.7904,45.4733],[25.8231,45.4455],[25.8627,45.4416],[25.8913,45.4654],[25.9028,45.5006],[25.9458,45.5102],[25.9989,45.4886],[26.046,45.4823],[26.1005,45.5644],[26.1889,45.5745],[26.2075,45.5832],[26.2156,45.6122],[26.2346,45.6256],[26.2847,45.6028],[26.3286,45.6181],[26.3427,45.6553],[26.3667,45.6852],[26.395,45.7498],[26.3804,45.8029],[26.4048,45.9175],[26.4209,45.9505],[26.4848,46.0212],[26.4681,46.0274],[26.4406,46.0748],[26.4021,46.0943],[26.4149,46.128],[26.4001,46.1445],[26.325,46.1794],[26.2932,46.1601],[26.2516,46.1503],[26.259,46.1881],[26.2799,46.2265],[26.2869,46.2762],[26.3002,46.302],[26.2927,46.3197],[26.2471,46.3266],[26.1823,46.3057],[26.1595,46.3125],[26.1682,46.35],[26.1619,46.3731],[26.1326,46.3907],[26.0387,46.4033],[26.0189,46.4268],[26.0325,46.4683],[26.0699,46.4872],[26.0691,46.4986],[26.0289,46.5485],[26.012,46.5936],[26.0088,46.668],[25.9271,46.6819],[25.907,46.6748],[25.915,46.6356],[25.889,46.6348],[25.8409,46.6702],[25.8282,46.6936],[25.8165,46.8592],[25.832,46.8853],[25.8668,46.8837],[25.8658,46.9128],[25.7918,46.9661],[25.7627,47.0125],[25.7371,47.039],[25.6713,47.0579],[25.6721,47.0799],[25.6962,47.123],[25.7408,47.1597],[25.7951,47.1866],[25.8196,47.2069],[25.8194,47.2246],[25.7715,47.2685],[25.7942,47.2779],[25.8785,47.2333],[25.909,47.234],[25.9821,47.2575],[26.0396,47.2454],[26.1104,47.2541],[26.2229,47.2537],[26.2594,47.2599],[26.3531,47.2932],[26.3958,47.2968],[26.4327,47.2888],[26.4823,47.2536],[26.559,47.2656],[26.5727,47.2857],[26.5114,47.3244],[26.5005,47.3409],[26.5212,47.3534],[26.6261,47.3449],[26.6561,47.3529],[26.6734,47.4127],[26.6585,47.4267],[26.6172,47.4307],[26.5676,47.4681],[26.5621,47.5284],[26.5463,47.5806],[26.5267,47.614],[26.4161,47.7065],[26.397,47.7284],[26.2833,47.8263],[26.1416,47.8963],[26.1194,47.9175],[26.1025,47.9783],[26.1731,47.9931],[26.2048,48.0374],[26.2553,48.0723],[26.287,48.1247],[26.3035,48.212],[26.3303,48.2085],[26.3974,48.2262],[26.4447,48.2277],[26.5874,48.2494],[26.6179,48.259],[26.6657,48.2742],[26.6885,48.2748],[26.744,48.2556],[26.8049,48.2583],[26.8447,48.2333],[26.8555,48.2378],[26.8977,48.209],[26.908,48.1845],[26.9381,48.2048],[26.9631,48.1754],[26.9976,48.1666],[26.9666,48.1434],[27.0127,48.1281],[27.0251,48.135],[27.048,48.1214],[27.0343,48.1018],[27.0592,48.0581],[27.1093,48.0335],[27.089,48.0198],[27.0958,48.0056],[27.1215,48.0132],[27.1437,47.9868],[27.1698,47.9738],[27.151,47.9578],[27.1783,47.9421],[27.1607,47.9217],[27.2124,47.8895],[27.2124,47.8479],[27.2534,47.8281],[27.2192,47.8138],[27.2647,47.7646],[27.2881,47.7507],[27.2951,47.7182],[27.272,47.715],[27.304,47.6665],[27.3692,47.6083],[27.4294,47.5781],[27.4313,47.5726],[27.4461,47.5349],[27.4595,47.5332],[27.4731,47.4918],[27.5072,47.478],[27.5482,47.4743],[27.583,47.4507],[27.5625,47.4165],[27.5803,47.406],[27.5724,47.3752],[27.5887,47.3674],[27.6369,47.3067],[27.7228,47.2833],[27.7536,47.2514],[27.7524,47.2389],[27.7883,47.2043],[27.8066,47.1446],[27.8499,47.1285],[27.8438,47.1144],[27.9384,47.0611],[27.9387,47.0466],[28.0083,47.0263],[28.028,47.033],[28.0381,47.0155],[28.0827,46.9715],[28.105,46.9202],[28.1226,46.8423],[28.1378,46.8062],[28.1782,46.7586],[28.1781,46.7398],[28.2341,46.6624],[28.2451,46.6315],[28.2471,46.6072],[28.2254,46.5696],[28.2341,46.5531],[28.2211,46.5412],[28.219,46.5037],[28.2458,46.4755],[28.2461,46.4279],[28.2261,46.4154],[28.2268,46.3955],[28.2129,46.3887],[28.2071,46.3582],[28.1879,46.3438],[28.1929,46.3112],[28.1778,46.287],[28.1352,46.2693],[28.1321,46.2399],[28.109,46.2341],[28.1447,46.1832],[28.1105,46.1015],[28.1078,46.0961],[28.0845,46.0246],[28.0861,46.0006],[28.125,45.9184],[28.1174,45.8952],[28.1311,45.8714],[28.1105,45.8543],[28.1133,45.8254],[28.155,45.7618],[28.168,45.6325],[28.1208,45.6277],[28.0621,45.5936],[28.1409,45.5602],[28.1654,45.5283],[28.1659,45.4946],[28.1995,45.4618],[28.2151,45.4504],[28.2669,45.4405],[28.2864,45.4217],[28.2812,45.4018],[28.3302,45.3229],[28.4052,45.2951],[28.4942,45.2789],[28.577,45.2481],[28.7101,45.227],[28.7787,45.2311],[28.8027,45.2442],[28.7673,45.2578],[28.7615,45.2818],[28.7902,45.2921],[28.7897,45.3214],[28.8163,45.3261],[28.8809,45.3062],[28.9299,45.2791],[28.9528,45.2851],[28.9665,45.3199],[29.0182,45.3309],[29.0695,45.3608],[29.1743,45.389],[29.2282,45.4237],[29.2818,45.4223],[29.3221,45.4438],[29.3537,45.4359],[29.4306,45.4304],[29.5697,45.395],[29.6503,45.3461],[29.6671,45.3119],[29.6723,45.2729],[29.659,45.2159],[29.6954,45.2213],[29.6879,45.1938],[29.68,45.1632],[29.6996,45.1618],[29.6765,45.1446],[29.6735,45.1377],[29.6622,45.0927],[29.6563,45.029],[29.6375,44.9837],[29.6304,44.9077],[29.6052,44.88],[29.6112,44.8493],[29.5618,44.8203],[29.511,44.8205],[29.3159,44.7988],[29.2822,44.7972],[29.1309,44.772],[29.0558,44.7352],[29.0007,44.6889],[28.9749,44.7449],[29.0509,44.7637],[29.079,44.7983],[29.0737,44.8348],[29.0603,44.8323],[29.0533,44.8466],[28.8993,44.8948],[28.9107,44.8571],[28.9524,44.8266],[28.9255,44.7837],[28.9461,44.7652],[28.8794,44.7566],[28.8757,44.7551],[28.8707,44.7494],[28.8564,44.7275],[28.8491,44.7164],[28.8484,44.6999],[28.8464,44.6567],[28.8695,44.6618],[28.912,44.6964],[28.8977,44.7168],[28.9675,44.701],[28.9876,44.6753],[28.9621,44.6394],[28.9387,44.6343],[28.9727,44.6702],[28.9242,44.6821],[28.8542,44.6343],[28.8365,44.6269],[28.8131,44.6018],[28.806,44.5659],[28.8724,44.5728],[28.9097,44.5842],[28.844,44.4937],[28.8271,44.4845],[28.7164,44.3902],[28.6523,44.1147],[28.6552,44.0515],[28.6712,44.0033],[28.6377,43.9186],[28.6297,43.9061],[28.5899,43.7981],[28.5863,43.7425],[28.5737,43.6221],[28.5731,43.6061],[28.6035,43.5382],[28.5603,43.4538],[28.4886,43.4064],[28.4732,43.3668],[28.4595,43.3807],[28.4239,43.3989],[28.3197,43.4266],[28.3065,43.4244],[28.2432,43.4078],[28.2076,43.4078],[28.1766,43.4026],[28.131,43.3662],[28.1045,43.345],[28.0816,43.345],[28.087,43.3552],[28.0135,43.3531],[27.9655,43.3928],[27.9338,43.3943],[27.8677,43.3654],[27.8087,43.3877],[27.7151,43.4733],[27.678,43.4789],[27.6382,43.5059],[27.6038,43.5419],[27.5779,43.5185],[27.5199,43.4992],[27.495,43.508],[27.4884,43.5321],[27.4585,43.5627],[27.4189,43.5712],[27.4088,43.5986],[27.3856,43.6094],[27.3059,43.5949],[27.2769,43.6049],[27.2562,43.6353],[27.2001,43.6689],[27.1338,43.67],[27.0941,43.7031],[27.0541,43.7216],[27.0008,43.6996],[26.9313,43.75],[26.9133,43.7414],[26.9031,43.7755],[26.8598,43.8062],[26.8372,43.8437],[26.7674,43.8072],[26.7355,43.8449],[26.7019,43.8476],[26.6172,43.8694],[26.586,43.919],[26.5457,43.9449],[26.4916,43.925],[26.4648,43.9468],[26.3963,43.9496],[26.3762,44.0195],[26.3496,44.0223],[26.3323,44.0549]]]}},
{"type":"Feature","properties":{"entityId":"romania","from":1918,"to":1940,"certainty":"estimated","source":"유럽 쪽은 Natural Earth 1:10m admin-1(v5.1.2) 현대 행정구역 조각을 그 시기 국경에 맞춰 묶고, 조각이 역사 경계와 다른 곳은 선을 그어 나눈 근사. 유럽 밖(시베리아·중앙아시아·극동)은 대략적인 추정. 운영자 검수 필요"},"geometry":{"type":"Polygon","coordinates":[[[20.2428,46.1081],[20.3057,46.0536],[20.3386,45.9928],[20.371,45.9678],[20.4291,45.9467],[20.4817,45.9127],[20.538,45.9037],[20.5721,45.8877],[20.6053,45.8461],[20.6297,45.8333],[20.6435,45.7951],[20.6881,45.7431],[20.7134,45.7333],[20.7652,45.7668],[20.7857,45.7526],[20.78,45.6717],[20.7544,45.6056],[20.758,45.5893],[20.8002,45.5305],[20.7976,45.5165],[20.7607,45.4933],[20.7671,45.4793],[20.816,45.4629],[20.863,45.4187],[20.9276,45.3775],[20.9662,45.3416],[21.0167,45.3215],[21.064,45.3063],[21.0916,45.2881],[21.1394,45.3037],[21.2061,45.2459],[21.2571,45.2241],[21.2993,45.2232],[21.4055,45.1997],[21.4594,45.174],[21.4844,45.1527],[21.4941,45.1193],[21.4424,45.0929],[21.4438,45.0729],[21.4219,45.0314],[21.3634,45.0165],[21.3535,44.9898],[21.3839,44.9867],[21.4084,44.9583],[21.4565,44.9523],[21.5163,44.9339],[21.5391,44.9085],[21.5221,44.8808],[21.4534,44.8696],[21.3953,44.8716],[21.3685,44.8649],[21.3428,44.8319],[21.3598,44.8267],[21.3959,44.7902],[21.4972,44.778],[21.5584,44.7817],[21.5956,44.766],[21.6197,44.7139],[21.6563,44.6877],[21.7052,44.6771],[21.7568,44.6773],[21.8554,44.6985],[22.0043,44.6515],[22.0342,44.5962],[22.0362,44.5895],[22.0452,44.5692],[22.0763,44.5507],[22.1043,44.5096],[22.1482,44.5009],[22.1851,44.5151],[22.3197,44.6853],[22.3807,44.7005],[22.4261,44.7337],[22.4837,44.724],[22.5533,44.6692],[22.6212,44.6374],[22.7001,44.6306],[22.7652,44.5828],[22.7417,44.5519],[22.7001,44.5418],[22.6212,44.5692],[22.5656,44.5554],[22.5567,44.5215],[22.5355,44.5075],[22.4841,44.4998],[22.477,44.464],[22.501,44.4419],[22.5051,44.4041],[22.5494,44.349],[22.5828,44.3284],[22.6815,44.3053],[22.6895,44.2917],[22.6916,44.2284],[22.9064,44.1229],[23.0083,44.1004],[23.031,44.0931],[23.0401,44.0623],[23.023,44.0316],[22.9881,44.0177],[22.9058,44.004],[22.8859,43.9945],[22.8505,43.897],[22.8634,43.8554],[22.9196,43.8342],[23.0526,43.8428],[23.1318,43.8479],[23.2345,43.8773],[23.3252,43.8866],[23.4847,43.8806],[23.5927,43.8374],[23.6209,43.834],[23.7208,43.8458],[23.7999,43.8185],[24.1496,43.7547],[24.3367,43.7593],[24.3755,43.7639],[24.4312,43.7942],[24.5001,43.7995],[24.6618,43.7557],[24.7526,43.7388],[24.9637,43.7496],[25.0816,43.7189],[25.2113,43.7119],[25.2854,43.6904],[25.3596,43.6543],[25.4031,43.6501],[25.4825,43.6697],[25.5566,43.6704],[25.6165,43.6877],[25.6714,43.7174],[25.7329,43.7188],[25.7811,43.732],[25.8063,43.7637],[25.8693,43.8009],[25.9164,43.8444],[25.934,43.8703],[26.0543,43.9343],[26.0793,43.969],[26.1162,43.9989],[26.1507,44.0124],[26.2315,44.0275],[26.3323,44.0549],[26.3496,44.0223],[26.3762,44.0195],[26.3963,43.9496],[26.4648,43.9468],[26.4916,43.925],[26.5457,43.9449],[26.586,43.919],[26.6172,43.8694],[26.7019,43.8476],[26.7355,43.8449],[26.7674,43.8072],[26.8372,43.8437],[26.8598,43.8062],[26.9031,43.7755],[26.9133,43.7414],[26.9313,43.75],[27.0008,43.6996],[27.0541,43.7216],[27.0941,43.7031],[27.1338,43.67],[27.2001,43.6689],[27.2562,43.6353],[27.2769,43.6049],[27.3059,43.5949],[27.3856,43.6094],[27.4088,43.5986],[27.4189,43.5712],[27.4585,43.5627],[27.4884,43.5321],[27.495,43.508],[27.5199,43.4992],[27.5779,43.5185],[27.6038,43.5419],[27.6382,43.5059],[27.678,43.4789],[27.7151,43.4733],[27.8087,43.3877],[27.8677,43.3654],[27.9338,43.3943],[27.9655,43.3928],[28.0135,43.3531],[28.087,43.3552],[28.0816,43.345],[28.1045,43.345],[28.131,43.3662],[28.1766,43.4026],[28.2076,43.4078],[28.2432,43.4078],[28.3065,43.4244],[28.3197,43.4266],[28.4239,43.3989],[28.4595,43.3807],[28.4732,43.3668],[28.4886,43.4064],[28.5603,43.4538],[28.6035,43.5382],[28.5731,43.6061],[28.5737,43.6221],[28.5863,43.7425],[28.5899,43.7981],[28.6297,43.9061],[28.6377,43.9186],[28.6712,44.0033],[28.6552,44.0515],[28.6523,44.1147],[28.7164,44.3902],[28.8271,44.4845],[28.844,44.4937],[28.9097,44.5842],[28.8724,44.5728],[28.806,44.5659],[28.8131,44.6018],[28.8365,44.6269],[28.8542,44.6343],[28.9242,44.6821],[28.9727,44.6702],[28.9387,44.6343],[28.9621,44.6394],[28.9876,44.6753],[28.9675,44.701],[28.8977,44.7168],[28.912,44.6964],[28.8695,44.6618],[28.8464,44.6567],[28.8484,44.6999],[28.8491,44.7164],[28.8564,44.7275],[28.8707,44.7494],[28.8757,44.7551],[28.8794,44.7566],[28.9461,44.7652],[28.9255,44.7837],[28.9524,44.8266],[28.9107,44.8571],[28.8993,44.8948],[29.0533,44.8466],[29.0603,44.8323],[29.0737,44.8348],[29.079,44.7983],[29.0509,44.7637],[28.9749,44.7449],[29.0007,44.6889],[29.0558,44.7352],[29.1309,44.772],[29.2822,44.7972],[29.3159,44.7988],[29.511,44.8205],[29.5618,44.8203],[29.6112,44.8493],[29.6052,44.88],[29.6304,44.9077],[29.6375,44.9837],[29.6563,45.029],[29.6622,45.0927],[29.6735,45.1377],[29.6765,45.1446],[29.6996,45.1618],[29.68,45.1632],[29.6879,45.1938],[29.6954,45.2213],[29.7088,45.2233],[29.7562,45.3212],[29.7502,45.3858],[29.73,45.4126],[29.7378,45.4201],[29.7559,45.4279],[29.7541,45.4356],[30.1793,45.842],[30.2049,45.8559],[30.2614,45.8955],[30.3025,45.9338],[30.4302,46.0375],[30.4942,46.0805],[30.4983,46.0881],[30.47,46.12],[30.4,46.22],[30.2,46.33],[30.124,46.4155],[30.1316,46.4228],[30.1123,46.4228],[30.0275,46.4536],[30.077,46.4228],[30.0141,46.462],[30.0217,46.4707],[29.9949,46.4985],[29.9706,46.4917],[29.9602,46.5059],[29.9161,46.5188],[29.8988,46.5531],[29.8673,46.5807],[29.8399,46.5825],[29.8232,46.6012],[29.7754,46.5807],[29.7276,46.5944],[29.7475,46.6176],[29.7754,46.6291],[29.7583,46.6588],[29.7276,46.6701],[29.6662,46.6763],[29.6516,46.6926],[29.6162,46.6986],[29.5701,46.7238],[29.5533,46.7671],[29.5029,46.7963],[29.4825,46.7929],[29.4504,46.8242],[29.441,46.8593],[29.4762,46.8897],[29.4706,46.9416],[29.4617,46.951],[29.4355,46.9575],[29.3757,46.9352],[29.3496,46.937],[29.3159,46.9587],[29.295,46.9922],[29.3409,46.992],[29.3724,47.0043],[29.3639,47.0332],[29.3806,47.0289],[29.3775,47.0708],[29.3293,47.1082],[29.295,47.122],[29.2922,47.1358],[29.2365,47.1624],[29.2267,47.1493],[29.2003,47.1631],[29.1789,47.1561],[29.1938,47.1238],[29.1892,47.1118],[29.1561,47.1136],[29.1243,47.0742],[29.0987,47.0921],[29.0691,47.1015],[29.1119,47.1499],[29.1444,47.1629],[29.1632,47.1919],[29.1789,47.1971],[29.1633,47.2308],[29.1633,47.2309],[29.151,47.2448],[29.1101,47.2336],[29.0737,47.2463],[29.0711,47.2958],[29.0217,47.3331],[28.9819,47.3633],[29.0084,47.3964],[29.0254,47.4009],[29.0514,47.3904],[29.0824,47.4064],[29.0901,47.4373],[29.108,47.4694],[29.0928,47.4874],[29.0486,47.5062],[29.0267,47.5295],[29.0157,47.5821],[28.9865,47.6223],[28.9954,47.6509],[28.9803,47.6874],[28.9756,47.7434],[28.9803,47.7656],[29.0175,47.8269],[29.0181,47.8535],[28.9803,47.8755],[28.9421,47.8832],[28.861,47.8997],[28.8289,47.9171],[28.8303,47.9411],[28.8128,47.9654],[28.7848,47.9828],[28.7556,47.9572],[28.7204,47.9527],[28.6832,47.9339],[28.6579,47.8987],[28.6568,47.8772],[28.6692,47.8581],[28.637,47.8421],[28.5692,47.8871],[28.5305,47.8929],[28.504,47.8833],[28.478,47.8886],[28.4962,47.9155],[28.5055,47.9587],[28.4965,47.9878],[28.4666,47.9972],[28.4813,48.0332],[28.5191,48.0523],[28.5434,48.088],[28.4998,48.1089],[28.49,48.0655],[28.4474,48.0828],[28.419,48.1222],[28.4369,48.1499],[28.4116,48.1707],[28.3886,48.1686],[28.3496,48.1297],[28.3174,48.1354],[28.3222,48.1632],[28.3634,48.191],[28.3682,48.2306],[28.3406,48.2401],[28.2945,48.2365],[28.2403,48.2116],[28.1999,48.2117],[28.1785,48.2589],[28.1311,48.2396],[28.0787,48.2449],[28.0983,48.2841],[28.0928,48.3021],[28.0559,48.3215],[28.0032,48.3259],[27.9264,48.3394],[27.8854,48.3784],[27.8499,48.4096],[27.7853,48.4416],[27.7518,48.452],[27.627,48.4513],[27.6069,48.4578],[27.6048,48.4841],[27.583,48.486],[27.5571,48.4744],[27.5038,48.4724],[27.4728,48.5472],[27.4382,48.6025],[27.4097,48.6207],[27.3704,48.6297],[27.3218,48.6009],[27.2947,48.6161],[27.2344,48.6185],[27.2618,48.5957],[27.2476,48.5704],[27.2141,48.5701],[27.1814,48.5819],[27.147,48.5819],[27.1134,48.5593],[26.9453,48.5814],[26.9247,48.5751],[26.885,48.5435],[26.8414,48.5463],[26.8226,48.5812],[26.8292,48.6018],[26.8081,48.6091],[26.7831,48.5935],[26.7876,48.5683],[26.7728,48.551],[26.7497,48.5616],[26.7406,48.5889],[26.7172,48.5948],[26.7161,48.5778],[26.7392,48.5577],[26.7218,48.5352],[26.6328,48.5624],[26.6144,48.5402],[26.6709,48.5267],[26.709,48.4969],[26.6436,48.4925],[26.6273,48.5084],[26.607,48.4923],[26.6219,48.4583],[26.5664,48.4574],[26.5399,48.4789],[26.5153,48.5149],[26.4706,48.5381],[26.404,48.5341],[26.3805,48.5171],[26.3266,48.5116],[26.2567,48.5334],[26.1809,48.5267],[26.1495,48.5396],[26.1458,48.5964],[26.1049,48.6111],[26.1058,48.5809],[26.1297,48.5546],[26.1172,48.5419],[26.0798,48.5473],[26.0526,48.5717],[26.0623,48.6284],[26.0491,48.6477],[26.0247,48.6214],[25.9856,48.6235],[25.9602,48.5964],[25.9116,48.5881],[25.863,48.6008],[25.8596,48.6187],[25.7935,48.6701],[25.7666,48.6576],[25.7533,48.6326],[25.7312,48.6352],[25.7151,48.6645],[25.6362,48.6781],[25.5724,48.6385],[25.565,48.621],[25.5777,48.5808],[25.6044,48.5324],[25.6004,48.4326],[25.5851,48.3929],[25.5637,48.389],[25.5132,48.4029],[25.4474,48.4],[25.3696,48.3802],[25.2926,48.3402],[25.1961,48.2568],[25.1364,48.2276],[25.137,48.1793],[25.1063,48.1695],[25.0545,48.1286],[25.0174,48.1186],[24.9892,48.1002],[24.9797,48.0707],[24.9345,48.0135],[24.9276,47.9896],[24.9348,47.9474],[24.9629,47.9125],[24.9826,47.8519],[24.9809,47.8284],[24.9341,47.7572],[24.9289,47.7139],[24.8778,47.7187],[24.8207,47.7841],[24.7937,47.8045],[24.7128,47.8259],[24.6615,47.8539],[24.6493,47.8952],[24.6085,47.9219],[24.5698,47.9373],[24.4856,47.9432],[24.4285,47.9525],[24.3862,47.9437],[24.3472,47.9209],[24.2979,47.9198],[24.231,47.897],[24.1312,47.9145],[24.0948,47.9379],[23.9773,47.9623],[23.8766,47.9344],[23.7801,47.9875],[23.7105,47.9851],[23.5632,48.0058],[23.5145,47.999],[23.4855,47.9742],[23.4608,47.9713],[23.396,47.9931],[23.3601,47.9931],[23.2314,48.0797],[23.1617,48.0959],[23.1186,48.0915],[23.099,48.0712],[23.0631,48.0075],[23.0203,47.9847],[22.9882,47.9864],[22.9393,48.0057],[22.9157,47.993],[22.9158,47.9592],[22.8776,47.9467],[22.8361,47.9025],[22.7796,47.8823],[22.7529,47.8612],[22.7603,47.8389],[22.7458,47.825],[22.6917,47.8107],[22.6377,47.7716],[22.6012,47.7609],[22.5285,47.761],[22.4544,47.7874],[22.4237,47.7826],[22.4073,47.7431],[22.3683,47.7312],[22.3221,47.7359],[22.2617,47.7158],[22.2042,47.6663],[22.1976,47.6393],[22.1676,47.5949],[22.1542,47.5822],[22.0996,47.5709],[22.0374,47.5393],[21.9889,47.4929],[22.0016,47.3938],[21.9815,47.3661],[21.937,47.3572],[21.9008,47.3357],[21.8622,47.2974],[21.8236,47.2149],[21.826,47.1851],[21.7799,47.1407],[21.7705,47.114],[21.7435,47.0916],[21.6942,47.0692],[21.6343,47.0194],[21.6675,46.9924],[21.6485,46.943],[21.5944,46.91],[21.5918,46.8607],[21.5731,46.8418],[21.5366,46.835],[21.5029,46.8053],[21.4705,46.743],[21.5017,46.7252],[21.5052,46.7232],[21.4836,46.6849],[21.4362,46.6737],[21.4235,46.6582],[21.396,46.6264],[21.3744,46.6184],[21.3162,46.6166],[21.301,46.6039],[21.2913,46.5467],[21.2476,46.4975],[21.2451,46.4769],[21.2744,46.4384],[21.2807,46.4164],[21.2575,46.4042],[21.1956,46.3981],[21.1687,46.3628],[21.1645,46.3183],[21.1349,46.2785],[21.0992,46.2764],[21.0515,46.2361],[21.0335,46.2313],[21.007,46.2489],[20.9617,46.2483],[20.9066,46.2622],[20.867,46.2571],[20.8397,46.2711],[20.7874,46.2634],[20.7393,46.2375],[20.7448,46.2003],[20.7178,46.19],[20.7044,46.1685],[20.6835,46.1447],[20.6076,46.1295],[20.549,46.1561],[20.4685,46.1741],[20.4442,46.1469],[20.2832,46.1438],[20.2428,46.1081]]]}},
{"type":"Feature","properties":{"entityId":"romania","from":1940,"to":1941,"certainty":"estimated","source":"유럽 쪽은 Natural Earth 1:10m admin-1(v5.1.2) 현대 행정구역 조각을 그 시기 국경에 맞춰 묶고, 조각이 역사 경계와 다른 곳은 선을 그어 나눈 근사. 유럽 밖(시베리아·중앙아시아·극동)은 대략적인 추정. 운영자 검수 필요"},"geometry":{"type":"Polygon","coordinates":[[[20.2428,46.1081],[20.3057,46.0536],[20.3386,45.9928],[20.371,45.9678],[20.4291,45.9467],[20.4817,45.9127],[20.538,45.9037],[20.5721,45.8877],[20.6053,45.8461],[20.6297,45.8333],[20.6435,45.7951],[20.6881,45.7431],[20.7134,45.7333],[20.7652,45.7668],[20.7857,45.7526],[20.78,45.6717],[20.7544,45.6056],[20.758,45.5893],[20.8002,45.5305],[20.7976,45.5165],[20.7607,45.4933],[20.7671,45.4793],[20.816,45.4629],[20.863,45.4187],[20.9276,45.3775],[20.9662,45.3416],[21.0167,45.3215],[21.064,45.3063],[21.0916,45.2881],[21.1394,45.3037],[21.2061,45.2459],[21.2571,45.2241],[21.2993,45.2232],[21.4055,45.1997],[21.4594,45.174],[21.4844,45.1527],[21.4941,45.1193],[21.4424,45.0929],[21.4438,45.0729],[21.4219,45.0314],[21.3634,45.0165],[21.3535,44.9898],[21.3839,44.9867],[21.4084,44.9583],[21.4565,44.9523],[21.5163,44.9339],[21.5391,44.9085],[21.5221,44.8808],[21.4534,44.8696],[21.3953,44.8716],[21.3685,44.8649],[21.3428,44.8319],[21.3598,44.8267],[21.3959,44.7902],[21.4972,44.778],[21.5584,44.7817],[21.5956,44.766],[21.6197,44.7139],[21.6563,44.6877],[21.7052,44.6771],[21.7568,44.6773],[21.8554,44.6985],[22.0043,44.6515],[22.0342,44.5962],[22.0362,44.5895],[22.0452,44.5692],[22.0763,44.5507],[22.1043,44.5096],[22.1482,44.5009],[22.1851,44.5151],[22.3197,44.6853],[22.3807,44.7005],[22.4261,44.7337],[22.4837,44.724],[22.5533,44.6692],[22.6212,44.6374],[22.7001,44.6306],[22.7652,44.5828],[22.7417,44.5519],[22.7001,44.5418],[22.6212,44.5692],[22.5656,44.5554],[22.5567,44.5215],[22.5355,44.5075],[22.4841,44.4998],[22.477,44.464],[22.501,44.4419],[22.5051,44.4041],[22.5494,44.349],[22.5828,44.3284],[22.6815,44.3053],[22.6895,44.2917],[22.6916,44.2284],[22.9064,44.1229],[23.0083,44.1004],[23.031,44.0931],[23.0401,44.0623],[23.023,44.0316],[22.9881,44.0177],[22.9058,44.004],[22.8859,43.9945],[22.8505,43.897],[22.8634,43.8554],[22.9196,43.8342],[23.0526,43.8428],[23.1318,43.8479],[23.2345,43.8773],[23.3252,43.8866],[23.4847,43.8806],[23.5927,43.8374],[23.6209,43.834],[23.7208,43.8458],[23.7999,43.8185],[24.1496,43.7547],[24.3367,43.7593],[24.3755,43.7639],[24.4312,43.7942],[24.5001,43.7995],[24.6618,43.7557],[24.7526,43.7388],[24.9637,43.7496],[25.0816,43.7189],[25.2113,43.7119],[25.2854,43.6904],[25.3596,43.6543],[25.4031,43.6501],[25.4825,43.6697],[25.5566,43.6704],[25.6165,43.6877],[25.6714,43.7174],[25.7329,43.7188],[25.7811,43.732],[25.8063,43.7637],[25.8693,43.8009],[25.9164,43.8444],[25.934,43.8703],[26.0543,43.9343],[26.0793,43.969],[26.1162,43.9989],[26.1507,44.0124],[26.2315,44.0275],[26.3323,44.0549],[26.4158,44.0638],[26.6142,44.0849],[26.7087,44.1081],[26.7895,44.116],[26.8841,44.1565],[27.0015,44.1651],[27.0275,44.177],[27.1002,44.1445],[27.2527,44.1215],[27.269,44.1124],[27.2643,44.0898],[27.2853,44.0725],[27.3417,44.0531],[27.3838,44.0151],[27.5745,44.0163],[27.6334,44.0298],[27.6563,44.0239],[27.6825,43.9873],[27.7217,43.9487],[27.7873,43.9604],[27.8565,43.9886],[27.9121,43.9933],[27.9358,43.9644],[27.981,43.8493],[28.0148,43.83],[28.2213,43.762],[28.4346,43.7352],[28.5784,43.7413],[28.5737,43.6221],[28.5863,43.7425],[28.5899,43.7981],[28.6297,43.9061],[28.6377,43.9186],[28.6712,44.0033],[28.6552,44.0515],[28.6523,44.1147],[28.7164,44.3902],[28.8271,44.4845],[28.844,44.4937],[28.9097,44.5842],[28.8724,44.5728],[28.806,44.5659],[28.8131,44.6018],[28.8365,44.6269],[28.8542,44.6343],[28.9242,44.6821],[28.9727,44.6702],[28.9387,44.6343],[28.9621,44.6394],[28.9876,44.6753],[28.9675,44.701],[28.8977,44.7168],[28.912,44.6964],[28.8695,44.6618],[28.8464,44.6567],[28.8484,44.6999],[28.8491,44.7164],[28.8564,44.7275],[28.8707,44.7494],[28.8757,44.7551],[28.8794,44.7566],[28.9461,44.7652],[28.9255,44.7837],[28.9524,44.8266],[28.9107,44.8571],[28.8993,44.8948],[29.0533,44.8466],[29.0603,44.8323],[29.0737,44.8348],[29.079,44.7983],[29.0509,44.7637],[28.9749,44.7449],[29.0007,44.6889],[29.0558,44.7352],[29.1309,44.772],[29.2822,44.7972],[29.3159,44.7988],[29.511,44.8205],[29.5618,44.8203],[29.6112,44.8493],[29.6052,44.88],[29.6304,44.9077],[29.6375,44.9837],[29.6563,45.029],[29.6622,45.0927],[29.6735,45.1377],[29.6765,45.1446],[29.6996,45.1618],[29.68,45.1632],[29.6879,45.1938],[29.6954,45.2213],[29.659,45.2159],[29.6723,45.2729],[29.6671,45.3119],[29.6503,45.3461],[29.5697,45.395],[29.4306,45.4304],[29.3537,45.4359],[29.3221,45.4438],[29.2818,45.4223],[29.2282,45.4237],[29.1743,45.389],[29.0695,45.3608],[29.0182,45.3309],[28.9665,45.3199],[28.9528,45.2851],[28.9299,45.2791],[28.8809,45.3062],[28.8163,45.3261],[28.7897,45.3214],[28.7902,45.2921],[28.7615,45.2818],[28.7673,45.2578],[28.8027,45.2442],[28.7787,45.2311],[28.7101,45.227],[28.577,45.2481],[28.4942,45.2789],[28.4052,45.2951],[28.3302,45.3229],[28.2812,45.4018],[28.2864,45.4217],[28.2669,45.4405],[28.2151,45.4504],[28.1995,45.4618],[28.1659,45.4946],[28.1654,45.5283],[28.1409,45.5602],[28.0621,45.5936],[28.1208,45.6277],[28.168,45.6325],[28.155,45.7618],[28.1133,45.8254],[28.1105,45.8543],[28.1311,45.8714],[28.1174,45.8952],[28.125,45.9184],[28.0861,46.0006],[28.0845,46.0246],[28.1078,46.0961],[28.1105,46.1015],[28.1447,46.1832],[28.109,46.2341],[28.1321,46.2399],[28.1352,46.2693],[28.1778,46.287],[28.1929,46.3112],[28.1879,46.3438],[28.2071,46.3582],[28.2129,46.3887],[28.2268,46.3955],[28.2261,46.4154],[28.2461,46.4279],[28.2458,46.4755],[28.219,46.5037],[28.2211,46.5412],[28.2341,46.5531],[28.2254,46.5696],[28.2471,46.6072],[28.2451,46.6315],[28.2341,46.6624],[28.1781,46.7398],[28.1782,46.7586],[28.1378,46.8062],[28.1226,46.8423],[28.105,46.9202],[28.0827,46.9715],[28.0381,47.0155],[28.028,47.033],[28.0083,47.0263],[27.9387,47.0466],[27.9384,47.0611],[27.8438,47.1144],[27.8499,47.1285],[27.8066,47.1446],[27.7883,47.2043],[27.7524,47.2389],[27.7536,47.2514],[27.7228,47.2833],[27.6369,47.3067],[27.5887,47.3674],[27.5724,47.3752],[27.5803,47.406],[27.5625,47.4165],[27.583,47.4507],[27.5482,47.4743],[27.5072,47.478],[27.4731,47.4918],[27.4595,47.5332],[27.4461,47.5349],[27.4313,47.5726],[27.4294,47.5781],[27.3692,47.6083],[27.304,47.6665],[27.272,47.715],[27.2951,47.7182],[27.2881,47.7507],[27.2647,47.7646],[27.2192,47.8138],[27.2534,47.8281],[27.2124,47.8479],[27.2124,47.8895],[27.1607,47.9217],[27.1783,47.9421],[27.151,47.9578],[27.1698,47.9738],[27.1437,47.9868],[27.1215,48.0132],[27.0958,48.0056],[27.089,48.0198],[27.1093,48.0335],[27.0592,48.0581],[27.0343,48.1018],[27.048,48.1214],[27.0251,48.135],[27.0127,48.1281],[26.9666,48.1434],[26.9976,48.1666],[26.9631,48.1754],[26.9381,48.2048],[26.908,48.1845],[26.8977,48.209],[26.8555,48.2378],[26.8447,48.2333],[26.8049,48.2583],[26.744,48.2556],[26.6885,48.2748],[26.6657,48.2742],[26.6179,48.259],[26.5874,48.2494],[26.4447,48.2277],[26.3974,48.2262],[26.3303,48.2085],[26.3035,48.212],[26.287,48.1247],[26.2553,48.0723],[26.2048,48.0374],[26.1731,47.9931],[26.1025,47.9783],[26.0293,47.9778],[25.9657,47.9649],[25.9181,47.9682],[25.8184,47.9526],[25.7525,47.9346],[25.2617,47.8986],[25.219,47.8785],[25.1219,47.7703],[25.0799,47.7429],[25.0174,47.7246],[24.9424,47.7156],[24.9788,47.6626],[25.0219,47.6322],[25.0323,47.6123],[25.0158,47.5965],[24.9562,47.5823],[25.0461,47.5297],[25.0842,47.4938],[25.0905,47.4715],[25.0726,47.4495],[25.0373,47.4302],[25.0494,47.3999],[25.007,47.3926],[25.004,47.3792],[25.0404,47.3429],[25.0568,47.3153],[25.0292,47.2576],[25.0391,47.2372],[25.0765,47.2283],[25.0632,47.1728],[25.0686,47.103],[25.1589,47.0914],[25.2047,47.0764],[25.2419,47.0663],[25.2826,47.0704],[25.3118,47.123],[25.3725,47.1403],[25.4069,47.1348],[25.5189,47.0824],[25.5521,47.0559],[25.5836,47.0473],[25.6713,47.0579],[25.7371,47.039],[25.7627,47.0125],[25.7918,46.9661],[25.8658,46.9128],[25.8668,46.8837],[25.832,46.8853],[25.8165,46.8592],[25.8282,46.6936],[25.8409,46.6702],[25.889,46.6348],[25.915,46.6356],[25.907,46.6748],[25.9271,46.6819],[26.0088,46.668],[26.012,46.5936],[26.0289,46.5485],[26.0691,46.4986],[26.0699,46.4872],[26.0325,46.4683],[26.0189,46.4268],[26.0387,46.4033],[26.1326,46.3907],[26.1619,46.3731],[26.1682,46.35],[26.1595,46.3125],[26.1823,46.3057],[26.2471,46.3266],[26.2927,46.3197],[26.3002,46.302],[26.2869,46.2762],[26.2799,46.2265],[26.259,46.1881],[26.2516,46.1503],[26.2932,46.1601],[26.325,46.1794],[26.4001,46.1445],[26.4149,46.128],[26.4021,46.0943],[26.4406,46.0748],[26.4681,46.0274],[26.4848,46.0212],[26.4209,45.9505],[26.4048,45.9175],[26.3804,45.8029],[26.395,45.7498],[26.3667,45.6852],[26.3427,45.6553],[26.3286,45.6181],[26.2847,45.6028],[26.2346,45.6256],[26.2156,45.6122],[26.2075,45.5832],[26.1889,45.5745],[26.1005,45.5644],[26.0482,45.6141],[25.9804,45.6451],[25.9495,45.6844],[25.8947,45.7178],[25.8018,45.7424],[25.7686,45.7653],[25.7189,45.752],[25.671,45.7516],[25.669,45.785],[25.6377,45.8081],[25.5673,45.841],[25.554,45.8697],[25.5526,45.9349],[25.5584,45.988],[25.571,46.0214],[25.5548,46.0457],[25.5059,46.0427],[25.4598,46.0727],[25.4545,46.1059],[25.4272,46.1272],[25.3828,46.1383],[25.3302,46.1646],[25.2965,46.1669],[25.2416,46.1495],[25.1881,46.1434],[25.1096,46.2016],[25.0565,46.2303],[24.9933,46.2335],[24.9556,46.2494],[24.8767,46.3163],[24.8771,46.3205],[24.7,46.35],[24.45,46.4],[24.2,46.48],[23.95,46.55],[23.75,46.65],[23.5,46.62],[23.2,46.6],[22.9,46.7],[22.6,46.75],[22.3,46.85],[22,46.85],[21.7,46.75],[21.5017,46.7252],[21.5052,46.7232],[21.4836,46.6849],[21.4362,46.6737],[21.4235,46.6582],[21.396,46.6264],[21.3744,46.6184],[21.3162,46.6166],[21.301,46.6039],[21.2913,46.5467],[21.2476,46.4975],[21.2451,46.4769],[21.2744,46.4384],[21.2807,46.4164],[21.2575,46.4042],[21.1956,46.3981],[21.1687,46.3628],[21.1645,46.3183],[21.1349,46.2785],[21.0992,46.2764],[21.0515,46.2361],[21.0335,46.2313],[21.007,46.2489],[20.9617,46.2483],[20.9066,46.2622],[20.867,46.2571],[20.8397,46.2711],[20.7874,46.2634],[20.7393,46.2375],[20.7448,46.2003],[20.7178,46.19],[20.7044,46.1685],[20.6835,46.1447],[20.6076,46.1295],[20.549,46.1561],[20.4685,46.1741],[20.4442,46.1469],[20.2832,46.1438],[20.2428,46.1081]]]}},
{"type":"Feature","properties":{"entityId":"romania","from":1941,"to":1944,"certainty":"estimated","source":"유럽 쪽은 Natural Earth 1:10m admin-1(v5.1.2) 현대 행정구역 조각을 그 시기 국경에 맞춰 묶고, 조각이 역사 경계와 다른 곳은 선을 그어 나눈 근사. 유럽 밖(시베리아·중앙아시아·극동)은 대략적인 추정. 운영자 검수 필요"},"geometry":{"type":"Polygon","coordinates":[[[20.2428,46.1081],[20.3057,46.0536],[20.3386,45.9928],[20.371,45.9678],[20.4291,45.9467],[20.4817,45.9127],[20.538,45.9037],[20.5721,45.8877],[20.6053,45.8461],[20.6297,45.8333],[20.6435,45.7951],[20.6881,45.7431],[20.7134,45.7333],[20.7652,45.7668],[20.7857,45.7526],[20.78,45.6717],[20.7544,45.6056],[20.758,45.5893],[20.8002,45.5305],[20.7976,45.5165],[20.7607,45.4933],[20.7671,45.4793],[20.816,45.4629],[20.863,45.4187],[20.9276,45.3775],[20.9662,45.3416],[21.0167,45.3215],[21.064,45.3063],[21.0916,45.2881],[21.1394,45.3037],[21.2061,45.2459],[21.2571,45.2241],[21.2993,45.2232],[21.4055,45.1997],[21.4594,45.174],[21.4844,45.1527],[21.4941,45.1193],[21.4424,45.0929],[21.4438,45.0729],[21.4219,45.0314],[21.3634,45.0165],[21.3535,44.9898],[21.3839,44.9867],[21.4084,44.9583],[21.4565,44.9523],[21.5163,44.9339],[21.5391,44.9085],[21.5221,44.8808],[21.4534,44.8696],[21.3953,44.8716],[21.3685,44.8649],[21.3428,44.8319],[21.3598,44.8267],[21.3959,44.7902],[21.4972,44.778],[21.5584,44.7817],[21.5956,44.766],[21.6197,44.7139],[21.6563,44.6877],[21.7052,44.6771],[21.7568,44.6773],[21.8554,44.6985],[22.0043,44.6515],[22.0342,44.5962],[22.0362,44.5895],[22.0452,44.5692],[22.0763,44.5507],[22.1043,44.5096],[22.1482,44.5009],[22.1851,44.5151],[22.3197,44.6853],[22.3807,44.7005],[22.4261,44.7337],[22.4837,44.724],[22.5533,44.6692],[22.6212,44.6374],[22.7001,44.6306],[22.7652,44.5828],[22.7417,44.5519],[22.7001,44.5418],[22.6212,44.5692],[22.5656,44.5554],[22.5567,44.5215],[22.5355,44.5075],[22.4841,44.4998],[22.477,44.464],[22.501,44.4419],[22.5051,44.4041],[22.5494,44.349],[22.5828,44.3284],[22.6815,44.3053],[22.6895,44.2917],[22.6916,44.2284],[22.9064,44.1229],[23.0083,44.1004],[23.031,44.0931],[23.0401,44.0623],[23.023,44.0316],[22.9881,44.0177],[22.9058,44.004],[22.8859,43.9945],[22.8505,43.897],[22.8634,43.8554],[22.9196,43.8342],[23.0526,43.8428],[23.1318,43.8479],[23.2345,43.8773],[23.3252,43.8866],[23.4847,43.8806],[23.5927,43.8374],[23.6209,43.834],[23.7208,43.8458],[23.7999,43.8185],[24.1496,43.7547],[24.3367,43.7593],[24.3755,43.7639],[24.4312,43.7942],[24.5001,43.7995],[24.6618,43.7557],[24.7526,43.7388],[24.9637,43.7496],[25.0816,43.7189],[25.2113,43.7119],[25.2854,43.6904],[25.3596,43.6543],[25.4031,43.6501],[25.4825,43.6697],[25.5566,43.6704],[25.6165,43.6877],[25.6714,43.7174],[25.7329,43.7188],[25.7811,43.732],[25.8063,43.7637],[25.8693,43.8009],[25.9164,43.8444],[25.934,43.8703],[26.0543,43.9343],[26.0793,43.969],[26.1162,43.9989],[26.1507,44.0124],[26.2315,44.0275],[26.3323,44.0549],[26.4158,44.0638],[26.6142,44.0849],[26.7087,44.1081],[26.7895,44.116],[26.8841,44.1565],[27.0015,44.1651],[27.0275,44.177],[27.1002,44.1445],[27.2527,44.1215],[27.269,44.1124],[27.2643,44.0898],[27.2853,44.0725],[27.3417,44.0531],[27.3838,44.0151],[27.5745,44.0163],[27.6334,44.0298],[27.6563,44.0239],[27.6825,43.9873],[27.7217,43.9487],[27.7873,43.9604],[27.8565,43.9886],[27.9121,43.9933],[27.9358,43.9644],[27.981,43.8493],[28.0148,43.83],[28.2213,43.762],[28.4346,43.7352],[28.5784,43.7413],[28.5737,43.6221],[28.5863,43.7425],[28.5899,43.7981],[28.6297,43.9061],[28.6377,43.9186],[28.6712,44.0033],[28.6552,44.0515],[28.6523,44.1147],[28.7164,44.3902],[28.8271,44.4845],[28.844,44.4937],[28.9097,44.5842],[28.8724,44.5728],[28.806,44.5659],[28.8131,44.6018],[28.8365,44.6269],[28.8542,44.6343],[28.9242,44.6821],[28.9727,44.6702],[28.9387,44.6343],[28.9621,44.6394],[28.9876,44.6753],[28.9675,44.701],[28.8977,44.7168],[28.912,44.6964],[28.8695,44.6618],[28.8464,44.6567],[28.8484,44.6999],[28.8491,44.7164],[28.8564,44.7275],[28.8707,44.7494],[28.8757,44.7551],[28.8794,44.7566],[28.9461,44.7652],[28.9255,44.7837],[28.9524,44.8266],[28.9107,44.8571],[28.8993,44.8948],[29.0533,44.8466],[29.0603,44.8323],[29.0737,44.8348],[29.079,44.7983],[29.0509,44.7637],[28.9749,44.7449],[29.0007,44.6889],[29.0558,44.7352],[29.1309,44.772],[29.2822,44.7972],[29.3159,44.7988],[29.511,44.8205],[29.5618,44.8203],[29.6112,44.8493],[29.6052,44.88],[29.6304,44.9077],[29.6375,44.9837],[29.6563,45.029],[29.6622,45.0927],[29.6735,45.1377],[29.6765,45.1446],[29.6996,45.1618],[29.68,45.1632],[29.6879,45.1938],[29.6954,45.2213],[29.7088,45.2233],[29.7562,45.3212],[29.7502,45.3858],[29.73,45.4126],[29.7378,45.4201],[29.7559,45.4279],[29.7541,45.4356],[30.1793,45.842],[30.2049,45.8559],[30.2614,45.8955],[30.3025,45.9338],[30.4302,46.0375],[30.4942,46.0805],[30.4983,46.0881],[30.47,46.12],[30.4,46.22],[30.2,46.33],[30.124,46.4155],[30.1316,46.4228],[30.1123,46.4228],[30.0275,46.4536],[30.077,46.4228],[30.0141,46.462],[30.0217,46.4707],[29.9949,46.4985],[29.9706,46.4917],[29.9602,46.5059],[29.9161,46.5188],[29.8988,46.5531],[29.8673,46.5807],[29.8399,46.5825],[29.8232,46.6012],[29.7754,46.5807],[29.7276,46.5944],[29.7475,46.6176],[29.7754,46.6291],[29.7583,46.6588],[29.7276,46.6701],[29.6662,46.6763],[29.6516,46.6926],[29.6162,46.6986],[29.5701,46.7238],[29.5533,46.7671],[29.5029,46.7963],[29.4825,46.7929],[29.4504,46.8242],[29.441,46.8593],[29.4762,46.8897],[29.4706,46.9416],[29.4617,46.951],[29.4355,46.9575],[29.3757,46.9352],[29.3496,46.937],[29.3159,46.9587],[29.295,46.9922],[29.3409,46.992],[29.3724,47.0043],[29.3639,47.0332],[29.3806,47.0289],[29.3775,47.0708],[29.3293,47.1082],[29.295,47.122],[29.2922,47.1358],[29.2365,47.1624],[29.2267,47.1493],[29.2003,47.1631],[29.1789,47.1561],[29.1938,47.1238],[29.1892,47.1118],[29.1561,47.1136],[29.1243,47.0742],[29.0987,47.0921],[29.0691,47.1015],[29.1119,47.1499],[29.1444,47.1629],[29.1632,47.1919],[29.1789,47.1971],[29.1633,47.2308],[29.1633,47.2309],[29.151,47.2448],[29.1101,47.2336],[29.0737,47.2463],[29.0711,47.2958],[29.0217,47.3331],[28.9819,47.3633],[29.0084,47.3964],[29.0254,47.4009],[29.0514,47.3904],[29.0824,47.4064],[29.0901,47.4373],[29.108,47.4694],[29.0928,47.4874],[29.0486,47.5062],[29.0267,47.5295],[29.0157,47.5821],[28.9865,47.6223],[28.9954,47.6509],[28.9803,47.6874],[28.9756,47.7434],[28.9803,47.7656],[29.0175,47.8269],[29.0181,47.8535],[28.9803,47.8755],[28.9421,47.8832],[28.861,47.8997],[28.8289,47.9171],[28.8303,47.9411],[28.8128,47.9654],[28.7848,47.9828],[28.7556,47.9572],[28.7204,47.9527],[28.6832,47.9339],[28.6579,47.8987],[28.6568,47.8772],[28.6692,47.8581],[28.637,47.8421],[28.5692,47.8871],[28.5305,47.8929],[28.504,47.8833],[28.478,47.8886],[28.4962,47.9155],[28.5055,47.9587],[28.4965,47.9878],[28.4666,47.9972],[28.4813,48.0332],[28.5191,48.0523],[28.5434,48.088],[28.4998,48.1089],[28.49,48.0655],[28.4474,48.0828],[28.419,48.1222],[28.4369,48.1499],[28.4116,48.1707],[28.3886,48.1686],[28.3496,48.1297],[28.3174,48.1354],[28.3222,48.1632],[28.3634,48.191],[28.3682,48.2306],[28.3406,48.2401],[28.2945,48.2365],[28.2403,48.2116],[28.1999,48.2117],[28.1785,48.2589],[28.1311,48.2396],[28.0787,48.2449],[28.0983,48.2841],[28.0928,48.3021],[28.0559,48.3215],[28.0032,48.3259],[27.9264,48.3394],[27.8854,48.3784],[27.8499,48.4096],[27.7853,48.4416],[27.7518,48.452],[27.627,48.4513],[27.6069,48.4578],[27.6048,48.4841],[27.583,48.486],[27.5571,48.4744],[27.5038,48.4724],[27.4728,48.5472],[27.4382,48.6025],[27.4097,48.6207],[27.3704,48.6297],[27.3218,48.6009],[27.2947,48.6161],[27.2344,48.6185],[27.2618,48.5957],[27.2476,48.5704],[27.2141,48.5701],[27.1814,48.5819],[27.147,48.5819],[27.1134,48.5593],[26.9453,48.5814],[26.9247,48.5751],[26.885,48.5435],[26.8414,48.5463],[26.8226,48.5812],[26.8292,48.6018],[26.8081,48.6091],[26.7831,48.5935],[26.7876,48.5683],[26.7728,48.551],[26.7497,48.5616],[26.7406,48.5889],[26.7172,48.5948],[26.7161,48.5778],[26.7392,48.5577],[26.7218,48.5352],[26.6328,48.5624],[26.6144,48.5402],[26.6709,48.5267],[26.709,48.4969],[26.6436,48.4925],[26.6273,48.5084],[26.607,48.4923],[26.6219,48.4583],[26.5664,48.4574],[26.5399,48.4789],[26.5153,48.5149],[26.4706,48.5381],[26.404,48.5341],[26.3805,48.5171],[26.3266,48.5116],[26.2567,48.5334],[26.1809,48.5267],[26.1495,48.5396],[26.1458,48.5964],[26.1049,48.6111],[26.1058,48.5809],[26.1297,48.5546],[26.1172,48.5419],[26.0798,48.5473],[26.0526,48.5717],[26.0623,48.6284],[26.0491,48.6477],[26.0247,48.6214],[25.9856,48.6235],[25.9602,48.5964],[25.9116,48.5881],[25.863,48.6008],[25.8596,48.6187],[25.7935,48.6701],[25.7666,48.6576],[25.7533,48.6326],[25.7312,48.6352],[25.7151,48.6645],[25.6362,48.6781],[25.5724,48.6385],[25.565,48.621],[25.5777,48.5808],[25.6044,48.5324],[25.6004,48.4326],[25.5851,48.3929],[25.5637,48.389],[25.5132,48.4029],[25.4474,48.4],[25.3696,48.3802],[25.2926,48.3402],[25.1961,48.2568],[25.1364,48.2276],[25.137,48.1793],[25.1063,48.1695],[25.0545,48.1286],[25.0174,48.1186],[24.9892,48.1002],[24.9797,48.0707],[24.9345,48.0135],[24.9276,47.9896],[24.9348,47.9474],[24.9629,47.9125],[24.9826,47.8519],[24.9809,47.8284],[24.9341,47.7572],[24.9289,47.7139],[24.9424,47.7156],[24.9788,47.6626],[25.0219,47.6322],[25.0323,47.6123],[25.0158,47.5965],[24.9562,47.5823],[25.0461,47.5297],[25.0842,47.4938],[25.0905,47.4715],[25.0726,47.4495],[25.0373,47.4302],[25.0494,47.3999],[25.007,47.3926],[25.004,47.3792],[25.0404,47.3429],[25.0568,47.3153],[25.0292,47.2576],[25.0391,47.2372],[25.0765,47.2283],[25.0632,47.1728],[25.0686,47.103],[25.1589,47.0914],[25.2047,47.0764],[25.2419,47.0663],[25.2826,47.0704],[25.3118,47.123],[25.3725,47.1403],[25.4069,47.1348],[25.5189,47.0824],[25.5521,47.0559],[25.5836,47.0473],[25.6713,47.0579],[25.7371,47.039],[25.7627,47.0125],[25.7918,46.9661],[25.8658,46.9128],[25.8668,46.8837],[25.832,46.8853],[25.8165,46.8592],[25.8282,46.6936],[25.8409,46.6702],[25.889,46.6348],[25.915,46.6356],[25.907,46.6748],[25.9271,46.6819],[26.0088,46.668],[26.012,46.5936],[26.0289,46.5485],[26.0691,46.4986],[26.0699,46.4872],[26.0325,46.4683],[26.0189,46.4268],[26.0387,46.4033],[26.1326,46.3907],[26.1619,46.3731],[26.1682,46.35],[26.1595,46.3125],[26.1823,46.3057],[26.2471,46.3266],[26.2927,46.3197],[26.3002,46.302],[26.2869,46.2762],[26.2799,46.2265],[26.259,46.1881],[26.2516,46.1503],[26.2932,46.1601],[26.325,46.1794],[26.4001,46.1445],[26.4149,46.128],[26.4021,46.0943],[26.4406,46.0748],[26.4681,46.0274],[26.4848,46.0212],[26.4209,45.9505],[26.4048,45.9175],[26.3804,45.8029],[26.395,45.7498],[26.3667,45.6852],[26.3427,45.6553],[26.3286,45.6181],[26.2847,45.6028],[26.2346,45.6256],[26.2156,45.6122],[26.2075,45.5832],[26.1889,45.5745],[26.1005,45.5644],[26.0482,45.6141],[25.9804,45.6451],[25.9495,45.6844],[25.8947,45.7178],[25.8018,45.7424],[25.7686,45.7653],[25.7189,45.752],[25.671,45.7516],[25.669,45.785],[25.6377,45.8081],[25.5673,45.841],[25.554,45.8697],[25.5526,45.9349],[25.5584,45.988],[25.571,46.0214],[25.5548,46.0457],[25.5059,46.0427],[25.4598,46.0727],[25.4545,46.1059],[25.4272,46.1272],[25.3828,46.1383],[25.3302,46.1646],[25.2965,46.1669],[25.2416,46.1495],[25.1881,46.1434],[25.1096,46.2016],[25.0565,46.2303],[24.9933,46.2335],[24.9556,46.2494],[24.8767,46.3163],[24.8771,46.3205],[24.7,46.35],[24.45,46.4],[24.2,46.48],[23.95,46.55],[23.75,46.65],[23.5,46.62],[23.2,46.6],[22.9,46.7],[22.6,46.75],[22.3,46.85],[22,46.85],[21.7,46.75],[21.5017,46.7252],[21.5052,46.7232],[21.4836,46.6849],[21.4362,46.6737],[21.4235,46.6582],[21.396,46.6264],[21.3744,46.6184],[21.3162,46.6166],[21.301,46.6039],[21.2913,46.5467],[21.2476,46.4975],[21.2451,46.4769],[21.2744,46.4384],[21.2807,46.4164],[21.2575,46.4042],[21.1956,46.3981],[21.1687,46.3628],[21.1645,46.3183],[21.1349,46.2785],[21.0992,46.2764],[21.0515,46.2361],[21.0335,46.2313],[21.007,46.2489],[20.9617,46.2483],[20.9066,46.2622],[20.867,46.2571],[20.8397,46.2711],[20.7874,46.2634],[20.7393,46.2375],[20.7448,46.2003],[20.7178,46.19],[20.7044,46.1685],[20.6835,46.1447],[20.6076,46.1295],[20.549,46.1561],[20.4685,46.1741],[20.4442,46.1469],[20.2832,46.1438],[20.2428,46.1081]]]}},
{"type":"Feature","properties":{"entityId":"romania","from":1944,"to":null,"certainty":"estimated","source":"유럽 쪽은 Natural Earth 1:10m admin-1(v5.1.2) 현대 행정구역 조각을 그 시기 국경에 맞춰 묶고, 조각이 역사 경계와 다른 곳은 선을 그어 나눈 근사. 유럽 밖(시베리아·중앙아시아·극동)은 대략적인 추정. 운영자 검수 필요"},"geometry":{"type":"Polygon","coordinates":[[[20.2428,46.1081],[20.3057,46.0536],[20.3386,45.9928],[20.371,45.9678],[20.4291,45.9467],[20.4817,45.9127],[20.538,45.9037],[20.5721,45.8877],[20.6053,45.8461],[20.6297,45.8333],[20.6435,45.7951],[20.6881,45.7431],[20.7134,45.7333],[20.7652,45.7668],[20.7857,45.7526],[20.78,45.6717],[20.7544,45.6056],[20.758,45.5893],[20.8002,45.5305],[20.7976,45.5165],[20.7607,45.4933],[20.7671,45.4793],[20.816,45.4629],[20.863,45.4187],[20.9276,45.3775],[20.9662,45.3416],[21.0167,45.3215],[21.064,45.3063],[21.0916,45.2881],[21.1394,45.3037],[21.2061,45.2459],[21.2571,45.2241],[21.2993,45.2232],[21.4055,45.1997],[21.4594,45.174],[21.4844,45.1527],[21.4941,45.1193],[21.4424,45.0929],[21.4438,45.0729],[21.4219,45.0314],[21.3634,45.0165],[21.3535,44.9898],[21.3839,44.9867],[21.4084,44.9583],[21.4565,44.9523],[21.5163,44.9339],[21.5391,44.9085],[21.5221,44.8808],[21.4534,44.8696],[21.3953,44.8716],[21.3685,44.8649],[21.3428,44.8319],[21.3598,44.8267],[21.3959,44.7902],[21.4972,44.778],[21.5584,44.7817],[21.5956,44.766],[21.6197,44.7139],[21.6563,44.6877],[21.7052,44.6771],[21.7568,44.6773],[21.8554,44.6985],[22.0043,44.6515],[22.0342,44.5962],[22.0362,44.5895],[22.0452,44.5692],[22.0763,44.5507],[22.1043,44.5096],[22.1482,44.5009],[22.1851,44.5151],[22.3197,44.6853],[22.3807,44.7005],[22.4261,44.7337],[22.4837,44.724],[22.5533,44.6692],[22.6212,44.6374],[22.7001,44.6306],[22.7652,44.5828],[22.7417,44.5519],[22.7001,44.5418],[22.6212,44.5692],[22.5656,44.5554],[22.5567,44.5215],[22.5355,44.5075],[22.4841,44.4998],[22.477,44.464],[22.501,44.4419],[22.5051,44.4041],[22.5494,44.349],[22.5828,44.3284],[22.6815,44.3053],[22.6895,44.2917],[22.6916,44.2284],[22.9064,44.1229],[23.0083,44.1004],[23.031,44.0931],[23.0401,44.0623],[23.023,44.0316],[22.9881,44.0177],[22.9058,44.004],[22.8859,43.9945],[22.8505,43.897],[22.8634,43.8554],[22.9196,43.8342],[23.0526,43.8428],[23.1318,43.8479],[23.2345,43.8773],[23.3252,43.8866],[23.4847,43.8806],[23.5927,43.8374],[23.6209,43.834],[23.7208,43.8458],[23.7999,43.8185],[24.1496,43.7547],[24.3367,43.7593],[24.3755,43.7639],[24.4312,43.7942],[24.5001,43.7995],[24.6618,43.7557],[24.7526,43.7388],[24.9637,43.7496],[25.0816,43.7189],[25.2113,43.7119],[25.2854,43.6904],[25.3596,43.6543],[25.4031,43.6501],[25.4825,43.6697],[25.5566,43.6704],[25.6165,43.6877],[25.6714,43.7174],[25.7329,43.7188],[25.7811,43.732],[25.8063,43.7637],[25.8693,43.8009],[25.9164,43.8444],[25.934,43.8703],[26.0543,43.9343],[26.0793,43.969],[26.1162,43.9989],[26.1507,44.0124],[26.2315,44.0275],[26.3323,44.0549],[26.4158,44.0638],[26.6142,44.0849],[26.7087,44.1081],[26.7895,44.116],[26.8841,44.1565],[27.0015,44.1651],[27.0275,44.177],[27.1002,44.1445],[27.2527,44.1215],[27.269,44.1124],[27.2643,44.0898],[27.2853,44.0725],[27.3417,44.0531],[27.3838,44.0151],[27.5745,44.0163],[27.6334,44.0298],[27.6563,44.0239],[27.6825,43.9873],[27.7217,43.9487],[27.7873,43.9604],[27.8565,43.9886],[27.9121,43.9933],[27.9358,43.9644],[27.981,43.8493],[28.0148,43.83],[28.2213,43.762],[28.4346,43.7352],[28.5784,43.7413],[28.5737,43.6221],[28.5863,43.7425],[28.5899,43.7981],[28.6297,43.9061],[28.6377,43.9186],[28.6712,44.0033],[28.6552,44.0515],[28.6523,44.1147],[28.7164,44.3902],[28.8271,44.4845],[28.844,44.4937],[28.9097,44.5842],[28.8724,44.5728],[28.806,44.5659],[28.8131,44.6018],[28.8365,44.6269],[28.8542,44.6343],[28.9242,44.6821],[28.9727,44.6702],[28.9387,44.6343],[28.9621,44.6394],[28.9876,44.6753],[28.9675,44.701],[28.8977,44.7168],[28.912,44.6964],[28.8695,44.6618],[28.8464,44.6567],[28.8484,44.6999],[28.8491,44.7164],[28.8564,44.7275],[28.8707,44.7494],[28.8757,44.7551],[28.8794,44.7566],[28.9461,44.7652],[28.9255,44.7837],[28.9524,44.8266],[28.9107,44.8571],[28.8993,44.8948],[29.0533,44.8466],[29.0603,44.8323],[29.0737,44.8348],[29.079,44.7983],[29.0509,44.7637],[28.9749,44.7449],[29.0007,44.6889],[29.0558,44.7352],[29.1309,44.772],[29.2822,44.7972],[29.3159,44.7988],[29.511,44.8205],[29.5618,44.8203],[29.6112,44.8493],[29.6052,44.88],[29.6304,44.9077],[29.6375,44.9837],[29.6563,45.029],[29.6622,45.0927],[29.6735,45.1377],[29.6765,45.1446],[29.6996,45.1618],[29.68,45.1632],[29.6879,45.1938],[29.6954,45.2213],[29.659,45.2159],[29.6723,45.2729],[29.6671,45.3119],[29.6503,45.3461],[29.5697,45.395],[29.4306,45.4304],[29.3537,45.4359],[29.3221,45.4438],[29.2818,45.4223],[29.2282,45.4237],[29.1743,45.389],[29.0695,45.3608],[29.0182,45.3309],[28.9665,45.3199],[28.9528,45.2851],[28.9299,45.2791],[28.8809,45.3062],[28.8163,45.3261],[28.7897,45.3214],[28.7902,45.2921],[28.7615,45.2818],[28.7673,45.2578],[28.8027,45.2442],[28.7787,45.2311],[28.7101,45.227],[28.577,45.2481],[28.4942,45.2789],[28.4052,45.2951],[28.3302,45.3229],[28.2812,45.4018],[28.2864,45.4217],[28.2669,45.4405],[28.2151,45.4504],[28.1995,45.4618],[28.1659,45.4946],[28.1654,45.5283],[28.1409,45.5602],[28.0621,45.5936],[28.1208,45.6277],[28.168,45.6325],[28.155,45.7618],[28.1133,45.8254],[28.1105,45.8543],[28.1311,45.8714],[28.1174,45.8952],[28.125,45.9184],[28.0861,46.0006],[28.0845,46.0246],[28.1078,46.0961],[28.1105,46.1015],[28.1447,46.1832],[28.109,46.2341],[28.1321,46.2399],[28.1352,46.2693],[28.1778,46.287],[28.1929,46.3112],[28.1879,46.3438],[28.2071,46.3582],[28.2129,46.3887],[28.2268,46.3955],[28.2261,46.4154],[28.2461,46.4279],[28.2458,46.4755],[28.219,46.5037],[28.2211,46.5412],[28.2341,46.5531],[28.2254,46.5696],[28.2471,46.6072],[28.2451,46.6315],[28.2341,46.6624],[28.1781,46.7398],[28.1782,46.7586],[28.1378,46.8062],[28.1226,46.8423],[28.105,46.9202],[28.0827,46.9715],[28.0381,47.0155],[28.028,47.033],[28.0083,47.0263],[27.9387,47.0466],[27.9384,47.0611],[27.8438,47.1144],[27.8499,47.1285],[27.8066,47.1446],[27.7883,47.2043],[27.7524,47.2389],[27.7536,47.2514],[27.7228,47.2833],[27.6369,47.3067],[27.5887,47.3674],[27.5724,47.3752],[27.5803,47.406],[27.5625,47.4165],[27.583,47.4507],[27.5482,47.4743],[27.5072,47.478],[27.4731,47.4918],[27.4595,47.5332],[27.4461,47.5349],[27.4313,47.5726],[27.4294,47.5781],[27.3692,47.6083],[27.304,47.6665],[27.272,47.715],[27.2951,47.7182],[27.2881,47.7507],[27.2647,47.7646],[27.2192,47.8138],[27.2534,47.8281],[27.2124,47.8479],[27.2124,47.8895],[27.1607,47.9217],[27.1783,47.9421],[27.151,47.9578],[27.1698,47.9738],[27.1437,47.9868],[27.1215,48.0132],[27.0958,48.0056],[27.089,48.0198],[27.1093,48.0335],[27.0592,48.0581],[27.0343,48.1018],[27.048,48.1214],[27.0251,48.135],[27.0127,48.1281],[26.9666,48.1434],[26.9976,48.1666],[26.9631,48.1754],[26.9381,48.2048],[26.908,48.1845],[26.8977,48.209],[26.8555,48.2378],[26.8447,48.2333],[26.8049,48.2583],[26.744,48.2556],[26.6885,48.2748],[26.6657,48.2742],[26.6179,48.259],[26.5874,48.2494],[26.4447,48.2277],[26.3974,48.2262],[26.3303,48.2085],[26.3035,48.212],[26.287,48.1247],[26.2553,48.0723],[26.2048,48.0374],[26.1731,47.9931],[26.1025,47.9783],[26.0293,47.9778],[25.9657,47.9649],[25.9181,47.9682],[25.8184,47.9526],[25.7525,47.9346],[25.2617,47.8986],[25.219,47.8785],[25.1219,47.7703],[25.0799,47.7429],[25.0174,47.7246],[24.9424,47.7156],[24.9289,47.7139],[24.8778,47.7187],[24.8207,47.7841],[24.7937,47.8045],[24.7128,47.8259],[24.6615,47.8539],[24.6493,47.8952],[24.6085,47.9219],[24.5698,47.9373],[24.4856,47.9432],[24.4285,47.9525],[24.3862,47.9437],[24.3472,47.9209],[24.2979,47.9198],[24.231,47.897],[24.1312,47.9145],[24.0948,47.9379],[23.9773,47.9623],[23.8766,47.9344],[23.7801,47.9875],[23.7105,47.9851],[23.5632,48.0058],[23.5145,47.999],[23.4855,47.9742],[23.4608,47.9713],[23.396,47.9931],[23.3601,47.9931],[23.2314,48.0797],[23.1617,48.0959],[23.1186,48.0915],[23.099,48.0712],[23.0631,48.0075],[23.0203,47.9847],[22.9882,47.9864],[22.9393,48.0057],[22.9157,47.993],[22.9158,47.9592],[22.8776,47.9467],[22.8361,47.9025],[22.7796,47.8823],[22.7529,47.8612],[22.7603,47.8389],[22.7458,47.825],[22.6917,47.8107],[22.6377,47.7716],[22.6012,47.7609],[22.5285,47.761],[22.4544,47.7874],[22.4237,47.7826],[22.4073,47.7431],[22.3683,47.7312],[22.3221,47.7359],[22.2617,47.7158],[22.2042,47.6663],[22.1976,47.6393],[22.1676,47.5949],[22.1542,47.5822],[22.0996,47.5709],[22.0374,47.5393],[21.9889,47.4929],[22.0016,47.3938],[21.9815,47.3661],[21.937,47.3572],[21.9008,47.3357],[21.8622,47.2974],[21.8236,47.2149],[21.826,47.1851],[21.7799,47.1407],[21.7705,47.114],[21.7435,47.0916],[21.6942,47.0692],[21.6343,47.0194],[21.6675,46.9924],[21.6485,46.943],[21.5944,46.91],[21.5918,46.8607],[21.5731,46.8418],[21.5366,46.835],[21.5029,46.8053],[21.4705,46.743],[21.5017,46.7252],[21.5052,46.7232],[21.4836,46.6849],[21.4362,46.6737],[21.4235,46.6582],[21.396,46.6264],[21.3744,46.6184],[21.3162,46.6166],[21.301,46.6039],[21.2913,46.5467],[21.2476,46.4975],[21.2451,46.4769],[21.2744,46.4384],[21.2807,46.4164],[21.2575,46.4042],[21.1956,46.3981],[21.1687,46.3628],[21.1645,46.3183],[21.1349,46.2785],[21.0992,46.2764],[21.0515,46.2361],[21.0335,46.2313],[21.007,46.2489],[20.9617,46.2483],[20.9066,46.2622],[20.867,46.2571],[20.8397,46.2711],[20.7874,46.2634],[20.7393,46.2375],[20.7448,46.2003],[20.7178,46.19],[20.7044,46.1685],[20.6835,46.1447],[20.6076,46.1295],[20.549,46.1561],[20.4685,46.1741],[20.4442,46.1469],[20.2832,46.1438],[20.2428,46.1081]]]}}
]}
