{"type":"FeatureCollection","features":[
{"type":"Feature","properties":{"entityId":"roman-kingdom","from":-615,"to":-508,"certainty":"estimated","source":"유럽 쪽은 Natural Earth 1:10m admin-1(v5.1.2) 현대 행정구역 조각을 그 시기 국경에 맞춰 묶고, 조각이 역사 경계와 다른 곳은 선을 그어 나눈 근사. 유럽 밖(시베리아·중앙아시아·극동)은 대략적인 추정. 운영자 검수 필요"},"geometry":{"type":"MultiPolygon","coordinates":[[[[11.5556,42.0955],[11.5847,42.0748],[11.6,42.0639],[11.6,42.1222],[11.5556,42.1222],[11.5556,42.0955]]],[[[12.1144,41.6996],[12.5743,41.4335],[12.6907,41.3661],[12.7489,41.3325],[12.778,41.3156],[12.778,41.4208],[12.7744,41.4209],[12.7565,41.4634],[12.722,41.4946],[12.6825,41.5091],[12.6624,41.5307],[12.6028,41.5556],[12.5761,41.5825],[12.56,41.6163],[12.5797,41.6489],[12.6191,41.6651],[12.6498,41.6562],[12.6599,41.6036],[12.6992,41.606],[12.747,41.5738],[12.7902,41.6175],[12.8233,41.6235],[12.8476,41.6407],[12.8535,41.7013],[12.9124,41.7124],[12.9345,41.7096],[12.9577,41.662],[13.0036,41.627],[13.0201,41.5778],[13.0755,41.5685],[13.1037,41.5454],[13.1752,41.5836],[13.1569,41.5886],[13.1576,41.6354],[13.1471,41.6533],[13.0948,41.6846],[13.0931,41.7083],[13.0186,41.7529],[12.9976,41.7847],[13.0075,41.8149],[13.0614,41.8334],[13.0826,41.858],[13.1382,41.8455],[13.1844,41.8482],[13.1974,41.8676],[13.2393,41.8919],[13.2979,41.947],[13.2801,41.9468],[13.0971,42.0237],[13.0823,42.0189],[13.0284,42.0319],[13.017,42.0546],[13.0137,42.1085],[13.0296,42.1156],[12.9975,42.125],[12.9525,42.0983],[12.9205,42.1135],[12.8854,42.1001],[12.8656,42.1065],[12.8326,42.1476],[12.7978,42.1594],[12.765,42.1873],[12.6953,42.1465],[12.6247,42.1747],[12.6206,42.1812],[12.6,42.14],[12.53,42.04],[12.5,41.96],[12.47,41.9],[12.44,41.87],[12.38,41.83],[12.3,41.77],[12.22,41.72],[12.1144,41.6996]]]]}}
]}
