{"type":"FeatureCollection","features":[
{"type":"Feature","properties":{"entityId":"rum-sultanate","from":1200,"to":1207,"certainty":"estimated","source":"유럽 쪽은 Natural Earth 1:10m admin-1(v5.1.2) 현대 행정구역 조각을 그 시기 국경에 맞춰 묶고, 조각이 역사 경계와 다른 곳은 선을 그어 나눈 근사. 유럽 밖(시베리아·중앙아시아·극동)은 대략적인 추정. 운영자 검수 필요"},"geometry":{"type":"Polygon","coordinates":[[[28.5628,37.553],[28.5754,37.5146],[28.5956,37.5061],[28.6089,37.4775],[28.6208,37.4605],[28.6174,37.4112],[28.6273,37.3825],[28.688,37.3747],[28.7353,37.3599],[28.765,37.3185],[28.7779,37.2721],[28.8115,37.2335],[28.8861,37.2249],[28.9283,37.1766],[29.0019,37.1497],[29.0618,37.1029],[29.0754,37.0655],[29.0902,36.9779],[29.1151,36.9581],[29.1699,36.9549],[29.2704,36.9116],[29.3044,36.9258],[29.3357,36.973],[29.3426,37.038],[29.3904,37.0686],[29.4134,37.0176],[29.3967,36.9597],[29.435,36.9474],[29.4834,36.9959],[29.604,37.0086],[29.6889,36.9143],[29.7445,36.9308],[29.7965,36.9788],[29.8359,37.0371],[29.8512,37.1125],[29.906,37.1722],[30.0856,37.2466],[30.1469,37.2552],[30.2949,37.3049],[30.3558,37.2984],[30.4174,37.2385],[30.4409,37.2308],[30.58,37.2353],[30.6706,37.2276],[30.7481,37.2284],[30.7855,37.2352],[30.8463,37.2887],[30.8646,37.3316],[30.935,37.3803],[31.0235,37.3514],[31.1265,37.3801],[31.1807,37.3867],[31.2274,37.4139],[31.2777,37.4278],[31.3319,37.4222],[31.3764,37.3799],[31.4155,37.3549],[31.459,37.3413],[31.5587,37.3407],[31.8154,37.2985],[31.8987,37.2552],[31.963,37.2076],[32.0331,37.1686],[32.0832,37.1266],[32.1279,37.0762],[32.2531,36.9869],[32.3235,36.9582],[32.3272,36.9276],[32.3016,36.9116],[32.2903,36.8814],[32.3053,36.8542],[32.3487,36.8412],[32.4264,36.8321],[32.4475,36.8083],[32.4632,36.7416],[32.4562,36.6734],[32.4906,36.6016],[32.5316,36.5338],[32.5587,36.5062],[32.632,36.4703],[32.6517,36.438],[32.7173,36.445],[32.7824,36.4316],[32.8425,36.4328],[32.8994,36.4533],[32.9582,36.4644],[33.0524,36.4666],[33.0762,36.4855],[33.1022,36.5535],[33.1318,36.5613],[33.2048,36.5344],[33.231,36.5607],[33.2068,36.5909],[33.1612,36.6185],[33.1084,36.6296],[33.0684,36.6632],[33.0435,36.6727],[33.0193,36.7283],[32.982,36.7716],[32.9795,36.8038],[33.0336,36.8141],[33.1079,36.8464],[33.1312,36.8211],[33.1673,36.8134],[33.1888,36.8426],[33.2007,36.8871],[33.2327,36.918],[33.27,36.928],[33.3719,36.988],[33.4132,36.9972],[33.54,37.0066],[33.6194,37.0318],[33.7021,37.0372],[33.7366,37.0287],[33.7975,37.0471],[33.8706,37.0577],[33.9668,37.1162],[34.0027,37.1288],[34.0786,37.133],[34.149,37.155],[34.1832,37.1879],[34.2105,37.2013],[34.2979,37.2254],[34.3539,37.248],[34.3986,37.2822],[34.4819,37.3089],[34.5001,37.3199],[34.5122,37.352],[34.5875,37.3533],[34.7215,37.4014],[34.7916,37.3877],[34.7946,37.4572],[34.8499,37.5106],[34.8652,37.553],[34.8326,37.6299],[34.8278,37.6802],[34.8597,37.7166],[34.9106,37.7136],[34.9619,37.7007],[35.0597,37.7135],[35.1906,37.8181],[35.3632,37.8073],[35.4536,37.7888],[35.5772,37.7505],[35.6296,37.7702],[35.6077,37.9538],[35.979,38.155],[36.0331,38.2133],[36.0756,38.2819],[36.1033,38.3122],[36.1459,38.3951],[36.19,38.4235],[36.2669,38.4578],[36.348,38.4747],[36.4001,38.4566],[36.4373,38.4097],[36.4626,38.358],[36.5055,38.3229],[36.4493,38.2809],[36.4181,38.2188],[36.3684,38.0421],[36.3386,37.9777],[36.3257,37.912],[36.3308,37.8343],[36.3623,37.7726],[36.3597,37.7318],[36.3071,37.6975],[36.2799,37.6691],[36.2795,37.591],[36.2286,37.5368],[36.2202,37.5064],[36.2328,37.4783],[36.2575,37.4553],[36.262,37.389],[36.3036,37.3491],[36.3541,37.3709],[36.3707,37.3563],[36.4411,37.3723],[36.5506,37.3897],[36.5888,37.3818],[36.6781,37.3225],[36.7212,37.2712],[36.8422,37.3154],[36.8896,37.3667],[36.9377,37.3422],[36.9664,37.2532],[37.0432,37.2333],[37.1342,37.3097],[37.1902,37.3315],[37.3148,37.3493],[37.4492,37.3863],[37.5117,37.393],[37.5748,37.3919],[37.6173,37.4144],[37.6304,37.4596],[37.6251,37.5188],[37.7354,37.5367],[37.8436,37.5356],[37.9614,37.5005],[38.0399,37.446],[38.0655,37.4368],[38.0945,37.4535],[38.1256,37.4337],[38.1702,37.4255],[38.1857,37.4129],[38.2068,37.4535],[38.2499,37.4485],[38.272,37.4764],[38.3408,37.4944],[38.3723,37.4839],[38.4948,37.5006],[38.5154,37.5111],[38.6456,37.6242],[38.8685,37.6514],[38.8005,37.697],[38.836,37.6947],[38.8824,37.7149],[38.9231,37.7135],[38.8889,37.7408],[38.9018,37.7527],[38.9647,37.7613],[38.9539,37.8014],[38.9306,37.8075],[38.8889,37.7886],[38.9085,37.8168],[38.9368,37.8296],[38.9709,37.8228],[38.9709,37.8507],[38.9892,37.878],[38.9783,37.906],[39.0272,37.918],[39.0505,37.9397],[39.0603,37.9879],[39.0896,38.007],[39.1499,38.0207],[39.189,38.0431],[39.2346,38.0761],[39.2247,38.0903],[39.2563,38.1531],[39.2526,38.1797],[39.2219,38.205],[39.1413,38.1786],[39.1149,38.1927],[39.1485,38.2842],[39.145,38.3078],[39.1149,38.3435],[39.0734,38.3479],[38.9922,38.326],[38.9572,38.3305],[38.9111,38.3607],[38.8855,38.364],[38.861,38.3988],[38.8269,38.4186],[38.8105,38.4403],[38.7177,38.4186],[38.6889,38.4207],[38.6078,38.4534],[38.5667,38.4646],[38.4817,38.4759],[38.4566,38.4849],[38.4256,38.5124],[38.403,38.508],[38.3735,38.5365],[38.3489,38.5956],[38.3757,38.6452],[38.4024,38.6734],[38.4604,38.6924],[38.4781,38.7254],[38.4713,38.7408],[38.5089,38.7568],[38.6187,38.7482],[38.6357,38.7817],[38.6239,38.8126],[38.6194,38.8959],[38.5899,38.9508],[38.5893,38.9922],[38.6168,39.0203],[38.6879,39.023],[38.7457,39.0378],[38.7843,38.9931],[38.7853,38.9642],[38.7698,38.9096],[38.8131,38.8772],[38.8414,38.8765],[38.9198,38.8929],[38.9988,38.8975],[39.0414,38.883],[39.0809,38.8872],[39.1122,38.8724],[39.2254,38.858],[39.3143,38.8175],[39.3587,38.8071],[39.4005,38.7741],[39.4267,38.7789],[39.4756,38.7633],[39.5318,38.8061],[39.6995,38.8143],[39.7928,38.8433],[39.8536,38.8958],[39.8802,38.9386],[39.8944,38.9854],[39.8791,39.0593],[39.9111,39.0859],[40.0151,39.0974],[40.04,39.1616],[40.0189,39.237],[40.0358,39.2886],[40.0416,39.338],[40.0563,39.3579],[40.1053,39.3701],[40.1896,39.3718],[40.2077,39.408],[40.2528,39.4218],[40.3017,39.4211],[40.3484,39.447],[40.3764,39.4919],[40.3923,39.5022],[40.4653,39.4944],[40.5155,39.5127],[40.5548,39.549],[40.6188,39.5324],[40.7079,39.5223],[40.7973,39.5521],[40.855,39.581],[40.8862,39.5666],[40.9831,39.4966],[41.0578,39.4688],[41.1183,39.4637],[41.1629,39.423],[41.2051,39.3657],[41.3652,39.3866],[41.4456,39.3718],[41.4828,39.353],[41.581,39.2782],[41.639,39.214],[41.6626,39.1988],[41.7477,39.1715],[41.8345,39.1688],[41.9147,39.2108],[42.0373,39.2271],[42.0867,39.2659],[42.1557,39.2991],[42.1839,39.3364],[42.1781,39.3816],[42.1987,39.4261],[42.3357,39.4793],[42.4313,39.4914],[42.4632,39.5315],[42.4729,39.5786],[42.471,39.7141],[42.4949,39.7481],[42.3529,39.7921],[42.2716,39.8694],[42.3067,39.8807],[42.3816,39.8706],[42.4179,39.8802],[42.44,39.9036],[42.503,39.9128],[42.536,39.9274],[42.5637,39.9519],[42.4846,40.0588],[42.4252,40.0763],[42.3787,40.125],[42.3165,40.1496],[42.2309,40.1605],[42.1504,40.2405],[42.1812,40.2944],[42.3269,40.3319],[42.3444,40.3395],[42.25,40.35],[41.95,40.4],[41.7541,40.6155],[41.7347,40.6236],[41.6566,40.6412],[41.5788,40.6243],[41.4935,40.5818],[41.4013,40.5556],[41.3334,40.601],[41.347,40.6864],[41.3727,40.7221],[41.3653,40.7547],[41.3293,40.7645],[41.2055,40.7792],[41.1274,40.8129],[41.0509,40.7784],[40.9444,40.709],[40.9016,40.6983],[40.8575,40.698],[40.8219,40.6866],[40.7918,40.6291],[40.6514,40.6041],[40.4894,40.5421],[40.4294,40.5295],[40.3267,40.53],[40.2279,40.5112],[40.1846,40.5104],[40.1017,40.5307],[40.0159,40.5327],[39.9747,40.5503],[39.9138,40.603],[39.8836,40.6118],[39.8633,40.5994],[39.8699,40.5749],[39.834,40.561],[39.8674,40.4136],[39.86,40.2669],[39.8276,40.2092],[39.8115,40.144],[39.8328,40.0769],[39.8691,40.0148],[39.8317,39.9709],[39.7879,39.9348],[39.6764,39.9147],[39.622,39.8938],[39.5647,39.8892],[39.5058,39.8926],[39.447,39.888],[39.3854,39.8933],[39.327,39.9163],[39.2665,39.9303],[39.2331,39.9607],[39.1583,39.9901],[39.0496,40.0391],[38.989,40.0488],[38.9333,40.0713],[38.8925,40.0576],[38.8055,40.0525],[38.7616,40.0549],[38.661,40.0935],[38.5563,40.1194],[38.4542,40.0999],[38.3923,40.1283],[38.3311,40.1647],[38.2748,40.1861],[38.2382,40.2286],[38.2405,40.2852],[38.1583,40.5235],[38.0952,40.4922],[38.0084,40.481],[37.998,40.4688],[38.0016,40.4116],[37.9802,40.4013],[37.8977,40.4041],[37.8614,40.3839],[37.8019,40.3357],[37.7669,40.3319],[37.6901,40.3794],[37.6349,40.4612],[37.617,40.5212],[37.5841,40.5694],[37.4488,40.5759],[37.2197,40.6977],[37.1525,40.7019],[37.0846,40.6943],[37.0134,40.6989],[36.9468,40.7203],[36.8954,40.7447],[36.8118,40.7661],[36.7565,40.792],[36.6989,40.8068],[36.6875,40.836],[36.7052,40.8625],[36.746,40.875],[36.8284,40.8878],[36.8807,40.9124],[36.9203,40.9458],[36.9991,40.9797],[37.0423,41.0418],[37.0984,41.0866],[37.1517,41.1468],[37.1489,41.1468],[37.1489,41.2497],[37.1739,41.2497],[37.1739,41.2661],[37.1489,41.2728],[37.1238,41.2796],[37.0736,41.2931],[36.9132,41.3364],[36.8731,41.3526],[36.071,41.676],[36.0449,41.7015],[36.0387,41.689],[36.033,41.6914],[35.9779,41.7297],[35.9627,41.7197],[35.9466,41.7262],[35.9568,41.7363],[35.9403,41.7287],[35.7284,41.8142],[35.6225,41.8569],[35.5961,41.8675],[35.5696,41.8782],[35.5696,41.7646],[35.5431,41.7646],[35.5431,41.7309],[35.5166,41.7309],[35.5166,41.639],[35.5001,41.6416],[35.4608,41.5742],[35.456,41.5236],[35.4723,41.4755],[35.4709,41.4171],[35.4895,41.3735],[35.5048,41.2845],[35.4851,41.2728],[35.4338,41.2833],[35.3831,41.2602],[35.3399,41.2545],[35.2963,41.2583],[35.2397,41.2892],[35.1944,41.2934],[35.1958,41.311],[35.1406,41.3415],[35.1328,41.3771],[35.1133,41.3998],[35.1024,41.3853],[35.0239,41.3588],[34.9913,41.3348],[34.9345,41.3179],[34.9418,41.2999],[34.888,41.2698],[34.8761,41.233],[34.8373,41.2016],[34.7239,41.2293],[34.6704,41.2661],[34.641,41.2721],[34.5741,41.2705],[34.5575,41.2846],[34.4985,41.2859],[34.4719,41.3108],[34.4798,41.4416],[34.4629,41.4798],[34.472,41.5185],[34.4918,41.5523],[34.5533,41.5912],[34.5879,41.6575],[34.5325,41.7132],[34.4661,41.7275],[34.3443,41.7325],[34.2842,41.7453],[34.2051,41.7478],[34.1404,41.7671],[34.1422,41.8002],[34.1926,41.8451],[34.2209,41.9035],[34.2161,41.9601],[34.1995,41.9619],[34.1995,42.0276],[34.1518,42.027],[33.5143,42.0185],[33.4818,42.0106],[33.3895,42.0168],[33.3609,42.0207],[33.3245,42.019],[33.2916,42.0062],[33.2839,42.0052],[33.0586,41.93],[33.0081,41.9173],[32.9667,41.8994],[32.9455,41.8923],[32.7903,41.8596],[32.7985,41.8597],[32.8083,41.7995],[32.8366,41.7551],[32.873,41.6823],[32.8085,41.6478],[32.818,41.5764],[32.8522,41.5477],[32.9131,41.5548],[32.9861,41.5732],[33.0589,41.5328],[33.0871,41.4439],[33.1154,41.3954],[33.017,41.3804],[32.9647,41.3411],[32.9194,41.2944],[32.9103,41.2606],[32.9297,41.1533],[32.9858,41.147],[33.038,41.1289],[33.0692,41.093],[33.0265,41.0115],[32.9295,40.9711],[32.8326,40.9792],[32.7962,40.963],[32.7483,40.8974],[32.6305,40.8256],[32.5262,40.7887],[32.5295,40.8152],[32.4922,40.8678],[32.3769,40.9106],[32.3303,40.9328],[32.2783,40.9486],[32.284,41.0039],[32.1983,41.0181],[32.1494,41.0192],[31.9347,41.0241],[31.8722,41.0365],[31.7991,41.0418],[31.7819,40.955],[31.7334,40.9105],[31.6405,40.8943],[31.5112,40.8782],[31.4627,40.8499],[31.4586,40.7974],[31.4223,40.7246],[31.3455,40.6802],[31.2485,40.6721],[31.1354,40.7085],[30.9737,40.7044],[30.8912,40.7268],[30.8278,40.689],[30.8373,40.6255],[30.8252,40.5958],[30.7607,40.5721],[30.6908,40.5744],[30.65,40.5283],[30.6225,40.4662],[30.595,40.4489],[30.6011,40.4229],[30.6448,40.3673],[30.626,40.3315],[30.64,40.2872],[30.7011,40.204],[30.7386,40.1678],[30.6361,40.1646],[30.5554,40.1146],[30.5242,40.0116],[30.4907,39.9653],[30.4395,39.9362],[30.3852,39.9367],[30.3339,39.9197],[30.3016,39.8791],[30.2452,39.8497],[30.235,39.7477],[30.1917,39.6885],[30.1361,39.6388],[30.0241,39.6242],[29.9455,39.6076],[29.902,39.6166],[29.7911,39.6771],[29.7163,39.7093],[29.6658,39.7788],[29.6617,39.8211],[29.6777,39.9063],[29.6183,39.8924],[29.5544,39.8919],[29.4502,39.9235],[29.3995,39.8959],[29.3682,39.8133],[29.3478,39.7969],[29.3202,39.7172],[29.2742,39.6909],[29.2525,39.6458],[29.2461,39.5793],[29.1908,39.5521],[29.1193,39.5516],[29.0048,39.5661],[28.9672,39.5891],[28.947,39.5599],[28.9408,39.5211],[28.9088,39.4707],[28.896,39.3997],[28.8497,39.3479],[28.8114,39.2906],[28.7787,39.2722],[28.6667,39.238],[28.6578,39.204],[28.6595,39.1566],[28.7304,39.1008],[28.881,39.0753],[28.9099,39.0596],[28.9743,38.9816],[28.9909,38.948],[28.982,38.8867],[29.0153,38.84],[29.0363,38.7933],[29.0323,38.7301],[28.9955,38.701],[28.9179,38.6537],[28.8767,38.6084],[28.8484,38.6001],[28.8519,38.5647],[28.8804,38.5571],[28.9029,38.5354],[28.9155,38.4407],[28.9082,38.3932],[28.8949,38.3632],[28.8385,38.3034],[28.8638,38.288],[28.8938,38.2874],[28.931,38.2551],[28.8381,38.2388],[28.7936,38.1705],[28.7984,38.1436],[28.7844,38.1199],[28.743,38.1043],[28.698,38.1038],[28.7222,38.0591],[28.7777,38.0288],[28.7905,37.9994],[28.7884,37.9652],[28.8043,37.9051],[28.7734,37.8711],[28.7706,37.8452],[28.8292,37.7705],[28.8929,37.7603],[28.8996,37.7097],[28.869,37.6925],[28.8302,37.6911],[28.7833,37.6385],[28.7303,37.5984],[28.6531,37.6063],[28.5832,37.5897],[28.5628,37.553]]]}},
{"type":"Feature","properties":{"entityId":"rum-sultanate","from":1207,"to":1214,"certainty":"estimated","source":"유럽 쪽은 Natural Earth 1:10m admin-1(v5.1.2) 현대 행정구역 조각을 그 시기 국경에 맞춰 묶고, 조각이 역사 경계와 다른 곳은 선을 그어 나눈 근사. 유럽 밖(시베리아·중앙아시아·극동)은 대략적인 추정. 운영자 검수 필요"},"geometry":{"type":"Polygon","coordinates":[[[28.5628,37.553],[28.5754,37.5146],[28.5956,37.5061],[28.6089,37.4775],[28.6208,37.4605],[28.6174,37.4112],[28.6273,37.3825],[28.688,37.3747],[28.7353,37.3599],[28.765,37.3185],[28.7779,37.2721],[28.8115,37.2335],[28.8861,37.2249],[28.9283,37.1766],[29.0019,37.1497],[29.0618,37.1029],[29.0754,37.0655],[29.0902,36.9779],[29.1151,36.9581],[29.1699,36.9549],[29.2704,36.9116],[29.3044,36.9258],[29.3357,36.973],[29.3426,37.038],[29.3904,37.0686],[29.4134,37.0176],[29.3967,36.9597],[29.435,36.9474],[29.4834,36.9959],[29.604,37.0086],[29.6889,36.9143],[29.5802,36.7161],[29.5938,36.6543],[29.5755,36.599],[29.4811,36.5371],[29.4773,36.4824],[29.4549,36.4733],[29.4244,36.4835],[29.362,36.4631],[29.3133,36.3763],[29.3071,36.325],[29.2612,36.2936],[29.3223,36.2469],[29.3571,36.2357],[29.3702,36.2522],[29.4187,36.2375],[29.4204,36.2306],[29.4262,36.2353],[29.4725,36.2213],[29.4945,36.211],[29.5215,36.206],[29.5229,36.206],[29.585,36.1872],[29.5835,36.1855],[29.5887,36.1861],[29.6342,36.1723],[29.634,36.1571],[29.6682,36.1438],[29.6724,36.1234],[29.6944,36.1455],[29.6983,36.1433],[29.6986,36.1434],[29.6987,36.1433],[29.7457,36.1515],[29.7617,36.137],[29.7953,36.1452],[29.823,36.1649],[30.3566,36.2576],[30.3859,36.243],[30.3861,36.2431],[30.3863,36.243],[30.4,36.2488],[30.4004,36.2481],[30.3986,36.206],[30.4408,36.2393],[30.4517,36.2618],[30.488,36.2878],[30.4668,36.2878],[30.473,36.2985],[30.4835,36.3107],[30.4838,36.3127],[30.5199,36.3419],[30.4942,36.3493],[30.5016,36.3636],[30.4927,36.3708],[30.5046,36.4478],[30.5088,36.4543],[30.5101,36.4583],[30.5487,36.5115],[30.5698,36.528],[30.5811,36.5752],[30.5724,36.5919],[30.6203,36.6781],[31.6999,36.6443],[32.2814,36.2591],[32.283,36.2506],[32.3187,36.2286],[32.3655,36.178],[32.4196,36.1595],[32.4373,36.1387],[32.5134,36.103],[32.5452,36.0981],[32.5826,36.0888],[32.5718,36.094],[32.5903,36.1199],[32.602,36.1693],[32.6313,36.2213],[32.6472,36.2693],[32.6426,36.3794],[32.6517,36.438],[32.7173,36.445],[32.7824,36.4316],[32.8425,36.4328],[32.8994,36.4533],[32.9582,36.4644],[33.0524,36.4666],[33.0762,36.4855],[33.1022,36.5535],[33.1318,36.5613],[33.2048,36.5344],[33.231,36.5607],[33.2068,36.5909],[33.1612,36.6185],[33.1084,36.6296],[33.0684,36.6632],[33.0435,36.6727],[33.0193,36.7283],[32.982,36.7716],[32.9795,36.8038],[33.0336,36.8141],[33.1079,36.8464],[33.1312,36.8211],[33.1673,36.8134],[33.1888,36.8426],[33.2007,36.8871],[33.2327,36.918],[33.27,36.928],[33.3719,36.988],[33.4132,36.9972],[33.54,37.0066],[33.6194,37.0318],[33.7021,37.0372],[33.7366,37.0287],[33.7975,37.0471],[33.8706,37.0577],[33.9668,37.1162],[34.0027,37.1288],[34.0786,37.133],[34.149,37.155],[34.1832,37.1879],[34.2105,37.2013],[34.2979,37.2254],[34.3539,37.248],[34.3986,37.2822],[34.4819,37.3089],[34.5001,37.3199],[34.5122,37.352],[34.5875,37.3533],[34.7215,37.4014],[34.7916,37.3877],[34.7946,37.4572],[34.8499,37.5106],[34.8652,37.553],[34.8326,37.6299],[34.8278,37.6802],[34.8597,37.7166],[34.9106,37.7136],[34.9619,37.7007],[35.0597,37.7135],[35.1906,37.8181],[35.3632,37.8073],[35.4536,37.7888],[35.5772,37.7505],[35.6296,37.7702],[35.6077,37.9538],[35.979,38.155],[36.0331,38.2133],[36.0756,38.2819],[36.1033,38.3122],[36.1459,38.3951],[36.19,38.4235],[36.2669,38.4578],[36.348,38.4747],[36.4001,38.4566],[36.4373,38.4097],[36.4626,38.358],[36.5055,38.3229],[36.4493,38.2809],[36.4181,38.2188],[36.3684,38.0421],[36.3386,37.9777],[36.3257,37.912],[36.3308,37.8343],[36.3623,37.7726],[36.3597,37.7318],[36.3071,37.6975],[36.2799,37.6691],[36.2795,37.591],[36.2286,37.5368],[36.2202,37.5064],[36.2328,37.4783],[36.2575,37.4553],[36.262,37.389],[36.3036,37.3491],[36.3541,37.3709],[36.3707,37.3563],[36.4411,37.3723],[36.5506,37.3897],[36.5888,37.3818],[36.6781,37.3225],[36.7212,37.2712],[36.8422,37.3154],[36.8896,37.3667],[36.9377,37.3422],[36.9664,37.2532],[37.0432,37.2333],[37.1342,37.3097],[37.1902,37.3315],[37.3148,37.3493],[37.4492,37.3863],[37.5117,37.393],[37.5748,37.3919],[37.6173,37.4144],[37.6304,37.4596],[37.6251,37.5188],[37.7354,37.5367],[37.8436,37.5356],[37.9614,37.5005],[38.0399,37.446],[38.0655,37.4368],[38.0945,37.4535],[38.1256,37.4337],[38.1702,37.4255],[38.1857,37.4129],[38.2068,37.4535],[38.2499,37.4485],[38.272,37.4764],[38.3408,37.4944],[38.3723,37.4839],[38.4948,37.5006],[38.5154,37.5111],[38.6456,37.6242],[38.8685,37.6514],[38.8005,37.697],[38.836,37.6947],[38.8824,37.7149],[38.9231,37.7135],[38.8889,37.7408],[38.9018,37.7527],[38.9647,37.7613],[38.9539,37.8014],[38.9306,37.8075],[38.8889,37.7886],[38.9085,37.8168],[38.9368,37.8296],[38.9709,37.8228],[38.9709,37.8507],[38.9892,37.878],[38.9783,37.906],[39.0272,37.918],[39.0505,37.9397],[39.0603,37.9879],[39.0896,38.007],[39.1499,38.0207],[39.189,38.0431],[39.2346,38.0761],[39.2247,38.0903],[39.2563,38.1531],[39.2526,38.1797],[39.2219,38.205],[39.1413,38.1786],[39.1149,38.1927],[39.1485,38.2842],[39.145,38.3078],[39.1149,38.3435],[39.0734,38.3479],[38.9922,38.326],[38.9572,38.3305],[38.9111,38.3607],[38.8855,38.364],[38.861,38.3988],[38.8269,38.4186],[38.8105,38.4403],[38.7177,38.4186],[38.6889,38.4207],[38.6078,38.4534],[38.5667,38.4646],[38.4817,38.4759],[38.4566,38.4849],[38.4256,38.5124],[38.403,38.508],[38.3735,38.5365],[38.3489,38.5956],[38.3757,38.6452],[38.4024,38.6734],[38.4604,38.6924],[38.4781,38.7254],[38.4713,38.7408],[38.5089,38.7568],[38.6187,38.7482],[38.6357,38.7817],[38.6239,38.8126],[38.6194,38.8959],[38.5899,38.9508],[38.5893,38.9922],[38.6168,39.0203],[38.6879,39.023],[38.7457,39.0378],[38.7843,38.9931],[38.7853,38.9642],[38.7698,38.9096],[38.8131,38.8772],[38.8414,38.8765],[38.9198,38.8929],[38.9988,38.8975],[39.0414,38.883],[39.0809,38.8872],[39.1122,38.8724],[39.2254,38.858],[39.3143,38.8175],[39.3587,38.8071],[39.4005,38.7741],[39.4267,38.7789],[39.4756,38.7633],[39.5318,38.8061],[39.6995,38.8143],[39.7928,38.8433],[39.8536,38.8958],[39.8802,38.9386],[39.8944,38.9854],[39.8791,39.0593],[39.9111,39.0859],[40.0151,39.0974],[40.04,39.1616],[40.0189,39.237],[40.0358,39.2886],[40.0416,39.338],[40.0563,39.3579],[40.1053,39.3701],[40.1896,39.3718],[40.2077,39.408],[40.2528,39.4218],[40.3017,39.4211],[40.3484,39.447],[40.3764,39.4919],[40.3923,39.5022],[40.4653,39.4944],[40.5155,39.5127],[40.5548,39.549],[40.6188,39.5324],[40.7079,39.5223],[40.7973,39.5521],[40.855,39.581],[40.8862,39.5666],[40.9831,39.4966],[41.0578,39.4688],[41.1183,39.4637],[41.1629,39.423],[41.2051,39.3657],[41.3652,39.3866],[41.4456,39.3718],[41.4828,39.353],[41.581,39.2782],[41.639,39.214],[41.6626,39.1988],[41.7477,39.1715],[41.8345,39.1688],[41.9147,39.2108],[42.0373,39.2271],[42.0867,39.2659],[42.1557,39.2991],[42.1839,39.3364],[42.1781,39.3816],[42.1987,39.4261],[42.3357,39.4793],[42.4313,39.4914],[42.4632,39.5315],[42.4729,39.5786],[42.471,39.7141],[42.4949,39.7481],[42.3529,39.7921],[42.2716,39.8694],[42.3067,39.8807],[42.3816,39.8706],[42.4179,39.8802],[42.44,39.9036],[42.503,39.9128],[42.536,39.9274],[42.5637,39.9519],[42.4846,40.0588],[42.4252,40.0763],[42.3787,40.125],[42.3165,40.1496],[42.2309,40.1605],[42.1504,40.2405],[42.1812,40.2944],[42.3269,40.3319],[42.3444,40.3395],[42.25,40.35],[41.95,40.4],[41.7541,40.6155],[41.7347,40.6236],[41.6566,40.6412],[41.5788,40.6243],[41.4935,40.5818],[41.4013,40.5556],[41.3334,40.601],[41.347,40.6864],[41.3727,40.7221],[41.3653,40.7547],[41.3293,40.7645],[41.2055,40.7792],[41.1274,40.8129],[41.0509,40.7784],[40.9444,40.709],[40.9016,40.6983],[40.8575,40.698],[40.8219,40.6866],[40.7918,40.6291],[40.6514,40.6041],[40.4894,40.5421],[40.4294,40.5295],[40.3267,40.53],[40.2279,40.5112],[40.1846,40.5104],[40.1017,40.5307],[40.0159,40.5327],[39.9747,40.5503],[39.9138,40.603],[39.8836,40.6118],[39.8633,40.5994],[39.8699,40.5749],[39.834,40.561],[39.8674,40.4136],[39.86,40.2669],[39.8276,40.2092],[39.8115,40.144],[39.8328,40.0769],[39.8691,40.0148],[39.8317,39.9709],[39.7879,39.9348],[39.6764,39.9147],[39.622,39.8938],[39.5647,39.8892],[39.5058,39.8926],[39.447,39.888],[39.3854,39.8933],[39.327,39.9163],[39.2665,39.9303],[39.2331,39.9607],[39.1583,39.9901],[39.0496,40.0391],[38.989,40.0488],[38.9333,40.0713],[38.8925,40.0576],[38.8055,40.0525],[38.7616,40.0549],[38.661,40.0935],[38.5563,40.1194],[38.4542,40.0999],[38.3923,40.1283],[38.3311,40.1647],[38.2748,40.1861],[38.2382,40.2286],[38.2405,40.2852],[38.1583,40.5235],[38.0952,40.4922],[38.0084,40.481],[37.998,40.4688],[38.0016,40.4116],[37.9802,40.4013],[37.8977,40.4041],[37.8614,40.3839],[37.8019,40.3357],[37.7669,40.3319],[37.6901,40.3794],[37.6349,40.4612],[37.617,40.5212],[37.5841,40.5694],[37.4488,40.5759],[37.2197,40.6977],[37.1525,40.7019],[37.0846,40.6943],[37.0134,40.6989],[36.9468,40.7203],[36.8954,40.7447],[36.8118,40.7661],[36.7565,40.792],[36.6989,40.8068],[36.6875,40.836],[36.7052,40.8625],[36.746,40.875],[36.8284,40.8878],[36.8807,40.9124],[36.9203,40.9458],[36.9991,40.9797],[37.0423,41.0418],[37.0984,41.0866],[37.1517,41.1468],[37.1489,41.1468],[37.1489,41.2497],[37.1739,41.2497],[37.1739,41.2661],[37.1489,41.2728],[37.1238,41.2796],[37.0736,41.2931],[36.9132,41.3364],[36.8731,41.3526],[36.071,41.676],[36.0449,41.7015],[36.0387,41.689],[36.033,41.6914],[35.9779,41.7297],[35.9627,41.7197],[35.9466,41.7262],[35.9568,41.7363],[35.9403,41.7287],[35.7284,41.8142],[35.6225,41.8569],[35.5961,41.8675],[35.5696,41.8782],[35.5696,41.7646],[35.5431,41.7646],[35.5431,41.7309],[35.5166,41.7309],[35.5166,41.639],[35.5001,41.6416],[35.4608,41.5742],[35.456,41.5236],[35.4723,41.4755],[35.4709,41.4171],[35.4895,41.3735],[35.5048,41.2845],[35.4851,41.2728],[35.4338,41.2833],[35.3831,41.2602],[35.3399,41.2545],[35.2963,41.2583],[35.2397,41.2892],[35.1944,41.2934],[35.1958,41.311],[35.1406,41.3415],[35.1328,41.3771],[35.1133,41.3998],[35.1024,41.3853],[35.0239,41.3588],[34.9913,41.3348],[34.9345,41.3179],[34.9418,41.2999],[34.888,41.2698],[34.8761,41.233],[34.8373,41.2016],[34.7239,41.2293],[34.6704,41.2661],[34.641,41.2721],[34.5741,41.2705],[34.5575,41.2846],[34.4985,41.2859],[34.4719,41.3108],[34.4798,41.4416],[34.4629,41.4798],[34.472,41.5185],[34.4918,41.5523],[34.5533,41.5912],[34.5879,41.6575],[34.5325,41.7132],[34.4661,41.7275],[34.3443,41.7325],[34.2842,41.7453],[34.2051,41.7478],[34.1404,41.7671],[34.1422,41.8002],[34.1926,41.8451],[34.2209,41.9035],[34.2161,41.9601],[34.1995,41.9619],[34.1995,42.0276],[34.1518,42.027],[33.5143,42.0185],[33.4818,42.0106],[33.3895,42.0168],[33.3609,42.0207],[33.3245,42.019],[33.2916,42.0062],[33.2839,42.0052],[33.0586,41.93],[33.0081,41.9173],[32.9667,41.8994],[32.9455,41.8923],[32.7903,41.8596],[32.7985,41.8597],[32.8083,41.7995],[32.8366,41.7551],[32.873,41.6823],[32.8085,41.6478],[32.818,41.5764],[32.8522,41.5477],[32.9131,41.5548],[32.9861,41.5732],[33.0589,41.5328],[33.0871,41.4439],[33.1154,41.3954],[33.017,41.3804],[32.9647,41.3411],[32.9194,41.2944],[32.9103,41.2606],[32.9297,41.1533],[32.9858,41.147],[33.038,41.1289],[33.0692,41.093],[33.0265,41.0115],[32.9295,40.9711],[32.8326,40.9792],[32.7962,40.963],[32.7483,40.8974],[32.6305,40.8256],[32.5262,40.7887],[32.5295,40.8152],[32.4922,40.8678],[32.3769,40.9106],[32.3303,40.9328],[32.2783,40.9486],[32.284,41.0039],[32.1983,41.0181],[32.1494,41.0192],[31.9347,41.0241],[31.8722,41.0365],[31.7991,41.0418],[31.7819,40.955],[31.7334,40.9105],[31.6405,40.8943],[31.5112,40.8782],[31.4627,40.8499],[31.4586,40.7974],[31.4223,40.7246],[31.3455,40.6802],[31.2485,40.6721],[31.1354,40.7085],[30.9737,40.7044],[30.8912,40.7268],[30.8278,40.689],[30.8373,40.6255],[30.8252,40.5958],[30.7607,40.5721],[30.6908,40.5744],[30.65,40.5283],[30.6225,40.4662],[30.595,40.4489],[30.6011,40.4229],[30.6448,40.3673],[30.626,40.3315],[30.64,40.2872],[30.7011,40.204],[30.7386,40.1678],[30.6361,40.1646],[30.5554,40.1146],[30.5242,40.0116],[30.4907,39.9653],[30.4395,39.9362],[30.3852,39.9367],[30.3339,39.9197],[30.3016,39.8791],[30.2452,39.8497],[30.235,39.7477],[30.1917,39.6885],[30.1361,39.6388],[30.0241,39.6242],[29.9455,39.6076],[29.902,39.6166],[29.7911,39.6771],[29.7163,39.7093],[29.6658,39.7788],[29.6617,39.8211],[29.6777,39.9063],[29.6183,39.8924],[29.5544,39.8919],[29.4502,39.9235],[29.3995,39.8959],[29.3682,39.8133],[29.3478,39.7969],[29.3202,39.7172],[29.2742,39.6909],[29.2525,39.6458],[29.2461,39.5793],[29.1908,39.5521],[29.1193,39.5516],[29.0048,39.5661],[28.9672,39.5891],[28.947,39.5599],[28.9408,39.5211],[28.9088,39.4707],[28.896,39.3997],[28.8497,39.3479],[28.8114,39.2906],[28.7787,39.2722],[28.6667,39.238],[28.6578,39.204],[28.6595,39.1566],[28.7304,39.1008],[28.881,39.0753],[28.9099,39.0596],[28.9743,38.9816],[28.9909,38.948],[28.982,38.8867],[29.0153,38.84],[29.0363,38.7933],[29.0323,38.7301],[28.9955,38.701],[28.9179,38.6537],[28.8767,38.6084],[28.8484,38.6001],[28.8519,38.5647],[28.8804,38.5571],[28.9029,38.5354],[28.9155,38.4407],[28.9082,38.3932],[28.8949,38.3632],[28.8385,38.3034],[28.8638,38.288],[28.8938,38.2874],[28.931,38.2551],[28.8381,38.2388],[28.7936,38.1705],[28.7984,38.1436],[28.7844,38.1199],[28.743,38.1043],[28.698,38.1038],[28.7222,38.0591],[28.7777,38.0288],[28.7905,37.9994],[28.7884,37.9652],[28.8043,37.9051],[28.7734,37.8711],[28.7706,37.8452],[28.8292,37.7705],[28.8929,37.7603],[28.8996,37.7097],[28.869,37.6925],[28.8302,37.6911],[28.7833,37.6385],[28.7303,37.5984],[28.6531,37.6063],[28.5832,37.5897],[28.5628,37.553]]]}},
{"type":"Feature","properties":{"entityId":"rum-sultanate","from":1214,"to":1235,"certainty":"estimated","source":"유럽 쪽은 Natural Earth 1:10m admin-1(v5.1.2) 현대 행정구역 조각을 그 시기 국경에 맞춰 묶고, 조각이 역사 경계와 다른 곳은 선을 그어 나눈 근사. 유럽 밖(시베리아·중앙아시아·극동)은 대략적인 추정. 운영자 검수 필요"},"geometry":{"type":"Polygon","coordinates":[[[28.5628,37.553],[28.5754,37.5146],[28.5956,37.5061],[28.6089,37.4775],[28.6208,37.4605],[28.6174,37.4112],[28.6273,37.3825],[28.688,37.3747],[28.7353,37.3599],[28.765,37.3185],[28.7779,37.2721],[28.8115,37.2335],[28.8861,37.2249],[28.9283,37.1766],[29.0019,37.1497],[29.0618,37.1029],[29.0754,37.0655],[29.0902,36.9779],[29.1151,36.9581],[29.1699,36.9549],[29.2704,36.9116],[29.3044,36.9258],[29.3357,36.973],[29.3426,37.038],[29.3904,37.0686],[29.4134,37.0176],[29.3967,36.9597],[29.435,36.9474],[29.4834,36.9959],[29.604,37.0086],[29.6889,36.9143],[29.5802,36.7161],[29.5938,36.6543],[29.5755,36.599],[29.4811,36.5371],[29.4773,36.4824],[29.4549,36.4733],[29.4244,36.4835],[29.362,36.4631],[29.3133,36.3763],[29.3071,36.325],[29.2612,36.2936],[29.3223,36.2469],[29.3571,36.2357],[29.3702,36.2522],[29.4187,36.2375],[29.4204,36.2306],[29.4262,36.2353],[29.4725,36.2213],[29.4945,36.211],[29.5215,36.206],[29.5229,36.206],[29.585,36.1872],[29.5835,36.1855],[29.5887,36.1861],[29.6342,36.1723],[29.634,36.1571],[29.6682,36.1438],[29.6724,36.1234],[29.6944,36.1455],[29.6983,36.1433],[29.6986,36.1434],[29.6987,36.1433],[29.7457,36.1515],[29.7617,36.137],[29.7953,36.1452],[29.823,36.1649],[30.3566,36.2576],[30.3859,36.243],[30.3861,36.2431],[30.3863,36.243],[30.4,36.2488],[30.4004,36.2481],[30.3986,36.206],[30.4408,36.2393],[30.4517,36.2618],[30.488,36.2878],[30.4668,36.2878],[30.473,36.2985],[30.4835,36.3107],[30.4838,36.3127],[30.5199,36.3419],[30.4942,36.3493],[30.5016,36.3636],[30.4927,36.3708],[30.5046,36.4478],[30.5088,36.4543],[30.5101,36.4583],[30.5487,36.5115],[30.5698,36.528],[30.5811,36.5752],[30.5724,36.5919],[30.6203,36.6781],[31.6999,36.6443],[32.2814,36.2591],[32.283,36.2506],[32.3187,36.2286],[32.3655,36.178],[32.4196,36.1595],[32.4373,36.1387],[32.5134,36.103],[32.5452,36.0981],[32.5826,36.0888],[32.5718,36.094],[32.5903,36.1199],[32.602,36.1693],[32.6313,36.2213],[32.6472,36.2693],[32.6426,36.3794],[32.6517,36.438],[32.7173,36.445],[32.7824,36.4316],[32.8425,36.4328],[32.8994,36.4533],[32.9582,36.4644],[33.0524,36.4666],[33.0762,36.4855],[33.1022,36.5535],[33.1318,36.5613],[33.2048,36.5344],[33.231,36.5607],[33.2068,36.5909],[33.1612,36.6185],[33.1084,36.6296],[33.0684,36.6632],[33.0435,36.6727],[33.0193,36.7283],[32.982,36.7716],[32.9795,36.8038],[33.0336,36.8141],[33.1079,36.8464],[33.1312,36.8211],[33.1673,36.8134],[33.1888,36.8426],[33.2007,36.8871],[33.2327,36.918],[33.27,36.928],[33.3719,36.988],[33.4132,36.9972],[33.54,37.0066],[33.6194,37.0318],[33.7021,37.0372],[33.7366,37.0287],[33.7975,37.0471],[33.8706,37.0577],[33.9668,37.1162],[34.0027,37.1288],[34.0786,37.133],[34.149,37.155],[34.1832,37.1879],[34.2105,37.2013],[34.2979,37.2254],[34.3539,37.248],[34.3986,37.2822],[34.4819,37.3089],[34.5001,37.3199],[34.5122,37.352],[34.5875,37.3533],[34.7215,37.4014],[34.7916,37.3877],[34.7946,37.4572],[34.8499,37.5106],[34.8652,37.553],[34.8326,37.6299],[34.8278,37.6802],[34.8597,37.7166],[34.9106,37.7136],[34.9619,37.7007],[35.0597,37.7135],[35.1906,37.8181],[35.3632,37.8073],[35.4536,37.7888],[35.5772,37.7505],[35.6296,37.7702],[35.6077,37.9538],[35.979,38.155],[36.0331,38.2133],[36.0756,38.2819],[36.1033,38.3122],[36.1459,38.3951],[36.19,38.4235],[36.2669,38.4578],[36.348,38.4747],[36.4001,38.4566],[36.4373,38.4097],[36.4626,38.358],[36.5055,38.3229],[36.4493,38.2809],[36.4181,38.2188],[36.3684,38.0421],[36.3386,37.9777],[36.3257,37.912],[36.3308,37.8343],[36.3623,37.7726],[36.3597,37.7318],[36.3071,37.6975],[36.2799,37.6691],[36.2795,37.591],[36.2286,37.5368],[36.2202,37.5064],[36.2328,37.4783],[36.2575,37.4553],[36.262,37.389],[36.3036,37.3491],[36.3541,37.3709],[36.3707,37.3563],[36.4411,37.3723],[36.5506,37.3897],[36.5888,37.3818],[36.6781,37.3225],[36.7212,37.2712],[36.8422,37.3154],[36.8896,37.3667],[36.9377,37.3422],[36.9664,37.2532],[37.0432,37.2333],[37.1342,37.3097],[37.1902,37.3315],[37.3148,37.3493],[37.4492,37.3863],[37.5117,37.393],[37.5748,37.3919],[37.6173,37.4144],[37.6304,37.4596],[37.6251,37.5188],[37.7354,37.5367],[37.8436,37.5356],[37.9614,37.5005],[38.0399,37.446],[38.0655,37.4368],[38.0945,37.4535],[38.1256,37.4337],[38.1702,37.4255],[38.1857,37.4129],[38.2068,37.4535],[38.2499,37.4485],[38.272,37.4764],[38.3408,37.4944],[38.3723,37.4839],[38.4948,37.5006],[38.5154,37.5111],[38.6456,37.6242],[38.8685,37.6514],[38.8005,37.697],[38.836,37.6947],[38.8824,37.7149],[38.9231,37.7135],[38.8889,37.7408],[38.9018,37.7527],[38.9647,37.7613],[38.9539,37.8014],[38.9306,37.8075],[38.8889,37.7886],[38.9085,37.8168],[38.9368,37.8296],[38.9709,37.8228],[38.9709,37.8507],[38.9892,37.878],[38.9783,37.906],[39.0272,37.918],[39.0505,37.9397],[39.0603,37.9879],[39.0896,38.007],[39.1499,38.0207],[39.189,38.0431],[39.2346,38.0761],[39.2247,38.0903],[39.2563,38.1531],[39.2526,38.1797],[39.2219,38.205],[39.1413,38.1786],[39.1149,38.1927],[39.1485,38.2842],[39.145,38.3078],[39.1149,38.3435],[39.0734,38.3479],[38.9922,38.326],[38.9572,38.3305],[38.9111,38.3607],[38.8855,38.364],[38.861,38.3988],[38.8269,38.4186],[38.8105,38.4403],[38.7177,38.4186],[38.6889,38.4207],[38.6078,38.4534],[38.5667,38.4646],[38.4817,38.4759],[38.4566,38.4849],[38.4256,38.5124],[38.403,38.508],[38.3735,38.5365],[38.3489,38.5956],[38.3757,38.6452],[38.4024,38.6734],[38.4604,38.6924],[38.4781,38.7254],[38.4713,38.7408],[38.5089,38.7568],[38.6187,38.7482],[38.6357,38.7817],[38.6239,38.8126],[38.6194,38.8959],[38.5899,38.9508],[38.5893,38.9922],[38.6168,39.0203],[38.6879,39.023],[38.7457,39.0378],[38.7843,38.9931],[38.7853,38.9642],[38.7698,38.9096],[38.8131,38.8772],[38.8414,38.8765],[38.9198,38.8929],[38.9988,38.8975],[39.0414,38.883],[39.0809,38.8872],[39.1122,38.8724],[39.2254,38.858],[39.3143,38.8175],[39.3587,38.8071],[39.4005,38.7741],[39.4267,38.7789],[39.4756,38.7633],[39.5318,38.8061],[39.6995,38.8143],[39.7928,38.8433],[39.8536,38.8958],[39.8802,38.9386],[39.8944,38.9854],[39.8791,39.0593],[39.9111,39.0859],[40.0151,39.0974],[40.04,39.1616],[40.0189,39.237],[40.0358,39.2886],[40.0416,39.338],[40.0563,39.3579],[40.1053,39.3701],[40.1896,39.3718],[40.2077,39.408],[40.2528,39.4218],[40.3017,39.4211],[40.3484,39.447],[40.3764,39.4919],[40.3923,39.5022],[40.4653,39.4944],[40.5155,39.5127],[40.5548,39.549],[40.6188,39.5324],[40.7079,39.5223],[40.7973,39.5521],[40.855,39.581],[40.8862,39.5666],[40.9831,39.4966],[41.0578,39.4688],[41.1183,39.4637],[41.1629,39.423],[41.2051,39.3657],[41.3652,39.3866],[41.4456,39.3718],[41.4828,39.353],[41.581,39.2782],[41.639,39.214],[41.6626,39.1988],[41.7477,39.1715],[41.8345,39.1688],[41.9147,39.2108],[42.0373,39.2271],[42.0867,39.2659],[42.1557,39.2991],[42.1839,39.3364],[42.1781,39.3816],[42.1987,39.4261],[42.3357,39.4793],[42.4313,39.4914],[42.4632,39.5315],[42.4729,39.5786],[42.471,39.7141],[42.4949,39.7481],[42.3529,39.7921],[42.2716,39.8694],[42.3067,39.8807],[42.3816,39.8706],[42.4179,39.8802],[42.44,39.9036],[42.503,39.9128],[42.536,39.9274],[42.5637,39.9519],[42.4846,40.0588],[42.4252,40.0763],[42.3787,40.125],[42.3165,40.1496],[42.2309,40.1605],[42.1504,40.2405],[42.1812,40.2944],[42.3269,40.3319],[42.3444,40.3395],[42.25,40.35],[41.95,40.4],[41.7541,40.6155],[41.7347,40.6236],[41.6566,40.6412],[41.5788,40.6243],[41.4935,40.5818],[41.4013,40.5556],[41.3334,40.601],[41.347,40.6864],[41.3727,40.7221],[41.3653,40.7547],[41.3293,40.7645],[41.2055,40.7792],[41.1274,40.8129],[41.0509,40.7784],[40.9444,40.709],[40.9016,40.6983],[40.8575,40.698],[40.8219,40.6866],[40.7918,40.6291],[40.6514,40.6041],[40.4894,40.5421],[40.4294,40.5295],[40.3267,40.53],[40.2279,40.5112],[40.1846,40.5104],[40.1017,40.5307],[40.0159,40.5327],[39.9747,40.5503],[39.9138,40.603],[39.8836,40.6118],[39.8633,40.5994],[39.8699,40.5749],[39.834,40.561],[39.8674,40.4136],[39.86,40.2669],[39.8276,40.2092],[39.8115,40.144],[39.8328,40.0769],[39.8691,40.0148],[39.8317,39.9709],[39.7879,39.9348],[39.6764,39.9147],[39.622,39.8938],[39.5647,39.8892],[39.5058,39.8926],[39.447,39.888],[39.3854,39.8933],[39.327,39.9163],[39.2665,39.9303],[39.2331,39.9607],[39.1583,39.9901],[39.0496,40.0391],[38.989,40.0488],[38.9333,40.0713],[38.8925,40.0576],[38.8055,40.0525],[38.7616,40.0549],[38.661,40.0935],[38.5563,40.1194],[38.4542,40.0999],[38.3923,40.1283],[38.3311,40.1647],[38.2748,40.1861],[38.2382,40.2286],[38.2405,40.2852],[38.1583,40.5235],[38.0952,40.4922],[38.0084,40.481],[37.998,40.4688],[38.0016,40.4116],[37.9802,40.4013],[37.8977,40.4041],[37.8614,40.3839],[37.8019,40.3357],[37.7669,40.3319],[37.6901,40.3794],[37.6349,40.4612],[37.617,40.5212],[37.5841,40.5694],[37.4488,40.5759],[37.2197,40.6977],[37.1525,40.7019],[37.0846,40.6943],[37.0134,40.6989],[36.9468,40.7203],[36.8954,40.7447],[36.8118,40.7661],[36.7565,40.792],[36.6989,40.8068],[36.6875,40.836],[36.7052,40.8625],[36.746,40.875],[36.8284,40.8878],[36.8807,40.9124],[36.9203,40.9458],[36.9991,40.9797],[37.0423,41.0418],[37.0984,41.0866],[37.1517,41.1468],[37.1489,41.1468],[37.1489,41.2497],[37.1739,41.2497],[37.1739,41.2661],[37.1489,41.2728],[37.1238,41.2796],[37.0736,41.2931],[36.9132,41.3364],[36.8731,41.3526],[36.071,41.676],[36.0449,41.7015],[36.0387,41.689],[36.033,41.6914],[35.9779,41.7297],[35.9627,41.7197],[35.9466,41.7262],[35.9568,41.7363],[35.9403,41.7287],[35.7284,41.8142],[35.6225,41.8569],[35.5961,41.8675],[35.5166,41.8996],[35.3048,41.985],[35.2076,42.0242],[35.1862,42.0425],[35.1604,42.0415],[35.1588,42.0404],[35.1066,42.0397],[35.0453,42.0545],[35.0488,42.0651],[35.0239,42.0925],[34.9481,42.0988],[34.9419,42.0693],[34.9142,42.0371],[34.533,42.0321],[34.3424,42.0295],[34.2471,42.0283],[34.1995,42.0276],[34.1518,42.027],[33.5143,42.0185],[33.4818,42.0106],[33.3895,42.0168],[33.3609,42.0207],[33.3245,42.019],[33.2916,42.0062],[33.2839,42.0052],[33.0586,41.93],[33.0081,41.9173],[32.9667,41.8994],[32.9455,41.8923],[32.7903,41.8596],[32.7985,41.8597],[32.8083,41.7995],[32.8366,41.7551],[32.873,41.6823],[32.8085,41.6478],[32.818,41.5764],[32.8522,41.5477],[32.9131,41.5548],[32.9861,41.5732],[33.0589,41.5328],[33.0871,41.4439],[33.1154,41.3954],[33.017,41.3804],[32.9647,41.3411],[32.9194,41.2944],[32.9103,41.2606],[32.9297,41.1533],[32.9858,41.147],[33.038,41.1289],[33.0692,41.093],[33.0265,41.0115],[32.9295,40.9711],[32.8326,40.9792],[32.7962,40.963],[32.7483,40.8974],[32.6305,40.8256],[32.5262,40.7887],[32.5295,40.8152],[32.4922,40.8678],[32.3769,40.9106],[32.3303,40.9328],[32.2783,40.9486],[32.284,41.0039],[32.1983,41.0181],[32.1494,41.0192],[31.9347,41.0241],[31.8722,41.0365],[31.7991,41.0418],[31.7819,40.955],[31.7334,40.9105],[31.6405,40.8943],[31.5112,40.8782],[31.4627,40.8499],[31.4586,40.7974],[31.4223,40.7246],[31.3455,40.6802],[31.2485,40.6721],[31.1354,40.7085],[30.9737,40.7044],[30.8912,40.7268],[30.8278,40.689],[30.8373,40.6255],[30.8252,40.5958],[30.7607,40.5721],[30.6908,40.5744],[30.65,40.5283],[30.6225,40.4662],[30.595,40.4489],[30.6011,40.4229],[30.6448,40.3673],[30.626,40.3315],[30.64,40.2872],[30.7011,40.204],[30.7386,40.1678],[30.6361,40.1646],[30.5554,40.1146],[30.5242,40.0116],[30.4907,39.9653],[30.4395,39.9362],[30.3852,39.9367],[30.3339,39.9197],[30.3016,39.8791],[30.2452,39.8497],[30.235,39.7477],[30.1917,39.6885],[30.1361,39.6388],[30.0241,39.6242],[29.9455,39.6076],[29.902,39.6166],[29.7911,39.6771],[29.7163,39.7093],[29.6658,39.7788],[29.6617,39.8211],[29.6777,39.9063],[29.6183,39.8924],[29.5544,39.8919],[29.4502,39.9235],[29.3995,39.8959],[29.3682,39.8133],[29.3478,39.7969],[29.3202,39.7172],[29.2742,39.6909],[29.2525,39.6458],[29.2461,39.5793],[29.1908,39.5521],[29.1193,39.5516],[29.0048,39.5661],[28.9672,39.5891],[28.947,39.5599],[28.9408,39.5211],[28.9088,39.4707],[28.896,39.3997],[28.8497,39.3479],[28.8114,39.2906],[28.7787,39.2722],[28.6667,39.238],[28.6578,39.204],[28.6595,39.1566],[28.7304,39.1008],[28.881,39.0753],[28.9099,39.0596],[28.9743,38.9816],[28.9909,38.948],[28.982,38.8867],[29.0153,38.84],[29.0363,38.7933],[29.0323,38.7301],[28.9955,38.701],[28.9179,38.6537],[28.8767,38.6084],[28.8484,38.6001],[28.8519,38.5647],[28.8804,38.5571],[28.9029,38.5354],[28.9155,38.4407],[28.9082,38.3932],[28.8949,38.3632],[28.8385,38.3034],[28.8638,38.288],[28.8938,38.2874],[28.931,38.2551],[28.8381,38.2388],[28.7936,38.1705],[28.7984,38.1436],[28.7844,38.1199],[28.743,38.1043],[28.698,38.1038],[28.7222,38.0591],[28.7777,38.0288],[28.7905,37.9994],[28.7884,37.9652],[28.8043,37.9051],[28.7734,37.8711],[28.7706,37.8452],[28.8292,37.7705],[28.8929,37.7603],[28.8996,37.7097],[28.869,37.6925],[28.8302,37.6911],[28.7833,37.6385],[28.7303,37.5984],[28.6531,37.6063],[28.5832,37.5897],[28.5628,37.553]]]}},
{"type":"Feature","properties":{"entityId":"rum-sultanate","from":1235,"to":1243,"certainty":"estimated","source":"유럽 쪽은 Natural Earth 1:10m admin-1(v5.1.2) 현대 행정구역 조각을 그 시기 국경에 맞춰 묶고, 조각이 역사 경계와 다른 곳은 선을 그어 나눈 근사. 유럽 밖(시베리아·중앙아시아·극동)은 대략적인 추정. 운영자 검수 필요"},"geometry":{"type":"Polygon","coordinates":[[[28.5628,37.553],[28.5754,37.5146],[28.5956,37.5061],[28.6089,37.4775],[28.6208,37.4605],[28.6174,37.4112],[28.6273,37.3825],[28.688,37.3747],[28.7353,37.3599],[28.765,37.3185],[28.7779,37.2721],[28.8115,37.2335],[28.8861,37.2249],[28.9283,37.1766],[29.0019,37.1497],[29.0618,37.1029],[29.0754,37.0655],[29.0902,36.9779],[29.1151,36.9581],[29.1699,36.9549],[29.2704,36.9116],[29.3044,36.9258],[29.3357,36.973],[29.3426,37.038],[29.3904,37.0686],[29.4134,37.0176],[29.3967,36.9597],[29.435,36.9474],[29.4834,36.9959],[29.604,37.0086],[29.6889,36.9143],[29.5802,36.7161],[29.5938,36.6543],[29.5755,36.599],[29.4811,36.5371],[29.4773,36.4824],[29.4549,36.4733],[29.4244,36.4835],[29.362,36.4631],[29.3133,36.3763],[29.3071,36.325],[29.2612,36.2936],[29.3223,36.2469],[29.3571,36.2357],[29.3702,36.2522],[29.4187,36.2375],[29.4204,36.2306],[29.4262,36.2353],[29.4725,36.2213],[29.4945,36.211],[29.5215,36.206],[29.5229,36.206],[29.585,36.1872],[29.5835,36.1855],[29.5887,36.1861],[29.6342,36.1723],[29.634,36.1571],[29.6682,36.1438],[29.6724,36.1234],[29.6944,36.1455],[29.6983,36.1433],[29.6986,36.1434],[29.6987,36.1433],[29.7457,36.1515],[29.7617,36.137],[29.7953,36.1452],[29.823,36.1649],[30.3566,36.2576],[30.3859,36.243],[30.3861,36.2431],[30.3863,36.243],[30.4,36.2488],[30.4004,36.2481],[30.3986,36.206],[30.4408,36.2393],[30.4517,36.2618],[30.488,36.2878],[30.4668,36.2878],[30.473,36.2985],[30.4835,36.3107],[30.4838,36.3127],[30.5199,36.3419],[30.4942,36.3493],[30.5016,36.3636],[30.4927,36.3708],[30.5046,36.4478],[30.5088,36.4543],[30.5101,36.4583],[30.5487,36.5115],[30.5698,36.528],[30.5811,36.5752],[30.5724,36.5919],[30.6203,36.6781],[31.6999,36.6443],[32.2814,36.2591],[32.283,36.2506],[32.3187,36.2286],[32.3655,36.178],[32.4196,36.1595],[32.4373,36.1387],[32.5134,36.103],[32.5452,36.0981],[32.5826,36.0888],[32.5718,36.094],[32.5903,36.1199],[32.602,36.1693],[32.6313,36.2213],[32.6472,36.2693],[32.6426,36.3794],[32.6517,36.438],[32.7173,36.445],[32.7824,36.4316],[32.8425,36.4328],[32.8994,36.4533],[32.9582,36.4644],[33.0524,36.4666],[33.0762,36.4855],[33.1022,36.5535],[33.1318,36.5613],[33.2048,36.5344],[33.231,36.5607],[33.2068,36.5909],[33.1612,36.6185],[33.1084,36.6296],[33.0684,36.6632],[33.0435,36.6727],[33.0193,36.7283],[32.982,36.7716],[32.9795,36.8038],[33.0336,36.8141],[33.1079,36.8464],[33.1312,36.8211],[33.1673,36.8134],[33.1888,36.8426],[33.2007,36.8871],[33.2327,36.918],[33.27,36.928],[33.3719,36.988],[33.4132,36.9972],[33.54,37.0066],[33.6194,37.0318],[33.7021,37.0372],[33.7366,37.0287],[33.7975,37.0471],[33.8706,37.0577],[33.9668,37.1162],[34.0027,37.1288],[34.0786,37.133],[34.149,37.155],[34.1832,37.1879],[34.2105,37.2013],[34.2979,37.2254],[34.3539,37.248],[34.3986,37.2822],[34.4819,37.3089],[34.5001,37.3199],[34.5122,37.352],[34.5875,37.3533],[34.7215,37.4014],[34.7916,37.3877],[34.7946,37.4572],[34.8499,37.5106],[34.8652,37.553],[34.8326,37.6299],[34.8278,37.6802],[34.8597,37.7166],[34.9106,37.7136],[34.9619,37.7007],[35.0597,37.7135],[35.1906,37.8181],[35.3632,37.8073],[35.4536,37.7888],[35.5772,37.7505],[35.6296,37.7702],[35.6077,37.9538],[35.979,38.155],[36.0331,38.2133],[36.0756,38.2819],[36.1033,38.3122],[36.1459,38.3951],[36.19,38.4235],[36.2669,38.4578],[36.348,38.4747],[36.4001,38.4566],[36.4373,38.4097],[36.4626,38.358],[36.5055,38.3229],[36.4493,38.2809],[36.4181,38.2188],[36.3684,38.0421],[36.3386,37.9777],[36.3257,37.912],[36.3308,37.8343],[36.3623,37.7726],[36.3597,37.7318],[36.3071,37.6975],[36.2799,37.6691],[36.2795,37.591],[36.2286,37.5368],[36.2202,37.5064],[36.2328,37.4783],[36.2575,37.4553],[36.262,37.389],[36.3036,37.3491],[36.3541,37.3709],[36.3707,37.3563],[36.4411,37.3723],[36.5506,37.3897],[36.5888,37.3818],[36.6781,37.3225],[36.7212,37.2712],[36.8422,37.3154],[36.8896,37.3667],[36.9377,37.3422],[36.9664,37.2532],[37.0432,37.2333],[37.1342,37.3097],[37.1902,37.3315],[37.3148,37.3493],[37.4492,37.3863],[37.5117,37.393],[37.5748,37.3919],[37.6173,37.4144],[37.6304,37.4596],[37.6251,37.5188],[37.7354,37.5367],[37.8436,37.5356],[37.9614,37.5005],[38.0399,37.446],[38.0655,37.4368],[38.0945,37.4535],[38.1256,37.4337],[38.1702,37.4255],[38.1857,37.4129],[38.2068,37.4535],[38.2499,37.4485],[38.272,37.4764],[38.3408,37.4944],[38.3723,37.4839],[38.4948,37.5006],[38.5154,37.5111],[38.6456,37.6242],[38.8685,37.6514],[38.8005,37.697],[38.836,37.6947],[38.8824,37.7149],[38.9231,37.7135],[38.8889,37.7408],[38.9018,37.7527],[38.9647,37.7613],[38.9539,37.8014],[38.9306,37.8075],[38.8889,37.7886],[38.9085,37.8168],[38.9368,37.8296],[38.9709,37.8228],[38.9709,37.8507],[38.9892,37.878],[38.9783,37.906],[39.0272,37.918],[39.0505,37.9397],[39.0603,37.9879],[39.0896,38.007],[39.1499,38.0207],[39.189,38.0431],[39.2346,38.0761],[39.2247,38.0903],[39.2563,38.1531],[39.2526,38.1797],[39.2219,38.205],[39.1413,38.1786],[39.1149,38.1927],[39.1485,38.2842],[39.145,38.3078],[39.1149,38.3435],[39.2521,38.3622],[39.335,38.3453],[39.4203,38.3402],[39.4619,38.3546],[39.5388,38.363],[39.5674,38.3763],[39.643,38.381],[39.72,38.3777],[39.7843,38.4027],[39.832,38.4651],[39.8474,38.4974],[39.893,38.504],[39.9662,38.4694],[40.3012,38.478],[40.2868,38.5679],[40.2332,38.6304],[40.2803,38.7366],[40.3441,38.7225],[40.3624,38.7496],[40.3822,38.8252],[40.3639,38.8583],[40.3038,38.9156],[40.2795,38.9929],[40.2995,39.0632],[40.3496,39.1176],[40.3916,39.1817],[40.3612,39.2294],[40.2444,39.1927],[40.0151,39.0974],[40.04,39.1616],[40.0189,39.237],[40.0358,39.2886],[40.0416,39.338],[40.0563,39.3579],[40.1053,39.3701],[40.1896,39.3718],[40.2077,39.408],[40.2528,39.4218],[40.3017,39.4211],[40.3484,39.447],[40.3764,39.4919],[40.3923,39.5022],[40.4653,39.4944],[40.5155,39.5127],[40.5548,39.549],[40.6188,39.5324],[40.7079,39.5223],[40.7973,39.5521],[40.855,39.581],[40.8862,39.5666],[40.9831,39.4966],[41.0578,39.4688],[41.1183,39.4637],[41.1629,39.423],[41.2051,39.3657],[41.3652,39.3866],[41.4456,39.3718],[41.4828,39.353],[41.581,39.2782],[41.639,39.214],[41.6626,39.1988],[41.7477,39.1715],[41.8345,39.1688],[41.9147,39.2108],[42.0373,39.2271],[42.0867,39.2659],[42.1557,39.2991],[42.1839,39.3364],[42.1781,39.3816],[42.1987,39.4261],[42.3357,39.4793],[42.4313,39.4914],[42.4632,39.5315],[42.4729,39.5786],[42.471,39.7141],[42.4949,39.7481],[42.3529,39.7921],[42.2716,39.8694],[42.3067,39.8807],[42.3816,39.8706],[42.4179,39.8802],[42.44,39.9036],[42.503,39.9128],[42.536,39.9274],[42.5637,39.9519],[42.4846,40.0588],[42.4252,40.0763],[42.3787,40.125],[42.3165,40.1496],[42.2309,40.1605],[42.1504,40.2405],[42.1812,40.2944],[42.3269,40.3319],[42.3444,40.3395],[42.25,40.35],[41.95,40.4],[41.7541,40.6155],[41.7347,40.6236],[41.6566,40.6412],[41.5788,40.6243],[41.4935,40.5818],[41.4013,40.5556],[41.3334,40.601],[41.347,40.6864],[41.3727,40.7221],[41.3653,40.7547],[41.3293,40.7645],[41.2055,40.7792],[41.1274,40.8129],[41.0509,40.7784],[40.9444,40.709],[40.9016,40.6983],[40.8575,40.698],[40.8219,40.6866],[40.7918,40.6291],[40.6514,40.6041],[40.4894,40.5421],[40.4294,40.5295],[40.3267,40.53],[40.2279,40.5112],[40.1846,40.5104],[40.1017,40.5307],[40.0159,40.5327],[39.9747,40.5503],[39.9138,40.603],[39.8836,40.6118],[39.8633,40.5994],[39.8699,40.5749],[39.834,40.561],[39.8674,40.4136],[39.86,40.2669],[39.8276,40.2092],[39.8115,40.144],[39.8328,40.0769],[39.8691,40.0148],[39.8317,39.9709],[39.7879,39.9348],[39.6764,39.9147],[39.622,39.8938],[39.5647,39.8892],[39.5058,39.8926],[39.447,39.888],[39.3854,39.8933],[39.327,39.9163],[39.2665,39.9303],[39.2331,39.9607],[39.1583,39.9901],[39.0496,40.0391],[38.989,40.0488],[38.9333,40.0713],[38.8925,40.0576],[38.8055,40.0525],[38.7616,40.0549],[38.661,40.0935],[38.5563,40.1194],[38.4542,40.0999],[38.3923,40.1283],[38.3311,40.1647],[38.2748,40.1861],[38.2382,40.2286],[38.2405,40.2852],[38.1583,40.5235],[38.0952,40.4922],[38.0084,40.481],[37.998,40.4688],[38.0016,40.4116],[37.9802,40.4013],[37.8977,40.4041],[37.8614,40.3839],[37.8019,40.3357],[37.7669,40.3319],[37.6901,40.3794],[37.6349,40.4612],[37.617,40.5212],[37.5841,40.5694],[37.4488,40.5759],[37.2197,40.6977],[37.1525,40.7019],[37.0846,40.6943],[37.0134,40.6989],[36.9468,40.7203],[36.8954,40.7447],[36.8118,40.7661],[36.7565,40.792],[36.6989,40.8068],[36.6875,40.836],[36.7052,40.8625],[36.746,40.875],[36.8284,40.8878],[36.8807,40.9124],[36.9203,40.9458],[36.9991,40.9797],[37.0423,41.0418],[37.0984,41.0866],[37.1517,41.1468],[37.1489,41.1468],[37.1489,41.2497],[37.1739,41.2497],[37.1739,41.2661],[37.1489,41.2728],[37.1238,41.2796],[37.0736,41.2931],[36.9132,41.3364],[36.8731,41.3526],[36.071,41.676],[36.0449,41.7015],[36.0387,41.689],[36.033,41.6914],[35.9779,41.7297],[35.9627,41.7197],[35.9466,41.7262],[35.9568,41.7363],[35.9403,41.7287],[35.7284,41.8142],[35.6225,41.8569],[35.5961,41.8675],[35.5166,41.8996],[35.3048,41.985],[35.2076,42.0242],[35.1862,42.0425],[35.1604,42.0415],[35.1588,42.0404],[35.1066,42.0397],[35.0453,42.0545],[35.0488,42.0651],[35.0239,42.0925],[34.9481,42.0988],[34.9419,42.0693],[34.9142,42.0371],[34.533,42.0321],[34.3424,42.0295],[34.2471,42.0283],[34.1995,42.0276],[34.1518,42.027],[33.5143,42.0185],[33.4818,42.0106],[33.3895,42.0168],[33.3609,42.0207],[33.3245,42.019],[33.2916,42.0062],[33.2839,42.0052],[33.0586,41.93],[33.0081,41.9173],[32.9667,41.8994],[32.9455,41.8923],[32.7903,41.8596],[32.7985,41.8597],[32.8083,41.7995],[32.8366,41.7551],[32.873,41.6823],[32.8085,41.6478],[32.818,41.5764],[32.8522,41.5477],[32.9131,41.5548],[32.9861,41.5732],[33.0589,41.5328],[33.0871,41.4439],[33.1154,41.3954],[33.017,41.3804],[32.9647,41.3411],[32.9194,41.2944],[32.9103,41.2606],[32.9297,41.1533],[32.9858,41.147],[33.038,41.1289],[33.0692,41.093],[33.0265,41.0115],[32.9295,40.9711],[32.8326,40.9792],[32.7962,40.963],[32.7483,40.8974],[32.6305,40.8256],[32.5262,40.7887],[32.5295,40.8152],[32.4922,40.8678],[32.3769,40.9106],[32.3303,40.9328],[32.2783,40.9486],[32.284,41.0039],[32.1983,41.0181],[32.1494,41.0192],[31.9347,41.0241],[31.8722,41.0365],[31.7991,41.0418],[31.7819,40.955],[31.7334,40.9105],[31.6405,40.8943],[31.5112,40.8782],[31.4627,40.8499],[31.4586,40.7974],[31.4223,40.7246],[31.3455,40.6802],[31.2485,40.6721],[31.1354,40.7085],[30.9737,40.7044],[30.8912,40.7268],[30.8278,40.689],[30.8373,40.6255],[30.8252,40.5958],[30.7607,40.5721],[30.6908,40.5744],[30.65,40.5283],[30.6225,40.4662],[30.595,40.4489],[30.6011,40.4229],[30.6448,40.3673],[30.626,40.3315],[30.64,40.2872],[30.7011,40.204],[30.7386,40.1678],[30.6361,40.1646],[30.5554,40.1146],[30.5242,40.0116],[30.4907,39.9653],[30.4395,39.9362],[30.3852,39.9367],[30.3339,39.9197],[30.3016,39.8791],[30.2452,39.8497],[30.235,39.7477],[30.1917,39.6885],[30.1361,39.6388],[30.0241,39.6242],[29.9455,39.6076],[29.902,39.6166],[29.7911,39.6771],[29.7163,39.7093],[29.6658,39.7788],[29.6617,39.8211],[29.6777,39.9063],[29.6183,39.8924],[29.5544,39.8919],[29.4502,39.9235],[29.3995,39.8959],[29.3682,39.8133],[29.3478,39.7969],[29.3202,39.7172],[29.2742,39.6909],[29.2525,39.6458],[29.2461,39.5793],[29.1908,39.5521],[29.1193,39.5516],[29.0048,39.5661],[28.9672,39.5891],[28.947,39.5599],[28.9408,39.5211],[28.9088,39.4707],[28.896,39.3997],[28.8497,39.3479],[28.8114,39.2906],[28.7787,39.2722],[28.6667,39.238],[28.6578,39.204],[28.6595,39.1566],[28.7304,39.1008],[28.881,39.0753],[28.9099,39.0596],[28.9743,38.9816],[28.9909,38.948],[28.982,38.8867],[29.0153,38.84],[29.0363,38.7933],[29.0323,38.7301],[28.9955,38.701],[28.9179,38.6537],[28.8767,38.6084],[28.8484,38.6001],[28.8519,38.5647],[28.8804,38.5571],[28.9029,38.5354],[28.9155,38.4407],[28.9082,38.3932],[28.8949,38.3632],[28.8385,38.3034],[28.8638,38.288],[28.8938,38.2874],[28.931,38.2551],[28.8381,38.2388],[28.7936,38.1705],[28.7984,38.1436],[28.7844,38.1199],[28.743,38.1043],[28.698,38.1038],[28.7222,38.0591],[28.7777,38.0288],[28.7905,37.9994],[28.7884,37.9652],[28.8043,37.9051],[28.7734,37.8711],[28.7706,37.8452],[28.8292,37.7705],[28.8929,37.7603],[28.8996,37.7097],[28.869,37.6925],[28.8302,37.6911],[28.7833,37.6385],[28.7303,37.5984],[28.6531,37.6063],[28.5832,37.5897],[28.5628,37.553]]]}},
{"type":"Feature","properties":{"entityId":"rum-sultanate","from":1243,"to":1251,"certainty":"estimated","source":"유럽 쪽은 Natural Earth 1:10m admin-1(v5.1.2) 현대 행정구역 조각을 그 시기 국경에 맞춰 묶고, 조각이 역사 경계와 다른 곳은 선을 그어 나눈 근사. 유럽 밖(시베리아·중앙아시아·극동)은 대략적인 추정. 운영자 검수 필요"},"geometry":{"type":"Polygon","coordinates":[[[36.5055,38.3229],[36.4626,38.358],[36.4373,38.4097],[36.4001,38.4566],[36.348,38.4747],[36.2669,38.4578],[36.19,38.4235],[36.1459,38.3951],[36.1033,38.3122],[36.0756,38.2819],[36.0331,38.2133],[35.979,38.155],[35.6077,37.9538],[35.6296,37.7702],[35.5772,37.7505],[35.4536,37.7888],[35.3632,37.8073],[35.1906,37.8181],[35.0597,37.7135],[34.9619,37.7007],[34.9106,37.7136],[34.8597,37.7166],[34.8278,37.6802],[34.8326,37.6299],[34.8652,37.553],[34.8499,37.5106],[34.7946,37.4572],[34.7916,37.3877],[34.7215,37.4014],[34.5875,37.3533],[34.5122,37.352],[34.5001,37.3199],[34.4819,37.3089],[34.3986,37.2822],[34.3539,37.248],[34.2979,37.2254],[34.2105,37.2013],[34.1832,37.1879],[34.149,37.155],[34.0786,37.133],[34.0027,37.1288],[33.9668,37.1162],[33.8706,37.0577],[33.7975,37.0471],[33.7366,37.0287],[33.7021,37.0372],[33.6194,37.0318],[33.54,37.0066],[33.4132,36.9972],[33.3719,36.988],[33.27,36.928],[33.2327,36.918],[33.2007,36.8871],[33.1888,36.8426],[33.1673,36.8134],[33.1312,36.8211],[33.1079,36.8464],[33.0336,36.8141],[32.9795,36.8038],[32.982,36.7716],[33.0193,36.7283],[33.0435,36.6727],[33.0684,36.6632],[33.1084,36.6296],[33.1612,36.6185],[33.2068,36.5909],[33.231,36.5607],[33.2048,36.5344],[33.1318,36.5613],[33.1022,36.5535],[33.0762,36.4855],[33.0524,36.4666],[32.9582,36.4644],[32.8994,36.4533],[32.8425,36.4328],[32.7824,36.4316],[32.7173,36.445],[32.6517,36.438],[32.6426,36.3794],[32.6472,36.2693],[32.6313,36.2213],[32.602,36.1693],[32.5903,36.1199],[32.5718,36.094],[32.5826,36.0888],[32.5452,36.0981],[32.5134,36.103],[32.4373,36.1387],[32.4196,36.1595],[32.3655,36.178],[32.3187,36.2286],[32.283,36.2506],[32.2814,36.2591],[31.6999,36.6443],[30.6203,36.6781],[30.5724,36.5919],[30.5811,36.5752],[30.5698,36.528],[30.5487,36.5115],[30.5101,36.4583],[30.5088,36.4543],[30.5046,36.4478],[30.4927,36.3708],[30.5016,36.3636],[30.4942,36.3493],[30.5199,36.3419],[30.4838,36.3127],[30.4835,36.3107],[30.473,36.2985],[30.4668,36.2878],[30.488,36.2878],[30.4517,36.2618],[30.4408,36.2393],[30.3986,36.206],[30.4004,36.2481],[30.4,36.2488],[30.3863,36.243],[30.3861,36.2431],[30.3859,36.243],[30.3566,36.2576],[29.823,36.1649],[29.7953,36.1452],[29.7617,36.137],[29.7457,36.1515],[29.6987,36.1433],[29.6986,36.1434],[29.6983,36.1433],[29.6944,36.1455],[29.6724,36.1234],[29.6682,36.1438],[29.634,36.1571],[29.6342,36.1723],[29.5887,36.1861],[29.5835,36.1855],[29.585,36.1872],[29.5229,36.206],[29.5215,36.206],[29.4945,36.211],[29.4725,36.2213],[29.4262,36.2353],[29.4204,36.2306],[29.4187,36.2375],[29.3702,36.2522],[29.3571,36.2357],[29.3223,36.2469],[29.2612,36.2936],[29.3071,36.325],[29.3133,36.3763],[29.362,36.4631],[29.4244,36.4835],[29.4549,36.4733],[29.4773,36.4824],[29.4811,36.5371],[29.5755,36.599],[29.5938,36.6543],[29.5802,36.7161],[29.6889,36.9143],[29.604,37.0086],[29.4834,36.9959],[29.435,36.9474],[29.3967,36.9597],[29.4134,37.0176],[29.3904,37.0686],[29.3426,37.038],[29.3357,36.973],[29.3044,36.9258],[29.2704,36.9116],[29.1699,36.9549],[29.1151,36.9581],[29.0902,36.9779],[29.0754,37.0655],[29.0618,37.1029],[29.0019,37.1497],[28.9283,37.1766],[28.8861,37.2249],[28.8115,37.2335],[28.7779,37.2721],[28.765,37.3185],[28.7353,37.3599],[28.688,37.3747],[28.6273,37.3825],[28.6174,37.4112],[28.6208,37.4605],[28.6089,37.4775],[28.5956,37.5061],[28.5754,37.5146],[28.5628,37.553],[28.5832,37.5897],[28.6531,37.6063],[28.7303,37.5984],[28.7833,37.6385],[28.8302,37.6911],[28.869,37.6925],[28.8996,37.7097],[28.8929,37.7603],[28.8292,37.7705],[28.7706,37.8452],[28.7734,37.8711],[28.8043,37.9051],[28.7884,37.9652],[28.7905,37.9994],[28.7777,38.0288],[28.7222,38.0591],[28.698,38.1038],[28.743,38.1043],[28.7844,38.1199],[28.7984,38.1436],[28.7936,38.1705],[28.8381,38.2388],[28.931,38.2551],[28.8938,38.2874],[28.8638,38.288],[28.8385,38.3034],[28.8949,38.3632],[28.9082,38.3932],[28.9155,38.4407],[28.9029,38.5354],[28.8804,38.5571],[28.8519,38.5647],[28.8484,38.6001],[28.8767,38.6084],[28.9179,38.6537],[28.9955,38.701],[29.0323,38.7301],[29.0363,38.7933],[29.0153,38.84],[28.982,38.8867],[28.9909,38.948],[28.9743,38.9816],[28.9099,39.0596],[28.881,39.0753],[28.7304,39.1008],[28.6595,39.1566],[28.6578,39.204],[28.6667,39.238],[28.7787,39.2722],[28.8114,39.2906],[28.8497,39.3479],[28.896,39.3997],[28.9088,39.4707],[28.9408,39.5211],[28.947,39.5599],[28.9672,39.5891],[29.0048,39.5661],[29.1193,39.5516],[29.1908,39.5521],[29.2461,39.5793],[29.2525,39.6458],[29.2742,39.6909],[29.3202,39.7172],[29.3478,39.7969],[29.3682,39.8133],[29.3995,39.8959],[29.4502,39.9235],[29.5544,39.8919],[29.6183,39.8924],[29.6777,39.9063],[29.6617,39.8211],[29.6658,39.7788],[29.7163,39.7093],[29.7911,39.6771],[29.902,39.6166],[29.9455,39.6076],[30.0241,39.6242],[30.1361,39.6388],[30.1917,39.6885],[30.235,39.7477],[30.2452,39.8497],[30.3016,39.8791],[30.3339,39.9197],[30.3852,39.9367],[30.4395,39.9362],[30.4907,39.9653],[30.5242,40.0116],[30.5554,40.1146],[30.6361,40.1646],[30.7386,40.1678],[30.7011,40.204],[30.64,40.2872],[30.626,40.3315],[30.6448,40.3673],[30.6011,40.4229],[30.595,40.4489],[30.6225,40.4662],[30.65,40.5283],[30.6908,40.5744],[30.7607,40.5721],[30.8252,40.5958],[30.8373,40.6255],[30.8278,40.689],[30.8912,40.7268],[30.9737,40.7044],[31.1354,40.7085],[31.2485,40.6721],[31.3455,40.6802],[31.4223,40.7246],[31.4586,40.7974],[31.4627,40.8499],[31.5112,40.8782],[31.6405,40.8943],[31.7334,40.9105],[31.7819,40.955],[31.7991,41.0418],[31.8722,41.0365],[31.9347,41.0241],[32.1494,41.0192],[32.1983,41.0181],[32.284,41.0039],[32.2783,40.9486],[32.3303,40.9328],[32.3769,40.9106],[32.4922,40.8678],[32.5295,40.8152],[32.5262,40.7887],[32.6305,40.8256],[32.7483,40.8974],[32.7962,40.963],[32.8326,40.9792],[32.9295,40.9711],[33.0265,41.0115],[33.0692,41.093],[33.038,41.1289],[32.9858,41.147],[32.9297,41.1533],[32.9103,41.2606],[32.9194,41.2944],[32.9647,41.3411],[33.017,41.3804],[33.1154,41.3954],[33.0871,41.4439],[33.0589,41.5328],[32.9861,41.5732],[32.9131,41.5548],[32.8522,41.5477],[32.818,41.5764],[32.8085,41.6478],[32.873,41.6823],[32.8366,41.7551],[32.8083,41.7995],[32.7985,41.8597],[32.7903,41.8596],[32.9455,41.8923],[32.9667,41.8994],[33.0081,41.9173],[33.0586,41.93],[33.2839,42.0052],[33.2916,42.0062],[33.3245,42.019],[33.3609,42.0207],[33.3895,42.0168],[33.4818,42.0106],[33.5143,42.0185],[34.1518,42.027],[34.1995,42.0276],[34.2471,42.0283],[34.3424,42.0295],[34.533,42.0321],[34.9142,42.0371],[34.9419,42.0693],[34.9481,42.0988],[35.0239,42.0925],[35.0488,42.0651],[35.0453,42.0545],[35.1066,42.0397],[35.1588,42.0404],[35.1604,42.0415],[35.1862,42.0425],[35.2076,42.0242],[35.3048,41.985],[35.5166,41.8996],[35.5696,41.8782],[35.5961,41.8675],[35.6225,41.8569],[35.7284,41.8142],[35.9403,41.7287],[35.9568,41.7363],[35.9466,41.7262],[35.9627,41.7197],[35.9779,41.7297],[36.033,41.6914],[36.0387,41.689],[36.0449,41.7015],[36.071,41.676],[36.8731,41.3526],[36.9132,41.3364],[37.0736,41.2931],[37.1238,41.2796],[37.1489,41.2728],[37.1739,41.2661],[37.1739,41.2497],[37.1489,41.2497],[37.1489,41.2199],[37.1489,41.1833],[37.1489,41.1468],[37.1517,41.1468],[37.0984,41.0866],[37.0423,41.0418],[36.9991,40.9797],[36.9203,40.9458],[36.8807,40.9124],[36.8284,40.8878],[36.746,40.875],[36.7052,40.8625],[36.6875,40.836],[36.6989,40.8068],[36.7565,40.792],[36.8118,40.7661],[36.8954,40.7447],[36.9468,40.7203],[37.0134,40.6989],[37.0846,40.6943],[37.1525,40.7019],[37.2197,40.6977],[37.4488,40.5759],[37.5841,40.5694],[37.617,40.5212],[37.6349,40.4612],[37.6901,40.3794],[37.7669,40.3319],[37.8019,40.3357],[37.8614,40.3839],[37.8977,40.4041],[37.9802,40.4013],[38.0016,40.4116],[37.998,40.4688],[38.0084,40.481],[38.0952,40.4922],[38.1583,40.5235],[38.2405,40.2852],[38.2382,40.2286],[38.2748,40.1861],[38.3311,40.1647],[38.3923,40.1283],[38.4542,40.0999],[38.5563,40.1194],[38.661,40.0935],[38.7616,40.0549],[38.7585,40.0038],[38.7372,39.9655],[38.6456,39.9715],[38.5932,39.9627],[38.5464,39.937],[38.4977,39.9431],[38.4511,39.9708],[38.4067,39.9507],[38.3692,39.8679],[38.3772,39.8363],[38.4462,39.8382],[38.5192,39.852],[38.5402,39.8328],[38.5297,39.8052],[38.49,39.8026],[38.4527,39.7872],[38.3786,39.7035],[38.3671,39.5991],[38.3442,39.5648],[38.3556,39.5265],[38.4238,39.4841],[38.4467,39.4599],[38.4385,39.444],[38.403,39.426],[38.3667,39.3886],[38.3689,39.3374],[38.3875,39.2791],[38.3817,39.2427],[38.3926,39.211],[38.384,39.1773],[38.3617,39.1503],[38.4409,39.1195],[38.5356,39.1159],[38.6236,39.0822],[38.6879,39.023],[38.7457,39.0378],[38.7843,38.9931],[38.7853,38.9642],[38.7698,38.9096],[38.8131,38.8772],[38.8414,38.8765],[38.9198,38.8929],[38.9988,38.8975],[39.0414,38.883],[39.0809,38.8872],[39.1122,38.8724],[39.2254,38.858],[39.3143,38.8175],[39.3587,38.8071],[39.4005,38.7741],[39.4267,38.7789],[39.4756,38.7633],[39.5318,38.8061],[39.6995,38.8143],[39.7928,38.8433],[39.8536,38.8958],[39.8802,38.9386],[39.8944,38.9854],[39.8791,39.0593],[39.9111,39.0859],[40.0151,39.0974],[40.2444,39.1927],[40.3612,39.2294],[40.3916,39.1817],[40.3496,39.1176],[40.2995,39.0632],[40.2795,38.9929],[40.3038,38.9156],[40.3639,38.8583],[40.3822,38.8252],[40.3624,38.7496],[40.3441,38.7225],[40.2803,38.7366],[40.2332,38.6304],[40.2868,38.5679],[40.3012,38.478],[39.9662,38.4694],[39.893,38.504],[39.8474,38.4974],[39.832,38.4651],[39.7843,38.4027],[39.72,38.3777],[39.643,38.381],[39.5674,38.3763],[39.5388,38.363],[39.4619,38.3546],[39.4203,38.3402],[39.335,38.3453],[39.2521,38.3622],[39.1149,38.3435],[39.145,38.3078],[39.1485,38.2842],[39.1149,38.1927],[39.1413,38.1786],[39.2219,38.205],[39.2526,38.1797],[39.2563,38.1531],[39.2247,38.0903],[39.2346,38.0761],[39.189,38.0431],[39.1499,38.0207],[39.0896,38.007],[39.0603,37.9879],[39.0505,37.9397],[39.0272,37.918],[38.9783,37.906],[38.9892,37.878],[38.9709,37.8507],[38.9709,37.8228],[38.9368,37.8296],[38.9085,37.8168],[38.8889,37.7886],[38.9306,37.8075],[38.9539,37.8014],[38.9647,37.7613],[38.9018,37.7527],[38.8889,37.7408],[38.9231,37.7135],[38.8824,37.7149],[38.836,37.6947],[38.8005,37.697],[38.8685,37.6514],[38.6456,37.6242],[38.5154,37.5111],[38.4948,37.5006],[38.3723,37.4839],[38.3408,37.4944],[38.272,37.4764],[38.2499,37.4485],[38.2068,37.4535],[38.1857,37.4129],[38.1702,37.4255],[38.1256,37.4337],[38.0945,37.4535],[38.0655,37.4368],[38.0399,37.446],[37.9614,37.5005],[37.8436,37.5356],[37.7354,37.5367],[37.6251,37.5188],[37.6304,37.4596],[37.6173,37.4144],[37.5748,37.3919],[37.5117,37.393],[37.4492,37.3863],[37.3148,37.3493],[37.1902,37.3315],[37.1342,37.3097],[37.0432,37.2333],[36.9664,37.2532],[36.9377,37.3422],[36.8896,37.3667],[36.8422,37.3154],[36.7212,37.2712],[36.6781,37.3225],[36.5888,37.3818],[36.5506,37.3897],[36.4411,37.3723],[36.3707,37.3563],[36.3541,37.3709],[36.3036,37.3491],[36.262,37.389],[36.2575,37.4553],[36.2328,37.4783],[36.2202,37.5064],[36.2286,37.5368],[36.2795,37.591],[36.2799,37.6691],[36.3071,37.6975],[36.3597,37.7318],[36.3623,37.7726],[36.3308,37.8343],[36.3257,37.912],[36.3386,37.9777],[36.3684,38.0421],[36.4181,38.2188],[36.4493,38.2809],[36.5055,38.3229]]]}},
{"type":"Feature","properties":{"entityId":"rum-sultanate","from":1251,"to":1277,"certainty":"estimated","source":"유럽 쪽은 Natural Earth 1:10m admin-1(v5.1.2) 현대 행정구역 조각을 그 시기 국경에 맞춰 묶고, 조각이 역사 경계와 다른 곳은 선을 그어 나눈 근사. 유럽 밖(시베리아·중앙아시아·극동)은 대략적인 추정. 운영자 검수 필요"},"geometry":{"type":"Polygon","coordinates":[[[36.5055,38.3229],[36.4626,38.358],[36.4373,38.4097],[36.4001,38.4566],[36.348,38.4747],[36.2669,38.4578],[36.19,38.4235],[36.1459,38.3951],[36.1033,38.3122],[36.0756,38.2819],[36.0331,38.2133],[35.979,38.155],[35.6077,37.9538],[35.6296,37.7702],[35.5772,37.7505],[35.4536,37.7888],[35.3632,37.8073],[35.1906,37.8181],[35.0597,37.7135],[34.9619,37.7007],[34.9106,37.7136],[34.8597,37.7166],[34.8278,37.6802],[34.8326,37.6299],[34.8652,37.553],[34.8499,37.5106],[34.7946,37.4572],[34.7916,37.3877],[34.7215,37.4014],[34.5875,37.3533],[34.5122,37.352],[34.5001,37.3199],[34.4819,37.3089],[34.3986,37.2822],[34.3539,37.248],[34.2979,37.2254],[34.2105,37.2013],[34.1832,37.1879],[34.149,37.155],[34.1251,37.1947],[34.0573,37.2852],[33.8047,37.5038],[33.7822,37.5679],[33.7783,37.632],[33.7369,37.6433],[33.6389,37.647],[33.5936,37.6244],[33.5145,37.5415],[33.4127,37.5113],[33.2582,37.5038],[33.1074,37.4887],[33.0132,37.4586],[32.8436,37.3078],[32.7229,37.1759],[32.6287,37.0779],[32.6029,37.011],[32.6098,36.9761],[32.6702,36.9535],[32.7304,36.9497],[32.7455,36.9233],[32.7418,36.8932],[32.7116,36.8555],[32.5684,36.7424],[32.4562,36.6734],[32.4906,36.6016],[32.5316,36.5338],[32.5587,36.5062],[32.632,36.4703],[32.6517,36.438],[32.6426,36.3794],[32.6472,36.2693],[32.6313,36.2213],[32.602,36.1693],[32.5903,36.1199],[32.5718,36.094],[32.5826,36.0888],[32.5452,36.0981],[32.5134,36.103],[32.4373,36.1387],[32.4196,36.1595],[32.3655,36.178],[32.3187,36.2286],[32.283,36.2506],[32.2814,36.2591],[31.6999,36.6443],[30.6203,36.6781],[30.5724,36.5919],[30.5811,36.5752],[30.5698,36.528],[30.5487,36.5115],[30.5101,36.4583],[30.5088,36.4543],[30.5046,36.4478],[30.4927,36.3708],[30.5016,36.3636],[30.4942,36.3493],[30.5199,36.3419],[30.4838,36.3127],[30.4835,36.3107],[30.473,36.2985],[30.4668,36.2878],[30.488,36.2878],[30.4517,36.2618],[30.4408,36.2393],[30.3986,36.206],[30.4004,36.2481],[30.4,36.2488],[30.3863,36.243],[30.3861,36.2431],[30.3859,36.243],[30.3566,36.2576],[29.823,36.1649],[29.7953,36.1452],[29.7617,36.137],[29.7457,36.1515],[29.6987,36.1433],[29.6986,36.1434],[29.6983,36.1433],[29.6944,36.1455],[29.6724,36.1234],[29.6682,36.1438],[29.634,36.1571],[29.6342,36.1723],[29.5887,36.1861],[29.5835,36.1855],[29.585,36.1872],[29.5229,36.206],[29.5215,36.206],[29.4945,36.211],[29.4725,36.2213],[29.4262,36.2353],[29.4204,36.2306],[29.4187,36.2375],[29.3702,36.2522],[29.3571,36.2357],[29.3223,36.2469],[29.2612,36.2936],[29.3071,36.325],[29.3133,36.3763],[29.362,36.4631],[29.4244,36.4835],[29.4549,36.4733],[29.4773,36.4824],[29.4811,36.5371],[29.5755,36.599],[29.5938,36.6543],[29.5802,36.7161],[29.6889,36.9143],[29.604,37.0086],[29.4834,36.9959],[29.435,36.9474],[29.3967,36.9597],[29.4134,37.0176],[29.3904,37.0686],[29.3426,37.038],[29.3357,36.973],[29.3044,36.9258],[29.2704,36.9116],[29.1699,36.9549],[29.1151,36.9581],[29.0902,36.9779],[29.0754,37.0655],[29.0618,37.1029],[29.0019,37.1497],[28.9283,37.1766],[28.8861,37.2249],[28.8115,37.2335],[28.7779,37.2721],[28.765,37.3185],[28.7353,37.3599],[28.688,37.3747],[28.6273,37.3825],[28.6174,37.4112],[28.6208,37.4605],[28.6089,37.4775],[28.5956,37.5061],[28.5754,37.5146],[28.5628,37.553],[28.5832,37.5897],[28.6531,37.6063],[28.7303,37.5984],[28.7833,37.6385],[28.8302,37.6911],[28.869,37.6925],[28.8996,37.7097],[28.8929,37.7603],[28.8292,37.7705],[28.7706,37.8452],[28.7734,37.8711],[28.8043,37.9051],[28.7884,37.9652],[28.7905,37.9994],[28.7777,38.0288],[28.7222,38.0591],[28.698,38.1038],[28.743,38.1043],[28.7844,38.1199],[28.7984,38.1436],[28.7936,38.1705],[28.8381,38.2388],[28.931,38.2551],[28.8938,38.2874],[28.8638,38.288],[28.8385,38.3034],[28.8949,38.3632],[28.9082,38.3932],[28.9155,38.4407],[28.9029,38.5354],[28.8804,38.5571],[28.8519,38.5647],[28.8484,38.6001],[28.8767,38.6084],[28.9179,38.6537],[28.9955,38.701],[29.0323,38.7301],[29.0363,38.7933],[29.0153,38.84],[28.982,38.8867],[28.9909,38.948],[28.9743,38.9816],[28.9099,39.0596],[28.881,39.0753],[28.7304,39.1008],[28.6595,39.1566],[28.6578,39.204],[28.6667,39.238],[28.7787,39.2722],[28.8114,39.2906],[28.8497,39.3479],[28.896,39.3997],[28.9088,39.4707],[28.9408,39.5211],[28.947,39.5599],[28.9672,39.5891],[29.0048,39.5661],[29.1193,39.5516],[29.1908,39.5521],[29.2461,39.5793],[29.2525,39.6458],[29.2742,39.6909],[29.3202,39.7172],[29.3478,39.7969],[29.3682,39.8133],[29.3995,39.8959],[29.4502,39.9235],[29.5544,39.8919],[29.6183,39.8924],[29.6777,39.9063],[29.6617,39.8211],[29.6658,39.7788],[29.7163,39.7093],[29.7911,39.6771],[29.902,39.6166],[29.9455,39.6076],[30.0241,39.6242],[30.1361,39.6388],[30.1917,39.6885],[30.235,39.7477],[30.2452,39.8497],[30.3016,39.8791],[30.3339,39.9197],[30.3852,39.9367],[30.4395,39.9362],[30.4907,39.9653],[30.5242,40.0116],[30.5554,40.1146],[30.6361,40.1646],[30.7386,40.1678],[30.7011,40.204],[30.64,40.2872],[30.626,40.3315],[30.6448,40.3673],[30.6011,40.4229],[30.595,40.4489],[30.6225,40.4662],[30.65,40.5283],[30.6908,40.5744],[30.7607,40.5721],[30.8252,40.5958],[30.8373,40.6255],[30.8278,40.689],[30.8912,40.7268],[30.9737,40.7044],[31.1354,40.7085],[31.2485,40.6721],[31.3455,40.6802],[31.4223,40.7246],[31.4586,40.7974],[31.4627,40.8499],[31.5112,40.8782],[31.6405,40.8943],[31.7334,40.9105],[31.7819,40.955],[31.7991,41.0418],[31.8722,41.0365],[31.9347,41.0241],[32.1494,41.0192],[32.1983,41.0181],[32.284,41.0039],[32.2783,40.9486],[32.3303,40.9328],[32.3769,40.9106],[32.4922,40.8678],[32.5295,40.8152],[32.5262,40.7887],[32.6305,40.8256],[32.7483,40.8974],[32.7962,40.963],[32.8326,40.9792],[32.9295,40.9711],[33.0265,41.0115],[33.0692,41.093],[33.038,41.1289],[32.9858,41.147],[32.9297,41.1533],[32.9103,41.2606],[32.9194,41.2944],[32.9647,41.3411],[33.017,41.3804],[33.1154,41.3954],[33.0871,41.4439],[33.0589,41.5328],[32.9861,41.5732],[32.9131,41.5548],[32.8522,41.5477],[32.818,41.5764],[32.8085,41.6478],[32.873,41.6823],[32.8366,41.7551],[32.8083,41.7995],[32.7985,41.8597],[32.7903,41.8596],[32.9455,41.8923],[32.9667,41.8994],[33.0081,41.9173],[33.0586,41.93],[33.2839,42.0052],[33.2916,42.0062],[33.3245,42.019],[33.3609,42.0207],[33.3895,42.0168],[33.4818,42.0106],[33.5143,42.0185],[34.1518,42.027],[34.1995,42.0276],[34.2471,42.0283],[34.3424,42.0295],[34.533,42.0321],[34.9142,42.0371],[34.9419,42.0693],[34.9481,42.0988],[35.0239,42.0925],[35.0488,42.0651],[35.0453,42.0545],[35.1066,42.0397],[35.1588,42.0404],[35.1604,42.0415],[35.1862,42.0425],[35.2076,42.0242],[35.3048,41.985],[35.5166,41.8996],[35.5696,41.8782],[35.5961,41.8675],[35.6225,41.8569],[35.7284,41.8142],[35.9403,41.7287],[35.9568,41.7363],[35.9466,41.7262],[35.9627,41.7197],[35.9779,41.7297],[36.033,41.6914],[36.0387,41.689],[36.0449,41.7015],[36.071,41.676],[36.8731,41.3526],[36.9132,41.3364],[37.0736,41.2931],[37.1238,41.2796],[37.1489,41.2728],[37.1739,41.2661],[37.1739,41.2497],[37.1489,41.2497],[37.1489,41.2199],[37.1489,41.1833],[37.1489,41.1468],[37.1517,41.1468],[37.0984,41.0866],[37.0423,41.0418],[36.9991,40.9797],[36.9203,40.9458],[36.8807,40.9124],[36.8284,40.8878],[36.746,40.875],[36.7052,40.8625],[36.6875,40.836],[36.6989,40.8068],[36.7565,40.792],[36.8118,40.7661],[36.8954,40.7447],[36.9468,40.7203],[37.0134,40.6989],[37.0846,40.6943],[37.1525,40.7019],[37.2197,40.6977],[37.4488,40.5759],[37.5841,40.5694],[37.617,40.5212],[37.6349,40.4612],[37.6901,40.3794],[37.7669,40.3319],[37.8019,40.3357],[37.8614,40.3839],[37.8977,40.4041],[37.9802,40.4013],[38.0016,40.4116],[37.998,40.4688],[38.0084,40.481],[38.0952,40.4922],[38.1583,40.5235],[38.2405,40.2852],[38.2382,40.2286],[38.2748,40.1861],[38.3311,40.1647],[38.3923,40.1283],[38.4542,40.0999],[38.5563,40.1194],[38.661,40.0935],[38.7616,40.0549],[38.7585,40.0038],[38.7372,39.9655],[38.6456,39.9715],[38.5932,39.9627],[38.5464,39.937],[38.4977,39.9431],[38.4511,39.9708],[38.4067,39.9507],[38.3692,39.8679],[38.3772,39.8363],[38.4462,39.8382],[38.5192,39.852],[38.5402,39.8328],[38.5297,39.8052],[38.49,39.8026],[38.4527,39.7872],[38.3786,39.7035],[38.3671,39.5991],[38.3442,39.5648],[38.3556,39.5265],[38.4238,39.4841],[38.4467,39.4599],[38.4385,39.444],[38.403,39.426],[38.3667,39.3886],[38.3689,39.3374],[38.3875,39.2791],[38.3817,39.2427],[38.3926,39.211],[38.384,39.1773],[38.3617,39.1503],[38.4409,39.1195],[38.5356,39.1159],[38.6236,39.0822],[38.6879,39.023],[38.7457,39.0378],[38.7843,38.9931],[38.7853,38.9642],[38.7698,38.9096],[38.8131,38.8772],[38.8414,38.8765],[38.9198,38.8929],[38.9988,38.8975],[39.0414,38.883],[39.0809,38.8872],[39.1122,38.8724],[39.2254,38.858],[39.3143,38.8175],[39.3587,38.8071],[39.4005,38.7741],[39.4267,38.7789],[39.4756,38.7633],[39.5318,38.8061],[39.6995,38.8143],[39.7928,38.8433],[39.8536,38.8958],[39.8802,38.9386],[39.8944,38.9854],[39.8791,39.0593],[39.9111,39.0859],[40.0151,39.0974],[40.2444,39.1927],[40.3612,39.2294],[40.3916,39.1817],[40.3496,39.1176],[40.2995,39.0632],[40.2795,38.9929],[40.3038,38.9156],[40.3639,38.8583],[40.3822,38.8252],[40.3624,38.7496],[40.3441,38.7225],[40.2803,38.7366],[40.2332,38.6304],[40.2868,38.5679],[40.3012,38.478],[39.9662,38.4694],[39.893,38.504],[39.8474,38.4974],[39.832,38.4651],[39.7843,38.4027],[39.72,38.3777],[39.643,38.381],[39.5674,38.3763],[39.5388,38.363],[39.4619,38.3546],[39.4203,38.3402],[39.335,38.3453],[39.2521,38.3622],[39.1149,38.3435],[39.145,38.3078],[39.1485,38.2842],[39.1149,38.1927],[39.1413,38.1786],[39.2219,38.205],[39.2526,38.1797],[39.2563,38.1531],[39.2247,38.0903],[39.2346,38.0761],[39.189,38.0431],[39.1499,38.0207],[39.0896,38.007],[39.0603,37.9879],[39.0505,37.9397],[39.0272,37.918],[38.9783,37.906],[38.9892,37.878],[38.9709,37.8507],[38.9709,37.8228],[38.9368,37.8296],[38.9085,37.8168],[38.8889,37.7886],[38.9306,37.8075],[38.9539,37.8014],[38.9647,37.7613],[38.9018,37.7527],[38.8889,37.7408],[38.9231,37.7135],[38.8824,37.7149],[38.836,37.6947],[38.8005,37.697],[38.8685,37.6514],[38.6456,37.6242],[38.5154,37.5111],[38.4948,37.5006],[38.3723,37.4839],[38.3408,37.4944],[38.272,37.4764],[38.2499,37.4485],[38.2068,37.4535],[38.1857,37.4129],[38.1702,37.4255],[38.1256,37.4337],[38.0945,37.4535],[38.0655,37.4368],[38.0399,37.446],[37.9614,37.5005],[37.8436,37.5356],[37.7354,37.5367],[37.6251,37.5188],[37.6304,37.4596],[37.6173,37.4144],[37.5748,37.3919],[37.5117,37.393],[37.4492,37.3863],[37.3148,37.3493],[37.1902,37.3315],[37.1342,37.3097],[37.0432,37.2333],[36.9664,37.2532],[36.9377,37.3422],[36.8896,37.3667],[36.8422,37.3154],[36.7212,37.2712],[36.6781,37.3225],[36.5888,37.3818],[36.5506,37.3897],[36.4411,37.3723],[36.3707,37.3563],[36.3541,37.3709],[36.3036,37.3491],[36.262,37.389],[36.2575,37.4553],[36.2328,37.4783],[36.2202,37.5064],[36.2286,37.5368],[36.2795,37.591],[36.2799,37.6691],[36.3071,37.6975],[36.3597,37.7318],[36.3623,37.7726],[36.3308,37.8343],[36.3257,37.912],[36.3386,37.9777],[36.3684,38.0421],[36.4181,38.2188],[36.4493,38.2809],[36.5055,38.3229]]]}},
{"type":"Feature","properties":{"entityId":"rum-sultanate","from":1277,"to":1292,"certainty":"estimated","source":"유럽 쪽은 Natural Earth 1:10m admin-1(v5.1.2) 현대 행정구역 조각을 그 시기 국경에 맞춰 묶고, 조각이 역사 경계와 다른 곳은 선을 그어 나눈 근사. 유럽 밖(시베리아·중앙아시아·극동)은 대략적인 추정. 운영자 검수 필요"},"geometry":{"type":"Polygon","coordinates":[[[36.7052,40.8625],[36.6875,40.836],[36.6989,40.8068],[36.7565,40.792],[36.8118,40.7661],[36.8954,40.7447],[36.9468,40.7203],[37.0134,40.6989],[37.0846,40.6943],[37.1525,40.7019],[37.2197,40.6977],[37.4488,40.5759],[37.5841,40.5694],[37.617,40.5212],[37.6349,40.4612],[37.6901,40.3794],[37.7669,40.3319],[37.8019,40.3357],[37.8614,40.3839],[37.8977,40.4041],[37.9802,40.4013],[38.0016,40.4116],[37.998,40.4688],[38.0084,40.481],[38.0952,40.4922],[38.1583,40.5235],[38.2405,40.2852],[38.2382,40.2286],[38.2748,40.1861],[38.3311,40.1647],[38.3923,40.1283],[38.4542,40.0999],[38.5563,40.1194],[38.661,40.0935],[38.7616,40.0549],[38.7585,40.0038],[38.7372,39.9655],[38.6456,39.9715],[38.5932,39.9627],[38.5464,39.937],[38.4977,39.9431],[38.4511,39.9708],[38.4067,39.9507],[38.3692,39.8679],[38.3772,39.8363],[38.4462,39.8382],[38.5192,39.852],[38.5402,39.8328],[38.5297,39.8052],[38.49,39.8026],[38.4527,39.7872],[38.3786,39.7035],[38.3671,39.5991],[38.3442,39.5648],[38.3556,39.5265],[38.4238,39.4841],[38.4467,39.4599],[38.4385,39.444],[38.403,39.426],[38.3667,39.3886],[38.3689,39.3374],[38.3875,39.2791],[38.3817,39.2427],[38.3926,39.211],[38.384,39.1773],[38.3617,39.1503],[38.2839,39.1297],[38.2123,39.0876],[38.1477,39.0726],[38.0802,39.0802],[38.01,39.0637],[37.932,39.0623],[37.7858,38.9983],[37.7022,38.9843],[37.6176,39.017],[37.5736,39.0082],[37.5516,38.9694],[37.5614,38.9222],[37.5969,38.8343],[37.5805,38.7968],[37.5098,38.7366],[37.4447,38.7082],[37.3936,38.6613],[37.3429,38.6249],[37.2844,38.6036],[37.0597,38.5881],[37.0088,38.6105],[36.8789,38.625],[36.7475,38.5994],[36.7137,38.583],[36.694,38.5523],[36.682,38.4999],[36.65,38.4591],[36.5055,38.3229],[36.4626,38.358],[36.4373,38.4097],[36.4001,38.4566],[36.348,38.4747],[36.2669,38.4578],[36.19,38.4235],[36.1459,38.3951],[36.1033,38.3122],[36.0756,38.2819],[36.0331,38.2133],[35.979,38.155],[35.6077,37.9538],[35.6296,37.7702],[35.5772,37.7505],[35.4536,37.7888],[35.3632,37.8073],[35.1906,37.8181],[35.0597,37.7135],[34.9619,37.7007],[34.9106,37.7136],[34.8597,37.7166],[34.8278,37.6802],[34.8326,37.6299],[34.8652,37.553],[34.8499,37.5106],[34.7946,37.4572],[34.7916,37.3877],[34.7215,37.4014],[34.5875,37.3533],[34.5122,37.352],[34.5001,37.3199],[34.4819,37.3089],[34.3986,37.2822],[34.3539,37.248],[34.2979,37.2254],[34.2105,37.2013],[34.1832,37.1879],[34.149,37.155],[34.1251,37.1947],[34.0573,37.2852],[33.8047,37.5038],[33.7822,37.5679],[33.7783,37.632],[33.7369,37.6433],[33.6389,37.647],[33.5936,37.6244],[33.5145,37.5415],[33.4127,37.5113],[33.2582,37.5038],[33.1074,37.4887],[33.0132,37.4586],[32.8436,37.3078],[32.7229,37.1759],[32.6287,37.0779],[32.6029,37.011],[32.6098,36.9761],[32.6702,36.9535],[32.7304,36.9497],[32.7455,36.9233],[32.7418,36.8932],[32.7116,36.8555],[32.5684,36.7424],[32.4562,36.6734],[32.4632,36.7416],[32.4475,36.8083],[32.4264,36.8321],[32.3487,36.8412],[32.3053,36.8542],[32.2903,36.8814],[32.3016,36.9116],[32.3272,36.9276],[32.3235,36.9582],[32.2531,36.9869],[32.1279,37.0762],[32.0832,37.1266],[32.0331,37.1686],[31.963,37.2076],[31.8987,37.2552],[31.8154,37.2985],[31.5587,37.3407],[31.459,37.3413],[31.4155,37.3549],[31.3764,37.3799],[31.3319,37.4222],[31.3585,37.4776],[31.3677,37.5376],[31.3538,37.5738],[31.3293,37.6039],[31.3292,37.6389],[31.3727,37.6492],[31.4051,37.6815],[31.4093,37.7291],[31.4507,37.7807],[31.4482,37.8592],[31.4252,37.9376],[31.4471,38.0028],[31.4795,38.0187],[31.5496,38.0397],[31.6136,38.072],[31.6207,38.1047],[31.5483,38.1548],[31.5253,38.1809],[31.4914,38.1926],[31.4219,38.2381],[31.3614,38.3],[31.2833,38.3501],[31.2544,38.423],[31.4308,38.5141],[31.5072,38.5771],[31.5948,38.6664],[31.5922,38.7288],[31.608,38.7821],[31.6383,38.8291],[31.7149,38.9277],[31.7236,38.9675],[31.6747,39.0005],[31.6978,39.0926],[31.6596,39.1003],[31.5819,39.1019],[31.4528,39.0912],[31.3783,39.1357],[31.3281,39.2239],[31.2577,39.2819],[31.2165,39.2725],[31.1462,39.23],[31.1072,39.2226],[31.035,39.1791],[30.9622,39.1546],[30.9186,39.1926],[30.8685,39.2109],[30.7698,39.1412],[30.668,39.093],[30.6212,39.0869],[30.5437,39.1241],[30.5049,39.1784],[30.4772,39.1996],[30.4418,39.2063],[30.4242,39.2695],[30.3238,39.372],[30.312,39.4495],[30.2845,39.5097],[30.174,39.5905],[30.1361,39.6388],[30.1917,39.6885],[30.235,39.7477],[30.2452,39.8497],[30.3016,39.8791],[30.3339,39.9197],[30.3852,39.9367],[30.4395,39.9362],[30.4907,39.9653],[30.5242,40.0116],[30.5554,40.1146],[30.6361,40.1646],[30.7386,40.1678],[30.7011,40.204],[30.64,40.2872],[30.626,40.3315],[30.6448,40.3673],[30.6011,40.4229],[30.595,40.4489],[30.6225,40.4662],[30.65,40.5283],[30.6908,40.5744],[30.7607,40.5721],[30.8252,40.5958],[30.8373,40.6255],[30.8278,40.689],[30.8912,40.7268],[30.9737,40.7044],[31.1354,40.7085],[31.2485,40.6721],[31.3455,40.6802],[31.4223,40.7246],[31.4586,40.7974],[31.4627,40.8499],[31.5112,40.8782],[31.6405,40.8943],[31.7334,40.9105],[31.7819,40.955],[31.7991,41.0418],[31.8722,41.0365],[31.9347,41.0241],[32.1494,41.0192],[32.1983,41.0181],[32.284,41.0039],[32.2783,40.9486],[32.3303,40.9328],[32.3769,40.9106],[32.4922,40.8678],[32.5295,40.8152],[32.5262,40.7887],[32.6305,40.8256],[32.7483,40.8974],[32.7962,40.963],[32.8326,40.9792],[32.9295,40.9711],[33.0265,41.0115],[33.0692,41.093],[33.038,41.1289],[32.9858,41.147],[32.9297,41.1533],[32.9103,41.2606],[32.9194,41.2944],[32.9647,41.3411],[33.017,41.3804],[33.1154,41.3954],[33.0871,41.4439],[33.0589,41.5328],[32.9861,41.5732],[32.9131,41.5548],[32.8522,41.5477],[32.818,41.5764],[32.8085,41.6478],[32.873,41.6823],[32.8366,41.7551],[32.8083,41.7995],[32.7985,41.8597],[32.7903,41.8596],[32.9455,41.8923],[32.9667,41.8994],[33.0081,41.9173],[33.0586,41.93],[33.2839,42.0052],[33.2916,42.0062],[33.3245,42.019],[33.3609,42.0207],[33.3895,42.0168],[33.4818,42.0106],[33.5143,42.0185],[34.1518,42.027],[34.1995,42.0276],[34.1995,41.9925],[34.1995,41.9619],[34.2161,41.9601],[34.2209,41.9035],[34.1926,41.8451],[34.1422,41.8002],[34.1404,41.7671],[34.2051,41.7478],[34.2842,41.7453],[34.3443,41.7325],[34.4661,41.7275],[34.5325,41.7132],[34.5879,41.6575],[34.5533,41.5912],[34.4918,41.5523],[34.472,41.5185],[34.4629,41.4798],[34.4798,41.4416],[34.4719,41.3108],[34.4985,41.2859],[34.5575,41.2846],[34.5741,41.2705],[34.641,41.2721],[34.6704,41.2661],[34.7239,41.2293],[34.8373,41.2016],[34.8761,41.233],[34.888,41.2698],[34.9395,41.2003],[34.959,41.1248],[34.9748,41.0874],[35.0516,41.0942],[35.0893,41.0869],[35.4,41.0207],[35.4611,41.0294],[35.4941,41.015],[35.6388,40.931],[35.673,40.886],[35.7061,40.8788],[35.7823,40.8831],[35.8208,40.8772],[35.9532,40.8759],[36.0314,40.8474],[36.0735,40.8548],[36.1548,40.9014],[36.1855,40.9422],[36.2031,40.9878],[36.2429,41.007],[36.2792,40.9969],[36.3071,40.9738],[36.3355,40.9292],[36.4431,40.8704],[36.5526,40.8902],[36.6,40.9068],[36.6529,40.9056],[36.6872,40.8866],[36.7052,40.8625]]]}},
{"type":"Feature","properties":{"entityId":"rum-sultanate","from":1292,"to":1299,"certainty":"estimated","source":"유럽 쪽은 Natural Earth 1:10m admin-1(v5.1.2) 현대 행정구역 조각을 그 시기 국경에 맞춰 묶고, 조각이 역사 경계와 다른 곳은 선을 그어 나눈 근사. 유럽 밖(시베리아·중앙아시아·극동)은 대략적인 추정. 운영자 검수 필요"},"geometry":{"type":"Polygon","coordinates":[[[36.7052,40.8625],[36.6875,40.836],[36.6989,40.8068],[36.7565,40.792],[36.8118,40.7661],[36.8954,40.7447],[36.9468,40.7203],[37.0134,40.6989],[37.0846,40.6943],[37.1525,40.7019],[37.2197,40.6977],[37.4488,40.5759],[37.5841,40.5694],[37.617,40.5212],[37.6349,40.4612],[37.6901,40.3794],[37.7669,40.3319],[37.8019,40.3357],[37.8614,40.3839],[37.8977,40.4041],[37.9802,40.4013],[38.0016,40.4116],[37.998,40.4688],[38.0084,40.481],[38.0952,40.4922],[38.1583,40.5235],[38.2405,40.2852],[38.2382,40.2286],[38.2748,40.1861],[38.3311,40.1647],[38.3923,40.1283],[38.4542,40.0999],[38.5563,40.1194],[38.661,40.0935],[38.7616,40.0549],[38.7585,40.0038],[38.7372,39.9655],[38.6456,39.9715],[38.5932,39.9627],[38.5464,39.937],[38.4977,39.9431],[38.4511,39.9708],[38.4067,39.9507],[38.3692,39.8679],[38.3772,39.8363],[38.4462,39.8382],[38.5192,39.852],[38.5402,39.8328],[38.5297,39.8052],[38.49,39.8026],[38.4527,39.7872],[38.3786,39.7035],[38.3671,39.5991],[38.3442,39.5648],[38.3556,39.5265],[38.4238,39.4841],[38.4467,39.4599],[38.4385,39.444],[38.403,39.426],[38.3667,39.3886],[38.3689,39.3374],[38.3875,39.2791],[38.3817,39.2427],[38.3926,39.211],[38.384,39.1773],[38.3617,39.1503],[38.2839,39.1297],[38.2123,39.0876],[38.1477,39.0726],[38.0802,39.0802],[38.01,39.0637],[37.932,39.0623],[37.7858,38.9983],[37.7022,38.9843],[37.6176,39.017],[37.5736,39.0082],[37.5516,38.9694],[37.5614,38.9222],[37.5969,38.8343],[37.5805,38.7968],[37.5098,38.7366],[37.4447,38.7082],[37.3936,38.6613],[37.3429,38.6249],[37.2844,38.6036],[37.0597,38.5881],[37.0088,38.6105],[36.8789,38.625],[36.7475,38.5994],[36.7137,38.583],[36.694,38.5523],[36.682,38.4999],[36.65,38.4591],[36.5055,38.3229],[36.4626,38.358],[36.4373,38.4097],[36.4001,38.4566],[36.348,38.4747],[36.2669,38.4578],[36.19,38.4235],[36.1459,38.3951],[36.1033,38.3122],[36.0756,38.2819],[36.0331,38.2133],[35.979,38.155],[35.6077,37.9538],[35.6296,37.7702],[35.5772,37.7505],[35.4536,37.7888],[35.3632,37.8073],[35.1906,37.8181],[35.0597,37.7135],[34.9619,37.7007],[34.9106,37.7136],[34.8597,37.7166],[34.8278,37.6802],[34.8326,37.6299],[34.8652,37.553],[34.8499,37.5106],[34.7946,37.4572],[34.7916,37.3877],[34.7215,37.4014],[34.5875,37.3533],[34.5122,37.352],[34.5001,37.3199],[34.4819,37.3089],[34.3986,37.2822],[34.3539,37.248],[34.2979,37.2254],[34.2105,37.2013],[34.1832,37.1879],[34.149,37.155],[34.1251,37.1947],[34.0573,37.2852],[33.8047,37.5038],[33.7822,37.5679],[33.7783,37.632],[33.7369,37.6433],[33.6389,37.647],[33.5936,37.6244],[33.5145,37.5415],[33.4127,37.5113],[33.2582,37.5038],[33.1074,37.4887],[33.0132,37.4586],[32.8436,37.3078],[32.7229,37.1759],[32.6287,37.0779],[32.6029,37.011],[32.6098,36.9761],[32.6702,36.9535],[32.7304,36.9497],[32.7455,36.9233],[32.7418,36.8932],[32.7116,36.8555],[32.5684,36.7424],[32.4562,36.6734],[32.4632,36.7416],[32.4475,36.8083],[32.4264,36.8321],[32.3487,36.8412],[32.3053,36.8542],[32.2903,36.8814],[32.3016,36.9116],[32.3272,36.9276],[32.3235,36.9582],[32.2531,36.9869],[32.1279,37.0762],[32.0832,37.1266],[32.0331,37.1686],[31.963,37.2076],[31.8987,37.2552],[31.8154,37.2985],[31.5587,37.3407],[31.459,37.3413],[31.4155,37.3549],[31.3764,37.3799],[31.3319,37.4222],[31.3585,37.4776],[31.3677,37.5376],[31.3538,37.5738],[31.3293,37.6039],[31.3292,37.6389],[31.3727,37.6492],[31.4051,37.6815],[31.4093,37.7291],[31.4507,37.7807],[31.4482,37.8592],[31.4252,37.9376],[31.4471,38.0028],[31.4795,38.0187],[31.5496,38.0397],[31.6136,38.072],[31.6207,38.1047],[31.5483,38.1548],[31.5253,38.1809],[31.4914,38.1926],[31.4219,38.2381],[31.3614,38.3],[31.2833,38.3501],[31.2544,38.423],[31.4308,38.5141],[31.5072,38.5771],[31.5948,38.6664],[31.5922,38.7288],[31.608,38.7821],[31.6383,38.8291],[31.7149,38.9277],[31.7236,38.9675],[31.6747,39.0005],[31.6978,39.0926],[31.6596,39.1003],[31.5819,39.1019],[31.4528,39.0912],[31.3783,39.1357],[31.3281,39.2239],[31.2577,39.2819],[31.2165,39.2725],[31.1462,39.23],[31.1072,39.2226],[31.035,39.1791],[30.9622,39.1546],[30.9186,39.1926],[30.8685,39.2109],[30.7698,39.1412],[30.668,39.093],[30.6212,39.0869],[30.5437,39.1241],[30.5049,39.1784],[30.4772,39.1996],[30.4418,39.2063],[30.4242,39.2695],[30.3238,39.372],[30.312,39.4495],[30.2845,39.5097],[30.174,39.5905],[30.1361,39.6388],[30.1917,39.6885],[30.235,39.7477],[30.2452,39.8497],[30.3016,39.8791],[30.3339,39.9197],[30.3852,39.9367],[30.4395,39.9362],[30.4907,39.9653],[30.5242,40.0116],[30.5554,40.1146],[30.6361,40.1646],[30.7386,40.1678],[30.7988,40.1509],[30.8636,40.1428],[30.9254,40.2057],[31.0072,40.2416],[31.0382,40.2922],[31.0341,40.3524],[31.0439,40.3899],[31.0692,40.4113],[31.163,40.3869],[31.2509,40.346],[31.4197,40.3597],[31.4524,40.332],[31.5356,40.3116],[31.5679,40.3085],[31.6577,40.3361],[31.6965,40.34],[31.8214,40.3384],[31.9061,40.3534],[31.9751,40.3771],[32.0931,40.3989],[32.1349,40.421],[32.1768,40.4313],[32.3154,40.4152],[32.3961,40.4483],[32.4239,40.4856],[32.4767,40.539],[32.439,40.619],[32.4427,40.673],[32.4713,40.6939],[32.5071,40.7052],[32.5862,40.7076],[32.6651,40.6979],[32.9586,40.594],[33.0104,40.5306],[33.0434,40.5018],[33.1726,40.4303],[33.1943,40.4048],[33.2056,40.3705],[33.2714,40.3311],[33.3447,40.338],[33.36,40.3913],[33.3982,40.3962],[33.4597,40.3736],[33.5952,40.3396],[33.8705,40.2723],[33.9642,40.2655],[34.043,40.2999],[34.0818,40.3102],[34.1336,40.3897],[34.1502,40.423],[34.1316,40.4749],[34.0914,40.5311],[34.0787,40.5687],[34.0746,40.6391],[34.0505,40.6763],[34.0442,40.7191],[34.0766,40.7982],[34.0272,40.8608],[34.1145,40.8747],[34.2564,40.9194],[34.2802,40.9691],[34.2264,41.0021],[34.2077,41.0393],[34.2522,41.0913],[34.2871,41.1572],[34.3574,41.2094],[34.3852,41.2643],[34.4194,41.302],[34.4719,41.3108],[34.4985,41.2859],[34.5575,41.2846],[34.5741,41.2705],[34.641,41.2721],[34.6704,41.2661],[34.7239,41.2293],[34.8373,41.2016],[34.8761,41.233],[34.888,41.2698],[34.9395,41.2003],[34.959,41.1248],[34.9748,41.0874],[35.0516,41.0942],[35.0893,41.0869],[35.4,41.0207],[35.4611,41.0294],[35.4941,41.015],[35.6388,40.931],[35.673,40.886],[35.7061,40.8788],[35.7823,40.8831],[35.8208,40.8772],[35.9532,40.8759],[36.0314,40.8474],[36.0735,40.8548],[36.1548,40.9014],[36.1855,40.9422],[36.2031,40.9878],[36.2429,41.007],[36.2792,40.9969],[36.3071,40.9738],[36.3355,40.9292],[36.4431,40.8704],[36.5526,40.8902],[36.6,40.9068],[36.6529,40.9056],[36.6872,40.8866],[36.7052,40.8625]]]}},
{"type":"Feature","properties":{"entityId":"rum-sultanate","from":1299,"to":1308,"certainty":"estimated","source":"유럽 쪽은 Natural Earth 1:10m admin-1(v5.1.2) 현대 행정구역 조각을 그 시기 국경에 맞춰 묶고, 조각이 역사 경계와 다른 곳은 선을 그어 나눈 근사. 유럽 밖(시베리아·중앙아시아·극동)은 대략적인 추정. 운영자 검수 필요"},"geometry":{"type":"Polygon","coordinates":[[[36.7052,40.8625],[36.6875,40.836],[36.6989,40.8068],[36.7565,40.792],[36.8118,40.7661],[36.8954,40.7447],[36.9468,40.7203],[37.0134,40.6989],[37.0846,40.6943],[37.1525,40.7019],[37.2197,40.6977],[37.4488,40.5759],[37.5841,40.5694],[37.617,40.5212],[37.6349,40.4612],[37.6901,40.3794],[37.7669,40.3319],[37.8019,40.3357],[37.8614,40.3839],[37.8977,40.4041],[37.9802,40.4013],[38.0016,40.4116],[37.998,40.4688],[38.0084,40.481],[38.0952,40.4922],[38.1583,40.5235],[38.2405,40.2852],[38.2382,40.2286],[38.2748,40.1861],[38.3311,40.1647],[38.3923,40.1283],[38.4542,40.0999],[38.5563,40.1194],[38.661,40.0935],[38.7616,40.0549],[38.7585,40.0038],[38.7372,39.9655],[38.6456,39.9715],[38.5932,39.9627],[38.5464,39.937],[38.4977,39.9431],[38.4511,39.9708],[38.4067,39.9507],[38.3692,39.8679],[38.3772,39.8363],[38.4462,39.8382],[38.5192,39.852],[38.5402,39.8328],[38.5297,39.8052],[38.49,39.8026],[38.4527,39.7872],[38.3786,39.7035],[38.3671,39.5991],[38.3442,39.5648],[38.3556,39.5265],[38.4238,39.4841],[38.4467,39.4599],[38.4385,39.444],[38.403,39.426],[38.3667,39.3886],[38.3689,39.3374],[38.3875,39.2791],[38.3817,39.2427],[38.3926,39.211],[38.384,39.1773],[38.3617,39.1503],[38.2839,39.1297],[38.2123,39.0876],[38.1477,39.0726],[38.0802,39.0802],[38.01,39.0637],[37.932,39.0623],[37.7858,38.9983],[37.7022,38.9843],[37.6176,39.017],[37.5736,39.0082],[37.5516,38.9694],[37.5614,38.9222],[37.5969,38.8343],[37.5805,38.7968],[37.5098,38.7366],[37.4447,38.7082],[37.3936,38.6613],[37.3429,38.6249],[37.2844,38.6036],[37.0597,38.5881],[37.0088,38.6105],[36.8789,38.625],[36.7475,38.5994],[36.7137,38.583],[36.694,38.5523],[36.682,38.4999],[36.65,38.4591],[36.5055,38.3229],[36.4626,38.358],[36.4373,38.4097],[36.4001,38.4566],[36.348,38.4747],[36.2669,38.4578],[36.19,38.4235],[36.1459,38.3951],[36.1033,38.3122],[36.0756,38.2819],[36.0331,38.2133],[35.979,38.155],[35.6077,37.9538],[35.6296,37.7702],[35.5772,37.7505],[35.4536,37.7888],[35.3632,37.8073],[35.1906,37.8181],[35.0597,37.7135],[34.9619,37.7007],[34.9106,37.7136],[34.8597,37.7166],[34.8278,37.6802],[34.8326,37.6299],[34.8652,37.553],[34.8499,37.5106],[34.7946,37.4572],[34.7916,37.3877],[34.7215,37.4014],[34.5875,37.3533],[34.5122,37.352],[34.5001,37.3199],[34.4819,37.3089],[34.3986,37.2822],[34.3539,37.248],[34.2979,37.2254],[34.2105,37.2013],[34.1832,37.1879],[34.149,37.155],[34.1251,37.1947],[34.0573,37.2852],[33.8047,37.5038],[33.7822,37.5679],[33.7783,37.632],[33.7369,37.6433],[33.6389,37.647],[33.5936,37.6244],[33.5145,37.5415],[33.4127,37.5113],[33.2582,37.5038],[33.1074,37.4887],[33.0132,37.4586],[32.8436,37.3078],[32.7229,37.1759],[32.6287,37.0779],[32.6029,37.011],[32.6098,36.9761],[32.6702,36.9535],[32.7304,36.9497],[32.7455,36.9233],[32.7418,36.8932],[32.7116,36.8555],[32.5684,36.7424],[32.4562,36.6734],[32.4632,36.7416],[32.4475,36.8083],[32.4264,36.8321],[32.3487,36.8412],[32.3053,36.8542],[32.2903,36.8814],[32.3016,36.9116],[32.3272,36.9276],[32.3235,36.9582],[32.2531,36.9869],[32.1279,37.0762],[32.0832,37.1266],[32.0331,37.1686],[31.963,37.2076],[31.8987,37.2552],[31.8154,37.2985],[31.5587,37.3407],[31.459,37.3413],[31.4155,37.3549],[31.3764,37.3799],[31.3319,37.4222],[31.3585,37.4776],[31.3677,37.5376],[31.3538,37.5738],[31.3293,37.6039],[31.3292,37.6389],[31.3727,37.6492],[31.4051,37.6815],[31.4093,37.7291],[31.4507,37.7807],[31.4482,37.8592],[31.4252,37.9376],[31.4471,38.0028],[31.4795,38.0187],[31.5496,38.0397],[31.6136,38.072],[31.6207,38.1047],[31.5483,38.1548],[31.5253,38.1809],[31.4914,38.1926],[31.4219,38.2381],[31.3614,38.3],[31.2833,38.3501],[31.2544,38.423],[31.4308,38.5141],[31.5072,38.5771],[31.5948,38.6664],[31.5922,38.7288],[31.608,38.7821],[31.6383,38.8291],[31.7149,38.9277],[31.7236,38.9675],[31.6747,39.0005],[31.6978,39.0926],[31.7571,39.0863],[31.8354,39.0979],[31.8505,39.1136],[31.8614,39.1714],[31.9383,39.2045],[31.9561,39.2255],[31.9999,39.2327],[32.0427,39.2751],[32.0358,39.3053],[32.0043,39.3223],[31.9833,39.3482],[31.9752,39.4049],[31.9905,39.4652],[31.9912,39.4959],[31.9651,39.5349],[31.9469,39.5865],[31.897,39.6206],[31.8473,39.7259],[31.8408,39.7758],[31.8817,39.8118],[31.8795,39.8383],[31.845,39.8761],[31.7823,39.8905],[31.757,39.9203],[31.7261,39.9941],[31.727,40.0235],[31.6812,40.0184],[31.6403,40.0401],[31.6041,40.03],[31.5315,40.0291],[31.4926,40.0221],[31.4598,40.0301],[31.4308,40.0236],[31.3891,40.0569],[31.3389,40.0483],[31.2469,40.0577],[31.1911,40.0241],[31.1399,40.0436],[31.0816,40.0481],[30.9865,40.0165],[30.9221,40.02],[30.9067,40.1006],[30.8636,40.1428],[30.9254,40.2057],[31.0072,40.2416],[31.0382,40.2922],[31.0341,40.3524],[31.0439,40.3899],[31.0692,40.4113],[31.163,40.3869],[31.2509,40.346],[31.4197,40.3597],[31.4524,40.332],[31.5356,40.3116],[31.5679,40.3085],[31.6577,40.3361],[31.6965,40.34],[31.8214,40.3384],[31.9061,40.3534],[31.9751,40.3771],[32.0931,40.3989],[32.1349,40.421],[32.1768,40.4313],[32.3154,40.4152],[32.3961,40.4483],[32.4239,40.4856],[32.4767,40.539],[32.439,40.619],[32.4427,40.673],[32.4713,40.6939],[32.5071,40.7052],[32.5862,40.7076],[32.6651,40.6979],[32.9586,40.594],[33.0104,40.5306],[33.0434,40.5018],[33.1726,40.4303],[33.1943,40.4048],[33.2056,40.3705],[33.2714,40.3311],[33.3447,40.338],[33.36,40.3913],[33.3982,40.3962],[33.4597,40.3736],[33.5952,40.3396],[33.8705,40.2723],[33.9642,40.2655],[34.043,40.2999],[34.0818,40.3102],[34.1336,40.3897],[34.1502,40.423],[34.1316,40.4749],[34.0914,40.5311],[34.0787,40.5687],[34.0746,40.6391],[34.0505,40.6763],[34.0442,40.7191],[34.0766,40.7982],[34.0272,40.8608],[34.1145,40.8747],[34.2564,40.9194],[34.2802,40.9691],[34.2264,41.0021],[34.2077,41.0393],[34.2522,41.0913],[34.2871,41.1572],[34.3574,41.2094],[34.3852,41.2643],[34.4194,41.302],[34.4719,41.3108],[34.4985,41.2859],[34.5575,41.2846],[34.5741,41.2705],[34.641,41.2721],[34.6704,41.2661],[34.7239,41.2293],[34.8373,41.2016],[34.8761,41.233],[34.888,41.2698],[34.9395,41.2003],[34.959,41.1248],[34.9748,41.0874],[35.0516,41.0942],[35.0893,41.0869],[35.4,41.0207],[35.4611,41.0294],[35.4941,41.015],[35.6388,40.931],[35.673,40.886],[35.7061,40.8788],[35.7823,40.8831],[35.8208,40.8772],[35.9532,40.8759],[36.0314,40.8474],[36.0735,40.8548],[36.1548,40.9014],[36.1855,40.9422],[36.2031,40.9878],[36.2429,41.007],[36.2792,40.9969],[36.3071,40.9738],[36.3355,40.9292],[36.4431,40.8704],[36.5526,40.8902],[36.6,40.9068],[36.6529,40.9056],[36.6872,40.8866],[36.7052,40.8625]]]}}
]}
