{"type":"FeatureCollection","features":[
{"type":"Feature","properties":{"entityId":"rurikid-rus","from":862,"to":882,"certainty":"estimated","source":"유럽 쪽은 Natural Earth 1:10m admin-1(v5.1.2) 현대 행정구역 조각을 그 시기 국경에 맞춰 묶고, 조각이 역사 경계와 다른 곳은 선을 그어 나눈 근사. 유럽 밖(시베리아·중앙아시아·극동)은 대략적인 추정. 운영자 검수 필요"},"geometry":{"type":"Polygon","coordinates":[[[27.328,57.5832],[27.3529,57.5276],[27.5282,57.5285],[27.5256,57.4684],[27.5113,57.4304],[27.5363,57.4157],[27.6408,57.389],[27.6944,57.3564],[27.708,57.3481],[27.8091,57.3139],[27.8403,57.2906],[27.8461,57.2673],[27.8412,57.2112],[27.8243,57.1591],[27.794,57.1434],[27.701,57.1188],[27.6822,57.1037],[27.6961,57.0855],[27.7455,57.068],[27.7458,57.0315],[27.7234,56.9988],[27.7151,56.9574],[27.6487,56.8793],[27.6284,56.8442],[27.6444,56.8418],[27.6612,56.8393],[27.7441,56.8648],[27.7864,56.8713],[27.8308,56.8643],[27.9135,56.8202],[27.9189,56.8059],[27.8761,56.7594],[27.8655,56.7427],[27.8826,56.7255],[27.981,56.687],[27.9913,56.67],[27.9922,56.625],[27.9923,56.6245],[27.9974,56.6038],[28.0287,56.5768],[28.1087,56.5552],[28.1322,56.536],[28.0992,56.5134],[28.0933,56.5016],[28.1045,56.4831],[28.1565,56.4462],[28.1679,56.4271],[28.1643,56.3928],[28.1744,56.3496],[28.2148,56.2814],[28.2153,56.256],[28.1931,56.231],[28.1691,56.1617],[28.1489,56.1424],[28.1691,56.1253],[28.2898,56.0466],[28.3334,56.0502],[28.3898,56.0886],[28.5378,56.0977],[28.6207,56.083],[28.6806,56.0274],[28.7064,55.9598],[28.7319,55.9468],[28.809,55.9346],[28.8309,55.9377],[28.8331,55.961],[28.8597,55.9765],[28.9225,55.9922],[28.9808,56.0135],[29.0308,56.0242],[29.0886,56.0232],[29.1454,56.012],[29.224,55.9782],[29.3774,55.954],[29.4411,55.9149],[29.3841,55.8799],[29.3719,55.8364],[29.3436,55.787],[29.3634,55.7515],[29.4131,55.7278],[29.461,55.6873],[29.5081,55.6855],[29.5854,55.738],[29.6842,55.7706],[29.7108,55.7738],[29.7799,55.7638],[29.8057,55.7715],[29.8695,55.8305],[29.9078,55.8432],[29.9882,55.8468],[30.1063,55.8219],[30.1324,55.8269],[30.1773,55.8514],[30.2178,55.8551],[30.2708,55.8307],[30.45,55.797],[30.4688,55.7935],[30.4807,55.754],[30.5696,55.7295],[30.5916,55.7057],[30.5837,55.6791],[30.5964,55.6653],[30.6391,55.6545],[30.6937,55.6522],[30.7422,55.5944],[30.7707,55.5915],[30.8477,55.611],[30.8862,55.6005],[30.9071,55.5778],[30.9263,55.6025],[30.9529,55.6597],[31.0366,55.7081],[31.0473,55.7685],[31.1869,55.7372],[31.2118,55.7182],[31.2257,55.7275],[31.2924,55.7367],[31.3256,55.7227],[31.3552,55.7319],[31.4,55.733],[31.4,55.9065],[31.3897,55.92],[31.38,55.92],[31.38,55.9327],[31.3786,55.9345],[31.3447,55.964],[31.38,55.9761],[31.38,56.3073],[31.3414,56.3094],[31.2978,56.3475],[31.2311,56.3462],[31.2154,56.4354],[31.187,56.4512],[31.1442,56.4514],[31.0622,56.4731],[31.0266,56.4747],[31.0126,56.4939],[31.0166,56.5191],[31.0693,56.6002],[31.0793,56.6344],[31.0637,56.6738],[31.0412,56.6844],[30.9756,56.6701],[30.935,56.6836],[30.9131,56.6564],[30.8794,56.6553],[30.8617,56.6666],[30.8168,56.7203],[30.8217,56.7578],[30.7834,56.7656],[30.7976,56.8002],[30.8372,56.8085],[30.8828,56.8028],[30.9043,56.849],[30.8963,56.8967],[30.9449,56.9013],[30.9781,56.9169],[30.9932,56.95],[31.0804,56.95],[31.0728,56.9539],[31.1175,56.931],[31.2562,56.9629],[31.2001,56.95],[31.3593,56.95],[31.3726,56.9452],[31.4444,56.9353],[31.4733,56.9422],[31.5456,56.9398],[31.5585,56.95],[32.4,56.95],[32.4,56.15],[33.5,56.15],[33.5,55.7539],[33.5053,55.7552],[33.5694,55.8163],[33.6379,55.8374],[33.67,55.8653],[33.678,55.9081],[33.6504,55.9355],[33.66,55.9462],[33.7362,55.9474],[33.8056,55.9283],[33.8274,55.9298],[33.8381,55.9495],[33.826,55.9756],[33.8452,56.0077],[33.8906,56.0426],[33.8921,56.0657],[33.9166,56.0731],[33.9712,56.0555],[34.0809,56.0553],[34.2007,56.0745],[34.2354,56.0714],[34.2799,56.045],[34.302,56.0054],[34.3232,55.9956],[34.374,56.0145],[34.422,55.9937],[34.5148,55.9632],[34.5513,55.9439],[34.6309,55.9179],[34.6798,55.921],[34.7604,55.9678],[34.8246,55.9521],[35.0315,55.9844],[35.054,55.9831],[35.1015,55.9579],[35.1741,55.9483],[35.1713,55.96],[35.2098,56.0188],[35.2548,56.0472],[35.3172,56.054],[35.338,56.0807],[35.3072,56.1036],[35.3374,56.1506],[35.3728,56.1688],[35.383,56.198],[35.3647,56.2069],[35.3707,56.2342],[35.4213,56.2441],[35.4837,56.2416],[35.5204,56.2633],[35.5074,56.2891],[35.526,56.3255],[35.5009,56.3428],[35.5146,56.3637],[35.5424,56.3523],[35.548,56.3707],[35.527,56.3998],[35.5061,56.389],[35.484,56.4306],[35.4579,56.4483],[35.4755,56.4636],[35.6451,56.4741],[35.7098,56.4449],[35.7379,56.4089],[35.7829,56.392],[35.8138,56.4012],[35.867,56.4023],[35.9231,56.3791],[35.9825,56.3872],[36.0961,56.3468],[36.113,56.3711],[36.1725,56.4084],[36.2136,56.4084],[36.3233,56.439],[36.4301,56.4326],[36.4929,56.4332],[36.5266,56.4405],[36.537,56.4754],[36.675,56.5321],[36.7867,56.5566],[36.8329,56.5832],[36.9781,56.5583],[36.9955,56.5313],[37.0554,56.5176],[37.0626,56.5333],[37.1047,56.5381],[37.1349,56.5603],[37.1487,56.5947],[37.127,56.6291],[37.1542,56.6524],[37.1412,56.6679],[37.157,56.6832],[37.117,56.7095],[37.1241,56.7324],[37.231,56.7729],[37.257,56.7754],[37.2674,56.7558],[37.374,56.7802],[37.4432,56.7862],[37.4989,56.7848],[37.5157,56.8131],[37.5572,56.8496],[37.5628,56.8795],[37.5534,56.9056],[37.5921,56.9033],[37.6069,56.9284],[37.6564,56.9435],[37.7388,56.9518],[37.7645,56.9165],[37.8323,56.9056],[37.8647,56.8937],[37.8861,56.8712],[37.9413,56.8766],[37.9744,56.8538],[38.001,56.8133],[38.0147,56.7736],[38.2565,56.7702],[38.306,56.7443],[38.3181,56.7151],[38.3741,56.6966],[38.3274,56.6755],[38.3443,56.6339],[38.3178,56.5995],[38.3296,56.5623],[38.2965,56.5468],[38.2954,56.5289],[38.3226,56.4945],[38.38,56.4684],[38.3944,56.4405],[38.38,56.4111],[38.4124,56.369],[38.4092,56.3346],[38.4171,56.2859],[38.4028,56.2642],[38.4565,56.218],[38.506,56.2199],[38.492,56.1892],[38.5246,56.1178],[38.5623,56.0832],[38.5831,56.0218],[38.567,56.0001],[38.6056,55.9589],[38.6437,55.9674],[38.7291,55.9535],[38.7783,55.9196],[38.8207,55.9219],[38.8394,55.9009],[38.8953,55.9242],[38.9471,55.9125],[39.0158,55.9252],[39.0307,55.8824],[39.0544,55.8525],[39.1231,55.8298],[39.1923,55.8396],[39.3098,55.8306],[39.3363,55.8164],[39.3165,55.7786],[39.3581,55.761],[39.4286,55.7636],[39.4608,55.7725],[39.5552,55.7761],[39.618,55.7917],[39.6656,55.7825],[39.697,55.8005],[39.7985,55.83],[39.8231,55.8328],[39.8789,55.8159],[39.8953,55.8007],[39.8889,55.7472],[39.9002,55.7345],[40.0622,55.6317],[40.085,55.6126],[40.0369,55.5457],[40.0448,55.5092],[40.1176,55.5264],[40.1405,55.5172],[40.1804,55.4597],[40.1807,55.4423],[40.1373,55.4342],[40.1427,55.4061],[40.1856,55.3263],[40.2065,55.3093],[40.2439,55.3365],[40.2946,55.3324],[40.3454,55.34],[40.358,55.3238],[40.3277,55.315],[40.3227,55.2938],[40.4001,55.2873],[40.5168,55.3277],[40.5454,55.3093],[40.5322,55.2926],[40.5645,55.269],[40.5539,55.2546],[40.6211,55.2052],[40.6774,55.2134],[40.7294,55.2039],[40.786,55.2222],[40.8435,55.2263],[40.8789,55.2409],[40.891,55.2606],[40.9646,55.2604],[41.0042,55.2335],[41.0365,55.2219],[41.0466,55.1832],[41.0809,55.1474],[41.0955,55.1481],[41.0874,55.1915],[41.11,55.2044],[41.1871,55.221],[41.2634,55.213],[41.2989,55.2032],[41.3652,55.1731],[41.4116,55.131],[41.4413,55.1312],[41.4966,55.157],[41.5823,55.1414],[41.6583,55.1089],[41.7185,55.1249],[41.7832,55.1191],[41.8702,55.1576],[41.9007,55.2045],[41.8587,55.2409],[41.9541,55.2777],[41.9564,55.2964],[41.933,55.3299],[41.9527,55.3386],[42.0006,55.3373],[42.0134,55.3731],[42.0756,55.3932],[42.117,55.4217],[42.1336,55.4587],[42.0684,55.4813],[42.0688,55.55],[46.1083,55.55],[46.1038,55.5727],[46.0485,55.6167],[46.0126,55.6266],[45.9753,55.6191],[45.9572,55.6326],[45.9201,55.688],[45.9679,55.7427],[46.0013,55.7348],[46.0077,55.7495],[45.9883,55.7768],[46.0167,55.7785],[46.0938,55.808],[46.1004,55.8327],[46.088,55.8597],[46.1341,55.8939],[46.0988,55.9408],[46.1502,55.9735],[46.2008,56.0246],[46.214,56.0498],[46.1564,56.0412],[46.1299,56.0598],[46.0922,56.0564],[46.0953,56.0934],[46.0674,56.1092],[46.0795,56.136],[46.0677,56.1819],[46.0264,56.1798],[45.91,56.2338],[45.8738,56.2588],[45.88,56.3077],[45.9354,56.316],[45.9461,56.325],[45.9224,56.3803],[45.9486,56.4082],[45.949,56.4332],[45.876,56.4402],[45.7887,56.4248],[45.7609,56.4606],[45.6627,56.4609],[45.6299,56.5148],[45.6498,56.5455],[45.6385,56.5711],[45.651,56.5908],[45.6951,56.6016],[45.7392,56.6256],[45.8589,56.6291],[45.9218,56.6523],[45.9276,56.6629],[45.896,56.6897],[45.9127,56.7363],[45.9145,56.792],[45.9381,56.8227],[45.9586,56.8721],[46.0382,56.8696],[46.095,56.8812],[46.2199,56.8932],[46.268,56.9047],[46.3127,56.907],[46.3188,56.9436],[46.336,56.9521],[46.5129,56.9401],[46.5342,56.9198],[46.5585,56.9286],[46.601,56.92],[46.6627,56.9391],[46.6682,56.965],[46.7149,56.9663],[46.7514,56.9783],[46.7131,57.0124],[46.7626,57.0302],[46.7561,57.0742],[46.7605,57.1293],[46.7312,57.1907],[46.7422,57.2046],[46.8344,57.1997],[46.8448,57.2291],[46.8083,57.2424],[46.7898,57.2813],[46.6952,57.3205],[46.6867,57.3631],[46.748,57.3807],[46.7292,57.3974],[46.6952,57.4001],[46.7072,57.4237],[46.7382,57.4276],[46.7904,57.4512],[46.7501,57.5173],[46.7876,57.5273],[46.8224,57.512],[46.9123,57.5149],[47.0007,57.4935],[47.0542,57.4983],[47.1368,57.5304],[47.2153,57.5508],[47.2487,57.5673],[47.3584,57.5543],[47.386,57.5351],[47.471,57.5285],[47.4865,57.5758],[47.5212,57.5861],[47.5449,57.6567],[47.5302,57.6999],[47.5727,57.7441],[47.5589,57.7707],[47.5721,57.8104],[47.6121,57.8385],[47.6647,57.8512],[47.7149,57.8715],[47.7623,57.876],[47.7638,57.9121],[47.7031,57.9584],[47.6425,57.9562],[47.4515,57.9874],[47.3884,58.0195],[47.3542,58.0255],[46.9916,58.0244],[46.5964,58.0264],[46.5067,58.035],[46.4784,58.0235],[46.4299,58.0205],[46.3814,58.0558],[46.3413,58.0746],[46.3425,58.0989],[46.313,58.1112],[46.3627,58.1884],[46.4069,58.2087],[46.4157,58.2289],[46.4088,58.2762],[46.4219,58.3146],[46.4773,58.3339],[46.4739,58.3487],[46.4113,58.3536],[46.4583,58.381],[46.541,58.3973],[46.5841,58.4304],[46.5933,58.4514],[46.5565,58.4732],[46.5541,58.4877],[46.5869,58.5177],[46.5931,58.5606],[46.6325,58.5807],[46.6873,58.5669],[46.8142,58.5846],[46.8854,58.6051],[46.9857,58.6138],[47.0102,58.629],[47.0039,58.6845],[47.02,58.7038],[47.0816,58.7386],[47.1199,58.775],[47.1624,58.7696],[47.1955,58.753],[47.2596,58.7563],[47.3165,58.7978],[47.2866,58.8166],[47.2995,58.8594],[47.2819,58.893],[47.3193,58.9156],[47.3843,58.907],[47.4524,58.9211],[47.4772,58.8862],[47.6022,58.9067],[47.6016,58.9217],[47.5704,58.9565],[47.5499,58.998],[47.5709,59.0599],[47.5288,59.078],[47.4512,59.1317],[47.442,59.1642],[47.4016,59.1507],[47.3787,59.1531],[47.2392,59.2202],[47.2315,59.247],[47.2524,59.3555],[47.0563,59.3785],[47.1135,59.6113],[47.1367,59.6979],[47.1339,59.725],[47.1126,59.7527],[47.0572,59.7687],[46.9573,59.7818],[46.9349,59.7891],[46.9226,59.8439],[47.0364,60.0995],[47.0213,60.1219],[46.909,60.1253],[46.8465,60.079],[46.809,60.0708],[46.7458,60.0783],[46.7344,60.0649],[46.6833,60.0625],[46.6627,60.0774],[46.6085,60.0673],[46.5059,60.1053],[46.4661,60.1131],[46.4041,60.1068],[46.3656,60.1252],[46.3755,60.1389],[46.3491,60.2144],[46.3017,60.2419],[46.3126,60.2547],[46.3546,60.2508],[46.4408,60.2714],[46.4915,60.2626],[46.5555,60.2622],[46.6367,60.2736],[46.7281,60.2557],[46.7495,60.2611],[46.8071,60.3183],[46.8093,60.3485],[46.8258,60.369],[46.821,60.3925],[46.8526,60.4275],[46.8768,60.4874],[46.8625,60.5073],[46.9403,60.5382],[46.9665,60.5593],[47.0488,60.5752],[47.0244,60.6012],[47.0209,60.6393],[46.9635,60.6539],[47.0423,60.7479],[47.0838,60.8186],[47.0429,60.8538],[46.9465,60.857],[46.898,60.8858],[46.7766,60.8966],[46.7533,60.9071],[46.7526,60.9692],[46.7365,60.9861],[46.6251,60.9913],[46.5816,61],[46.5541,61.0151],[46.5271,61.0513],[46.5016,61.0644],[46.4807,61.039],[46.4437,61.0343],[46.3906,61.0095],[46.332,61.0076],[46.2851,60.9678],[45.8782,61.0163],[45.805,61.0367],[45.7666,61.0546],[45.7918,61.1545],[45.7867,61.1668],[45.7227,61.1794],[45.3788,61.2055],[45.3324,61.1893],[45.2291,60.9039],[44.4553,60.947],[44.2058,60.9718],[44.1575,60.9948],[44.1687,61.0657],[44.1585,61.0824],[44.053,61.0792],[44.0177,61.0528],[43.9584,61.0487],[43.8753,61.0229],[43.8351,61.0319],[43.776,61.0208],[43.7541,60.946],[43.7289,60.911],[43.746,60.9],[43.7154,60.8845],[43.6488,60.878],[43.5361,60.8531],[43.5204,60.8293],[43.5223,60.7791],[43.5109,60.7675],[43.2266,60.7848],[43.1499,60.806],[43.1353,60.8006],[43.0488,60.7402],[42.9799,60.7369],[42.9765,60.7561],[42.9439,60.7897],[42.9137,60.7789],[42.907,60.8137],[42.8231,60.8553],[42.6505,60.8631],[42.6149,60.8576],[42.5642,60.8357],[42.5616,60.7973],[42.5287,60.7793],[42.4672,60.7912],[42.4239,60.7721],[42.3948,60.7694],[42.0239,60.8358],[41.9668,60.8311],[41.9265,60.8455],[41.9154,60.8594],[41.9606,60.886],[41.9424,60.9121],[41.9165,60.9149],[41.9014,60.897],[41.868,60.9112],[41.8009,60.899],[41.7563,60.8582],[41.7194,60.8402],[41.6681,60.8479],[41.6508,60.8863],[41.6374,60.8911],[41.5185,60.8992],[41.3822,60.8511],[41.4119,60.8072],[41.4121,60.7912],[41.3577,60.7222],[41.3399,60.676],[41.343,60.646],[41.2803,60.664],[41.2295,60.6556],[41.0593,60.6497],[41.0123,60.667],[40.8191,60.711],[40.7626,60.7388],[40.7465,60.7797],[40.7128,60.7585],[40.679,60.7547],[40.6213,60.7282],[40.5551,60.7198],[40.5344,60.7246],[40.5035,60.7557],[40.4655,60.7746],[40.4076,60.784],[40.3754,60.766],[40.3865,60.7319],[40.3515,60.708],[40.2224,60.6951],[40.1564,60.6726],[40.0721,60.6831],[40.0393,60.6809],[40.0049,60.6578],[39.9235,60.6519],[39.764,60.7369],[39.6938,60.7327],[39.6482,60.746],[39.5975,60.7333],[39.4244,60.709],[39.3849,60.6886],[39.3382,60.684],[39.2893,60.7052],[39.1861,60.7148],[39.1706,60.702],[39.1956,60.6732],[39.1906,60.6529],[39.1695,60.6858],[39.0682,60.7141],[39.033,60.7311],[39.0093,60.7621],[38.9829,60.7727],[38.967,60.8002],[38.9477,60.8027],[38.9231,60.7727],[38.8695,60.7738],[38.8303,60.7434],[38.8114,60.7179],[38.7895,60.7128],[38.6613,60.7114],[38.6327,60.7232],[38.5995,60.7835],[38.5742,60.7991],[38.4301,60.8047],[38.4209,60.8112],[38.4185,60.874],[38.3857,60.9382],[38.3617,60.9551],[38.3286,60.9102],[38.2454,60.9132],[38.213,60.924],[38.1705,60.9753],[38.1981,61.026],[38.1449,61.073],[38.1504,61.0985],[38.177,61.1208],[38.1663,61.1331],[38.0891,61.1559],[38.0405,61.1401],[37.9806,61.1407],[37.9645,61.1484],[37.973,61.2047],[37.9425,61.2161],[37.9014,61.2632],[37.9,61.2639],[37.9,60.45],[35.2515,60.45],[35.2517,60.4454],[35.2341,60.3793],[35.2311,60.3412],[35.1827,60.2888],[35.1474,60.2688],[35.1521,60.2083],[35.1466,60.1307],[35.1765,60.1054],[35.1571,60.067],[35.0872,60.0409],[35.0973,60.0161],[35.1622,60.0108],[35.2379,59.9855],[35.2926,59.9846],[35.3229,59.973],[35.4037,59.9743],[35.4742,59.9229],[35.4114,59.9041],[35.3825,59.8754],[35.3854,59.7969],[35.3979,59.7295],[35.4236,59.7011],[35.4649,59.6944],[35.5318,59.6986],[35.6075,59.7124],[35.6387,59.7003],[35.6342,59.6402],[35.5929,59.6228],[35.5046,59.652],[35.4958,59.5535],[35.4832,59.5381],[35.4369,59.5293],[35.5018,59.501],[35.4615,59.4823],[35.3237,59.5067],[35.2889,59.4993],[35.3046,59.4844],[35.3676,59.4718],[35.4028,59.4432],[35.4485,59.4277],[35.4445,59.4082],[35.3937,59.3621],[35.329,59.349],[35.3189,59.328],[35.3755,59.3148],[35.3819,59.3003],[35.3012,59.301],[35.2437,59.2943],[35.193,59.269],[35.1347,59.2544],[35.038,59.2513],[34.9575,59.2267],[34.9327,59.2458],[34.9005,59.2379],[34.8723,59.2099],[34.8572,59.1803],[34.812,59.1463],[34.7981,59.1024],[34.7299,59.1032],[34.6346,59.1168],[34.5677,59.1081],[34.5375,59.1141],[34.4991,59.1357],[34.4313,59.1433],[34.3661,59.1776],[34.2904,59.1852],[34.2475,59.1976],[34.2035,59.1692],[34.1308,59.1725],[34.0998,59.1447],[34.0379,59.1457],[33.968,59.1563],[33.9306,59.1793],[33.9089,59.21],[33.855,59.1984],[33.8269,59.2104],[33.8145,59.2335],[33.7805,59.2493],[33.7161,59.3021],[33.6322,59.3165],[33.6081,59.343],[33.5203,59.373],[33.3543,59.3777],[33.349,59.3301],[33.3055,59.3191],[33.2457,59.3263],[33.2256,59.3451],[33.1687,59.3677],[33.0523,59.3892],[33.0211,59.4245],[32.9782,59.4321],[32.9548,59.4218],[32.935,59.3801],[32.887,59.3548],[32.8483,59.3473],[32.7932,59.3045],[32.7323,59.2675],[32.7458,59.2336],[32.7657,59.2161],[32.7496,59.1869],[32.7063,59.1419],[32.6532,59.1247],[32.6381,59.1615],[32.584,59.1805],[32.5013,59.1944],[32.4468,59.1949],[32.4146,59.205],[32.3467,59.2095],[32.3212,59.1955],[32.2915,59.2072],[32.3119,59.2287],[32.3148,59.2521],[32.2735,59.2859],[32.2293,59.29],[32.2073,59.3367],[32.1582,59.3537],[32.1241,59.3943],[32.0723,59.3805],[32.0096,59.3739],[31.9646,59.3798],[31.9408,59.3979],[31.8821,59.3755],[31.8517,59.3342],[31.8267,59.3145],[31.7545,59.3157],[31.7205,59.3313],[31.5856,59.3659],[31.5518,59.3681],[31.5311,59.3464],[31.5419,59.2991],[31.5299,59.2696],[31.5364,59.2477],[31.5596,59.2323],[31.5534,59.2104],[31.5091,59.2004],[31.486,59.1709],[31.4816,59.1294],[31.4525,59.092],[31.3718,59.0599],[31.3218,59.0215],[31.306,58.9852],[31.2579,58.9808],[31.1962,59.0239],[31.164,59.0545],[31.1547,59.0769],[31.1034,59.0723],[31.0638,59.0846],[31.0013,59.0748],[30.9814,59.0596],[30.9787,59.0088],[30.962,58.9752],[30.9125,58.9356],[30.7615,58.8565],[30.728,58.8286],[30.7188,58.76],[30.6874,58.7458],[30.5968,58.7368],[30.4968,58.7332],[30.4125,58.7109],[30.3712,58.7135],[30.35,58.7302],[30.3019,58.7401],[30.2798,58.7543],[30.2347,58.7535],[30.1845,58.7668],[30.1583,58.7627],[30.1006,58.7296],[30.1163,58.6916],[30.0882,58.6405],[30.0979,58.6135],[30.1672,58.5331],[30.1163,58.5206],[30.1226,58.4887],[30.0632,58.4677],[30.041,58.443],[29.975,58.4447],[29.8729,58.4471],[29.7858,58.4403],[29.7147,58.4551],[29.6588,58.4506],[29.6194,58.4565],[29.5387,58.4799],[29.524,58.4934],[29.5642,58.5301],[29.5071,58.5368],[29.4801,58.5547],[29.4491,58.5945],[29.2558,58.6202],[29.2474,58.6295],[29.2973,58.6375],[29.2999,58.6493],[29.257,58.6948],[29.2315,58.7062],[29.1069,58.7315],[29.0383,58.7682],[28.9632,58.7876],[28.9787,58.8115],[28.9465,58.8198],[28.8194,58.8269],[28.7566,58.827],[28.5517,58.8651],[28.6329,58.85],[28.8,58.85],[29.4,58.95],[30,59],[30.5,59.15],[31,59.35],[31.3,59.6],[31.35,59.95],[31.2,60.15],[30.9,60.45],[30.5,60.45],[30.95,60.55],[32.2,61.28],[32.45,61.75],[32.65,62.25],[32,62.9],[31.2476,63.1257],[31.2508,63.1155],[31.2885,63.0847],[31.3803,63.0479],[31.4445,63.0019],[31.5054,62.9682],[31.5358,62.9195],[31.5695,62.9059],[31.4413,62.7887],[31.4106,62.7465],[31.3633,62.6516],[31.347,62.6293],[31.3028,62.596],[31.2438,62.5033],[31.153,62.4674],[31.1234,62.4348],[30.9806,62.3588],[30.9419,62.3146],[30.9076,62.2929],[30.7938,62.253],[30.7038,62.2104],[30.635,62.184],[30.6072,62.1513],[30.4807,62.0677],[30.3396,61.9917],[30.1456,61.8505],[29.9777,61.7282],[29.8422,61.6602],[29.7791,61.5931],[29.6351,61.5111],[29.5397,61.485],[29.4991,61.4592],[29.4634,61.4138],[29.3184,61.3384],[29.2771,61.3046],[29.2032,61.2459],[29.1301,61.2134],[28.9808,61.1681],[28.9264,61.1479],[28.8947,61.1321],[29.1,61.05],[29.45,60.85],[29.7,60.6],[29.8,60.35],[29.95,60.12],[29.0631,60.0539],[29.1183,60.0289],[28.9772,59.9602],[28.6761,59.8137],[28.5819,59.8341],[28.5529,59.8536],[28.5173,59.8623],[28.4761,59.8518],[28.4275,59.8134],[28.4186,59.7896],[28.4212,59.7353],[28.4206,59.7335],[28.334,59.6934],[28.2119,59.7246],[28.1988,59.735],[28.1852,59.7586],[28.1239,59.7923],[28.0869,59.7994],[28.007,59.7582],[27.9934,59.7033],[28.0159,59.6597],[28.05,59.6266],[28.0638,59.5543],[28.0406,59.5223],[28.0206,59.4948],[28.0048,59.4871],[28.0233,59.4871],[28.0191,59.4818],[28.0386,59.463],[28.1048,59.4392],[28.1284,59.4095],[28.1865,59.3749],[28.1818,59.3561],[28.1575,59.364],[28.1136,59.3454],[28.0324,59.342],[28.0006,59.3337],[28.0732,59.319],[28.0766,59.3053],[27.9597,59.3065],[27.9039,59.2904],[27.8823,59.2757],[27.8908,59.258],[27.8735,59.2365],[27.8424,59.1612],[27.7672,59.0559],[27.7244,59.0144],[27.6959,58.9772],[27.4778,58.8754],[27.4463,58.8189],[27.4106,58.7549],[27.4288,58.7094],[27.5549,58.3952],[27.4941,58.3195],[27.4828,58.2686],[27.4954,58.2215],[27.5196,58.1945],[27.5797,58.1259],[27.6304,58.0883],[27.6366,58.0592],[27.6316,58.0042],[27.6691,57.992],[27.6752,57.9678],[27.6594,57.9325],[27.6731,57.9128],[27.7744,57.8907],[27.7993,57.8611],[27.7635,57.8387],[27.7007,57.8248],[27.5563,57.8131],[27.5246,57.8073],[27.5539,57.7948],[27.5024,57.7725],[27.5078,57.7148],[27.4904,57.7046],[27.4077,57.689],[27.377,57.6567],[27.387,57.6276],[27.3748,57.5979],[27.328,57.5832]]]}}
]}
