{
 "type": "FeatureCollection",
 "features": [
  {
   "type": "Feature",
   "properties": {
    "entityId": "russia-fed",
    "from": 1992,
    "to": null,
    "certainty": "estimated",
    "source": "중고등학교 한국사 교과서 시대별 지도의 일반적인 경계를 따른 대략적인 추정. 운영자 검수 필요"
   },
   "geometry": {
    "type": "Polygon",
    "coordinates": [
     [
      [
       22.68,
       59.7
      ],
      [
       27.8,
       59.5
      ],
      [
       28.2,
       57.5
      ],
      [
       31.3,
       56
      ],
      [
       32.7,
       53.8
      ],
      [
       31.8,
       52.1
      ],
      [
       34.4,
       51.3
      ],
      [
       35.4,
       50.4
      ],
      [
       38.2,
       49.9
      ],
      [
       40.2,
       49.6
      ],
      [
       39.8,
       47.8
      ],
      [
       38.2,
       47.1
      ],
      [
       36,
       45
      ],
      [
       34.7176,
       43.9313
      ],
      [
       38,
       43.8
      ],
      [
       39.2915,
       42.9749
      ],
      [
       40,
       43.4
      ],
      [
       42,
       43.2
      ],
      [
       46.5,
       41.8
      ],
      [
       46.532,
       41.8
      ],
      [
       46.8,
       48.5
      ],
      [
       49,
       51.2
      ],
      [
       53,
       51.5
      ],
      [
       61,
       50.8
      ],
      [
       66,
       54.9
      ],
      [
       69,
       55.4
      ],
      [
       73.5,
       54
      ],
      [
       76.5,
       54.3
      ],
      [
       87.3912,
       49.1042
      ],
      [
       87.5,
       49.2
      ],
      [
       90,
       50
      ],
      [
       92.8571,
       50.3571
      ],
      [
       95,
       51
      ],
      [
       95.5385,
       51.0385
      ],
      [
       98,
       51.9
      ],
      [
       100.0282,
       51.3592
      ],
      [
       102,
       51.5
      ],
      [
       108,
       50.5
      ],
      [
       114,
       50.2
      ],
      [
       116.7,
       49.85
      ],
      [
       119.5,
       50.3
      ],
      [
       121,
       53.3
      ],
      [
       125.5,
       52.8
      ],
      [
       127.5,
       49.7
      ],
      [
       130.5,
       48.9
      ],
      [
       131.3889,
       48.1889
      ],
      [
       132.5,
       48.3
      ],
      [
       133.7457,
       48.1505
      ],
      [
       135.1,
       48.5
      ],
      [
       135,
       48
      ],
      [
       134.6946,
       48.0367
      ],
      [
       134.4,
       47.7
      ],
      [
       133.1,
       46.4
      ],
      [
       132.4,
       45.2
      ],
      [
       131.2,
       44.8
      ],
      [
       131.2,
       43.3
      ],
      [
       131.14,
       43.1
      ],
      [
       131.07,
       42.9
      ],
      [
       130.87,
       42.86
      ],
      [
       130.58,
       42.81
      ],
      [
       130.42,
       42.71
      ],
      [
       130.58,
       42.62
      ],
      [
       130.53,
       42.54
      ],
      [
       130.58,
       42.42
      ],
      [
       130.7,
       42.3
      ],
      [
       130.978,
       42.1146
      ],
      [
       132.5,
       42.4
      ],
      [
       135,
       43.3
      ],
      [
       138,
       46
      ],
      [
       140,
       48
      ],
      [
       141.2,
       45.8
      ],
      [
       144.8,
       45.8
      ],
      [
       144.8,
       48.0261
      ],
      [
       145.5,
       49
      ],
      [
       146,
       54
      ],
      [
       156,
       50.5
      ],
      [
       164,
       56
      ],
      [
       172,
       60
      ],
      [
       179.9,
       65
      ],
      [
       179.9,
       72
      ],
      [
       140,
       77
      ],
      [
       100,
       80
      ],
      [
       70,
       77
      ],
      [
       50,
       71
      ],
      [
       31,
       71
      ],
      [
       31,
       69.9
      ],
      [
       30.9068,
       69.6949
      ],
      [
       30.9,
       69.6
      ],
      [
       30.8592,
       69.5903
      ],
      [
       30,
       67.7
      ],
      [
       29.6,
       64
      ],
      [
       30,
       61.8
      ],
      [
       28.2,
       60.5
      ],
      [
       28.04,
       59.7
      ],
      [
       22.68,
       59.7
      ]
     ]
    ]
   }
  }
 ]
}
