{"type":"FeatureCollection","features":[
{"type":"Feature","properties":{"entityId":"ryazan","from":1400,"to":1521,"certainty":"estimated","source":"유럽 쪽은 Natural Earth 1:10m admin-1(v5.1.2) 현대 행정구역 조각을 그 시기 국경에 맞춰 묶고, 조각이 역사 경계와 다른 곳은 선을 그어 나눈 근사. 유럽 밖(시베리아·중앙아시아·극동)은 대략적인 추정. 운영자 검수 필요"},"geometry":{"type":"MultiPolygon","coordinates":[[[[40.1602,53.3422],[40.1303,53.3171],[40.1066,53.2757],[40.1262,53.145],[40.1452,53.095],[40.1415,53.0719],[40.0931,53.0233],[40.1207,52.9829],[40.085,52.971],[40.0705,52.9253],[40.0947,52.8834],[40.0799,52.8042],[40.0409,52.8093],[40.031,52.7828],[39.9792,52.7688],[39.9526,52.7433],[39.9814,52.7177],[39.9783,52.6923],[39.9531,52.6544],[39.9887,52.6228],[40.0469,52.5994],[40.0423,52.5753],[40.0675,52.5605],[40.203,52.5116],[40.2349,52.4841],[40.2828,52.4594],[40.2852,52.4435],[40.336,52.3991],[40.3668,52.3894],[40.4766,52.3738],[40.5486,52.3419],[40.5755,52.3041],[40.6266,52.3165],[40.6786,52.2926],[40.6969,52.2696],[40.6988,52.2192],[40.6577,52.196],[40.6495,52.1676],[40.6158,52.1292],[40.6131,52.1044],[40.632,52.0665],[40.6017,52.051],[40.5341,52.0439],[40.5068,52.0219],[40.5167,51.9831],[40.5038,51.9535],[40.3668,51.9622],[40.2946,51.9564],[40.1386,51.9721],[40.1224,51.9924],[40.0876,51.985],[40.0451,51.9569],[40.0206,51.9539],[39.913,51.9798],[39.8847,51.9717],[39.8801,51.9527],[39.8341,51.9202],[39.7381,51.9245],[39.6638,51.9406],[39.5967,51.9488],[39.4966,51.9727],[39.5122,52.0271],[39.4905,52.0563],[39.4471,52.0822],[39.3571,52.0849],[39.2822,52.1046],[39.1823,52.0982],[39.1628,52.0562],[39.13,52.0683],[39.0974,52.0395],[39.0977,52.0066],[39.0359,51.9883],[38.9944,52.0007],[38.9297,52.0605],[38.8799,52.0925],[38.823,52.0976],[38.7929,52.0859],[38.762,52.0524],[38.7156,52.0706],[38.6976,52.0978],[38.6806,52.0978],[38.6618,52.0721],[38.6222,52.0549],[38.5751,52.0633],[38.5515,52.0326],[38.5288,52.0238],[38.3848,52.0001],[38.2988,51.961],[38.2322,51.9453],[38.1921,51.9122],[38.1454,51.9278],[38.1015,51.927],[38.0321,51.9011],[37.997,51.879],[37.8911,51.8842],[37.8662,51.9239],[37.8208,51.9122],[37.779,51.952],[37.7778,51.9875],[37.7471,52.0169],[37.7776,52.1615],[37.8322,52.2024],[37.948,52.2456],[38.017,52.2517],[37.9948,52.271],[37.9998,52.2954],[38.0384,52.3445],[37.9907,52.3801],[37.9614,52.4144],[37.909,52.4148],[37.8769,52.4345],[37.88,52.4512],[37.9108,52.4729],[37.8375,52.501],[37.7828,52.5084],[37.7886,52.5417],[37.8122,52.5477],[37.7866,52.5803],[37.7641,52.5746],[37.7118,52.613],[37.7295,52.6136],[37.7509,52.6381],[37.7884,52.6363],[37.8127,52.6484],[37.7766,52.7185],[37.7937,52.7359],[37.8348,52.7462],[37.8707,52.7718],[37.8737,52.7953],[37.8112,52.829],[37.7927,52.8539],[37.8388,52.8905],[37.7949,52.9121],[37.8165,52.9349],[37.8217,52.9678],[37.841,53.0085],[37.8633,53.018],[37.9124,53.0726],[38.0226,53.0542],[38.1077,53.059],[38.1809,53.0204],[38.2253,53.0121],[38.2659,53.0226],[38.3066,52.9741],[38.3337,52.9617],[38.3612,52.9717],[38.3708,52.9958],[38.4329,53.0151],[38.4729,53.0412],[38.5307,53.0341],[38.5946,53.0485],[38.5936,53.0718],[38.627,53.1013],[38.6327,53.1232],[38.5769,53.1676],[38.5952,53.211],[38.5954,53.2403],[38.4773,53.31],[38.6247,53.3425],[38.6831,53.3464],[38.7617,53.382],[38.7564,53.399],[38.7141,53.4441],[38.7285,53.4787],[38.6972,53.5001],[38.7332,53.5371],[38.8252,53.5455],[38.8954,53.5652],[38.9121,53.6129],[38.8727,53.6227],[38.9001,53.6549],[38.9214,53.7198],[38.9093,53.7534],[38.8368,53.76],[38.807,53.7724],[38.8143,53.792],[38.801,53.8295],[38.8223,53.8489],[38.7946,53.8721],[38.8057,53.8941],[38.8407,53.9189],[38.8443,53.9363],[38.802,53.9415],[38.7667,53.9593],[38.7564,54.0098],[38.7137,54.0013],[38.7118,54.0324],[38.6943,54.0749],[38.7164,54.1124],[38.7639,54.1348],[38.7457,54.1833],[38.718,54.1867],[38.6812,54.167],[38.6719,54.1774],[38.6751,54.2447],[38.7121,54.2717],[38.7245,54.33],[38.7369,54.3451],[38.8257,54.3805],[38.8555,54.3733],[38.9088,54.3977],[38.919,54.4121],[38.8874,54.4266],[38.7977,54.4512],[38.7876,54.4777],[38.7943,54.5001],[38.7814,54.5538],[38.8204,54.6019],[38.9091,54.618],[38.9325,54.616],[38.9567,54.5934],[39.0401,54.6246],[39.14,54.6281],[39.1765,54.6355],[39.2321,54.6353],[39.2445,54.6564],[39.2379,54.711],[39.2649,54.7197],[39.3287,54.7175],[39.3559,54.7396],[39.3284,54.7484],[39.3714,54.8028],[39.3742,54.8406],[39.3977,54.8761],[39.449,54.8978],[39.4884,54.9408],[39.5444,54.9695],[39.5914,54.9822],[39.6026,55.0059],[39.6845,55.0207],[39.7558,55.0165],[39.8128,54.9975],[39.8882,55.0813],[39.8858,55.1015],[39.8446,55.1219],[39.8097,55.1183],[39.7749,55.1012],[39.7419,55.1078],[39.7202,55.126],[39.7565,55.1394],[39.827,55.1826],[39.9198,55.1868],[40.0014,55.2004],[40.1311,55.2544],[40.2065,55.3093],[40.2439,55.3365],[40.2946,55.3324],[40.3454,55.34],[40.358,55.3238],[40.3277,55.315],[40.3227,55.2938],[40.4001,55.2873],[40.5168,55.3277],[40.5454,55.3093],[40.5322,55.2926],[40.5645,55.269],[40.5539,55.2546],[40.6211,55.2052],[40.6774,55.2134],[40.7294,55.2039],[40.786,55.2222],[40.8435,55.2263],[40.8789,55.2409],[40.891,55.2606],[40.9646,55.2604],[41.0042,55.2335],[41.0365,55.2219],[41.0466,55.1832],[41.0809,55.1474],[41.0955,55.1481],[41.0874,55.1915],[41.11,55.2044],[41.1871,55.221],[41.2634,55.213],[41.2989,55.2032],[41.3652,55.1731],[41.4116,55.131],[41.4413,55.1312],[41.4966,55.157],[41.5823,55.1414],[41.6583,55.1089],[41.7185,55.1249],[41.7832,55.1191],[41.7906,55.0861],[41.8541,55.061],[41.8864,55.0592],[41.9671,55.0875],[41.9919,55.0826],[41.976,55.0507],[42.0045,55.0201],[41.9648,55.0018],[42.0394,54.9852],[42.1027,54.9628],[42.1667,54.949],[42.2178,54.9606],[42.2602,54.9864],[42.3384,55.0003],[42.4006,55.0028],[42.4397,55.013],[42.4824,55],[42.4437,54.9613],[42.4753,54.9098],[42.4668,54.8713],[42.3905,54.807],[42.3858,54.7885],[42.4275,54.7647],[42.4193,54.7363],[42.4838,54.7136],[42.5029,54.7289],[42.5238,54.7225],[42.5516,54.6933],[42.5682,54.6908],[42.6235,54.7151],[42.6427,54.6831],[42.6087,54.6511],[42.6489,54.614],[42.6983,54.5937],[42.6919,54.5732],[42.6649,54.5557],[42.621,54.5432],[42.6485,54.5165],[42.6479,54.5006],[42.6174,54.4874],[42.5712,54.505],[42.5566,54.4922],[42.5434,54.4503],[42.5524,54.4353],[42.5895,54.4383],[42.6367,54.3908],[42.6252,54.3734],[42.5272,54.3666],[42.509,54.3538],[42.4793,54.3074],[42.4338,54.2957],[42.3808,54.2639],[42.2781,54.2357],[42.2441,54.2403],[42.1862,54.2619],[42.2242,54.1847],[42.2728,54.1715],[42.3625,54.2013],[42.3966,54.252],[42.439,54.2602],[42.4628,54.2539],[42.5126,54.2204],[42.59,54.1955],[42.596,54.1765],[42.5337,54.146],[42.5282,54.1368],[42.5622,54.1062],[42.5347,54.0827],[42.5072,54.081],[42.4517,54.0958],[42.4368,54.1122],[42.3772,54.0933],[42.3186,54.0989],[42.3071,54.1097],[42.326,54.131],[42.2967,54.1325],[42.2636,54.0945],[42.2849,54.0743],[42.3526,54.0446],[42.4083,54.028],[42.4374,54.0118],[42.4615,53.9594],[42.3952,53.9337],[42.3077,53.8475],[42.2075,53.8222],[42.1344,53.8122],[42.0639,53.8094],[42.0196,53.8202],[41.7483,53.8235],[41.7087,53.8195],[41.6575,53.7825],[41.5609,53.8031],[41.5086,53.781],[41.4001,53.7832],[41.3617,53.7646],[41.3487,53.7411],[41.3546,53.6412],[41.3537,53.5563],[41.3404,53.5413],[41.2735,53.5216],[41.2434,53.4869],[41.2083,53.4726],[41.1744,53.4337],[41.1363,53.4304],[41.0661,53.443],[41.0452,53.4786],[41.0213,53.4895],[40.9268,53.5054],[40.8818,53.5034],[40.8634,53.4797],[40.8395,53.4875],[40.8034,53.5176],[40.7697,53.5302],[40.7384,53.56],[40.6867,53.5647],[40.6298,53.5113],[40.5927,53.5101],[40.502,53.4611],[40.4683,53.452],[40.4455,53.4864],[40.4234,53.4936],[40.4064,53.4453],[40.4194,53.3956],[40.3808,53.3579],[40.3892,53.3454],[40.3382,53.3461],[40.3055,53.3745],[40.2682,53.3516],[40.2177,53.3499],[40.1902,53.3347],[40.1602,53.3422]]],[[[42.4951,54.7549],[42.4521,54.7709],[42.444,54.8039],[42.4799,54.8063],[42.5056,54.7877],[42.5112,54.765],[42.4951,54.7549]]]]}}
]}
