{"type":"FeatureCollection","features":[
{"type":"Feature","properties":{"entityId":"saar-territory","from":1920,"to":1935,"certainty":"estimated","source":"유럽 쪽은 Natural Earth 1:10m admin-1(v5.1.2) 현대 행정구역 조각을 그 시기 국경에 맞춰 묶고, 조각이 역사 경계와 다른 곳은 선을 그어 나눈 근사. 유럽 밖(시베리아·중앙아시아·극동)은 대략적인 추정. 운영자 검수 필요"},"geometry":{"type":"Polygon","coordinates":[[[6.3453,49.4553],[6.3423,49.493],[6.3488,49.5253],[6.49,49.5338],[6.6051,49.5302],[6.6698,49.5494],[6.7123,49.5503],[6.8597,49.5945],[6.9364,49.6272],[6.9711,49.6187],[6.9988,49.6295],[7.072,49.6035],[7.1328,49.602],[7.2191,49.5635],[7.2675,49.5785],[7.3085,49.4854],[7.2461,49.4461],[7.2523,49.431],[7.3012,49.3848],[7.3852,49.3697],[7.3873,49.3368],[7.3567,49.3127],[7.3167,49.2519],[7.2869,49.2308],[7.2947,49.2052],[7.3491,49.1687],[7.3716,49.1662],[7.3265,49.1318],[7.2971,49.1281],[7.2681,49.1056],[7.2412,49.1139],[7.155,49.1144],[7.0853,49.1415],[7.0732,49.1203],[7.0425,49.1076],[7.0205,49.119],[7.009,49.1464],[7.0095,49.1817],[6.9879,49.1824],[6.9254,49.2056],[6.8435,49.2111],[6.8277,49.1956],[6.839,49.1628],[6.8091,49.1458],[6.7701,49.1553],[6.7256,49.1556],[6.701,49.1729],[6.7025,49.2136],[6.6806,49.2075],[6.6638,49.2439],[6.6397,49.2712],[6.5732,49.3131],[6.5501,49.338],[6.5743,49.3618],[6.5257,49.3955],[6.4945,49.4355],[6.4027,49.4655],[6.3453,49.4553]]]}}
]}
