{"type":"FeatureCollection","features":[
{"type":"Feature","properties":{"entityId":"san-marino","from":1526,"to":null,"certainty":"estimated","source":"유럽 쪽은 Natural Earth 1:10m admin-1(v5.1.2) 현대 행정구역 조각을 그 시기 국경에 맞춰 묶고, 조각이 역사 경계와 다른 곳은 선을 그어 나눈 근사. 유럽 밖(시베리아·중앙아시아·극동)은 대략적인 추정. 운영자 검수 필요"},"geometry":{"type":"Polygon","coordinates":[[[12.4272,43.9694],[12.4533,43.9791],[12.4822,43.9826],[12.4892,43.9731],[12.4907,43.965],[12.4924,43.9564],[12.4915,43.9491],[12.4903,43.9392],[12.4831,43.9292],[12.4822,43.9279],[12.4796,43.9258],[12.478,43.9232],[12.4775,43.9201],[12.4783,43.917],[12.4644,43.9001],[12.4605,43.8953],[12.4413,43.8933],[12.4294,43.8921],[12.4211,43.8952],[12.3996,43.9032],[12.39,43.9179],[12.3856,43.9245],[12.3957,43.9484],[12.411,43.9597],[12.4166,43.9637],[12.4214,43.9672],[12.4272,43.9694]]]}}
]}
