{"type":"FeatureCollection","features":[
{"type":"Feature","properties":{"entityId":"sardinia","from":1789,"to":1792,"certainty":"estimated","source":"유럽 쪽은 Natural Earth 1:10m admin-1(v5.1.2) 현대 행정구역 조각을 그 시기 국경에 맞춰 묶고, 조각이 역사 경계와 다른 곳은 선을 그어 나눈 근사. 유럽 밖(시베리아·중앙아시아·극동)은 대략적인 추정. 운영자 검수 필요"},"geometry":{"type":"MultiPolygon","coordinates":[[[[5.6005,45.6556],[5.6237,45.6133],[5.7411,45.4509],[5.7562,45.4393],[5.9108,45.3942],[5.9153,45.4765],[5.9482,45.4895],[5.9839,45.4833],[6.045,45.4435],[6.1254,45.4351],[6.1875,45.3776],[6.1895,45.3299],[6.1443,45.2984],[6.1309,45.2612],[6.154,45.1931],[6.156,45.1617],[6.1699,45.1523],[6.2566,45.143],[6.2664,45.1248],[6.2828,45.1153],[6.3571,45.1078],[6.3937,45.0704],[6.4594,45.0536],[6.4955,45.0708],[6.52,45.104],[6.5609,45.1048],[6.5978,45.121],[6.6294,45.1235],[6.6027,45.1035],[6.6366,45.0745],[6.6397,45.0504],[6.6622,45.0292],[6.6972,45.0269],[6.7235,45.0134],[6.7299,44.9847],[6.7279,44.9287],[6.7782,44.8876],[6.866,44.8557],[6.9327,44.8617],[6.9828,44.847],[7.0071,44.8221],[6.9984,44.7938],[7.019,44.7389],[7.0388,44.7121],[7.0552,44.6849],[6.9828,44.6922],[6.9383,44.658],[6.9456,44.6254],[6.8973,44.5754],[6.8464,44.5475],[6.8388,44.5029],[6.8613,44.4749],[6.9178,44.4363],[6.8772,44.4144],[6.8661,44.3721],[6.8784,44.3546],[6.799,44.3184],[6.7308,44.2459],[6.7023,44.1885],[6.695,44.1531],[6.7454,44.0998],[6.7576,44.0373],[6.8187,44.0067],[6.8582,43.9555],[6.9155,43.9212],[6.9423,43.8972],[6.9115,43.8943],[6.98,43.86],[7.17,43.83],[7.19,43.76],[7.2,43.64],[7.2,43.5466],[7.2773,43.5948],[7.3624,43.6479],[7.4029,43.6731],[7.3624,43.6731],[7.3624,43.7192],[7.3658,43.7227],[7.3673,43.7341],[7.3727,43.7458],[7.3875,43.7579],[7.407,43.7635],[7.4262,43.7555],[7.4375,43.7434],[7.4474,43.7488],[7.4474,43.744],[7.4899,43.744],[7.4899,43.7885],[7.5023,43.7922],[7.4779,43.8655],[7.4935,43.8862],[7.5569,43.9441],[7.6309,43.9935],[7.6348,44.0015],[7.6534,44.0397],[7.6899,44.0673],[7.6879,44.0908],[7.738,44.0994],[7.7296,44.1183],[7.7575,44.1438],[7.8074,44.129],[7.8996,44.1234],[7.9876,44.1129],[8.0021,44.1184],[7.9818,44.1419],[8.0066,44.1645],[8.0453,44.158],[8.0775,44.1858],[8.0695,44.2257],[8.0781,44.2875],[8.0716,44.3115],[8.1354,44.3502],[8.1691,44.4036],[8.2058,44.4224],[8.211,44.4457],[8.1956,44.4746],[8.2209,44.5181],[8.2498,44.5346],[8.2655,44.5217],[8.3596,44.481],[8.4141,44.5161],[8.5642,44.5162],[8.6014,44.5493],[8.613,44.5875],[8.7246,44.5786],[8.7648,44.5297],[8.7761,44.5031],[8.8183,44.5409],[8.8257,44.5588],[8.8961,44.5604],[8.9075,44.5695],[8.9079,44.6082],[8.878,44.64],[8.9231,44.6828],[8.9592,44.6826],[9.041,44.6322],[9.0891,44.6193],[9.1158,44.5894],[9.1485,44.5811],[9.1993,44.5993],[9.2031,44.6138],[9.2014,44.6821],[9.2059,44.7208],[9.1714,44.7856],[9.1406,44.8156],[9.0937,44.8181],[9.0483,44.8488],[9.0503,44.8834],[8.9965,44.9179],[8.9701,44.9444],[8.9571,44.9813],[8.8824,45.0005],[8.8779,45.0538],[8.8504,45.0584],[8.7741,45.0276],[8.6691,45.0248],[8.6455,45.0412],[8.6076,45.108],[8.5733,45.1371],[8.5566,45.1648],[8.559,45.1931],[8.534,45.2176],[8.5156,45.277],[8.5001,45.2877],[8.5126,45.3135],[8.5465,45.3642],[8.5722,45.3667],[8.6329,45.3528],[8.6587,45.3164],[8.7027,45.3048],[8.7119,45.3302],[8.7558,45.3542],[8.735,45.3755],[8.7651,45.3907],[8.832,45.4082],[8.811,45.4276],[8.7724,45.4937],[8.717,45.523],[8.7052,45.5568],[8.6953,45.6069],[8.6684,45.6293],[8.6824,45.6444],[8.677,45.6729],[8.6461,45.6887],[8.6458,45.7207],[8.6174,45.7277],[8.5761,45.776],[8.5654,45.7986],[8.5984,45.826],[8.6027,45.8388],[8.5885,45.9103],[8.5931,45.9175],[8.7207,46.012],[8.7342,46.0467],[8.729,46.1082],[8.6775,46.0958],[8.6018,46.1228],[8.5387,46.1876],[8.5103,46.2079],[8.4565,46.2248],[8.4272,46.2514],[8.4266,46.3016],[8.4463,46.3822],[8.4416,46.4349],[8.4279,46.4487],[8.3859,46.4502],[8.3163,46.4337],[8.2866,46.4054],[8.2915,46.3784],[8.2418,46.3541],[8.1926,46.3092],[8.1285,46.2925],[8.0873,46.2718],[8.0731,46.2536],[8.1,46.2356],[8.1295,46.196],[8.1323,46.1594],[8.1106,46.127],[8.0669,46.1006],[8.0354,46.0965],[8.0182,46.0809],[8.0107,46.0297],[7.9858,45.9993],[7.8982,45.9819],[7.8496,45.9397],[7.8312,45.9145],[7.7801,45.9181],[7.732,45.9304],[7.694,45.9287],[7.643,45.9663],[7.5411,45.9841],[7.5037,45.9567],[7.453,45.9459],[7.3938,45.9157],[7.3618,45.9078],[7.2867,45.9134],[7.1837,45.8805],[7.1209,45.8761],[7.0669,45.8902],[7.0221,45.9253],[6.9828,45.9954],[6.9151,46.0486],[6.8924,46.0556],[6.8509,46.0496],[6.8513,46.086],[6.8692,46.1123],[6.8539,46.1226],[6.7743,46.1348],[6.7657,46.1516],[6.7922,46.2217],[6.8277,46.2695],[6.7504,46.3455],[6.7821,46.3785],[6.7881,46.405],[6.7627,46.4293],[6.6137,46.4559],[6.547,46.4574],[6.4829,46.4486],[6.3977,46.4082],[6.3016,46.3945],[6.2691,46.375],[6.2195,46.3291],[6.2166,46.3095],[6.2376,46.2679],[6.2523,46.2599],[6.276,46.2631],[6.2812,46.2401],[6.2554,46.2211],[6.1914,46.1917],[6.1403,46.1502],[6.1079,46.1386],[6.0739,46.1492],[6.0283,46.1479],[5.9829,46.1404],[5.9588,46.1305],[5.9055,46.1226],[5.8716,46.0933],[5.8459,46.111],[5.8252,46.0953],[5.8242,46.0502],[5.8404,45.9388],[5.8319,45.8982],[5.7841,45.7973],[5.7752,45.749],[5.7517,45.715],[5.6941,45.6871],[5.6605,45.6571],[5.6199,45.6437],[5.6005,45.6556]]],[[[7.4899,43.7033],[7.5324,43.7107],[7.5324,43.744],[7.4899,43.744],[7.4899,43.7033]]],[[[8.1338,40.7289],[8.168,40.7016],[8.1854,40.6954],[8.187,40.6693],[8.1738,40.6416],[8.1406,40.6252],[8.1618,40.5638],[8.1766,40.6066],[8.2163,40.6122],[8.196,40.5781],[8.2163,40.5706],[8.255,40.5884],[8.2961,40.5587],[8.3269,40.5271],[8.3317,40.5107],[8.3376,40.5075],[8.3632,40.4438],[8.376,40.412],[8.3889,40.3802],[8.386,40.3518],[8.3906,40.3508],[8.4006,40.0452],[8.3845,40.0419],[8.4012,40.0274],[8.4019,40.0048],[8.3936,39.9769],[8.3983,39.9053],[8.4053,39.9002],[8.4066,39.8611],[8.4075,39.8346],[8.4084,39.808],[8.4118,39.7019],[8.4178,39.5211],[8.4042,39.4896],[8.3869,39.4698],[8.3981,39.4465],[8.4014,39.4124],[8.374,39.3789],[8.3821,39.3597],[8.4083,39.3443],[8.4113,39.2914],[8.4131,39.2704],[8.3718,39.2306],[8.3987,39.2012],[8.405,39.1744],[8.4354,39.166],[8.4422,39.1182],[8.4733,39.1074],[8.4828,39.0804],[8.5093,39.0827],[8.5138,39.077],[8.5044,39.0629],[8.527,39.0604],[8.5517,39.0293],[8.5721,38.9982],[8.5801,38.9605],[8.6062,38.9557],[8.6106,38.9527],[8.615,38.923],[8.5999,38.8991],[8.6428,38.89],[8.6688,38.9106],[8.704,38.9268],[8.7173,38.9268],[8.7678,38.9162],[8.791,38.9044],[8.8054,38.906],[8.8533,38.878],[8.8947,38.9023],[8.9963,38.9828],[9.0151,38.9897],[9.0449,39.0513],[9.03,39.0813],[9.0315,39.0907],[9.153,39.1903],[9.166,39.1871],[9.1836,39.2062],[9.2073,39.2133],[9.2646,39.2167],[9.3796,39.171],[9.4429,39.1244],[9.4807,39.1356],[9.5227,39.1249],[9.5578,39.1397],[9.5799,39.1871],[9.5784,39.189],[9.6677,39.1763],[9.6677,39.1764],[9.6681,39.1763],[9.7023,39.4984],[9.7065,39.5386],[9.7108,39.5789],[9.7193,39.6594],[9.7706,40.1424],[9.7791,40.2229],[9.7834,40.2632],[9.7877,40.3034],[9.8047,40.4644],[9.8088,40.4708],[9.8267,40.5196],[9.7943,40.5548],[9.7941,40.5556],[9.7481,40.6637],[9.7445,40.6805],[9.7341,40.6966],[9.6825,40.8177],[9.677,40.8247],[9.681,40.8298],[9.724,40.8449],[9.6831,40.8654],[9.6633,40.8582],[9.6558,40.876],[9.6141,40.8934],[9.6421,40.9206],[9.6226,40.9238],[9.5833,40.9099],[9.5745,40.915],[9.554,40.9314],[9.5575,40.9312],[9.5789,40.962],[9.5852,40.9864],[9.5889,40.9927],[9.611,41.001],[9.6512,40.9911],[9.6626,41.0026],[9.6157,41.0196],[9.611,41.0185],[9.5745,41.0313],[9.5385,41.0538],[9.5308,41.0639],[9.5391,41.092],[9.5459,41.0777],[9.5664,41.1193],[9.5081,41.1404],[9.4691,41.1462],[9.4696,41.1366],[9.4557,41.1511],[9.4145,41.1689],[9.4224,41.1807],[9.3882,41.1807],[9.3352,41.2117],[9.3339,41.1975],[9.316,41.1989],[9.3125,41.2012],[9.3058,41.1997],[9.2829,41.2014],[9.2825,41.2018],[9.2681,41.2366],[9.2306,41.2626],[9.1711,41.2429],[9.1636,41.1857],[9.1385,41.1668],[9.114,41.1498],[9.0985,41.1402],[9.0683,41.1314],[9.0055,41.1219],[8.9992,41.1114],[8.9981,41.1111],[8.956,41.0726],[8.9401,41.0612],[8.9176,41.0374],[8.9121,41.0324],[8.8811,41.0237],[8.8605,40.9929],[8.738,40.9171],[8.7092,40.9206],[8.6627,40.9042],[8.2354,40.9435],[8.2362,40.9548],[8.2022,40.9753],[8.1886,40.9478],[8.1597,40.9505],[8.1593,40.9505],[8.1595,40.9501],[8.1593,40.9501],[8.1984,40.8528],[8.1958,40.8406],[8.1338,40.7289]]],[[[8.2061,40.9979],[8.2102,40.9976],[8.2096,40.9958],[8.2464,40.9936],[8.2465,40.9949],[8.2529,40.9944],[8.2533,40.9944],[8.2857,41.0395],[8.3181,41.0621],[8.3186,41.0629],[8.3324,41.0646],[8.342,41.0978],[8.3414,41.0989],[8.3433,41.102],[8.3431,41.1021],[8.3433,41.1024],[8.3357,41.1092],[8.3262,41.1261],[8.3206,41.1212],[8.283,41.1055],[8.2778,41.1057],[8.2777,41.1033],[8.2673,41.099],[8.2274,41.0365],[8.2232,41.0336],[8.219,41.022],[8.2061,40.9983],[8.2063,40.9983],[8.2061,40.9979]]],[[[8.346,39.0977],[8.3493,39.0622],[8.3649,39.0295],[8.4098,38.9618],[8.437,38.9672],[8.4575,39.0286],[8.4801,39.0674],[8.4799,39.0675],[8.4801,39.0678],[8.4519,39.0839],[8.4446,39.1027],[8.402,39.1044],[8.3685,39.1165],[8.3684,39.1164],[8.3681,39.1165],[8.367,39.1148],[8.3604,39.1182],[8.346,39.0977]]]]}},
{"type":"Feature","properties":{"entityId":"sardinia","from":1792,"to":1793,"certainty":"estimated","source":"유럽 쪽은 Natural Earth 1:10m admin-1(v5.1.2) 현대 행정구역 조각을 그 시기 국경에 맞춰 묶고, 조각이 역사 경계와 다른 곳은 선을 그어 나눈 근사. 유럽 밖(시베리아·중앙아시아·극동)은 대략적인 추정. 운영자 검수 필요"},"geometry":{"type":"MultiPolygon","coordinates":[[[[6.6027,45.1035],[6.6366,45.0745],[6.6397,45.0504],[6.6622,45.0292],[6.6972,45.0269],[6.7235,45.0134],[6.7299,44.9847],[6.7279,44.9287],[6.7782,44.8876],[6.866,44.8557],[6.9327,44.8617],[6.9828,44.847],[7.0071,44.8221],[6.9984,44.7938],[7.019,44.7389],[7.0388,44.7121],[7.0552,44.6849],[6.9828,44.6922],[6.9383,44.658],[6.9456,44.6254],[6.8973,44.5754],[6.8464,44.5475],[6.8388,44.5029],[6.8613,44.4749],[6.9178,44.4363],[6.8772,44.4144],[6.8661,44.3721],[6.8784,44.3546],[6.799,44.3184],[6.7308,44.2459],[6.7023,44.1885],[6.695,44.1531],[6.7454,44.0998],[6.7576,44.0373],[6.8187,44.0067],[6.8582,43.9555],[6.9155,43.9212],[6.9423,43.8972],[6.9115,43.8943],[6.98,43.86],[7.17,43.83],[7.19,43.76],[7.2,43.64],[7.2,43.5466],[7.2773,43.5948],[7.3624,43.6479],[7.4029,43.6731],[7.3624,43.6731],[7.3624,43.7192],[7.3658,43.7227],[7.3673,43.7341],[7.3727,43.7458],[7.3875,43.7579],[7.407,43.7635],[7.4262,43.7555],[7.4375,43.7434],[7.4474,43.7488],[7.4474,43.744],[7.4899,43.744],[7.4899,43.7885],[7.5023,43.7922],[7.4779,43.8655],[7.4935,43.8862],[7.5569,43.9441],[7.6309,43.9935],[7.6348,44.0015],[7.6534,44.0397],[7.6899,44.0673],[7.6879,44.0908],[7.738,44.0994],[7.7296,44.1183],[7.7575,44.1438],[7.8074,44.129],[7.8996,44.1234],[7.9876,44.1129],[8.0021,44.1184],[7.9818,44.1419],[8.0066,44.1645],[8.0453,44.158],[8.0775,44.1858],[8.0695,44.2257],[8.0781,44.2875],[8.0716,44.3115],[8.1354,44.3502],[8.1691,44.4036],[8.2058,44.4224],[8.211,44.4457],[8.1956,44.4746],[8.2209,44.5181],[8.2498,44.5346],[8.2655,44.5217],[8.3596,44.481],[8.4141,44.5161],[8.5642,44.5162],[8.6014,44.5493],[8.613,44.5875],[8.7246,44.5786],[8.7648,44.5297],[8.7761,44.5031],[8.8183,44.5409],[8.8257,44.5588],[8.8961,44.5604],[8.9075,44.5695],[8.9079,44.6082],[8.878,44.64],[8.9231,44.6828],[8.9592,44.6826],[9.041,44.6322],[9.0891,44.6193],[9.1158,44.5894],[9.1485,44.5811],[9.1993,44.5993],[9.2031,44.6138],[9.2014,44.6821],[9.2059,44.7208],[9.1714,44.7856],[9.1406,44.8156],[9.0937,44.8181],[9.0483,44.8488],[9.0503,44.8834],[8.9965,44.9179],[8.9701,44.9444],[8.9571,44.9813],[8.8824,45.0005],[8.8779,45.0538],[8.8504,45.0584],[8.7741,45.0276],[8.6691,45.0248],[8.6455,45.0412],[8.6076,45.108],[8.5733,45.1371],[8.5566,45.1648],[8.559,45.1931],[8.534,45.2176],[8.5156,45.277],[8.5001,45.2877],[8.5126,45.3135],[8.5465,45.3642],[8.5722,45.3667],[8.6329,45.3528],[8.6587,45.3164],[8.7027,45.3048],[8.7119,45.3302],[8.7558,45.3542],[8.735,45.3755],[8.7651,45.3907],[8.832,45.4082],[8.811,45.4276],[8.7724,45.4937],[8.717,45.523],[8.7052,45.5568],[8.6953,45.6069],[8.6684,45.6293],[8.6824,45.6444],[8.677,45.6729],[8.6461,45.6887],[8.6458,45.7207],[8.6174,45.7277],[8.5761,45.776],[8.5654,45.7986],[8.5984,45.826],[8.6027,45.8388],[8.5885,45.9103],[8.5931,45.9175],[8.7207,46.012],[8.7342,46.0467],[8.729,46.1082],[8.6775,46.0958],[8.6018,46.1228],[8.5387,46.1876],[8.5103,46.2079],[8.4565,46.2248],[8.4272,46.2514],[8.4266,46.3016],[8.4463,46.3822],[8.4416,46.4349],[8.4279,46.4487],[8.3859,46.4502],[8.3163,46.4337],[8.2866,46.4054],[8.2915,46.3784],[8.2418,46.3541],[8.1926,46.3092],[8.1285,46.2925],[8.0873,46.2718],[8.0731,46.2536],[8.1,46.2356],[8.1295,46.196],[8.1323,46.1594],[8.1106,46.127],[8.0669,46.1006],[8.0354,46.0965],[8.0182,46.0809],[8.0107,46.0297],[7.9858,45.9993],[7.8982,45.9819],[7.8496,45.9397],[7.8312,45.9145],[7.7801,45.9181],[7.732,45.9304],[7.694,45.9287],[7.643,45.9663],[7.5411,45.9841],[7.5037,45.9567],[7.453,45.9459],[7.3938,45.9157],[7.3618,45.9078],[7.2867,45.9134],[7.1837,45.8805],[7.1209,45.8761],[7.0669,45.8902],[7.0221,45.9253],[6.9972,45.9113],[6.9692,45.8698],[6.9051,45.8454],[6.8735,45.8448],[6.8707,45.8283],[6.8434,45.8386],[6.8008,45.8265],[6.7827,45.7953],[6.7839,45.765],[6.7959,45.7181],[6.8431,45.6827],[6.8826,45.6755],[6.9186,45.6526],[6.9634,45.6407],[6.9695,45.6258],[6.9549,45.5862],[6.9698,45.567],[6.9828,45.5111],[7.0754,45.4663],[7.0968,45.4354],[7.1607,45.4109],[7.1301,45.3571],[7.0926,45.324],[7.1084,45.2592],[7.0502,45.215],[7.0297,45.2282],[6.9587,45.2098],[6.9138,45.1702],[6.8813,45.1684],[6.8767,45.1412],[6.8441,45.1301],[6.7715,45.1532],[6.7364,45.1573],[6.6944,45.1403],[6.6674,45.1396],[6.6294,45.1235],[6.6027,45.1035]]],[[[7.4899,43.7033],[7.5324,43.7107],[7.5324,43.744],[7.4899,43.744],[7.4899,43.7033]]],[[[8.1338,40.7289],[8.168,40.7016],[8.1854,40.6954],[8.187,40.6693],[8.1738,40.6416],[8.1406,40.6252],[8.1618,40.5638],[8.1766,40.6066],[8.2163,40.6122],[8.196,40.5781],[8.2163,40.5706],[8.255,40.5884],[8.2961,40.5587],[8.3269,40.5271],[8.3317,40.5107],[8.3376,40.5075],[8.3632,40.4438],[8.376,40.412],[8.3889,40.3802],[8.386,40.3518],[8.3906,40.3508],[8.4006,40.0452],[8.3845,40.0419],[8.4012,40.0274],[8.4019,40.0048],[8.3936,39.9769],[8.3983,39.9053],[8.4053,39.9002],[8.4066,39.8611],[8.4075,39.8346],[8.4084,39.808],[8.4118,39.7019],[8.4178,39.5211],[8.4042,39.4896],[8.3869,39.4698],[8.3981,39.4465],[8.4014,39.4124],[8.374,39.3789],[8.3821,39.3597],[8.4083,39.3443],[8.4113,39.2914],[8.4131,39.2704],[8.3718,39.2306],[8.3987,39.2012],[8.405,39.1744],[8.4354,39.166],[8.4422,39.1182],[8.4733,39.1074],[8.4828,39.0804],[8.5093,39.0827],[8.5138,39.077],[8.5044,39.0629],[8.527,39.0604],[8.5517,39.0293],[8.5721,38.9982],[8.5801,38.9605],[8.6062,38.9557],[8.6106,38.9527],[8.615,38.923],[8.5999,38.8991],[8.6428,38.89],[8.6688,38.9106],[8.704,38.9268],[8.7173,38.9268],[8.7678,38.9162],[8.791,38.9044],[8.8054,38.906],[8.8533,38.878],[8.8947,38.9023],[8.9963,38.9828],[9.0151,38.9897],[9.0449,39.0513],[9.03,39.0813],[9.0315,39.0907],[9.153,39.1903],[9.166,39.1871],[9.1836,39.2062],[9.2073,39.2133],[9.2646,39.2167],[9.3796,39.171],[9.4429,39.1244],[9.4807,39.1356],[9.5227,39.1249],[9.5578,39.1397],[9.5799,39.1871],[9.5784,39.189],[9.6677,39.1763],[9.6677,39.1764],[9.6681,39.1763],[9.7023,39.4984],[9.7065,39.5386],[9.7108,39.5789],[9.7193,39.6594],[9.7706,40.1424],[9.7791,40.2229],[9.7834,40.2632],[9.7877,40.3034],[9.8047,40.4644],[9.8088,40.4708],[9.8267,40.5196],[9.7943,40.5548],[9.7941,40.5556],[9.7481,40.6637],[9.7445,40.6805],[9.7341,40.6966],[9.6825,40.8177],[9.677,40.8247],[9.681,40.8298],[9.724,40.8449],[9.6831,40.8654],[9.6633,40.8582],[9.6558,40.876],[9.6141,40.8934],[9.6421,40.9206],[9.6226,40.9238],[9.5833,40.9099],[9.5745,40.915],[9.554,40.9314],[9.5575,40.9312],[9.5789,40.962],[9.5852,40.9864],[9.5889,40.9927],[9.611,41.001],[9.6512,40.9911],[9.6626,41.0026],[9.6157,41.0196],[9.611,41.0185],[9.5745,41.0313],[9.5385,41.0538],[9.5308,41.0639],[9.5391,41.092],[9.5459,41.0777],[9.5664,41.1193],[9.5081,41.1404],[9.4691,41.1462],[9.4696,41.1366],[9.4557,41.1511],[9.4145,41.1689],[9.4224,41.1807],[9.3882,41.1807],[9.3352,41.2117],[9.3339,41.1975],[9.316,41.1989],[9.3125,41.2012],[9.3058,41.1997],[9.2829,41.2014],[9.2825,41.2018],[9.2681,41.2366],[9.2306,41.2626],[9.1711,41.2429],[9.1636,41.1857],[9.1385,41.1668],[9.114,41.1498],[9.0985,41.1402],[9.0683,41.1314],[9.0055,41.1219],[8.9992,41.1114],[8.9981,41.1111],[8.956,41.0726],[8.9401,41.0612],[8.9176,41.0374],[8.9121,41.0324],[8.8811,41.0237],[8.8605,40.9929],[8.738,40.9171],[8.7092,40.9206],[8.6627,40.9042],[8.2354,40.9435],[8.2362,40.9548],[8.2022,40.9753],[8.1886,40.9478],[8.1597,40.9505],[8.1593,40.9505],[8.1595,40.9501],[8.1593,40.9501],[8.1984,40.8528],[8.1958,40.8406],[8.1338,40.7289]]],[[[8.2061,40.9979],[8.2102,40.9976],[8.2096,40.9958],[8.2464,40.9936],[8.2465,40.9949],[8.2529,40.9944],[8.2533,40.9944],[8.2857,41.0395],[8.3181,41.0621],[8.3186,41.0629],[8.3324,41.0646],[8.342,41.0978],[8.3414,41.0989],[8.3433,41.102],[8.3431,41.1021],[8.3433,41.1024],[8.3357,41.1092],[8.3262,41.1261],[8.3206,41.1212],[8.283,41.1055],[8.2778,41.1057],[8.2777,41.1033],[8.2673,41.099],[8.2274,41.0365],[8.2232,41.0336],[8.219,41.022],[8.2061,40.9983],[8.2063,40.9983],[8.2061,40.9979]]],[[[8.346,39.0977],[8.3493,39.0622],[8.3649,39.0295],[8.4098,38.9618],[8.437,38.9672],[8.4575,39.0286],[8.4801,39.0674],[8.4799,39.0675],[8.4801,39.0678],[8.4519,39.0839],[8.4446,39.1027],[8.402,39.1044],[8.3685,39.1165],[8.3684,39.1164],[8.3681,39.1165],[8.367,39.1148],[8.3604,39.1182],[8.346,39.0977]]]]}},
{"type":"Feature","properties":{"entityId":"sardinia","from":1793,"to":1801,"certainty":"estimated","source":"유럽 쪽은 Natural Earth 1:10m admin-1(v5.1.2) 현대 행정구역 조각을 그 시기 국경에 맞춰 묶고, 조각이 역사 경계와 다른 곳은 선을 그어 나눈 근사. 유럽 밖(시베리아·중앙아시아·극동)은 대략적인 추정. 운영자 검수 필요"},"geometry":{"type":"MultiPolygon","coordinates":[[[[8.2498,44.5346],[8.2209,44.5181],[8.1956,44.4746],[8.211,44.4457],[8.2058,44.4224],[8.1691,44.4036],[8.1354,44.3502],[8.0716,44.3115],[8.0781,44.2875],[8.0695,44.2257],[8.0775,44.1858],[8.0453,44.158],[8.0066,44.1645],[7.9818,44.1419],[8.0021,44.1184],[7.9876,44.1129],[7.8996,44.1234],[7.8074,44.129],[7.7575,44.1438],[7.7296,44.1183],[7.738,44.0994],[7.6879,44.0908],[7.6419,44.1436],[7.6556,44.1761],[7.6247,44.1801],[7.5836,44.1607],[7.5548,44.1591],[7.3808,44.1229],[7.3406,44.1237],[7.3093,44.1475],[7.2513,44.16],[7.145,44.2072],[7.0335,44.2429],[6.9961,44.2378],[6.9734,44.2494],[6.9592,44.2774],[6.9212,44.3022],[6.8784,44.3546],[6.8661,44.3721],[6.8772,44.4144],[6.9178,44.4363],[6.8613,44.4749],[6.8388,44.5029],[6.8464,44.5475],[6.8973,44.5754],[6.9456,44.6254],[6.9383,44.658],[6.9828,44.6922],[7.0552,44.6849],[7.0388,44.7121],[7.019,44.7389],[6.9984,44.7938],[7.0071,44.8221],[6.9828,44.847],[6.9327,44.8617],[6.866,44.8557],[6.7782,44.8876],[6.7279,44.9287],[6.7299,44.9847],[6.7235,45.0134],[6.6972,45.0269],[6.6622,45.0292],[6.6397,45.0504],[6.6366,45.0745],[6.6027,45.1035],[6.6294,45.1235],[6.6674,45.1396],[6.6944,45.1403],[6.7364,45.1573],[6.7715,45.1532],[6.8441,45.1301],[6.8767,45.1412],[6.8813,45.1684],[6.9138,45.1702],[6.9587,45.2098],[7.0297,45.2282],[7.0502,45.215],[7.1084,45.2592],[7.0926,45.324],[7.1301,45.3571],[7.1607,45.4109],[7.0968,45.4354],[7.0754,45.4663],[6.9828,45.5111],[6.9698,45.567],[6.9549,45.5862],[6.9695,45.6258],[6.9634,45.6407],[6.9186,45.6526],[6.8826,45.6755],[6.8431,45.6827],[6.7959,45.7181],[6.7839,45.765],[6.7827,45.7953],[6.8008,45.8265],[6.8434,45.8386],[6.8707,45.8283],[6.8735,45.8448],[6.9051,45.8454],[6.9692,45.8698],[6.9972,45.9113],[7.0221,45.9253],[7.0669,45.8902],[7.1209,45.8761],[7.1837,45.8805],[7.2867,45.9134],[7.3618,45.9078],[7.3938,45.9157],[7.453,45.9459],[7.5037,45.9567],[7.5411,45.9841],[7.643,45.9663],[7.694,45.9287],[7.732,45.9304],[7.7801,45.9181],[7.8312,45.9145],[7.8496,45.9397],[7.8982,45.9819],[7.9858,45.9993],[8.0107,46.0297],[8.0182,46.0809],[8.0354,46.0965],[8.0669,46.1006],[8.1106,46.127],[8.1323,46.1594],[8.1295,46.196],[8.1,46.2356],[8.0731,46.2536],[8.0873,46.2718],[8.1285,46.2925],[8.1926,46.3092],[8.2418,46.3541],[8.2915,46.3784],[8.2866,46.4054],[8.3163,46.4337],[8.3859,46.4502],[8.4279,46.4487],[8.4416,46.4349],[8.4463,46.3822],[8.4266,46.3016],[8.4272,46.2514],[8.4565,46.2248],[8.5103,46.2079],[8.5387,46.1876],[8.6018,46.1228],[8.6775,46.0958],[8.729,46.1082],[8.7342,46.0467],[8.7207,46.012],[8.5931,45.9175],[8.5885,45.9103],[8.6027,45.8388],[8.5984,45.826],[8.5654,45.7986],[8.5761,45.776],[8.6174,45.7277],[8.6458,45.7207],[8.6461,45.6887],[8.677,45.6729],[8.6824,45.6444],[8.6684,45.6293],[8.6953,45.6069],[8.7052,45.5568],[8.717,45.523],[8.7724,45.4937],[8.811,45.4276],[8.832,45.4082],[8.7651,45.3907],[8.735,45.3755],[8.7558,45.3542],[8.7119,45.3302],[8.7027,45.3048],[8.6587,45.3164],[8.6329,45.3528],[8.5722,45.3667],[8.5465,45.3642],[8.5126,45.3135],[8.5001,45.2877],[8.5156,45.277],[8.534,45.2176],[8.559,45.1931],[8.5566,45.1648],[8.5733,45.1371],[8.6076,45.108],[8.6455,45.0412],[8.6691,45.0248],[8.7741,45.0276],[8.8504,45.0584],[8.8779,45.0538],[8.8824,45.0005],[8.9571,44.9813],[8.9701,44.9444],[8.9965,44.9179],[9.0503,44.8834],[9.0483,44.8488],[9.0937,44.8181],[9.1406,44.8156],[9.1714,44.7856],[9.2059,44.7208],[9.2014,44.6821],[9.2031,44.6138],[9.1993,44.5993],[9.1485,44.5811],[9.1158,44.5894],[9.0891,44.6193],[9.041,44.6322],[8.9592,44.6826],[8.9231,44.6828],[8.878,44.64],[8.9079,44.6082],[8.9075,44.5695],[8.8961,44.5604],[8.8257,44.5588],[8.8183,44.5409],[8.7761,44.5031],[8.7648,44.5297],[8.7246,44.5786],[8.613,44.5875],[8.6014,44.5493],[8.5642,44.5162],[8.4141,44.5161],[8.3596,44.481],[8.2655,44.5217],[8.2498,44.5346]]],[[[8.3981,39.4465],[8.3869,39.4698],[8.4042,39.4896],[8.4178,39.5211],[8.4118,39.7019],[8.4084,39.808],[8.4075,39.8346],[8.4066,39.8611],[8.4053,39.9002],[8.3983,39.9053],[8.3936,39.9769],[8.4019,40.0048],[8.4012,40.0274],[8.3845,40.0419],[8.4006,40.0452],[8.3906,40.3508],[8.386,40.3518],[8.3889,40.3802],[8.376,40.412],[8.3632,40.4438],[8.3376,40.5075],[8.3317,40.5107],[8.3269,40.5271],[8.2961,40.5587],[8.255,40.5884],[8.2163,40.5706],[8.196,40.5781],[8.2163,40.6122],[8.1766,40.6066],[8.1618,40.5638],[8.1406,40.6252],[8.1738,40.6416],[8.187,40.6693],[8.1854,40.6954],[8.168,40.7016],[8.1338,40.7289],[8.1958,40.8406],[8.1984,40.8528],[8.1593,40.9501],[8.1595,40.9501],[8.1593,40.9505],[8.1597,40.9505],[8.1886,40.9478],[8.2022,40.9753],[8.2362,40.9548],[8.2354,40.9435],[8.6627,40.9042],[8.7092,40.9206],[8.738,40.9171],[8.8605,40.9929],[8.8811,41.0237],[8.9121,41.0324],[8.9176,41.0374],[8.9401,41.0612],[8.956,41.0726],[8.9981,41.1111],[8.9992,41.1114],[9.0055,41.1219],[9.0683,41.1314],[9.0985,41.1402],[9.114,41.1498],[9.1385,41.1668],[9.1636,41.1857],[9.1711,41.2429],[9.2306,41.2626],[9.2681,41.2366],[9.2825,41.2018],[9.2829,41.2014],[9.3058,41.1997],[9.3125,41.2012],[9.316,41.1989],[9.3339,41.1975],[9.3352,41.2117],[9.3882,41.1807],[9.4224,41.1807],[9.4145,41.1689],[9.4557,41.1511],[9.4696,41.1366],[9.4691,41.1462],[9.5081,41.1404],[9.5664,41.1193],[9.5459,41.0777],[9.5391,41.092],[9.5308,41.0639],[9.5385,41.0538],[9.5745,41.0313],[9.611,41.0185],[9.6157,41.0196],[9.6626,41.0026],[9.6512,40.9911],[9.611,41.001],[9.5889,40.9927],[9.5852,40.9864],[9.5789,40.962],[9.5575,40.9312],[9.554,40.9314],[9.5745,40.915],[9.5833,40.9099],[9.6226,40.9238],[9.6421,40.9206],[9.6141,40.8934],[9.6558,40.876],[9.6633,40.8582],[9.6831,40.8654],[9.724,40.8449],[9.681,40.8298],[9.677,40.8247],[9.6825,40.8177],[9.7341,40.6966],[9.7445,40.6805],[9.7481,40.6637],[9.7941,40.5556],[9.7943,40.5548],[9.8267,40.5196],[9.8088,40.4708],[9.8047,40.4644],[9.7877,40.3034],[9.7834,40.2632],[9.7791,40.2229],[9.7706,40.1424],[9.7364,39.8204],[9.7193,39.6594],[9.7108,39.5789],[9.7065,39.5386],[9.7023,39.4984],[9.6681,39.1763],[9.6677,39.1764],[9.6677,39.1763],[9.5784,39.189],[9.5799,39.1871],[9.5578,39.1397],[9.5227,39.1249],[9.4807,39.1356],[9.4429,39.1244],[9.3796,39.171],[9.2646,39.2167],[9.2073,39.2133],[9.1836,39.2062],[9.166,39.1871],[9.153,39.1903],[9.0315,39.0907],[9.03,39.0813],[9.0449,39.0513],[9.0151,38.9897],[8.9963,38.9828],[8.8947,38.9023],[8.8533,38.878],[8.8054,38.906],[8.791,38.9044],[8.7678,38.9162],[8.7173,38.9268],[8.704,38.9268],[8.6688,38.9106],[8.6428,38.89],[8.5999,38.8991],[8.615,38.923],[8.6106,38.9527],[8.6062,38.9557],[8.5801,38.9605],[8.5721,38.9982],[8.5517,39.0293],[8.527,39.0604],[8.5044,39.0629],[8.5138,39.077],[8.5093,39.0827],[8.4828,39.0804],[8.4733,39.1074],[8.4422,39.1182],[8.4354,39.166],[8.405,39.1744],[8.3987,39.2012],[8.3718,39.2306],[8.4131,39.2704],[8.4113,39.2914],[8.4083,39.3443],[8.3821,39.3597],[8.374,39.3789],[8.4014,39.4124],[8.3981,39.4465]]],[[[8.402,39.1044],[8.4446,39.1027],[8.4519,39.0839],[8.4801,39.0678],[8.4799,39.0675],[8.4801,39.0674],[8.4575,39.0286],[8.437,38.9672],[8.4098,38.9618],[8.3649,39.0295],[8.3493,39.0622],[8.346,39.0977],[8.3604,39.1182],[8.367,39.1148],[8.3681,39.1165],[8.3684,39.1164],[8.3685,39.1165],[8.402,39.1044]]],[[[8.219,41.022],[8.2232,41.0336],[8.2274,41.0365],[8.2673,41.099],[8.2777,41.1033],[8.2778,41.1057],[8.283,41.1055],[8.3206,41.1212],[8.3262,41.1261],[8.3357,41.1092],[8.3433,41.1024],[8.3431,41.1021],[8.3433,41.102],[8.3414,41.0989],[8.342,41.0978],[8.3324,41.0646],[8.3186,41.0629],[8.3181,41.0621],[8.2857,41.0395],[8.2533,40.9944],[8.2529,40.9944],[8.2465,40.9949],[8.2464,40.9936],[8.2096,40.9958],[8.2102,40.9976],[8.2061,40.9979],[8.2063,40.9983],[8.2061,40.9983],[8.219,41.022]]]]}},
{"type":"Feature","properties":{"entityId":"sardinia","from":1801,"to":1814,"certainty":"estimated","source":"유럽 쪽은 Natural Earth 1:10m admin-1(v5.1.2) 현대 행정구역 조각을 그 시기 국경에 맞춰 묶고, 조각이 역사 경계와 다른 곳은 선을 그어 나눈 근사. 유럽 밖(시베리아·중앙아시아·극동)은 대략적인 추정. 운영자 검수 필요"},"geometry":{"type":"MultiPolygon","coordinates":[[[[8.3981,39.4465],[8.3869,39.4698],[8.4042,39.4896],[8.4178,39.5211],[8.4118,39.7019],[8.4084,39.808],[8.4075,39.8346],[8.4066,39.8611],[8.4053,39.9002],[8.3983,39.9053],[8.3936,39.9769],[8.4019,40.0048],[8.4012,40.0274],[8.3845,40.0419],[8.4006,40.0452],[8.3906,40.3508],[8.386,40.3518],[8.3889,40.3802],[8.376,40.412],[8.3632,40.4438],[8.3376,40.5075],[8.3317,40.5107],[8.3269,40.5271],[8.2961,40.5587],[8.255,40.5884],[8.2163,40.5706],[8.196,40.5781],[8.2163,40.6122],[8.1766,40.6066],[8.1618,40.5638],[8.1406,40.6252],[8.1738,40.6416],[8.187,40.6693],[8.1854,40.6954],[8.168,40.7016],[8.1338,40.7289],[8.1958,40.8406],[8.1984,40.8528],[8.1593,40.9501],[8.1595,40.9501],[8.1593,40.9505],[8.1597,40.9505],[8.1886,40.9478],[8.2022,40.9753],[8.2362,40.9548],[8.2354,40.9435],[8.6627,40.9042],[8.7092,40.9206],[8.738,40.9171],[8.8605,40.9929],[8.8811,41.0237],[8.9121,41.0324],[8.9176,41.0374],[8.9401,41.0612],[8.956,41.0726],[8.9981,41.1111],[8.9992,41.1114],[9.0055,41.1219],[9.0683,41.1314],[9.0985,41.1402],[9.114,41.1498],[9.1385,41.1668],[9.1636,41.1857],[9.1711,41.2429],[9.2306,41.2626],[9.2681,41.2366],[9.2825,41.2018],[9.2829,41.2014],[9.3058,41.1997],[9.3125,41.2012],[9.316,41.1989],[9.3339,41.1975],[9.3352,41.2117],[9.3882,41.1807],[9.4224,41.1807],[9.4145,41.1689],[9.4557,41.1511],[9.4696,41.1366],[9.4691,41.1462],[9.5081,41.1404],[9.5664,41.1193],[9.5459,41.0777],[9.5391,41.092],[9.5308,41.0639],[9.5385,41.0538],[9.5745,41.0313],[9.611,41.0185],[9.6157,41.0196],[9.6626,41.0026],[9.6512,40.9911],[9.611,41.001],[9.5889,40.9927],[9.5852,40.9864],[9.5789,40.962],[9.5575,40.9312],[9.554,40.9314],[9.5745,40.915],[9.5833,40.9099],[9.6226,40.9238],[9.6421,40.9206],[9.6141,40.8934],[9.6558,40.876],[9.6633,40.8582],[9.6831,40.8654],[9.724,40.8449],[9.681,40.8298],[9.677,40.8247],[9.6825,40.8177],[9.7341,40.6966],[9.7445,40.6805],[9.7481,40.6637],[9.7941,40.5556],[9.7943,40.5548],[9.8267,40.5196],[9.8088,40.4708],[9.8047,40.4644],[9.7877,40.3034],[9.7834,40.2632],[9.7791,40.2229],[9.7706,40.1424],[9.7364,39.8204],[9.7193,39.6594],[9.7108,39.5789],[9.7065,39.5386],[9.7023,39.4984],[9.6681,39.1763],[9.6677,39.1764],[9.6677,39.1763],[9.5784,39.189],[9.5799,39.1871],[9.5578,39.1397],[9.5227,39.1249],[9.4807,39.1356],[9.4429,39.1244],[9.3796,39.171],[9.2646,39.2167],[9.2073,39.2133],[9.1836,39.2062],[9.166,39.1871],[9.153,39.1903],[9.0315,39.0907],[9.03,39.0813],[9.0449,39.0513],[9.0151,38.9897],[8.9963,38.9828],[8.8947,38.9023],[8.8533,38.878],[8.8054,38.906],[8.791,38.9044],[8.7678,38.9162],[8.7173,38.9268],[8.704,38.9268],[8.6688,38.9106],[8.6428,38.89],[8.5999,38.8991],[8.615,38.923],[8.6106,38.9527],[8.6062,38.9557],[8.5801,38.9605],[8.5721,38.9982],[8.5517,39.0293],[8.527,39.0604],[8.5044,39.0629],[8.5138,39.077],[8.5093,39.0827],[8.4828,39.0804],[8.4733,39.1074],[8.4422,39.1182],[8.4354,39.166],[8.405,39.1744],[8.3987,39.2012],[8.3718,39.2306],[8.4131,39.2704],[8.4113,39.2914],[8.4083,39.3443],[8.3821,39.3597],[8.374,39.3789],[8.4014,39.4124],[8.3981,39.4465]]],[[[8.402,39.1044],[8.4446,39.1027],[8.4519,39.0839],[8.4801,39.0678],[8.4799,39.0675],[8.4801,39.0674],[8.4575,39.0286],[8.437,38.9672],[8.4098,38.9618],[8.3649,39.0295],[8.3493,39.0622],[8.346,39.0977],[8.3604,39.1182],[8.367,39.1148],[8.3681,39.1165],[8.3684,39.1164],[8.3685,39.1165],[8.402,39.1044]]],[[[8.219,41.022],[8.2232,41.0336],[8.2274,41.0365],[8.2673,41.099],[8.2777,41.1033],[8.2778,41.1057],[8.283,41.1055],[8.3206,41.1212],[8.3262,41.1261],[8.3357,41.1092],[8.3433,41.1024],[8.3431,41.1021],[8.3433,41.102],[8.3414,41.0989],[8.342,41.0978],[8.3324,41.0646],[8.3186,41.0629],[8.3181,41.0621],[8.2857,41.0395],[8.2533,40.9944],[8.2529,40.9944],[8.2465,40.9949],[8.2464,40.9936],[8.2096,40.9958],[8.2102,40.9976],[8.2061,40.9979],[8.2063,40.9983],[8.2061,40.9983],[8.219,41.022]]]]}},
{"type":"Feature","properties":{"entityId":"sardinia","from":1814,"to":1859,"certainty":"estimated","source":"유럽 쪽은 Natural Earth 1:10m admin-1(v5.1.2) 현대 행정구역 조각을 그 시기 국경에 맞춰 묶고, 조각이 역사 경계와 다른 곳은 선을 그어 나눈 근사. 유럽 밖(시베리아·중앙아시아·극동)은 대략적인 추정. 운영자 검수 필요"},"geometry":{"type":"MultiPolygon","coordinates":[[[[5.6005,45.6556],[5.6237,45.6133],[5.7411,45.4509],[5.7562,45.4393],[5.9108,45.3942],[5.9153,45.4765],[5.9482,45.4895],[5.9839,45.4833],[6.045,45.4435],[6.1254,45.4351],[6.1875,45.3776],[6.1895,45.3299],[6.1443,45.2984],[6.1309,45.2612],[6.154,45.1931],[6.156,45.1617],[6.1699,45.1523],[6.2566,45.143],[6.2664,45.1248],[6.2828,45.1153],[6.3571,45.1078],[6.3937,45.0704],[6.4594,45.0536],[6.4955,45.0708],[6.52,45.104],[6.5609,45.1048],[6.5978,45.121],[6.6294,45.1235],[6.6027,45.1035],[6.6366,45.0745],[6.6397,45.0504],[6.6622,45.0292],[6.6972,45.0269],[6.7235,45.0134],[6.7299,44.9847],[6.7279,44.9287],[6.7782,44.8876],[6.866,44.8557],[6.9327,44.8617],[6.9828,44.847],[7.0071,44.8221],[6.9984,44.7938],[7.019,44.7389],[7.0388,44.7121],[7.0552,44.6849],[6.9828,44.6922],[6.9383,44.658],[6.9456,44.6254],[6.8973,44.5754],[6.8464,44.5475],[6.8388,44.5029],[6.8613,44.4749],[6.9178,44.4363],[6.8772,44.4144],[6.8661,44.3721],[6.8784,44.3546],[6.799,44.3184],[6.7308,44.2459],[6.7023,44.1885],[6.695,44.1531],[6.7454,44.0998],[6.7576,44.0373],[6.8187,44.0067],[6.8582,43.9555],[6.9155,43.9212],[6.9423,43.8972],[6.9115,43.8943],[6.98,43.86],[7.17,43.83],[7.19,43.76],[7.2,43.64],[7.2,43.5466],[7.2773,43.5948],[7.3624,43.6479],[7.4029,43.6731],[7.3624,43.6731],[7.3624,43.7192],[7.3658,43.7227],[7.3673,43.7341],[7.3727,43.7458],[7.3875,43.7579],[7.407,43.7635],[7.4262,43.7555],[7.4375,43.7434],[7.4474,43.7488],[7.4474,43.744],[7.4899,43.744],[7.4899,43.7033],[7.5324,43.7107],[7.6174,43.7257],[7.8501,43.7666],[7.9575,43.8525],[7.9597,43.8529],[8.0314,43.8875],[8.0677,43.8967],[8.0892,43.9199],[8.1302,43.9403],[8.168,43.9565],[8.1527,43.9832],[8.1691,44.0067],[8.2163,44.0452],[8.2217,44.0639],[8.2219,44.0641],[8.3543,44.17],[8.3694,44.1735],[8.4082,44.1935],[8.4106,44.215],[8.4297,44.2303],[8.5276,44.2591],[8.6446,44.2934],[8.6739,44.3021],[8.7032,44.3107],[8.7617,44.3279],[8.8787,44.3622],[8.8903,44.3656],[9.3468,44.1805],[9.4347,44.1448],[9.4639,44.133],[9.5809,44.0855],[9.7037,44.0357],[9.8149,44.0099],[9.9319,43.9828],[9.9904,43.9693],[9.9904,44.0075],[10.0196,44.0075],[10.0196,44.0516],[10.0285,44.0493],[10.0569,44.0944],[10.0268,44.1143],[9.9945,44.1152],[9.9815,44.1501],[9.9541,44.1643],[9.9008,44.165],[9.9083,44.1913],[9.8805,44.2026],[9.8657,44.1856],[9.8521,44.2526],[9.7518,44.3056],[9.7163,44.3299],[9.6898,44.3577],[9.6514,44.4062],[9.5985,44.4272],[9.5124,44.429],[9.4764,44.4125],[9.4361,44.4199],[9.451,44.4687],[9.4936,44.5117],[9.4913,44.551],[9.441,44.5734],[9.4142,44.5941],[9.3518,44.5831],[9.3018,44.606],[9.2638,44.6041],[9.2251,44.6203],[9.2031,44.6138],[9.2014,44.6821],[9.2059,44.7208],[9.1714,44.7856],[9.1406,44.8156],[9.0937,44.8181],[9.0483,44.8488],[9.0503,44.8834],[8.9965,44.9179],[8.9701,44.9444],[8.9571,44.9813],[8.8824,45.0005],[8.8779,45.0538],[8.8504,45.0584],[8.7741,45.0276],[8.6691,45.0248],[8.6455,45.0412],[8.6076,45.108],[8.5733,45.1371],[8.5566,45.1648],[8.559,45.1931],[8.534,45.2176],[8.5156,45.277],[8.5001,45.2877],[8.5126,45.3135],[8.5465,45.3642],[8.5722,45.3667],[8.6329,45.3528],[8.6587,45.3164],[8.7027,45.3048],[8.7119,45.3302],[8.7558,45.3542],[8.735,45.3755],[8.7651,45.3907],[8.832,45.4082],[8.811,45.4276],[8.7724,45.4937],[8.717,45.523],[8.7052,45.5568],[8.6953,45.6069],[8.6684,45.6293],[8.6824,45.6444],[8.677,45.6729],[8.6461,45.6887],[8.6458,45.7207],[8.6174,45.7277],[8.5761,45.776],[8.5654,45.7986],[8.5984,45.826],[8.6027,45.8388],[8.5885,45.9103],[8.5931,45.9175],[8.7207,46.012],[8.7342,46.0467],[8.729,46.1082],[8.6775,46.0958],[8.6018,46.1228],[8.5387,46.1876],[8.5103,46.2079],[8.4565,46.2248],[8.4272,46.2514],[8.4266,46.3016],[8.4463,46.3822],[8.4416,46.4349],[8.4279,46.4487],[8.3859,46.4502],[8.3163,46.4337],[8.2866,46.4054],[8.2915,46.3784],[8.2418,46.3541],[8.1926,46.3092],[8.1285,46.2925],[8.0873,46.2718],[8.0731,46.2536],[8.1,46.2356],[8.1295,46.196],[8.1323,46.1594],[8.1106,46.127],[8.0669,46.1006],[8.0354,46.0965],[8.0182,46.0809],[8.0107,46.0297],[7.9858,45.9993],[7.8982,45.9819],[7.8496,45.9397],[7.8312,45.9145],[7.7801,45.9181],[7.732,45.9304],[7.694,45.9287],[7.643,45.9663],[7.5411,45.9841],[7.5037,45.9567],[7.453,45.9459],[7.3938,45.9157],[7.3618,45.9078],[7.2867,45.9134],[7.1837,45.8805],[7.1209,45.8761],[7.0669,45.8902],[7.0221,45.9253],[6.9828,45.9954],[6.9151,46.0486],[6.8924,46.0556],[6.8509,46.0496],[6.8513,46.086],[6.8692,46.1123],[6.8539,46.1226],[6.7743,46.1348],[6.7657,46.1516],[6.7922,46.2217],[6.8277,46.2695],[6.7504,46.3455],[6.7821,46.3785],[6.7881,46.405],[6.7627,46.4293],[6.6137,46.4559],[6.547,46.4574],[6.4829,46.4486],[6.3977,46.4082],[6.3016,46.3945],[6.2691,46.375],[6.2195,46.3291],[6.2166,46.3095],[6.2376,46.2679],[6.2523,46.2599],[6.276,46.2631],[6.2812,46.2401],[6.2554,46.2211],[6.1914,46.1917],[6.1403,46.1502],[6.1079,46.1386],[6.0739,46.1492],[6.0283,46.1479],[5.9829,46.1404],[5.9588,46.1305],[5.9055,46.1226],[5.8716,46.0933],[5.8459,46.111],[5.8252,46.0953],[5.8242,46.0502],[5.8404,45.9388],[5.8319,45.8982],[5.7841,45.7973],[5.7752,45.749],[5.7517,45.715],[5.6941,45.6871],[5.6605,45.6571],[5.6199,45.6437],[5.6005,45.6556]]],[[[8.1338,40.7289],[8.168,40.7016],[8.1854,40.6954],[8.187,40.6693],[8.1738,40.6416],[8.1406,40.6252],[8.1618,40.5638],[8.1766,40.6066],[8.2163,40.6122],[8.196,40.5781],[8.2163,40.5706],[8.255,40.5884],[8.2961,40.5587],[8.3269,40.5271],[8.3317,40.5107],[8.3376,40.5075],[8.3632,40.4438],[8.376,40.412],[8.3889,40.3802],[8.386,40.3518],[8.3906,40.3508],[8.4006,40.0452],[8.3845,40.0419],[8.4012,40.0274],[8.4019,40.0048],[8.3936,39.9769],[8.3983,39.9053],[8.4053,39.9002],[8.4066,39.8611],[8.4075,39.8346],[8.4084,39.808],[8.4118,39.7019],[8.4178,39.5211],[8.4042,39.4896],[8.3869,39.4698],[8.3981,39.4465],[8.4014,39.4124],[8.374,39.3789],[8.3821,39.3597],[8.4083,39.3443],[8.4113,39.2914],[8.4131,39.2704],[8.3718,39.2306],[8.3987,39.2012],[8.405,39.1744],[8.4354,39.166],[8.4422,39.1182],[8.4733,39.1074],[8.4828,39.0804],[8.5093,39.0827],[8.5138,39.077],[8.5044,39.0629],[8.527,39.0604],[8.5517,39.0293],[8.5721,38.9982],[8.5801,38.9605],[8.6062,38.9557],[8.6106,38.9527],[8.615,38.923],[8.5999,38.8991],[8.6428,38.89],[8.6688,38.9106],[8.704,38.9268],[8.7173,38.9268],[8.7678,38.9162],[8.791,38.9044],[8.8054,38.906],[8.8533,38.878],[8.8947,38.9023],[8.9963,38.9828],[9.0151,38.9897],[9.0449,39.0513],[9.03,39.0813],[9.0315,39.0907],[9.153,39.1903],[9.166,39.1871],[9.1836,39.2062],[9.2073,39.2133],[9.2646,39.2167],[9.3796,39.171],[9.4429,39.1244],[9.4807,39.1356],[9.5227,39.1249],[9.5578,39.1397],[9.5799,39.1871],[9.5784,39.189],[9.6677,39.1763],[9.6677,39.1764],[9.6681,39.1763],[9.7023,39.4984],[9.7065,39.5386],[9.7108,39.5789],[9.7193,39.6594],[9.7706,40.1424],[9.7791,40.2229],[9.7834,40.2632],[9.7877,40.3034],[9.8047,40.4644],[9.8088,40.4708],[9.8267,40.5196],[9.7943,40.5548],[9.7941,40.5556],[9.7481,40.6637],[9.7445,40.6805],[9.7341,40.6966],[9.6825,40.8177],[9.677,40.8247],[9.681,40.8298],[9.724,40.8449],[9.6831,40.8654],[9.6633,40.8582],[9.6558,40.876],[9.6141,40.8934],[9.6421,40.9206],[9.6226,40.9238],[9.5833,40.9099],[9.5745,40.915],[9.554,40.9314],[9.5575,40.9312],[9.5789,40.962],[9.5852,40.9864],[9.5889,40.9927],[9.611,41.001],[9.6512,40.9911],[9.6626,41.0026],[9.6157,41.0196],[9.611,41.0185],[9.5745,41.0313],[9.5385,41.0538],[9.5308,41.0639],[9.5391,41.092],[9.5459,41.0777],[9.5664,41.1193],[9.5081,41.1404],[9.4691,41.1462],[9.4696,41.1366],[9.4557,41.1511],[9.4145,41.1689],[9.4224,41.1807],[9.3882,41.1807],[9.3352,41.2117],[9.3339,41.1975],[9.316,41.1989],[9.3125,41.2012],[9.3058,41.1997],[9.2829,41.2014],[9.2825,41.2018],[9.2681,41.2366],[9.2306,41.2626],[9.1711,41.2429],[9.1636,41.1857],[9.1385,41.1668],[9.114,41.1498],[9.0985,41.1402],[9.0683,41.1314],[9.0055,41.1219],[8.9992,41.1114],[8.9981,41.1111],[8.956,41.0726],[8.9401,41.0612],[8.9176,41.0374],[8.9121,41.0324],[8.8811,41.0237],[8.8605,40.9929],[8.738,40.9171],[8.7092,40.9206],[8.6627,40.9042],[8.2354,40.9435],[8.2362,40.9548],[8.2022,40.9753],[8.1886,40.9478],[8.1597,40.9505],[8.1593,40.9505],[8.1595,40.9501],[8.1593,40.9501],[8.1984,40.8528],[8.1958,40.8406],[8.1338,40.7289]]],[[[8.2061,40.9979],[8.2102,40.9976],[8.2096,40.9958],[8.2464,40.9936],[8.2465,40.9949],[8.2529,40.9944],[8.2533,40.9944],[8.2857,41.0395],[8.3181,41.0621],[8.3186,41.0629],[8.3324,41.0646],[8.342,41.0978],[8.3414,41.0989],[8.3433,41.102],[8.3431,41.1021],[8.3433,41.1024],[8.3357,41.1092],[8.3262,41.1261],[8.3206,41.1212],[8.283,41.1055],[8.2778,41.1057],[8.2777,41.1033],[8.2673,41.099],[8.2274,41.0365],[8.2232,41.0336],[8.219,41.022],[8.2061,40.9983],[8.2063,40.9983],[8.2061,40.9979]]],[[[8.346,39.0977],[8.3493,39.0622],[8.3649,39.0295],[8.4098,38.9618],[8.437,38.9672],[8.4575,39.0286],[8.4801,39.0674],[8.4799,39.0675],[8.4801,39.0678],[8.4519,39.0839],[8.4446,39.1027],[8.402,39.1044],[8.3685,39.1165],[8.3684,39.1164],[8.3681,39.1165],[8.367,39.1148],[8.3604,39.1182],[8.346,39.0977]]]]}},
{"type":"Feature","properties":{"entityId":"sardinia","from":1859,"to":1860,"certainty":"estimated","source":"유럽 쪽은 Natural Earth 1:10m admin-1(v5.1.2) 현대 행정구역 조각을 그 시기 국경에 맞춰 묶고, 조각이 역사 경계와 다른 곳은 선을 그어 나눈 근사. 유럽 밖(시베리아·중앙아시아·극동)은 대략적인 추정. 운영자 검수 필요"},"geometry":{"type":"MultiPolygon","coordinates":[[[[5.6005,45.6556],[5.6237,45.6133],[5.7411,45.4509],[5.7562,45.4393],[5.9108,45.3942],[5.9153,45.4765],[5.9482,45.4895],[5.9839,45.4833],[6.045,45.4435],[6.1254,45.4351],[6.1875,45.3776],[6.1895,45.3299],[6.1443,45.2984],[6.1309,45.2612],[6.154,45.1931],[6.156,45.1617],[6.1699,45.1523],[6.2566,45.143],[6.2664,45.1248],[6.2828,45.1153],[6.3571,45.1078],[6.3937,45.0704],[6.4594,45.0536],[6.4955,45.0708],[6.52,45.104],[6.5609,45.1048],[6.5978,45.121],[6.6294,45.1235],[6.6027,45.1035],[6.6366,45.0745],[6.6397,45.0504],[6.6622,45.0292],[6.6972,45.0269],[6.7235,45.0134],[6.7299,44.9847],[6.7279,44.9287],[6.7782,44.8876],[6.866,44.8557],[6.9327,44.8617],[6.9828,44.847],[7.0071,44.8221],[6.9984,44.7938],[7.019,44.7389],[7.0388,44.7121],[7.0552,44.6849],[6.9828,44.6922],[6.9383,44.658],[6.9456,44.6254],[6.8973,44.5754],[6.8464,44.5475],[6.8388,44.5029],[6.8613,44.4749],[6.9178,44.4363],[6.8772,44.4144],[6.8661,44.3721],[6.8784,44.3546],[6.799,44.3184],[6.7308,44.2459],[6.7023,44.1885],[6.695,44.1531],[6.7454,44.0998],[6.7576,44.0373],[6.8187,44.0067],[6.8582,43.9555],[6.9155,43.9212],[6.9423,43.8972],[6.9115,43.8943],[6.98,43.86],[7.17,43.83],[7.19,43.76],[7.2,43.64],[7.2,43.5466],[7.2773,43.5948],[7.3624,43.6479],[7.4029,43.6731],[7.3624,43.6731],[7.3624,43.7192],[7.3658,43.7227],[7.3673,43.7341],[7.3727,43.7458],[7.3875,43.7579],[7.407,43.7635],[7.4262,43.7555],[7.4375,43.7434],[7.4474,43.7488],[7.4474,43.744],[7.4899,43.744],[7.4899,43.7033],[7.5324,43.7107],[7.6174,43.7257],[7.8501,43.7666],[7.9575,43.8525],[7.9597,43.8529],[8.0314,43.8875],[8.0677,43.8967],[8.0892,43.9199],[8.1302,43.9403],[8.168,43.9565],[8.1527,43.9832],[8.1691,44.0067],[8.2163,44.0452],[8.2217,44.0639],[8.2219,44.0641],[8.3543,44.17],[8.3694,44.1735],[8.4082,44.1935],[8.4106,44.215],[8.4297,44.2303],[8.5276,44.2591],[8.6446,44.2934],[8.6739,44.3021],[8.7032,44.3107],[8.7617,44.3279],[8.8787,44.3622],[8.8903,44.3656],[9.3468,44.1805],[9.4347,44.1448],[9.4639,44.133],[9.5809,44.0855],[9.7037,44.0357],[9.8149,44.0099],[9.9319,43.9828],[9.9904,43.9693],[9.9904,44.0075],[10.0196,44.0075],[10.0196,44.0516],[10.0285,44.0493],[10.0569,44.0944],[10.0268,44.1143],[9.9945,44.1152],[9.9815,44.1501],[9.9541,44.1643],[9.9008,44.165],[9.9083,44.1913],[9.8805,44.2026],[9.8657,44.1856],[9.8521,44.2526],[9.7518,44.3056],[9.7163,44.3299],[9.6898,44.3577],[9.6514,44.4062],[9.5985,44.4272],[9.5124,44.429],[9.4764,44.4125],[9.4361,44.4199],[9.451,44.4687],[9.4936,44.5117],[9.4913,44.551],[9.441,44.5734],[9.4142,44.5941],[9.3518,44.5831],[9.3018,44.606],[9.2638,44.6041],[9.2251,44.6203],[9.2031,44.6138],[9.2014,44.6821],[9.2421,44.683],[9.2475,44.7144],[9.2749,44.6961],[9.3091,44.6957],[9.3226,44.7162],[9.3059,44.7588],[9.3552,44.8265],[9.356,44.8642],[9.3026,44.8962],[9.3065,44.9249],[9.3831,45.045],[9.425,45.1012],[9.5119,45.1012],[9.5419,45.086],[9.546,45.1327],[9.5904,45.1126],[9.6145,45.1255],[9.6404,45.1261],[9.6369,45.0939],[9.6814,45.0753],[9.7223,45.0723],[9.7525,45.082],[9.7522,45.108],[9.8402,45.0738],[9.8302,45.0963],[9.8808,45.0916],[9.8996,45.0992],[9.8829,45.1341],[9.9231,45.1301],[9.916,45.108],[9.9866,45.1287],[10.0215,45.1101],[10.0463,45.0658],[10.0719,45.0375],[10.1049,45.0352],[10.1835,45.0466],[10.2237,45.0382],[10.3504,44.984],[10.3992,44.9913],[10.414,44.9848],[10.4436,44.9367],[10.5015,44.9194],[10.4641,44.9372],[10.4862,44.9531],[10.5388,44.9671],[10.5607,44.984],[10.5621,45.0036],[10.5333,45.0031],[10.4557,44.9824],[10.4685,45.0108],[10.5296,45.0396],[10.5235,45.08],[10.4897,45.0567],[10.4133,45.0423],[10.4164,45.0873],[10.4684,45.0953],[10.4897,45.1092],[10.4802,45.1457],[10.3923,45.1518],[10.3221,45.1833],[10.3178,45.2047],[10.3614,45.2154],[10.3583,45.2389],[10.3969,45.2539],[10.4022,45.2784],[10.4352,45.3159],[10.4632,45.3286],[10.4682,45.3561],[10.4548,45.3891],[10.4807,45.4113],[10.5059,45.409],[10.5625,45.3822],[10.6161,45.382],[10.6618,45.419],[10.643,45.448],[10.6504,45.498],[10.6405,45.563],[10.6442,45.6096],[10.7829,45.7563],[10.8025,45.7889],[10.8449,45.8341],[10.8124,45.845],[10.7674,45.8416],[10.7286,45.8488],[10.6874,45.8453],[10.6653,45.8115],[10.621,45.8088],[10.5792,45.7947],[10.5562,45.8072],[10.559,45.8244],[10.5229,45.8413],[10.5072,45.8775],[10.5195,45.9167],[10.4956,45.9693],[10.4591,45.985],[10.4686,46.0118],[10.4908,46.0269],[10.5152,46.082],[10.5586,46.118],[10.5673,46.1935],[10.5902,46.2334],[10.5777,46.3127],[10.5279,46.3426],[10.5634,46.3674],[10.6189,46.3754],[10.6387,46.4111],[10.6247,46.4545],[10.5413,46.4895],[10.4939,46.4945],[10.4518,46.5467],[10.4259,46.5353],[10.3543,46.5483],[10.2954,46.5511],[10.2759,46.5655],[10.2347,46.5753],[10.2338,46.618],[10.1921,46.6268],[10.0878,46.6044],[10.0712,46.5644],[10.0328,46.533],[10.0269,46.4932],[10.044,46.467],[10.0263,46.4463],[10.0421,46.4327],[10.1334,46.414],[10.1332,46.3811],[10.105,46.3614],[10.0918,46.329],[10.1049,46.3094],[10.1589,46.2624],[10.1458,46.2433],[10.0757,46.22],[10.0427,46.2205],[10.0317,46.2601],[9.9776,46.2981],[9.964,46.3561],[9.899,46.3722],[9.8554,46.367],[9.7681,46.3386],[9.7309,46.3507],[9.7093,46.3424],[9.7084,46.3117],[9.6743,46.2918],[9.5597,46.2927],[9.5153,46.3086],[9.4826,46.3568],[9.4516,46.3704],[9.4438,46.3961],[9.4379,46.492],[9.4107,46.4889],[9.3771,46.4687],[9.331,46.5015],[9.2823,46.4974],[9.2632,46.4851],[9.238,46.4365],[9.2609,46.4167],[9.2604,46.3797],[9.2738,46.3443],[9.269,46.3094],[9.2397,46.267],[9.2248,46.2312],[9.1813,46.2041],[9.1638,46.173],[9.0906,46.1382],[9.0721,46.1189],[9.0592,46.0618],[9.0021,46.0393],[9.0156,45.9931],[8.9827,45.972],[9.0108,45.9267],[9.0517,45.9155],[9.0593,45.882],[9.0344,45.8481],[9.0024,45.8207],[8.9396,45.8348],[8.9089,45.8283],[8.9,45.8264],[8.9121,45.8834],[8.871,45.9471],[8.8004,45.9785],[8.7679,45.9831],[8.791,46.0187],[8.8344,46.0664],[8.809,46.0897],[8.7471,46.0944],[8.729,46.1082],[8.6775,46.0958],[8.6018,46.1228],[8.5387,46.1876],[8.5103,46.2079],[8.4565,46.2248],[8.4272,46.2514],[8.4266,46.3016],[8.4463,46.3822],[8.4416,46.4349],[8.4279,46.4487],[8.3859,46.4502],[8.3163,46.4337],[8.2866,46.4054],[8.2915,46.3784],[8.2418,46.3541],[8.1926,46.3092],[8.1285,46.2925],[8.0873,46.2718],[8.0731,46.2536],[8.1,46.2356],[8.1295,46.196],[8.1323,46.1594],[8.1106,46.127],[8.0669,46.1006],[8.0354,46.0965],[8.0182,46.0809],[8.0107,46.0297],[7.9858,45.9993],[7.8982,45.9819],[7.8496,45.9397],[7.8312,45.9145],[7.7801,45.9181],[7.732,45.9304],[7.694,45.9287],[7.643,45.9663],[7.5411,45.9841],[7.5037,45.9567],[7.453,45.9459],[7.3938,45.9157],[7.3618,45.9078],[7.2867,45.9134],[7.1837,45.8805],[7.1209,45.8761],[7.0669,45.8902],[7.0221,45.9253],[6.9828,45.9954],[6.9151,46.0486],[6.8924,46.0556],[6.8509,46.0496],[6.8513,46.086],[6.8692,46.1123],[6.8539,46.1226],[6.7743,46.1348],[6.7657,46.1516],[6.7922,46.2217],[6.8277,46.2695],[6.7504,46.3455],[6.7821,46.3785],[6.7881,46.405],[6.7627,46.4293],[6.6137,46.4559],[6.547,46.4574],[6.4829,46.4486],[6.3977,46.4082],[6.3016,46.3945],[6.2691,46.375],[6.2195,46.3291],[6.2166,46.3095],[6.2376,46.2679],[6.2523,46.2599],[6.276,46.2631],[6.2812,46.2401],[6.2554,46.2211],[6.1914,46.1917],[6.1403,46.1502],[6.1079,46.1386],[6.0739,46.1492],[6.0283,46.1479],[5.9829,46.1404],[5.9588,46.1305],[5.9055,46.1226],[5.8716,46.0933],[5.8459,46.111],[5.8252,46.0953],[5.8242,46.0502],[5.8404,45.9388],[5.8319,45.8982],[5.7841,45.7973],[5.7752,45.749],[5.7517,45.715],[5.6941,45.6871],[5.6605,45.6571],[5.6199,45.6437],[5.6005,45.6556]]],[[[8.1338,40.7289],[8.168,40.7016],[8.1854,40.6954],[8.187,40.6693],[8.1738,40.6416],[8.1406,40.6252],[8.1618,40.5638],[8.1766,40.6066],[8.2163,40.6122],[8.196,40.5781],[8.2163,40.5706],[8.255,40.5884],[8.2961,40.5587],[8.3269,40.5271],[8.3317,40.5107],[8.3376,40.5075],[8.3632,40.4438],[8.376,40.412],[8.3889,40.3802],[8.386,40.3518],[8.3906,40.3508],[8.4006,40.0452],[8.3845,40.0419],[8.4012,40.0274],[8.4019,40.0048],[8.3936,39.9769],[8.3983,39.9053],[8.4053,39.9002],[8.4066,39.8611],[8.4075,39.8346],[8.4084,39.808],[8.4118,39.7019],[8.4178,39.5211],[8.4042,39.4896],[8.3869,39.4698],[8.3981,39.4465],[8.4014,39.4124],[8.374,39.3789],[8.3821,39.3597],[8.4083,39.3443],[8.4113,39.2914],[8.4131,39.2704],[8.3718,39.2306],[8.3987,39.2012],[8.405,39.1744],[8.4354,39.166],[8.4422,39.1182],[8.4733,39.1074],[8.4828,39.0804],[8.5093,39.0827],[8.5138,39.077],[8.5044,39.0629],[8.527,39.0604],[8.5517,39.0293],[8.5721,38.9982],[8.5801,38.9605],[8.6062,38.9557],[8.6106,38.9527],[8.615,38.923],[8.5999,38.8991],[8.6428,38.89],[8.6688,38.9106],[8.704,38.9268],[8.7173,38.9268],[8.7678,38.9162],[8.791,38.9044],[8.8054,38.906],[8.8533,38.878],[8.8947,38.9023],[8.9963,38.9828],[9.0151,38.9897],[9.0449,39.0513],[9.03,39.0813],[9.0315,39.0907],[9.153,39.1903],[9.166,39.1871],[9.1836,39.2062],[9.2073,39.2133],[9.2646,39.2167],[9.3796,39.171],[9.4429,39.1244],[9.4807,39.1356],[9.5227,39.1249],[9.5578,39.1397],[9.5799,39.1871],[9.5784,39.189],[9.6677,39.1763],[9.6677,39.1764],[9.6681,39.1763],[9.7023,39.4984],[9.7065,39.5386],[9.7108,39.5789],[9.7193,39.6594],[9.7706,40.1424],[9.7791,40.2229],[9.7834,40.2632],[9.7877,40.3034],[9.8047,40.4644],[9.8088,40.4708],[9.8267,40.5196],[9.7943,40.5548],[9.7941,40.5556],[9.7481,40.6637],[9.7445,40.6805],[9.7341,40.6966],[9.6825,40.8177],[9.677,40.8247],[9.681,40.8298],[9.724,40.8449],[9.6831,40.8654],[9.6633,40.8582],[9.6558,40.876],[9.6141,40.8934],[9.6421,40.9206],[9.6226,40.9238],[9.5833,40.9099],[9.5745,40.915],[9.554,40.9314],[9.5575,40.9312],[9.5789,40.962],[9.5852,40.9864],[9.5889,40.9927],[9.611,41.001],[9.6512,40.9911],[9.6626,41.0026],[9.6157,41.0196],[9.611,41.0185],[9.5745,41.0313],[9.5385,41.0538],[9.5308,41.0639],[9.5391,41.092],[9.5459,41.0777],[9.5664,41.1193],[9.5081,41.1404],[9.4691,41.1462],[9.4696,41.1366],[9.4557,41.1511],[9.4145,41.1689],[9.4224,41.1807],[9.3882,41.1807],[9.3352,41.2117],[9.3339,41.1975],[9.316,41.1989],[9.3125,41.2012],[9.3058,41.1997],[9.2829,41.2014],[9.2825,41.2018],[9.2681,41.2366],[9.2306,41.2626],[9.1711,41.2429],[9.1636,41.1857],[9.1385,41.1668],[9.114,41.1498],[9.0985,41.1402],[9.0683,41.1314],[9.0055,41.1219],[8.9992,41.1114],[8.9981,41.1111],[8.956,41.0726],[8.9401,41.0612],[8.9176,41.0374],[8.9121,41.0324],[8.8811,41.0237],[8.8605,40.9929],[8.738,40.9171],[8.7092,40.9206],[8.6627,40.9042],[8.2354,40.9435],[8.2362,40.9548],[8.2022,40.9753],[8.1886,40.9478],[8.1597,40.9505],[8.1593,40.9505],[8.1595,40.9501],[8.1593,40.9501],[8.1984,40.8528],[8.1958,40.8406],[8.1338,40.7289]]],[[[8.2061,40.9979],[8.2102,40.9976],[8.2096,40.9958],[8.2464,40.9936],[8.2465,40.9949],[8.2529,40.9944],[8.2533,40.9944],[8.2857,41.0395],[8.3181,41.0621],[8.3186,41.0629],[8.3324,41.0646],[8.342,41.0978],[8.3414,41.0989],[8.3433,41.102],[8.3431,41.1021],[8.3433,41.1024],[8.3357,41.1092],[8.3262,41.1261],[8.3206,41.1212],[8.283,41.1055],[8.2778,41.1057],[8.2777,41.1033],[8.2673,41.099],[8.2274,41.0365],[8.2232,41.0336],[8.219,41.022],[8.2061,40.9983],[8.2063,40.9983],[8.2061,40.9979]]],[[[8.346,39.0977],[8.3493,39.0622],[8.3649,39.0295],[8.4098,38.9618],[8.437,38.9672],[8.4575,39.0286],[8.4801,39.0674],[8.4799,39.0675],[8.4801,39.0678],[8.4519,39.0839],[8.4446,39.1027],[8.402,39.1044],[8.3685,39.1165],[8.3684,39.1164],[8.3681,39.1165],[8.367,39.1148],[8.3604,39.1182],[8.346,39.0977]]]]}},
{"type":"Feature","properties":{"entityId":"sardinia","from":1860,"to":1861,"certainty":"estimated","source":"유럽 쪽은 Natural Earth 1:10m admin-1(v5.1.2) 현대 행정구역 조각을 그 시기 국경에 맞춰 묶고, 조각이 역사 경계와 다른 곳은 선을 그어 나눈 근사. 유럽 밖(시베리아·중앙아시아·극동)은 대략적인 추정. 운영자 검수 필요"},"geometry":{"type":"MultiPolygon","coordinates":[[[[6.6027,45.1035],[6.6366,45.0745],[6.6397,45.0504],[6.6622,45.0292],[6.6972,45.0269],[6.7235,45.0134],[6.7299,44.9847],[6.7279,44.9287],[6.7782,44.8876],[6.866,44.8557],[6.9327,44.8617],[6.9828,44.847],[7.0071,44.8221],[6.9984,44.7938],[7.019,44.7389],[7.0388,44.7121],[7.0552,44.6849],[6.9828,44.6922],[6.9383,44.658],[6.9456,44.6254],[6.8973,44.5754],[6.8464,44.5475],[6.8388,44.5029],[6.8613,44.4749],[6.9178,44.4363],[6.8772,44.4144],[6.8661,44.3721],[6.8784,44.3546],[6.9212,44.3022],[6.9592,44.2774],[6.9734,44.2494],[6.9961,44.2378],[7.0335,44.2429],[7.145,44.2072],[7.2513,44.16],[7.3093,44.1475],[7.3406,44.1237],[7.3808,44.1229],[7.43,44.1331],[7.43,44.08],[7.52,44.03],[7.62,44],[7.6348,44.0015],[7.6309,43.9935],[7.5569,43.9441],[7.4935,43.8862],[7.4779,43.8655],[7.4797,43.86],[7.515,43.86],[7.515,43.744],[7.5324,43.744],[7.5324,43.7107],[7.6174,43.7257],[7.8501,43.7666],[7.9575,43.8525],[7.9597,43.8529],[8.0314,43.8875],[8.0677,43.8967],[8.0892,43.9199],[8.1302,43.9403],[8.168,43.9565],[8.1527,43.9832],[8.1691,44.0067],[8.2163,44.0452],[8.2217,44.0639],[8.2219,44.0641],[8.3543,44.17],[8.3694,44.1735],[8.4082,44.1935],[8.4106,44.215],[8.4297,44.2303],[8.5276,44.2591],[8.6446,44.2934],[8.6739,44.3021],[8.7032,44.3107],[8.7617,44.3279],[8.8787,44.3622],[8.8903,44.3656],[9.3468,44.1805],[9.4347,44.1448],[9.4639,44.133],[9.5809,44.0855],[9.7037,44.0357],[9.8149,44.0099],[9.9319,43.9828],[9.9904,43.9693],[10.0196,43.9625],[10.0489,43.9557],[10.0993,43.944],[10.1245,43.9382],[10.1496,43.9324],[10.2005,43.9206],[10.2229,43.849],[10.2529,43.7532],[10.283,43.6573],[10.2934,43.5791],[10.3172,43.4926],[10.3263,43.4769],[10.3411,43.4717],[10.4889,42.9998],[10.4776,42.9901],[10.4995,42.9405],[10.5108,42.9315],[10.5788,42.8738],[10.6042,42.8523],[10.6295,42.8308],[10.6802,42.7878],[10.8496,42.6441],[11.0958,42.4353],[11.0869,42.4295],[11.0945,42.4027],[11.1559,42.3663],[11.1772,42.3663],[11.1905,42.355],[11.2936,42.2817],[11.3061,42.2728],[11.3518,42.2728],[11.3518,42.2787],[11.3809,42.2787],[11.3809,42.3052],[11.41,42.3052],[11.41,42.3441],[11.4392,42.3441],[11.4392,42.3786],[11.4515,42.3744],[11.4719,42.4186],[11.4981,42.434],[11.5902,42.442],[11.6018,42.4474],[11.6079,42.4873],[11.5659,42.5161],[11.5855,42.5359],[11.5882,42.5661],[11.6206,42.5601],[11.6712,42.577],[11.6938,42.5983],[11.7352,42.6162],[11.7494,42.6384],[11.7869,42.6512],[11.7868,42.7003],[11.8079,42.7383],[11.7739,42.7806],[11.7472,42.7985],[11.7647,42.8187],[11.808,42.8134],[11.8327,42.8326],[11.889,42.8504],[11.9331,42.7911],[11.9704,42.765],[11.9303,42.7091],[11.9596,42.6846],[12.0337,42.646],[12.0934,42.6606],[12.1287,42.6573],[12.1566,42.6754],[12.2406,42.6391],[12.2455,42.5855],[12.2715,42.5661],[12.2802,42.5104],[12.3007,42.4899],[12.3428,42.4919],[12.3936,42.4625],[12.4174,42.4285],[12.4515,42.421],[12.4311,42.3931],[12.4651,42.3869],[12.4534,42.3721],[12.4724,42.3184],[12.491,42.2983],[12.5204,42.2958],[12.5469,42.2935],[12.5605,42.2706],[12.5742,42.2911],[12.6022,42.2775],[12.6298,42.2414],[12.6111,42.2377],[12.6121,42.1949],[12.6247,42.1747],[12.6953,42.1465],[12.765,42.1873],[12.7978,42.1594],[12.8326,42.1476],[12.8656,42.1065],[12.8854,42.1001],[12.9205,42.1135],[12.9525,42.0983],[12.9975,42.125],[13.0296,42.1156],[13.0137,42.1085],[13.017,42.0546],[13.0284,42.0319],[13.0823,42.0189],[13.0971,42.0237],[13.2801,41.9468],[13.2979,41.947],[13.3532,41.9192],[13.3702,41.9031],[13.3554,41.8715],[13.3571,41.8308],[13.4052,41.8316],[13.5014,41.796],[13.4378,41.8195],[13.45,41.8],[13.47,41.7],[13.47,41.62],[13.52,41.55],[13.45,41.45],[13.4,41.37],[13.35,41.3],[13.35,41.2129],[13.5754,41.1933],[13.6277,41.1888],[13.6351,41.1819],[13.65,41.168],[13.6828,41.1374],[13.8139,41.0152],[13.838,40.9927],[13.9184,40.9177],[13.9452,40.8928],[14.0427,40.8019],[14.0412,40.7965],[14.0521,40.7931],[14.0597,40.786],[14.419,40.685],[14.3705,40.6318],[14.3377,40.6244],[14.3298,40.5845],[14.3558,40.5836],[14.422,40.6155],[14.4714,40.6247],[14.4845,40.6315],[14.4914,40.631],[14.5442,40.6136],[14.5713,40.6177],[14.597,40.635],[14.7041,40.6049],[14.9265,40.2797],[14.9069,40.2586],[14.9111,40.2416],[14.9571,40.2316],[14.9605,40.23],[14.9993,40.1733],[15.2164,40.1076],[15.2354,40.0982],[15.2791,40.0477],[15.2612,40.0294],[15.3143,40.0338],[15.3432,40.0041],[15.4101,39.994],[15.4296,39.9998],[15.4378,40.0078],[15.5025,39.9012],[15.5292,39.8571],[15.556,39.8129],[15.6096,39.7246],[15.7194,39.5436],[15.8351,39.3714],[16.013,39.1065],[16.0646,39.0297],[16.0723,39.0182],[16.108,38.965],[16.0403,38.8981],[15.9813,38.8399],[15.9223,38.7816],[15.8922,38.7519],[15.8589,38.665],[15.8445,38.6604],[15.8355,38.6282],[15.8428,38.6226],[15.7897,38.484],[15.7721,38.4379],[15.7055,38.2637],[15.7014,38.2623],[15.6954,38.2532],[15.6506,38.241],[15.6328,38.2203],[15.6441,38.162],[15.6448,38.1366],[15.624,38.0921],[15.6468,38.0594],[15.6474,38.0345],[15.6503,38.0308],[15.6351,38.0091],[15.6658,37.9669],[15.6839,37.9559],[15.6834,37.909],[15.6834,37.9086],[15.6838,37.9087],[15.6838,37.9086],[15.7762,37.9258],[15.9421,37.9331],[16.001,37.919],[16.0632,37.9327],[16.09,37.9492],[16.1255,38.0048],[16.134,38.0389],[16.2186,38.1749],[16.2814,38.2498],[16.4188,38.3333],[16.4351,38.34],[16.4671,38.3487],[16.5614,38.4163],[16.5735,38.4673],[16.577,38.5286],[16.5687,38.5593],[16.5586,38.715],[16.6162,38.8001],[16.6985,38.852],[16.797,38.866],[16.8616,38.8751],[16.8939,38.8797],[16.9261,38.8843],[17.0518,38.9021],[17.0553,38.9175],[17.0706,38.9228],[17.095,38.9191],[17.104,38.8991],[17.1277,38.9288],[17.1724,38.9605],[17.1724,38.9961],[17.1742,38.998],[17.1741,38.9983],[17.1742,38.9984],[17.1724,39.0034],[17.1724,39.0052],[17.2064,39.0295],[17.159,39.0404],[17.1254,39.133],[17.1457,39.2107],[17.1283,39.2389],[17.1694,39.4198],[17.1706,39.4251],[17.1705,39.4251],[17.1706,39.4255],[17.0855,39.4693],[17.0832,39.4705],[17.0004,39.5131],[16.8302,39.6007],[16.5232,39.7588],[16.5298,39.8591],[16.5436,39.8864],[16.5892,39.9198],[16.6316,39.9662],[16.6097,40.0172],[16.6414,40.0799],[16.6572,40.1113],[16.6678,40.1322],[16.6746,40.1427],[16.6795,40.1461],[16.7376,40.211],[16.7553,40.2546],[16.807,40.3261],[16.8285,40.3493],[16.8724,40.3966],[16.9078,40.4348],[16.911,40.4342],[17.0667,40.4049],[17.3781,40.3462],[17.3994,40.331],[17.4241,40.331],[17.4762,40.3139],[17.4881,40.3128],[17.5121,40.3037],[17.6293,40.2989],[17.7248,40.2809],[17.739,40.2782],[17.7725,40.25],[17.8202,40.2098],[17.9889,40.0676],[17.9675,40.0573],[18.0051,40.0449],[18.0221,40.0217],[17.9954,40.0027],[18.0715,39.9115],[18.1306,39.8835],[18.1619,39.8605],[18.2113,39.8393],[18.2654,39.8346],[18.2934,39.811],[18.2935,39.8112],[18.2938,39.811],[18.2997,39.8223],[18.3304,39.8034],[18.3683,39.7966],[18.3865,39.8253],[18.4001,39.8786],[18.3948,39.9049],[18.4234,39.9875],[18.4459,40.0303],[18.4836,40.0552],[18.4919,40.0847],[18.5174,40.1142],[18.4373,40.2679],[18.4093,40.2976],[18.3766,40.3565],[18.2887,40.41],[18.2588,40.4307],[18.2383,40.4577],[18.2117,40.4647],[18.1538,40.492],[18.0381,40.5624],[18.0432,40.602],[18.0158,40.6252],[18.007,40.6507],[17.9617,40.6474],[17.9554,40.6546],[17.9552,40.6547],[17.9558,40.6705],[17.9219,40.683],[17.8577,40.6922],[17.8248,40.7049],[17.7484,40.7476],[17.7166,40.758],[17.5198,40.8778],[17.4995,40.8862],[17.4452,40.9086],[17.4181,40.9197],[17.3909,40.931],[17.2823,40.9757],[17.2764,40.9802],[17.2031,41.021],[17.0571,41.0819],[16.9779,41.1013],[16.7854,41.1807],[16.7063,41.2125],[16.6384,41.2398],[16.6045,41.2535],[16.5705,41.2671],[16.5026,41.2945],[16.4347,41.3218],[16.163,41.4311],[16.0279,41.4854],[16.0013,41.4961],[15.9029,41.5357],[15.9051,41.5523],[15.9241,41.5658],[16.163,41.7358],[16.1698,41.7406],[16.1696,41.7408],[16.1698,41.741],[16.163,41.7471],[16.1535,41.7556],[16.1929,41.7909],[16.1922,41.8214],[16.176,41.8774],[16.1688,41.886],[16.1662,41.8958],[16.1586,41.8982],[16.1405,41.9199],[16.0271,41.9441],[15.9685,41.9388],[15.9646,41.9392],[15.9642,41.9392],[15.95,41.9385],[15.925,41.961],[15.9246,41.961],[15.4408,41.9578],[15.177,41.9561],[15.1441,41.9559],[15.1438,41.9559],[15.1111,41.9796],[14.9131,42.123],[14.8618,42.1601],[14.848,42.1701],[14.6493,42.314],[14.3854,42.5052],[14.3782,42.5104],[14.3311,42.5445],[14.2841,42.5785],[14.19,42.6467],[14.1024,42.7101],[14.0313,42.7616],[13.9603,42.878],[13.9346,42.92],[13.909,42.962],[13.8577,43.046],[13.8535,43.0674],[13.8348,43.1273],[13.8102,43.1648],[13.8045,43.1804],[13.7831,43.2208],[13.7803,43.2365],[13.7457,43.2911],[13.6929,43.3905],[13.6909,43.3933],[13.647,43.4753],[13.617,43.5313],[13.6156,43.5605],[13.5692,43.5803],[13.5432,43.6132],[13.5044,43.6328],[13.4863,43.6206],[13.4293,43.6402],[13.2153,43.7551],[13.1815,43.7732],[13.0798,43.8278],[12.9443,43.9005],[12.9289,43.9158],[12.9032,43.9234],[12.8992,43.9247],[12.7714,43.9933],[12.7385,44.011],[12.7055,44.0287],[12.6396,44.064],[12.5877,44.0919],[12.5078,44.2162],[12.4895,44.2447],[12.4665,44.2804],[12.4436,44.316],[12.3978,44.3873],[12.3861,44.4054],[12.2828,44.5661],[12.2858,44.6027],[12.2713,44.627],[12.3506,44.8112],[12.3757,44.7922],[12.3934,44.7935],[12.3452,44.8238],[12.3435,44.8401],[12.2904,44.8716],[12.2845,44.9087],[12.2948,44.9274],[12.272,44.9364],[12.2233,44.9261],[12.1699,44.9372],[12.1351,44.9368],[12.1157,44.959],[12.0872,44.9705],[11.9907,44.9839],[11.9305,44.9785],[11.8696,44.9854],[11.7973,44.9776],[11.7564,44.9612],[11.7357,44.9385],[11.6775,44.9224],[11.6403,44.8983],[11.6063,44.8988],[11.5534,44.9292],[11.4885,44.9435],[11.4319,44.9377],[11.4215,44.9499],[11.3709,44.9581],[11.303,44.9601],[11.275,44.9425],[11.257,44.9473],[11.1634,44.9315],[11.1447,44.9457],[11.0831,44.9619],[10.9994,44.9534],[10.9748,44.9359],[10.8878,44.914],[10.8596,44.927],[10.7645,44.9436],[10.7634,44.9649],[10.7372,44.986],[10.6803,44.9871],[10.6327,44.9395],[10.5655,44.9157],[10.5015,44.9194],[10.4641,44.9372],[10.4862,44.9531],[10.5388,44.9671],[10.5607,44.984],[10.5621,45.0036],[10.5333,45.0031],[10.4557,44.9824],[10.4685,45.0108],[10.5296,45.0396],[10.5235,45.08],[10.4897,45.0567],[10.4133,45.0423],[10.4164,45.0873],[10.4684,45.0953],[10.4897,45.1092],[10.4802,45.1457],[10.3923,45.1518],[10.3221,45.1833],[10.3178,45.2047],[10.3614,45.2154],[10.3583,45.2389],[10.3969,45.2539],[10.4022,45.2784],[10.4352,45.3159],[10.4632,45.3286],[10.4682,45.3561],[10.4548,45.3891],[10.4807,45.4113],[10.5059,45.409],[10.5625,45.3822],[10.6161,45.382],[10.6618,45.419],[10.643,45.448],[10.6504,45.498],[10.6405,45.563],[10.6442,45.6096],[10.7829,45.7563],[10.8025,45.7889],[10.8449,45.8341],[10.8124,45.845],[10.7674,45.8416],[10.7286,45.8488],[10.6874,45.8453],[10.6653,45.8115],[10.621,45.8088],[10.5792,45.7947],[10.5562,45.8072],[10.559,45.8244],[10.5229,45.8413],[10.5072,45.8775],[10.5195,45.9167],[10.4956,45.9693],[10.4591,45.985],[10.4686,46.0118],[10.4908,46.0269],[10.5152,46.082],[10.5586,46.118],[10.5673,46.1935],[10.5902,46.2334],[10.5777,46.3127],[10.5279,46.3426],[10.5634,46.3674],[10.6189,46.3754],[10.6387,46.4111],[10.6247,46.4545],[10.5413,46.4895],[10.4939,46.4945],[10.4518,46.5467],[10.4259,46.5353],[10.3543,46.5483],[10.2954,46.5511],[10.2759,46.5655],[10.2347,46.5753],[10.2338,46.618],[10.1921,46.6268],[10.0878,46.6044],[10.0712,46.5644],[10.0328,46.533],[10.0269,46.4932],[10.044,46.467],[10.0263,46.4463],[10.0421,46.4327],[10.1334,46.414],[10.1332,46.3811],[10.105,46.3614],[10.0918,46.329],[10.1049,46.3094],[10.1589,46.2624],[10.1458,46.2433],[10.0757,46.22],[10.0427,46.2205],[10.0317,46.2601],[9.9776,46.2981],[9.964,46.3561],[9.899,46.3722],[9.8554,46.367],[9.7681,46.3386],[9.7309,46.3507],[9.7093,46.3424],[9.7084,46.3117],[9.6743,46.2918],[9.5597,46.2927],[9.5153,46.3086],[9.4826,46.3568],[9.4516,46.3704],[9.4438,46.3961],[9.4379,46.492],[9.4107,46.4889],[9.3771,46.4687],[9.331,46.5015],[9.2823,46.4974],[9.2632,46.4851],[9.238,46.4365],[9.2609,46.4167],[9.2604,46.3797],[9.2738,46.3443],[9.269,46.3094],[9.2397,46.267],[9.2248,46.2312],[9.1813,46.2041],[9.1638,46.173],[9.0906,46.1382],[9.0721,46.1189],[9.0592,46.0618],[9.0021,46.0393],[9.0156,45.9931],[8.9827,45.972],[9.0108,45.9267],[9.0517,45.9155],[9.0593,45.882],[9.0344,45.8481],[9.0024,45.8207],[8.9396,45.8348],[8.9089,45.8283],[8.9,45.8264],[8.9121,45.8834],[8.871,45.9471],[8.8004,45.9785],[8.7679,45.9831],[8.791,46.0187],[8.8344,46.0664],[8.809,46.0897],[8.7471,46.0944],[8.729,46.1082],[8.6775,46.0958],[8.6018,46.1228],[8.5387,46.1876],[8.5103,46.2079],[8.4565,46.2248],[8.4272,46.2514],[8.4266,46.3016],[8.4463,46.3822],[8.4416,46.4349],[8.4279,46.4487],[8.3859,46.4502],[8.3163,46.4337],[8.2866,46.4054],[8.2915,46.3784],[8.2418,46.3541],[8.1926,46.3092],[8.1285,46.2925],[8.0873,46.2718],[8.0731,46.2536],[8.1,46.2356],[8.1295,46.196],[8.1323,46.1594],[8.1106,46.127],[8.0669,46.1006],[8.0354,46.0965],[8.0182,46.0809],[8.0107,46.0297],[7.9858,45.9993],[7.8982,45.9819],[7.8496,45.9397],[7.8312,45.9145],[7.7801,45.9181],[7.732,45.9304],[7.694,45.9287],[7.643,45.9663],[7.5411,45.9841],[7.5037,45.9567],[7.453,45.9459],[7.3938,45.9157],[7.3618,45.9078],[7.2867,45.9134],[7.1837,45.8805],[7.1209,45.8761],[7.0669,45.8902],[7.0221,45.9253],[6.9972,45.9113],[6.9692,45.8698],[6.9051,45.8454],[6.8735,45.8448],[6.8707,45.8283],[6.8434,45.8386],[6.8008,45.8265],[6.7827,45.7953],[6.7839,45.765],[6.7959,45.7181],[6.8431,45.6827],[6.8826,45.6755],[6.9186,45.6526],[6.9634,45.6407],[6.9695,45.6258],[6.9549,45.5862],[6.9698,45.567],[6.9828,45.5111],[7.0754,45.4663],[7.0968,45.4354],[7.1607,45.4109],[7.1301,45.3571],[7.0926,45.324],[7.1084,45.2592],[7.0502,45.215],[7.0297,45.2282],[6.9587,45.2098],[6.9138,45.1702],[6.8813,45.1684],[6.8767,45.1412],[6.8441,45.1301],[6.7715,45.1532],[6.7364,45.1573],[6.6944,45.1403],[6.6674,45.1396],[6.6294,45.1235],[6.6027,45.1035]],[[12.3856,43.9245],[12.3957,43.9484],[12.411,43.9597],[12.4166,43.9637],[12.4214,43.9672],[12.4272,43.9694],[12.4533,43.9791],[12.4822,43.9826],[12.4892,43.9731],[12.4907,43.965],[12.4924,43.9564],[12.4915,43.9491],[12.4903,43.9392],[12.4831,43.9292],[12.4822,43.9279],[12.4796,43.9258],[12.478,43.9232],[12.4775,43.9201],[12.4783,43.917],[12.4644,43.9001],[12.4605,43.8953],[12.4413,43.8933],[12.4294,43.8921],[12.4211,43.8952],[12.3996,43.9032],[12.39,43.9179],[12.3856,43.9245]]],[[[8.1338,40.7289],[8.168,40.7016],[8.1854,40.6954],[8.187,40.6693],[8.1738,40.6416],[8.1406,40.6252],[8.1618,40.5638],[8.1766,40.6066],[8.2163,40.6122],[8.196,40.5781],[8.2163,40.5706],[8.255,40.5884],[8.2961,40.5587],[8.3269,40.5271],[8.3317,40.5107],[8.3376,40.5075],[8.3632,40.4438],[8.376,40.412],[8.3889,40.3802],[8.386,40.3518],[8.3906,40.3508],[8.4006,40.0452],[8.3845,40.0419],[8.4012,40.0274],[8.4019,40.0048],[8.3936,39.9769],[8.3983,39.9053],[8.4053,39.9002],[8.4066,39.8611],[8.4075,39.8346],[8.4084,39.808],[8.4118,39.7019],[8.4178,39.5211],[8.4042,39.4896],[8.3869,39.4698],[8.3981,39.4465],[8.4014,39.4124],[8.374,39.3789],[8.3821,39.3597],[8.4083,39.3443],[8.4113,39.2914],[8.4131,39.2704],[8.3718,39.2306],[8.3987,39.2012],[8.405,39.1744],[8.4354,39.166],[8.4422,39.1182],[8.4733,39.1074],[8.4828,39.0804],[8.5093,39.0827],[8.5138,39.077],[8.5044,39.0629],[8.527,39.0604],[8.5517,39.0293],[8.5721,38.9982],[8.5801,38.9605],[8.6062,38.9557],[8.6106,38.9527],[8.615,38.923],[8.5999,38.8991],[8.6428,38.89],[8.6688,38.9106],[8.704,38.9268],[8.7173,38.9268],[8.7678,38.9162],[8.791,38.9044],[8.8054,38.906],[8.8533,38.878],[8.8947,38.9023],[8.9963,38.9828],[9.0151,38.9897],[9.0449,39.0513],[9.03,39.0813],[9.0315,39.0907],[9.153,39.1903],[9.166,39.1871],[9.1836,39.2062],[9.2073,39.2133],[9.2646,39.2167],[9.3796,39.171],[9.4429,39.1244],[9.4807,39.1356],[9.5227,39.1249],[9.5578,39.1397],[9.5799,39.1871],[9.5784,39.189],[9.6677,39.1763],[9.6677,39.1764],[9.6681,39.1763],[9.7023,39.4984],[9.7065,39.5386],[9.7108,39.5789],[9.7193,39.6594],[9.7706,40.1424],[9.7791,40.2229],[9.7834,40.2632],[9.7877,40.3034],[9.8047,40.4644],[9.8088,40.4708],[9.8267,40.5196],[9.7943,40.5548],[9.7941,40.5556],[9.7481,40.6637],[9.7445,40.6805],[9.7341,40.6966],[9.6825,40.8177],[9.677,40.8247],[9.681,40.8298],[9.724,40.8449],[9.6831,40.8654],[9.6633,40.8582],[9.6558,40.876],[9.6141,40.8934],[9.6421,40.9206],[9.6226,40.9238],[9.5833,40.9099],[9.5745,40.915],[9.554,40.9314],[9.5575,40.9312],[9.5789,40.962],[9.5852,40.9864],[9.5889,40.9927],[9.611,41.001],[9.6512,40.9911],[9.6626,41.0026],[9.6157,41.0196],[9.611,41.0185],[9.5745,41.0313],[9.5385,41.0538],[9.5308,41.0639],[9.5391,41.092],[9.5459,41.0777],[9.5664,41.1193],[9.5081,41.1404],[9.4691,41.1462],[9.4696,41.1366],[9.4557,41.1511],[9.4145,41.1689],[9.4224,41.1807],[9.3882,41.1807],[9.3352,41.2117],[9.3339,41.1975],[9.316,41.1989],[9.3125,41.2012],[9.3058,41.1997],[9.2829,41.2014],[9.2825,41.2018],[9.2681,41.2366],[9.2306,41.2626],[9.1711,41.2429],[9.1636,41.1857],[9.1385,41.1668],[9.114,41.1498],[9.0985,41.1402],[9.0683,41.1314],[9.0055,41.1219],[8.9992,41.1114],[8.9981,41.1111],[8.956,41.0726],[8.9401,41.0612],[8.9176,41.0374],[8.9121,41.0324],[8.8811,41.0237],[8.8605,40.9929],[8.738,40.9171],[8.7092,40.9206],[8.6627,40.9042],[8.2354,40.9435],[8.2362,40.9548],[8.2022,40.9753],[8.1886,40.9478],[8.1597,40.9505],[8.1593,40.9505],[8.1595,40.9501],[8.1593,40.9501],[8.1984,40.8528],[8.1958,40.8406],[8.1338,40.7289]]],[[[8.2061,40.9979],[8.2102,40.9976],[8.2096,40.9958],[8.2464,40.9936],[8.2465,40.9949],[8.2529,40.9944],[8.2533,40.9944],[8.2857,41.0395],[8.3181,41.0621],[8.3186,41.0629],[8.3324,41.0646],[8.342,41.0978],[8.3414,41.0989],[8.3433,41.102],[8.3431,41.1021],[8.3433,41.1024],[8.3357,41.1092],[8.3262,41.1261],[8.3206,41.1212],[8.283,41.1055],[8.2778,41.1057],[8.2777,41.1033],[8.2673,41.099],[8.2274,41.0365],[8.2232,41.0336],[8.219,41.022],[8.2061,40.9983],[8.2063,40.9983],[8.2061,40.9979]]],[[[8.346,39.0977],[8.3493,39.0622],[8.3649,39.0295],[8.4098,38.9618],[8.437,38.9672],[8.4575,39.0286],[8.4801,39.0674],[8.4799,39.0675],[8.4801,39.0678],[8.4519,39.0839],[8.4446,39.1027],[8.402,39.1044],[8.3685,39.1165],[8.3684,39.1164],[8.3681,39.1165],[8.367,39.1148],[8.3604,39.1182],[8.346,39.0977]]],[[[10.1068,42.7574],[10.1306,42.7456],[10.1321,42.7426],[10.1373,42.7422],[10.1472,42.7373],[10.2297,42.7354],[10.2348,42.7426],[10.2607,42.7476],[10.2654,42.7446],[10.2918,42.7535],[10.3335,42.7616],[10.3349,42.761],[10.3695,42.7416],[10.3814,42.7226],[10.4036,42.7224],[10.4201,42.7131],[10.4201,42.7134],[10.4205,42.7131],[10.4204,42.7135],[10.4205,42.7135],[10.4189,42.7222],[10.4307,42.7221],[10.4251,42.7408],[10.414,42.7477],[10.4098,42.7704],[10.4119,42.773],[10.4203,42.7764],[10.4367,42.8044],[10.4434,42.8454],[10.422,42.8708],[10.3999,42.8688],[10.3934,42.8561],[10.3589,42.8228],[10.3265,42.8252],[10.3268,42.8262],[10.3066,42.8266],[10.2873,42.828],[10.2869,42.828],[10.2838,42.8271],[10.2721,42.8273],[10.271,42.8231],[10.2473,42.8159],[10.1804,42.813],[10.1582,42.8173],[10.1406,42.8112],[10.1285,42.8107],[10.1252,42.806],[10.1117,42.8013],[10.1068,42.7574]]],[[[11.9222,36.8284],[11.9373,36.7888],[11.9387,36.7878],[11.9393,36.7794],[11.9726,36.7624],[11.9961,36.7449],[12.0306,36.7414],[12.0423,36.7548],[12.0513,36.7568],[12.0512,36.7572],[12.0513,36.7572],[12.0501,36.7637],[12.0535,36.7676],[12.0515,36.7904],[12.0334,36.8062],[12.0261,36.8215],[12.0111,36.8258],[11.9995,36.8359],[11.994,36.8306],[11.9515,36.8427],[11.9513,36.8428],[11.9512,36.8428],[11.9469,36.844],[11.9468,36.8439],[11.9465,36.844],[11.9427,36.8386],[11.9222,36.8284]]],[[[12.4274,37.8093],[12.4563,37.7598],[12.4632,37.7281],[12.4325,37.6128],[12.4326,37.6128],[12.4325,37.6124],[12.674,37.5244],[12.7947,37.4804],[12.8551,37.4584],[12.8852,37.4474],[12.9154,37.4364],[13.3983,37.2604],[13.8257,37.1046],[13.8812,37.0928],[14.002,37.067],[14.0322,37.0605],[14.0624,37.0541],[14.1227,37.0412],[14.2434,37.0155],[14.3038,37.0026],[14.3295,36.9971],[14.334,36.994],[14.3642,36.9732],[14.3668,36.9707],[14.4153,36.9092],[14.4758,36.8049],[14.4873,36.7934],[14.5372,36.784],[14.5565,36.7759],[14.6141,36.7672],[14.6622,36.7502],[14.6846,36.726],[14.7443,36.7191],[14.7808,36.6994],[14.8201,36.7154],[14.8878,36.7238],[14.8912,36.723],[14.9697,36.6845],[15.0445,36.6479],[15.1002,36.6206],[15.1003,36.6208],[15.1006,36.6206],[15.1192,36.6663],[15.1349,36.6877],[15.1319,36.6976],[15.2435,36.9717],[15.2445,36.9721],[15.2681,36.9731],[15.2681,36.9939],[15.2888,37.0092],[15.3089,37.0178],[15.3324,37.0116],[15.3123,37.044],[15.295,37.0467],[15.295,37.0558],[15.2948,37.0567],[15.3027,37.0625],[15.3032,37.1012],[15.297,37.1031],[15.3094,37.1334],[15.3093,37.1336],[15.3094,37.1338],[15.251,37.2565],[15.252,37.2577],[15.2494,37.2598],[15.203,37.3571],[15.1798,37.4058],[15.1619,37.4434],[15.1669,37.4544],[15.3004,37.7463],[15.3227,37.795],[15.345,37.8436],[15.4116,37.9893],[15.454,38.0382],[15.5003,38.0849],[15.527,38.1368],[15.5759,38.2002],[15.5636,38.1999],[15.5758,38.2203],[15.6292,38.2638],[15.6516,38.2753],[15.616,38.2802],[15.5593,38.3001],[15.5129,38.2976],[15.5056,38.2922],[15.4998,38.2919],[15.3481,38.2204],[15.3382,38.218],[15.2806,38.2311],[15.2804,38.231],[15.2802,38.2311],[15.245,38.2194],[15.2407,38.2412],[15.2207,38.2102],[15.2037,38.1945],[14.9769,38.1687],[14.9574,38.1692],[14.945,38.1818],[14.9071,38.1877],[14.874,38.1757],[14.855,38.1718],[14.8449,38.1721],[14.8445,38.1721],[14.7905,38.1669],[14.7627,38.1588],[14.7337,38.1576],[14.7127,38.139],[14.4207,38.1081],[14.2747,38.0927],[14.2017,38.0849],[14.1652,38.0811],[14.1286,38.0772],[13.7395,38.036],[13.5944,38.0473],[13.5445,38.0741],[13.5413,38.0941],[13.5135,38.1105],[13.4601,38.1073],[13.4337,38.1113],[13.3833,38.1269],[13.3732,38.1438],[13.3719,38.1728],[13.3102,38.2196],[13.2544,38.2025],[13.2342,38.1912],[13.1597,38.1912],[13.1473,38.184],[13.1009,38.1901],[13.0894,38.166],[13.0547,38.1418],[13.0582,38.1321],[13.0553,38.1304],[13.0491,38.0899],[12.9993,38.0938],[12.9632,38.0966],[12.9272,38.0994],[12.8072,38.1088],[12.7831,38.1335],[12.7609,38.181],[12.7396,38.1781],[12.7353,38.1825],[12.7351,38.1823],[12.7349,38.1825],[12.7304,38.1769],[12.7199,38.1755],[12.721,38.1654],[12.7025,38.1426],[12.6757,38.119],[12.5697,38.1274],[12.5693,38.1274],[12.5497,38.0535],[12.5477,38.0523],[12.5455,38.0482],[12.5234,38.0314],[12.4929,38.0214],[12.5042,38.0112],[12.4905,37.954],[12.4641,37.9129],[12.47,37.9001],[12.4361,37.8197],[12.4362,37.8195],[12.4361,37.8193],[12.4388,37.8126],[12.4274,37.8093]]],[[[13.8491,40.7153],[13.8901,40.6942],[13.9447,40.7016],[13.9658,40.7153],[13.9658,40.7351],[13.9624,40.7362],[13.9629,40.7392],[13.9628,40.7392],[13.9629,40.7396],[13.9181,40.7509],[13.8831,40.7624],[13.8628,40.7624],[13.8491,40.7153]]]]}}
]}
