{"type":"FeatureCollection","features":[
{"type":"Feature","properties":{"entityId":"savoy-county","from":1300,"to":1387,"certainty":"estimated","source":"유럽 쪽은 Natural Earth 1:10m admin-1(v5.1.2) 현대 행정구역 조각을 그 시기 국경에 맞춰 묶고, 조각이 역사 경계와 다른 곳은 선을 그어 나눈 근사. 유럽 밖(시베리아·중앙아시아·극동)은 대략적인 추정. 운영자 검수 필요"},"geometry":{"type":"MultiPolygon","coordinates":[[[[6.059,46.4174],[6.0642,46.4711],[6.1457,46.5516],[6.138,46.5576],[6.1184,46.5835],[6.1319,46.5956],[6.2663,46.6804],[6.3379,46.7074],[6.3742,46.7336],[6.4292,46.7608],[6.4326,46.786],[6.4186,46.807],[6.4431,46.8515],[6.5131,46.8554],[6.6246,46.8923],[6.7255,46.939],[6.7291,46.9109],[6.7457,46.8962],[6.766,46.8453],[6.771,46.8191],[6.7935,46.7904],[6.8355,46.7802],[6.8678,46.7873],[6.9002,46.7808],[6.9299,46.8028],[6.9112,46.8084],[6.9268,46.8584],[6.901,46.8669],[6.9174,46.8786],[6.8751,46.9072],[6.9074,46.9255],[6.9637,46.8743],[6.9825,46.8821],[6.9878,46.8496],[7.0014,46.8444],[6.9676,46.809],[6.9693,46.7951],[6.9214,46.7606],[6.94,46.741],[6.8641,46.6621],[6.8092,46.6514],[6.807,46.5807],[6.8599,46.5831],[6.9047,46.5693],[6.8666,46.5371],[6.8281,46.5429],[6.8196,46.531],[6.8379,46.5064],[6.8644,46.5051],[6.8948,46.5228],[6.9192,46.5189],[6.9747,46.4904],[7.0003,46.4445],[7.0424,46.4747],[7.1031,46.4921],[7.1552,46.5276],[7.2126,46.5396],[7.2425,46.5561],[7.2539,46.5386],[7.2495,46.5047],[7.234,46.486],[7.2315,46.4558],[7.2032,46.4372],[7.2117,46.4092],[7.2004,46.3847],[7.2335,46.3607],[7.2278,46.3314],[7.1985,46.3089],[7.1842,46.2706],[7.1161,46.2198],[7.0449,46.1899],[7.0037,46.2309],[6.9401,46.3076],[6.931,46.3343],[6.8945,46.3481],[6.8945,46.3748],[6.8666,46.4027],[6.8546,46.3977],[6.7881,46.405],[6.7821,46.3785],[6.7504,46.3455],[6.8277,46.2695],[6.7922,46.2217],[6.7657,46.1516],[6.7743,46.1348],[6.8539,46.1226],[6.8692,46.1123],[6.8513,46.086],[6.8509,46.0496],[6.8924,46.0556],[6.9151,46.0486],[6.9828,45.9954],[7.0221,45.9253],[7.0669,45.8902],[7.1209,45.8761],[7.1837,45.8805],[7.2867,45.9134],[7.3618,45.9078],[7.3938,45.9157],[7.453,45.9459],[7.5037,45.9567],[7.5411,45.9841],[7.643,45.9663],[7.694,45.9287],[7.732,45.9304],[7.7801,45.9181],[7.8312,45.9145],[7.8496,45.9397],[7.8559,45.9193],[7.8477,45.9077],[7.8635,45.806],[7.8823,45.7529],[7.9163,45.7297],[7.9424,45.7239],[8.0258,45.7356],[8.0784,45.7209],[8.0979,45.7443],[8.1296,45.757],[8.1822,45.7419],[8.2804,45.6618],[8.2907,45.6312],[8.2649,45.6049],[8.2675,45.5835],[8.2895,45.5565],[8.263,45.5043],[8.2195,45.4713],[8.2042,45.4492],[8.1686,45.4359],[8.1452,45.3964],[8.1122,45.3782],[8.027,45.4031],[8.0101,45.4026],[8.0245,45.3522],[8.0105,45.3404],[7.9727,45.3424],[7.9557,45.3281],[7.9836,45.3134],[7.9883,45.2634],[8.0596,45.1825],[8.1051,45.1865],[8.1519,45.1686],[8.129,45.123],[8.0966,45.1257],[8.0751,45.0974],[8.0468,45.1281],[7.989,45.1257],[7.8935,45.0903],[7.8997,45.0605],[7.9389,45.0495],[7.9295,44.9865],[7.9021,44.9659],[7.8877,44.9211],[7.8907,44.8999],[7.9434,44.8463],[7.974,44.8506],[7.993,44.8214],[8.024,44.8059],[8.0908,44.819],[8.1292,44.8115],[8.1224,44.7858],[8.0923,44.7553],[8.1279,44.7457],[8.153,44.7125],[8.1912,44.7489],[8.221,44.7275],[8.2503,44.7243],[8.2655,44.7028],[8.2318,44.6826],[8.1975,44.6328],[8.2417,44.5773],[8.2341,44.5615],[8.2498,44.5346],[8.2209,44.5181],[8.1956,44.4746],[8.211,44.4457],[8.2058,44.4224],[8.1691,44.4036],[8.1354,44.3502],[8.0716,44.3115],[8.0781,44.2875],[8.0695,44.2257],[8.0775,44.1858],[8.0453,44.158],[8.0066,44.1645],[7.9818,44.1419],[8.0021,44.1184],[7.9876,44.1129],[7.8996,44.1234],[7.8074,44.129],[7.7575,44.1438],[7.7296,44.1183],[7.738,44.0994],[7.6879,44.0908],[7.6419,44.1436],[7.6556,44.1761],[7.6247,44.1801],[7.5836,44.1607],[7.5548,44.1591],[7.3808,44.1229],[7.3406,44.1237],[7.3093,44.1475],[7.2513,44.16],[7.145,44.2072],[7.0335,44.2429],[6.9961,44.2378],[6.9734,44.2494],[6.9592,44.2774],[6.9212,44.3022],[6.8784,44.3546],[6.8661,44.3721],[6.8772,44.4144],[6.9178,44.4363],[6.8613,44.4749],[6.8388,44.5029],[6.8464,44.5475],[6.8973,44.5754],[6.9456,44.6254],[6.9383,44.658],[6.9828,44.6922],[7.0552,44.6849],[7.0388,44.7121],[7.019,44.7389],[6.9984,44.7938],[7.0071,44.8221],[6.9828,44.847],[6.9327,44.8617],[6.866,44.8557],[6.7782,44.8876],[6.7279,44.9287],[6.7299,44.9847],[6.7235,45.0134],[6.6972,45.0269],[6.6622,45.0292],[6.6397,45.0504],[6.6366,45.0745],[6.6027,45.1035],[6.6294,45.1235],[6.5978,45.121],[6.5609,45.1048],[6.52,45.104],[6.4955,45.0708],[6.4594,45.0536],[6.3937,45.0704],[6.3571,45.1078],[6.2828,45.1153],[6.2664,45.1248],[6.2566,45.143],[6.1699,45.1523],[6.156,45.1617],[6.154,45.1931],[6.1309,45.2612],[6.1443,45.2984],[6.1895,45.3299],[6.1875,45.3776],[6.1254,45.4351],[6.045,45.4435],[5.9839,45.4833],[5.9482,45.4895],[5.9153,45.4765],[5.9108,45.3942],[5.7562,45.4393],[5.7411,45.4509],[5.6237,45.6133],[5.6005,45.6556],[5.547,45.7196],[5.4777,45.7641],[5.4502,45.793],[5.4302,45.8443],[5.369,45.88],[5.3335,45.868],[5.2729,45.7998],[5.2392,45.7857],[5.1338,45.8227],[5.1024,45.8262],[5.0503,45.8198],[4.9922,45.8266],[4.9169,45.8113],[4.9037,45.8582],[4.9091,45.8742],[4.8459,45.9097],[4.8201,45.9066],[4.7844,45.9448],[4.7467,45.9666],[4.7554,45.9979],[4.749,46.0594],[4.7946,46.1514],[4.7978,46.1718],[4.7952,46.1923],[4.8186,46.2573],[4.8728,46.3376],[4.8742,46.3597],[4.8993,46.3961],[4.9119,46.4472],[4.9376,46.5016],[4.96,46.5095],[5.0253,46.4933],[5.0641,46.4927],[5.1252,46.509],[5.1786,46.5054],[5.2404,46.4687],[5.311,46.4554],[5.3203,46.4084],[5.3639,46.3914],[5.3754,46.3604],[5.4691,46.3203],[5.4699,46.2769],[5.5099,46.2607],[5.5954,46.3],[5.6479,46.344],[5.6978,46.3121],[5.7144,46.2777],[5.7305,46.2712],[5.8396,46.2674],[5.8809,46.2755],[5.9521,46.3233],[5.9689,46.3448],[6.059,46.4174]],[[6.7868,46.7519],[6.7562,46.7354],[6.7727,46.7189],[6.7918,46.7329],[6.7868,46.7519]],[[6.8596,46.7734],[6.8,46.7263],[6.8339,46.7362],[6.8629,46.7271],[6.8885,46.7519],[6.8596,46.7734]],[[5.9588,46.1305],[5.9829,46.1404],[6.0283,46.1479],[6.0739,46.1492],[6.1079,46.1386],[6.1403,46.1502],[6.1914,46.1917],[6.2554,46.2211],[6.2812,46.2401],[6.276,46.2631],[6.2523,46.2599],[6.2376,46.2679],[6.2166,46.3095],[6.1742,46.3],[6.1186,46.3318],[6.1007,46.3014],[6.0897,46.2464],[6.0677,46.2416],[6.0429,46.2431],[5.9829,46.2227],[5.9585,46.212],[5.9548,46.1999],[5.9829,46.1708],[5.9588,46.1305]]],[[[7.0211,46.9897],[7.0624,46.9782],[7.0694,46.9446],[7.0941,46.9077],[7.059,46.8587],[7.0391,46.8621],[6.9459,46.9472],[7.0211,46.9897]]]]}},
{"type":"Feature","properties":{"entityId":"savoy-county","from":1387,"to":1388,"certainty":"estimated","source":"유럽 쪽은 Natural Earth 1:10m admin-1(v5.1.2) 현대 행정구역 조각을 그 시기 국경에 맞춰 묶고, 조각이 역사 경계와 다른 곳은 선을 그어 나눈 근사. 유럽 밖(시베리아·중앙아시아·극동)은 대략적인 추정. 운영자 검수 필요"},"geometry":{"type":"MultiPolygon","coordinates":[[[[6.059,46.4174],[6.0642,46.4711],[6.1457,46.5516],[6.138,46.5576],[6.1184,46.5835],[6.1319,46.5956],[6.2663,46.6804],[6.3379,46.7074],[6.3742,46.7336],[6.4292,46.7608],[6.4326,46.786],[6.4186,46.807],[6.4431,46.8515],[6.5131,46.8554],[6.6246,46.8923],[6.7255,46.939],[6.7291,46.9109],[6.7457,46.8962],[6.766,46.8453],[6.771,46.8191],[6.7935,46.7904],[6.8355,46.7802],[6.8678,46.7873],[6.9002,46.7808],[6.9299,46.8028],[6.9112,46.8084],[6.9268,46.8584],[6.901,46.8669],[6.9174,46.8786],[6.8751,46.9072],[6.9074,46.9255],[6.9637,46.8743],[6.9825,46.8821],[6.9878,46.8496],[7.0014,46.8444],[6.9676,46.809],[6.9693,46.7951],[6.9214,46.7606],[6.94,46.741],[6.8641,46.6621],[6.8092,46.6514],[6.807,46.5807],[6.8599,46.5831],[6.9047,46.5693],[6.8666,46.5371],[6.8281,46.5429],[6.8196,46.531],[6.8379,46.5064],[6.8644,46.5051],[6.8948,46.5228],[6.9192,46.5189],[6.9747,46.4904],[7.0003,46.4445],[7.0424,46.4747],[7.1031,46.4921],[7.1552,46.5276],[7.2126,46.5396],[7.2425,46.5561],[7.2539,46.5386],[7.2495,46.5047],[7.234,46.486],[7.2315,46.4558],[7.2032,46.4372],[7.2117,46.4092],[7.2004,46.3847],[7.2335,46.3607],[7.2278,46.3314],[7.1985,46.3089],[7.1842,46.2706],[7.1161,46.2198],[7.0449,46.1899],[7.0037,46.2309],[6.9401,46.3076],[6.931,46.3343],[6.8945,46.3481],[6.8945,46.3748],[6.8666,46.4027],[6.8546,46.3977],[6.7881,46.405],[6.7821,46.3785],[6.7504,46.3455],[6.8277,46.2695],[6.7922,46.2217],[6.7657,46.1516],[6.7743,46.1348],[6.8539,46.1226],[6.8692,46.1123],[6.8513,46.086],[6.8509,46.0496],[6.8924,46.0556],[6.9151,46.0486],[6.9828,45.9954],[7.0221,45.9253],[7.0669,45.8902],[7.1209,45.8761],[7.1837,45.8805],[7.2867,45.9134],[7.3618,45.9078],[7.3938,45.9157],[7.453,45.9459],[7.5037,45.9567],[7.5411,45.9841],[7.643,45.9663],[7.694,45.9287],[7.732,45.9304],[7.7801,45.9181],[7.8312,45.9145],[7.8496,45.9397],[7.8559,45.9193],[7.8477,45.9077],[7.8635,45.806],[7.8823,45.7529],[7.9163,45.7297],[7.9424,45.7239],[8.0258,45.7356],[8.0784,45.7209],[8.0979,45.7443],[8.1296,45.757],[8.1822,45.7419],[8.2804,45.6618],[8.2907,45.6312],[8.2649,45.6049],[8.2675,45.5835],[8.2895,45.5565],[8.263,45.5043],[8.2195,45.4713],[8.2042,45.4492],[8.1686,45.4359],[8.1452,45.3964],[8.1122,45.3782],[8.027,45.4031],[8.0101,45.4026],[8.0245,45.3522],[8.0105,45.3404],[7.9727,45.3424],[7.9557,45.3281],[7.9836,45.3134],[7.9883,45.2634],[8.0596,45.1825],[8.1051,45.1865],[8.1519,45.1686],[8.129,45.123],[8.1104,45.0988],[8.1425,45.0494],[8.1611,45.0373],[8.1923,45.0386],[8.2231,45.0138],[8.2379,45.0559],[8.3032,45.0722],[8.3386,45.0436],[8.3517,44.9979],[8.3884,44.9634],[8.3835,44.9342],[8.3622,44.9118],[8.3723,44.864],[8.3949,44.8445],[8.4243,44.8433],[8.4224,44.8192],[8.4978,44.7947],[8.4989,44.7674],[8.4776,44.7515],[8.422,44.7335],[8.4086,44.6922],[8.3463,44.6898],[8.3495,44.6319],[8.3195,44.6137],[8.3232,44.5903],[8.3604,44.577],[8.3293,44.5593],[8.2948,44.5607],[8.2655,44.5217],[8.2498,44.5346],[8.2209,44.5181],[8.1956,44.4746],[8.211,44.4457],[8.2058,44.4224],[8.1691,44.4036],[8.1354,44.3502],[8.0716,44.3115],[8.0781,44.2875],[8.0695,44.2257],[8.0775,44.1858],[8.0453,44.158],[8.0066,44.1645],[7.9818,44.1419],[8.0021,44.1184],[7.9876,44.1129],[7.8996,44.1234],[7.8074,44.129],[7.7575,44.1438],[7.7296,44.1183],[7.738,44.0994],[7.6879,44.0908],[7.6419,44.1436],[7.6556,44.1761],[7.6247,44.1801],[7.5836,44.1607],[7.5548,44.1591],[7.3808,44.1229],[7.3406,44.1237],[7.3093,44.1475],[7.2513,44.16],[7.145,44.2072],[7.0335,44.2429],[6.9961,44.2378],[6.9734,44.2494],[6.9592,44.2774],[6.9212,44.3022],[6.8784,44.3546],[6.8661,44.3721],[6.8772,44.4144],[6.9178,44.4363],[6.8613,44.4749],[6.8388,44.5029],[6.8464,44.5475],[6.8973,44.5754],[6.9456,44.6254],[6.9383,44.658],[6.9828,44.6922],[7.0552,44.6849],[7.0388,44.7121],[7.019,44.7389],[6.9984,44.7938],[7.0071,44.8221],[6.9828,44.847],[6.9327,44.8617],[6.866,44.8557],[6.7782,44.8876],[6.7279,44.9287],[6.7299,44.9847],[6.7235,45.0134],[6.6972,45.0269],[6.6622,45.0292],[6.6397,45.0504],[6.6366,45.0745],[6.6027,45.1035],[6.6294,45.1235],[6.5978,45.121],[6.5609,45.1048],[6.52,45.104],[6.4955,45.0708],[6.4594,45.0536],[6.3937,45.0704],[6.3571,45.1078],[6.2828,45.1153],[6.2664,45.1248],[6.2566,45.143],[6.1699,45.1523],[6.156,45.1617],[6.154,45.1931],[6.1309,45.2612],[6.1443,45.2984],[6.1895,45.3299],[6.1875,45.3776],[6.1254,45.4351],[6.045,45.4435],[5.9839,45.4833],[5.9482,45.4895],[5.9153,45.4765],[5.9108,45.3942],[5.7562,45.4393],[5.7411,45.4509],[5.6237,45.6133],[5.6005,45.6556],[5.547,45.7196],[5.4777,45.7641],[5.4502,45.793],[5.4302,45.8443],[5.369,45.88],[5.3335,45.868],[5.2729,45.7998],[5.2392,45.7857],[5.1338,45.8227],[5.1024,45.8262],[5.0503,45.8198],[4.9922,45.8266],[4.9169,45.8113],[4.9037,45.8582],[4.9091,45.8742],[4.8459,45.9097],[4.8201,45.9066],[4.7844,45.9448],[4.7467,45.9666],[4.7554,45.9979],[4.749,46.0594],[4.7946,46.1514],[4.7978,46.1718],[4.7952,46.1923],[4.8186,46.2573],[4.8728,46.3376],[4.8742,46.3597],[4.8993,46.3961],[4.9119,46.4472],[4.9376,46.5016],[4.96,46.5095],[5.0253,46.4933],[5.0641,46.4927],[5.1252,46.509],[5.1786,46.5054],[5.2404,46.4687],[5.311,46.4554],[5.3203,46.4084],[5.3639,46.3914],[5.3754,46.3604],[5.4691,46.3203],[5.4699,46.2769],[5.5099,46.2607],[5.5954,46.3],[5.6479,46.344],[5.6978,46.3121],[5.7144,46.2777],[5.7305,46.2712],[5.8396,46.2674],[5.8809,46.2755],[5.9521,46.3233],[5.9689,46.3448],[6.059,46.4174]],[[6.7868,46.7519],[6.7562,46.7354],[6.7727,46.7189],[6.7918,46.7329],[6.7868,46.7519]],[[6.8596,46.7734],[6.8,46.7263],[6.8339,46.7362],[6.8629,46.7271],[6.8885,46.7519],[6.8596,46.7734]],[[5.9588,46.1305],[5.9829,46.1404],[6.0283,46.1479],[6.0739,46.1492],[6.1079,46.1386],[6.1403,46.1502],[6.1914,46.1917],[6.2554,46.2211],[6.2812,46.2401],[6.276,46.2631],[6.2523,46.2599],[6.2376,46.2679],[6.2166,46.3095],[6.1742,46.3],[6.1186,46.3318],[6.1007,46.3014],[6.0897,46.2464],[6.0677,46.2416],[6.0429,46.2431],[5.9829,46.2227],[5.9585,46.212],[5.9548,46.1999],[5.9829,46.1708],[5.9588,46.1305]]],[[[7.0211,46.9897],[7.0624,46.9782],[7.0694,46.9446],[7.0941,46.9077],[7.059,46.8587],[7.0391,46.8621],[6.9459,46.9472],[7.0211,46.9897]]]]}},
{"type":"Feature","properties":{"entityId":"savoy-county","from":1388,"to":1416,"certainty":"estimated","source":"유럽 쪽은 Natural Earth 1:10m admin-1(v5.1.2) 현대 행정구역 조각을 그 시기 국경에 맞춰 묶고, 조각이 역사 경계와 다른 곳은 선을 그어 나눈 근사. 유럽 밖(시베리아·중앙아시아·극동)은 대략적인 추정. 운영자 검수 필요"},"geometry":{"type":"MultiPolygon","coordinates":[[[[4.7467,45.9666],[4.7844,45.9448],[4.8201,45.9066],[4.8459,45.9097],[4.9091,45.8742],[4.9037,45.8582],[4.9169,45.8113],[4.9922,45.8266],[5.0503,45.8198],[5.1024,45.8262],[5.1338,45.8227],[5.2392,45.7857],[5.2729,45.7998],[5.3335,45.868],[5.369,45.88],[5.4302,45.8443],[5.4502,45.793],[5.4777,45.7641],[5.547,45.7196],[5.6005,45.6556],[5.6237,45.6133],[5.7411,45.4509],[5.7562,45.4393],[5.9108,45.3942],[5.9153,45.4765],[5.9482,45.4895],[5.9839,45.4833],[6.045,45.4435],[6.1254,45.4351],[6.1875,45.3776],[6.1895,45.3299],[6.1443,45.2984],[6.1309,45.2612],[6.154,45.1931],[6.156,45.1617],[6.1699,45.1523],[6.2566,45.143],[6.2664,45.1248],[6.2828,45.1153],[6.3571,45.1078],[6.3937,45.0704],[6.4594,45.0536],[6.4955,45.0708],[6.52,45.104],[6.5609,45.1048],[6.5978,45.121],[6.6294,45.1235],[6.6027,45.1035],[6.6366,45.0745],[6.6397,45.0504],[6.6622,45.0292],[6.6972,45.0269],[6.7235,45.0134],[6.7299,44.9847],[6.7279,44.9287],[6.7782,44.8876],[6.866,44.8557],[6.9327,44.8617],[6.9828,44.847],[7.0071,44.8221],[6.9984,44.7938],[7.019,44.7389],[7.0388,44.7121],[7.0552,44.6849],[6.9828,44.6922],[6.9383,44.658],[6.9456,44.6254],[6.8973,44.5754],[6.8464,44.5475],[6.8388,44.5029],[6.8613,44.4749],[6.9178,44.4363],[6.8772,44.4144],[6.8661,44.3721],[6.8784,44.3546],[6.799,44.3184],[6.7308,44.2459],[6.7023,44.1885],[6.695,44.1531],[6.7454,44.0998],[6.7576,44.0373],[6.8187,44.0067],[6.8582,43.9555],[6.9155,43.9212],[6.9423,43.8972],[6.9115,43.8943],[6.98,43.86],[7.17,43.83],[7.19,43.76],[7.2,43.64],[7.2,43.5466],[7.2773,43.5948],[7.3624,43.6479],[7.4029,43.6731],[7.3624,43.6731],[7.3624,43.7192],[7.3658,43.7227],[7.3673,43.7341],[7.3727,43.7458],[7.3875,43.7579],[7.407,43.7635],[7.4262,43.7555],[7.4375,43.7434],[7.4474,43.7488],[7.4474,43.744],[7.4899,43.744],[7.4899,43.7885],[7.5023,43.7922],[7.4779,43.8655],[7.4935,43.8862],[7.5569,43.9441],[7.6309,43.9935],[7.6348,44.0015],[7.6534,44.0397],[7.6899,44.0673],[7.6879,44.0908],[7.738,44.0994],[7.7296,44.1183],[7.7575,44.1438],[7.8074,44.129],[7.8996,44.1234],[7.9876,44.1129],[8.0021,44.1184],[7.9818,44.1419],[8.0066,44.1645],[8.0453,44.158],[8.0775,44.1858],[8.0695,44.2257],[8.0781,44.2875],[8.0716,44.3115],[8.1354,44.3502],[8.1691,44.4036],[8.2058,44.4224],[8.211,44.4457],[8.1956,44.4746],[8.2209,44.5181],[8.2498,44.5346],[8.2655,44.5217],[8.2948,44.5607],[8.3293,44.5593],[8.3604,44.577],[8.3232,44.5903],[8.3195,44.6137],[8.3495,44.6319],[8.3463,44.6898],[8.4086,44.6922],[8.422,44.7335],[8.4776,44.7515],[8.4989,44.7674],[8.4978,44.7947],[8.4224,44.8192],[8.4243,44.8433],[8.3949,44.8445],[8.3723,44.864],[8.3622,44.9118],[8.3835,44.9342],[8.3884,44.9634],[8.3517,44.9979],[8.3386,45.0436],[8.3032,45.0722],[8.2379,45.0559],[8.2231,45.0138],[8.1923,45.0386],[8.1611,45.0373],[8.1425,45.0494],[8.1104,45.0988],[8.129,45.123],[8.1519,45.1686],[8.1051,45.1865],[8.0596,45.1825],[7.9883,45.2634],[7.9836,45.3134],[7.9557,45.3281],[7.9727,45.3424],[8.0105,45.3404],[8.0245,45.3522],[8.0101,45.4026],[8.027,45.4031],[8.1122,45.3782],[8.1452,45.3964],[8.1686,45.4359],[8.2042,45.4492],[8.2195,45.4713],[8.263,45.5043],[8.2895,45.5565],[8.2675,45.5835],[8.2649,45.6049],[8.2907,45.6312],[8.2804,45.6618],[8.1822,45.7419],[8.1296,45.757],[8.0979,45.7443],[8.0784,45.7209],[8.0258,45.7356],[7.9424,45.7239],[7.9163,45.7297],[7.8823,45.7529],[7.8635,45.806],[7.8477,45.9077],[7.8559,45.9193],[7.8496,45.9397],[7.8312,45.9145],[7.7801,45.9181],[7.732,45.9304],[7.694,45.9287],[7.643,45.9663],[7.5411,45.9841],[7.5037,45.9567],[7.453,45.9459],[7.3938,45.9157],[7.3618,45.9078],[7.2867,45.9134],[7.1837,45.8805],[7.1209,45.8761],[7.0669,45.8902],[7.0221,45.9253],[6.9828,45.9954],[6.9151,46.0486],[6.8924,46.0556],[6.8509,46.0496],[6.8513,46.086],[6.8692,46.1123],[6.8539,46.1226],[6.7743,46.1348],[6.7657,46.1516],[6.7922,46.2217],[6.8277,46.2695],[6.7504,46.3455],[6.7821,46.3785],[6.7881,46.405],[6.8546,46.3977],[6.8666,46.4027],[6.8945,46.3748],[6.8945,46.3481],[6.931,46.3343],[6.9401,46.3076],[7.0037,46.2309],[7.0449,46.1899],[7.1161,46.2198],[7.1842,46.2706],[7.1985,46.3089],[7.2278,46.3314],[7.2335,46.3607],[7.2004,46.3847],[7.2117,46.4092],[7.2032,46.4372],[7.2315,46.4558],[7.234,46.486],[7.2495,46.5047],[7.2539,46.5386],[7.2425,46.5561],[7.2126,46.5396],[7.1552,46.5276],[7.1031,46.4921],[7.0424,46.4747],[7.0003,46.4445],[6.9747,46.4904],[6.9192,46.5189],[6.8948,46.5228],[6.8644,46.5051],[6.8379,46.5064],[6.8196,46.531],[6.8281,46.5429],[6.8666,46.5371],[6.9047,46.5693],[6.8599,46.5831],[6.807,46.5807],[6.8092,46.6514],[6.8641,46.6621],[6.94,46.741],[6.9214,46.7606],[6.9693,46.7951],[6.9676,46.809],[7.0014,46.8444],[6.9878,46.8496],[6.9825,46.8821],[6.9637,46.8743],[6.9074,46.9255],[6.8751,46.9072],[6.9174,46.8786],[6.901,46.8669],[6.9268,46.8584],[6.9112,46.8084],[6.9299,46.8028],[6.9002,46.7808],[6.8678,46.7873],[6.8355,46.7802],[6.7935,46.7904],[6.771,46.8191],[6.766,46.8453],[6.7457,46.8962],[6.7291,46.9109],[6.7255,46.939],[6.6246,46.8923],[6.5131,46.8554],[6.4431,46.8515],[6.4186,46.807],[6.4326,46.786],[6.4292,46.7608],[6.3742,46.7336],[6.3379,46.7074],[6.2663,46.6804],[6.1319,46.5956],[6.1184,46.5835],[6.138,46.5576],[6.1457,46.5516],[6.0642,46.4711],[6.059,46.4174],[5.9689,46.3448],[5.9521,46.3233],[5.8809,46.2755],[5.8396,46.2674],[5.7305,46.2712],[5.7144,46.2777],[5.6978,46.3121],[5.6479,46.344],[5.5954,46.3],[5.5099,46.2607],[5.4699,46.2769],[5.4691,46.3203],[5.3754,46.3604],[5.3639,46.3914],[5.3203,46.4084],[5.311,46.4554],[5.2404,46.4687],[5.1786,46.5054],[5.1252,46.509],[5.0641,46.4927],[5.0253,46.4933],[4.96,46.5095],[4.9376,46.5016],[4.9119,46.4472],[4.8993,46.3961],[4.8742,46.3597],[4.8728,46.3376],[4.8186,46.2573],[4.7952,46.1923],[4.7978,46.1718],[4.7946,46.1514],[4.749,46.0594],[4.7554,45.9979],[4.7467,45.9666]],[[5.9548,46.1999],[5.9585,46.212],[5.9829,46.2227],[6.0429,46.2431],[6.0677,46.2416],[6.0897,46.2464],[6.1007,46.3014],[6.1186,46.3318],[6.1742,46.3],[6.2166,46.3095],[6.2376,46.2679],[6.2523,46.2599],[6.276,46.2631],[6.2812,46.2401],[6.2554,46.2211],[6.1914,46.1917],[6.1403,46.1502],[6.1079,46.1386],[6.0739,46.1492],[6.0283,46.1479],[5.9829,46.1404],[5.9588,46.1305],[5.9829,46.1708],[5.9548,46.1999]],[[6.7562,46.7354],[6.7868,46.7519],[6.7918,46.7329],[6.7727,46.7189],[6.7562,46.7354]],[[6.8,46.7263],[6.8596,46.7734],[6.8885,46.7519],[6.8629,46.7271],[6.8339,46.7362],[6.8,46.7263]]],[[[6.9459,46.9472],[7.0391,46.8621],[7.059,46.8587],[7.0941,46.9077],[7.0694,46.9446],[7.0624,46.9782],[7.0211,46.9897],[6.9459,46.9472]]],[[[7.4899,43.7033],[7.5324,43.7107],[7.5324,43.744],[7.4899,43.744],[7.4899,43.7033]]]]}}
]}
