{"type":"FeatureCollection","features":[
{"type":"Feature","properties":{"entityId":"scythian-tribes","from":-429,"to":-279,"certainty":"estimated","source":"유럽 쪽은 Natural Earth 1:10m admin-1(v5.1.2) 현대 행정구역 조각을 그 시기 국경에 맞춰 묶고, 조각이 역사 경계와 다른 곳은 선을 그어 나눈 근사. 유럽 밖(시베리아·중앙아시아·극동)은 대략적인 추정. 운영자 검수 필요"},"geometry":{"type":"Polygon","coordinates":[[[26.1484,49.5165],[26.1985,49.4153],[26.2291,49.397],[26.2391,49.342],[26.2344,49.3195],[26.2563,49.2936],[26.2417,49.2412],[26.2078,49.2273],[26.1992,49.1746],[26.2218,49.148],[26.2109,49.1191],[26.2284,49.0669],[26.1995,49.0413],[26.2212,49.0007],[26.1985,48.9845],[26.1891,48.953],[26.2023,48.935],[26.1954,48.9],[26.2229,48.8972],[26.2143,48.847],[26.2387,48.8188],[26.2642,48.8082],[26.2285,48.7792],[26.2513,48.7524],[26.2355,48.685],[26.2819,48.6616],[26.285,48.6412],[26.3163,48.6428],[26.3067,48.6056],[26.3689,48.5761],[26.354,48.5616],[26.3805,48.5171],[26.404,48.5341],[26.4706,48.5381],[26.5153,48.5149],[26.5399,48.4789],[26.5664,48.4574],[26.6219,48.4583],[26.607,48.4923],[26.6273,48.5084],[26.6436,48.4925],[26.709,48.4969],[26.6709,48.5267],[26.6144,48.5402],[26.6328,48.5624],[26.7218,48.5352],[26.7392,48.5577],[26.7161,48.5778],[26.7172,48.5948],[26.7406,48.5889],[26.7497,48.5616],[26.7728,48.551],[26.7876,48.5683],[26.7831,48.5935],[26.8081,48.6091],[26.8292,48.6018],[26.8226,48.5812],[26.8414,48.5463],[26.885,48.5435],[26.9247,48.5751],[26.9453,48.5814],[27.1134,48.5593],[27.147,48.5819],[27.1814,48.5819],[27.2141,48.5701],[27.2476,48.5704],[27.2618,48.5957],[27.2344,48.6185],[27.2947,48.6161],[27.3218,48.6009],[27.3704,48.6297],[27.4097,48.6207],[27.4382,48.6025],[27.4728,48.5472],[27.5038,48.4724],[27.5571,48.4744],[27.583,48.486],[27.6048,48.4841],[27.6069,48.4578],[27.627,48.4513],[27.7518,48.452],[27.7853,48.4416],[27.8499,48.4096],[27.8854,48.3784],[27.9264,48.3394],[28.0032,48.3259],[28.0559,48.3215],[28.0928,48.3021],[28.0983,48.2841],[28.0787,48.2449],[28.1311,48.2396],[28.1785,48.2589],[28.1999,48.2117],[28.2403,48.2116],[28.2945,48.2365],[28.3406,48.2401],[28.3682,48.2306],[28.3634,48.191],[28.3222,48.1632],[28.3174,48.1354],[28.3496,48.1297],[28.3886,48.1686],[28.4116,48.1707],[28.4369,48.1499],[28.419,48.1222],[28.4474,48.0828],[28.49,48.0655],[28.4998,48.1089],[28.5193,48.1491],[28.5736,48.155],[28.6656,48.1293],[28.7351,48.1287],[28.7712,48.1245],[28.7993,48.1118],[28.8276,48.057],[28.8325,48.0248],[28.8621,48.0005],[28.8798,48.0106],[28.9642,48.0358],[29.0461,48.0831],[29.0412,48.1282],[29.0783,48.1445],[29.104,48.1436],[29.1699,48.1057],[29.2463,48.0845],[29.3384,48.0862],[29.4347,48.1131],[29.4972,48.0928],[29.5855,48.0871],[29.6798,48.0922],[29.6975,48.1364],[29.6659,48.1689],[29.6825,48.1821],[29.7172,48.1817],[29.7748,48.2031],[29.7866,48.25],[29.7382,48.2701],[29.7754,48.3169],[29.7771,48.3476],[29.8586,48.4172],[29.8834,48.4326],[29.9124,48.4319],[29.9401,48.3756],[30.0046,48.4244],[30.0388,48.4277],[30.0761,48.4551],[30.1208,48.4564],[30.1744,48.4892],[30.2135,48.4819],[30.2552,48.4853],[30.3849,48.5305],[30.393,48.5555],[30.4147,48.5719],[30.4565,48.5708],[30.4844,48.5535],[30.5741,48.5652],[30.5775,48.6011],[30.5409,48.6193],[30.6014,48.6639],[30.6154,48.7222],[30.7023,48.7652],[30.7991,48.7604],[30.8122,48.7509],[30.9381,48.7562],[31.0205,48.7435],[31.0548,48.7282],[31.116,48.7283],[31.1799,48.751],[31.2237,48.7539],[31.3091,48.7428],[31.3329,48.7238],[31.4417,48.751],[31.4623,48.7611],[31.4812,48.8035],[31.5273,48.8352],[31.5295,48.904],[31.5441,48.9242],[31.6511,48.9174],[31.6895,48.9445],[31.7323,48.9426],[31.8102,48.9239],[31.8541,48.8983],[31.8748,48.8616],[31.8949,48.8618],[31.9528,48.9021],[32.0316,48.9278],[32.0518,48.9162],[32.1292,48.9125],[32.146,48.948],[32.1343,48.9583],[32.1494,48.9801],[32.1925,48.9998],[32.2414,49.052],[32.2795,49.0471],[32.3013,49.0779],[32.3319,49.0898],[32.3691,49.0458],[32.4208,49.0438],[32.4529,49.0561],[32.463,49.0098],[32.5015,48.9755],[32.5152,48.9313],[32.5513,48.9328],[32.5737,48.9576],[32.6003,48.9456],[32.6343,48.946],[32.683,48.9863],[32.7439,48.9656],[32.7824,48.9637],[32.8449,49.0012],[32.8491,49.023],[32.8247,49.0304],[32.8013,49.074],[32.7895,49.1468],[32.7527,49.1882],[32.7546,49.192],[32.7887,49.2618],[33.0382,49.182],[33.142,49.1302],[33.2041,49.0709],[33.2971,49.0649],[33.346,49.0327],[33.3226,49.0273],[33.2994,48.9955],[33.3757,48.9413],[33.401,48.9535],[33.4564,48.9417],[33.5427,48.903],[33.597,48.9224],[33.6516,48.8993],[33.6735,48.8691],[33.6946,48.9058],[33.7785,48.9225],[33.8074,48.9034],[33.876,48.8974],[33.9195,48.8658],[34.0402,48.8078],[34.0749,48.805],[34.1097,48.7902],[34.162,48.7844],[34.2375,48.7463],[34.2951,48.7844],[34.2782,48.8132],[34.3159,48.8396],[34.3127,48.8613],[34.2766,48.8884],[34.2743,48.9143],[34.3012,48.9639],[34.3252,48.9809],[34.3567,48.9861],[34.3505,49.0144],[34.4028,49.0501],[34.4083,49.0765],[34.4304,49.0746],[34.6098,49.1265],[34.7265,49.146],[34.7841,49.1746],[34.8367,49.1807],[34.8713,49.1687],[34.8573,49.1496],[34.8911,49.1483],[34.9262,49.183],[34.9839,49.1637],[35.0359,49.1635],[35.0643,49.1544],[35.1478,49.1534],[35.1989,49.1336],[35.219,49.1115],[35.2842,49.077],[35.3613,49.022],[35.4205,49.0002],[35.4564,48.9766],[35.5598,48.9716],[35.586,48.9747],[35.6125,48.96],[35.6792,48.948],[35.7111,48.9536],[35.7837,48.9345],[35.8337,48.9442],[35.9307,48.9764],[35.9797,48.952],[36.022,48.9001],[35.9669,48.8531],[36.0003,48.8544],[36.0721,48.8291],[36.0793,48.8145],[36.1254,48.7926],[36.1707,48.7577],[36.1328,48.7237],[36.2709,48.647],[36.2869,48.6311],[36.2668,48.6011],[36.3039,48.5748],[36.2728,48.5381],[36.294,48.5272],[36.3152,48.5406],[36.3422,48.5314],[36.3748,48.5416],[36.3659,48.5616],[36.3824,48.5805],[36.455,48.6382],[36.5014,48.6429],[36.5458,48.6265],[36.5761,48.6046],[36.6311,48.6033],[36.6673,48.621],[36.7254,48.6259],[36.7109,48.6496],[36.7093,48.7144],[36.69,48.7775],[36.707,48.7892],[36.7729,48.7745],[36.8254,48.7732],[36.8609,48.7954],[36.9031,48.7992],[37.0144,48.7596],[37.0336,48.7716],[36.9982,48.7945],[37.0246,48.8153],[37.0663,48.8149],[37.0744,48.8358],[37.1052,48.8406],[37.1289,48.8235],[37.1812,48.8315],[37.1861,48.8671],[37.2209,48.8976],[37.2659,48.9178],[37.3143,48.9265],[37.2918,48.9799],[37.3196,49.0059],[37.3435,49.0122],[37.3738,49.0525],[37.6013,49.1446],[37.6124,49.1546],[37.5851,49.1762],[37.5035,49.1864],[37.5469,49.2272],[37.6431,49.2283],[37.7712,49.2044],[37.8338,49.2075],[37.8473,49.2318],[37.8982,49.2583],[37.9261,49.2839],[37.9187,49.307],[37.8851,49.3131],[37.8871,49.3833],[37.8636,49.4172],[37.8759,49.4425],[37.9051,49.4497],[37.9257,49.4959],[37.9632,49.5201],[37.9532,49.551],[37.9632,49.5665],[37.9445,49.5968],[37.9983,49.652],[38.0011,49.7084],[37.9882,49.7219],[37.9507,49.7145],[37.9422,49.7305],[37.9739,49.7532],[38.0048,49.7505],[38.0435,49.7907],[38.0016,49.8122],[38.0053,49.8265],[38.0647,49.8373],[38.079,49.8491],[38.0435,49.8694],[38.0229,49.9091],[38.0665,49.9272],[38.119,49.9192],[38.1662,49.9406],[38.1713,49.9841],[38.1641,50.0304],[38.1739,50.0602],[38.2999,50.0605],[38.3141,50.0495],[38.3442,49.9921],[38.3763,49.9749],[38.4201,49.9718],[38.4975,49.9482],[38.5702,49.9566],[38.6195,49.9508],[38.6643,49.9627],[38.6873,49.9138],[38.7478,49.8854],[38.8522,49.8658],[38.9374,49.8035],[39.0323,49.8073],[39.0683,49.8211],[39.1171,49.8644],[39.1558,49.8736],[39.181,49.8595],[39.238,49.7651],[39.2609,49.7445],[39.3277,49.7263],[39.4436,49.7495],[39.4991,49.7281],[39.5575,49.724],[39.5704,49.7133],[39.5974,49.648],[39.6229,49.6135],[39.6533,49.5998],[39.7292,49.5808],[39.8015,49.5422],[39.8594,49.5456],[39.9147,49.563],[39.974,49.6026],[40.0177,49.6079],[40.1185,49.5885],[40.1696,49.6241],[40.2871,49.6208],[40.411,49.5968],[40.4905,49.5949],[40.5223,49.6024],[40.6123,49.6475],[40.6827,49.6541],[40.722,49.6516],[40.7851,49.6805],[40.8288,49.6911],[40.8848,49.6903],[41.0293,49.7942],[41.0411,49.82],[41.0421,49.8402],[40.55,50],[40.1,50.45],[39.4,51.2],[39.2,51.7],[39.1119,52.0523],[39.0974,52.0395],[39.0977,52.0066],[39.0359,51.9883],[38.9944,52.0007],[38.9297,52.0605],[38.8799,52.0925],[38.823,52.0976],[38.7929,52.0859],[38.762,52.0524],[38.7156,52.0706],[38.6976,52.0978],[38.6806,52.0978],[38.6618,52.0721],[38.6222,52.0549],[38.5751,52.0633],[38.5515,52.0326],[38.5288,52.0238],[38.3848,52.0001],[38.2988,51.961],[38.3039,51.9151],[38.362,51.9301],[38.4098,51.9202],[38.4135,51.854],[38.4264,51.8146],[38.3875,51.7851],[38.4141,51.7545],[38.4751,51.7448],[38.5051,51.7319],[38.4098,51.6878],[38.3396,51.6889],[38.2195,51.7078],[38.2015,51.685],[38.2189,51.6318],[38.1492,51.6444],[38.1402,51.6207],[38.1888,51.587],[38.221,51.5543],[38.2764,51.5264],[38.2693,51.4988],[38.2848,51.4739],[38.2729,51.4529],[38.3012,51.3626],[38.3448,51.3731],[38.3511,51.3629],[38.3234,51.3408],[38.3122,51.3094],[38.2915,51.2925],[38.2011,51.3067],[38.1551,51.3293],[38.0273,51.3662],[38.0518,51.3909],[38.0465,51.4197],[37.9319,51.4197],[37.9,51.4007],[37.8777,51.4009],[37.8286,51.4205],[37.7593,51.3885],[37.6667,51.3657],[37.581,51.3708],[37.5386,51.3943],[37.4628,51.381],[37.447,51.3723],[37.3616,51.3844],[37.3417,51.3644],[37.2491,51.331],[37.1894,51.3288],[37.1442,51.3429],[37.1187,51.3015],[37.1304,51.2428],[37.0984,51.2299],[37.0849,51.2504],[37.054,51.2469],[36.9896,51.2004],[36.9302,51.181],[36.8558,51.1858],[36.6887,51.1274],[36.6526,51.1089],[36.6175,51.0798],[36.5996,51.0795],[36.4999,51.122],[36.4762,51.0863],[36.4037,51.1179],[36.3591,51.1258],[36.3136,51.1033],[36.2443,51.1063],[36.2075,51.1251],[36.0986,51.1296],[36.0406,51.1603],[35.9763,51.1575],[35.9397,51.1161],[35.9525,51.0922],[35.9996,51.0577],[35.9542,51.0455],[35.9149,51.011],[35.8769,51.0124],[35.8556,50.9794],[35.8042,50.9382],[35.7668,50.9482],[35.7457,50.9671],[35.7212,50.9672],[35.7176,50.9376],[35.6772,50.9193],[35.6331,50.924],[35.6129,50.9393],[35.5923,50.9211],[35.5464,50.9057],[35.5042,50.9182],[35.5124,50.9471],[35.4494,50.963],[35.401,50.9533],[35.2822,50.9611],[35.2936,50.9376],[35.3417,50.9159],[35.3414,50.8765],[35.3777,50.8337],[35.3791,50.7972],[35.4385,50.7624],[35.4471,50.7343],[35.4454,50.6875],[35.4689,50.6685],[35.3916,50.6464],[35.3777,50.6218],[35.4253,50.5005],[35.4464,50.476],[35.5227,50.4595],[35.5547,50.4333],[35.5702,50.3765],[35.6316,50.345],[35.6922,50.3442],[35.671,50.3199],[35.5955,50.3259],[35.5618,50.3189],[35.4957,50.3189],[35.4938,50.3022],[35.4029,50.3337],[35.3804,50.2922],[35.3292,50.3047],[35.3089,50.2764],[35.269,50.2783],[35.2526,50.2689],[35.2547,50.2442],[35.1947,50.2323],[35.1354,50.245],[35.0887,50.2071],[35.0672,50.215],[35.0376,50.1985],[35.0339,50.1747],[35.0159,50.1721],[34.9794,50.192],[34.9573,50.1669],[34.9082,50.146],[34.8143,50.1596],[34.7872,50.157],[34.7451,50.1382],[34.7049,50.1509],[34.6694,50.1155],[34.6337,50.1148],[34.5363,50.1244],[34.4741,50.1081],[34.4562,50.147],[34.4658,50.1649],[34.504,50.1754],[34.4956,50.209],[34.4587,50.2257],[34.4263,50.272],[34.3809,50.2639],[34.3665,50.2767],[34.362,50.3095],[34.3774,50.346],[34.3597,50.3658],[34.3161,50.3898],[34.2585,50.4357],[34.2503,50.4555],[34.2525,50.5296],[34.2124,50.5424],[34.1861,50.5276],[34.1217,50.5138],[34.1078,50.4925],[34.0791,50.4973],[34.0476,50.471],[33.971,50.4934],[33.9131,50.5303],[33.8645,50.5269],[33.813,50.512],[33.8067,50.5003],[33.8416,50.4821],[33.7207,50.4627],[33.645,50.4855],[33.3401,50.5252],[33.2848,50.546],[33.2336,50.5403],[33.206,50.5183],[33.0981,50.5245],[33.0615,50.5384],[33.0092,50.48],[32.9726,50.4684],[32.9552,50.4476],[32.9059,50.4295],[32.8834,50.4013],[32.8121,50.3881],[32.7273,50.3579],[32.6666,50.3679],[32.628,50.3627],[32.5032,50.3702],[32.4832,50.4018],[32.4427,50.4069],[32.4129,50.3928],[32.3759,50.4089],[32.3502,50.4079],[32.2883,50.3892],[32.2543,50.3584],[32.2236,50.3432],[32.1992,50.3505],[32.1392,50.3501],[32.0667,50.3835],[32.0821,50.4104],[32.0425,50.4115],[32.0153,50.4228],[32.0076,50.4511],[31.973,50.4799],[31.9918,50.4996],[32.0329,50.5078],[32.0225,50.5482],[31.962,50.5501],[31.9089,50.5928],[31.8474,50.6239],[31.7947,50.6113],[31.7844,50.5793],[31.7484,50.5532],[31.6819,50.5514],[31.6183,50.5189],[31.5613,50.5091],[31.5005,50.518],[31.4629,50.5002],[31.3844,50.5127],[31.3282,50.5084],[31.2752,50.5208],[31.253,50.5598],[31.2145,50.5636],[31.1799,50.5877],[31.2083,50.6097],[31.221,50.6347],[31.2052,50.6708],[31.1622,50.6978],[31.1585,50.7155],[31.1192,50.7211],[31.1147,50.7416],[31.0837,50.7687],[31.0299,50.7558],[30.9757,50.7592],[30.9388,50.7475],[30.8717,50.7553],[30.8453,50.7379],[30.8025,50.7571],[30.7376,50.7602],[30.7653,50.7999],[30.7802,50.8436],[30.7257,50.8724],[30.6551,50.892],[30.6629,50.965],[30.6247,51.0002],[30.5558,51.0172],[30.5215,51.0081],[30.5081,51.0468],[30.5082,51.0494],[30.5112,51.108],[30.5261,51.1569],[30.5308,51.1721],[30.5295,51.1768],[30.5159,51.2248],[30.5379,51.2273],[30.5538,51.2291],[30.5547,51.2425],[30.5396,51.2352],[30.5392,51.2355],[30.5081,51.2577],[30.465,51.2619],[30.4281,51.2918],[30.3838,51.2939],[30.3551,51.3053],[30.3199,51.3416],[30.329,51.3886],[30.3074,51.4096],[30.2569,51.4251],[30.2054,51.4665],[30.1486,51.4844],[30.0087,51.4821],[29.9251,51.4579],[29.8863,51.4648],[29.8466,51.4329],[29.8286,51.43],[29.7379,51.4395],[29.7,51.4837],[29.6608,51.4931],[29.618,51.4856],[29.5682,51.4496],[29.5055,51.4375],[29.4663,51.3851],[29.4027,51.3961],[29.3533,51.3771],[29.3914,51.3621],[29.3892,51.3175],[29.3748,51.2848],[29.3495,51.266],[29.2705,51.2369],[29.2893,51.1936],[29.3,51.142],[29.3132,51.1171],[29.347,51.1448],[29.4123,51.1164],[29.4292,51.092],[29.4829,51.0723],[29.4898,51.0591],[29.4646,51.0242],[29.462,50.9697],[29.3982,50.9794],[29.4031,50.9518],[29.4226,50.9451],[29.5076,50.8589],[29.4885,50.7887],[29.4991,50.7775],[29.5362,50.7808],[29.5703,50.7693],[29.5923,50.7111],[29.5751,50.6837],[29.5439,50.6724],[29.4998,50.6264],[29.4794,50.5938],[29.5132,50.5674],[29.4774,50.5151],[29.5001,50.4995],[29.4811,50.4635],[29.4441,50.4626],[29.4668,50.4413],[29.4283,50.4293],[29.4389,50.4118],[29.4941,50.4232],[29.5366,50.4242],[29.5812,50.3913],[29.5877,50.3636],[29.6133,50.3189],[29.6378,50.3179],[29.6965,50.2578],[29.6949,50.1757],[29.7233,50.1611],[29.7344,50.1215],[29.7129,50.1041],[29.6693,50.0898],[29.6845,50.0368],[29.6761,50.0085],[29.7335,49.9474],[29.7275,49.9288],[29.6711,49.9004],[29.6387,49.8687],[29.5187,49.8185],[29.5001,49.8181],[29.4375,49.7908],[29.4491,49.7586],[29.4193,49.7081],[29.4815,49.7067],[29.4809,49.684],[29.4472,49.6509],[29.4223,49.6513],[29.3538,49.6171],[29.2742,49.6082],[29.2686,49.5862],[29.1324,49.582],[28.9868,49.5958],[28.9972,49.6231],[28.9718,49.6622],[28.9485,49.6738],[28.9561,49.6913],[29.0042,49.7309],[28.9735,49.7522],[28.9423,49.788],[28.9397,49.8311],[28.9153,49.8509],[28.9096,49.8724],[28.8354,49.8814],[28.811,49.8568],[28.751,49.8321],[28.7305,49.8024],[28.7105,49.7936],[28.6346,49.8011],[28.571,49.7867],[28.519,49.8073],[28.4309,49.8078],[28.3905,49.7771],[28.3334,49.7725],[28.2675,49.7882],[28.2391,49.7802],[28.1429,49.7783],[28.0254,49.7604],[27.9568,49.7672],[27.868,49.7601],[27.8501,49.7451],[27.8119,49.7392],[27.8364,49.7218],[27.8144,49.704],[27.769,49.7044],[27.7515,49.6735],[27.7625,49.693],[27.6,49.68],[27.2,49.62],[26.6,49.66],[26.2336,49.6356],[26.2249,49.6234],[26.2087,49.5669],[26.1643,49.544],[26.1484,49.5165]]]}},
{"type":"Feature","properties":{"entityId":"scythian-tribes","from":-279,"to":-178,"certainty":"estimated","source":"유럽 쪽은 Natural Earth 1:10m admin-1(v5.1.2) 현대 행정구역 조각을 그 시기 국경에 맞춰 묶고, 조각이 역사 경계와 다른 곳은 선을 그어 나눈 근사. 유럽 밖(시베리아·중앙아시아·극동)은 대략적인 추정. 운영자 검수 필요"},"geometry":{"type":"MultiPolygon","coordinates":[[[[28.0621,45.5936],[28.1409,45.5602],[28.1654,45.5283],[28.1659,45.4946],[28.1995,45.4618],[28.2151,45.4504],[28.2669,45.4405],[28.2864,45.4217],[28.2812,45.4018],[28.3302,45.3229],[28.4052,45.2951],[28.4942,45.2789],[28.577,45.2481],[28.7101,45.227],[28.7787,45.2311],[28.8027,45.2442],[28.7673,45.2578],[28.7615,45.2818],[28.7902,45.2921],[28.7897,45.3214],[28.8163,45.3261],[28.8809,45.3062],[28.9299,45.2791],[28.9528,45.2851],[28.9665,45.3199],[29.0182,45.3309],[29.0695,45.3608],[29.1743,45.389],[29.2282,45.4237],[29.2818,45.4223],[29.3221,45.4438],[29.3537,45.4359],[29.4306,45.4304],[29.5697,45.395],[29.6503,45.3461],[29.6671,45.3119],[29.6723,45.2729],[29.659,45.2159],[29.6954,45.2213],[29.7088,45.2233],[29.7562,45.3212],[29.7502,45.3858],[29.73,45.4126],[29.7378,45.4201],[29.7559,45.4279],[29.7541,45.4356],[30.1793,45.842],[30.2049,45.8559],[30.2614,45.8955],[30.3025,45.9338],[30.4302,46.0375],[30.4942,46.0805],[30.4983,46.0881],[30.5035,46.0976],[30.5123,46.1052],[30.6234,46.2298],[30.6535,46.2596],[30.6824,46.2995],[30.6865,46.32],[30.6851,46.3209],[30.7072,46.3484],[30.7145,46.348],[30.7725,46.3964],[30.7982,46.4464],[30.7821,46.4572],[30.7728,46.4773],[30.7967,46.5514],[30.8294,46.5584],[30.867,46.5558],[30.9062,46.5747],[30.9482,46.5837],[30.9592,46.5834],[30.9669,46.5877],[31.1098,46.6181],[31.1484,46.6236],[31.2563,46.6163],[31.3377,46.6013],[31.4286,46.6376],[31.4737,46.6796],[31.5118,46.6847],[31.481,46.6464],[31.493,46.6287],[31.5789,46.6173],[31.5972,46.6432],[31.6265,46.647],[31.6567,46.6416],[31.6871,46.639],[31.693,46.6065],[31.6988,46.575],[31.7024,46.5552],[31.5643,46.5552],[31.5301,46.575],[31.5301,46.575],[31.5109,46.5861],[31.5083,46.5876],[31.5094,46.5859],[31.517,46.575],[31.5244,46.5642],[31.6414,46.4821],[31.6636,46.4721],[31.6865,46.4299],[31.6903,46.4786],[31.6933,46.4804],[31.7143,46.4715],[31.7177,46.4713],[31.7282,46.4138],[31.7362,46.3703],[31.7431,46.3325],[31.7787,46.3267],[31.7725,46.3027],[31.8192,46.2806],[31.8823,46.2791],[31.8828,46.2851],[31.9268,46.2875],[31.9626,46.2788],[31.9684,46.2757],[32.0181,46.2575],[32.0336,46.2617],[32.0347,46.2614],[32.0838,46.2394],[32.1154,46.2145],[32.1698,46.201],[32.2461,46.1669],[32.2625,46.1282],[32.3025,46.1167],[32.5034,46.0761],[32.5437,46.0805],[32.575,46.0973],[32.7982,46.1312],[32.8043,46.1309],[32.8446,46.1214],[32.9131,46.1152],[33.0111,46.1269],[33.2983,46.0803],[33.394,46.0044],[33.4034,45.9969],[33.449,45.9608],[33.4945,45.9247],[33.5018,45.9189],[33.5476,45.8825],[33.4945,45.8532],[33.4911,45.8513],[33.4822,45.8545],[33.41,45.8266],[33.3864,45.8067],[33.2803,45.7654],[33.217,45.7581],[33.1692,45.7844],[33.1592,45.7685],[33.181,45.7552],[33.1798,45.7539],[33.1435,45.7497],[33.0247,45.6911],[32.9368,45.6625],[32.8682,45.6301],[32.8361,45.5981],[32.8267,45.5935],[32.7986,45.5769],[32.7629,45.5644],[32.7578,45.5646],[32.7509,45.5602],[32.6323,45.5188],[32.6263,45.5124],[32.5252,45.4582],[32.4951,45.4355],[32.4816,45.4089],[32.4971,45.3751],[32.4523,45.3275],[32.4526,45.3274],[32.4523,45.3271],[33.036,45.1709],[33.3278,45.0929],[33.4737,45.0538],[33.5465,45.0343],[33.5403,45.021],[33.4815,44.8954],[33.5293,44.8954],[33.5293,44.8462],[33.5573,44.8462],[33.5573,44.8441],[33.5705,44.8525],[33.5808,44.8193],[33.6173,44.8163],[33.6745,44.7916],[33.6893,44.7542],[33.6114,44.7206],[33.6252,44.6614],[33.7091,44.6664],[33.7505,44.624],[33.713,44.5816],[33.7298,44.5539],[33.7692,44.5559],[33.7771,44.5322],[33.8057,44.5273],[33.8521,44.4316],[33.786,44.4247],[33.7653,44.406],[33.73,44.398],[33.7869,44.3956],[33.8815,44.3606],[33.8817,44.3607],[33.8819,44.3606],[33.9,44.3683],[33.9354,44.3834],[33.9579,44.383],[34.0658,44.4196],[34.1026,44.4251],[34.1475,44.4499],[34.1668,44.4735],[34.2082,44.4967],[34.2298,44.4999],[34.2452,44.5156],[34.3122,44.5442],[34.3228,44.5435],[34.3361,44.5544],[34.9523,44.8172],[35.0284,44.8093],[35.0376,44.7988],[35.0808,44.7938],[35.1084,44.8249],[35.1299,44.8606],[35.1564,44.8969],[35.1813,44.907],[35.2151,44.9144],[35.2244,44.9245],[35.276,44.9454],[35.344,44.9562],[35.3672,44.9433],[35.3653,44.9596],[35.6,44.997],[35.6,45.12],[35.45,45.1],[35.45,45.4394],[35.3052,45.5105],[35.1136,45.6046],[35.1054,45.6134],[35.0232,45.7011],[35.0135,45.7159],[35.0131,45.7205],[35.0106,45.7473],[35.0081,45.774],[35.0032,45.8275],[34.965,46.2404],[35.0308,46.2518],[35.075,46.2711],[35.1051,46.2951],[35.1678,46.361],[35.1724,46.3643],[35.2637,46.4038],[35.2686,46.3982],[35.2586,46.3734],[35.2676,46.3511],[35.2911,46.3439],[35.2892,46.3139],[35.2793,46.282],[35.2784,46.2792],[35.2563,46.2623],[35.2305,46.2425],[35.2172,46.2323],[35.2171,46.2322],[35.0881,46.1512],[35.0444,46.1419],[35.0518,46.1284],[35.0389,46.1203],[34.9854,46.0875],[35,46.0736],[35.0623,46.0986],[35.0965,46.1042],[35.1618,46.1282],[35.2095,46.1699],[35.2146,46.1768],[35.2572,46.2042],[35.2661,46.2151],[35.2919,46.2468],[35.3176,46.2784],[35.4003,46.3801],[35.4455,46.406],[35.4481,46.408],[35.5709,46.4783],[35.6287,46.4985],[35.6613,46.5193],[35.7071,46.5563],[35.8181,46.6198],[35.8336,46.6259],[35.9654,46.6536],[36.0741,46.6597],[36.1928,46.6451],[36.1932,46.6451],[36.2237,46.65],[36.2676,46.6256],[36.2783,46.6074],[36.2844,46.6364],[36.3035,46.6592],[36.3233,46.6736],[36.7584,46.6981],[36.7931,46.7149],[36.794,46.7145],[36.7941,46.7146],[36.7944,46.7145],[36.7974,46.717],[36.8011,46.7188],[36.7903,46.6713],[36.7693,46.6374],[36.8123,46.6806],[36.8296,46.7319],[36.8304,46.733],[36.9451,46.7887],[37.0024,46.8165],[37.0598,46.8444],[37.1172,46.8722],[37.1745,46.9001],[37.2024,46.9136],[37.2192,46.9177],[37.2893,46.9167],[37.3174,46.9008],[37.313,46.8756],[37.3352,46.8825],[37.3779,46.9339],[37.4335,46.9879],[37.4838,47.0274],[37.6322,47.0425],[38.0234,47.0822],[38.0262,47.0816],[38.0292,47.0828],[38.0606,47.086],[38.1088,47.0838],[38.1301,47.0747],[38.1081,47.0264],[38.1423,47.0377],[38.1982,47.087],[38.2166,47.1033],[38.2014,47.1307],[38.2035,47.1923],[38.2225,47.2152],[38.2847,47.2411],[38.2982,47.256],[38.2919,47.287],[38.201,47.2906],[38.1887,47.301],[38.2034,47.3346],[38.258,47.3932],[38.2636,47.4217],[38.2603,47.4929],[38.2934,47.5628],[38.319,47.5913],[38.3529,47.6071],[38.5622,47.6266],[38.6064,47.6451],[38.6434,47.6735],[38.6779,47.6852],[38.7345,47.6771],[38.771,47.7808],[38.7962,47.8199],[38.8309,47.8482],[38.8772,47.8612],[39.0362,47.857],[39.0555,47.9174],[39.0313,47.9498],[39.0271,48.0066],[38.9337,48.0211],[38.8623,48.0201],[38.8002,48.0567],[38.8189,48.0849],[38.814,48.1114],[38.7562,48.134],[38.6305,48.1659],[38.601,48.1832],[38.6072,48.207],[38.5708,48.2744],[38.561,48.2789],[38.4609,48.2724],[38.4236,48.2856],[38.4176,48.3284],[38.4632,48.3335],[38.4806,48.3576],[38.457,48.3856],[38.4261,48.4049],[38.4063,48.4374],[38.3754,48.4321],[38.3324,48.4406],[38.3021,48.459],[38.3139,48.5206],[38.2601,48.5443],[38.2698,48.5681],[38.2537,48.6055],[38.2488,48.6636],[38.2615,48.6837],[38.3054,48.7193],[38.2744,48.7267],[38.2697,48.7488],[38.2949,48.7782],[38.2752,48.8419],[38.2295,48.8582],[38.2101,48.9239],[38.1712,48.9321],[38.0578,48.9371],[38.01,48.9543],[38.0196,48.9738],[38.0737,48.9924],[38.0776,49.0036],[38.041,49.07],[38.0602,49.0867],[38.0705,49.1481],[38.0207,49.1523],[37.9812,49.1322],[37.8953,49.1563],[37.8835,49.1684],[37.8982,49.1889],[37.9336,49.1996],[37.895,49.2081],[37.8473,49.2318],[37.8338,49.2075],[37.7712,49.2044],[37.6431,49.2283],[37.5469,49.2272],[37.5035,49.1864],[37.5851,49.1762],[37.6124,49.1546],[37.6013,49.1446],[37.3738,49.0525],[37.3435,49.0122],[37.3196,49.0059],[37.2918,48.9799],[37.3143,48.9265],[37.2659,48.9178],[37.2209,48.8976],[37.1861,48.8671],[37.1812,48.8315],[37.1289,48.8235],[37.1052,48.8406],[37.0744,48.8358],[37.0663,48.8149],[37.0246,48.8153],[36.9982,48.7945],[37.0336,48.7716],[37.0144,48.7596],[36.9031,48.7992],[36.8609,48.7954],[36.8254,48.7732],[36.7729,48.7745],[36.707,48.7892],[36.69,48.7775],[36.7093,48.7144],[36.7109,48.6496],[36.7254,48.6259],[36.6673,48.621],[36.6311,48.6033],[36.5761,48.6046],[36.5458,48.6265],[36.5014,48.6429],[36.455,48.6382],[36.3824,48.5805],[36.3659,48.5616],[36.3748,48.5416],[36.3422,48.5314],[36.3152,48.5406],[36.294,48.5272],[36.2728,48.5381],[36.2829,48.55],[36.3039,48.5748],[36.2668,48.6011],[36.2869,48.6311],[36.2709,48.647],[36.1328,48.7237],[36.1707,48.7577],[36.1254,48.7926],[36.0793,48.8145],[36.0721,48.8291],[36.0003,48.8544],[35.9669,48.8531],[36.022,48.9001],[35.9797,48.952],[35.9307,48.9764],[35.8337,48.9442],[35.7837,48.9345],[35.7111,48.9536],[35.6792,48.948],[35.6125,48.96],[35.586,48.9747],[35.5598,48.9716],[35.4564,48.9766],[35.4205,49.0002],[35.3613,49.022],[35.2842,49.077],[35.219,49.1115],[35.1989,49.1336],[35.1478,49.1534],[35.0643,49.1544],[35.0359,49.1635],[34.9839,49.1637],[34.9262,49.183],[34.8911,49.1483],[34.8573,49.1496],[34.8713,49.1687],[34.8367,49.1807],[34.7841,49.1746],[34.7265,49.146],[34.6098,49.1265],[34.4304,49.0746],[34.4083,49.0765],[34.4028,49.0501],[34.3505,49.0144],[34.3567,48.9861],[34.3252,48.9809],[34.3012,48.9639],[34.2743,48.9143],[34.2766,48.8884],[34.3127,48.8613],[34.3159,48.8396],[34.2782,48.8132],[34.2951,48.7844],[34.2375,48.7463],[34.162,48.7844],[34.1097,48.7902],[34.0749,48.805],[34.0402,48.8078],[33.9195,48.8658],[33.876,48.8974],[33.8074,48.9034],[33.7785,48.9225],[33.6946,48.9058],[33.6735,48.8691],[33.6516,48.8993],[33.597,48.9224],[33.5427,48.903],[33.4564,48.9417],[33.401,48.9535],[33.3757,48.9413],[33.2994,48.9955],[33.3226,49.0273],[33.346,49.0327],[33.2971,49.0649],[33.2041,49.0709],[33.142,49.1302],[33.0382,49.182],[32.7887,49.2618],[32.7527,49.1882],[32.7895,49.1468],[32.8013,49.074],[32.8247,49.0304],[32.8491,49.023],[32.8449,49.0012],[32.7824,48.9637],[32.7439,48.9656],[32.683,48.9863],[32.6343,48.946],[32.6003,48.9456],[32.5737,48.9576],[32.5513,48.9328],[32.5152,48.9313],[32.5015,48.9755],[32.463,49.0098],[32.4529,49.0561],[32.4208,49.0438],[32.3691,49.0458],[32.3319,49.0898],[32.3013,49.0779],[32.2795,49.0471],[32.2414,49.052],[32.1925,48.9998],[32.1494,48.9801],[32.1343,48.9583],[32.146,48.948],[32.1292,48.9125],[32.0518,48.9162],[32.0316,48.9278],[31.9528,48.9021],[31.8949,48.8618],[31.8748,48.8616],[31.8541,48.8983],[31.8102,48.9239],[31.7323,48.9426],[31.6895,48.9445],[31.6511,48.9174],[31.5441,48.9242],[31.5295,48.904],[31.5273,48.8352],[31.4812,48.8035],[31.4623,48.7611],[31.4417,48.751],[31.3329,48.7238],[31.3091,48.7428],[31.2237,48.7539],[31.1799,48.751],[31.116,48.7283],[31.0548,48.7282],[31.0205,48.7435],[30.9381,48.7562],[30.8122,48.7509],[30.7991,48.7604],[30.7023,48.7652],[30.6154,48.7222],[30.6014,48.6639],[30.5409,48.6193],[30.5775,48.6011],[30.5741,48.5652],[30.4844,48.5535],[30.4565,48.5708],[30.4147,48.5719],[30.393,48.5555],[30.3849,48.5305],[30.2552,48.4853],[30.2135,48.4819],[30.1744,48.4892],[30.1208,48.4564],[30.0761,48.4551],[30.0388,48.4277],[30.0046,48.4244],[29.9401,48.3756],[29.9124,48.4319],[29.8834,48.4326],[29.8586,48.4172],[29.7771,48.3476],[29.7754,48.3169],[29.7382,48.2701],[29.7866,48.25],[29.7748,48.2031],[29.7172,48.1817],[29.6825,48.1821],[29.6659,48.1689],[29.6975,48.1364],[29.6798,48.0922],[29.5855,48.0871],[29.4972,48.0928],[29.4347,48.1131],[29.3384,48.0862],[29.2463,48.0845],[29.1699,48.1057],[29.104,48.1436],[29.0783,48.1445],[29.0412,48.1282],[29.0461,48.0831],[28.9642,48.0358],[28.8798,48.0106],[28.8621,48.0005],[28.8826,47.9768],[28.9361,47.9422],[28.9808,47.9264],[29.0172,47.9311],[29.061,47.9698],[29.0927,47.9802],[29.124,47.976],[29.148,47.9554],[29.1646,47.9056],[29.1866,47.8836],[29.236,47.8707],[29.2328,47.8571],[29.1867,47.8182],[29.1778,47.7897],[29.222,47.7748],[29.2386,47.756],[29.197,47.7175],[29.1924,47.6509],[29.1821,47.6132],[29.1305,47.5596],[29.1174,47.5333],[29.1372,47.484],[29.1268,47.4656],[29.108,47.4694],[29.0901,47.4373],[29.0824,47.4064],[29.0514,47.3904],[29.0254,47.4009],[29.0084,47.3964],[28.9819,47.3633],[29.0217,47.3331],[29.0711,47.2958],[29.0737,47.2463],[29.1101,47.2336],[29.151,47.2448],[29.1633,47.2309],[29.1633,47.2308],[29.1789,47.1971],[29.1632,47.1919],[29.1444,47.1629],[29.1119,47.1499],[29.0691,47.1015],[29.0987,47.0921],[29.1243,47.0742],[29.1561,47.1136],[29.1892,47.1118],[29.1938,47.1238],[29.1789,47.1561],[29.2003,47.1631],[29.2267,47.1493],[29.2365,47.1624],[29.2922,47.1358],[29.2697,47.1289],[29.2535,47.1052],[29.2489,47.0645],[29.2545,46.9948],[29.2404,46.9763],[29.1818,47.0003],[29.1152,46.9869],[29.0868,47.0374],[29.0566,47.0425],[29.0279,47.0305],[29.0081,47.0076],[28.9744,47.0104],[28.9338,46.9966],[28.9081,46.9611],[28.9226,46.9289],[28.9505,46.9198],[28.9712,46.9411],[29.0412,46.9268],[29.0617,46.9146],[29.0429,46.8816],[29.0496,46.8601],[29.088,46.852],[29.0264,46.8178],[28.9712,46.8036],[28.9527,46.7892],[28.907,46.812],[28.8732,46.7936],[28.7801,46.7958],[28.7356,46.8233],[28.7324,46.7861],[28.7028,46.7794],[28.6213,46.7438],[28.6071,46.6995],[28.5837,46.6685],[28.5862,46.6468],[28.6025,46.633],[28.5897,46.6111],[28.5875,46.5817],[28.5734,46.5676],[28.5885,46.5323],[28.5856,46.5026],[28.5755,46.4859],[28.4721,46.4264],[28.4291,46.4351],[28.4102,46.4083],[28.3765,46.3886],[28.3383,46.3997],[28.3379,46.4206],[28.3205,46.4237],[28.2809,46.4121],[28.249,46.3887],[28.2268,46.3955],[28.2129,46.3887],[28.2071,46.3582],[28.1879,46.3438],[28.1929,46.3112],[28.1778,46.287],[28.1352,46.2693],[28.1321,46.2399],[28.109,46.2341],[28.1447,46.1832],[28.1105,46.1015],[28.1078,46.0961],[28.0845,46.0246],[28.0861,46.0006],[28.125,45.9184],[28.1174,45.8952],[28.1311,45.8714],[28.1105,45.8543],[28.1133,45.8254],[28.155,45.7618],[28.168,45.6325],[28.1208,45.6277],[28.0621,45.5936]]],[[[31.5044,46.3734],[31.522,46.3132],[31.5268,46.3077],[31.5271,46.3066],[31.5631,46.258],[31.6999,46.2146],[32.0095,46.1677],[32.1499,46.1538],[32.1498,46.1539],[32.1503,46.1538],[32.1496,46.154],[32.1501,46.154],[32.1494,46.1542],[32.1499,46.1542],[32.1498,46.1543],[32.1503,46.1542],[32.1354,46.1597],[32.1531,46.156],[32.0937,46.1751],[32.0135,46.2046],[31.6391,46.2723],[31.5851,46.3035],[31.5273,46.3566],[31.522,46.3685],[31.5111,46.3715],[31.5095,46.373],[31.5096,46.3725],[31.5091,46.373],[31.5092,46.3725],[31.5091,46.3726],[31.5093,46.372],[31.5044,46.3734]]]]}},
{"type":"Feature","properties":{"entityId":"scythian-tribes","from":-178,"to":-149,"certainty":"estimated","source":"유럽 쪽은 Natural Earth 1:10m admin-1(v5.1.2) 현대 행정구역 조각을 그 시기 국경에 맞춰 묶고, 조각이 역사 경계와 다른 곳은 선을 그어 나눈 근사. 유럽 밖(시베리아·중앙아시아·극동)은 대략적인 추정. 운영자 검수 필요"},"geometry":{"type":"Polygon","coordinates":[[[32.4523,45.3271],[33.036,45.1709],[33.3278,45.0929],[33.4737,45.0538],[33.5465,45.0343],[33.5403,45.021],[33.4815,44.8954],[33.5293,44.8954],[33.5293,44.8462],[33.5573,44.8462],[33.5573,44.8441],[33.5705,44.8525],[33.5808,44.8193],[33.6173,44.8163],[33.6745,44.7916],[33.6893,44.7542],[33.6114,44.7206],[33.6252,44.6614],[33.7091,44.6664],[33.7505,44.624],[33.713,44.5816],[33.7298,44.5539],[33.7692,44.5559],[33.7771,44.5322],[33.8057,44.5273],[33.8521,44.4316],[33.786,44.4247],[33.7653,44.406],[33.73,44.398],[33.7869,44.3956],[33.8815,44.3606],[33.8817,44.3607],[33.8819,44.3606],[33.9,44.3683],[33.9354,44.3834],[33.9579,44.383],[34.0658,44.4196],[34.1026,44.4251],[34.1475,44.4499],[34.1668,44.4735],[34.2082,44.4967],[34.2298,44.4999],[34.2452,44.5156],[34.3122,44.5442],[34.3228,44.5435],[34.3361,44.5544],[34.9523,44.8172],[35.0284,44.8093],[35.0376,44.7988],[35.0808,44.7938],[35.1084,44.8249],[35.1299,44.8606],[35.1564,44.8969],[35.1813,44.907],[35.2151,44.9144],[35.2244,44.9245],[35.276,44.9454],[35.344,44.9562],[35.3672,44.9433],[35.3653,44.9596],[35.6,44.997],[35.6,45.12],[35.45,45.1],[35.45,45.4394],[35.3052,45.5105],[35.1136,45.6046],[35.1054,45.6134],[35.0232,45.7011],[35.0135,45.7159],[35.0131,45.7205],[35.008,45.7205],[35.0019,45.729],[34.9523,45.722],[34.8707,45.7733],[34.81,45.785],[34.789,45.8037],[34.7843,45.8993],[34.7633,45.932],[34.6886,45.974],[34.642,45.981],[34.5696,45.9763],[34.53,45.981],[34.5043,45.9507],[34.4646,45.9553],[34.4109,45.988],[34.3619,46.0557],[34.3339,46.0697],[34.3013,46.0697],[34.2359,46.0977],[34.2009,46.1],[34.1612,46.0907],[34.1052,46.0954],[34.0259,46.1164],[33.8462,46.1957],[33.8019,46.2027],[33.7552,46.1934],[33.7157,46.1957],[33.6703,46.2181],[33.6616,46.2102],[33.6715,46.173],[33.6604,46.1482],[33.6285,46.1249],[33.632,46.1187],[33.5855,46.1187],[33.5855,45.9969],[33.54,45.9969],[33.54,45.9579],[33.4945,45.9579],[33.4945,45.9608],[33.449,45.9608],[33.4945,45.9247],[33.5018,45.9189],[33.5476,45.8825],[33.4945,45.8532],[33.4911,45.8513],[33.4822,45.8545],[33.41,45.8266],[33.3864,45.8067],[33.2803,45.7654],[33.217,45.7581],[33.1692,45.7844],[33.1592,45.7685],[33.181,45.7552],[33.1798,45.7539],[33.1435,45.7497],[33.0247,45.6911],[32.9368,45.6625],[32.8682,45.6301],[32.8361,45.5981],[32.8267,45.5935],[32.7986,45.5769],[32.7629,45.5644],[32.7578,45.5646],[32.7509,45.5602],[32.6323,45.5188],[32.6263,45.5124],[32.5252,45.4582],[32.4951,45.4355],[32.4816,45.4089],[32.4971,45.3751],[32.4523,45.3275],[32.4526,45.3274],[32.4523,45.3271]]]}}
]}
