{"type":"FeatureCollection","features":[
{"type":"Feature","properties":{"entityId":"scythian-kingdom","from":-649,"to":-404,"certainty":"estimated","source":"유럽 쪽은 Natural Earth 1:10m admin-1(v5.1.2) 현대 행정구역 조각을 그 시기 국경에 맞춰 묶고, 조각이 역사 경계와 다른 곳은 선을 그어 나눈 근사. 유럽 밖(시베리아·중앙아시아·극동)은 대략적인 추정. 운영자 검수 필요"},"geometry":{"type":"MultiPolygon","coordinates":[[[[28.0621,45.5936],[28.1409,45.5602],[28.1654,45.5283],[28.1659,45.4946],[28.1995,45.4618],[28.2151,45.4504],[28.2669,45.4405],[28.2864,45.4217],[28.2812,45.4018],[28.3302,45.3229],[28.4052,45.2951],[28.4942,45.2789],[28.577,45.2481],[28.7101,45.227],[28.7787,45.2311],[28.8027,45.2442],[28.7673,45.2578],[28.7615,45.2818],[28.7902,45.2921],[28.7897,45.3214],[28.8163,45.3261],[28.8809,45.3062],[28.9299,45.2791],[28.9528,45.2851],[28.9665,45.3199],[29.0182,45.3309],[29.0695,45.3608],[29.1743,45.389],[29.2282,45.4237],[29.2818,45.4223],[29.3221,45.4438],[29.3537,45.4359],[29.4306,45.4304],[29.5697,45.395],[29.6503,45.3461],[29.6671,45.3119],[29.6723,45.2729],[29.659,45.2159],[29.6954,45.2213],[29.7088,45.2233],[29.7562,45.3212],[29.7502,45.3858],[29.73,45.4126],[29.7378,45.4201],[29.7559,45.4279],[29.7541,45.4356],[30.1793,45.842],[30.2049,45.8559],[30.2614,45.8955],[30.3025,45.9338],[30.4302,46.0375],[30.4942,46.0805],[30.4983,46.0881],[30.5035,46.0976],[30.5123,46.1052],[30.6234,46.2298],[30.6535,46.2596],[30.6824,46.2995],[30.6865,46.32],[30.6851,46.3209],[30.7072,46.3484],[30.7145,46.348],[30.7725,46.3964],[30.7982,46.4464],[30.7821,46.4572],[30.7728,46.4773],[30.7967,46.5514],[30.8294,46.5584],[30.867,46.5558],[30.9062,46.5747],[30.9482,46.5837],[30.9592,46.5834],[30.9669,46.5877],[31.1098,46.6181],[31.1484,46.6236],[31.2563,46.6163],[31.3377,46.6013],[31.4286,46.6376],[31.4737,46.6796],[31.5118,46.6847],[31.481,46.6464],[31.493,46.6287],[31.5789,46.6173],[31.5972,46.6432],[31.6265,46.647],[31.6567,46.6416],[31.6871,46.639],[31.693,46.6065],[31.6988,46.575],[31.7024,46.5552],[31.5643,46.5552],[31.5301,46.575],[31.5301,46.575],[31.5109,46.5861],[31.5083,46.5876],[31.5094,46.5859],[31.517,46.575],[31.5244,46.5642],[31.6414,46.4821],[31.6636,46.4721],[31.6865,46.4299],[31.6903,46.4786],[31.6933,46.4804],[31.7143,46.4715],[31.7177,46.4713],[31.7282,46.4138],[31.7362,46.3703],[31.7431,46.3325],[31.7787,46.3267],[31.7725,46.3027],[31.8192,46.2806],[31.8823,46.2791],[31.8828,46.2851],[31.9268,46.2875],[31.9626,46.2788],[31.9684,46.2757],[32.0181,46.2575],[32.0336,46.2617],[32.0347,46.2614],[32.0838,46.2394],[32.1154,46.2145],[32.1698,46.201],[32.2461,46.1669],[32.2625,46.1282],[32.3025,46.1167],[32.5034,46.0761],[32.5437,46.0805],[32.575,46.0973],[32.7982,46.1312],[32.8043,46.1309],[32.8446,46.1214],[32.9131,46.1152],[33.0111,46.1269],[33.2983,46.0803],[33.394,46.0044],[33.4034,45.9969],[33.449,45.9608],[33.4945,45.9247],[33.5018,45.9189],[33.5476,45.8825],[33.4945,45.8532],[33.4911,45.8513],[33.4822,45.8545],[33.41,45.8266],[33.3864,45.8067],[33.2803,45.7654],[33.217,45.7581],[33.1692,45.7844],[33.1592,45.7685],[33.181,45.7552],[33.1798,45.7539],[33.1435,45.7497],[33.0247,45.6911],[32.9368,45.6625],[32.8682,45.6301],[32.8361,45.5981],[32.8267,45.5935],[32.7986,45.5769],[32.7629,45.5644],[32.7578,45.5646],[32.7509,45.5602],[32.6323,45.5188],[32.6263,45.5124],[32.5252,45.4582],[32.4951,45.4355],[32.4816,45.4089],[32.4971,45.3751],[32.4523,45.3275],[32.4526,45.3274],[32.4523,45.3271],[33.036,45.1709],[33.3278,45.0929],[33.4737,45.0538],[33.5465,45.0343],[33.5403,45.021],[33.4815,44.8954],[33.4584,44.8462],[33.4353,44.7969],[33.3892,44.6983],[33.3271,44.5658],[33.3273,44.5657],[33.3271,44.5654],[33.5013,44.5011],[33.5176,44.4905],[33.5272,44.4915],[33.6035,44.4634],[33.6298,44.448],[33.6454,44.4251],[33.73,44.398],[33.7869,44.3956],[33.8815,44.3606],[33.8817,44.3607],[33.8819,44.3606],[33.9,44.3683],[33.9354,44.3834],[33.9579,44.383],[34.0658,44.4196],[34.1026,44.4251],[34.1475,44.4499],[34.1668,44.4735],[34.2082,44.4967],[34.2298,44.4999],[34.2452,44.5156],[34.3122,44.5442],[34.3228,44.5435],[34.3361,44.5544],[34.9523,44.8172],[35.0284,44.8093],[35.0376,44.7988],[35.0808,44.7938],[35.1084,44.8249],[35.1299,44.8606],[35.1564,44.8969],[35.1813,44.907],[35.2151,44.9144],[35.2244,44.9245],[35.276,44.9454],[35.344,44.9562],[35.3672,44.9433],[35.3653,44.9596],[35.6,44.997],[35.6,45.12],[35.45,45.1],[35.45,45.4394],[35.3052,45.5105],[35.1136,45.6046],[35.1054,45.6134],[35.0232,45.7011],[35.0135,45.7159],[35.0131,45.7205],[35.0106,45.7473],[35.0081,45.774],[35.0032,45.8275],[34.965,46.2404],[35.0308,46.2518],[35.075,46.2711],[35.1051,46.2951],[35.1678,46.361],[35.1724,46.3643],[35.2637,46.4038],[35.2686,46.3982],[35.2586,46.3734],[35.2676,46.3511],[35.2911,46.3439],[35.2892,46.3139],[35.2793,46.282],[35.2784,46.2792],[35.2563,46.2623],[35.2305,46.2425],[35.2172,46.2323],[35.2171,46.2322],[35.0881,46.1512],[35.0444,46.1419],[35.0518,46.1284],[35.0389,46.1203],[34.9854,46.0875],[35,46.0736],[35.0623,46.0986],[35.0965,46.1042],[35.1618,46.1282],[35.2095,46.1699],[35.2146,46.1768],[35.2572,46.2042],[35.2661,46.2151],[35.2919,46.2468],[35.3176,46.2784],[35.4003,46.3801],[35.4455,46.406],[35.4481,46.408],[35.5709,46.4783],[35.6287,46.4985],[35.6613,46.5193],[35.7071,46.5563],[35.8181,46.6198],[35.8336,46.6259],[35.9654,46.6536],[36.0741,46.6597],[36.1928,46.6451],[36.1932,46.6451],[36.2237,46.65],[36.2676,46.6256],[36.2783,46.6074],[36.2844,46.6364],[36.3035,46.6592],[36.3233,46.6736],[36.7584,46.6981],[36.7931,46.7149],[36.794,46.7145],[36.7941,46.7146],[36.7944,46.7145],[36.7974,46.717],[36.8011,46.7188],[36.7903,46.6713],[36.7693,46.6374],[36.8123,46.6806],[36.8296,46.7319],[36.8304,46.733],[36.9451,46.7887],[37.0024,46.8165],[37.0598,46.8444],[37.1172,46.8722],[37.1745,46.9001],[37.2024,46.9136],[37.2192,46.9177],[37.2893,46.9167],[37.3174,46.9008],[37.313,46.8756],[37.3352,46.8825],[37.3779,46.9339],[37.4335,46.9879],[37.4838,47.0274],[37.6322,47.0425],[38.0234,47.0822],[38.0262,47.0816],[38.0292,47.0828],[38.0606,47.086],[38.1088,47.0838],[38.1301,47.0747],[38.1081,47.0264],[38.1423,47.0377],[38.1982,47.087],[38.2128,47.0913],[38.2878,47.1141],[38.3635,47.1277],[38.4279,47.1335],[38.4397,47.1413],[38.488,47.15],[38.478,47.1425],[38.5174,47.119],[38.568,47.1152],[38.5531,47.1356],[38.6255,47.1356],[38.6667,47.1435],[38.6696,47.1433],[38.67,47.1433],[38.8294,47.1636],[38.8474,47.1636],[38.8543,47.1668],[38.9292,47.1763],[38.992,47.2404],[39.1196,47.2633],[39.1474,47.0522],[39.42,47.1],[39.7,47.22],[40.3,47.4],[41.1,47.58],[42.1,47.7],[42.5407,47.9754],[42.4919,48.0136],[42.3429,48.0448],[42.3122,48.0401],[42.2825,48.0157],[42.2236,48.0301],[42.1769,48.0331],[42.0776,48.0253],[42.0298,48.0285],[42.0196,48.0591],[42.051,48.1258],[42.0964,48.1541],[42.0902,48.201],[42.051,48.23],[42.0495,48.2599],[42.0753,48.2731],[42.1369,48.2787],[42.1465,48.2872],[42.1169,48.3399],[42.0741,48.3919],[42.0843,48.4173],[42.1296,48.4486],[42.1652,48.464],[42.2765,48.498],[42.3604,48.4978],[42.4009,48.5098],[42.4416,48.5048],[42.5091,48.5269],[42.5578,48.5303],[42.6337,48.5516],[42.6503,48.5756],[42.6918,48.5956],[42.7011,48.6244],[42.6575,48.6859],[42.6511,48.7046],[42.6983,48.7571],[42.7397,48.7863],[42.7413,48.8167],[42.7226,48.845],[42.6604,48.9004],[42.6628,48.9673],[42.4804,49.0431],[42.4106,49.0473],[42.3793,49.0745],[42.3749,49.1114],[42.3438,49.1521],[42.2766,49.1594],[42.1736,49.1407],[42.0952,49.1406],[42.0685,49.1585],[42.0756,49.1862],[42.0642,49.2182],[42.0346,49.2549],[42.0547,49.2776],[42.0889,49.2833],[42.0861,49.3579],[42.0535,49.4023],[42.0669,49.4503],[42.072,49.5018],[42.1078,49.5221],[42.1184,49.5696],[42.1391,49.6117],[41.72,49.62],[41.0421,49.8402],[41.0411,49.82],[41.0293,49.7942],[40.8848,49.6903],[40.8288,49.6911],[40.7851,49.6805],[40.722,49.6516],[40.6827,49.6541],[40.6123,49.6475],[40.5223,49.6024],[40.4905,49.5949],[40.411,49.5968],[40.2871,49.6208],[40.1696,49.6241],[40.1185,49.5885],[40.0177,49.6079],[39.974,49.6026],[39.9147,49.563],[39.8594,49.5456],[39.8015,49.5422],[39.7292,49.5808],[39.6533,49.5998],[39.6229,49.6135],[39.5974,49.648],[39.5704,49.7133],[39.5575,49.724],[39.4991,49.7281],[39.4436,49.7495],[39.3277,49.7263],[39.2609,49.7445],[39.238,49.7651],[39.181,49.8595],[39.1558,49.8736],[39.1171,49.8644],[39.0683,49.8211],[39.0323,49.8073],[38.9374,49.8035],[38.8522,49.8658],[38.7478,49.8854],[38.6873,49.9138],[38.6643,49.9627],[38.6195,49.9508],[38.5702,49.9566],[38.4975,49.9482],[38.4201,49.9718],[38.3763,49.9749],[38.3442,49.9921],[38.3141,50.0495],[38.2999,50.0605],[38.1739,50.0602],[38.1641,50.0304],[38.1713,49.9841],[38.1662,49.9406],[38.119,49.9192],[38.0665,49.9272],[38.0229,49.9091],[38.0435,49.8694],[38.079,49.8491],[38.0647,49.8373],[38.0053,49.8265],[38.0016,49.8122],[38.0435,49.7907],[38.0048,49.7505],[37.9739,49.7532],[37.9422,49.7305],[37.9507,49.7145],[37.9882,49.7219],[38.0011,49.7084],[37.9983,49.652],[37.9445,49.5968],[37.9632,49.5665],[37.9532,49.551],[37.9632,49.5201],[37.9257,49.4959],[37.9051,49.4497],[37.8759,49.4425],[37.8636,49.4172],[37.8871,49.3833],[37.8851,49.3131],[37.9187,49.307],[37.9261,49.2839],[37.8982,49.2583],[37.8473,49.2318],[37.8338,49.2075],[37.7712,49.2044],[37.6431,49.2283],[37.5469,49.2272],[37.5035,49.1864],[37.5851,49.1762],[37.6124,49.1546],[37.6013,49.1446],[37.3738,49.0525],[37.3435,49.0122],[37.3196,49.0059],[37.2918,48.9799],[37.3143,48.9265],[37.2659,48.9178],[37.2209,48.8976],[37.1861,48.8671],[37.1812,48.8315],[37.1289,48.8235],[37.1052,48.8406],[37.0744,48.8358],[37.0663,48.8149],[37.0246,48.8153],[36.9982,48.7945],[37.0336,48.7716],[37.0144,48.7596],[36.9031,48.7992],[36.8609,48.7954],[36.8254,48.7732],[36.7729,48.7745],[36.707,48.7892],[36.69,48.7775],[36.7093,48.7144],[36.7109,48.6496],[36.7254,48.6259],[36.6673,48.621],[36.6311,48.6033],[36.5761,48.6046],[36.5458,48.6265],[36.5014,48.6429],[36.455,48.6382],[36.3824,48.5805],[36.3659,48.5616],[36.3748,48.5416],[36.3422,48.5314],[36.3152,48.5406],[36.294,48.5272],[36.2728,48.5381],[36.2829,48.55],[36.3039,48.5748],[36.2668,48.6011],[36.2869,48.6311],[36.2709,48.647],[36.1328,48.7237],[36.1707,48.7577],[36.1254,48.7926],[36.0793,48.8145],[36.0721,48.8291],[36.0003,48.8544],[35.9669,48.8531],[36.022,48.9001],[35.9797,48.952],[35.9307,48.9764],[35.8337,48.9442],[35.7837,48.9345],[35.7111,48.9536],[35.6792,48.948],[35.6125,48.96],[35.586,48.9747],[35.5598,48.9716],[35.4564,48.9766],[35.4205,49.0002],[35.3613,49.022],[35.2842,49.077],[35.219,49.1115],[35.1989,49.1336],[35.1478,49.1534],[35.0643,49.1544],[35.0359,49.1635],[34.9839,49.1637],[34.9262,49.183],[34.8911,49.1483],[34.8573,49.1496],[34.8713,49.1687],[34.8367,49.1807],[34.7841,49.1746],[34.7265,49.146],[34.6098,49.1265],[34.4304,49.0746],[34.4083,49.0765],[34.4028,49.0501],[34.3505,49.0144],[34.3567,48.9861],[34.3252,48.9809],[34.3012,48.9639],[34.2743,48.9143],[34.2766,48.8884],[34.3127,48.8613],[34.3159,48.8396],[34.2782,48.8132],[34.2951,48.7844],[34.2375,48.7463],[34.162,48.7844],[34.1097,48.7902],[34.0749,48.805],[34.0402,48.8078],[33.9195,48.8658],[33.876,48.8974],[33.8074,48.9034],[33.7785,48.9225],[33.6946,48.9058],[33.6735,48.8691],[33.6516,48.8993],[33.597,48.9224],[33.5427,48.903],[33.4564,48.9417],[33.401,48.9535],[33.3757,48.9413],[33.2994,48.9955],[33.3226,49.0273],[33.346,49.0327],[33.2971,49.0649],[33.2041,49.0709],[33.142,49.1302],[33.0382,49.182],[32.7887,49.2618],[32.7527,49.1882],[32.7895,49.1468],[32.8013,49.074],[32.8247,49.0304],[32.8491,49.023],[32.8449,49.0012],[32.7824,48.9637],[32.7439,48.9656],[32.683,48.9863],[32.6343,48.946],[32.6003,48.9456],[32.5737,48.9576],[32.5513,48.9328],[32.5152,48.9313],[32.5015,48.9755],[32.463,49.0098],[32.4529,49.0561],[32.4208,49.0438],[32.3691,49.0458],[32.3319,49.0898],[32.3013,49.0779],[32.2795,49.0471],[32.2414,49.052],[32.1925,48.9998],[32.1494,48.9801],[32.1343,48.9583],[32.146,48.948],[32.1292,48.9125],[32.0518,48.9162],[32.0316,48.9278],[31.9528,48.9021],[31.8949,48.8618],[31.8748,48.8616],[31.8541,48.8983],[31.8102,48.9239],[31.7323,48.9426],[31.6895,48.9445],[31.6511,48.9174],[31.5441,48.9242],[31.5295,48.904],[31.5273,48.8352],[31.4812,48.8035],[31.4623,48.7611],[31.4417,48.751],[31.3329,48.7238],[31.3091,48.7428],[31.2237,48.7539],[31.1799,48.751],[31.116,48.7283],[31.0548,48.7282],[31.0205,48.7435],[30.9381,48.7562],[30.8122,48.7509],[30.7991,48.7604],[30.7023,48.7652],[30.6154,48.7222],[30.6014,48.6639],[30.5409,48.6193],[30.5775,48.6011],[30.5741,48.5652],[30.4844,48.5535],[30.4565,48.5708],[30.4147,48.5719],[30.393,48.5555],[30.3849,48.5305],[30.2552,48.4853],[30.2135,48.4819],[30.1744,48.4892],[30.1208,48.4564],[30.0761,48.4551],[30.0388,48.4277],[30.0046,48.4244],[29.9401,48.3756],[29.9124,48.4319],[29.8834,48.4326],[29.8586,48.4172],[29.7771,48.3476],[29.7754,48.3169],[29.7382,48.2701],[29.7866,48.25],[29.7748,48.2031],[29.7172,48.1817],[29.6825,48.1821],[29.6659,48.1689],[29.6975,48.1364],[29.6798,48.0922],[29.5855,48.0871],[29.4972,48.0928],[29.4347,48.1131],[29.3384,48.0862],[29.2463,48.0845],[29.1699,48.1057],[29.104,48.1436],[29.0783,48.1445],[29.0412,48.1282],[29.0461,48.0831],[28.9642,48.0358],[28.8798,48.0106],[28.8621,48.0005],[28.8826,47.9768],[28.9361,47.9422],[28.9808,47.9264],[29.0172,47.9311],[29.061,47.9698],[29.0927,47.9802],[29.124,47.976],[29.148,47.9554],[29.1646,47.9056],[29.1866,47.8836],[29.236,47.8707],[29.2328,47.8571],[29.1867,47.8182],[29.1778,47.7897],[29.222,47.7748],[29.2386,47.756],[29.197,47.7175],[29.1924,47.6509],[29.1821,47.6132],[29.1305,47.5596],[29.1174,47.5333],[29.1372,47.484],[29.1268,47.4656],[29.108,47.4694],[29.0901,47.4373],[29.0824,47.4064],[29.0514,47.3904],[29.0254,47.4009],[29.0084,47.3964],[28.9819,47.3633],[29.0217,47.3331],[29.0711,47.2958],[29.0737,47.2463],[29.1101,47.2336],[29.151,47.2448],[29.1633,47.2309],[29.1633,47.2308],[29.1789,47.1971],[29.1632,47.1919],[29.1444,47.1629],[29.1119,47.1499],[29.0691,47.1015],[29.0987,47.0921],[29.1243,47.0742],[29.1561,47.1136],[29.1892,47.1118],[29.1938,47.1238],[29.1789,47.1561],[29.2003,47.1631],[29.2267,47.1493],[29.2365,47.1624],[29.2922,47.1358],[29.2697,47.1289],[29.2535,47.1052],[29.2489,47.0645],[29.2545,46.9948],[29.2404,46.9763],[29.1818,47.0003],[29.1152,46.9869],[29.0868,47.0374],[29.0566,47.0425],[29.0279,47.0305],[29.0081,47.0076],[28.9744,47.0104],[28.9338,46.9966],[28.9081,46.9611],[28.9226,46.9289],[28.9505,46.9198],[28.9712,46.9411],[29.0412,46.9268],[29.0617,46.9146],[29.0429,46.8816],[29.0496,46.8601],[29.088,46.852],[29.0264,46.8178],[28.9712,46.8036],[28.9527,46.7892],[28.907,46.812],[28.8732,46.7936],[28.7801,46.7958],[28.7356,46.8233],[28.7324,46.7861],[28.7028,46.7794],[28.6213,46.7438],[28.6071,46.6995],[28.5837,46.6685],[28.5862,46.6468],[28.6025,46.633],[28.5897,46.6111],[28.5875,46.5817],[28.5734,46.5676],[28.5885,46.5323],[28.5856,46.5026],[28.5755,46.4859],[28.4721,46.4264],[28.4291,46.4351],[28.4102,46.4083],[28.3765,46.3886],[28.3383,46.3997],[28.3379,46.4206],[28.3205,46.4237],[28.2809,46.4121],[28.249,46.3887],[28.2268,46.3955],[28.2129,46.3887],[28.2071,46.3582],[28.1879,46.3438],[28.1929,46.3112],[28.1778,46.287],[28.1352,46.2693],[28.1321,46.2399],[28.109,46.2341],[28.1447,46.1832],[28.1105,46.1015],[28.1078,46.0961],[28.0845,46.0246],[28.0861,46.0006],[28.125,45.9184],[28.1174,45.8952],[28.1311,45.8714],[28.1105,45.8543],[28.1133,45.8254],[28.155,45.7618],[28.168,45.6325],[28.1208,45.6277],[28.0621,45.5936]]],[[[31.5044,46.3734],[31.522,46.3132],[31.5268,46.3077],[31.5271,46.3066],[31.5631,46.258],[31.6999,46.2146],[32.0095,46.1677],[32.1499,46.1538],[32.1498,46.1539],[32.1503,46.1538],[32.1496,46.154],[32.1501,46.154],[32.1494,46.1542],[32.1499,46.1542],[32.1498,46.1543],[32.1503,46.1542],[32.1354,46.1597],[32.1531,46.156],[32.0937,46.1751],[32.0135,46.2046],[31.6391,46.2723],[31.5851,46.3035],[31.5273,46.3566],[31.522,46.3685],[31.5111,46.3715],[31.5095,46.373],[31.5096,46.3725],[31.5091,46.373],[31.5092,46.3725],[31.5091,46.3726],[31.5093,46.372],[31.5044,46.3734]]]]}},
{"type":"Feature","properties":{"entityId":"scythian-kingdom","from":-404,"to":-349,"certainty":"estimated","source":"유럽 쪽은 Natural Earth 1:10m admin-1(v5.1.2) 현대 행정구역 조각을 그 시기 국경에 맞춰 묶고, 조각이 역사 경계와 다른 곳은 선을 그어 나눈 근사. 유럽 밖(시베리아·중앙아시아·극동)은 대략적인 추정. 운영자 검수 필요"},"geometry":{"type":"MultiPolygon","coordinates":[[[[28.0621,45.5936],[28.1409,45.5602],[28.1654,45.5283],[28.1659,45.4946],[28.1995,45.4618],[28.2151,45.4504],[28.2669,45.4405],[28.2864,45.4217],[28.2812,45.4018],[28.3302,45.3229],[28.4052,45.2951],[28.4942,45.2789],[28.577,45.2481],[28.7101,45.227],[28.7787,45.2311],[28.8027,45.2442],[28.7673,45.2578],[28.7615,45.2818],[28.7902,45.2921],[28.7897,45.3214],[28.8163,45.3261],[28.8809,45.3062],[28.9299,45.2791],[28.9528,45.2851],[28.9665,45.3199],[29.0182,45.3309],[29.0695,45.3608],[29.1743,45.389],[29.2282,45.4237],[29.2818,45.4223],[29.3221,45.4438],[29.3537,45.4359],[29.4306,45.4304],[29.5697,45.395],[29.6503,45.3461],[29.6671,45.3119],[29.6723,45.2729],[29.659,45.2159],[29.6954,45.2213],[29.7088,45.2233],[29.7562,45.3212],[29.7502,45.3858],[29.73,45.4126],[29.7378,45.4201],[29.7559,45.4279],[29.7541,45.4356],[30.1793,45.842],[30.2049,45.8559],[30.2614,45.8955],[30.3025,45.9338],[30.4302,46.0375],[30.4942,46.0805],[30.4983,46.0881],[30.5035,46.0976],[30.5123,46.1052],[30.6234,46.2298],[30.6535,46.2596],[30.6824,46.2995],[30.6865,46.32],[30.6851,46.3209],[30.7072,46.3484],[30.7145,46.348],[30.7725,46.3964],[30.7982,46.4464],[30.7821,46.4572],[30.7728,46.4773],[30.7967,46.5514],[30.8294,46.5584],[30.867,46.5558],[30.9062,46.5747],[30.9482,46.5837],[30.9592,46.5834],[30.9669,46.5877],[31.1098,46.6181],[31.1484,46.6236],[31.2563,46.6163],[31.3377,46.6013],[31.4286,46.6376],[31.4737,46.6796],[31.5118,46.6847],[31.481,46.6464],[31.493,46.6287],[31.5789,46.6173],[31.5972,46.6432],[31.6265,46.647],[31.6567,46.6416],[31.6871,46.639],[31.693,46.6065],[31.6988,46.575],[31.7024,46.5552],[31.5643,46.5552],[31.5301,46.575],[31.5301,46.575],[31.5109,46.5861],[31.5083,46.5876],[31.5094,46.5859],[31.517,46.575],[31.5244,46.5642],[31.6414,46.4821],[31.6636,46.4721],[31.6865,46.4299],[31.6903,46.4786],[31.6933,46.4804],[31.7143,46.4715],[31.7177,46.4713],[31.7282,46.4138],[31.7362,46.3703],[31.7431,46.3325],[31.7787,46.3267],[31.7725,46.3027],[31.8192,46.2806],[31.8823,46.2791],[31.8828,46.2851],[31.9268,46.2875],[31.9626,46.2788],[31.9684,46.2757],[32.0181,46.2575],[32.0336,46.2617],[32.0347,46.2614],[32.0838,46.2394],[32.1154,46.2145],[32.1698,46.201],[32.2461,46.1669],[32.2625,46.1282],[32.3025,46.1167],[32.5034,46.0761],[32.5437,46.0805],[32.575,46.0973],[32.7982,46.1312],[32.8043,46.1309],[32.8446,46.1214],[32.9131,46.1152],[33.0111,46.1269],[33.2983,46.0803],[33.394,46.0044],[33.4034,45.9969],[33.449,45.9608],[33.4945,45.9247],[33.5018,45.9189],[33.5476,45.8825],[33.4945,45.8532],[33.4911,45.8513],[33.4822,45.8545],[33.41,45.8266],[33.3864,45.8067],[33.2803,45.7654],[33.217,45.7581],[33.1692,45.7844],[33.1592,45.7685],[33.181,45.7552],[33.1798,45.7539],[33.1435,45.7497],[33.0247,45.6911],[32.9368,45.6625],[32.8682,45.6301],[32.8361,45.5981],[32.8267,45.5935],[32.7986,45.5769],[32.7629,45.5644],[32.7578,45.5646],[32.7509,45.5602],[32.6323,45.5188],[32.6263,45.5124],[32.5252,45.4582],[32.4951,45.4355],[32.4816,45.4089],[32.4971,45.3751],[32.4523,45.3275],[32.4526,45.3274],[32.4523,45.3271],[33.036,45.1709],[33.3278,45.0929],[33.4737,45.0538],[33.5465,45.0343],[33.5403,45.021],[33.4815,44.8954],[33.5293,44.8954],[33.5293,44.8462],[33.5573,44.8462],[33.5573,44.8441],[33.5705,44.8525],[33.5808,44.8193],[33.6173,44.8163],[33.6745,44.7916],[33.6893,44.7542],[33.6114,44.7206],[33.6252,44.6614],[33.7091,44.6664],[33.7505,44.624],[33.713,44.5816],[33.7298,44.5539],[33.7692,44.5559],[33.7771,44.5322],[33.8057,44.5273],[33.8521,44.4316],[33.786,44.4247],[33.7653,44.406],[33.73,44.398],[33.7869,44.3956],[33.8815,44.3606],[33.8817,44.3607],[33.8819,44.3606],[33.9,44.3683],[33.9354,44.3834],[33.9579,44.383],[34.0658,44.4196],[34.1026,44.4251],[34.1475,44.4499],[34.1668,44.4735],[34.2082,44.4967],[34.2298,44.4999],[34.2452,44.5156],[34.3122,44.5442],[34.3228,44.5435],[34.3361,44.5544],[34.9523,44.8172],[35.0284,44.8093],[35.0376,44.7988],[35.0808,44.7938],[35.1084,44.8249],[35.1299,44.8606],[35.1564,44.8969],[35.1813,44.907],[35.2151,44.9144],[35.2244,44.9245],[35.276,44.9454],[35.344,44.9562],[35.3672,44.9433],[35.3653,44.9596],[35.6,44.997],[35.6,45.12],[35.45,45.1],[35.45,45.4394],[35.3052,45.5105],[35.1136,45.6046],[35.1054,45.6134],[35.0232,45.7011],[35.0135,45.7159],[35.0131,45.7205],[35.0106,45.7473],[35.0081,45.774],[35.0032,45.8275],[34.965,46.2404],[35.0308,46.2518],[35.075,46.2711],[35.1051,46.2951],[35.1678,46.361],[35.1724,46.3643],[35.2637,46.4038],[35.2686,46.3982],[35.2586,46.3734],[35.2676,46.3511],[35.2911,46.3439],[35.2892,46.3139],[35.2793,46.282],[35.2784,46.2792],[35.2563,46.2623],[35.2305,46.2425],[35.2172,46.2323],[35.2171,46.2322],[35.0881,46.1512],[35.0444,46.1419],[35.0518,46.1284],[35.0389,46.1203],[34.9854,46.0875],[35,46.0736],[35.0623,46.0986],[35.0965,46.1042],[35.1618,46.1282],[35.2095,46.1699],[35.2146,46.1768],[35.2572,46.2042],[35.2661,46.2151],[35.2919,46.2468],[35.3176,46.2784],[35.4003,46.3801],[35.4455,46.406],[35.4481,46.408],[35.5709,46.4783],[35.6287,46.4985],[35.6613,46.5193],[35.7071,46.5563],[35.8181,46.6198],[35.8336,46.6259],[35.9654,46.6536],[36.0741,46.6597],[36.1928,46.6451],[36.1932,46.6451],[36.2237,46.65],[36.2676,46.6256],[36.2783,46.6074],[36.2844,46.6364],[36.3035,46.6592],[36.3233,46.6736],[36.7584,46.6981],[36.7931,46.7149],[36.794,46.7145],[36.7941,46.7146],[36.7944,46.7145],[36.7974,46.717],[36.8011,46.7188],[36.7903,46.6713],[36.7693,46.6374],[36.8123,46.6806],[36.8296,46.7319],[36.8304,46.733],[36.9451,46.7887],[37.0024,46.8165],[37.0598,46.8444],[37.1172,46.8722],[37.1745,46.9001],[37.2024,46.9136],[37.2192,46.9177],[37.2893,46.9167],[37.3174,46.9008],[37.313,46.8756],[37.3352,46.8825],[37.3779,46.9339],[37.4335,46.9879],[37.4838,47.0274],[37.6322,47.0425],[38.0234,47.0822],[38.0262,47.0816],[38.0292,47.0828],[38.0606,47.086],[38.1088,47.0838],[38.1301,47.0747],[38.1081,47.0264],[38.1423,47.0377],[38.1982,47.087],[38.2128,47.0913],[38.2878,47.1141],[38.3635,47.1277],[38.4279,47.1335],[38.4397,47.1413],[38.488,47.15],[38.478,47.1425],[38.5174,47.119],[38.568,47.1152],[38.5531,47.1356],[38.6255,47.1356],[38.6667,47.1435],[38.6696,47.1433],[38.67,47.1433],[38.8294,47.1636],[38.8474,47.1636],[38.8543,47.1668],[38.9292,47.1763],[38.992,47.2404],[39.1196,47.2633],[39.1474,47.0522],[39.42,47.1],[39.7,47.22],[40.3,47.4],[41.1,47.58],[42.1,47.7],[42.5407,47.9754],[42.4919,48.0136],[42.3429,48.0448],[42.3122,48.0401],[42.2825,48.0157],[42.2236,48.0301],[42.1769,48.0331],[42.0776,48.0253],[42.0298,48.0285],[42.0196,48.0591],[42.051,48.1258],[42.0964,48.1541],[42.0902,48.201],[42.051,48.23],[42.0495,48.2599],[42.0753,48.2731],[42.1369,48.2787],[42.1465,48.2872],[42.1169,48.3399],[42.0741,48.3919],[42.0843,48.4173],[42.1296,48.4486],[42.1652,48.464],[42.2765,48.498],[42.3604,48.4978],[42.4009,48.5098],[42.4416,48.5048],[42.5091,48.5269],[42.5578,48.5303],[42.6337,48.5516],[42.6503,48.5756],[42.6918,48.5956],[42.7011,48.6244],[42.6575,48.6859],[42.6511,48.7046],[42.6983,48.7571],[42.7397,48.7863],[42.7413,48.8167],[42.7226,48.845],[42.6604,48.9004],[42.6628,48.9673],[42.4804,49.0431],[42.4106,49.0473],[42.3793,49.0745],[42.3749,49.1114],[42.3438,49.1521],[42.2766,49.1594],[42.1736,49.1407],[42.0952,49.1406],[42.0685,49.1585],[42.0756,49.1862],[42.0642,49.2182],[42.0346,49.2549],[42.0547,49.2776],[42.0889,49.2833],[42.0861,49.3579],[42.0535,49.4023],[42.0669,49.4503],[42.072,49.5018],[42.1078,49.5221],[42.1184,49.5696],[42.1391,49.6117],[41.72,49.62],[41.0421,49.8402],[41.0411,49.82],[41.0293,49.7942],[40.8848,49.6903],[40.8288,49.6911],[40.7851,49.6805],[40.722,49.6516],[40.6827,49.6541],[40.6123,49.6475],[40.5223,49.6024],[40.4905,49.5949],[40.411,49.5968],[40.2871,49.6208],[40.1696,49.6241],[40.1185,49.5885],[40.0177,49.6079],[39.974,49.6026],[39.9147,49.563],[39.8594,49.5456],[39.8015,49.5422],[39.7292,49.5808],[39.6533,49.5998],[39.6229,49.6135],[39.5974,49.648],[39.5704,49.7133],[39.5575,49.724],[39.4991,49.7281],[39.4436,49.7495],[39.3277,49.7263],[39.2609,49.7445],[39.238,49.7651],[39.181,49.8595],[39.1558,49.8736],[39.1171,49.8644],[39.0683,49.8211],[39.0323,49.8073],[38.9374,49.8035],[38.8522,49.8658],[38.7478,49.8854],[38.6873,49.9138],[38.6643,49.9627],[38.6195,49.9508],[38.5702,49.9566],[38.4975,49.9482],[38.4201,49.9718],[38.3763,49.9749],[38.3442,49.9921],[38.3141,50.0495],[38.2999,50.0605],[38.1739,50.0602],[38.1641,50.0304],[38.1713,49.9841],[38.1662,49.9406],[38.119,49.9192],[38.0665,49.9272],[38.0229,49.9091],[38.0435,49.8694],[38.079,49.8491],[38.0647,49.8373],[38.0053,49.8265],[38.0016,49.8122],[38.0435,49.7907],[38.0048,49.7505],[37.9739,49.7532],[37.9422,49.7305],[37.9507,49.7145],[37.9882,49.7219],[38.0011,49.7084],[37.9983,49.652],[37.9445,49.5968],[37.9632,49.5665],[37.9532,49.551],[37.9632,49.5201],[37.9257,49.4959],[37.9051,49.4497],[37.8759,49.4425],[37.8636,49.4172],[37.8871,49.3833],[37.8851,49.3131],[37.9187,49.307],[37.9261,49.2839],[37.8982,49.2583],[37.8473,49.2318],[37.8338,49.2075],[37.7712,49.2044],[37.6431,49.2283],[37.5469,49.2272],[37.5035,49.1864],[37.5851,49.1762],[37.6124,49.1546],[37.6013,49.1446],[37.3738,49.0525],[37.3435,49.0122],[37.3196,49.0059],[37.2918,48.9799],[37.3143,48.9265],[37.2659,48.9178],[37.2209,48.8976],[37.1861,48.8671],[37.1812,48.8315],[37.1289,48.8235],[37.1052,48.8406],[37.0744,48.8358],[37.0663,48.8149],[37.0246,48.8153],[36.9982,48.7945],[37.0336,48.7716],[37.0144,48.7596],[36.9031,48.7992],[36.8609,48.7954],[36.8254,48.7732],[36.7729,48.7745],[36.707,48.7892],[36.69,48.7775],[36.7093,48.7144],[36.7109,48.6496],[36.7254,48.6259],[36.6673,48.621],[36.6311,48.6033],[36.5761,48.6046],[36.5458,48.6265],[36.5014,48.6429],[36.455,48.6382],[36.3824,48.5805],[36.3659,48.5616],[36.3748,48.5416],[36.3422,48.5314],[36.3152,48.5406],[36.294,48.5272],[36.2728,48.5381],[36.2829,48.55],[36.3039,48.5748],[36.2668,48.6011],[36.2869,48.6311],[36.2709,48.647],[36.1328,48.7237],[36.1707,48.7577],[36.1254,48.7926],[36.0793,48.8145],[36.0721,48.8291],[36.0003,48.8544],[35.9669,48.8531],[36.022,48.9001],[35.9797,48.952],[35.9307,48.9764],[35.8337,48.9442],[35.7837,48.9345],[35.7111,48.9536],[35.6792,48.948],[35.6125,48.96],[35.586,48.9747],[35.5598,48.9716],[35.4564,48.9766],[35.4205,49.0002],[35.3613,49.022],[35.2842,49.077],[35.219,49.1115],[35.1989,49.1336],[35.1478,49.1534],[35.0643,49.1544],[35.0359,49.1635],[34.9839,49.1637],[34.9262,49.183],[34.8911,49.1483],[34.8573,49.1496],[34.8713,49.1687],[34.8367,49.1807],[34.7841,49.1746],[34.7265,49.146],[34.6098,49.1265],[34.4304,49.0746],[34.4083,49.0765],[34.4028,49.0501],[34.3505,49.0144],[34.3567,48.9861],[34.3252,48.9809],[34.3012,48.9639],[34.2743,48.9143],[34.2766,48.8884],[34.3127,48.8613],[34.3159,48.8396],[34.2782,48.8132],[34.2951,48.7844],[34.2375,48.7463],[34.162,48.7844],[34.1097,48.7902],[34.0749,48.805],[34.0402,48.8078],[33.9195,48.8658],[33.876,48.8974],[33.8074,48.9034],[33.7785,48.9225],[33.6946,48.9058],[33.6735,48.8691],[33.6516,48.8993],[33.597,48.9224],[33.5427,48.903],[33.4564,48.9417],[33.401,48.9535],[33.3757,48.9413],[33.2994,48.9955],[33.3226,49.0273],[33.346,49.0327],[33.2971,49.0649],[33.2041,49.0709],[33.142,49.1302],[33.0382,49.182],[32.7887,49.2618],[32.7527,49.1882],[32.7895,49.1468],[32.8013,49.074],[32.8247,49.0304],[32.8491,49.023],[32.8449,49.0012],[32.7824,48.9637],[32.7439,48.9656],[32.683,48.9863],[32.6343,48.946],[32.6003,48.9456],[32.5737,48.9576],[32.5513,48.9328],[32.5152,48.9313],[32.5015,48.9755],[32.463,49.0098],[32.4529,49.0561],[32.4208,49.0438],[32.3691,49.0458],[32.3319,49.0898],[32.3013,49.0779],[32.2795,49.0471],[32.2414,49.052],[32.1925,48.9998],[32.1494,48.9801],[32.1343,48.9583],[32.146,48.948],[32.1292,48.9125],[32.0518,48.9162],[32.0316,48.9278],[31.9528,48.9021],[31.8949,48.8618],[31.8748,48.8616],[31.8541,48.8983],[31.8102,48.9239],[31.7323,48.9426],[31.6895,48.9445],[31.6511,48.9174],[31.5441,48.9242],[31.5295,48.904],[31.5273,48.8352],[31.4812,48.8035],[31.4623,48.7611],[31.4417,48.751],[31.3329,48.7238],[31.3091,48.7428],[31.2237,48.7539],[31.1799,48.751],[31.116,48.7283],[31.0548,48.7282],[31.0205,48.7435],[30.9381,48.7562],[30.8122,48.7509],[30.7991,48.7604],[30.7023,48.7652],[30.6154,48.7222],[30.6014,48.6639],[30.5409,48.6193],[30.5775,48.6011],[30.5741,48.5652],[30.4844,48.5535],[30.4565,48.5708],[30.4147,48.5719],[30.393,48.5555],[30.3849,48.5305],[30.2552,48.4853],[30.2135,48.4819],[30.1744,48.4892],[30.1208,48.4564],[30.0761,48.4551],[30.0388,48.4277],[30.0046,48.4244],[29.9401,48.3756],[29.9124,48.4319],[29.8834,48.4326],[29.8586,48.4172],[29.7771,48.3476],[29.7754,48.3169],[29.7382,48.2701],[29.7866,48.25],[29.7748,48.2031],[29.7172,48.1817],[29.6825,48.1821],[29.6659,48.1689],[29.6975,48.1364],[29.6798,48.0922],[29.5855,48.0871],[29.4972,48.0928],[29.4347,48.1131],[29.3384,48.0862],[29.2463,48.0845],[29.1699,48.1057],[29.104,48.1436],[29.0783,48.1445],[29.0412,48.1282],[29.0461,48.0831],[28.9642,48.0358],[28.8798,48.0106],[28.8621,48.0005],[28.8826,47.9768],[28.9361,47.9422],[28.9808,47.9264],[29.0172,47.9311],[29.061,47.9698],[29.0927,47.9802],[29.124,47.976],[29.148,47.9554],[29.1646,47.9056],[29.1866,47.8836],[29.236,47.8707],[29.2328,47.8571],[29.1867,47.8182],[29.1778,47.7897],[29.222,47.7748],[29.2386,47.756],[29.197,47.7175],[29.1924,47.6509],[29.1821,47.6132],[29.1305,47.5596],[29.1174,47.5333],[29.1372,47.484],[29.1268,47.4656],[29.108,47.4694],[29.0901,47.4373],[29.0824,47.4064],[29.0514,47.3904],[29.0254,47.4009],[29.0084,47.3964],[28.9819,47.3633],[29.0217,47.3331],[29.0711,47.2958],[29.0737,47.2463],[29.1101,47.2336],[29.151,47.2448],[29.1633,47.2309],[29.1633,47.2308],[29.1789,47.1971],[29.1632,47.1919],[29.1444,47.1629],[29.1119,47.1499],[29.0691,47.1015],[29.0987,47.0921],[29.1243,47.0742],[29.1561,47.1136],[29.1892,47.1118],[29.1938,47.1238],[29.1789,47.1561],[29.2003,47.1631],[29.2267,47.1493],[29.2365,47.1624],[29.2922,47.1358],[29.2697,47.1289],[29.2535,47.1052],[29.2489,47.0645],[29.2545,46.9948],[29.2404,46.9763],[29.1818,47.0003],[29.1152,46.9869],[29.0868,47.0374],[29.0566,47.0425],[29.0279,47.0305],[29.0081,47.0076],[28.9744,47.0104],[28.9338,46.9966],[28.9081,46.9611],[28.9226,46.9289],[28.9505,46.9198],[28.9712,46.9411],[29.0412,46.9268],[29.0617,46.9146],[29.0429,46.8816],[29.0496,46.8601],[29.088,46.852],[29.0264,46.8178],[28.9712,46.8036],[28.9527,46.7892],[28.907,46.812],[28.8732,46.7936],[28.7801,46.7958],[28.7356,46.8233],[28.7324,46.7861],[28.7028,46.7794],[28.6213,46.7438],[28.6071,46.6995],[28.5837,46.6685],[28.5862,46.6468],[28.6025,46.633],[28.5897,46.6111],[28.5875,46.5817],[28.5734,46.5676],[28.5885,46.5323],[28.5856,46.5026],[28.5755,46.4859],[28.4721,46.4264],[28.4291,46.4351],[28.4102,46.4083],[28.3765,46.3886],[28.3383,46.3997],[28.3379,46.4206],[28.3205,46.4237],[28.2809,46.4121],[28.249,46.3887],[28.2268,46.3955],[28.2129,46.3887],[28.2071,46.3582],[28.1879,46.3438],[28.1929,46.3112],[28.1778,46.287],[28.1352,46.2693],[28.1321,46.2399],[28.109,46.2341],[28.1447,46.1832],[28.1105,46.1015],[28.1078,46.0961],[28.0845,46.0246],[28.0861,46.0006],[28.125,45.9184],[28.1174,45.8952],[28.1311,45.8714],[28.1105,45.8543],[28.1133,45.8254],[28.155,45.7618],[28.168,45.6325],[28.1208,45.6277],[28.0621,45.5936]]],[[[31.5044,46.3734],[31.522,46.3132],[31.5268,46.3077],[31.5271,46.3066],[31.5631,46.258],[31.6999,46.2146],[32.0095,46.1677],[32.1499,46.1538],[32.1498,46.1539],[32.1503,46.1538],[32.1496,46.154],[32.1501,46.154],[32.1494,46.1542],[32.1499,46.1542],[32.1498,46.1543],[32.1503,46.1542],[32.1354,46.1597],[32.1531,46.156],[32.0937,46.1751],[32.0135,46.2046],[31.6391,46.2723],[31.5851,46.3035],[31.5273,46.3566],[31.522,46.3685],[31.5111,46.3715],[31.5095,46.373],[31.5096,46.3725],[31.5091,46.373],[31.5092,46.3725],[31.5091,46.3726],[31.5093,46.372],[31.5044,46.3734]]]]}},
{"type":"Feature","properties":{"entityId":"scythian-kingdom","from":-349,"to":-337,"certainty":"estimated","source":"유럽 쪽은 Natural Earth 1:10m admin-1(v5.1.2) 현대 행정구역 조각을 그 시기 국경에 맞춰 묶고, 조각이 역사 경계와 다른 곳은 선을 그어 나눈 근사. 유럽 밖(시베리아·중앙아시아·극동)은 대략적인 추정. 운영자 검수 필요"},"geometry":{"type":"MultiPolygon","coordinates":[[[[27.2527,44.1215],[27.269,44.1124],[27.2643,44.0898],[27.2853,44.0725],[27.3417,44.0531],[27.3838,44.0151],[27.5745,44.0163],[27.6334,44.0298],[27.6563,44.0239],[27.6825,43.9873],[27.7217,43.9487],[27.7873,43.9604],[27.8565,43.9886],[27.9121,43.9933],[27.9358,43.9644],[27.981,43.8493],[28.0148,43.83],[28.2213,43.762],[28.4346,43.7352],[28.5784,43.7413],[28.5737,43.6221],[28.5863,43.7425],[28.5899,43.7981],[28.6297,43.9061],[28.6377,43.9186],[28.6712,44.0033],[28.6552,44.0515],[28.6523,44.1147],[28.7164,44.3902],[28.8271,44.4845],[28.844,44.4937],[28.9097,44.5842],[28.8724,44.5728],[28.806,44.5659],[28.8131,44.6018],[28.8365,44.6269],[28.8542,44.6343],[28.9242,44.6821],[28.9727,44.6702],[28.9387,44.6343],[28.9621,44.6394],[28.9876,44.6753],[28.9675,44.701],[28.8977,44.7168],[28.912,44.6964],[28.8695,44.6618],[28.8464,44.6567],[28.8484,44.6999],[28.8491,44.7164],[28.8564,44.7275],[28.8707,44.7494],[28.8757,44.7551],[28.8794,44.7566],[28.9461,44.7652],[28.9255,44.7837],[28.9524,44.8266],[28.9107,44.8571],[28.8993,44.8948],[29.0533,44.8466],[29.0603,44.8323],[29.0737,44.8348],[29.079,44.7983],[29.0509,44.7637],[28.9749,44.7449],[29.0007,44.6889],[29.0558,44.7352],[29.1309,44.772],[29.2822,44.7972],[29.3159,44.7988],[29.511,44.8205],[29.5618,44.8203],[29.6112,44.8493],[29.6052,44.88],[29.6304,44.9077],[29.6375,44.9837],[29.6563,45.029],[29.6622,45.0927],[29.6735,45.1377],[29.6765,45.1446],[29.6996,45.1618],[29.68,45.1632],[29.6879,45.1938],[29.6954,45.2213],[29.7088,45.2233],[29.7562,45.3212],[29.7502,45.3858],[29.73,45.4126],[29.7378,45.4201],[29.7559,45.4279],[29.7541,45.4356],[30.1793,45.842],[30.2049,45.8559],[30.2614,45.8955],[30.3025,45.9338],[30.4302,46.0375],[30.4942,46.0805],[30.4983,46.0881],[30.5035,46.0976],[30.5123,46.1052],[30.6234,46.2298],[30.6535,46.2596],[30.6824,46.2995],[30.6865,46.32],[30.6851,46.3209],[30.7072,46.3484],[30.7145,46.348],[30.7725,46.3964],[30.7982,46.4464],[30.7821,46.4572],[30.7728,46.4773],[30.7967,46.5514],[30.8294,46.5584],[30.867,46.5558],[30.9062,46.5747],[30.9482,46.5837],[30.9592,46.5834],[30.9669,46.5877],[31.1098,46.6181],[31.1484,46.6236],[31.2563,46.6163],[31.3377,46.6013],[31.4286,46.6376],[31.4737,46.6796],[31.5118,46.6847],[31.481,46.6464],[31.493,46.6287],[31.5789,46.6173],[31.5972,46.6432],[31.6265,46.647],[31.6567,46.6416],[31.6871,46.639],[31.693,46.6065],[31.6988,46.575],[31.7024,46.5552],[31.5643,46.5552],[31.5301,46.575],[31.5301,46.575],[31.5109,46.5861],[31.5083,46.5876],[31.5094,46.5859],[31.517,46.575],[31.5244,46.5642],[31.6414,46.4821],[31.6636,46.4721],[31.6865,46.4299],[31.6903,46.4786],[31.6933,46.4804],[31.7143,46.4715],[31.7177,46.4713],[31.7282,46.4138],[31.7362,46.3703],[31.7431,46.3325],[31.7787,46.3267],[31.7725,46.3027],[31.8192,46.2806],[31.8823,46.2791],[31.8828,46.2851],[31.9268,46.2875],[31.9626,46.2788],[31.9684,46.2757],[32.0181,46.2575],[32.0336,46.2617],[32.0347,46.2614],[32.0838,46.2394],[32.1154,46.2145],[32.1698,46.201],[32.2461,46.1669],[32.2625,46.1282],[32.3025,46.1167],[32.5034,46.0761],[32.5437,46.0805],[32.575,46.0973],[32.7982,46.1312],[32.8043,46.1309],[32.8446,46.1214],[32.9131,46.1152],[33.0111,46.1269],[33.2983,46.0803],[33.394,46.0044],[33.4034,45.9969],[33.449,45.9608],[33.4945,45.9247],[33.5018,45.9189],[33.5476,45.8825],[33.4945,45.8532],[33.4911,45.8513],[33.4822,45.8545],[33.41,45.8266],[33.3864,45.8067],[33.2803,45.7654],[33.217,45.7581],[33.1692,45.7844],[33.1592,45.7685],[33.181,45.7552],[33.1798,45.7539],[33.1435,45.7497],[33.0247,45.6911],[32.9368,45.6625],[32.8682,45.6301],[32.8361,45.5981],[32.8267,45.5935],[32.7986,45.5769],[32.7629,45.5644],[32.7578,45.5646],[32.7509,45.5602],[32.6323,45.5188],[32.6263,45.5124],[32.5252,45.4582],[32.4951,45.4355],[32.4816,45.4089],[32.4971,45.3751],[32.4523,45.3275],[32.4526,45.3274],[32.4523,45.3271],[33.036,45.1709],[33.3278,45.0929],[33.4737,45.0538],[33.5465,45.0343],[33.5403,45.021],[33.4815,44.8954],[33.5293,44.8954],[33.5293,44.8462],[33.5573,44.8462],[33.5573,44.8441],[33.5705,44.8525],[33.5808,44.8193],[33.6173,44.8163],[33.6745,44.7916],[33.6893,44.7542],[33.6114,44.7206],[33.6252,44.6614],[33.7091,44.6664],[33.7505,44.624],[33.713,44.5816],[33.7298,44.5539],[33.7692,44.5559],[33.7771,44.5322],[33.8057,44.5273],[33.8521,44.4316],[33.786,44.4247],[33.7653,44.406],[33.73,44.398],[33.7869,44.3956],[33.8815,44.3606],[33.8817,44.3607],[33.8819,44.3606],[33.9,44.3683],[33.9354,44.3834],[33.9579,44.383],[34.0658,44.4196],[34.1026,44.4251],[34.1475,44.4499],[34.1668,44.4735],[34.2082,44.4967],[34.2298,44.4999],[34.2452,44.5156],[34.3122,44.5442],[34.3228,44.5435],[34.3361,44.5544],[34.9523,44.8172],[35.0284,44.8093],[35.0376,44.7988],[35.0808,44.7938],[35.1084,44.8249],[35.1299,44.8606],[35.1564,44.8969],[35.1813,44.907],[35.2151,44.9144],[35.2244,44.9245],[35.276,44.9454],[35.344,44.9562],[35.3672,44.9433],[35.3653,44.9596],[35.6,44.997],[35.6,45.12],[35.45,45.1],[35.45,45.4394],[35.3052,45.5105],[35.1136,45.6046],[35.1054,45.6134],[35.0232,45.7011],[35.0135,45.7159],[35.0131,45.7205],[35.0106,45.7473],[35.0081,45.774],[35.0032,45.8275],[34.965,46.2404],[35.0308,46.2518],[35.075,46.2711],[35.1051,46.2951],[35.1678,46.361],[35.1724,46.3643],[35.2637,46.4038],[35.2686,46.3982],[35.2586,46.3734],[35.2676,46.3511],[35.2911,46.3439],[35.2892,46.3139],[35.2793,46.282],[35.2784,46.2792],[35.2563,46.2623],[35.2305,46.2425],[35.2172,46.2323],[35.2171,46.2322],[35.0881,46.1512],[35.0444,46.1419],[35.0518,46.1284],[35.0389,46.1203],[34.9854,46.0875],[35,46.0736],[35.0623,46.0986],[35.0965,46.1042],[35.1618,46.1282],[35.2095,46.1699],[35.2146,46.1768],[35.2572,46.2042],[35.2661,46.2151],[35.2919,46.2468],[35.3176,46.2784],[35.4003,46.3801],[35.4455,46.406],[35.4481,46.408],[35.5709,46.4783],[35.6287,46.4985],[35.6613,46.5193],[35.7071,46.5563],[35.8181,46.6198],[35.8336,46.6259],[35.9654,46.6536],[36.0741,46.6597],[36.1928,46.6451],[36.1932,46.6451],[36.2237,46.65],[36.2676,46.6256],[36.2783,46.6074],[36.2844,46.6364],[36.3035,46.6592],[36.3233,46.6736],[36.7584,46.6981],[36.7931,46.7149],[36.794,46.7145],[36.7941,46.7146],[36.7944,46.7145],[36.7974,46.717],[36.8011,46.7188],[36.7903,46.6713],[36.7693,46.6374],[36.8123,46.6806],[36.8296,46.7319],[36.8304,46.733],[36.9451,46.7887],[37.0024,46.8165],[37.0598,46.8444],[37.1172,46.8722],[37.1745,46.9001],[37.2024,46.9136],[37.2192,46.9177],[37.2893,46.9167],[37.3174,46.9008],[37.313,46.8756],[37.3352,46.8825],[37.3779,46.9339],[37.4335,46.9879],[37.4838,47.0274],[37.6322,47.0425],[38.0234,47.0822],[38.0262,47.0816],[38.0292,47.0828],[38.0606,47.086],[38.1088,47.0838],[38.1301,47.0747],[38.1081,47.0264],[38.1423,47.0377],[38.1982,47.087],[38.2128,47.0913],[38.2878,47.1141],[38.3635,47.1277],[38.4279,47.1335],[38.4397,47.1413],[38.488,47.15],[38.478,47.1425],[38.5174,47.119],[38.568,47.1152],[38.5531,47.1356],[38.6255,47.1356],[38.6667,47.1435],[38.6696,47.1433],[38.67,47.1433],[38.8294,47.1636],[38.8474,47.1636],[38.8543,47.1668],[38.9292,47.1763],[38.992,47.2404],[39.1196,47.2633],[39.1474,47.0522],[39.42,47.1],[39.7,47.22],[40.3,47.4],[41.1,47.58],[42.1,47.7],[42.5407,47.9754],[42.4919,48.0136],[42.3429,48.0448],[42.3122,48.0401],[42.2825,48.0157],[42.2236,48.0301],[42.1769,48.0331],[42.0776,48.0253],[42.0298,48.0285],[42.0196,48.0591],[42.051,48.1258],[42.0964,48.1541],[42.0902,48.201],[42.051,48.23],[42.0495,48.2599],[42.0753,48.2731],[42.1369,48.2787],[42.1465,48.2872],[42.1169,48.3399],[42.0741,48.3919],[42.0843,48.4173],[42.1296,48.4486],[42.1652,48.464],[42.2765,48.498],[42.3604,48.4978],[42.4009,48.5098],[42.4416,48.5048],[42.5091,48.5269],[42.5578,48.5303],[42.6337,48.5516],[42.6503,48.5756],[42.6918,48.5956],[42.7011,48.6244],[42.6575,48.6859],[42.6511,48.7046],[42.6983,48.7571],[42.7397,48.7863],[42.7413,48.8167],[42.7226,48.845],[42.6604,48.9004],[42.6628,48.9673],[42.4804,49.0431],[42.4106,49.0473],[42.3793,49.0745],[42.3749,49.1114],[42.3438,49.1521],[42.2766,49.1594],[42.1736,49.1407],[42.0952,49.1406],[42.0685,49.1585],[42.0756,49.1862],[42.0642,49.2182],[42.0346,49.2549],[42.0547,49.2776],[42.0889,49.2833],[42.0861,49.3579],[42.0535,49.4023],[42.0669,49.4503],[42.072,49.5018],[42.1078,49.5221],[42.1184,49.5696],[42.1391,49.6117],[41.72,49.62],[41.0421,49.8402],[41.0411,49.82],[41.0293,49.7942],[40.8848,49.6903],[40.8288,49.6911],[40.7851,49.6805],[40.722,49.6516],[40.6827,49.6541],[40.6123,49.6475],[40.5223,49.6024],[40.4905,49.5949],[40.411,49.5968],[40.2871,49.6208],[40.1696,49.6241],[40.1185,49.5885],[40.0177,49.6079],[39.974,49.6026],[39.9147,49.563],[39.8594,49.5456],[39.8015,49.5422],[39.7292,49.5808],[39.6533,49.5998],[39.6229,49.6135],[39.5974,49.648],[39.5704,49.7133],[39.5575,49.724],[39.4991,49.7281],[39.4436,49.7495],[39.3277,49.7263],[39.2609,49.7445],[39.238,49.7651],[39.181,49.8595],[39.1558,49.8736],[39.1171,49.8644],[39.0683,49.8211],[39.0323,49.8073],[38.9374,49.8035],[38.8522,49.8658],[38.7478,49.8854],[38.6873,49.9138],[38.6643,49.9627],[38.6195,49.9508],[38.5702,49.9566],[38.4975,49.9482],[38.4201,49.9718],[38.3763,49.9749],[38.3442,49.9921],[38.3141,50.0495],[38.2999,50.0605],[38.1739,50.0602],[38.1641,50.0304],[38.1713,49.9841],[38.1662,49.9406],[38.119,49.9192],[38.0665,49.9272],[38.0229,49.9091],[38.0435,49.8694],[38.079,49.8491],[38.0647,49.8373],[38.0053,49.8265],[38.0016,49.8122],[38.0435,49.7907],[38.0048,49.7505],[37.9739,49.7532],[37.9422,49.7305],[37.9507,49.7145],[37.9882,49.7219],[38.0011,49.7084],[37.9983,49.652],[37.9445,49.5968],[37.9632,49.5665],[37.9532,49.551],[37.9632,49.5201],[37.9257,49.4959],[37.9051,49.4497],[37.8759,49.4425],[37.8636,49.4172],[37.8871,49.3833],[37.8851,49.3131],[37.9187,49.307],[37.9261,49.2839],[37.8982,49.2583],[37.8473,49.2318],[37.8338,49.2075],[37.7712,49.2044],[37.6431,49.2283],[37.5469,49.2272],[37.5035,49.1864],[37.5851,49.1762],[37.6124,49.1546],[37.6013,49.1446],[37.3738,49.0525],[37.3435,49.0122],[37.3196,49.0059],[37.2918,48.9799],[37.3143,48.9265],[37.2659,48.9178],[37.2209,48.8976],[37.1861,48.8671],[37.1812,48.8315],[37.1289,48.8235],[37.1052,48.8406],[37.0744,48.8358],[37.0663,48.8149],[37.0246,48.8153],[36.9982,48.7945],[37.0336,48.7716],[37.0144,48.7596],[36.9031,48.7992],[36.8609,48.7954],[36.8254,48.7732],[36.7729,48.7745],[36.707,48.7892],[36.69,48.7775],[36.7093,48.7144],[36.7109,48.6496],[36.7254,48.6259],[36.6673,48.621],[36.6311,48.6033],[36.5761,48.6046],[36.5458,48.6265],[36.5014,48.6429],[36.455,48.6382],[36.3824,48.5805],[36.3659,48.5616],[36.3748,48.5416],[36.3422,48.5314],[36.3152,48.5406],[36.294,48.5272],[36.2728,48.5381],[36.2829,48.55],[36.3039,48.5748],[36.2668,48.6011],[36.2869,48.6311],[36.2709,48.647],[36.1328,48.7237],[36.1707,48.7577],[36.1254,48.7926],[36.0793,48.8145],[36.0721,48.8291],[36.0003,48.8544],[35.9669,48.8531],[36.022,48.9001],[35.9797,48.952],[35.9307,48.9764],[35.8337,48.9442],[35.7837,48.9345],[35.7111,48.9536],[35.6792,48.948],[35.6125,48.96],[35.586,48.9747],[35.5598,48.9716],[35.4564,48.9766],[35.4205,49.0002],[35.3613,49.022],[35.2842,49.077],[35.219,49.1115],[35.1989,49.1336],[35.1478,49.1534],[35.0643,49.1544],[35.0359,49.1635],[34.9839,49.1637],[34.9262,49.183],[34.8911,49.1483],[34.8573,49.1496],[34.8713,49.1687],[34.8367,49.1807],[34.7841,49.1746],[34.7265,49.146],[34.6098,49.1265],[34.4304,49.0746],[34.4083,49.0765],[34.4028,49.0501],[34.3505,49.0144],[34.3567,48.9861],[34.3252,48.9809],[34.3012,48.9639],[34.2743,48.9143],[34.2766,48.8884],[34.3127,48.8613],[34.3159,48.8396],[34.2782,48.8132],[34.2951,48.7844],[34.2375,48.7463],[34.162,48.7844],[34.1097,48.7902],[34.0749,48.805],[34.0402,48.8078],[33.9195,48.8658],[33.876,48.8974],[33.8074,48.9034],[33.7785,48.9225],[33.6946,48.9058],[33.6735,48.8691],[33.6516,48.8993],[33.597,48.9224],[33.5427,48.903],[33.4564,48.9417],[33.401,48.9535],[33.3757,48.9413],[33.2994,48.9955],[33.3226,49.0273],[33.346,49.0327],[33.2971,49.0649],[33.2041,49.0709],[33.142,49.1302],[33.0382,49.182],[32.7887,49.2618],[32.7527,49.1882],[32.7895,49.1468],[32.8013,49.074],[32.8247,49.0304],[32.8491,49.023],[32.8449,49.0012],[32.7824,48.9637],[32.7439,48.9656],[32.683,48.9863],[32.6343,48.946],[32.6003,48.9456],[32.5737,48.9576],[32.5513,48.9328],[32.5152,48.9313],[32.5015,48.9755],[32.463,49.0098],[32.4529,49.0561],[32.4208,49.0438],[32.3691,49.0458],[32.3319,49.0898],[32.3013,49.0779],[32.2795,49.0471],[32.2414,49.052],[32.1925,48.9998],[32.1494,48.9801],[32.1343,48.9583],[32.146,48.948],[32.1292,48.9125],[32.0518,48.9162],[32.0316,48.9278],[31.9528,48.9021],[31.8949,48.8618],[31.8748,48.8616],[31.8541,48.8983],[31.8102,48.9239],[31.7323,48.9426],[31.6895,48.9445],[31.6511,48.9174],[31.5441,48.9242],[31.5295,48.904],[31.5273,48.8352],[31.4812,48.8035],[31.4623,48.7611],[31.4417,48.751],[31.3329,48.7238],[31.3091,48.7428],[31.2237,48.7539],[31.1799,48.751],[31.116,48.7283],[31.0548,48.7282],[31.0205,48.7435],[30.9381,48.7562],[30.8122,48.7509],[30.7991,48.7604],[30.7023,48.7652],[30.6154,48.7222],[30.6014,48.6639],[30.5409,48.6193],[30.5775,48.6011],[30.5741,48.5652],[30.4844,48.5535],[30.4565,48.5708],[30.4147,48.5719],[30.393,48.5555],[30.3849,48.5305],[30.2552,48.4853],[30.2135,48.4819],[30.1744,48.4892],[30.1208,48.4564],[30.0761,48.4551],[30.0388,48.4277],[30.0046,48.4244],[29.9401,48.3756],[29.9124,48.4319],[29.8834,48.4326],[29.8586,48.4172],[29.7771,48.3476],[29.7754,48.3169],[29.7382,48.2701],[29.7866,48.25],[29.7748,48.2031],[29.7172,48.1817],[29.6825,48.1821],[29.6659,48.1689],[29.6975,48.1364],[29.6798,48.0922],[29.5855,48.0871],[29.4972,48.0928],[29.4347,48.1131],[29.3384,48.0862],[29.2463,48.0845],[29.1699,48.1057],[29.104,48.1436],[29.0783,48.1445],[29.0412,48.1282],[29.0461,48.0831],[28.9642,48.0358],[28.8798,48.0106],[28.8621,48.0005],[28.8826,47.9768],[28.9361,47.9422],[28.9808,47.9264],[29.0172,47.9311],[29.061,47.9698],[29.0927,47.9802],[29.124,47.976],[29.148,47.9554],[29.1646,47.9056],[29.1866,47.8836],[29.236,47.8707],[29.2328,47.8571],[29.1867,47.8182],[29.1778,47.7897],[29.222,47.7748],[29.2386,47.756],[29.197,47.7175],[29.1924,47.6509],[29.1821,47.6132],[29.1305,47.5596],[29.1174,47.5333],[29.1372,47.484],[29.1268,47.4656],[29.108,47.4694],[29.0901,47.4373],[29.0824,47.4064],[29.0514,47.3904],[29.0254,47.4009],[29.0084,47.3964],[28.9819,47.3633],[29.0217,47.3331],[29.0711,47.2958],[29.0737,47.2463],[29.1101,47.2336],[29.151,47.2448],[29.1633,47.2309],[29.1633,47.2308],[29.1789,47.1971],[29.1632,47.1919],[29.1444,47.1629],[29.1119,47.1499],[29.0691,47.1015],[29.0987,47.0921],[29.1243,47.0742],[29.1561,47.1136],[29.1892,47.1118],[29.1938,47.1238],[29.1789,47.1561],[29.2003,47.1631],[29.2267,47.1493],[29.2365,47.1624],[29.2922,47.1358],[29.2697,47.1289],[29.2535,47.1052],[29.2489,47.0645],[29.2545,46.9948],[29.2404,46.9763],[29.1818,47.0003],[29.1152,46.9869],[29.0868,47.0374],[29.0566,47.0425],[29.0279,47.0305],[29.0081,47.0076],[28.9744,47.0104],[28.9338,46.9966],[28.9081,46.9611],[28.9226,46.9289],[28.9505,46.9198],[28.9712,46.9411],[29.0412,46.9268],[29.0617,46.9146],[29.0429,46.8816],[29.0496,46.8601],[29.088,46.852],[29.0264,46.8178],[28.9712,46.8036],[28.9527,46.7892],[28.907,46.812],[28.8732,46.7936],[28.7801,46.7958],[28.7356,46.8233],[28.7324,46.7861],[28.7028,46.7794],[28.6213,46.7438],[28.6071,46.6995],[28.5837,46.6685],[28.5862,46.6468],[28.6025,46.633],[28.5897,46.6111],[28.5875,46.5817],[28.5734,46.5676],[28.5885,46.5323],[28.5856,46.5026],[28.5755,46.4859],[28.4721,46.4264],[28.4291,46.4351],[28.4102,46.4083],[28.3765,46.3886],[28.3383,46.3997],[28.3379,46.4206],[28.3205,46.4237],[28.2809,46.4121],[28.249,46.3887],[28.2268,46.3955],[28.2129,46.3887],[28.2071,46.3582],[28.1879,46.3438],[28.1929,46.3112],[28.1778,46.287],[28.1352,46.2693],[28.1321,46.2399],[28.109,46.2341],[28.1447,46.1832],[28.1105,46.1015],[28.1078,46.0961],[28.0845,46.0246],[28.0861,46.0006],[28.125,45.9184],[28.1174,45.8952],[28.1311,45.8714],[28.1105,45.8543],[28.1133,45.8254],[28.155,45.7618],[28.168,45.6325],[28.1208,45.6277],[28.0621,45.5936],[28.1409,45.5602],[28.1654,45.5283],[28.1659,45.4946],[28.1995,45.4618],[28.2151,45.4504],[28.1908,45.417],[28.1249,45.428],[28.0437,45.4113],[28.0302,45.3954],[28.0217,45.3481],[27.9867,45.2923],[28.0413,45.2584],[28.0755,45.2482],[28.1103,45.2582],[28.1308,45.2377],[28.0977,45.1842],[28.1526,45.1612],[28.178,45.1347],[28.1627,45.1083],[28.1314,45.089],[28.1424,45.0365],[28.1308,45.0186],[28.1414,44.9598],[28.1241,44.9449],[28.125,44.8916],[28.0801,44.8408],[28.0701,44.7959],[28.0548,44.777],[28.0347,44.7632],[27.9951,44.7611],[27.9651,44.7752],[27.9109,44.7753],[27.8769,44.7442],[27.9164,44.6945],[27.978,44.6793],[28.0345,44.631],[28.0214,44.588],[28.0215,44.5525],[28.0039,44.5399],[28.0203,44.5223],[28.0861,44.5047],[28.109,44.4578],[28.0988,44.4304],[28.0482,44.3982],[28.0228,44.3547],[27.9935,44.3044],[27.9675,44.2806],[27.934,44.266],[27.7888,44.2399],[27.7329,44.2099],[27.6918,44.2045],[27.608,44.2055],[27.516,44.1727],[27.4819,44.1458],[27.4449,44.1341],[27.2924,44.1516],[27.2527,44.1215]]],[[[31.5044,46.3734],[31.522,46.3132],[31.5268,46.3077],[31.5271,46.3066],[31.5631,46.258],[31.6999,46.2146],[32.0095,46.1677],[32.1499,46.1538],[32.1498,46.1539],[32.1503,46.1538],[32.1496,46.154],[32.1501,46.154],[32.1494,46.1542],[32.1499,46.1542],[32.1498,46.1543],[32.1503,46.1542],[32.1354,46.1597],[32.1531,46.156],[32.0937,46.1751],[32.0135,46.2046],[31.6391,46.2723],[31.5851,46.3035],[31.5273,46.3566],[31.522,46.3685],[31.5111,46.3715],[31.5095,46.373],[31.5096,46.3725],[31.5091,46.373],[31.5092,46.3725],[31.5091,46.3726],[31.5093,46.372],[31.5044,46.3734]]]]}},
{"type":"Feature","properties":{"entityId":"scythian-kingdom","from":-337,"to":-279,"certainty":"estimated","source":"유럽 쪽은 Natural Earth 1:10m admin-1(v5.1.2) 현대 행정구역 조각을 그 시기 국경에 맞춰 묶고, 조각이 역사 경계와 다른 곳은 선을 그어 나눈 근사. 유럽 밖(시베리아·중앙아시아·극동)은 대략적인 추정. 운영자 검수 필요"},"geometry":{"type":"MultiPolygon","coordinates":[[[[28.0621,45.5936],[28.1409,45.5602],[28.1654,45.5283],[28.1659,45.4946],[28.1995,45.4618],[28.2151,45.4504],[28.2669,45.4405],[28.2864,45.4217],[28.2812,45.4018],[28.3302,45.3229],[28.4052,45.2951],[28.4942,45.2789],[28.577,45.2481],[28.7101,45.227],[28.7787,45.2311],[28.8027,45.2442],[28.7673,45.2578],[28.7615,45.2818],[28.7902,45.2921],[28.7897,45.3214],[28.8163,45.3261],[28.8809,45.3062],[28.9299,45.2791],[28.9528,45.2851],[28.9665,45.3199],[29.0182,45.3309],[29.0695,45.3608],[29.1743,45.389],[29.2282,45.4237],[29.2818,45.4223],[29.3221,45.4438],[29.3537,45.4359],[29.4306,45.4304],[29.5697,45.395],[29.6503,45.3461],[29.6671,45.3119],[29.6723,45.2729],[29.659,45.2159],[29.6954,45.2213],[29.7088,45.2233],[29.7562,45.3212],[29.7502,45.3858],[29.73,45.4126],[29.7378,45.4201],[29.7559,45.4279],[29.7541,45.4356],[30.1793,45.842],[30.2049,45.8559],[30.2614,45.8955],[30.3025,45.9338],[30.4302,46.0375],[30.4942,46.0805],[30.4983,46.0881],[30.5035,46.0976],[30.5123,46.1052],[30.6234,46.2298],[30.6535,46.2596],[30.6824,46.2995],[30.6865,46.32],[30.6851,46.3209],[30.7072,46.3484],[30.7145,46.348],[30.7725,46.3964],[30.7982,46.4464],[30.7821,46.4572],[30.7728,46.4773],[30.7967,46.5514],[30.8294,46.5584],[30.867,46.5558],[30.9062,46.5747],[30.9482,46.5837],[30.9592,46.5834],[30.9669,46.5877],[31.1098,46.6181],[31.1484,46.6236],[31.2563,46.6163],[31.3377,46.6013],[31.4286,46.6376],[31.4737,46.6796],[31.5118,46.6847],[31.481,46.6464],[31.493,46.6287],[31.5789,46.6173],[31.5972,46.6432],[31.6265,46.647],[31.6567,46.6416],[31.6871,46.639],[31.693,46.6065],[31.6988,46.575],[31.7024,46.5552],[31.5643,46.5552],[31.5301,46.575],[31.5301,46.575],[31.5109,46.5861],[31.5083,46.5876],[31.5094,46.5859],[31.517,46.575],[31.5244,46.5642],[31.6414,46.4821],[31.6636,46.4721],[31.6865,46.4299],[31.6903,46.4786],[31.6933,46.4804],[31.7143,46.4715],[31.7177,46.4713],[31.7282,46.4138],[31.7362,46.3703],[31.7431,46.3325],[31.7787,46.3267],[31.7725,46.3027],[31.8192,46.2806],[31.8823,46.2791],[31.8828,46.2851],[31.9268,46.2875],[31.9626,46.2788],[31.9684,46.2757],[32.0181,46.2575],[32.0336,46.2617],[32.0347,46.2614],[32.0838,46.2394],[32.1154,46.2145],[32.1698,46.201],[32.2461,46.1669],[32.2625,46.1282],[32.3025,46.1167],[32.5034,46.0761],[32.5437,46.0805],[32.575,46.0973],[32.7982,46.1312],[32.8043,46.1309],[32.8446,46.1214],[32.9131,46.1152],[33.0111,46.1269],[33.2983,46.0803],[33.394,46.0044],[33.4034,45.9969],[33.449,45.9608],[33.4945,45.9247],[33.5018,45.9189],[33.5476,45.8825],[33.4945,45.8532],[33.4911,45.8513],[33.4822,45.8545],[33.41,45.8266],[33.3864,45.8067],[33.2803,45.7654],[33.217,45.7581],[33.1692,45.7844],[33.1592,45.7685],[33.181,45.7552],[33.1798,45.7539],[33.1435,45.7497],[33.0247,45.6911],[32.9368,45.6625],[32.8682,45.6301],[32.8361,45.5981],[32.8267,45.5935],[32.7986,45.5769],[32.7629,45.5644],[32.7578,45.5646],[32.7509,45.5602],[32.6323,45.5188],[32.6263,45.5124],[32.5252,45.4582],[32.4951,45.4355],[32.4816,45.4089],[32.4971,45.3751],[32.4523,45.3275],[32.4526,45.3274],[32.4523,45.3271],[33.036,45.1709],[33.3278,45.0929],[33.4737,45.0538],[33.5465,45.0343],[33.5403,45.021],[33.4815,44.8954],[33.5293,44.8954],[33.5293,44.8462],[33.5573,44.8462],[33.5573,44.8441],[33.5705,44.8525],[33.5808,44.8193],[33.6173,44.8163],[33.6745,44.7916],[33.6893,44.7542],[33.6114,44.7206],[33.6252,44.6614],[33.7091,44.6664],[33.7505,44.624],[33.713,44.5816],[33.7298,44.5539],[33.7692,44.5559],[33.7771,44.5322],[33.8057,44.5273],[33.8521,44.4316],[33.786,44.4247],[33.7653,44.406],[33.73,44.398],[33.7869,44.3956],[33.8815,44.3606],[33.8817,44.3607],[33.8819,44.3606],[33.9,44.3683],[33.9354,44.3834],[33.9579,44.383],[34.0658,44.4196],[34.1026,44.4251],[34.1475,44.4499],[34.1668,44.4735],[34.2082,44.4967],[34.2298,44.4999],[34.2452,44.5156],[34.3122,44.5442],[34.3228,44.5435],[34.3361,44.5544],[34.9523,44.8172],[35.0284,44.8093],[35.0376,44.7988],[35.0808,44.7938],[35.1084,44.8249],[35.1299,44.8606],[35.1564,44.8969],[35.1813,44.907],[35.2151,44.9144],[35.2244,44.9245],[35.276,44.9454],[35.344,44.9562],[35.3672,44.9433],[35.3653,44.9596],[35.6,44.997],[35.6,45.12],[35.45,45.1],[35.45,45.4394],[35.3052,45.5105],[35.1136,45.6046],[35.1054,45.6134],[35.0232,45.7011],[35.0135,45.7159],[35.0131,45.7205],[35.0106,45.7473],[35.0081,45.774],[35.0032,45.8275],[34.965,46.2404],[35.0308,46.2518],[35.075,46.2711],[35.1051,46.2951],[35.1678,46.361],[35.1724,46.3643],[35.2637,46.4038],[35.2686,46.3982],[35.2586,46.3734],[35.2676,46.3511],[35.2911,46.3439],[35.2892,46.3139],[35.2793,46.282],[35.2784,46.2792],[35.2563,46.2623],[35.2305,46.2425],[35.2172,46.2323],[35.2171,46.2322],[35.0881,46.1512],[35.0444,46.1419],[35.0518,46.1284],[35.0389,46.1203],[34.9854,46.0875],[35,46.0736],[35.0623,46.0986],[35.0965,46.1042],[35.1618,46.1282],[35.2095,46.1699],[35.2146,46.1768],[35.2572,46.2042],[35.2661,46.2151],[35.2919,46.2468],[35.3176,46.2784],[35.4003,46.3801],[35.4455,46.406],[35.4481,46.408],[35.5709,46.4783],[35.6287,46.4985],[35.6613,46.5193],[35.7071,46.5563],[35.8181,46.6198],[35.8336,46.6259],[35.9654,46.6536],[36.0741,46.6597],[36.1928,46.6451],[36.1932,46.6451],[36.2237,46.65],[36.2676,46.6256],[36.2783,46.6074],[36.2844,46.6364],[36.3035,46.6592],[36.3233,46.6736],[36.7584,46.6981],[36.7931,46.7149],[36.794,46.7145],[36.7941,46.7146],[36.7944,46.7145],[36.7974,46.717],[36.8011,46.7188],[36.7903,46.6713],[36.7693,46.6374],[36.8123,46.6806],[36.8296,46.7319],[36.8304,46.733],[36.9451,46.7887],[37.0024,46.8165],[37.0598,46.8444],[37.1172,46.8722],[37.1745,46.9001],[37.2024,46.9136],[37.2192,46.9177],[37.2893,46.9167],[37.3174,46.9008],[37.313,46.8756],[37.3352,46.8825],[37.3779,46.9339],[37.4335,46.9879],[37.4838,47.0274],[37.6322,47.0425],[38.0234,47.0822],[38.0262,47.0816],[38.0292,47.0828],[38.0606,47.086],[38.1088,47.0838],[38.1301,47.0747],[38.1081,47.0264],[38.1423,47.0377],[38.1982,47.087],[38.2128,47.0913],[38.2878,47.1141],[38.3635,47.1277],[38.4279,47.1335],[38.4397,47.1413],[38.488,47.15],[38.478,47.1425],[38.5174,47.119],[38.568,47.1152],[38.5531,47.1356],[38.6255,47.1356],[38.6667,47.1435],[38.6696,47.1433],[38.67,47.1433],[38.8294,47.1636],[38.8474,47.1636],[38.8543,47.1668],[38.9292,47.1763],[38.992,47.2404],[39.1196,47.2633],[39.1474,47.0522],[39.42,47.1],[39.7,47.22],[40.3,47.4],[41.1,47.58],[42.1,47.7],[42.5407,47.9754],[42.4919,48.0136],[42.3429,48.0448],[42.3122,48.0401],[42.2825,48.0157],[42.2236,48.0301],[42.1769,48.0331],[42.0776,48.0253],[42.0298,48.0285],[42.0196,48.0591],[42.051,48.1258],[42.0964,48.1541],[42.0902,48.201],[42.051,48.23],[42.0495,48.2599],[42.0753,48.2731],[42.1369,48.2787],[42.1465,48.2872],[42.1169,48.3399],[42.0741,48.3919],[42.0843,48.4173],[42.1296,48.4486],[42.1652,48.464],[42.2765,48.498],[42.3604,48.4978],[42.4009,48.5098],[42.4416,48.5048],[42.5091,48.5269],[42.5578,48.5303],[42.6337,48.5516],[42.6503,48.5756],[42.6918,48.5956],[42.7011,48.6244],[42.6575,48.6859],[42.6511,48.7046],[42.6983,48.7571],[42.7397,48.7863],[42.7413,48.8167],[42.7226,48.845],[42.6604,48.9004],[42.6628,48.9673],[42.4804,49.0431],[42.4106,49.0473],[42.3793,49.0745],[42.3749,49.1114],[42.3438,49.1521],[42.2766,49.1594],[42.1736,49.1407],[42.0952,49.1406],[42.0685,49.1585],[42.0756,49.1862],[42.0642,49.2182],[42.0346,49.2549],[42.0547,49.2776],[42.0889,49.2833],[42.0861,49.3579],[42.0535,49.4023],[42.0669,49.4503],[42.072,49.5018],[42.1078,49.5221],[42.1184,49.5696],[42.1391,49.6117],[41.72,49.62],[41.0421,49.8402],[41.0411,49.82],[41.0293,49.7942],[40.8848,49.6903],[40.8288,49.6911],[40.7851,49.6805],[40.722,49.6516],[40.6827,49.6541],[40.6123,49.6475],[40.5223,49.6024],[40.4905,49.5949],[40.411,49.5968],[40.2871,49.6208],[40.1696,49.6241],[40.1185,49.5885],[40.0177,49.6079],[39.974,49.6026],[39.9147,49.563],[39.8594,49.5456],[39.8015,49.5422],[39.7292,49.5808],[39.6533,49.5998],[39.6229,49.6135],[39.5974,49.648],[39.5704,49.7133],[39.5575,49.724],[39.4991,49.7281],[39.4436,49.7495],[39.3277,49.7263],[39.2609,49.7445],[39.238,49.7651],[39.181,49.8595],[39.1558,49.8736],[39.1171,49.8644],[39.0683,49.8211],[39.0323,49.8073],[38.9374,49.8035],[38.8522,49.8658],[38.7478,49.8854],[38.6873,49.9138],[38.6643,49.9627],[38.6195,49.9508],[38.5702,49.9566],[38.4975,49.9482],[38.4201,49.9718],[38.3763,49.9749],[38.3442,49.9921],[38.3141,50.0495],[38.2999,50.0605],[38.1739,50.0602],[38.1641,50.0304],[38.1713,49.9841],[38.1662,49.9406],[38.119,49.9192],[38.0665,49.9272],[38.0229,49.9091],[38.0435,49.8694],[38.079,49.8491],[38.0647,49.8373],[38.0053,49.8265],[38.0016,49.8122],[38.0435,49.7907],[38.0048,49.7505],[37.9739,49.7532],[37.9422,49.7305],[37.9507,49.7145],[37.9882,49.7219],[38.0011,49.7084],[37.9983,49.652],[37.9445,49.5968],[37.9632,49.5665],[37.9532,49.551],[37.9632,49.5201],[37.9257,49.4959],[37.9051,49.4497],[37.8759,49.4425],[37.8636,49.4172],[37.8871,49.3833],[37.8851,49.3131],[37.9187,49.307],[37.9261,49.2839],[37.8982,49.2583],[37.8473,49.2318],[37.8338,49.2075],[37.7712,49.2044],[37.6431,49.2283],[37.5469,49.2272],[37.5035,49.1864],[37.5851,49.1762],[37.6124,49.1546],[37.6013,49.1446],[37.3738,49.0525],[37.3435,49.0122],[37.3196,49.0059],[37.2918,48.9799],[37.3143,48.9265],[37.2659,48.9178],[37.2209,48.8976],[37.1861,48.8671],[37.1812,48.8315],[37.1289,48.8235],[37.1052,48.8406],[37.0744,48.8358],[37.0663,48.8149],[37.0246,48.8153],[36.9982,48.7945],[37.0336,48.7716],[37.0144,48.7596],[36.9031,48.7992],[36.8609,48.7954],[36.8254,48.7732],[36.7729,48.7745],[36.707,48.7892],[36.69,48.7775],[36.7093,48.7144],[36.7109,48.6496],[36.7254,48.6259],[36.6673,48.621],[36.6311,48.6033],[36.5761,48.6046],[36.5458,48.6265],[36.5014,48.6429],[36.455,48.6382],[36.3824,48.5805],[36.3659,48.5616],[36.3748,48.5416],[36.3422,48.5314],[36.3152,48.5406],[36.294,48.5272],[36.2728,48.5381],[36.2829,48.55],[36.3039,48.5748],[36.2668,48.6011],[36.2869,48.6311],[36.2709,48.647],[36.1328,48.7237],[36.1707,48.7577],[36.1254,48.7926],[36.0793,48.8145],[36.0721,48.8291],[36.0003,48.8544],[35.9669,48.8531],[36.022,48.9001],[35.9797,48.952],[35.9307,48.9764],[35.8337,48.9442],[35.7837,48.9345],[35.7111,48.9536],[35.6792,48.948],[35.6125,48.96],[35.586,48.9747],[35.5598,48.9716],[35.4564,48.9766],[35.4205,49.0002],[35.3613,49.022],[35.2842,49.077],[35.219,49.1115],[35.1989,49.1336],[35.1478,49.1534],[35.0643,49.1544],[35.0359,49.1635],[34.9839,49.1637],[34.9262,49.183],[34.8911,49.1483],[34.8573,49.1496],[34.8713,49.1687],[34.8367,49.1807],[34.7841,49.1746],[34.7265,49.146],[34.6098,49.1265],[34.4304,49.0746],[34.4083,49.0765],[34.4028,49.0501],[34.3505,49.0144],[34.3567,48.9861],[34.3252,48.9809],[34.3012,48.9639],[34.2743,48.9143],[34.2766,48.8884],[34.3127,48.8613],[34.3159,48.8396],[34.2782,48.8132],[34.2951,48.7844],[34.2375,48.7463],[34.162,48.7844],[34.1097,48.7902],[34.0749,48.805],[34.0402,48.8078],[33.9195,48.8658],[33.876,48.8974],[33.8074,48.9034],[33.7785,48.9225],[33.6946,48.9058],[33.6735,48.8691],[33.6516,48.8993],[33.597,48.9224],[33.5427,48.903],[33.4564,48.9417],[33.401,48.9535],[33.3757,48.9413],[33.2994,48.9955],[33.3226,49.0273],[33.346,49.0327],[33.2971,49.0649],[33.2041,49.0709],[33.142,49.1302],[33.0382,49.182],[32.7887,49.2618],[32.7527,49.1882],[32.7895,49.1468],[32.8013,49.074],[32.8247,49.0304],[32.8491,49.023],[32.8449,49.0012],[32.7824,48.9637],[32.7439,48.9656],[32.683,48.9863],[32.6343,48.946],[32.6003,48.9456],[32.5737,48.9576],[32.5513,48.9328],[32.5152,48.9313],[32.5015,48.9755],[32.463,49.0098],[32.4529,49.0561],[32.4208,49.0438],[32.3691,49.0458],[32.3319,49.0898],[32.3013,49.0779],[32.2795,49.0471],[32.2414,49.052],[32.1925,48.9998],[32.1494,48.9801],[32.1343,48.9583],[32.146,48.948],[32.1292,48.9125],[32.0518,48.9162],[32.0316,48.9278],[31.9528,48.9021],[31.8949,48.8618],[31.8748,48.8616],[31.8541,48.8983],[31.8102,48.9239],[31.7323,48.9426],[31.6895,48.9445],[31.6511,48.9174],[31.5441,48.9242],[31.5295,48.904],[31.5273,48.8352],[31.4812,48.8035],[31.4623,48.7611],[31.4417,48.751],[31.3329,48.7238],[31.3091,48.7428],[31.2237,48.7539],[31.1799,48.751],[31.116,48.7283],[31.0548,48.7282],[31.0205,48.7435],[30.9381,48.7562],[30.8122,48.7509],[30.7991,48.7604],[30.7023,48.7652],[30.6154,48.7222],[30.6014,48.6639],[30.5409,48.6193],[30.5775,48.6011],[30.5741,48.5652],[30.4844,48.5535],[30.4565,48.5708],[30.4147,48.5719],[30.393,48.5555],[30.3849,48.5305],[30.2552,48.4853],[30.2135,48.4819],[30.1744,48.4892],[30.1208,48.4564],[30.0761,48.4551],[30.0388,48.4277],[30.0046,48.4244],[29.9401,48.3756],[29.9124,48.4319],[29.8834,48.4326],[29.8586,48.4172],[29.7771,48.3476],[29.7754,48.3169],[29.7382,48.2701],[29.7866,48.25],[29.7748,48.2031],[29.7172,48.1817],[29.6825,48.1821],[29.6659,48.1689],[29.6975,48.1364],[29.6798,48.0922],[29.5855,48.0871],[29.4972,48.0928],[29.4347,48.1131],[29.3384,48.0862],[29.2463,48.0845],[29.1699,48.1057],[29.104,48.1436],[29.0783,48.1445],[29.0412,48.1282],[29.0461,48.0831],[28.9642,48.0358],[28.8798,48.0106],[28.8621,48.0005],[28.8826,47.9768],[28.9361,47.9422],[28.9808,47.9264],[29.0172,47.9311],[29.061,47.9698],[29.0927,47.9802],[29.124,47.976],[29.148,47.9554],[29.1646,47.9056],[29.1866,47.8836],[29.236,47.8707],[29.2328,47.8571],[29.1867,47.8182],[29.1778,47.7897],[29.222,47.7748],[29.2386,47.756],[29.197,47.7175],[29.1924,47.6509],[29.1821,47.6132],[29.1305,47.5596],[29.1174,47.5333],[29.1372,47.484],[29.1268,47.4656],[29.108,47.4694],[29.0901,47.4373],[29.0824,47.4064],[29.0514,47.3904],[29.0254,47.4009],[29.0084,47.3964],[28.9819,47.3633],[29.0217,47.3331],[29.0711,47.2958],[29.0737,47.2463],[29.1101,47.2336],[29.151,47.2448],[29.1633,47.2309],[29.1633,47.2308],[29.1789,47.1971],[29.1632,47.1919],[29.1444,47.1629],[29.1119,47.1499],[29.0691,47.1015],[29.0987,47.0921],[29.1243,47.0742],[29.1561,47.1136],[29.1892,47.1118],[29.1938,47.1238],[29.1789,47.1561],[29.2003,47.1631],[29.2267,47.1493],[29.2365,47.1624],[29.2922,47.1358],[29.2697,47.1289],[29.2535,47.1052],[29.2489,47.0645],[29.2545,46.9948],[29.2404,46.9763],[29.1818,47.0003],[29.1152,46.9869],[29.0868,47.0374],[29.0566,47.0425],[29.0279,47.0305],[29.0081,47.0076],[28.9744,47.0104],[28.9338,46.9966],[28.9081,46.9611],[28.9226,46.9289],[28.9505,46.9198],[28.9712,46.9411],[29.0412,46.9268],[29.0617,46.9146],[29.0429,46.8816],[29.0496,46.8601],[29.088,46.852],[29.0264,46.8178],[28.9712,46.8036],[28.9527,46.7892],[28.907,46.812],[28.8732,46.7936],[28.7801,46.7958],[28.7356,46.8233],[28.7324,46.7861],[28.7028,46.7794],[28.6213,46.7438],[28.6071,46.6995],[28.5837,46.6685],[28.5862,46.6468],[28.6025,46.633],[28.5897,46.6111],[28.5875,46.5817],[28.5734,46.5676],[28.5885,46.5323],[28.5856,46.5026],[28.5755,46.4859],[28.4721,46.4264],[28.4291,46.4351],[28.4102,46.4083],[28.3765,46.3886],[28.3383,46.3997],[28.3379,46.4206],[28.3205,46.4237],[28.2809,46.4121],[28.249,46.3887],[28.2268,46.3955],[28.2129,46.3887],[28.2071,46.3582],[28.1879,46.3438],[28.1929,46.3112],[28.1778,46.287],[28.1352,46.2693],[28.1321,46.2399],[28.109,46.2341],[28.1447,46.1832],[28.1105,46.1015],[28.1078,46.0961],[28.0845,46.0246],[28.0861,46.0006],[28.125,45.9184],[28.1174,45.8952],[28.1311,45.8714],[28.1105,45.8543],[28.1133,45.8254],[28.155,45.7618],[28.168,45.6325],[28.1208,45.6277],[28.0621,45.5936]]],[[[31.5044,46.3734],[31.522,46.3132],[31.5268,46.3077],[31.5271,46.3066],[31.5631,46.258],[31.6999,46.2146],[32.0095,46.1677],[32.1499,46.1538],[32.1498,46.1539],[32.1503,46.1538],[32.1496,46.154],[32.1501,46.154],[32.1494,46.1542],[32.1499,46.1542],[32.1498,46.1543],[32.1503,46.1542],[32.1354,46.1597],[32.1531,46.156],[32.0937,46.1751],[32.0135,46.2046],[31.6391,46.2723],[31.5851,46.3035],[31.5273,46.3566],[31.522,46.3685],[31.5111,46.3715],[31.5095,46.373],[31.5096,46.3725],[31.5091,46.373],[31.5092,46.3725],[31.5091,46.3726],[31.5093,46.372],[31.5044,46.3734]]]]}}
]}
