{
 "type": "FeatureCollection",
 "features": [
  {
   "type": "Feature",
   "properties": {
    "entityId": "seomjin-disputed",
    "from": 475,
    "to": 513,
    "certainty": "disputed",
    "source": "중고등학교 한국사 교과서 시대별 지도의 일반적인 경계를 따른 대략적인 추정. 운영자 검수 필요"
   },
   "geometry": {
    "type": "Polygon",
    "coordinates": [
     [
      [
       127.2,
       34.9
      ],
      [
       127.35,
       34.3
      ],
      [
       127.6,
       34.3
      ],
      [
       127.8,
       34.4
      ],
      [
       127.75,
       34.9
      ],
      [
       127.7,
       35.2
      ],
      [
       127.75,
       35.55
      ],
      [
       127.8357,
       35.85
      ],
      [
       127.25,
       35.85
      ],
      [
       127.2,
       35.4
      ],
      [
       127.2,
       34.9
      ]
     ]
    ]
   }
  }
 ]
}
