{"type":"FeatureCollection","features":[
{"type":"Feature","properties":{"entityId":"septinsular-republic","from":1801,"to":1807,"certainty":"estimated","source":"유럽 쪽은 Natural Earth 1:10m admin-1(v5.1.2) 현대 행정구역 조각을 그 시기 국경에 맞춰 묶고, 조각이 역사 경계와 다른 곳은 선을 그어 나눈 근사. 유럽 밖(시베리아·중앙아시아·극동)은 대략적인 추정. 운영자 검수 필요"},"geometry":{"type":"MultiPolygon","coordinates":[[[[20.9934,37.7087],[20.9934,37.7086],[20.9936,37.7084],[20.9938,37.7082],[20.9935,37.7083],[20.9963,37.6993],[20.9689,37.7154],[20.9228,37.7289],[20.9091,37.7311],[20.8447,37.6845],[20.8469,37.6533],[20.8151,37.6515],[20.7772,37.6863],[20.7044,37.7383],[20.7035,37.745],[20.6524,37.8016],[20.6424,37.8111],[20.6195,37.8228],[20.6195,37.8529],[20.619,37.854],[20.6191,37.8541],[20.619,37.8544],[20.6195,37.8549],[20.6195,37.8644],[20.66,37.9105],[20.6857,37.9296],[20.6907,37.9287],[20.691,37.929],[20.6912,37.9288],[20.6914,37.929],[20.6919,37.9284],[20.709,37.9252],[20.7291,37.8869],[20.7596,37.8528],[20.76,37.8526],[20.7961,37.8471],[20.8088,37.8496],[20.8357,37.841],[20.839,37.8405],[20.8405,37.8395],[20.8501,37.8364],[20.886,37.814],[20.8967,37.799],[20.9513,37.7482],[20.9868,37.7299],[20.9933,37.7091],[20.9938,37.7086],[20.9934,37.7087]]],[[[20.607,38.1188],[20.603,38.1183],[20.5693,38.0972],[20.565,38.0903],[20.5253,38.1051],[20.5218,38.1057],[20.5215,38.1065],[20.5098,38.1108],[20.4688,38.1928],[20.499,38.1777],[20.5001,38.1839],[20.4714,38.2185],[20.4536,38.234],[20.4347,38.2201],[20.436,38.2125],[20.4253,38.1753],[20.3801,38.1518],[20.374,38.169],[20.3454,38.1821],[20.339,38.2002],[20.3526,38.2218],[20.3526,38.2224],[20.3567,38.2305],[20.3538,38.2532],[20.3778,38.2726],[20.3922,38.3013],[20.3999,38.3641],[20.4067,38.3436],[20.4273,38.3633],[20.4334,38.3545],[20.4354,38.3561],[20.4356,38.3559],[20.4358,38.3561],[20.4825,38.318],[20.5182,38.3318],[20.547,38.3943],[20.5472,38.3976],[20.5378,38.4261],[20.5378,38.4739],[20.5603,38.4739],[20.5614,38.4759],[20.5616,38.4756],[20.5618,38.4759],[20.5629,38.4739],[20.5718,38.4739],[20.6091,38.3896],[20.6122,38.3839],[20.6124,38.382],[20.6258,38.3518],[20.6262,38.3284],[20.6198,38.3223],[20.6266,38.2676],[20.6517,38.2599],[20.6817,38.2821],[20.7044,38.2362],[20.7194,38.2196],[20.7513,38.1968],[20.761,38.1733],[20.7886,38.1426],[20.7886,38.1423],[20.7886,38.1422],[20.7885,38.1414],[20.7977,38.1313],[20.8078,38.0996],[20.7947,38.0661],[20.7336,38.0624],[20.6882,38.0933],[20.607,38.1188]]],[[[20.758,38.3292],[20.7637,38.3231],[20.7194,38.3156],[20.715,38.3203],[20.7094,38.3192],[20.7094,38.3193],[20.709,38.3192],[20.6935,38.3434],[20.6673,38.3715],[20.6476,38.4057],[20.6442,38.424],[20.6336,38.4518],[20.6145,38.4671],[20.6265,38.4705],[20.6226,38.4807],[20.6227,38.4807],[20.6226,38.4811],[20.6427,38.4839],[20.6545,38.5019],[20.6741,38.485],[20.6699,38.4771],[20.6734,38.4759],[20.7022,38.4516],[20.7022,38.4486],[20.709,38.4466],[20.7022,38.4329],[20.7022,38.4255],[20.713,38.3995],[20.7205,38.3897],[20.7575,38.3715],[20.7376,38.3715],[20.739,38.3651],[20.7598,38.33],[20.7596,38.33],[20.7598,38.3296],[20.758,38.3292]]],[[[20.7624,38.7325],[20.7871,38.7325],[20.7871,38.723],[20.8131,38.723],[20.8131,38.6827],[20.8391,38.6827],[20.8651,38.6827],[20.8911,38.6827],[20.8911,38.67],[20.9171,38.67],[20.9431,38.67],[20.9431,38.6729],[20.9691,38.6727],[20.9691,38.6424],[20.9624,38.6424],[20.9624,38.6055],[20.9891,38.6055],[20.9891,38.5685],[20.9624,38.5685],[20.9478,38.5685],[20.9478,38.5315],[20.9478,38.5129],[20.9066,38.5617],[20.8939,38.5565],[20.9031,38.5658],[20.9008,38.5685],[20.8823,38.5905],[20.8706,38.5825],[20.8701,38.6035],[20.8707,38.6042],[20.8384,38.6424],[20.8044,38.6827],[20.7871,38.7032],[20.7624,38.7325]]],[[[20.5789,38.9382],[20.605,38.9382],[20.631,38.9382],[20.657,38.9382],[20.657,38.8885],[20.683,38.8885],[20.683,38.8795],[20.709,38.8795],[20.709,38.8501],[20.7351,38.8501],[20.7351,38.8207],[20.7184,38.8207],[20.7266,38.7913],[20.7293,38.7817],[20.7292,38.7716],[20.7289,38.7306],[20.7184,38.7181],[20.718,38.6999],[20.7225,38.7073],[20.7207,38.6384],[20.6908,38.6122],[20.6878,38.6091],[20.6871,38.609],[20.6817,38.6042],[20.6679,38.6048],[20.6482,38.6005],[20.648,38.6005],[20.6478,38.6005],[20.6156,38.6057],[20.5834,38.6022],[20.5665,38.591],[20.5513,38.5695],[20.5449,38.5947],[20.5623,38.6912],[20.6026,38.7817],[20.6296,38.8124],[20.6334,38.8179],[20.6393,38.8204],[20.6686,38.8389],[20.631,38.8805],[20.6049,38.9094],[20.5789,38.9382]]],[[[19.9465,39.4269],[19.9118,39.4303],[19.9216,39.4408],[19.8846,39.4615],[19.8842,39.4622],[19.8656,39.4686],[19.8477,39.5097],[19.845,39.526],[19.809,39.5848],[19.7961,39.596],[19.7485,39.62],[19.7298,39.6535],[19.7068,39.6735],[19.6897,39.6741],[19.6743,39.6935],[19.6735,39.7024],[19.6571,39.7167],[19.6532,39.7147],[19.6525,39.7206],[19.647,39.7254],[19.647,39.7427],[19.6265,39.7482],[19.647,39.7673],[19.647,39.7675],[19.6474,39.7677],[19.6769,39.7952],[19.7047,39.7969],[19.7082,39.7987],[19.8378,39.8195],[19.8379,39.8195],[19.8382,39.8195],[19.8389,39.8192],[19.8518,39.8245],[19.8928,39.8034],[19.948,39.7904],[19.9354,39.7467],[19.9354,39.7466],[19.9353,39.7466],[19.9353,39.7464],[19.9354,39.7462],[19.9352,39.7461],[19.9338,39.7412],[19.9236,39.7374],[19.8634,39.6924],[19.8508,39.6753],[19.8587,39.6662],[19.8538,39.6614],[19.8765,39.6422],[19.9275,39.6253],[19.9235,39.6035],[19.903,39.6041],[19.903,39.6008],[19.9038,39.5978],[19.9119,39.5834],[19.9245,39.5192],[19.9282,39.5053],[19.957,39.4706],[20.029,39.4428],[20.0307,39.4425],[20.0741,39.449],[20.0921,39.4335],[20.1179,39.371],[20.1057,39.3647],[20.0324,39.395],[19.9993,39.3994],[19.9839,39.4086],[19.9746,39.4112],[19.9465,39.4269]]]]}}
]}
