{"type":"FeatureCollection","features":[
{"type":"Feature","properties":{"entityId":"serbia","from":1817,"to":1833,"certainty":"estimated","source":"유럽 쪽은 Natural Earth 1:10m admin-1(v5.1.2) 현대 행정구역 조각을 그 시기 국경에 맞춰 묶고, 조각이 역사 경계와 다른 곳은 선을 그어 나눈 근사. 유럽 밖(시베리아·중앙아시아·극동)은 대략적인 추정. 운영자 검수 필요"},"geometry":{"type":"Polygon","coordinates":[[[19.1072,44.3827],[19.1167,44.3437],[19.1389,44.3093],[19.1772,44.287],[19.2637,44.2702],[19.2959,44.2758],[19.3243,44.264],[19.354,44.2243],[19.3624,44.1912],[19.4426,44.1432],[19.4597,44.1527],[19.4764,44.127],[19.5162,44.0912],[19.5802,44.0515],[19.5989,44.0626],[19.6189,44.0357],[19.5934,44.0056],[19.5522,43.9834],[19.5041,43.9757],[19.4471,43.9798],[19.3646,43.9733],[19.2873,44.013],[19.2521,44.0075],[19.238,43.9925],[19.241,43.9524],[19.2754,43.9333],[19.3595,43.8422],[19.4617,43.7621],[19.5057,43.6736],[19.5073,43.6482],[19.7,43.6],[19.9,43.55],[19.9069,43.5466],[19.8936,43.5366],[19.9032,43.5205],[19.958,43.4924],[19.9995,43.484],[20.0118,43.4424],[20.0958,43.3368],[20.0933,43.3144],[20.1173,43.2984],[20.2419,43.3179],[20.2674,43.2985],[20.2851,43.2788],[20.3283,43.2607],[20.3345,43.2824],[20.369,43.3029],[20.4214,43.3501],[20.4155,43.3661],[20.45,43.35],[20.6616,43.209],[20.667,43.2097],[20.7453,43.2529],[20.7695,43.2608],[20.8097,43.2596],[20.8075,43.3013],[20.8365,43.3282],[20.8291,43.383],[20.7731,43.3887],[20.7693,43.413],[20.7812,43.4771],[20.7603,43.5092],[20.7946,43.5042],[20.8336,43.5148],[20.8528,43.499],[20.8889,43.4929],[20.9452,43.506],[20.919,43.5354],[20.9081,43.5643],[20.9153,43.5885],[20.9504,43.6093],[20.9162,43.6383],[20.8781,43.6445],[20.9148,43.6728],[20.9164,43.7269],[20.957,43.7282],[20.9883,43.7285],[21.0601,43.7137],[21.0947,43.7122],[21.1481,43.687],[21.137,43.7138],[21.1396,43.747],[21.1744,43.738],[21.2389,43.7692],[21.2419,43.8207],[21.2606,43.8409],[21.2752,43.8334],[21.2606,43.7709],[21.2834,43.7612],[21.3343,43.772],[21.3669,43.7647],[21.378,43.7286],[21.4001,43.7227],[21.4659,43.7494],[21.5473,43.7896],[21.6142,43.7916],[21.646,43.8029],[21.6895,43.8477],[21.6698,43.8668],[21.6804,43.8911],[21.724,43.9032],[21.7241,43.9246],[21.7767,43.9743],[21.7724,43.9918],[21.7901,44.0361],[21.8178,44.0656],[21.8546,44.0688],[21.903,44.0946],[21.9409,44.0959],[21.9608,44.1101],[21.9443,44.1411],[21.957,44.1533],[21.9581,44.1952],[21.9461,44.2279],[21.9142,44.2095],[21.8961,44.2228],[21.8944,44.2749],[21.8511,44.3031],[21.8157,44.2981],[21.8134,44.3254],[21.7964,44.3409],[21.7997,44.3638],[21.8269,44.3979],[21.8558,44.3967],[21.8847,44.4258],[21.9125,44.4257],[21.9247,44.4418],[21.9182,44.4673],[21.9348,44.4948],[21.9298,44.5144],[21.9534,44.5226],[21.9702,44.5462],[22.0362,44.5895],[22.0342,44.5962],[22.0043,44.6515],[21.8554,44.6985],[21.7568,44.6773],[21.7052,44.6771],[21.6563,44.6877],[21.6197,44.7139],[21.5956,44.766],[21.5584,44.7817],[21.4972,44.778],[21.3959,44.7902],[21.3598,44.8267],[21.2695,44.8137],[21.1888,44.7782],[21.1638,44.7478],[21.1123,44.7448],[21.0779,44.7265],[21.0368,44.722],[20.9896,44.7168],[20.8832,44.6727],[20.8265,44.6609],[20.7948,44.6647],[20.7636,44.6684],[20.7377,44.685],[20.72,44.685],[20.65,44.735],[20.6,44.785],[20.55,44.822],[20.5,44.832],[20.45,44.826],[20.42,44.805],[20.38,44.775],[20.33,44.73],[20.3,44.69],[20.2,44.675],[20.1,44.7],[20.0845,44.7047],[20.0455,44.6903],[19.9734,44.6412],[19.9404,44.6318],[19.9308,44.6593],[20.0101,44.6889],[19.9826,44.6959],[19.914,44.6954],[19.8463,44.7335],[19.7966,44.7516],[19.7453,44.7522],[19.7203,44.7645],[19.7006,44.8076],[19.7533,44.8921],[19.7569,44.9154],[19.6735,44.9345],[19.6447,44.9127],[19.6003,44.914],[19.5521,44.9005],[19.4992,44.9169],[19.4739,44.9014],[19.4061,44.9416],[19.3716,44.9139],[19.3249,44.9223],[19.357,44.8959],[19.3766,44.863],[19.3637,44.8546],[19.3284,44.734],[19.3084,44.7051],[19.2776,44.6849],[19.2557,44.6456],[19.1863,44.5693],[19.1796,44.5383],[19.1299,44.5183],[19.1434,44.4582],[19.1414,44.4308],[19.1072,44.3827]]]}},
{"type":"Feature","properties":{"entityId":"serbia","from":1833,"to":1878,"certainty":"estimated","source":"유럽 쪽은 Natural Earth 1:10m admin-1(v5.1.2) 현대 행정구역 조각을 그 시기 국경에 맞춰 묶고, 조각이 역사 경계와 다른 곳은 선을 그어 나눈 근사. 유럽 밖(시베리아·중앙아시아·극동)은 대략적인 추정. 운영자 검수 필요"},"geometry":{"type":"Polygon","coordinates":[[[19.1072,44.3827],[19.1167,44.3437],[19.1389,44.3093],[19.1772,44.287],[19.2637,44.2702],[19.2959,44.2758],[19.3243,44.264],[19.354,44.2243],[19.3624,44.1912],[19.4426,44.1432],[19.4597,44.1527],[19.4764,44.127],[19.5162,44.0912],[19.5802,44.0515],[19.5989,44.0626],[19.6189,44.0357],[19.5934,44.0056],[19.5522,43.9834],[19.5041,43.9757],[19.4471,43.9798],[19.3646,43.9733],[19.2873,44.013],[19.2521,44.0075],[19.238,43.9925],[19.241,43.9524],[19.2754,43.9333],[19.3595,43.8422],[19.4617,43.7621],[19.5057,43.6736],[19.5073,43.6482],[19.7,43.6],[19.9,43.55],[19.9069,43.5466],[19.8936,43.5366],[19.9032,43.5205],[19.958,43.4924],[19.9995,43.484],[20.0118,43.4424],[20.0958,43.3368],[20.0933,43.3144],[20.1173,43.2984],[20.2419,43.3179],[20.2674,43.2985],[20.2851,43.2788],[20.3283,43.2607],[20.3345,43.2824],[20.369,43.3029],[20.4214,43.3501],[20.4155,43.3661],[20.45,43.35],[20.6616,43.209],[20.667,43.2097],[20.7453,43.2529],[20.7695,43.2608],[20.8097,43.2596],[20.8384,43.2459],[20.8647,43.2173],[20.84,43.2121],[20.8386,43.1705],[20.9125,43.1388],[20.9549,43.1753],[20.949,43.2216],[20.968,43.2511],[21.032,43.2546],[21.0725,43.2359],[21.1341,43.2548],[21.1687,43.3037],[21.1939,43.3173],[21.202,43.3467],[21.289,43.3765],[21.337,43.3863],[21.3789,43.3779],[21.4159,43.3846],[21.4472,43.3668],[21.4694,43.3678],[21.5116,43.3807],[21.5548,43.4038],[21.5662,43.4266],[21.5426,43.4603],[21.5456,43.4837],[21.5663,43.5074],[21.514,43.5771],[21.481,43.5863],[21.5035,43.6275],[21.4824,43.6337],[21.4866,43.6536],[21.4718,43.6846],[21.5089,43.6985],[21.5013,43.7189],[21.4743,43.73],[21.4659,43.7494],[21.5473,43.7896],[21.6142,43.7916],[21.646,43.8029],[21.7039,43.7563],[21.6756,43.7428],[21.699,43.7198],[21.6838,43.7026],[21.6882,43.6704],[21.7049,43.6418],[21.7752,43.5755],[21.8118,43.5778],[21.8658,43.5691],[21.8835,43.5376],[21.9127,43.5136],[21.9866,43.5256],[21.9537,43.5465],[21.9551,43.571],[21.9773,43.57],[22.0232,43.5354],[22.0223,43.5198],[22.0565,43.4892],[22.0722,43.4928],[22.1661,43.4609],[22.212,43.4685],[22.2748,43.4388],[22.3035,43.4585],[22.3371,43.4434],[22.3515,43.4242],[22.3373,43.3824],[22.445,43.3447],[22.4899,43.3669],[22.5246,43.3354],[22.5807,43.3268],[22.5776,43.3407],[22.6224,43.3678],[22.6589,43.4013],[22.6285,43.4283],[22.5868,43.4344],[22.5658,43.4533],[22.5189,43.4742],[22.4785,43.5592],[22.4814,43.6006],[22.4729,43.6359],[22.4559,43.6564],[22.4265,43.6682],[22.3905,43.7124],[22.3885,43.7583],[22.3626,43.7808],[22.3495,43.8079],[22.3771,43.8835],[22.379,43.9135],[22.3945,43.9363],[22.3996,43.9933],[22.4118,44.0069],[22.4659,44.0176],[22.5037,44.0199],[22.5342,44.0572],[22.593,44.0639],[22.6047,44.0794],[22.5991,44.1303],[22.6062,44.1746],[22.6488,44.214],[22.6916,44.2284],[22.6895,44.2917],[22.6815,44.3053],[22.5828,44.3284],[22.5494,44.349],[22.5051,44.4041],[22.501,44.4419],[22.477,44.464],[22.4841,44.4998],[22.5355,44.5075],[22.5567,44.5215],[22.5656,44.5554],[22.6212,44.5692],[22.7001,44.5418],[22.7417,44.5519],[22.7652,44.5828],[22.7001,44.6306],[22.6212,44.6374],[22.5533,44.6692],[22.4837,44.724],[22.4261,44.7337],[22.3807,44.7005],[22.3197,44.6853],[22.1851,44.5151],[22.1482,44.5009],[22.1043,44.5096],[22.0763,44.5507],[22.0452,44.5692],[22.0362,44.5895],[22.0342,44.5962],[22.0043,44.6515],[21.8554,44.6985],[21.7568,44.6773],[21.7052,44.6771],[21.6563,44.6877],[21.6197,44.7139],[21.5956,44.766],[21.5584,44.7817],[21.4972,44.778],[21.3959,44.7902],[21.3598,44.8267],[21.2695,44.8137],[21.1888,44.7782],[21.1638,44.7478],[21.1123,44.7448],[21.0779,44.7265],[21.0368,44.722],[20.9896,44.7168],[20.8832,44.6727],[20.8265,44.6609],[20.7948,44.6647],[20.7636,44.6684],[20.7377,44.685],[20.72,44.685],[20.65,44.735],[20.6,44.785],[20.55,44.822],[20.5,44.832],[20.45,44.826],[20.42,44.805],[20.38,44.775],[20.33,44.73],[20.3,44.69],[20.2,44.675],[20.1,44.7],[20.0845,44.7047],[20.0455,44.6903],[19.9734,44.6412],[19.9404,44.6318],[19.9308,44.6593],[20.0101,44.6889],[19.9826,44.6959],[19.914,44.6954],[19.8463,44.7335],[19.7966,44.7516],[19.7453,44.7522],[19.7203,44.7645],[19.7006,44.8076],[19.7533,44.8921],[19.7569,44.9154],[19.6735,44.9345],[19.6447,44.9127],[19.6003,44.914],[19.5521,44.9005],[19.4992,44.9169],[19.4739,44.9014],[19.4061,44.9416],[19.3716,44.9139],[19.3249,44.9223],[19.357,44.8959],[19.3766,44.863],[19.3637,44.8546],[19.3284,44.734],[19.3084,44.7051],[19.2776,44.6849],[19.2557,44.6456],[19.1863,44.5693],[19.1796,44.5383],[19.1299,44.5183],[19.1434,44.4582],[19.1414,44.4308],[19.1072,44.3827]]]}},
{"type":"Feature","properties":{"entityId":"serbia","from":1878,"to":1913,"certainty":"estimated","source":"유럽 쪽은 Natural Earth 1:10m admin-1(v5.1.2) 현대 행정구역 조각을 그 시기 국경에 맞춰 묶고, 조각이 역사 경계와 다른 곳은 선을 그어 나눈 근사. 유럽 밖(시베리아·중앙아시아·극동)은 대략적인 추정. 운영자 검수 필요"},"geometry":{"type":"Polygon","coordinates":[[[19.1072,44.3827],[19.1167,44.3437],[19.1389,44.3093],[19.1772,44.287],[19.2637,44.2702],[19.2959,44.2758],[19.3243,44.264],[19.354,44.2243],[19.3624,44.1912],[19.4426,44.1432],[19.4597,44.1527],[19.4764,44.127],[19.5162,44.0912],[19.5802,44.0515],[19.5989,44.0626],[19.6189,44.0357],[19.5934,44.0056],[19.5522,43.9834],[19.5041,43.9757],[19.4471,43.9798],[19.3646,43.9733],[19.2873,44.013],[19.2521,44.0075],[19.238,43.9925],[19.241,43.9524],[19.2754,43.9333],[19.3595,43.8422],[19.4617,43.7621],[19.5057,43.6736],[19.5073,43.6482],[19.7,43.6],[19.9,43.55],[19.9069,43.5466],[19.8936,43.5366],[19.9032,43.5205],[19.958,43.4924],[19.9995,43.484],[20.0118,43.4424],[20.0958,43.3368],[20.0933,43.3144],[20.1173,43.2984],[20.2419,43.3179],[20.2674,43.2985],[20.2851,43.2788],[20.3283,43.2607],[20.3345,43.2824],[20.369,43.3029],[20.4214,43.3501],[20.4155,43.3661],[20.45,43.35],[20.6616,43.209],[20.667,43.2097],[20.7453,43.2529],[20.7695,43.2608],[20.8097,43.2596],[20.8384,43.2459],[20.8647,43.2173],[20.84,43.2121],[20.8386,43.1705],[20.9125,43.1388],[20.9934,43.1041],[21.0258,43.0934],[21.0926,43.0907],[21.1085,43.0816],[21.124,43.0583],[21.1393,43.0058],[21.1654,42.9851],[21.1931,42.9979],[21.2098,42.9959],[21.2253,42.9736],[21.2324,42.9109],[21.2605,42.8866],[21.295,42.8844],[21.3467,42.8608],[21.3989,42.8546],[21.4084,42.8417],[21.4083,42.8207],[21.3871,42.755],[21.3787,42.7441],[21.4055,42.7353],[21.4795,42.7323],[21.5652,42.7202],[21.6127,42.6804],[21.6441,42.6723],[21.6874,42.6868],[21.7443,42.6794],[21.7644,42.6696],[21.7671,42.6387],[21.7347,42.6242],[21.7202,42.5939],[21.7277,42.5741],[21.7177,42.5512],[21.6679,42.4901],[21.619,42.4492],[21.6219,42.4022],[21.6174,42.3866],[21.5966,42.3721],[21.5373,42.3586],[21.516,42.3419],[21.5149,42.3178],[21.5539,42.274],[21.5641,42.2463],[21.575,42.242],[21.6247,42.2428],[21.6769,42.2349],[21.7195,42.261],[21.8172,42.3051],[21.8844,42.3095],[21.9183,42.3313],[21.9415,42.3331],[21.995,42.3126],[22.0454,42.3024],[22.0609,42.3011],[22.0955,42.3058],[22.1381,42.3191],[22.2334,42.3489],[22.2598,42.3691],[22.2733,42.3655],[22.2769,42.3412],[22.3076,42.3193],[22.345,42.3134],[22.424,42.3259],[22.4698,42.3917],[22.5088,42.4049],[22.5365,42.4784],[22.5249,42.5077],[22.4253,42.5729],[22.4413,42.6329],[22.4421,42.6817],[22.4814,42.7398],[22.4531,42.7636],[22.4304,42.8171],[22.4814,42.8467],[22.506,42.8701],[22.5448,42.8717],[22.5909,42.8869],[22.6662,42.8719],[22.727,42.8869],[22.7396,42.8989],[22.7764,42.9797],[22.8288,42.9934],[22.8842,43.0367],[22.8967,43.0627],[22.9353,43.0856],[22.974,43.1412],[22.9829,43.1873],[22.9814,43.199],[22.9155,43.2122],[22.8838,43.2306],[22.8332,43.2746],[22.8045,43.329],[22.7243,43.3861],[22.6589,43.4013],[22.6285,43.4283],[22.5868,43.4344],[22.5658,43.4533],[22.5189,43.4742],[22.4785,43.5592],[22.4814,43.6006],[22.4729,43.6359],[22.4559,43.6564],[22.4265,43.6682],[22.3905,43.7124],[22.3885,43.7583],[22.3626,43.7808],[22.3495,43.8079],[22.3771,43.8835],[22.379,43.9135],[22.3945,43.9363],[22.3996,43.9933],[22.4118,44.0069],[22.4659,44.0176],[22.5037,44.0199],[22.5342,44.0572],[22.593,44.0639],[22.6047,44.0794],[22.5991,44.1303],[22.6062,44.1746],[22.6488,44.214],[22.6916,44.2284],[22.6895,44.2917],[22.6815,44.3053],[22.5828,44.3284],[22.5494,44.349],[22.5051,44.4041],[22.501,44.4419],[22.477,44.464],[22.4841,44.4998],[22.5355,44.5075],[22.5567,44.5215],[22.5656,44.5554],[22.6212,44.5692],[22.7001,44.5418],[22.7417,44.5519],[22.7652,44.5828],[22.7001,44.6306],[22.6212,44.6374],[22.5533,44.6692],[22.4837,44.724],[22.4261,44.7337],[22.3807,44.7005],[22.3197,44.6853],[22.1851,44.5151],[22.1482,44.5009],[22.1043,44.5096],[22.0763,44.5507],[22.0452,44.5692],[22.0362,44.5895],[22.0342,44.5962],[22.0043,44.6515],[21.8554,44.6985],[21.7568,44.6773],[21.7052,44.6771],[21.6563,44.6877],[21.6197,44.7139],[21.5956,44.766],[21.5584,44.7817],[21.4972,44.778],[21.3959,44.7902],[21.3598,44.8267],[21.2695,44.8137],[21.1888,44.7782],[21.1638,44.7478],[21.1123,44.7448],[21.0779,44.7265],[21.0368,44.722],[20.9896,44.7168],[20.8832,44.6727],[20.8265,44.6609],[20.7948,44.6647],[20.7636,44.6684],[20.7377,44.685],[20.72,44.685],[20.65,44.735],[20.6,44.785],[20.55,44.822],[20.5,44.832],[20.45,44.826],[20.42,44.805],[20.38,44.775],[20.33,44.73],[20.3,44.69],[20.2,44.675],[20.1,44.7],[20.0845,44.7047],[20.0455,44.6903],[19.9734,44.6412],[19.9404,44.6318],[19.9308,44.6593],[20.0101,44.6889],[19.9826,44.6959],[19.914,44.6954],[19.8463,44.7335],[19.7966,44.7516],[19.7453,44.7522],[19.7203,44.7645],[19.7006,44.8076],[19.7533,44.8921],[19.7569,44.9154],[19.6735,44.9345],[19.6447,44.9127],[19.6003,44.914],[19.5521,44.9005],[19.4992,44.9169],[19.4739,44.9014],[19.4061,44.9416],[19.3716,44.9139],[19.3249,44.9223],[19.357,44.8959],[19.3766,44.863],[19.3637,44.8546],[19.3284,44.734],[19.3084,44.7051],[19.2776,44.6849],[19.2557,44.6456],[19.1863,44.5693],[19.1796,44.5383],[19.1299,44.5183],[19.1434,44.4582],[19.1414,44.4308],[19.1072,44.3827]]]}},
{"type":"Feature","properties":{"entityId":"serbia","from":1913,"to":1918,"certainty":"estimated","source":"유럽 쪽은 Natural Earth 1:10m admin-1(v5.1.2) 현대 행정구역 조각을 그 시기 국경에 맞춰 묶고, 조각이 역사 경계와 다른 곳은 선을 그어 나눈 근사. 유럽 밖(시베리아·중앙아시아·극동)은 대략적인 추정. 운영자 검수 필요"},"geometry":{"type":"Polygon","coordinates":[[[19.1072,44.3827],[19.1167,44.3437],[19.1389,44.3093],[19.1772,44.287],[19.2637,44.2702],[19.2959,44.2758],[19.3243,44.264],[19.354,44.2243],[19.3624,44.1912],[19.4426,44.1432],[19.4597,44.1527],[19.4764,44.127],[19.5162,44.0912],[19.5802,44.0515],[19.5989,44.0626],[19.6189,44.0357],[19.5934,44.0056],[19.5522,43.9834],[19.5041,43.9757],[19.4471,43.9798],[19.3646,43.9733],[19.2873,44.013],[19.2521,44.0075],[19.238,43.9925],[19.241,43.9524],[19.2754,43.9333],[19.3595,43.8422],[19.4617,43.7621],[19.5057,43.6736],[19.5073,43.6482],[19.5074,43.6472],[19.4817,43.6289],[19.4756,43.6026],[19.4817,43.5608],[19.4318,43.5711],[19.4107,43.5408],[19.3805,43.5856],[19.3466,43.6088],[19.3009,43.5883],[19.2527,43.5886],[19.2175,43.5328],[19.1953,43.5328],[19.1752,43.5096],[19.1759,43.4809],[19.1922,43.4545],[19.2184,43.4382],[19.3556,43.3931],[19.414,43.3384],[19.4731,43.2933],[19.5124,43.2406],[19.5478,43.2188],[19.5809,43.1878],[19.6187,43.1682],[19.6846,43.1567],[19.7136,43.1656],[19.7428,43.1265],[19.7818,43.0965],[19.8051,43.09],[19.8722,43.0904],[19.9071,43.1133],[19.9292,43.1139],[19.9597,43.0786],[20.0199,43.0473],[20.0544,43.0222],[20.0563,43.0208],[20.1169,42.9767],[20.1295,42.9736],[20.1946,42.9668],[20.2232,42.9577],[20.2756,42.9299],[20.3371,42.907],[20.3536,42.891],[20.3552,42.8662],[20.3454,42.8274],[20.428,42.8406],[20.4763,42.8555],[20.4988,42.8779],[20.4944,42.8875],[20.5642,42.8824],[20.5921,42.8696],[20.6138,42.8493],[20.6307,42.8231],[20.6452,42.7881],[20.6406,42.7631],[20.6218,42.722],[20.6237,42.6972],[20.647,42.6747],[20.684,42.6629],[20.6964,42.6426],[20.7026,42.6199],[20.7361,42.6095],[20.7592,42.6094],[20.7162,42.5607],[20.6829,42.5607],[20.6171,42.5236],[20.541,42.5021],[20.5168,42.4905],[20.5063,42.469],[20.5104,42.4417],[20.5094,42.3782],[20.5327,42.3532],[20.5807,42.3284],[20.5981,42.3171],[20.5807,42.297],[20.5358,42.2811],[20.4737,42.2371],[20.5008,42.2112],[20.5386,42.1501],[20.5494,42.1235],[20.5522,42.0738],[20.5583,42.0551],[20.5897,41.9936],[20.5993,41.9479],[20.5625,41.9001],[20.5671,41.8732],[20.5417,41.8616],[20.5408,41.8449],[20.5501,41.8001],[20.5444,41.7848],[20.5113,41.7579],[20.5004,41.7341],[20.5083,41.6617],[20.5347,41.5873],[20.5293,41.5749],[20.5208,41.5684],[20.4929,41.5577],[20.4442,41.5497],[20.4479,41.5355],[20.445,41.5085],[20.452,41.4936],[20.4708,41.4838],[20.4816,41.4683],[20.4868,41.4578],[20.4909,41.436],[20.498,41.4315],[20.5222,41.4257],[20.539,41.4029],[20.5329,41.3704],[20.5104,41.3444],[20.4817,41.3412],[20.4781,41.3216],[20.4954,41.2503],[20.5001,41.2355],[20.5127,41.2101],[20.5497,41.1706],[20.5655,41.1474],[20.577,41.0935],[20.5974,41.0863],[20.643,41.0816],[20.6539,41.0753],[20.6641,41.0591],[20.7027,40.9363],[20.7172,40.9132],[20.7409,40.898],[20.7661,40.8937],[20.817,40.9202],[20.8365,40.9239],[20.8902,40.9183],[20.9399,40.9071],[20.9567,40.8948],[20.9653,40.8494],[21.1121,40.8539],[21.183,40.8702],[21.2458,40.8632],[21.2954,40.8609],[21.3449,40.8731],[21.3813,40.9005],[21.4294,40.909],[21.5057,40.9009],[21.5537,40.8704],[21.5816,40.8663],[21.6237,40.8944],[21.6439,40.8945],[21.6569,40.9182],[21.6851,40.928],[21.737,40.9192],[21.7571,40.9225],[21.7781,40.9337],[21.7837,40.9642],[21.8313,40.9935],[21.845,41.0124],[21.8807,41.0384],[21.8963,41.0647],[21.9012,41.0908],[21.9255,41.1068],[21.9651,41.1244],[22.0291,41.1386],[22.0482,41.1519],[22.1034,41.1215],[22.1603,41.1519],[22.2136,41.1607],[22.3026,41.1455],[22.3067,41.1284],[22.3802,41.1317],[22.4218,41.1146],[22.4675,41.115],[22.5007,41.1221],[22.5492,41.1185],[22.5866,41.1241],[22.6073,41.136],[22.6245,41.1526],[22.6259,41.1698],[22.6293,41.1771],[22.6445,41.1802],[22.6572,41.177],[22.6741,41.1566],[22.6919,41.1446],[22.7049,41.1397],[22.7158,41.1456],[22.7272,41.1658],[22.7367,41.2044],[22.7409,41.2836],[22.742,41.287],[22.7513,41.3152],[22.7623,41.3225],[22.7074,41.346],[22.6817,41.3436],[22.6613,41.316],[22.6461,41.3203],[22.6304,41.3113],[22.6024,41.3131],[22.5843,41.3326],[22.5362,41.3298],[22.5349,41.3445],[22.5168,41.3692],[22.532,41.3996],[22.522,41.4087],[22.493,41.4092],[22.4607,41.4286],[22.4458,41.446],[22.4526,41.4529],[22.4788,41.461],[22.5029,41.4567],[22.5089,41.4666],[22.5027,41.4847],[22.5037,41.5073],[22.4996,41.5256],[22.5035,41.5318],[22.5258,41.5384],[22.541,41.5498],[22.5567,41.5427],[22.5861,41.5209],[22.5957,41.5227],[22.6057,41.5337],[22.6066,41.5508],[22.599,41.5769],[22.5781,41.5969],[22.5805,41.6092],[22.5966,41.6292],[22.6292,41.6341],[22.632,41.6167],[22.6451,41.628],[22.6567,41.6297],[22.671,41.6183],[22.6829,41.6159],[22.6909,41.6064],[22.6882,41.5865],[22.6758,41.5826],[22.6763,41.5741],[22.6981,41.5746],[22.7281,41.5694],[22.7385,41.5684],[22.7485,41.5518],[22.7718,41.5365],[22.8012,41.5327],[22.8352,41.5313],[22.8533,41.5171],[22.8581,41.5171],[22.9256,41.5189],[22.9436,41.5232],[22.9487,41.561],[22.9337,41.5846],[22.933,41.6123],[22.9409,41.6376],[22.967,41.647],[22.9854,41.6772],[22.9986,41.6931],[23.0096,41.7164],[23.0089,41.7399],[22.9912,41.761],[22.9569,41.7657],[22.9397,41.7767],[22.9183,41.8143],[22.9077,41.8486],[22.9014,41.8604],[22.8821,41.8716],[22.8771,41.902],[22.8589,41.9479],[22.8548,41.9826],[22.8456,42.0074],[22.827,42.0251],[22.7989,42.0212],[22.7809,42.0432],[22.7251,42.0425],[22.7057,42.0559],[22.6759,42.0606],[22.6272,42.0791],[22.6178,42.0827],[22.5311,42.1291],[22.5069,42.1489],[22.4814,42.1933],[22.4436,42.2144],[22.345,42.3134],[22.424,42.3259],[22.4698,42.3917],[22.5088,42.4049],[22.5365,42.4784],[22.5249,42.5077],[22.4253,42.5729],[22.4413,42.6329],[22.4421,42.6817],[22.4814,42.7398],[22.4531,42.7636],[22.4304,42.8171],[22.4814,42.8467],[22.506,42.8701],[22.5448,42.8717],[22.5909,42.8869],[22.6662,42.8719],[22.727,42.8869],[22.7396,42.8989],[22.7764,42.9797],[22.8288,42.9934],[22.8842,43.0367],[22.8967,43.0627],[22.9353,43.0856],[22.974,43.1412],[22.9829,43.1873],[22.9814,43.199],[22.9155,43.2122],[22.8838,43.2306],[22.8332,43.2746],[22.8045,43.329],[22.7243,43.3861],[22.6589,43.4013],[22.6285,43.4283],[22.5868,43.4344],[22.5658,43.4533],[22.5189,43.4742],[22.4785,43.5592],[22.4814,43.6006],[22.4729,43.6359],[22.4559,43.6564],[22.4265,43.6682],[22.3905,43.7124],[22.3885,43.7583],[22.3626,43.7808],[22.3495,43.8079],[22.3771,43.8835],[22.379,43.9135],[22.3945,43.9363],[22.3996,43.9933],[22.4118,44.0069],[22.4659,44.0176],[22.5037,44.0199],[22.5342,44.0572],[22.593,44.0639],[22.6047,44.0794],[22.5991,44.1303],[22.6062,44.1746],[22.6488,44.214],[22.6916,44.2284],[22.6895,44.2917],[22.6815,44.3053],[22.5828,44.3284],[22.5494,44.349],[22.5051,44.4041],[22.501,44.4419],[22.477,44.464],[22.4841,44.4998],[22.5355,44.5075],[22.5567,44.5215],[22.5656,44.5554],[22.6212,44.5692],[22.7001,44.5418],[22.7417,44.5519],[22.7652,44.5828],[22.7001,44.6306],[22.6212,44.6374],[22.5533,44.6692],[22.4837,44.724],[22.4261,44.7337],[22.3807,44.7005],[22.3197,44.6853],[22.1851,44.5151],[22.1482,44.5009],[22.1043,44.5096],[22.0763,44.5507],[22.0452,44.5692],[22.0362,44.5895],[22.0342,44.5962],[22.0043,44.6515],[21.8554,44.6985],[21.7568,44.6773],[21.7052,44.6771],[21.6563,44.6877],[21.6197,44.7139],[21.5956,44.766],[21.5584,44.7817],[21.4972,44.778],[21.3959,44.7902],[21.3598,44.8267],[21.2695,44.8137],[21.1888,44.7782],[21.1638,44.7478],[21.1123,44.7448],[21.0779,44.7265],[21.0368,44.722],[20.9896,44.7168],[20.8832,44.6727],[20.8265,44.6609],[20.7948,44.6647],[20.7636,44.6684],[20.7377,44.685],[20.72,44.685],[20.65,44.735],[20.6,44.785],[20.55,44.822],[20.5,44.832],[20.45,44.826],[20.42,44.805],[20.38,44.775],[20.33,44.73],[20.3,44.69],[20.2,44.675],[20.1,44.7],[20.0845,44.7047],[20.0455,44.6903],[19.9734,44.6412],[19.9404,44.6318],[19.9308,44.6593],[20.0101,44.6889],[19.9826,44.6959],[19.914,44.6954],[19.8463,44.7335],[19.7966,44.7516],[19.7453,44.7522],[19.7203,44.7645],[19.7006,44.8076],[19.7533,44.8921],[19.7569,44.9154],[19.6735,44.9345],[19.6447,44.9127],[19.6003,44.914],[19.5521,44.9005],[19.4992,44.9169],[19.4739,44.9014],[19.4061,44.9416],[19.3716,44.9139],[19.3249,44.9223],[19.357,44.8959],[19.3766,44.863],[19.3637,44.8546],[19.3284,44.734],[19.3084,44.7051],[19.2776,44.6849],[19.2557,44.6456],[19.1863,44.5693],[19.1796,44.5383],[19.1299,44.5183],[19.1434,44.4582],[19.1414,44.4308],[19.1072,44.3827]]]}}
]}
