{"type":"FeatureCollection","features":[
{"type":"Feature","properties":{"entityId":"serbia-occupied","from":1941,"to":1944,"certainty":"estimated","source":"유럽 쪽은 Natural Earth 1:10m admin-1(v5.1.2) 현대 행정구역 조각을 그 시기 국경에 맞춰 묶고, 조각이 역사 경계와 다른 곳은 선을 그어 나눈 근사. 유럽 밖(시베리아·중앙아시아·극동)은 대략적인 추정. 운영자 검수 필요"},"geometry":{"type":"Polygon","coordinates":[[[20.0634,46.1453],[20.0886,46.1541],[20.1148,46.1522],[20.1454,46.1371],[20.1885,46.1404],[20.2428,46.1081],[20.3057,46.0536],[20.3386,45.9928],[20.371,45.9678],[20.4291,45.9467],[20.4817,45.9127],[20.538,45.9037],[20.5721,45.8877],[20.6053,45.8461],[20.6297,45.8333],[20.6435,45.7951],[20.6881,45.7431],[20.7134,45.7333],[20.7652,45.7668],[20.7857,45.7526],[20.78,45.6717],[20.7544,45.6056],[20.758,45.5893],[20.8002,45.5305],[20.7976,45.5165],[20.7607,45.4933],[20.7671,45.4793],[20.816,45.4629],[20.863,45.4187],[20.9276,45.3775],[20.9662,45.3416],[21.0167,45.3215],[21.064,45.3063],[21.0916,45.2881],[21.1394,45.3037],[21.2061,45.2459],[21.2571,45.2241],[21.2993,45.2232],[21.4055,45.1997],[21.4594,45.174],[21.4844,45.1527],[21.4941,45.1193],[21.4424,45.0929],[21.4438,45.0729],[21.4219,45.0314],[21.3634,45.0165],[21.3535,44.9898],[21.3839,44.9867],[21.4084,44.9583],[21.4565,44.9523],[21.5163,44.9339],[21.5391,44.9085],[21.5221,44.8808],[21.4534,44.8696],[21.3953,44.8716],[21.3685,44.8649],[21.3428,44.8319],[21.3598,44.8267],[21.3959,44.7902],[21.4972,44.778],[21.5584,44.7817],[21.5956,44.766],[21.6197,44.7139],[21.6563,44.6877],[21.7052,44.6771],[21.7568,44.6773],[21.8554,44.6985],[22.0043,44.6515],[22.0342,44.5962],[22.0362,44.5895],[22.0452,44.5692],[22.0763,44.5507],[22.1043,44.5096],[22.1482,44.5009],[22.1851,44.5151],[22.3197,44.6853],[22.3807,44.7005],[22.4261,44.7337],[22.4837,44.724],[22.5533,44.6692],[22.6212,44.6374],[22.7001,44.6306],[22.7652,44.5828],[22.7417,44.5519],[22.7001,44.5418],[22.6212,44.5692],[22.5656,44.5554],[22.5567,44.5215],[22.5355,44.5075],[22.4841,44.4998],[22.477,44.464],[22.501,44.4419],[22.5051,44.4041],[22.5494,44.349],[22.5828,44.3284],[22.6815,44.3053],[22.6895,44.2917],[22.6916,44.2284],[22.6488,44.214],[22.6062,44.1746],[22.5991,44.1303],[22.6047,44.0794],[22.593,44.0639],[22.5342,44.0572],[22.5037,44.0199],[22.4659,44.0176],[22.4118,44.0069],[22.3996,43.9933],[22.3945,43.9363],[22.379,43.9135],[22.3771,43.8835],[22.3495,43.8079],[22.3626,43.7808],[22.3885,43.7583],[22.3905,43.7124],[22.4265,43.6682],[22.4559,43.6564],[22.4729,43.6359],[22.4814,43.6006],[22.4785,43.5592],[22.5189,43.4742],[22.5658,43.4533],[22.5868,43.4344],[22.6285,43.4283],[22.6589,43.4013],[22.6224,43.3678],[22.5776,43.3407],[22.5807,43.3268],[22.5246,43.3354],[22.4899,43.3669],[22.445,43.3447],[22.3373,43.3824],[22.3283,43.3281],[22.2554,43.3195],[22.206,43.3381],[22.1649,43.3437],[22.1374,43.3369],[22.1612,43.2599],[22.1451,43.2576],[22.1136,43.2029],[22.1741,43.1805],[22.2341,43.1484],[22.2605,43.1515],[22.2956,43.1099],[22.2466,43.0907],[22.234,43.074],[22.257,43.0585],[22.2024,43.0222],[22.2044,43.0132],[22.2556,42.9929],[22.2892,42.991],[22.39,42.956],[22.4014,42.9426],[22.3592,42.9296],[22.4138,42.8932],[22.4654,42.8781],[22.5448,42.8717],[22.506,42.8701],[22.4814,42.8467],[22.4304,42.8171],[22.3849,42.804],[22.361,42.7815],[22.2868,42.7459],[22.2563,42.7465],[22.1735,42.7885],[22.1714,42.8003],[22.1149,42.7909],[22.1045,42.8204],[22.0238,42.8042],[21.9897,42.816],[21.9671,42.789],[21.8916,42.7827],[21.8228,42.7714],[21.7849,42.7304],[21.7864,42.7073],[21.7443,42.6794],[21.6874,42.6868],[21.6441,42.6723],[21.6127,42.6804],[21.5652,42.7202],[21.4795,42.7323],[21.4055,42.7353],[21.3787,42.7441],[21.3871,42.755],[21.4083,42.8207],[21.4084,42.8417],[21.3989,42.8546],[21.3467,42.8608],[21.295,42.8844],[21.2605,42.8866],[21.2324,42.9109],[21.2253,42.9736],[21.2098,42.9959],[21.1931,42.9979],[21.1654,42.9851],[21.1393,43.0058],[21.124,43.0583],[21.1085,43.0816],[21.0926,43.0907],[21.0258,43.0934],[20.9934,43.1041],[20.9125,43.1388],[20.8386,43.1705],[20.84,43.2121],[20.8647,43.2173],[20.8384,43.2459],[20.8097,43.2596],[20.7695,43.2608],[20.7453,43.2529],[20.667,43.2097],[20.6123,43.2023],[20.5975,43.185],[20.6321,43.1173],[20.6692,43.1098],[20.6649,43.0854],[20.6438,43.0523],[20.6173,43.0221],[20.5964,43.0071],[20.5624,43.0095],[20.5305,42.9752],[20.4764,42.9664],[20.4595,42.95],[20.451,42.922],[20.4889,42.8992],[20.4944,42.8875],[20.4988,42.8779],[20.4763,42.8555],[20.428,42.8406],[20.3454,42.8274],[20.3552,42.8662],[20.3536,42.891],[20.3371,42.907],[20.2756,42.9299],[20.2232,42.9577],[20.1946,42.9668],[20.1295,42.9736],[20.1169,42.9767],[20.0563,43.0208],[20.0544,43.0222],[20.0199,43.0473],[19.9597,43.0786],[19.9292,43.1139],[19.9071,43.1133],[19.8722,43.0904],[19.8051,43.09],[19.7818,43.0965],[19.7428,43.1265],[19.7136,43.1656],[19.6846,43.1567],[19.6187,43.1682],[19.5809,43.1878],[19.5478,43.2188],[19.5124,43.2406],[19.4731,43.2933],[19.414,43.3384],[19.3556,43.3931],[19.2184,43.4382],[19.1922,43.4545],[19.1759,43.4809],[19.1752,43.5096],[19.1953,43.5328],[19.2175,43.5328],[19.2527,43.5886],[19.3009,43.5883],[19.3466,43.6088],[19.3805,43.5856],[19.4107,43.5408],[19.4318,43.5711],[19.4817,43.5608],[19.4756,43.6026],[19.4817,43.6289],[19.5074,43.6472],[19.5057,43.6736],[19.4617,43.7621],[19.3595,43.8422],[19.2754,43.9333],[19.241,43.9524],[19.238,43.9925],[19.2521,44.0075],[19.2873,44.013],[19.3646,43.9733],[19.4471,43.9798],[19.5041,43.9757],[19.5522,43.9834],[19.5934,44.0056],[19.6189,44.0357],[19.5989,44.0626],[19.5802,44.0515],[19.5162,44.0912],[19.4764,44.127],[19.4597,44.1527],[19.4426,44.1432],[19.3624,44.1912],[19.354,44.2243],[19.3243,44.264],[19.2959,44.2758],[19.2637,44.2702],[19.1772,44.287],[19.1389,44.3093],[19.1167,44.3437],[19.1072,44.3827],[19.1414,44.4308],[19.1434,44.4582],[19.1299,44.5183],[19.1796,44.5383],[19.1863,44.5693],[19.2557,44.6456],[19.2776,44.6849],[19.3084,44.7051],[19.3284,44.734],[19.3637,44.8546],[19.3766,44.863],[19.357,44.8959],[19.3249,44.9223],[19.3716,44.9139],[19.4061,44.9416],[19.4739,44.9014],[19.4992,44.9169],[19.5521,44.9005],[19.6003,44.914],[19.6447,44.9127],[19.6735,44.9345],[19.7569,44.9154],[19.7533,44.8921],[19.7006,44.8076],[19.7203,44.7645],[19.7453,44.7522],[19.7966,44.7516],[19.8463,44.7335],[19.914,44.6954],[19.9826,44.6959],[20.0101,44.6889],[19.9308,44.6593],[19.9404,44.6318],[19.9734,44.6412],[20.0455,44.6903],[20.0941,44.7082],[20.1065,44.7607],[20.084,44.7687],[20.0889,44.7896],[20.1217,44.7974],[20.136,44.8442],[20.1636,44.8921],[20.2008,44.8929],[20.2388,44.9142],[20.3247,44.9292],[20.2907,44.9775],[20.3569,45.0345],[20.339,45.0803],[20.2778,45.141],[20.2888,45.1837],[20.3165,45.1957],[20.3014,45.2585],[20.2524,45.287],[20.2361,45.3064],[20.264,45.3406],[20.2019,45.3952],[20.2298,45.443],[20.2065,45.4656],[20.113,45.5272],[20.0989,45.5492],[20.1262,45.587],[20.1113,45.6019],[20.0629,45.6034],[20.1019,45.6531],[20.1049,45.6746],[20.092,45.7174],[20.1142,45.7243],[20.0825,45.7477],[20.0041,45.7547],[19.9466,45.7696],[19.8606,45.7722],[19.8346,45.8279],[19.8132,45.8277],[19.7938,45.8712],[19.7649,45.9024],[19.8056,45.9196],[19.7992,45.9874],[19.8088,46.0176],[19.8464,46.049],[19.8593,46.0949],[19.8515,46.1174],[19.8802,46.1423],[19.8736,46.153],[19.9292,46.1635],[19.9931,46.1594],[20.035,46.143],[20.0634,46.1453]]]}}
]}
