{"type":"FeatureCollection","features":[
{"type":"Feature","properties":{"entityId":"serbia-grand-principality","from":1200,"to":1217,"certainty":"estimated","source":"유럽 쪽은 Natural Earth 1:10m admin-1(v5.1.2) 현대 행정구역 조각을 그 시기 국경에 맞춰 묶고, 조각이 역사 경계와 다른 곳은 선을 그어 나눈 근사. 유럽 밖(시베리아·중앙아시아·극동)은 대략적인 추정. 운영자 검수 필요"},"geometry":{"type":"Polygon","coordinates":[[[17.0623,43.5277],[17.1428,43.4893],[17.2395,43.4784],[17.2705,43.4632],[17.2864,43.4374],[17.2676,43.3533],[17.2899,43.3034],[17.3287,43.2604],[17.4002,43.216],[17.4268,43.1657],[17.4509,43.1482],[17.4063,43.1418],[17.3531,43.1568],[17.4063,43.1005],[17.3654,43.0792],[17.3588,43.0857],[17.3588,43.063],[17.3292,43.063],[17.3292,43.0764],[17.2262,43.0764],[17.2262,43.064],[17.1747,43.064],[17.1747,43.0569],[17.2262,43.0249],[17.2274,43.0241],[17.2258,43.0242],[17.221,43.0259],[17.2094,43.0259],[17.1587,43.031],[17.15,43.0303],[17.15,43.025],[17.4,43],[17.5,42.96],[17.62,42.97],[17.6523,43.0055],[17.6593,42.9934],[17.6627,42.9657],[17.6345,42.9504],[17.5807,42.9421],[17.587,42.9387],[17.587,42.9283],[17.5612,42.9338],[17.5612,42.9471],[17.5354,42.9538],[17.5354,42.9272],[17.5733,42.9272],[17.587,42.921],[17.587,42.9005],[17.6127,42.893],[17.6385,42.8854],[17.6385,42.8976],[17.6533,42.8909],[17.6795,42.9157],[17.7016,42.9195],[17.7867,42.9014],[17.8118,42.9099],[17.8262,42.8886],[17.8272,42.8531],[17.8585,42.817],[17.9045,42.8045],[17.9719,42.755],[18.2241,42.6281],[18.3116,42.6012],[18.3387,42.6025],[18.3698,42.5744],[18.4374,42.5592],[18.442,42.543],[18.4364,42.5108],[18.4371,42.4934],[18.4443,42.4779],[18.4677,42.4534],[18.4929,42.4424],[18.4964,42.4163],[18.5103,42.4053],[18.5197,42.4332],[18.5476,42.4291],[18.5452,42.4236],[18.553,42.4136],[18.5781,42.4004],[18.5706,42.393],[18.5949,42.3837],[18.6167,42.3681],[18.6384,42.3703],[18.6532,42.3663],[18.6535,42.3674],[18.7141,42.3377],[18.7145,42.3253],[18.7295,42.3116],[18.7625,42.2912],[18.7786,42.2715],[18.7887,42.276],[18.8136,42.2891],[18.8256,42.2832],[18.8314,42.2775],[18.8332,42.2795],[18.8946,42.2495],[18.9001,42.2449],[18.9017,42.2375],[18.9133,42.2222],[18.9465,42.2038],[18.9811,42.1637],[19.0157,42.1237],[19.0539,42.0795],[19.0976,42.0289],[19.1075,42.0174],[19.161,41.9555],[19.1616,41.9553],[19.1623,41.9479],[19.1703,41.938],[19.2202,41.9189],[19.2679,41.9071],[19.3394,41.8702],[19.3469,41.864],[19.3651,41.8524],[19.3929,41.859],[19.4396,41.8147],[19.468,41.7877],[19.4964,41.7877],[19.4964,41.7848],[19.5223,41.7848],[19.5223,41.8382],[19.5295,41.8357],[19.5266,41.8469],[19.4662,41.8826],[19.4732,41.9139],[19.5474,41.8899],[19.5732,41.9028],[19.5601,41.9387],[19.5913,41.9436],[19.6254,41.9337],[19.6309,41.9104],[19.6754,41.9144],[19.7229,41.8953],[19.751,41.9116],[19.7393,41.9378],[19.7955,41.9465],[19.8415,41.9371],[19.8731,41.9617],[19.9017,41.9689],[19.9433,41.9116],[19.9349,41.8866],[19.9532,41.8762],[20.005,41.88],[20.0236,41.9035],[20.0703,41.9326],[20.0882,41.9631],[20.1723,41.9999],[20.2126,42.0282],[20.1741,42.0581],[20.1428,42.0533],[20.163,42.0818],[20.1593,42.1043],[20.1934,42.1388],[20.2325,42.1604],[20.2356,42.1924],[20.1816,42.2156],[20.1505,42.2156],[20.0369,42.2565],[20.0004,42.262],[19.9834,42.2497],[19.9241,42.2517],[19.87,42.223],[19.8239,42.2345],[19.8306,42.2764],[19.8102,42.3398],[19.8099,42.385],[19.7892,42.4141],[19.8291,42.4687],[19.8733,42.4868],[19.9075,42.5064],[19.9563,42.5053],[19.9818,42.5108],[20.0177,42.5462],[20.0392,42.5578],[20.065,42.5468],[20.0856,42.53],[20.1355,42.5096],[20.1527,42.4934],[20.1808,42.4431],[20.1997,42.4278],[20.1975,42.3874],[20.2212,42.3637],[20.2296,42.3267],[20.2496,42.3186],[20.3334,42.3179],[20.457,42.2505],[20.4737,42.2371],[20.5008,42.2112],[20.5386,42.1501],[20.5494,42.1235],[20.5522,42.0738],[20.5583,42.0551],[20.5897,41.9936],[20.5993,41.9479],[20.5625,41.9001],[20.5671,41.8732],[20.5903,41.8547],[20.6187,41.8505],[20.637,41.8704],[20.6528,41.8693],[20.6815,41.844],[20.7144,41.8592],[20.7233,41.8666],[20.74,41.888],[20.7511,41.9102],[20.7544,41.9309],[20.7514,41.9403],[20.7418,41.9708],[20.7431,41.9935],[20.7554,42.0428],[20.7654,42.0643],[20.7849,42.082],[20.8105,42.0929],[20.9042,42.1167],[20.9751,42.1347],[21.0039,42.142],[21.0292,42.1514],[21.0409,42.16],[21.0744,42.1845],[21.0985,42.196],[21.1264,42.1889],[21.1644,42.167],[21.1999,42.1412],[21.2293,42.1038],[21.2457,42.0962],[21.2889,42.0897],[21.2993,42.0914],[21.3008,42.0984],[21.3003,42.1209],[21.295,42.149],[21.3538,42.216],[21.3606,42.2201],[21.3843,42.2249],[21.4191,42.215],[21.4298,42.2158],[21.4199,42.2401],[21.4363,42.2469],[21.4572,42.237],[21.472,42.2391],[21.4815,42.2478],[21.4993,42.2387],[21.5199,42.239],[21.5641,42.2463],[21.575,42.242],[21.6247,42.2428],[21.6769,42.2349],[21.7195,42.261],[21.8172,42.3051],[21.8844,42.3095],[21.9183,42.3313],[21.9415,42.3331],[21.995,42.3126],[22.0454,42.3024],[22.0609,42.3011],[22.0955,42.3058],[22.1381,42.3191],[22.2334,42.3489],[22.2598,42.3691],[22.2733,42.3655],[22.2769,42.3412],[22.3076,42.3193],[22.345,42.3134],[22.424,42.3259],[22.4698,42.3917],[22.5088,42.4049],[22.5365,42.4784],[22.5249,42.5077],[22.4253,42.5729],[22.4413,42.6329],[22.4421,42.6817],[22.4814,42.7398],[22.4531,42.7636],[22.4304,42.8171],[22.4814,42.8467],[22.506,42.8701],[22.5448,42.8717],[22.4654,42.8781],[22.4138,42.8932],[22.3592,42.9296],[22.4014,42.9426],[22.39,42.956],[22.2892,42.991],[22.2556,42.9929],[22.2044,43.0132],[22.2024,43.0222],[22.257,43.0585],[22.234,43.074],[22.2466,43.0907],[22.2956,43.1099],[22.2605,43.1515],[22.2341,43.1484],[22.1741,43.1805],[22.1136,43.2029],[22.1451,43.2576],[22.1612,43.2599],[22.1374,43.3369],[22.1649,43.3437],[22.206,43.3381],[22.2554,43.3195],[22.3283,43.3281],[22.3373,43.3824],[22.3515,43.4242],[22.3371,43.4434],[22.3035,43.4585],[22.2748,43.4388],[22.212,43.4685],[22.1661,43.4609],[22.0722,43.4928],[22.0565,43.4892],[22.0223,43.5198],[22.0232,43.5354],[21.9773,43.57],[21.9551,43.571],[21.9537,43.5465],[21.9866,43.5256],[21.9127,43.5136],[21.8835,43.5376],[21.8658,43.5691],[21.8118,43.5778],[21.7752,43.5755],[21.7049,43.6418],[21.6882,43.6704],[21.6838,43.7026],[21.699,43.7198],[21.6756,43.7428],[21.7039,43.7563],[21.646,43.8029],[21.6895,43.8477],[21.6698,43.8668],[21.6804,43.8911],[21.724,43.9032],[21.7241,43.9246],[21.7767,43.9743],[21.7724,43.9918],[21.7901,44.0361],[21.8178,44.0656],[21.7731,44.0705],[21.7412,44.0887],[21.6936,44.0826],[21.6441,44.1124],[21.5881,44.1125],[21.5546,44.1209],[21.5465,44.1394],[21.4878,44.1817],[21.4676,44.1786],[21.434,44.1947],[21.3937,44.1808],[21.3612,44.1809],[21.3683,44.2125],[21.3445,44.222],[21.3259,44.256],[21.2927,44.2757],[21.2669,44.2387],[21.2275,44.2466],[21.211,44.2681],[21.1561,44.2882],[21.134,44.2866],[21.1683,44.2507],[21.1472,44.2439],[21.1547,44.1954],[21.1392,44.1833],[21.0849,44.2018],[21.0515,44.1999],[20.9775,44.2319],[20.9739,44.259],[20.904,44.2419],[20.8398,44.26],[20.8163,44.2576],[20.8232,44.284],[20.772,44.2978],[20.7314,44.3227],[20.6846,44.3347],[20.6498,44.3218],[20.623,44.3398],[20.6065,44.3737],[20.5431,44.3556],[20.5379,44.3857],[20.4838,44.3989],[20.4422,44.4189],[20.4095,44.4026],[20.3996,44.3821],[20.4312,44.3603],[20.4003,44.3247],[20.3891,44.2943],[20.4154,44.2841],[20.4231,44.2418],[20.3975,44.2046],[20.3791,44.2],[20.3685,44.1737],[20.3396,44.1682],[20.328,44.1472],[20.2885,44.1229],[20.2292,44.1116],[20.1743,44.1113],[20.1291,44.0967],[20.1246,44.0737],[20.062,44.0853],[20.0095,44.1042],[19.9778,44.0756],[19.9508,44.0793],[19.9061,44.1029],[19.9082,44.1212],[19.861,44.1288],[19.8264,44.1053],[19.796,44.1213],[19.7739,44.1124],[19.8064,44.0835],[19.8109,44.0602],[19.7812,44.0535],[19.7413,44.1045],[19.6755,44.1251],[19.6593,44.1374],[19.6182,44.1437],[19.6093,44.1233],[19.546,44.1138],[19.5162,44.0912],[19.4764,44.127],[19.4597,44.1527],[19.4426,44.1432],[19.3624,44.1912],[19.354,44.2243],[19.3243,44.264],[19.2959,44.2758],[19.2637,44.2702],[19.1772,44.287],[19.1389,44.3093],[19.1167,44.3437],[19.1072,44.3827],[19.1414,44.4308],[19.1434,44.4582],[19.1299,44.5183],[19.1796,44.5383],[19.1472,44.575],[19.0993,44.5942],[19.0311,44.5675],[19.0284,44.4902],[19.0199,44.4759],[18.9226,44.4265],[18.8382,44.4165],[18.8067,44.3736],[18.7538,44.3578],[18.7452,44.3407],[18.7523,44.2992],[18.7824,44.2462],[18.7924,44.2148],[18.7867,44.1804],[18.7631,44.1488],[18.7366,44.1203],[18.9084,44.092],[19.0057,44.0474],[19.1274,43.9987],[19.225,43.9215],[19.2166,43.9055],[19.2247,43.8527],[19.2207,43.8162],[19.2409,43.7757],[19.2207,43.7514],[19.1761,43.7554],[19.1436,43.7716],[19.0706,43.7838],[19.0017,43.7676],[18.9497,43.742],[18.9726,43.7248],[19.0284,43.7176],[19.0456,43.7019],[19.0571,43.6733],[19.0513,43.659],[19.0199,43.6547],[18.9626,43.6175],[18.8854,43.5917],[18.7609,43.576],[18.6937,43.5832],[18.6493,43.5989],[18.583,43.6367],[18.5527,43.6171],[18.4684,43.6139],[18.4294,43.5879],[18.3904,43.5939],[18.3827,43.5883],[18.3029,43.6021],[18.2896,43.5743],[18.2618,43.578],[18.1977,43.6046],[18.182,43.6542],[18.1493,43.6771],[18.0961,43.6747],[18.0587,43.6809],[18.0345,43.7063],[18.0069,43.7747],[17.9437,43.7763],[17.9158,43.7981],[17.8905,43.8368],[17.8119,43.8392],[17.7551,43.8175],[17.7163,43.8139],[17.6425,43.8393],[17.5967,43.8477],[17.5251,43.8369],[17.4593,43.8604],[17.4656,43.8428],[17.418,43.8586],[17.3835,43.8415],[17.3809,43.7819],[17.3915,43.7449],[17.4445,43.7395],[17.5305,43.6504],[17.5265,43.619],[17.4987,43.5872],[17.3915,43.574],[17.2988,43.5383],[17.2724,43.5383],[17.2538,43.5595],[17.23,43.5647],[17.1691,43.5462],[17.1175,43.5462],[17.0623,43.5277]]]}}
]}
