{"type":"FeatureCollection","features":[
{"type":"Feature","properties":{"entityId":"serbian-empire","from":1346,"to":1348,"certainty":"estimated","source":"유럽 쪽은 Natural Earth 1:10m admin-1(v5.1.2) 현대 행정구역 조각을 그 시기 국경에 맞춰 묶고, 조각이 역사 경계와 다른 곳은 선을 그어 나눈 근사. 유럽 밖(시베리아·중앙아시아·극동)은 대략적인 추정. 운영자 검수 필요"},"geometry":{"type":"MultiPolygon","coordinates":[[[[17.9913,43.1291],[18.0399,43.1204],[18.0556,43.1089],[18.0428,43.0424],[18.0156,43.0123],[18.0141,42.9666],[18.0399,42.8851],[18.059,42.8604],[18.0885,42.8451],[18.203,42.7663],[18.2159,42.7463],[18.3462,42.6491],[18.3733,42.6433],[18.3698,42.5744],[18.4374,42.5592],[18.442,42.543],[18.4364,42.5108],[18.4371,42.4934],[18.4443,42.4779],[18.4677,42.4534],[18.4929,42.4424],[18.4964,42.4163],[18.5103,42.4053],[18.5197,42.4332],[18.5476,42.4291],[18.5452,42.4236],[18.553,42.4136],[18.5781,42.4004],[18.5706,42.393],[18.5949,42.3837],[18.6167,42.3681],[18.6384,42.3703],[18.6532,42.3663],[18.6535,42.3674],[18.7141,42.3377],[18.7145,42.3253],[18.7295,42.3116],[18.7625,42.2912],[18.7786,42.2715],[18.7887,42.276],[18.8136,42.2891],[18.8256,42.2832],[18.8314,42.2775],[18.8332,42.2795],[18.8946,42.2495],[18.9001,42.2449],[18.9017,42.2375],[18.9133,42.2222],[18.9465,42.2038],[18.9811,42.1637],[19.0157,42.1237],[19.0539,42.0795],[19.0976,42.0289],[19.1075,42.0174],[19.161,41.9555],[19.1616,41.9553],[19.1623,41.9479],[19.1703,41.938],[19.2202,41.9189],[19.2679,41.9071],[19.3394,41.8702],[19.3469,41.864],[19.3651,41.8524],[19.3929,41.859],[19.4396,41.8147],[19.468,41.7877],[19.4964,41.7608],[19.5038,41.7537],[19.5366,41.7226],[19.5389,41.7204],[19.5078,41.6496],[19.4917,41.6131],[19.5455,41.6131],[19.5455,41.5806],[19.5564,41.5831],[19.591,41.5683],[19.6375,41.5852],[19.6858,41.5581],[19.7452,41.5659],[19.7738,41.59],[19.8099,41.5681],[19.8362,41.5667],[19.8717,41.5333],[19.9111,41.5098],[19.9622,41.4821],[20.0001,41.4271],[20.0641,41.3893],[20.1084,41.4031],[20.16,41.3645],[20.2357,41.3444],[20.2226,41.3265],[20.1689,41.3153],[20.1366,41.2972],[20.1201,41.2732],[20.0692,41.252],[20.0356,41.2543],[19.9712,41.1948],[19.8577,41.159],[19.8337,41.1433],[19.8415,41.1285],[19.809,41.1216],[19.7462,41.1218],[19.7345,41.1022],[19.7029,41.0873],[19.692,41.0537],[19.6709,41.0566],[19.5971,41.0693],[19.5542,41.0477],[19.5106,41.0464],[19.5013,41.0361],[19.4678,41.0467],[19.448,41.0093],[19.4749,40.9958],[19.4748,40.9951],[19.4301,40.9951],[19.4301,40.9905],[19.3514,40.9905],[19.3349,40.8549],[19.3194,40.7271],[19.3194,40.7267],[19.329,40.6741],[19.3047,40.6526],[19.3404,40.6112],[19.3784,40.4017],[19.3325,40.4389],[19.2896,40.4272],[19.3408,40.3776],[19.3466,40.3679],[19.3651,40.3174],[19.3811,40.2952],[19.4009,40.2782],[19.4058,40.2511],[19.9199,39.9387],[19.9265,39.9285],[19.9064,39.9127],[19.9412,39.899],[19.9541,39.8862],[19.9637,39.8714],[19.9753,39.7302],[19.9776,39.7021],[19.9782,39.6943],[20.003,39.6843],[20.003,39.6928],[19.9998,39.6935],[20.0161,39.7014],[20.0893,39.6828],[20.1638,39.6443],[20.1999,39.6401],[20.2042,39.6603],[20.246,39.6629],[20.249,39.6848],[20.2827,39.7044],[20.2995,39.7282],[20.2757,39.7601],[20.273,39.7965],[20.2996,39.8051],[20.3716,39.7843],[20.389,39.7981],[20.393,39.8355],[20.3469,39.8943],[20.318,39.9184],[20.303,39.9791],[20.31,39.9899],[20.3765,39.9937],[20.4004,40.0453],[20.4328,40.0638],[20.466,40.0608],[20.4999,40.0715],[20.5778,40.0673],[20.6154,40.081],[20.6476,40.094],[20.6682,40.1381],[20.6599,40.1727],[20.6853,40.1912],[20.6964,40.2151],[20.6946,40.2556],[20.707,40.2881],[20.7396,40.3092],[20.7732,40.299],[20.8064,40.3199],[20.8439,40.3266],[20.8784,40.2653],[20.9208,40.225],[20.9479,40.1809],[20.9608,40.1384],[20.9323,40.087],[20.9482,40.077],[20.9611,40.0345],[20.9879,40.0068],[21.027,40.0215],[21.0429,40.0115],[21.0403,39.9817],[21.0139,39.941],[21.0453,39.9182],[21.0588,39.862],[21.0779,39.8325],[21.0949,39.8277],[21.1892,39.8496],[21.2249,39.8482],[21.2906,39.8186],[21.2912,39.8048],[21.3217,39.7958],[21.3834,39.8158],[21.4067,39.8404],[21.4655,39.8635],[21.6134,39.8485],[21.7133,39.8282],[21.7489,39.8266],[21.8237,39.8394],[21.8762,39.8329],[21.892,39.8556],[21.8792,39.9119],[21.8465,39.9269],[21.9144,39.9733],[21.9541,39.9903],[21.9841,40.0441],[22.0323,40.082],[22.0948,40.1674],[22.1024,40.1527],[22.1324,40.1736],[22.1846,40.1643],[22.1716,40.1386],[22.172,40.1084],[22.1965,40.0888],[22.2549,40.139],[22.2973,40.1501],[22.3375,40.1203],[22.3348,40.0768],[22.3463,40.0479],[22.3765,40.0222],[22.4441,39.9861],[22.4662,39.9558],[22.4968,39.9327],[22.5343,39.9224],[22.6139,39.9394],[22.6471,39.9269],[22.7096,39.935],[22.7098,39.9378],[22.71,39.9475],[22.7105,39.9475],[22.7159,40.022],[22.7065,40.0471],[22.632,40.2463],[22.6283,40.2563],[22.7422,40.3901],[22.75,40.5],[22.75,40.75],[23.2,40.82],[23.65,40.85],[23.9373,40.8021],[23.9429,40.8031],[23.8572,40.7883],[23.8543,40.7812],[23.8635,40.7796],[23.8635,40.718],[23.8978,40.7254],[23.9665,40.7402],[23.9863,40.7322],[24.0731,40.7214],[24.1101,40.7279],[24.2959,40.8112],[24.6124,40.8794],[24.6287,40.8586],[24.6619,40.8791],[24.6798,40.8694],[24.6907,40.8682],[24.7284,40.8527],[24.7539,40.8614],[24.79,40.8575],[24.802,40.8535],[24.8297,40.8768],[24.8342,40.8791],[24.82,40.95],[24.8,41.08],[24.75,41.15],[24.7,41.25],[24.65,41.4],[24.6471,41.4172],[24.6382,41.4177],[24.6443,41.4277],[24.5958,41.4298],[24.5811,41.4602],[24.5494,41.4854],[24.5309,41.5475],[24.5102,41.5617],[24.4592,41.5495],[24.4388,41.5277],[24.3539,41.5191],[24.2868,41.5176],[24.2864,41.5404],[24.2507,41.5635],[24.1977,41.5477],[24.0779,41.624],[24.1231,41.6546],[24.0726,41.6863],[24.042,41.7104],[23.9282,41.769],[23.9055,41.7965],[23.8682,41.7954],[23.8217,41.8238],[23.7957,41.8609],[23.7896,41.906],[23.7625,41.9399],[23.7666,41.9765],[23.7919,42.0207],[23.8205,42.0453],[23.8013,42.0627],[23.8133,42.0962],[23.8096,42.1329],[23.7726,42.1582],[23.7631,42.1776],[23.718,42.1605],[23.6984,42.1668],[23.6002,42.1509],[23.5808,42.1144],[23.5475,42.0841],[23.4936,42.0991],[23.5298,42.1352],[23.4733,42.1464],[23.4281,42.1869],[23.339,42.1732],[23.3246,42.1957],[23.3684,42.2446],[23.3993,42.2621],[23.3276,42.3172],[23.2939,42.3736],[23.2157,42.3732],[23.1879,42.3706],[23.1312,42.385],[23.1028,42.4032],[23.0902,42.376],[23.0001,42.3968],[22.9173,42.3888],[22.8775,42.3641],[22.8501,42.3602],[22.7653,42.4188],[22.7132,42.474],[22.7163,42.5059],[22.6988,42.5254],[22.6691,42.5192],[22.6484,42.5544],[22.6122,42.5921],[22.599,42.6204],[22.5685,42.6324],[22.4413,42.6329],[22.4421,42.6817],[22.4814,42.7398],[22.4531,42.7636],[22.4304,42.8171],[22.4814,42.8467],[22.506,42.8701],[22.5448,42.8717],[22.4654,42.8781],[22.4138,42.8932],[22.3592,42.9296],[22.4014,42.9426],[22.39,42.956],[22.2892,42.991],[22.2556,42.9929],[22.2044,43.0132],[22.2024,43.0222],[22.257,43.0585],[22.234,43.074],[22.2466,43.0907],[22.2956,43.1099],[22.2605,43.1515],[22.2341,43.1484],[22.1741,43.1805],[22.1136,43.2029],[22.1451,43.2576],[22.1612,43.2599],[22.1374,43.3369],[22.1649,43.3437],[22.206,43.3381],[22.2554,43.3195],[22.3283,43.3281],[22.3373,43.3824],[22.3515,43.4242],[22.3371,43.4434],[22.3035,43.4585],[22.2748,43.4388],[22.212,43.4685],[22.1661,43.4609],[22.0722,43.4928],[22.0565,43.4892],[22.0223,43.5198],[22.0232,43.5354],[21.9773,43.57],[21.9551,43.571],[21.9537,43.5465],[21.9866,43.5256],[21.9127,43.5136],[21.8835,43.5376],[21.8658,43.5691],[21.8118,43.5778],[21.7752,43.5755],[21.7049,43.6418],[21.6882,43.6704],[21.6838,43.7026],[21.699,43.7198],[21.6756,43.7428],[21.7039,43.7563],[21.646,43.8029],[21.6895,43.8477],[21.6698,43.8668],[21.6804,43.8911],[21.724,43.9032],[21.7241,43.9246],[21.7767,43.9743],[21.7724,43.9918],[21.7901,44.0361],[21.8178,44.0656],[21.8546,44.0688],[21.903,44.0946],[21.9409,44.0959],[21.9608,44.1101],[21.9443,44.1411],[21.957,44.1533],[21.9581,44.1952],[21.9461,44.2279],[21.9142,44.2095],[21.8961,44.2228],[21.8944,44.2749],[21.8511,44.3031],[21.8157,44.2981],[21.8134,44.3254],[21.7964,44.3409],[21.7997,44.3638],[21.8269,44.3979],[21.8558,44.3967],[21.8847,44.4258],[21.9125,44.4257],[21.9247,44.4418],[21.9182,44.4673],[21.9348,44.4948],[21.9298,44.5144],[21.9534,44.5226],[21.9702,44.5462],[22.0362,44.5895],[22.0342,44.5962],[22.0043,44.6515],[21.8554,44.6985],[21.7568,44.6773],[21.7052,44.6771],[21.6563,44.6877],[21.6197,44.7139],[21.5956,44.766],[21.5584,44.7817],[21.4972,44.778],[21.3959,44.7902],[21.3598,44.8267],[21.2695,44.8137],[21.1888,44.7782],[21.1638,44.7478],[21.1123,44.7448],[21.0779,44.7265],[21.0368,44.722],[20.9896,44.7168],[20.8832,44.6727],[20.8265,44.6609],[20.7948,44.6647],[20.7715,44.6163],[20.7815,44.5876],[20.8064,44.5632],[20.7371,44.533],[20.7641,44.496],[20.8211,44.464],[20.8376,44.4415],[20.8191,44.4159],[20.7759,44.4228],[20.7567,44.416],[20.7315,44.3785],[20.7579,44.3511],[20.787,44.3448],[20.7676,44.3312],[20.772,44.2978],[20.7314,44.3227],[20.6846,44.3347],[20.6498,44.3218],[20.623,44.3398],[20.6065,44.3737],[20.5431,44.3556],[20.5379,44.3857],[20.4838,44.3989],[20.4422,44.4189],[20.4095,44.4026],[20.3996,44.3821],[20.4312,44.3603],[20.4003,44.3247],[20.3891,44.2943],[20.3602,44.2907],[20.3242,44.255],[20.2883,44.2562],[20.2616,44.2448],[20.2103,44.2867],[20.1881,44.3233],[20.1915,44.3551],[20.2258,44.4077],[20.2176,44.4787],[20.1766,44.5423],[20.1516,44.5058],[20.1254,44.4957],[20.0951,44.526],[20.0434,44.5072],[19.9939,44.5206],[19.9696,44.5398],[19.9711,44.5648],[19.9612,44.5937],[19.9734,44.6412],[19.9404,44.6318],[19.9308,44.6593],[20.0101,44.6889],[19.9826,44.6959],[19.914,44.6954],[19.8463,44.7335],[19.7966,44.7516],[19.7453,44.7522],[19.7203,44.7645],[19.7006,44.8076],[19.7533,44.8921],[19.7569,44.9154],[19.6735,44.9345],[19.6447,44.9127],[19.6003,44.914],[19.5521,44.9005],[19.4992,44.9169],[19.4739,44.9014],[19.4061,44.9416],[19.3716,44.9139],[19.3249,44.9223],[19.357,44.8959],[19.3766,44.863],[19.3637,44.8546],[19.3284,44.734],[19.3084,44.7051],[19.2776,44.6849],[19.2557,44.6456],[19.1863,44.5693],[19.1796,44.5383],[19.1472,44.575],[19.0993,44.5942],[19.0311,44.5675],[19.0284,44.4902],[19.0199,44.4759],[18.9226,44.4265],[18.8382,44.4165],[18.8067,44.3736],[18.7538,44.3578],[18.7452,44.3407],[18.7523,44.2992],[18.7824,44.2462],[18.7924,44.2148],[18.7867,44.1804],[18.7631,44.1488],[18.7366,44.1203],[18.9084,44.092],[19.0057,44.0474],[19.1274,43.9987],[19.225,43.9215],[19.2166,43.9055],[19.2247,43.8527],[19.2207,43.8162],[19.2409,43.7757],[19.2207,43.7514],[19.1761,43.7554],[19.1436,43.7716],[19.0706,43.7838],[19.0017,43.7676],[18.9497,43.742],[18.9726,43.7248],[19.0284,43.7176],[19.0456,43.7019],[19.0571,43.6733],[19.0513,43.659],[19.0199,43.6547],[18.9626,43.6175],[18.8854,43.5917],[18.7609,43.576],[18.6937,43.5832],[18.6493,43.5989],[18.583,43.6367],[18.5527,43.6171],[18.4684,43.6139],[18.4294,43.5879],[18.3904,43.5939],[18.3827,43.5883],[18.3705,43.5567],[18.3947,43.4523],[18.3904,43.4381],[18.3561,43.4381],[18.2573,43.4451],[18.1701,43.4423],[18.0299,43.4451],[18.0227,43.4237],[18.0471,43.3951],[18.0513,43.3621],[18.0571,43.2077],[17.9913,43.1561],[17.9913,43.1291]]],[[[24.512,40.6668],[24.5146,40.6519],[24.5142,40.6476],[24.5142,40.6472],[24.5155,40.6465],[24.5168,40.6391],[24.5402,40.634],[24.6114,40.5978],[24.6423,40.5706],[24.6639,40.5839],[24.7738,40.6142],[24.7738,40.6146],[24.7735,40.618],[24.7824,40.6202],[24.7705,40.6556],[24.7702,40.6595],[24.7789,40.6813],[24.7864,40.6879],[24.7831,40.6918],[24.7882,40.7045],[24.7881,40.7047],[24.7882,40.7049],[24.7738,40.7309],[24.7703,40.7345],[24.7864,40.7351],[24.7492,40.7562],[24.7412,40.7644],[24.7317,40.7835],[24.7213,40.785],[24.7198,40.7865],[24.702,40.7878],[24.6746,40.7917],[24.6423,40.8039],[24.6255,40.7932],[24.6226,40.7934],[24.6222,40.7934],[24.5862,40.7691],[24.5843,40.7669],[24.5667,40.7556],[24.5334,40.7182],[24.5234,40.6942],[24.5178,40.6875],[24.517,40.6789],[24.512,40.6668]]],[[[25.4435,40.4819],[25.4663,40.4558],[25.5326,40.415],[25.5661,40.405],[25.5727,40.4007],[25.573,40.4008],[25.5731,40.4007],[25.5772,40.4017],[25.5891,40.3981],[25.6826,40.4231],[25.6837,40.4265],[25.6847,40.4267],[25.6845,40.4271],[25.6847,40.4271],[25.6842,40.428],[25.6907,40.4477],[25.6887,40.475],[25.6565,40.4962],[25.5759,40.5147],[25.5715,40.5148],[25.5695,40.5157],[25.5692,40.5156],[25.5691,40.5157],[25.5661,40.5149],[25.5466,40.5153],[25.5021,40.4976],[25.4467,40.4827],[25.447,40.4825],[25.4469,40.4825],[25.4471,40.4824],[25.4467,40.4823],[25.4474,40.4818],[25.4435,40.4819]]]]}},
{"type":"Feature","properties":{"entityId":"serbian-empire","from":1348,"to":1356,"certainty":"estimated","source":"유럽 쪽은 Natural Earth 1:10m admin-1(v5.1.2) 현대 행정구역 조각을 그 시기 국경에 맞춰 묶고, 조각이 역사 경계와 다른 곳은 선을 그어 나눈 근사. 유럽 밖(시베리아·중앙아시아·극동)은 대략적인 추정. 운영자 검수 필요"},"geometry":{"type":"MultiPolygon","coordinates":[[[[17.9913,43.1291],[18.0399,43.1204],[18.0556,43.1089],[18.0428,43.0424],[18.0156,43.0123],[18.0141,42.9666],[18.0399,42.8851],[18.059,42.8604],[18.0885,42.8451],[18.203,42.7663],[18.2159,42.7463],[18.3462,42.6491],[18.3733,42.6433],[18.3698,42.5744],[18.4374,42.5592],[18.442,42.543],[18.4364,42.5108],[18.4371,42.4934],[18.4443,42.4779],[18.4677,42.4534],[18.4929,42.4424],[18.4964,42.4163],[18.5103,42.4053],[18.5197,42.4332],[18.5476,42.4291],[18.5452,42.4236],[18.553,42.4136],[18.5781,42.4004],[18.5706,42.393],[18.5949,42.3837],[18.6167,42.3681],[18.6384,42.3703],[18.6532,42.3663],[18.6535,42.3674],[18.7141,42.3377],[18.7145,42.3253],[18.7295,42.3116],[18.7625,42.2912],[18.7786,42.2715],[18.7887,42.276],[18.8136,42.2891],[18.8256,42.2832],[18.8314,42.2775],[18.8332,42.2795],[18.8946,42.2495],[18.9001,42.2449],[18.9017,42.2375],[18.9133,42.2222],[18.9465,42.2038],[18.9811,42.1637],[19.0157,42.1237],[19.0539,42.0795],[19.0976,42.0289],[19.1075,42.0174],[19.161,41.9555],[19.1616,41.9553],[19.1623,41.9479],[19.1703,41.938],[19.2202,41.9189],[19.2679,41.9071],[19.3394,41.8702],[19.3469,41.864],[19.3651,41.8524],[19.3929,41.859],[19.4396,41.8147],[19.468,41.7877],[19.4964,41.7608],[19.5038,41.7537],[19.5366,41.7226],[19.5389,41.7204],[19.5078,41.6496],[19.4917,41.6131],[19.5455,41.6131],[19.5455,41.5806],[19.5564,41.5831],[19.591,41.5683],[19.6375,41.5852],[19.6858,41.5581],[19.7452,41.5659],[19.7738,41.59],[19.8099,41.5681],[19.8362,41.5667],[19.8717,41.5333],[19.9111,41.5098],[19.9622,41.4821],[20.0001,41.4271],[20.0641,41.3893],[20.1084,41.4031],[20.16,41.3645],[20.2357,41.3444],[20.2226,41.3265],[20.1689,41.3153],[20.1366,41.2972],[20.1201,41.2732],[20.0692,41.252],[20.0356,41.2543],[19.9712,41.1948],[19.8577,41.159],[19.8337,41.1433],[19.8415,41.1285],[19.809,41.1216],[19.7462,41.1218],[19.7345,41.1022],[19.7029,41.0873],[19.692,41.0537],[19.6709,41.0566],[19.5971,41.0693],[19.5542,41.0477],[19.5106,41.0464],[19.5013,41.0361],[19.4678,41.0467],[19.448,41.0093],[19.4749,40.9958],[19.4748,40.9951],[19.4301,40.9951],[19.4301,40.9905],[19.3514,40.9905],[19.3349,40.8549],[19.3194,40.7271],[19.3194,40.7267],[19.329,40.6741],[19.3047,40.6526],[19.3404,40.6112],[19.3784,40.4017],[19.3325,40.4389],[19.2896,40.4272],[19.3408,40.3776],[19.3466,40.3679],[19.3651,40.3174],[19.3811,40.2952],[19.4009,40.2782],[19.4058,40.2511],[19.9199,39.9387],[19.9265,39.9285],[19.9064,39.9127],[19.9412,39.899],[19.9541,39.8862],[19.9637,39.8714],[19.9753,39.7302],[19.9776,39.7021],[19.9782,39.6943],[20.003,39.6843],[20.0285,39.6741],[20.0817,39.6527],[20.084,39.6518],[20.1006,39.6403],[20.1624,39.5747],[20.1625,39.5742],[20.1467,39.5707],[20.1336,39.5297],[20.1727,39.5297],[20.2158,39.3405],[20.5789,38.9382],[20.657,38.9382],[20.657,38.9],[20.6134,38.9],[20.631,38.8805],[20.6686,38.8389],[20.6393,38.8204],[20.6334,38.8179],[20.6296,38.8124],[20.6026,38.7817],[20.5623,38.6912],[20.5449,38.5947],[20.5513,38.5695],[20.5665,38.591],[20.5834,38.6022],[20.6156,38.6057],[20.6478,38.6005],[20.6482,38.6005],[20.6679,38.6048],[20.6817,38.6042],[20.6871,38.609],[20.6878,38.6091],[20.6908,38.6122],[20.7207,38.6384],[20.7225,38.7073],[20.718,38.6999],[20.7184,38.7181],[20.7289,38.7306],[20.7292,38.7716],[20.7306,38.7701],[20.7375,38.7619],[20.7624,38.7325],[20.7871,38.7032],[20.8044,38.6827],[20.8384,38.6424],[20.8707,38.6042],[20.8701,38.6035],[20.8706,38.5825],[20.8823,38.5905],[20.9,38.5695],[20.9,38.67],[20.9431,38.67],[20.9431,38.6729],[20.9691,38.6727],[20.9691,38.6424],[20.9624,38.6424],[20.9624,38.6055],[20.9891,38.6055],[20.9891,38.5685],[20.9478,38.5685],[20.9478,38.5129],[20.9633,38.4945],[21.0882,38.3466],[21.0852,38.3436],[21.0914,38.3428],[21.1194,38.3097],[21.1441,38.2165],[21.35,38.24],[21.6,38.3],[21.78,38.32],[21.8,38.34],[21.84,38.34],[21.87,38.32],[22.0908,38.32],[22.0908,38.3542],[22.0242,38.3542],[22.0242,38.3585],[21.9575,38.3585],[21.9575,38.3686],[21.8909,38.3686],[21.8909,38.3623],[21.8576,38.3623],[21.8576,38.3866],[21.8512,38.388],[21.8551,38.4241],[21.8757,38.4543],[21.9168,38.4819],[21.9534,38.4882],[21.9827,38.5091],[21.9787,38.5397],[21.9954,38.5676],[21.9656,38.5933],[21.9783,38.619],[21.9744,38.6496],[21.987,38.6753],[21.9825,38.7032],[21.9984,38.7427],[21.958,38.7692],[21.8609,38.7295],[21.8086,38.7332],[21.8036,38.6929],[21.7451,38.6674],[21.737,38.6957],[21.6475,38.6904],[21.5607,38.731],[21.5306,38.773],[21.5368,38.8023],[21.6114,38.8369],[21.6108,38.8506],[21.5233,38.8722],[21.4748,38.8945],[21.4693,38.9526],[21.3693,39.0001],[21.3651,39.0142],[21.3908,39.0522],[21.3963,39.0788],[21.3626,39.1211],[21.3623,39.1539],[21.3757,39.1496],[21.4228,39.1877],[21.4776,39.2112],[21.5089,39.191],[21.5521,39.2268],[21.6377,39.2437],[21.6608,39.2191],[21.6662,39.1774],[21.6986,39.1624],[21.697,39.1216],[21.72,39.0969],[21.7564,39.1006],[21.813,39.1319],[21.8309,39.1324],[21.8991,39.1021],[21.9134,39.0866],[21.9157,39.0316],[21.97,39.0358],[22.0126,39.0523],[22.0392,39.0763],[22.0958,39.091],[22.1167,39.1048],[22.147,39.1611],[22.2359,39.2402],[22.2844,39.2175],[22.3547,39.1975],[22.4054,39.169],[22.413,39.1242],[22.4285,39.114],[22.4939,39.1192],[22.4926,39.0509],[22.516,39.0287],[22.5546,39.0263],[22.6308,39.0327],[22.7144,38.9942],[22.7863,38.9819],[22.8394,38.9803],[22.8694,38.957],[22.9271,38.9602],[22.966,38.9742],[22.9967,38.9634],[23.0144,38.9934],[23.1116,39.05],[23.2027,39.103],[23.2186,39.1039],[23.2855,39.148],[23.3013,39.1514],[23.3438,39.1796],[23.3432,39.1849],[23.3518,39.1899],[23.3515,39.1902],[23.3518,39.1903],[23.331,39.2098],[23.2957,39.2637],[23.287,39.2883],[23.2823,39.2945],[23.2713,39.3229],[23.2468,39.3413],[23.233,39.3595],[23.1441,39.45],[23.1074,39.4873],[23.1018,39.4974],[23.0559,39.5272],[23.024,39.5373],[22.9774,39.5643],[22.9198,39.6286],[22.8664,39.7393],[22.8587,39.7733],[22.8403,39.8034],[22.8011,39.8403],[22.7877,39.8479],[22.777,39.8583],[22.7623,39.8977],[22.7437,39.9475],[22.7105,39.9475],[22.7159,40.022],[22.7065,40.0471],[22.632,40.2463],[22.6283,40.2563],[22.7422,40.3901],[22.75,40.5],[22.75,40.75],[23.2,40.82],[23.65,40.85],[23.9373,40.8021],[23.9429,40.8031],[23.8572,40.7883],[23.8543,40.7812],[23.8635,40.7796],[23.8635,40.718],[23.8978,40.7254],[23.9665,40.7402],[23.9863,40.7322],[24.0731,40.7214],[24.1101,40.7279],[24.2959,40.8112],[24.6124,40.8794],[24.6287,40.8586],[24.6619,40.8791],[24.6798,40.8694],[24.6907,40.8682],[24.7284,40.8527],[24.7539,40.8614],[24.79,40.8575],[24.802,40.8535],[24.8297,40.8768],[24.8342,40.8791],[24.82,40.95],[24.8,41.08],[24.75,41.15],[24.7,41.25],[24.65,41.4],[24.6471,41.4172],[24.6382,41.4177],[24.6443,41.4277],[24.5958,41.4298],[24.5811,41.4602],[24.5494,41.4854],[24.5309,41.5475],[24.5102,41.5617],[24.4592,41.5495],[24.4388,41.5277],[24.3539,41.5191],[24.2868,41.5176],[24.2864,41.5404],[24.2507,41.5635],[24.1977,41.5477],[24.0779,41.624],[24.1231,41.6546],[24.0726,41.6863],[24.042,41.7104],[23.9282,41.769],[23.9055,41.7965],[23.8682,41.7954],[23.8217,41.8238],[23.7957,41.8609],[23.7896,41.906],[23.7625,41.9399],[23.7666,41.9765],[23.7919,42.0207],[23.8205,42.0453],[23.8013,42.0627],[23.8133,42.0962],[23.8096,42.1329],[23.7726,42.1582],[23.7631,42.1776],[23.718,42.1605],[23.6984,42.1668],[23.6002,42.1509],[23.5808,42.1144],[23.5475,42.0841],[23.4936,42.0991],[23.5298,42.1352],[23.4733,42.1464],[23.4281,42.1869],[23.339,42.1732],[23.3246,42.1957],[23.3684,42.2446],[23.3993,42.2621],[23.3276,42.3172],[23.2939,42.3736],[23.2157,42.3732],[23.1879,42.3706],[23.1312,42.385],[23.1028,42.4032],[23.0902,42.376],[23.0001,42.3968],[22.9173,42.3888],[22.8775,42.3641],[22.8501,42.3602],[22.7653,42.4188],[22.7132,42.474],[22.7163,42.5059],[22.6988,42.5254],[22.6691,42.5192],[22.6484,42.5544],[22.6122,42.5921],[22.599,42.6204],[22.5685,42.6324],[22.4413,42.6329],[22.4421,42.6817],[22.4814,42.7398],[22.4531,42.7636],[22.4304,42.8171],[22.4814,42.8467],[22.506,42.8701],[22.5448,42.8717],[22.4654,42.8781],[22.4138,42.8932],[22.3592,42.9296],[22.4014,42.9426],[22.39,42.956],[22.2892,42.991],[22.2556,42.9929],[22.2044,43.0132],[22.2024,43.0222],[22.257,43.0585],[22.234,43.074],[22.2466,43.0907],[22.2956,43.1099],[22.2605,43.1515],[22.2341,43.1484],[22.1741,43.1805],[22.1136,43.2029],[22.1451,43.2576],[22.1612,43.2599],[22.1374,43.3369],[22.1649,43.3437],[22.206,43.3381],[22.2554,43.3195],[22.3283,43.3281],[22.3373,43.3824],[22.3515,43.4242],[22.3371,43.4434],[22.3035,43.4585],[22.2748,43.4388],[22.212,43.4685],[22.1661,43.4609],[22.0722,43.4928],[22.0565,43.4892],[22.0223,43.5198],[22.0232,43.5354],[21.9773,43.57],[21.9551,43.571],[21.9537,43.5465],[21.9866,43.5256],[21.9127,43.5136],[21.8835,43.5376],[21.8658,43.5691],[21.8118,43.5778],[21.7752,43.5755],[21.7049,43.6418],[21.6882,43.6704],[21.6838,43.7026],[21.699,43.7198],[21.6756,43.7428],[21.7039,43.7563],[21.646,43.8029],[21.6895,43.8477],[21.6698,43.8668],[21.6804,43.8911],[21.724,43.9032],[21.7241,43.9246],[21.7767,43.9743],[21.7724,43.9918],[21.7901,44.0361],[21.8178,44.0656],[21.8546,44.0688],[21.903,44.0946],[21.9409,44.0959],[21.9608,44.1101],[21.9443,44.1411],[21.957,44.1533],[21.9581,44.1952],[21.9461,44.2279],[21.9142,44.2095],[21.8961,44.2228],[21.8944,44.2749],[21.8511,44.3031],[21.8157,44.2981],[21.8134,44.3254],[21.7964,44.3409],[21.7997,44.3638],[21.8269,44.3979],[21.8558,44.3967],[21.8847,44.4258],[21.9125,44.4257],[21.9247,44.4418],[21.9182,44.4673],[21.9348,44.4948],[21.9298,44.5144],[21.9534,44.5226],[21.9702,44.5462],[22.0362,44.5895],[22.0342,44.5962],[22.0043,44.6515],[21.8554,44.6985],[21.7568,44.6773],[21.7052,44.6771],[21.6563,44.6877],[21.6197,44.7139],[21.5956,44.766],[21.5584,44.7817],[21.4972,44.778],[21.3959,44.7902],[21.3598,44.8267],[21.2695,44.8137],[21.1888,44.7782],[21.1638,44.7478],[21.1123,44.7448],[21.0779,44.7265],[21.0368,44.722],[20.9896,44.7168],[20.8832,44.6727],[20.8265,44.6609],[20.7948,44.6647],[20.7715,44.6163],[20.7815,44.5876],[20.8064,44.5632],[20.7371,44.533],[20.7641,44.496],[20.8211,44.464],[20.8376,44.4415],[20.8191,44.4159],[20.7759,44.4228],[20.7567,44.416],[20.7315,44.3785],[20.7579,44.3511],[20.787,44.3448],[20.7676,44.3312],[20.772,44.2978],[20.7314,44.3227],[20.6846,44.3347],[20.6498,44.3218],[20.623,44.3398],[20.6065,44.3737],[20.5431,44.3556],[20.5379,44.3857],[20.4838,44.3989],[20.4422,44.4189],[20.4095,44.4026],[20.3996,44.3821],[20.4312,44.3603],[20.4003,44.3247],[20.3891,44.2943],[20.3602,44.2907],[20.3242,44.255],[20.2883,44.2562],[20.2616,44.2448],[20.2103,44.2867],[20.1881,44.3233],[20.1915,44.3551],[20.2258,44.4077],[20.2176,44.4787],[20.1766,44.5423],[20.1516,44.5058],[20.1254,44.4957],[20.0951,44.526],[20.0434,44.5072],[19.9939,44.5206],[19.9696,44.5398],[19.9711,44.5648],[19.9612,44.5937],[19.9734,44.6412],[19.9404,44.6318],[19.9308,44.6593],[20.0101,44.6889],[19.9826,44.6959],[19.914,44.6954],[19.8463,44.7335],[19.7966,44.7516],[19.7453,44.7522],[19.7203,44.7645],[19.7006,44.8076],[19.7533,44.8921],[19.7569,44.9154],[19.6735,44.9345],[19.6447,44.9127],[19.6003,44.914],[19.5521,44.9005],[19.4992,44.9169],[19.4739,44.9014],[19.4061,44.9416],[19.3716,44.9139],[19.3249,44.9223],[19.357,44.8959],[19.3766,44.863],[19.3637,44.8546],[19.3284,44.734],[19.3084,44.7051],[19.2776,44.6849],[19.2557,44.6456],[19.1863,44.5693],[19.1796,44.5383],[19.1472,44.575],[19.0993,44.5942],[19.0311,44.5675],[19.0284,44.4902],[19.0199,44.4759],[18.9226,44.4265],[18.8382,44.4165],[18.8067,44.3736],[18.7538,44.3578],[18.7452,44.3407],[18.7523,44.2992],[18.7824,44.2462],[18.7924,44.2148],[18.7867,44.1804],[18.7631,44.1488],[18.7366,44.1203],[18.9084,44.092],[19.0057,44.0474],[19.1274,43.9987],[19.225,43.9215],[19.2166,43.9055],[19.2247,43.8527],[19.2207,43.8162],[19.2409,43.7757],[19.2207,43.7514],[19.1761,43.7554],[19.1436,43.7716],[19.0706,43.7838],[19.0017,43.7676],[18.9497,43.742],[18.9726,43.7248],[19.0284,43.7176],[19.0456,43.7019],[19.0571,43.6733],[19.0513,43.659],[19.0199,43.6547],[18.9626,43.6175],[18.8854,43.5917],[18.7609,43.576],[18.6937,43.5832],[18.6493,43.5989],[18.583,43.6367],[18.5527,43.6171],[18.4684,43.6139],[18.4294,43.5879],[18.3904,43.5939],[18.3827,43.5883],[18.3705,43.5567],[18.3947,43.4523],[18.3904,43.4381],[18.3561,43.4381],[18.2573,43.4451],[18.1701,43.4423],[18.0299,43.4451],[18.0227,43.4237],[18.0471,43.3951],[18.0513,43.3621],[18.0571,43.2077],[17.9913,43.1561],[17.9913,43.1291]],[[22.7096,39.935],[22.7098,39.9378],[22.7098,39.935],[22.7096,39.935]]],[[[20.8939,38.5565],[20.9,38.559],[20.9,38.5627],[20.8939,38.5565]]],[[[23.5872,39.2076],[23.6278,39.1473],[23.6342,39.1428],[23.6646,39.0952],[23.6663,39.0948],[23.666,39.0928],[23.7168,39.0772],[23.7295,39.0811],[23.7366,39.0796],[23.7367,39.0797],[23.737,39.0796],[23.7447,39.0858],[23.7603,39.0906],[23.7927,39.1182],[23.7727,39.1293],[23.7488,39.1304],[23.729,39.1404],[23.7305,39.1461],[23.6834,39.1632],[23.6522,39.1788],[23.6013,39.2138],[23.5872,39.2076]]],[[[23.8335,39.1461],[23.8645,39.144],[23.8958,39.1618],[23.8999,39.1677],[23.9386,39.2011],[23.9597,39.244],[23.967,39.2512],[23.971,39.2671],[23.9722,39.2719],[23.9398,39.2798],[23.9017,39.2328],[23.8878,39.2258],[23.8488,39.1592],[23.8335,39.1461]]],[[[24.512,40.6668],[24.5146,40.6519],[24.5142,40.6476],[24.5142,40.6472],[24.5155,40.6465],[24.5168,40.6391],[24.5402,40.634],[24.6114,40.5978],[24.6423,40.5706],[24.6639,40.5839],[24.7738,40.6142],[24.7738,40.6146],[24.7735,40.618],[24.7824,40.6202],[24.7705,40.6556],[24.7702,40.6595],[24.7789,40.6813],[24.7864,40.6879],[24.7831,40.6918],[24.7882,40.7045],[24.7881,40.7047],[24.7882,40.7049],[24.7738,40.7309],[24.7703,40.7345],[24.7864,40.7351],[24.7492,40.7562],[24.7412,40.7644],[24.7317,40.7835],[24.7213,40.785],[24.7198,40.7865],[24.702,40.7878],[24.6746,40.7917],[24.6423,40.8039],[24.6255,40.7932],[24.6226,40.7934],[24.6222,40.7934],[24.5862,40.7691],[24.5843,40.7669],[24.5667,40.7556],[24.5334,40.7182],[24.5234,40.6942],[24.5178,40.6875],[24.517,40.6789],[24.512,40.6668]]],[[[25.4435,40.4819],[25.4663,40.4558],[25.5326,40.415],[25.5661,40.405],[25.5727,40.4007],[25.573,40.4008],[25.5731,40.4007],[25.5772,40.4017],[25.5891,40.3981],[25.6826,40.4231],[25.6837,40.4265],[25.6847,40.4267],[25.6845,40.4271],[25.6847,40.4271],[25.6842,40.428],[25.6907,40.4477],[25.6887,40.475],[25.6565,40.4962],[25.5759,40.5147],[25.5715,40.5148],[25.5695,40.5157],[25.5692,40.5156],[25.5691,40.5157],[25.5661,40.5149],[25.5466,40.5153],[25.5021,40.4976],[25.4467,40.4827],[25.447,40.4825],[25.4469,40.4825],[25.4471,40.4824],[25.4467,40.4823],[25.4474,40.4818],[25.4435,40.4819]]]]}},
{"type":"Feature","properties":{"entityId":"serbian-empire","from":1356,"to":1359,"certainty":"estimated","source":"유럽 쪽은 Natural Earth 1:10m admin-1(v5.1.2) 현대 행정구역 조각을 그 시기 국경에 맞춰 묶고, 조각이 역사 경계와 다른 곳은 선을 그어 나눈 근사. 유럽 밖(시베리아·중앙아시아·극동)은 대략적인 추정. 운영자 검수 필요"},"geometry":{"type":"MultiPolygon","coordinates":[[[[17.9913,43.1291],[18.0399,43.1204],[18.0556,43.1089],[18.0428,43.0424],[18.0156,43.0123],[18.0141,42.9666],[18.0399,42.8851],[18.059,42.8604],[18.0885,42.8451],[18.203,42.7663],[18.2159,42.7463],[18.3462,42.6491],[18.3733,42.6433],[18.3698,42.5744],[18.4374,42.5592],[18.442,42.543],[18.4364,42.5108],[18.4371,42.4934],[18.4443,42.4779],[18.4677,42.4534],[18.4929,42.4424],[18.4964,42.4163],[18.5103,42.4053],[18.5197,42.4332],[18.5476,42.4291],[18.5452,42.4236],[18.553,42.4136],[18.5781,42.4004],[18.5706,42.393],[18.5949,42.3837],[18.6167,42.3681],[18.6384,42.3703],[18.6532,42.3663],[18.6535,42.3674],[18.7141,42.3377],[18.7145,42.3253],[18.7295,42.3116],[18.7625,42.2912],[18.7786,42.2715],[18.7887,42.276],[18.8136,42.2891],[18.8256,42.2832],[18.8314,42.2775],[18.8332,42.2795],[18.8946,42.2495],[18.9001,42.2449],[18.9017,42.2375],[18.9133,42.2222],[18.9465,42.2038],[18.9811,42.1637],[19.0157,42.1237],[19.0539,42.0795],[19.0976,42.0289],[19.1075,42.0174],[19.161,41.9555],[19.1616,41.9553],[19.1623,41.9479],[19.1703,41.938],[19.2202,41.9189],[19.2679,41.9071],[19.3394,41.8702],[19.3469,41.864],[19.3651,41.8524],[19.3929,41.859],[19.4396,41.8147],[19.468,41.7877],[19.4964,41.7877],[19.4964,41.7848],[19.5223,41.7848],[19.5223,41.8382],[19.5295,41.8357],[19.5266,41.8469],[19.4662,41.8826],[19.4732,41.9139],[19.5474,41.8899],[19.5732,41.9028],[19.5601,41.9387],[19.5913,41.9436],[19.6254,41.9337],[19.6309,41.9104],[19.6754,41.9144],[19.7229,41.8953],[19.751,41.9116],[19.7393,41.9378],[19.7955,41.9465],[19.8415,41.9371],[19.8731,41.9617],[19.9017,41.9689],[19.9433,41.9116],[19.9349,41.8866],[19.9532,41.8762],[20.005,41.88],[20.0236,41.9035],[20.0703,41.9326],[20.0882,41.9631],[20.1723,41.9999],[20.2126,42.0282],[20.1741,42.0581],[20.1428,42.0533],[20.163,42.0818],[20.1593,42.1043],[20.1934,42.1388],[20.2325,42.1604],[20.2356,42.1924],[20.1816,42.2156],[20.1505,42.2156],[20.0369,42.2565],[20.0004,42.262],[19.9834,42.2497],[19.9241,42.2517],[19.87,42.223],[19.8239,42.2345],[19.8306,42.2764],[19.8102,42.3398],[19.8099,42.385],[19.7892,42.4141],[19.8291,42.4687],[19.8733,42.4868],[19.9075,42.5064],[19.9563,42.5053],[19.9818,42.5108],[20.0177,42.5462],[20.0392,42.5578],[20.065,42.5468],[20.0856,42.53],[20.1355,42.5096],[20.1527,42.4934],[20.1808,42.4431],[20.1997,42.4278],[20.1975,42.3874],[20.2212,42.3637],[20.2296,42.3267],[20.2496,42.3186],[20.3334,42.3179],[20.457,42.2505],[20.4737,42.2371],[20.5008,42.2112],[20.5386,42.1501],[20.5494,42.1235],[20.5522,42.0738],[20.5583,42.0551],[20.5897,41.9936],[20.5993,41.9479],[20.5625,41.9001],[20.5671,41.8732],[20.5417,41.8616],[20.5408,41.8449],[20.5501,41.8001],[20.5444,41.7848],[20.5113,41.7579],[20.5004,41.7341],[20.5083,41.6617],[20.5347,41.5873],[20.5293,41.5749],[20.5208,41.5684],[20.4929,41.5577],[20.4442,41.5497],[20.4479,41.5355],[20.445,41.5085],[20.452,41.4936],[20.4708,41.4838],[20.4816,41.4683],[20.4868,41.4578],[20.4909,41.436],[20.498,41.4315],[20.5222,41.4257],[20.539,41.4029],[20.5329,41.3704],[20.5104,41.3444],[20.4817,41.3412],[20.4781,41.3216],[20.4954,41.2503],[20.5001,41.2355],[20.5127,41.2101],[20.5497,41.1706],[20.5655,41.1474],[20.577,41.0935],[20.5974,41.0863],[20.643,41.0816],[20.6539,41.0753],[20.6641,41.0591],[20.7027,40.9363],[20.7172,40.9132],[20.7409,40.898],[20.7661,40.8937],[20.817,40.9202],[20.8365,40.9239],[20.8902,40.9183],[20.9399,40.9071],[20.9567,40.8948],[20.9653,40.8494],[20.967,40.802],[20.9437,40.7653],[20.9635,40.7361],[21.0186,40.6909],[21.0367,40.6397],[21.0188,40.559],[20.9815,40.5233],[20.9579,40.5149],[20.9368,40.4725],[20.9119,40.4595],[20.8668,40.4721],[20.8267,40.4648],[20.8092,40.4366],[20.7795,40.429],[20.769,40.4126],[20.7739,40.3749],[20.7396,40.3092],[20.7732,40.299],[20.8064,40.3199],[20.8439,40.3266],[20.8784,40.2653],[20.9208,40.225],[20.9479,40.1809],[20.9608,40.1384],[20.9323,40.087],[20.9482,40.077],[20.9611,40.0345],[20.9879,40.0068],[21.027,40.0215],[21.0429,40.0115],[21.0403,39.9817],[21.0139,39.941],[21.0453,39.9182],[21.0588,39.862],[21.0779,39.8325],[21.0949,39.8277],[21.1892,39.8496],[21.2249,39.8482],[21.2906,39.8186],[21.2912,39.8048],[21.3217,39.7958],[21.3834,39.8158],[21.4067,39.8404],[21.4655,39.8635],[21.6134,39.8485],[21.7133,39.8282],[21.7489,39.8266],[21.8237,39.8394],[21.8762,39.8329],[21.892,39.8556],[21.8792,39.9119],[21.8465,39.9269],[21.9144,39.9733],[21.9541,39.9903],[21.9841,40.0441],[22.0323,40.082],[22.0948,40.1674],[22.1024,40.1527],[22.1324,40.1736],[22.1846,40.1643],[22.1716,40.1386],[22.172,40.1084],[22.1965,40.0888],[22.2549,40.139],[22.2973,40.1501],[22.3375,40.1203],[22.3348,40.0768],[22.3463,40.0479],[22.3765,40.0222],[22.4441,39.9861],[22.4662,39.9558],[22.4968,39.9327],[22.5343,39.9224],[22.6139,39.9394],[22.6471,39.9269],[22.7096,39.935],[22.7098,39.9378],[22.71,39.9475],[22.7105,39.9475],[22.7159,40.022],[22.7065,40.0471],[22.632,40.2463],[22.6283,40.2563],[22.7422,40.3901],[22.75,40.5],[22.75,40.75],[23.2,40.82],[23.65,40.85],[23.9373,40.8021],[23.9429,40.8031],[23.8572,40.7883],[23.8543,40.7812],[23.8635,40.7796],[23.8635,40.718],[23.8978,40.7254],[23.9665,40.7402],[23.9863,40.7322],[24.0731,40.7214],[24.1101,40.7279],[24.2959,40.8112],[24.6124,40.8794],[24.6287,40.8586],[24.6619,40.8791],[24.6798,40.8694],[24.6907,40.8682],[24.7284,40.8527],[24.7539,40.8614],[24.79,40.8575],[24.802,40.8535],[24.8297,40.8768],[24.8342,40.8791],[24.82,40.95],[24.8,41.08],[24.75,41.15],[24.7,41.25],[24.65,41.4],[24.6471,41.4172],[24.6382,41.4177],[24.6443,41.4277],[24.5958,41.4298],[24.5811,41.4602],[24.5494,41.4854],[24.5309,41.5475],[24.5102,41.5617],[24.4592,41.5495],[24.4388,41.5277],[24.3539,41.5191],[24.2868,41.5176],[24.2864,41.5404],[24.2507,41.5635],[24.1977,41.5477],[24.0779,41.624],[24.1231,41.6546],[24.0726,41.6863],[24.042,41.7104],[23.9282,41.769],[23.9055,41.7965],[23.8682,41.7954],[23.8217,41.8238],[23.7957,41.8609],[23.7896,41.906],[23.7625,41.9399],[23.7666,41.9765],[23.7919,42.0207],[23.8205,42.0453],[23.8013,42.0627],[23.8133,42.0962],[23.8096,42.1329],[23.7726,42.1582],[23.7631,42.1776],[23.718,42.1605],[23.6984,42.1668],[23.6002,42.1509],[23.5808,42.1144],[23.5475,42.0841],[23.4936,42.0991],[23.5298,42.1352],[23.4733,42.1464],[23.4281,42.1869],[23.339,42.1732],[23.3246,42.1957],[23.3684,42.2446],[23.3993,42.2621],[23.3276,42.3172],[23.2939,42.3736],[23.2157,42.3732],[23.1879,42.3706],[23.1312,42.385],[23.1028,42.4032],[23.0902,42.376],[23.0001,42.3968],[22.9173,42.3888],[22.8775,42.3641],[22.8501,42.3602],[22.7653,42.4188],[22.7132,42.474],[22.7163,42.5059],[22.6988,42.5254],[22.6691,42.5192],[22.6484,42.5544],[22.6122,42.5921],[22.599,42.6204],[22.5685,42.6324],[22.4413,42.6329],[22.4421,42.6817],[22.4814,42.7398],[22.4531,42.7636],[22.4304,42.8171],[22.4814,42.8467],[22.506,42.8701],[22.5448,42.8717],[22.4654,42.8781],[22.4138,42.8932],[22.3592,42.9296],[22.4014,42.9426],[22.39,42.956],[22.2892,42.991],[22.2556,42.9929],[22.2044,43.0132],[22.2024,43.0222],[22.257,43.0585],[22.234,43.074],[22.2466,43.0907],[22.2956,43.1099],[22.2605,43.1515],[22.2341,43.1484],[22.1741,43.1805],[22.1136,43.2029],[22.1451,43.2576],[22.1612,43.2599],[22.1374,43.3369],[22.1649,43.3437],[22.206,43.3381],[22.2554,43.3195],[22.3283,43.3281],[22.3373,43.3824],[22.3515,43.4242],[22.3371,43.4434],[22.3035,43.4585],[22.2748,43.4388],[22.212,43.4685],[22.1661,43.4609],[22.0722,43.4928],[22.0565,43.4892],[22.0223,43.5198],[22.0232,43.5354],[21.9773,43.57],[21.9551,43.571],[21.9537,43.5465],[21.9866,43.5256],[21.9127,43.5136],[21.8835,43.5376],[21.8658,43.5691],[21.8118,43.5778],[21.7752,43.5755],[21.7049,43.6418],[21.6882,43.6704],[21.6838,43.7026],[21.699,43.7198],[21.6756,43.7428],[21.7039,43.7563],[21.646,43.8029],[21.6895,43.8477],[21.6698,43.8668],[21.6804,43.8911],[21.724,43.9032],[21.7241,43.9246],[21.7767,43.9743],[21.7724,43.9918],[21.7901,44.0361],[21.8178,44.0656],[21.8546,44.0688],[21.903,44.0946],[21.9409,44.0959],[21.9608,44.1101],[21.9443,44.1411],[21.957,44.1533],[21.9581,44.1952],[21.9461,44.2279],[21.9142,44.2095],[21.8961,44.2228],[21.8944,44.2749],[21.8511,44.3031],[21.8157,44.2981],[21.8134,44.3254],[21.7964,44.3409],[21.7997,44.3638],[21.8269,44.3979],[21.8558,44.3967],[21.8847,44.4258],[21.9125,44.4257],[21.9247,44.4418],[21.9182,44.4673],[21.9348,44.4948],[21.9298,44.5144],[21.9534,44.5226],[21.9702,44.5462],[22.0362,44.5895],[22.0342,44.5962],[22.0043,44.6515],[21.8554,44.6985],[21.7568,44.6773],[21.7052,44.6771],[21.6563,44.6877],[21.6197,44.7139],[21.5956,44.766],[21.5584,44.7817],[21.4972,44.778],[21.3959,44.7902],[21.3598,44.8267],[21.2695,44.8137],[21.1888,44.7782],[21.1638,44.7478],[21.1123,44.7448],[21.0779,44.7265],[21.0368,44.722],[20.9896,44.7168],[20.8832,44.6727],[20.8265,44.6609],[20.7948,44.6647],[20.7715,44.6163],[20.7815,44.5876],[20.8064,44.5632],[20.7371,44.533],[20.7641,44.496],[20.8211,44.464],[20.8376,44.4415],[20.8191,44.4159],[20.7759,44.4228],[20.7567,44.416],[20.7315,44.3785],[20.7579,44.3511],[20.787,44.3448],[20.7676,44.3312],[20.772,44.2978],[20.7314,44.3227],[20.6846,44.3347],[20.6498,44.3218],[20.623,44.3398],[20.6065,44.3737],[20.5431,44.3556],[20.5379,44.3857],[20.4838,44.3989],[20.4422,44.4189],[20.4095,44.4026],[20.3996,44.3821],[20.4312,44.3603],[20.4003,44.3247],[20.3891,44.2943],[20.3602,44.2907],[20.3242,44.255],[20.2883,44.2562],[20.2616,44.2448],[20.2103,44.2867],[20.1881,44.3233],[20.1915,44.3551],[20.2258,44.4077],[20.2176,44.4787],[20.1766,44.5423],[20.1516,44.5058],[20.1254,44.4957],[20.0951,44.526],[20.0434,44.5072],[19.9939,44.5206],[19.9696,44.5398],[19.9711,44.5648],[19.9612,44.5937],[19.9734,44.6412],[19.9404,44.6318],[19.9308,44.6593],[20.0101,44.6889],[19.9826,44.6959],[19.914,44.6954],[19.8463,44.7335],[19.7966,44.7516],[19.7453,44.7522],[19.7203,44.7645],[19.7006,44.8076],[19.7533,44.8921],[19.7569,44.9154],[19.6735,44.9345],[19.6447,44.9127],[19.6003,44.914],[19.5521,44.9005],[19.4992,44.9169],[19.4739,44.9014],[19.4061,44.9416],[19.3716,44.9139],[19.3249,44.9223],[19.357,44.8959],[19.3766,44.863],[19.3637,44.8546],[19.3284,44.734],[19.3084,44.7051],[19.2776,44.6849],[19.2557,44.6456],[19.1863,44.5693],[19.1796,44.5383],[19.1472,44.575],[19.0993,44.5942],[19.0311,44.5675],[19.0284,44.4902],[19.0199,44.4759],[18.9226,44.4265],[18.8382,44.4165],[18.8067,44.3736],[18.7538,44.3578],[18.7452,44.3407],[18.7523,44.2992],[18.7824,44.2462],[18.7924,44.2148],[18.7867,44.1804],[18.7631,44.1488],[18.7366,44.1203],[18.9084,44.092],[19.0057,44.0474],[19.1274,43.9987],[19.225,43.9215],[19.2166,43.9055],[19.2247,43.8527],[19.2207,43.8162],[19.2409,43.7757],[19.2207,43.7514],[19.1761,43.7554],[19.1436,43.7716],[19.0706,43.7838],[19.0017,43.7676],[18.9497,43.742],[18.9726,43.7248],[19.0284,43.7176],[19.0456,43.7019],[19.0571,43.6733],[19.0513,43.659],[19.0199,43.6547],[18.9626,43.6175],[18.8854,43.5917],[18.7609,43.576],[18.6937,43.5832],[18.6493,43.5989],[18.583,43.6367],[18.5527,43.6171],[18.4684,43.6139],[18.4294,43.5879],[18.3904,43.5939],[18.3827,43.5883],[18.3705,43.5567],[18.3947,43.4523],[18.3904,43.4381],[18.3561,43.4381],[18.2573,43.4451],[18.1701,43.4423],[18.0299,43.4451],[18.0227,43.4237],[18.0471,43.3951],[18.0513,43.3621],[18.0571,43.2077],[17.9913,43.1561],[17.9913,43.1291]]],[[[24.512,40.6668],[24.5146,40.6519],[24.5142,40.6476],[24.5142,40.6472],[24.5155,40.6465],[24.5168,40.6391],[24.5402,40.634],[24.6114,40.5978],[24.6423,40.5706],[24.6639,40.5839],[24.7738,40.6142],[24.7738,40.6146],[24.7735,40.618],[24.7824,40.6202],[24.7705,40.6556],[24.7702,40.6595],[24.7789,40.6813],[24.7864,40.6879],[24.7831,40.6918],[24.7882,40.7045],[24.7881,40.7047],[24.7882,40.7049],[24.7738,40.7309],[24.7703,40.7345],[24.7864,40.7351],[24.7492,40.7562],[24.7412,40.7644],[24.7317,40.7835],[24.7213,40.785],[24.7198,40.7865],[24.702,40.7878],[24.6746,40.7917],[24.6423,40.8039],[24.6255,40.7932],[24.6226,40.7934],[24.6222,40.7934],[24.5862,40.7691],[24.5843,40.7669],[24.5667,40.7556],[24.5334,40.7182],[24.5234,40.6942],[24.5178,40.6875],[24.517,40.6789],[24.512,40.6668]]],[[[25.4435,40.4819],[25.4663,40.4558],[25.5326,40.415],[25.5661,40.405],[25.5727,40.4007],[25.573,40.4008],[25.5731,40.4007],[25.5772,40.4017],[25.5891,40.3981],[25.6826,40.4231],[25.6837,40.4265],[25.6847,40.4267],[25.6845,40.4271],[25.6847,40.4271],[25.6842,40.428],[25.6907,40.4477],[25.6887,40.475],[25.6565,40.4962],[25.5759,40.5147],[25.5715,40.5148],[25.5695,40.5157],[25.5692,40.5156],[25.5691,40.5157],[25.5661,40.5149],[25.5466,40.5153],[25.5021,40.4976],[25.4467,40.4827],[25.447,40.4825],[25.4469,40.4825],[25.4471,40.4824],[25.4467,40.4823],[25.4474,40.4818],[25.4435,40.4819]]]]}},
{"type":"Feature","properties":{"entityId":"serbian-empire","from":1359,"to":1360,"certainty":"estimated","source":"유럽 쪽은 Natural Earth 1:10m admin-1(v5.1.2) 현대 행정구역 조각을 그 시기 국경에 맞춰 묶고, 조각이 역사 경계와 다른 곳은 선을 그어 나눈 근사. 유럽 밖(시베리아·중앙아시아·극동)은 대략적인 추정. 운영자 검수 필요"},"geometry":{"type":"MultiPolygon","coordinates":[[[[17.9913,43.1291],[18.0399,43.1204],[18.0556,43.1089],[18.0428,43.0424],[18.0156,43.0123],[18.0141,42.9666],[18.0399,42.8851],[18.059,42.8604],[18.0885,42.8451],[18.203,42.7663],[18.2159,42.7463],[18.3462,42.6491],[18.3733,42.6433],[18.3698,42.5744],[18.4374,42.5592],[18.442,42.543],[18.4364,42.5108],[18.4371,42.4934],[18.4443,42.4779],[18.4677,42.4534],[18.4929,42.4424],[18.4964,42.4163],[18.5103,42.4053],[18.5197,42.4332],[18.5476,42.4291],[18.5452,42.4236],[18.553,42.4136],[18.5781,42.4004],[18.5706,42.393],[18.5949,42.3837],[18.6167,42.3681],[18.6384,42.3703],[18.6532,42.3663],[18.6535,42.3674],[18.7141,42.3377],[18.7145,42.3253],[18.7295,42.3116],[18.7625,42.2912],[18.7786,42.2715],[18.7887,42.276],[18.8136,42.2891],[18.8256,42.2832],[18.8314,42.2775],[18.8332,42.2795],[18.8946,42.2495],[18.9001,42.2449],[18.9017,42.2375],[18.9133,42.2222],[18.9465,42.2038],[18.9811,42.1637],[19.0157,42.1237],[19.0539,42.0795],[19.0976,42.0289],[19.1075,42.0174],[19.161,41.9555],[19.1616,41.9553],[19.1623,41.9479],[19.1703,41.938],[19.2202,41.9189],[19.2679,41.9071],[19.3394,41.8702],[19.3469,41.864],[19.3651,41.8524],[19.3929,41.859],[19.4396,41.8147],[19.468,41.7877],[19.4964,41.7877],[19.4964,41.7848],[19.5223,41.7848],[19.5223,41.8382],[19.5295,41.8357],[19.5266,41.8469],[19.4662,41.8826],[19.4732,41.9139],[19.5474,41.8899],[19.5732,41.9028],[19.5601,41.9387],[19.5913,41.9436],[19.6254,41.9337],[19.6309,41.9104],[19.6754,41.9144],[19.7229,41.8953],[19.751,41.9116],[19.7393,41.9378],[19.7955,41.9465],[19.8415,41.9371],[19.8731,41.9617],[19.9017,41.9689],[19.9433,41.9116],[19.9349,41.8866],[19.9532,41.8762],[20.005,41.88],[20.0236,41.9035],[20.0703,41.9326],[20.0882,41.9631],[20.1723,41.9999],[20.2126,42.0282],[20.1741,42.0581],[20.1428,42.0533],[20.163,42.0818],[20.1593,42.1043],[20.1934,42.1388],[20.2325,42.1604],[20.2356,42.1924],[20.1816,42.2156],[20.1505,42.2156],[20.0369,42.2565],[20.0004,42.262],[19.9834,42.2497],[19.9241,42.2517],[19.87,42.223],[19.8239,42.2345],[19.8306,42.2764],[19.8102,42.3398],[19.8099,42.385],[19.7892,42.4141],[19.8291,42.4687],[19.8733,42.4868],[19.9075,42.5064],[19.9563,42.5053],[19.9818,42.5108],[20.0177,42.5462],[20.0392,42.5578],[20.065,42.5468],[20.0856,42.53],[20.1355,42.5096],[20.1527,42.4934],[20.1808,42.4431],[20.1997,42.4278],[20.1975,42.3874],[20.2212,42.3637],[20.2296,42.3267],[20.2496,42.3186],[20.3334,42.3179],[20.457,42.2505],[20.4737,42.2371],[20.5008,42.2112],[20.5386,42.1501],[20.5494,42.1235],[20.5522,42.0738],[20.5583,42.0551],[20.5897,41.9936],[20.5993,41.9479],[20.5625,41.9001],[20.5671,41.8732],[20.5417,41.8616],[20.5408,41.8449],[20.5501,41.8001],[20.5444,41.7848],[20.5113,41.7579],[20.5004,41.7341],[20.5083,41.6617],[20.5347,41.5873],[20.5293,41.5749],[20.5208,41.5684],[20.4929,41.5577],[20.4442,41.5497],[20.4479,41.5355],[20.445,41.5085],[20.452,41.4936],[20.4708,41.4838],[20.4816,41.4683],[20.4868,41.4578],[20.4909,41.436],[20.498,41.4315],[20.5222,41.4257],[20.539,41.4029],[20.5329,41.3704],[20.5104,41.3444],[20.4817,41.3412],[20.4781,41.3216],[20.4954,41.2503],[20.5001,41.2355],[20.5127,41.2101],[20.5497,41.1706],[20.5655,41.1474],[20.577,41.0935],[20.5974,41.0863],[20.643,41.0816],[20.6539,41.0753],[20.6641,41.0591],[20.7027,40.9363],[20.7172,40.9132],[20.7409,40.898],[20.7661,40.8937],[20.817,40.9202],[20.8365,40.9239],[20.8902,40.9183],[20.9399,40.9071],[20.9567,40.8948],[20.9653,40.8494],[20.967,40.802],[20.9437,40.7653],[20.9635,40.7361],[21.0186,40.6909],[21.0367,40.6397],[21.0188,40.559],[20.9815,40.5233],[20.9579,40.5149],[20.9368,40.4725],[20.9119,40.4595],[20.8668,40.4721],[20.8267,40.4648],[20.8092,40.4366],[20.7795,40.429],[20.769,40.4126],[20.7739,40.3749],[20.7396,40.3092],[20.7732,40.299],[20.8064,40.3199],[20.8439,40.3266],[20.8784,40.2653],[20.9208,40.225],[20.9479,40.1809],[20.9608,40.1384],[20.9323,40.087],[20.9482,40.077],[20.9611,40.0345],[20.9879,40.0068],[21.027,40.0215],[21.0429,40.0115],[21.0403,39.9817],[21.0139,39.941],[21.0453,39.9182],[21.0588,39.862],[21.0779,39.8325],[21.0949,39.8277],[21.1892,39.8496],[21.2249,39.8482],[21.2906,39.8186],[21.2912,39.8048],[21.2639,39.8108],[21.2151,39.7837],[21.1984,39.7556],[21.2162,39.6687],[21.1432,39.68],[21.1104,39.6592],[21.1232,39.6003],[21.1661,39.5652],[21.169,39.5102],[21.1531,39.4847],[21.1749,39.4521],[21.1787,39.4189],[21.226,39.3888],[21.2403,39.3543],[21.2752,39.3337],[21.3459,39.3308],[21.3851,39.2797],[21.3331,39.2012],[21.3623,39.1539],[21.3757,39.1496],[21.4228,39.1877],[21.4776,39.2112],[21.5089,39.191],[21.5521,39.2268],[21.6377,39.2437],[21.6608,39.2191],[21.6662,39.1774],[21.6986,39.1624],[21.697,39.1216],[21.72,39.0969],[21.7564,39.1006],[21.813,39.1319],[21.8309,39.1324],[21.8991,39.1021],[21.9134,39.0866],[21.9157,39.0316],[21.97,39.0358],[22.0126,39.0523],[22.0392,39.0763],[22.0958,39.091],[22.1167,39.1048],[22.147,39.1611],[22.2359,39.2402],[22.2844,39.2175],[22.3547,39.1975],[22.4054,39.169],[22.413,39.1242],[22.4285,39.114],[22.4939,39.1192],[22.4926,39.0509],[22.516,39.0287],[22.5546,39.0263],[22.6308,39.0327],[22.7144,38.9942],[22.7863,38.9819],[22.8394,38.9803],[22.8694,38.957],[22.9271,38.9602],[22.966,38.9742],[22.9967,38.9634],[23.0144,38.9934],[23.1116,39.05],[23.2027,39.103],[23.2186,39.1039],[23.2855,39.148],[23.3013,39.1514],[23.3438,39.1796],[23.3432,39.1849],[23.3518,39.1899],[23.3515,39.1902],[23.3518,39.1903],[23.331,39.2098],[23.2957,39.2637],[23.287,39.2883],[23.2823,39.2945],[23.2713,39.3229],[23.2468,39.3413],[23.233,39.3595],[23.1441,39.45],[23.1074,39.4873],[23.1018,39.4974],[23.0559,39.5272],[23.024,39.5373],[22.9774,39.5643],[22.9198,39.6286],[22.8664,39.7393],[22.8587,39.7733],[22.8403,39.8034],[22.8011,39.8403],[22.7877,39.8479],[22.777,39.8583],[22.7623,39.8977],[22.7437,39.9475],[22.7105,39.9475],[22.7159,40.022],[22.7065,40.0471],[22.632,40.2463],[22.6283,40.2563],[22.7422,40.3901],[22.75,40.5],[22.75,40.75],[23.2,40.82],[23.65,40.85],[23.9373,40.8021],[23.9429,40.8031],[23.8572,40.7883],[23.8543,40.7812],[23.8635,40.7796],[23.8635,40.718],[23.8978,40.7254],[23.9665,40.7402],[23.9863,40.7322],[24.0731,40.7214],[24.1101,40.7279],[24.2959,40.8112],[24.6124,40.8794],[24.6287,40.8586],[24.6619,40.8791],[24.6798,40.8694],[24.6907,40.8682],[24.7284,40.8527],[24.7539,40.8614],[24.79,40.8575],[24.802,40.8535],[24.8297,40.8768],[24.8342,40.8791],[24.82,40.95],[24.8,41.08],[24.75,41.15],[24.7,41.25],[24.65,41.4],[24.6471,41.4172],[24.6382,41.4177],[24.6443,41.4277],[24.5958,41.4298],[24.5811,41.4602],[24.5494,41.4854],[24.5309,41.5475],[24.5102,41.5617],[24.4592,41.5495],[24.4388,41.5277],[24.3539,41.5191],[24.2868,41.5176],[24.2864,41.5404],[24.2507,41.5635],[24.1977,41.5477],[24.0779,41.624],[24.1231,41.6546],[24.0726,41.6863],[24.042,41.7104],[23.9282,41.769],[23.9055,41.7965],[23.8682,41.7954],[23.8217,41.8238],[23.7957,41.8609],[23.7896,41.906],[23.7625,41.9399],[23.7666,41.9765],[23.7919,42.0207],[23.8205,42.0453],[23.8013,42.0627],[23.8133,42.0962],[23.8096,42.1329],[23.7726,42.1582],[23.7631,42.1776],[23.718,42.1605],[23.6984,42.1668],[23.6002,42.1509],[23.5808,42.1144],[23.5475,42.0841],[23.4936,42.0991],[23.5298,42.1352],[23.4733,42.1464],[23.4281,42.1869],[23.339,42.1732],[23.3246,42.1957],[23.3684,42.2446],[23.3993,42.2621],[23.3276,42.3172],[23.2939,42.3736],[23.2157,42.3732],[23.1879,42.3706],[23.1312,42.385],[23.1028,42.4032],[23.0902,42.376],[23.0001,42.3968],[22.9173,42.3888],[22.8775,42.3641],[22.8501,42.3602],[22.7653,42.4188],[22.7132,42.474],[22.7163,42.5059],[22.6988,42.5254],[22.6691,42.5192],[22.6484,42.5544],[22.6122,42.5921],[22.599,42.6204],[22.5685,42.6324],[22.4413,42.6329],[22.4421,42.6817],[22.4814,42.7398],[22.4531,42.7636],[22.4304,42.8171],[22.4814,42.8467],[22.506,42.8701],[22.5448,42.8717],[22.4654,42.8781],[22.4138,42.8932],[22.3592,42.9296],[22.4014,42.9426],[22.39,42.956],[22.2892,42.991],[22.2556,42.9929],[22.2044,43.0132],[22.2024,43.0222],[22.257,43.0585],[22.234,43.074],[22.2466,43.0907],[22.2956,43.1099],[22.2605,43.1515],[22.2341,43.1484],[22.1741,43.1805],[22.1136,43.2029],[22.1451,43.2576],[22.1612,43.2599],[22.1374,43.3369],[22.1649,43.3437],[22.206,43.3381],[22.2554,43.3195],[22.3283,43.3281],[22.3373,43.3824],[22.3515,43.4242],[22.3371,43.4434],[22.3035,43.4585],[22.2748,43.4388],[22.212,43.4685],[22.1661,43.4609],[22.0722,43.4928],[22.0565,43.4892],[22.0223,43.5198],[22.0232,43.5354],[21.9773,43.57],[21.9551,43.571],[21.9537,43.5465],[21.9866,43.5256],[21.9127,43.5136],[21.8835,43.5376],[21.8658,43.5691],[21.8118,43.5778],[21.7752,43.5755],[21.7049,43.6418],[21.6882,43.6704],[21.6838,43.7026],[21.699,43.7198],[21.6756,43.7428],[21.7039,43.7563],[21.646,43.8029],[21.6895,43.8477],[21.6698,43.8668],[21.6804,43.8911],[21.724,43.9032],[21.7241,43.9246],[21.7767,43.9743],[21.7724,43.9918],[21.7901,44.0361],[21.8178,44.0656],[21.8546,44.0688],[21.903,44.0946],[21.9409,44.0959],[21.9608,44.1101],[21.9443,44.1411],[21.957,44.1533],[21.9581,44.1952],[21.9461,44.2279],[21.9142,44.2095],[21.8961,44.2228],[21.8944,44.2749],[21.8511,44.3031],[21.8157,44.2981],[21.8134,44.3254],[21.7964,44.3409],[21.7997,44.3638],[21.8269,44.3979],[21.8558,44.3967],[21.8847,44.4258],[21.9125,44.4257],[21.9247,44.4418],[21.9182,44.4673],[21.9348,44.4948],[21.9298,44.5144],[21.9534,44.5226],[21.9702,44.5462],[22.0362,44.5895],[22.0342,44.5962],[22.0043,44.6515],[21.8554,44.6985],[21.7568,44.6773],[21.7052,44.6771],[21.6563,44.6877],[21.6197,44.7139],[21.5956,44.766],[21.5584,44.7817],[21.4972,44.778],[21.3959,44.7902],[21.3598,44.8267],[21.2695,44.8137],[21.1888,44.7782],[21.1638,44.7478],[21.1123,44.7448],[21.0779,44.7265],[21.0368,44.722],[20.9896,44.7168],[20.8832,44.6727],[20.8265,44.6609],[20.7948,44.6647],[20.7715,44.6163],[20.7815,44.5876],[20.8064,44.5632],[20.7371,44.533],[20.7641,44.496],[20.8211,44.464],[20.8376,44.4415],[20.8191,44.4159],[20.7759,44.4228],[20.7567,44.416],[20.7315,44.3785],[20.7579,44.3511],[20.787,44.3448],[20.7676,44.3312],[20.772,44.2978],[20.7314,44.3227],[20.6846,44.3347],[20.6498,44.3218],[20.623,44.3398],[20.6065,44.3737],[20.5431,44.3556],[20.5379,44.3857],[20.4838,44.3989],[20.4422,44.4189],[20.4095,44.4026],[20.3996,44.3821],[20.4312,44.3603],[20.4003,44.3247],[20.3891,44.2943],[20.3602,44.2907],[20.3242,44.255],[20.2883,44.2562],[20.2616,44.2448],[20.2103,44.2867],[20.1881,44.3233],[20.1915,44.3551],[20.2258,44.4077],[20.2176,44.4787],[20.1766,44.5423],[20.1516,44.5058],[20.1254,44.4957],[20.0951,44.526],[20.0434,44.5072],[19.9939,44.5206],[19.9696,44.5398],[19.9711,44.5648],[19.9612,44.5937],[19.9734,44.6412],[19.9404,44.6318],[19.9308,44.6593],[20.0101,44.6889],[19.9826,44.6959],[19.914,44.6954],[19.8463,44.7335],[19.7966,44.7516],[19.7453,44.7522],[19.7203,44.7645],[19.7006,44.8076],[19.7533,44.8921],[19.7569,44.9154],[19.6735,44.9345],[19.6447,44.9127],[19.6003,44.914],[19.5521,44.9005],[19.4992,44.9169],[19.4739,44.9014],[19.4061,44.9416],[19.3716,44.9139],[19.3249,44.9223],[19.357,44.8959],[19.3766,44.863],[19.3637,44.8546],[19.3284,44.734],[19.3084,44.7051],[19.2776,44.6849],[19.2557,44.6456],[19.1863,44.5693],[19.1796,44.5383],[19.1472,44.575],[19.0993,44.5942],[19.0311,44.5675],[19.0284,44.4902],[19.0199,44.4759],[18.9226,44.4265],[18.8382,44.4165],[18.8067,44.3736],[18.7538,44.3578],[18.7452,44.3407],[18.7523,44.2992],[18.7824,44.2462],[18.7924,44.2148],[18.7867,44.1804],[18.7631,44.1488],[18.7366,44.1203],[18.9084,44.092],[19.0057,44.0474],[19.1274,43.9987],[19.225,43.9215],[19.2166,43.9055],[19.2247,43.8527],[19.2207,43.8162],[19.2409,43.7757],[19.2207,43.7514],[19.1761,43.7554],[19.1436,43.7716],[19.0706,43.7838],[19.0017,43.7676],[18.9497,43.742],[18.9726,43.7248],[19.0284,43.7176],[19.0456,43.7019],[19.0571,43.6733],[19.0513,43.659],[19.0199,43.6547],[18.9626,43.6175],[18.8854,43.5917],[18.7609,43.576],[18.6937,43.5832],[18.6493,43.5989],[18.583,43.6367],[18.5527,43.6171],[18.4684,43.6139],[18.4294,43.5879],[18.3904,43.5939],[18.3827,43.5883],[18.3705,43.5567],[18.3947,43.4523],[18.3904,43.4381],[18.3561,43.4381],[18.2573,43.4451],[18.1701,43.4423],[18.0299,43.4451],[18.0227,43.4237],[18.0471,43.3951],[18.0513,43.3621],[18.0571,43.2077],[17.9913,43.1561],[17.9913,43.1291]],[[22.7096,39.935],[22.7098,39.9378],[22.7098,39.935],[22.7096,39.935]]],[[[23.5872,39.2076],[23.6278,39.1473],[23.6342,39.1428],[23.6646,39.0952],[23.6663,39.0948],[23.666,39.0928],[23.7168,39.0772],[23.7295,39.0811],[23.7366,39.0796],[23.7367,39.0797],[23.737,39.0796],[23.7447,39.0858],[23.7603,39.0906],[23.7927,39.1182],[23.7727,39.1293],[23.7488,39.1304],[23.729,39.1404],[23.7305,39.1461],[23.6834,39.1632],[23.6522,39.1788],[23.6013,39.2138],[23.5872,39.2076]]],[[[23.8335,39.1461],[23.8645,39.144],[23.8958,39.1618],[23.8999,39.1677],[23.9386,39.2011],[23.9597,39.244],[23.967,39.2512],[23.971,39.2671],[23.9722,39.2719],[23.9398,39.2798],[23.9017,39.2328],[23.8878,39.2258],[23.8488,39.1592],[23.8335,39.1461]]],[[[24.512,40.6668],[24.5146,40.6519],[24.5142,40.6476],[24.5142,40.6472],[24.5155,40.6465],[24.5168,40.6391],[24.5402,40.634],[24.6114,40.5978],[24.6423,40.5706],[24.6639,40.5839],[24.7738,40.6142],[24.7738,40.6146],[24.7735,40.618],[24.7824,40.6202],[24.7705,40.6556],[24.7702,40.6595],[24.7789,40.6813],[24.7864,40.6879],[24.7831,40.6918],[24.7882,40.7045],[24.7881,40.7047],[24.7882,40.7049],[24.7738,40.7309],[24.7703,40.7345],[24.7864,40.7351],[24.7492,40.7562],[24.7412,40.7644],[24.7317,40.7835],[24.7213,40.785],[24.7198,40.7865],[24.702,40.7878],[24.6746,40.7917],[24.6423,40.8039],[24.6255,40.7932],[24.6226,40.7934],[24.6222,40.7934],[24.5862,40.7691],[24.5843,40.7669],[24.5667,40.7556],[24.5334,40.7182],[24.5234,40.6942],[24.5178,40.6875],[24.517,40.6789],[24.512,40.6668]]],[[[25.4435,40.4819],[25.4663,40.4558],[25.5326,40.415],[25.5661,40.405],[25.5727,40.4007],[25.573,40.4008],[25.5731,40.4007],[25.5772,40.4017],[25.5891,40.3981],[25.6826,40.4231],[25.6837,40.4265],[25.6847,40.4267],[25.6845,40.4271],[25.6847,40.4271],[25.6842,40.428],[25.6907,40.4477],[25.6887,40.475],[25.6565,40.4962],[25.5759,40.5147],[25.5715,40.5148],[25.5695,40.5157],[25.5692,40.5156],[25.5691,40.5157],[25.5661,40.5149],[25.5466,40.5153],[25.5021,40.4976],[25.4467,40.4827],[25.447,40.4825],[25.4469,40.4825],[25.4471,40.4824],[25.4467,40.4823],[25.4474,40.4818],[25.4435,40.4819]]]]}},
{"type":"Feature","properties":{"entityId":"serbian-empire","from":1360,"to":1371,"certainty":"estimated","source":"유럽 쪽은 Natural Earth 1:10m admin-1(v5.1.2) 현대 행정구역 조각을 그 시기 국경에 맞춰 묶고, 조각이 역사 경계와 다른 곳은 선을 그어 나눈 근사. 유럽 밖(시베리아·중앙아시아·극동)은 대략적인 추정. 운영자 검수 필요"},"geometry":{"type":"MultiPolygon","coordinates":[[[[17.9913,43.1291],[18.0399,43.1204],[18.0556,43.1089],[18.0428,43.0424],[18.0156,43.0123],[18.0141,42.9666],[18.0399,42.8851],[18.059,42.8604],[18.0885,42.8451],[18.203,42.7663],[18.2159,42.7463],[18.3462,42.6491],[18.3733,42.6433],[18.3698,42.5744],[18.4374,42.5592],[18.442,42.543],[18.4364,42.5108],[18.4371,42.4934],[18.4443,42.4779],[18.4677,42.4534],[18.4929,42.4424],[18.4964,42.4163],[18.5103,42.4053],[18.5197,42.4332],[18.5476,42.4291],[18.5452,42.4236],[18.553,42.4136],[18.5781,42.4004],[18.5706,42.393],[18.5949,42.3837],[18.6167,42.3681],[18.6384,42.3703],[18.6532,42.3663],[18.6535,42.3674],[18.6585,42.3866],[18.66,42.3867],[18.6531,42.4012],[18.6449,42.4184],[18.6565,42.4155],[18.6568,42.4154],[18.6568,42.4543],[18.6541,42.4518],[18.6327,42.4959],[18.6112,42.5219],[18.5571,42.5484],[18.5068,42.5985],[18.5384,42.6183],[18.5428,42.6264],[18.6013,42.6244],[18.6483,42.6293],[18.6838,42.6419],[18.696,42.6851],[18.7274,42.7181],[18.7971,42.6953],[18.8599,42.6908],[18.9143,42.6575],[18.9372,42.6202],[18.9817,42.6222],[18.9952,42.6349],[18.9971,42.6641],[19.0144,42.6873],[19.0723,42.7088],[19.1255,42.6988],[19.1779,42.695],[19.2131,42.7082],[19.2107,42.7595],[19.2057,42.792],[19.2187,42.8397],[19.2086,42.8589],[19.1999,42.8876],[19.2278,42.9105],[19.2925,42.9022],[19.343,42.9009],[19.3723,42.9345],[19.3417,42.9536],[19.3317,42.9901],[19.3352,43.0114],[19.3494,43.0216],[19.3809,43.0276],[19.4111,43.0452],[19.4256,43.0514],[19.4595,43.0496],[19.4725,43.0971],[19.4998,43.1095],[19.5284,43.1426],[19.5478,43.2188],[19.5809,43.1878],[19.6187,43.1682],[19.6846,43.1567],[19.7136,43.1656],[19.7428,43.1265],[19.7818,43.0965],[19.8051,43.09],[19.8722,43.0904],[19.9071,43.1133],[19.9292,43.1139],[19.9597,43.0786],[20.0199,43.0473],[20.0544,43.0222],[20.0563,43.0208],[20.1169,42.9767],[20.1295,42.9736],[20.1946,42.9668],[20.2232,42.9577],[20.2756,42.9299],[20.3371,42.907],[20.3536,42.891],[20.3552,42.8662],[20.3454,42.8274],[20.3192,42.8241],[20.2644,42.8173],[20.2261,42.8068],[20.2092,42.7917],[20.2084,42.7633],[20.1834,42.7425],[20.1495,42.7499],[20.1121,42.7665],[20.0763,42.7734],[20.0556,42.7639],[20.0265,42.7432],[20.0248,42.7234],[20.037,42.7074],[20.0942,42.667],[20.1039,42.6531],[20.0757,42.6031],[20.077,42.5599],[20.065,42.5468],[20.0856,42.53],[20.1355,42.5096],[20.1527,42.4934],[20.1808,42.4431],[20.1997,42.4278],[20.1975,42.3874],[20.2212,42.3637],[20.2296,42.3267],[20.2496,42.3186],[20.3334,42.3179],[20.457,42.2505],[20.4737,42.2371],[20.5008,42.2112],[20.5386,42.1501],[20.5494,42.1235],[20.5522,42.0738],[20.5583,42.0551],[20.5897,41.9936],[20.5993,41.9479],[20.5625,41.9001],[20.5671,41.8732],[20.5417,41.8616],[20.5408,41.8449],[20.5501,41.8001],[20.5444,41.7848],[20.5113,41.7579],[20.5004,41.7341],[20.5083,41.6617],[20.5347,41.5873],[20.5293,41.5749],[20.5208,41.5684],[20.4929,41.5577],[20.4442,41.5497],[20.4479,41.5355],[20.445,41.5085],[20.452,41.4936],[20.4708,41.4838],[20.4816,41.4683],[20.4868,41.4578],[20.4909,41.436],[20.498,41.4315],[20.5222,41.4257],[20.539,41.4029],[20.5329,41.3704],[20.5104,41.3444],[20.4817,41.3412],[20.4781,41.3216],[20.4954,41.2503],[20.5001,41.2355],[20.5127,41.2101],[20.5497,41.1706],[20.5655,41.1474],[20.577,41.0935],[20.5974,41.0863],[20.643,41.0816],[20.6539,41.0753],[20.6641,41.0591],[20.7027,40.9363],[20.7172,40.9132],[20.7409,40.898],[20.7661,40.8937],[20.817,40.9202],[20.8365,40.9239],[20.8902,40.9183],[20.9399,40.9071],[20.9567,40.8948],[20.9653,40.8494],[20.967,40.802],[20.9437,40.7653],[20.9635,40.7361],[21.0186,40.6909],[21.0367,40.6397],[21.0188,40.559],[20.9815,40.5233],[20.9579,40.5149],[20.9368,40.4725],[20.9119,40.4595],[20.8668,40.4721],[20.8267,40.4648],[20.8092,40.4366],[20.7795,40.429],[20.769,40.4126],[20.7739,40.3749],[20.7396,40.3092],[20.7732,40.299],[20.8064,40.3199],[20.8439,40.3266],[20.8784,40.2653],[20.9208,40.225],[20.9479,40.1809],[20.9608,40.1384],[20.9323,40.087],[20.9482,40.077],[20.9611,40.0345],[20.9879,40.0068],[21.027,40.0215],[21.0429,40.0115],[21.0403,39.9817],[21.0139,39.941],[21.0453,39.9182],[21.0588,39.862],[21.0779,39.8325],[21.0949,39.8277],[21.1892,39.8496],[21.2249,39.8482],[21.2906,39.8186],[21.2912,39.8048],[21.2639,39.8108],[21.2151,39.7837],[21.1984,39.7556],[21.2162,39.6687],[21.1432,39.68],[21.1104,39.6592],[21.1232,39.6003],[21.1661,39.5652],[21.169,39.5102],[21.1531,39.4847],[21.1749,39.4521],[21.1787,39.4189],[21.226,39.3888],[21.2403,39.3543],[21.2752,39.3337],[21.3459,39.3308],[21.3851,39.2797],[21.3331,39.2012],[21.3623,39.1539],[21.3757,39.1496],[21.4228,39.1877],[21.4776,39.2112],[21.5089,39.191],[21.5521,39.2268],[21.6377,39.2437],[21.6608,39.2191],[21.6662,39.1774],[21.6986,39.1624],[21.697,39.1216],[21.72,39.0969],[21.7564,39.1006],[21.813,39.1319],[21.8309,39.1324],[21.8991,39.1021],[21.9134,39.0866],[21.9157,39.0316],[21.97,39.0358],[22.0126,39.0523],[22.0392,39.0763],[22.0958,39.091],[22.1167,39.1048],[22.147,39.1611],[22.2359,39.2402],[22.2844,39.2175],[22.3547,39.1975],[22.4054,39.169],[22.413,39.1242],[22.4285,39.114],[22.4939,39.1192],[22.4926,39.0509],[22.516,39.0287],[22.5546,39.0263],[22.6308,39.0327],[22.7144,38.9942],[22.7863,38.9819],[22.8394,38.9803],[22.8694,38.957],[22.9271,38.9602],[22.966,38.9742],[22.9967,38.9634],[23.0144,38.9934],[23.1116,39.05],[23.2027,39.103],[23.2186,39.1039],[23.2855,39.148],[23.3013,39.1514],[23.3438,39.1796],[23.3432,39.1849],[23.3518,39.1899],[23.3515,39.1902],[23.3518,39.1903],[23.331,39.2098],[23.2957,39.2637],[23.287,39.2883],[23.2823,39.2945],[23.2713,39.3229],[23.2468,39.3413],[23.233,39.3595],[23.1441,39.45],[23.1074,39.4873],[23.1018,39.4974],[23.0559,39.5272],[23.024,39.5373],[22.9774,39.5643],[22.9198,39.6286],[22.8664,39.7393],[22.8587,39.7733],[22.8403,39.8034],[22.8011,39.8403],[22.7877,39.8479],[22.777,39.8583],[22.7623,39.8977],[22.7437,39.9475],[22.7105,39.9475],[22.7159,40.022],[22.7065,40.0471],[22.632,40.2463],[22.6283,40.2563],[22.7422,40.3901],[22.75,40.5],[22.75,40.75],[23.2,40.82],[23.65,40.85],[23.9373,40.8021],[23.9429,40.8031],[23.8572,40.7883],[23.8543,40.7812],[23.8635,40.7796],[23.8635,40.718],[23.8978,40.7254],[23.9665,40.7402],[23.9863,40.7322],[24.0731,40.7214],[24.1101,40.7279],[24.2959,40.8112],[24.6124,40.8794],[24.6287,40.8586],[24.6619,40.8791],[24.6798,40.8694],[24.6907,40.8682],[24.7284,40.8527],[24.7539,40.8614],[24.79,40.8575],[24.802,40.8535],[24.8297,40.8768],[24.8342,40.8791],[24.82,40.95],[24.8,41.08],[24.75,41.15],[24.7,41.25],[24.65,41.4],[24.6471,41.4172],[24.6382,41.4177],[24.6443,41.4277],[24.5958,41.4298],[24.5811,41.4602],[24.5494,41.4854],[24.5309,41.5475],[24.5102,41.5617],[24.4592,41.5495],[24.4388,41.5277],[24.3539,41.5191],[24.2868,41.5176],[24.2864,41.5404],[24.2507,41.5635],[24.1977,41.5477],[24.0779,41.624],[24.1231,41.6546],[24.0726,41.6863],[24.042,41.7104],[23.9282,41.769],[23.9055,41.7965],[23.8682,41.7954],[23.8217,41.8238],[23.7957,41.8609],[23.7896,41.906],[23.7625,41.9399],[23.7666,41.9765],[23.7919,42.0207],[23.8205,42.0453],[23.8013,42.0627],[23.8133,42.0962],[23.8096,42.1329],[23.7726,42.1582],[23.7631,42.1776],[23.718,42.1605],[23.6984,42.1668],[23.6002,42.1509],[23.5808,42.1144],[23.5475,42.0841],[23.4936,42.0991],[23.5298,42.1352],[23.4733,42.1464],[23.4281,42.1869],[23.339,42.1732],[23.3246,42.1957],[23.3684,42.2446],[23.3993,42.2621],[23.3276,42.3172],[23.2939,42.3736],[23.2157,42.3732],[23.1879,42.3706],[23.1312,42.385],[23.1028,42.4032],[23.0902,42.376],[23.0001,42.3968],[22.9173,42.3888],[22.8775,42.3641],[22.8501,42.3602],[22.7653,42.4188],[22.7132,42.474],[22.7163,42.5059],[22.6988,42.5254],[22.6691,42.5192],[22.6484,42.5544],[22.6122,42.5921],[22.599,42.6204],[22.5685,42.6324],[22.4413,42.6329],[22.4421,42.6817],[22.4814,42.7398],[22.4531,42.7636],[22.4304,42.8171],[22.4814,42.8467],[22.506,42.8701],[22.5448,42.8717],[22.4654,42.8781],[22.4138,42.8932],[22.3592,42.9296],[22.4014,42.9426],[22.39,42.956],[22.2892,42.991],[22.2556,42.9929],[22.2044,43.0132],[22.2024,43.0222],[22.257,43.0585],[22.234,43.074],[22.2466,43.0907],[22.2956,43.1099],[22.2605,43.1515],[22.2341,43.1484],[22.1741,43.1805],[22.1136,43.2029],[22.1451,43.2576],[22.1612,43.2599],[22.1374,43.3369],[22.1649,43.3437],[22.206,43.3381],[22.2554,43.3195],[22.3283,43.3281],[22.3373,43.3824],[22.3515,43.4242],[22.3371,43.4434],[22.3035,43.4585],[22.2748,43.4388],[22.212,43.4685],[22.1661,43.4609],[22.0722,43.4928],[22.0565,43.4892],[22.0223,43.5198],[22.0232,43.5354],[21.9773,43.57],[21.9551,43.571],[21.9537,43.5465],[21.9866,43.5256],[21.9127,43.5136],[21.8835,43.5376],[21.8658,43.5691],[21.8118,43.5778],[21.7752,43.5755],[21.7049,43.6418],[21.6882,43.6704],[21.6838,43.7026],[21.699,43.7198],[21.6756,43.7428],[21.7039,43.7563],[21.646,43.8029],[21.6895,43.8477],[21.6698,43.8668],[21.6804,43.8911],[21.724,43.9032],[21.7241,43.9246],[21.7767,43.9743],[21.7724,43.9918],[21.7901,44.0361],[21.8178,44.0656],[21.8546,44.0688],[21.903,44.0946],[21.9409,44.0959],[21.9608,44.1101],[21.9443,44.1411],[21.957,44.1533],[21.9581,44.1952],[21.9461,44.2279],[21.9142,44.2095],[21.8961,44.2228],[21.8944,44.2749],[21.8511,44.3031],[21.8157,44.2981],[21.8134,44.3254],[21.7964,44.3409],[21.7997,44.3638],[21.8269,44.3979],[21.8558,44.3967],[21.8847,44.4258],[21.9125,44.4257],[21.9247,44.4418],[21.9182,44.4673],[21.9348,44.4948],[21.9298,44.5144],[21.9534,44.5226],[21.9702,44.5462],[22.0362,44.5895],[22.0342,44.5962],[22.0043,44.6515],[21.8554,44.6985],[21.7568,44.6773],[21.7052,44.6771],[21.6563,44.6877],[21.6197,44.7139],[21.5956,44.766],[21.5584,44.7817],[21.4972,44.778],[21.3959,44.7902],[21.3598,44.8267],[21.2695,44.8137],[21.1888,44.7782],[21.1638,44.7478],[21.1123,44.7448],[21.0779,44.7265],[21.0368,44.722],[20.9896,44.7168],[20.8832,44.6727],[20.8265,44.6609],[20.7948,44.6647],[20.7715,44.6163],[20.7815,44.5876],[20.8064,44.5632],[20.7371,44.533],[20.7641,44.496],[20.8211,44.464],[20.8376,44.4415],[20.8191,44.4159],[20.7759,44.4228],[20.7567,44.416],[20.7315,44.3785],[20.7579,44.3511],[20.787,44.3448],[20.7676,44.3312],[20.772,44.2978],[20.7314,44.3227],[20.6846,44.3347],[20.6498,44.3218],[20.623,44.3398],[20.6065,44.3737],[20.5431,44.3556],[20.5379,44.3857],[20.4838,44.3989],[20.4422,44.4189],[20.4095,44.4026],[20.3996,44.3821],[20.4312,44.3603],[20.4003,44.3247],[20.3891,44.2943],[20.3602,44.2907],[20.3242,44.255],[20.2883,44.2562],[20.2616,44.2448],[20.2103,44.2867],[20.1881,44.3233],[20.1915,44.3551],[20.2258,44.4077],[20.2176,44.4787],[20.1766,44.5423],[20.1516,44.5058],[20.1254,44.4957],[20.0951,44.526],[20.0434,44.5072],[19.9939,44.5206],[19.9696,44.5398],[19.9711,44.5648],[19.9612,44.5937],[19.9734,44.6412],[19.9404,44.6318],[19.9308,44.6593],[20.0101,44.6889],[19.9826,44.6959],[19.914,44.6954],[19.8463,44.7335],[19.7966,44.7516],[19.7453,44.7522],[19.7203,44.7645],[19.7006,44.8076],[19.7533,44.8921],[19.7569,44.9154],[19.6735,44.9345],[19.6447,44.9127],[19.6003,44.914],[19.5521,44.9005],[19.4992,44.9169],[19.4739,44.9014],[19.4061,44.9416],[19.3716,44.9139],[19.3249,44.9223],[19.357,44.8959],[19.3766,44.863],[19.3637,44.8546],[19.3284,44.734],[19.3084,44.7051],[19.2776,44.6849],[19.2557,44.6456],[19.1863,44.5693],[19.1796,44.5383],[19.1472,44.575],[19.0993,44.5942],[19.0311,44.5675],[19.0284,44.4902],[19.0199,44.4759],[18.9226,44.4265],[18.8382,44.4165],[18.8067,44.3736],[18.7538,44.3578],[18.7452,44.3407],[18.7523,44.2992],[18.7824,44.2462],[18.7924,44.2148],[18.7867,44.1804],[18.7631,44.1488],[18.7366,44.1203],[18.9084,44.092],[19.0057,44.0474],[19.1274,43.9987],[19.225,43.9215],[19.2166,43.9055],[19.2247,43.8527],[19.2207,43.8162],[19.2409,43.7757],[19.2207,43.7514],[19.1761,43.7554],[19.1436,43.7716],[19.0706,43.7838],[19.0017,43.7676],[18.9497,43.742],[18.9726,43.7248],[19.0284,43.7176],[19.0456,43.7019],[19.0571,43.6733],[19.0513,43.659],[19.0199,43.6547],[18.9626,43.6175],[18.8854,43.5917],[18.7609,43.576],[18.6937,43.5832],[18.6493,43.5989],[18.583,43.6367],[18.5527,43.6171],[18.4684,43.6139],[18.4294,43.5879],[18.3904,43.5939],[18.3827,43.5883],[18.3705,43.5567],[18.3947,43.4523],[18.3904,43.4381],[18.3561,43.4381],[18.2573,43.4451],[18.1701,43.4423],[18.0299,43.4451],[18.0227,43.4237],[18.0471,43.3951],[18.0513,43.3621],[18.0571,43.2077],[17.9913,43.1561],[17.9913,43.1291]],[[22.7096,39.935],[22.7098,39.9378],[22.7098,39.935],[22.7096,39.935]]],[[[23.5872,39.2076],[23.6278,39.1473],[23.6342,39.1428],[23.6646,39.0952],[23.6663,39.0948],[23.666,39.0928],[23.7168,39.0772],[23.7295,39.0811],[23.7366,39.0796],[23.7367,39.0797],[23.737,39.0796],[23.7447,39.0858],[23.7603,39.0906],[23.7927,39.1182],[23.7727,39.1293],[23.7488,39.1304],[23.729,39.1404],[23.7305,39.1461],[23.6834,39.1632],[23.6522,39.1788],[23.6013,39.2138],[23.5872,39.2076]]],[[[23.8335,39.1461],[23.8645,39.144],[23.8958,39.1618],[23.8999,39.1677],[23.9386,39.2011],[23.9597,39.244],[23.967,39.2512],[23.971,39.2671],[23.9722,39.2719],[23.9398,39.2798],[23.9017,39.2328],[23.8878,39.2258],[23.8488,39.1592],[23.8335,39.1461]]],[[[24.512,40.6668],[24.5146,40.6519],[24.5142,40.6476],[24.5142,40.6472],[24.5155,40.6465],[24.5168,40.6391],[24.5402,40.634],[24.6114,40.5978],[24.6423,40.5706],[24.6639,40.5839],[24.7738,40.6142],[24.7738,40.6146],[24.7735,40.618],[24.7824,40.6202],[24.7705,40.6556],[24.7702,40.6595],[24.7789,40.6813],[24.7864,40.6879],[24.7831,40.6918],[24.7882,40.7045],[24.7881,40.7047],[24.7882,40.7049],[24.7738,40.7309],[24.7703,40.7345],[24.7864,40.7351],[24.7492,40.7562],[24.7412,40.7644],[24.7317,40.7835],[24.7213,40.785],[24.7198,40.7865],[24.702,40.7878],[24.6746,40.7917],[24.6423,40.8039],[24.6255,40.7932],[24.6226,40.7934],[24.6222,40.7934],[24.5862,40.7691],[24.5843,40.7669],[24.5667,40.7556],[24.5334,40.7182],[24.5234,40.6942],[24.5178,40.6875],[24.517,40.6789],[24.512,40.6668]]],[[[25.4435,40.4819],[25.4663,40.4558],[25.5326,40.415],[25.5661,40.405],[25.5727,40.4007],[25.573,40.4008],[25.5731,40.4007],[25.5772,40.4017],[25.5891,40.3981],[25.6826,40.4231],[25.6837,40.4265],[25.6847,40.4267],[25.6845,40.4271],[25.6847,40.4271],[25.6842,40.428],[25.6907,40.4477],[25.6887,40.475],[25.6565,40.4962],[25.5759,40.5147],[25.5715,40.5148],[25.5695,40.5157],[25.5692,40.5156],[25.5691,40.5157],[25.5661,40.5149],[25.5466,40.5153],[25.5021,40.4976],[25.4467,40.4827],[25.447,40.4825],[25.4469,40.4825],[25.4471,40.4824],[25.4467,40.4823],[25.4474,40.4818],[25.4435,40.4819]]]]}}
]}
