{"type":"FeatureCollection","features":[
{"type":"Feature","properties":{"entityId":"sicily-kingdom","from":1400,"to":1409,"certainty":"estimated","source":"유럽 쪽은 Natural Earth 1:10m admin-1(v5.1.2) 현대 행정구역 조각을 그 시기 국경에 맞춰 묶고, 조각이 역사 경계와 다른 곳은 선을 그어 나눈 근사. 유럽 밖(시베리아·중앙아시아·극동)은 대략적인 추정. 운영자 검수 필요"},"geometry":{"type":"MultiPolygon","coordinates":[[[[12.9632,38.0966],[12.9993,38.0938],[13.0491,38.0899],[13.0553,38.1304],[13.0582,38.1321],[13.0547,38.1418],[13.0894,38.166],[13.1009,38.1901],[13.1473,38.184],[13.1597,38.1912],[13.2342,38.1912],[13.2544,38.2025],[13.3102,38.2196],[13.3719,38.1728],[13.3732,38.1438],[13.3833,38.1269],[13.4337,38.1113],[13.4601,38.1073],[13.5135,38.1105],[13.5413,38.0941],[13.5445,38.0741],[13.5944,38.0473],[13.7395,38.036],[14.1286,38.0772],[14.1652,38.0811],[14.2017,38.0849],[14.2747,38.0927],[14.4207,38.1081],[14.7127,38.139],[14.7337,38.1576],[14.7627,38.1588],[14.7905,38.1669],[14.8445,38.1721],[14.8448,38.1721],[14.8449,38.1721],[14.855,38.1718],[14.874,38.1757],[14.9071,38.1877],[14.945,38.1818],[14.9574,38.1692],[14.9769,38.1687],[15.2037,38.1945],[15.2207,38.2102],[15.2407,38.2412],[15.245,38.2194],[15.2802,38.2311],[15.2804,38.231],[15.2806,38.2311],[15.3382,38.218],[15.3481,38.2204],[15.4998,38.2919],[15.5056,38.2922],[15.5129,38.2976],[15.5593,38.3001],[15.616,38.2802],[15.6516,38.2753],[15.6292,38.2638],[15.5758,38.2203],[15.5636,38.1999],[15.5759,38.2002],[15.527,38.1368],[15.5003,38.0849],[15.454,38.0382],[15.4116,37.9893],[15.345,37.8436],[15.3227,37.795],[15.3004,37.7463],[15.2559,37.649],[15.1669,37.4544],[15.1619,37.4434],[15.1798,37.4058],[15.203,37.3571],[15.2494,37.2598],[15.252,37.2577],[15.251,37.2565],[15.3094,37.1338],[15.3093,37.1336],[15.3094,37.1334],[15.297,37.1031],[15.3032,37.1012],[15.3027,37.0625],[15.2948,37.0567],[15.295,37.0558],[15.295,37.0467],[15.3123,37.044],[15.3324,37.0116],[15.3089,37.0178],[15.2888,37.0092],[15.2681,36.9939],[15.2681,36.9731],[15.2445,36.9721],[15.2435,36.9717],[15.1319,36.6976],[15.1349,36.6877],[15.1192,36.6663],[15.1006,36.6206],[15.1003,36.6208],[15.1002,36.6206],[15.0445,36.6479],[15.0071,36.6662],[14.9697,36.6845],[14.8912,36.723],[14.8878,36.7238],[14.8201,36.7154],[14.7808,36.6994],[14.7443,36.7191],[14.6846,36.726],[14.6622,36.7502],[14.6141,36.7672],[14.5565,36.7759],[14.5372,36.784],[14.4873,36.7934],[14.4758,36.8049],[14.4153,36.9092],[14.3668,36.9707],[14.3642,36.9732],[14.334,36.994],[14.3295,36.9971],[14.3038,37.0026],[14.2434,37.0155],[14.1227,37.0412],[14.0624,37.0541],[14.0322,37.0605],[14.002,37.067],[13.8812,37.0928],[13.8257,37.1046],[13.3983,37.2604],[12.9154,37.4364],[12.8852,37.4474],[12.8551,37.4584],[12.7947,37.4804],[12.674,37.5244],[12.4325,37.6124],[12.4326,37.6128],[12.4325,37.6128],[12.4632,37.7281],[12.4563,37.7598],[12.4274,37.8093],[12.4388,37.8126],[12.4361,37.8193],[12.4362,37.8195],[12.4361,37.8197],[12.47,37.9001],[12.4641,37.9129],[12.4905,37.954],[12.5042,38.0112],[12.4929,38.0214],[12.5234,38.0314],[12.5455,38.0482],[12.5477,38.0523],[12.5497,38.0535],[12.5693,38.1274],[12.5697,38.1274],[12.6757,38.119],[12.7025,38.1426],[12.721,38.1654],[12.7199,38.1755],[12.7304,38.1769],[12.7349,38.1825],[12.7351,38.1823],[12.7353,38.1825],[12.7396,38.1781],[12.7609,38.181],[12.7831,38.1335],[12.8072,38.1088],[12.9272,38.0994],[12.9632,38.0966]]],[[[12.0334,36.8062],[12.0515,36.7904],[12.0535,36.7676],[12.0501,36.7637],[12.0513,36.7572],[12.0512,36.7572],[12.0513,36.7568],[12.0423,36.7548],[12.0306,36.7414],[11.9961,36.7449],[11.9726,36.7624],[11.9393,36.7794],[11.9387,36.7878],[11.9373,36.7888],[11.9222,36.8284],[11.9427,36.8386],[11.9465,36.844],[11.9468,36.8439],[11.9469,36.844],[11.9512,36.8428],[11.9513,36.8428],[11.9515,36.8427],[11.994,36.8306],[11.9995,36.8359],[12.0111,36.8258],[12.0261,36.8215],[12.0334,36.8062]]]]}}
]}
