{"type":"FeatureCollection","features":[
{"type":"Feature","properties":{"entityId":"slavic-tribes","from":1000,"to":1039,"certainty":"estimated","source":"유럽 쪽은 Natural Earth 1:10m admin-1(v5.1.2) 현대 행정구역 조각을 그 시기 국경에 맞춰 묶고, 조각이 역사 경계와 다른 곳은 선을 그어 나눈 근사. 유럽 밖(시베리아·중앙아시아·극동)은 대략적인 추정. 운영자 검수 필요"},"geometry":{"type":"MultiPolygon","coordinates":[[[[10.6012,53.3718],[10.6755,53.3737],[10.7097,53.3683],[10.7316,53.352],[10.7346,53.3217],[10.7394,53.3085],[10.7558,53.3029],[10.7751,53.3002],[10.7868,53.2934],[10.8073,53.2756],[10.8393,53.2601],[10.9302,53.2285],[11.0401,53.1664],[11.0681,53.1555],[11.0894,53.1442],[11.1093,53.1558],[11.1434,53.1727],[11.1645,53.1709],[11.1943,53.1409],[11.2014,53.1405],[11.2247,53.153],[11.2397,53.142],[11.2558,53.1362],[11.2741,53.1175],[11.3276,53.0724],[11.3656,53.064],[11.4169,53.0809],[11.4609,53.0794],[11.4907,53.0607],[11.5813,53.0429],[11.6257,53.0503],[11.6223,53.0224],[11.6806,53.0122],[11.6942,52.984],[11.7629,52.9951],[11.8073,52.9603],[11.8508,52.9551],[11.8319,52.9282],[11.8967,52.9017],[11.9655,52.8852],[12.0929,52.8917],[12.1112,52.8666],[12.1707,52.8722],[12.2033,52.8659],[12.2332,52.8163],[12.2296,52.7987],[12.1971,52.7822],[12.2087,52.7519],[12.191,52.739],[12.2076,52.7061],[12.2281,52.6902],[12.2047,52.6412],[12.162,52.6361],[12.1508,52.58],[12.1243,52.555],[12.1626,52.5468],[12.1496,52.5199],[12.1686,52.5137],[12.2006,52.5248],[12.2084,52.5411],[12.2608,52.5133],[12.2911,52.5181],[12.2867,52.4842],[12.247,52.4424],[12.2573,52.4309],[12.2333,52.3888],[12.234,52.3462],[12.2067,52.3069],[12.209,52.279],[12.2481,52.2524],[12.222,52.2324],[12.1991,52.1939],[12.2197,52.1637],[12.2605,52.1283],[12.2991,52.1097],[12.3613,52.0577],[12.3651,52.0401],[12.4208,52.0116],[12.4666,52.0215],[12.4975,52.0005],[12.5615,51.9717],[12.6076,51.9654],[12.6668,51.9944],[12.7948,51.9462],[12.8441,51.9417],[12.8719,51.9129],[12.9512,51.9069],[12.9915,51.8816],[13.0662,51.8526],[13.1323,51.8576],[13.1608,51.8444],[13.1846,51.8621],[13.2368,51.8555],[13.1635,51.789],[13.1573,51.7485],[13.1816,51.7086],[13.1504,51.6729],[13.0823,51.6384],[13.0617,51.6151],[13.1011,51.5909],[13.1409,51.5854],[13.1715,51.5662],[13.1653,51.5453],[13.196,51.5286],[13.2105,51.4909],[13.189,51.4762],[13.1982,51.4328],[13.1739,51.4068],[13.1877,51.3852],[13.2194,51.4029],[13.2522,51.3852],[13.4108,51.4214],[13.4577,51.407],[13.5217,51.3669],[13.55,51.3634],[13.55,51.75],[13.75,51.95],[13.95,52.08],[14.3,52.1],[14.6,52.02],[14.6973,51.9616],[14.6991,51.9925],[14.7261,52.0264],[14.7354,52.054],[14.7614,52.0767],[14.6964,52.1067],[14.6864,52.121],[14.707,52.1795],[14.6926,52.1996],[14.7121,52.2154],[14.6969,52.2535],[14.6066,52.2758],[14.5842,52.2912],[14.5901,52.3094],[14.5454,52.3822],[14.5398,52.4219],[14.5916,52.4498],[14.6323,52.4967],[14.6091,52.5178],[14.6448,52.5769],[14.608,52.5965],[14.6324,52.6499],[14.6543,52.6699],[14.7394,52.6782],[14.7899,52.6911],[14.8683,52.7581],[14.9319,52.8426],[15.0298,52.8753],[15.1958,52.842],[15.2487,52.8465],[15.3101,52.8896],[15.3481,52.9333],[15.301,52.9523],[15.3575,52.9542],[15.527,52.9893],[15.7331,52.9889],[15.7836,53.0112],[15.8733,53.0803],[15.9258,53.1053],[15.9801,53.1099],[16.0304,53.1032],[16.0384,53.0884],[16.0567,53.0543],[16.0385,53.0067],[16.0938,52.9956],[16.155,52.9736],[16.2174,52.9787],[16.2788,52.9932],[16.3753,53.0482],[16.4562,53.1247],[16.601,53.1755],[16.6747,53.1893],[16.7036,53.2058],[16.7579,53.2537],[16.7516,53.2824],[16.7204,53.3064],[16.6833,53.318],[16.6078,53.3296],[16.5451,53.366],[16.5296,53.4017],[16.5285,53.4415],[16.5511,53.4606],[16.7351,53.4577],[16.7653,53.4612],[16.7908,53.525],[16.8365,53.5852],[16.8722,53.5946],[16.9477,53.5882],[16.9958,53.5529],[17.0372,53.5093],[17.0957,53.4881],[17.2993,53.4831],[17.3356,53.4712],[17.4,53.6],[17.5,53.9],[17.62,54.05],[17.75,54.2],[17.85,54.35],[17.9,54.5],[17.98,54.65],[18.05,54.82],[18.0507,54.8333],[18.0344,54.832],[17.8854,54.8241],[17.853,54.8177],[17.8434,54.8169],[17.8353,54.8156],[17.6242,54.8515],[17.6238,54.8515],[17.053,54.6982],[16.8531,54.6445],[16.8031,54.631],[16.7531,54.6176],[16.6531,54.5907],[16.3638,54.513],[16.2531,54.4803],[14.8013,54.0509],[14.773,54.0387],[14.7366,54.0229],[14.7149,54.0183],[14.6532,54.0008],[14.5173,53.9652],[14.4989,53.9572],[14.3838,53.9246],[14.3046,53.9287],[14.2561,53.9312],[14.2509,53.9315],[14.2113,53.9506],[14.2075,53.9524],[14.1103,53.9993],[14.0166,54.06],[13.9862,54.0712],[13.9484,54.0798],[13.8865,54.101],[13.8801,54.1039],[13.856,54.1184],[13.8441,54.1313],[13.8237,54.164],[13.815,54.1737],[13.7962,54.1783],[13.7776,54.174],[13.7622,54.1645],[13.7529,54.1531],[13.7653,54.1419],[13.8062,54.1166],[13.815,54.1013],[13.8093,54.0751],[13.795,54.0578],[13.7874,54.0683],[13.7937,54.0832],[13.8081,54.0979],[13.8081,54.1047],[13.7345,54.1411],[13.7319,54.1447],[13.7253,54.1537],[13.7249,54.1537],[13.6999,54.1526],[13.6983,54.1531],[13.6983,54.1593],[13.7147,54.164],[13.7119,54.1737],[13.6834,54.168],[13.6383,54.1499],[13.4584,54.142],[13.4145,54.1574],[13.3979,54.1652],[13.4035,54.1737],[13.3838,54.1781],[13.3757,54.1757],[13.3129,54.2052],[13.2888,54.2343],[13.2632,54.2425],[13.2284,54.2474],[13.2108,54.2532],[13.1707,54.2721],[13.1707,54.2766],[13.1612,54.2766],[13.1493,54.2822],[13.0805,54.3565],[13.0956,54.3723],[13.0837,54.379],[13.0504,54.3891],[13.0305,54.4106],[13.0229,54.4113],[13.021,54.4145],[13.0215,54.4265],[13.0342,54.4337],[13.0088,54.4381],[12.9691,54.4294],[12.941,54.4188],[12.9007,54.4225],[12.9212,54.4335],[12.9084,54.4446],[12.8796,54.4488],[12.8566,54.4411],[12.8191,54.4517],[12.7221,54.4517],[12.5769,54.4679],[12.5765,54.4679],[12.5617,54.4589],[12.5483,54.4621],[12.527,54.4821],[12.5339,54.4883],[12.5134,54.4822],[12.502,54.4736],[12.4924,54.4578],[12.4153,54.4201],[11.9573,54.1965],[11.7432,54.157],[11.7288,54.1585],[11.6897,54.1552],[11.6579,54.1422],[11.6569,54.1411],[11.2047,54.0577],[10.9787,54.016],[10.9505,54.0108],[10.9389,54.0087],[10.9401,54.0474],[10.9222,54.0474],[10.9222,53.9614],[10.906,53.9612],[10.9042,53.9313],[10.9203,53.9205],[10.9605,53.9129],[10.9453,53.9052],[10.9129,53.9021],[10.9067,53.9053],[10.9073,53.9155],[10.8852,53.9191],[10.8613,53.9098],[10.8123,53.8827],[10.7726,53.8699],[10.7633,53.8651],[10.7513,53.8431],[10.753,53.8341],[10.7615,53.8225],[10.771,53.7933],[10.7674,53.7746],[10.7584,53.7519],[10.7609,53.7467],[10.7781,53.7458],[10.8059,53.7412],[10.8466,53.7085],[10.8655,53.6999],[10.8789,53.702],[10.9146,53.6968],[10.9381,53.6847],[10.9456,53.6771],[10.9465,53.6649],[10.955,53.6555],[10.956,53.6391],[10.9398,53.6287],[10.9406,53.6114],[10.9527,53.5844],[10.953,53.5737],[10.9423,53.5697],[10.9544,53.5661],[10.9381,53.5525],[10.929,53.5485],[10.9115,53.5714],[10.9036,53.5723],[10.8578,53.5682],[10.8414,53.5719],[10.8297,53.5701],[10.8324,53.5441],[10.8239,53.5313],[10.8204,53.5148],[10.8049,53.5094],[10.7602,53.4882],[10.7257,53.4811],[10.7082,53.4794],[10.7017,53.4755],[10.6945,53.4601],[10.6863,53.4568],[10.6611,53.4582],[10.6408,53.451],[10.6354,53.4452],[10.6272,53.4137],[10.6272,53.4015],[10.6222,53.391],[10.6012,53.3718]]],[[[13.1155,54.3381],[13.1775,54.3102],[13.1775,54.3039],[13.1623,54.3077],[13.1489,54.3048],[13.1428,54.298],[13.1497,54.2903],[13.1597,54.291],[13.1903,54.2998],[13.2048,54.2972],[13.1992,54.2844],[13.2101,54.2758],[13.2424,54.2692],[13.2679,54.2565],[13.2842,54.2628],[13.3147,54.263],[13.3079,54.2692],[13.3095,54.2704],[13.3238,54.2639],[13.3195,54.2564],[13.3115,54.2511],[13.347,54.2375],[13.3787,54.2309],[13.4072,54.2282],[13.423,54.2327],[13.4251,54.2432],[13.421,54.256],[13.4805,54.3373],[13.5953,54.3373],[13.6586,54.3058],[13.6511,54.3039],[13.6511,54.2972],[13.6633,54.2939],[13.6795,54.294],[13.6813,54.2945],[13.7006,54.2849],[13.6909,54.2835],[13.7232,54.2784],[13.7282,54.3057],[13.7361,54.3148],[13.736,54.3151],[13.7361,54.3152],[13.7338,54.3215],[13.7401,54.3298],[13.7531,54.3393],[13.7664,54.3449],[13.742,54.3505],[13.7249,54.3636],[13.7136,54.3757],[13.7109,54.3829],[13.7046,54.3853],[13.6983,54.3921],[13.6774,54.4008],[13.6569,54.4037],[13.6029,54.4245],[13.5814,54.4643],[13.6029,54.4884],[13.6338,54.5095],[13.6511,54.5163],[13.6773,54.5405],[13.6707,54.5662],[13.6405,54.5857],[13.596,54.5914],[13.5863,54.5903],[13.4913,54.6155],[13.4517,54.6502],[13.4391,54.6715],[13.4451,54.6739],[13.4451,54.6801],[13.4314,54.6844],[13.4229,54.6988],[13.4225,54.6988],[13.3361,54.6971],[13.2947,54.6719],[13.2536,54.665],[13.231,54.6533],[13.2254,54.6466],[13.2248,54.635],[13.2312,54.6339],[13.2387,54.6369],[13.2317,54.5825],[13.1875,54.5512],[13.1664,54.5494],[13.1434,54.5429],[13.1589,54.5407],[13.166,54.5191],[13.1811,54.5107],[13.1813,54.5095],[13.1649,54.4364],[13.157,54.4268],[13.163,54.4277],[13.1561,54.3968],[13.1561,54.3964],[13.1598,54.3802],[13.1489,54.3773],[13.1292,54.3596],[13.1155,54.3381]]]]}},
{"type":"Feature","properties":{"entityId":"slavic-tribes","from":1039,"to":1116,"certainty":"estimated","source":"유럽 쪽은 Natural Earth 1:10m admin-1(v5.1.2) 현대 행정구역 조각을 그 시기 국경에 맞춰 묶고, 조각이 역사 경계와 다른 곳은 선을 그어 나눈 근사. 유럽 밖(시베리아·중앙아시아·극동)은 대략적인 추정. 운영자 검수 필요"},"geometry":{"type":"MultiPolygon","coordinates":[[[[10.6012,53.3718],[10.6755,53.3737],[10.7097,53.3683],[10.7316,53.352],[10.7346,53.3217],[10.7394,53.3085],[10.7558,53.3029],[10.7751,53.3002],[10.7868,53.2934],[10.8073,53.2756],[10.8393,53.2601],[10.9302,53.2285],[11.0401,53.1664],[11.0681,53.1555],[11.0894,53.1442],[11.1093,53.1558],[11.1434,53.1727],[11.1645,53.1709],[11.1943,53.1409],[11.2014,53.1405],[11.2247,53.153],[11.2397,53.142],[11.2558,53.1362],[11.2741,53.1175],[11.3276,53.0724],[11.3656,53.064],[11.4169,53.0809],[11.4609,53.0794],[11.4907,53.0607],[11.5813,53.0429],[11.6257,53.0503],[11.6223,53.0224],[11.6806,53.0122],[11.6942,52.984],[11.7629,52.9951],[11.8073,52.9603],[11.8508,52.9551],[11.8319,52.9282],[11.8967,52.9017],[11.9655,52.8852],[12.0929,52.8917],[12.1112,52.8666],[12.1707,52.8722],[12.2033,52.8659],[12.2332,52.8163],[12.2296,52.7987],[12.1971,52.7822],[12.2087,52.7519],[12.191,52.739],[12.2076,52.7061],[12.2281,52.6902],[12.2047,52.6412],[12.162,52.6361],[12.1508,52.58],[12.1243,52.555],[12.1626,52.5468],[12.1496,52.5199],[12.1686,52.5137],[12.2006,52.5248],[12.2084,52.5411],[12.2608,52.5133],[12.2911,52.5181],[12.2867,52.4842],[12.247,52.4424],[12.2573,52.4309],[12.2333,52.3888],[12.234,52.3462],[12.2067,52.3069],[12.209,52.279],[12.2481,52.2524],[12.222,52.2324],[12.1991,52.1939],[12.2197,52.1637],[12.2605,52.1283],[12.2991,52.1097],[12.3613,52.0577],[12.3651,52.0401],[12.4208,52.0116],[12.4666,52.0215],[12.4975,52.0005],[12.5615,51.9717],[12.6076,51.9654],[12.6668,51.9944],[12.7948,51.9462],[12.8441,51.9417],[12.8719,51.9129],[12.9512,51.9069],[12.9915,51.8816],[13.0662,51.8526],[13.1323,51.8576],[13.1608,51.8444],[13.1846,51.8621],[13.2368,51.8555],[13.1635,51.789],[13.1573,51.7485],[13.1816,51.7086],[13.1504,51.6729],[13.0823,51.6384],[13.0617,51.6151],[13.1011,51.5909],[13.1409,51.5854],[13.1715,51.5662],[13.1653,51.5453],[13.196,51.5286],[13.2105,51.4909],[13.189,51.4762],[13.1982,51.4328],[13.1739,51.4068],[13.1877,51.3852],[13.2194,51.4029],[13.2522,51.3852],[13.4108,51.4214],[13.4577,51.407],[13.5217,51.3669],[13.55,51.3634],[13.55,51.75],[13.75,51.95],[13.95,52.08],[14.3,52.1],[14.6,52.02],[14.6973,51.9616],[14.6991,51.9925],[14.7261,52.0264],[14.7354,52.054],[14.7614,52.0767],[14.6964,52.1067],[14.6864,52.121],[14.707,52.1795],[14.6926,52.1996],[14.7121,52.2154],[14.6969,52.2535],[14.6066,52.2758],[14.5842,52.2912],[14.5901,52.3094],[14.5454,52.3822],[14.5398,52.4219],[14.5916,52.4498],[14.6323,52.4967],[14.6091,52.5178],[14.6448,52.5769],[14.608,52.5965],[14.6324,52.6499],[14.6543,52.6699],[14.7394,52.6782],[14.7899,52.6911],[14.8683,52.7581],[14.9319,52.8426],[15.0298,52.8753],[15.1958,52.842],[15.2487,52.8465],[15.3101,52.8896],[15.3481,52.9333],[15.301,52.9523],[15.3575,52.9542],[15.527,52.9893],[15.7331,52.9889],[15.7836,53.0112],[15.8733,53.0803],[15.9258,53.1053],[15.9801,53.1099],[16.0304,53.1032],[16.0384,53.0884],[16.0567,53.0543],[16.0385,53.0067],[16.0938,52.9956],[16.155,52.9736],[16.2174,52.9787],[16.2788,52.9932],[16.3753,53.0482],[16.4562,53.1247],[16.601,53.1755],[16.6747,53.1893],[16.7036,53.2058],[16.7579,53.2537],[16.7516,53.2824],[16.7204,53.3064],[16.6833,53.318],[16.6078,53.3296],[16.5451,53.366],[16.5296,53.4017],[16.5285,53.4415],[16.5511,53.4606],[16.7351,53.4577],[16.7653,53.4612],[16.7908,53.525],[16.8365,53.5852],[16.8722,53.5946],[16.9477,53.5882],[16.9958,53.5529],[17.0372,53.5093],[17.0957,53.4881],[17.2993,53.4831],[17.3356,53.4712],[17.3528,53.4656],[17.3972,53.4338],[17.4252,53.444],[17.4554,53.5069],[17.5076,53.5616],[17.5445,53.5639],[17.6832,53.5424],[17.7455,53.5573],[17.7556,53.6058],[17.7877,53.6236],[17.8564,53.6388],[17.8971,53.6832],[17.9241,53.6956],[18.0511,53.681],[18.2205,53.696],[18.2557,53.6942],[18.3179,53.6532],[18.4978,53.6354],[18.583,53.6053],[18.6779,53.6321],[18.7594,53.6252],[18.8088,53.6027],[18.8746,53.5623],[18.9601,53.5375],[19.0741,53.5416],[19.1283,53.5559],[19.1681,53.6],[18.86,53.6],[18.86,53.88],[19.5,53.88],[19.5,53.7873],[19.5201,53.8251],[19.5504,53.8493],[19.5544,53.8822],[19.5044,53.8903],[19.4054,53.8855],[19.3698,53.8958],[19.3892,53.9352],[19.3632,53.9561],[19.3118,53.9601],[19.2636,53.9769],[19.2301,54.0095],[19.2093,54.0721],[19.2688,54.112],[19.2958,54.1465],[19.2428,54.2313],[19.2497,54.2654],[19.2739,54.2816],[19.3863,54.2766],[19.3652,54.2282],[19.4347,54.2971],[19.5634,54.3463],[19.6192,54.3535],[19.6839,54.3814],[19.7205,54.391],[19.7583,54.4343],[19.6803,54.4367],[19.6095,54.4567],[19.6133,54.4588],[19.6133,54.4645],[19.6038,54.4593],[19.5746,54.4429],[19.5606,54.435],[19.5391,54.4282],[19.1874,54.4325],[18.95,54.4354],[18.697,54.4385],[18.6214,54.6823],[18.4614,54.7094],[18.45,54.727],[18.4381,54.7453],[18.45,54.7447],[18.5022,54.7418],[18.6786,54.6654],[18.7659,54.6419],[18.784,54.6235],[18.8176,54.5981],[18.8343,54.6167],[18.814,54.6432],[18.7517,54.6901],[18.6743,54.7169],[18.535,54.77],[18.45,54.7971],[18.3226,54.8377],[18.3188,54.8377],[18.3169,54.8383],[18.1524,54.8383],[18.113,54.8362],[18.0846,54.836],[18.0507,54.8333],[18.0344,54.832],[17.8854,54.8241],[17.853,54.8177],[17.8434,54.8169],[17.8353,54.8156],[17.6242,54.8515],[17.6238,54.8515],[17.053,54.6982],[16.8531,54.6445],[16.8031,54.631],[16.7531,54.6176],[16.6531,54.5907],[16.3638,54.513],[16.2531,54.4803],[14.8013,54.0509],[14.773,54.0387],[14.7366,54.0229],[14.7149,54.0183],[14.6532,54.0008],[14.5173,53.9652],[14.4989,53.9572],[14.3838,53.9246],[14.3046,53.9287],[14.2561,53.9312],[14.2509,53.9315],[14.2113,53.9506],[14.2075,53.9524],[14.1103,53.9993],[14.0166,54.06],[13.9862,54.0712],[13.9484,54.0798],[13.8865,54.101],[13.8801,54.1039],[13.856,54.1184],[13.8441,54.1313],[13.8237,54.164],[13.815,54.1737],[13.7962,54.1783],[13.7776,54.174],[13.7622,54.1645],[13.7529,54.1531],[13.7653,54.1419],[13.8062,54.1166],[13.815,54.1013],[13.8093,54.0751],[13.795,54.0578],[13.7874,54.0683],[13.7937,54.0832],[13.8081,54.0979],[13.8081,54.1047],[13.7345,54.1411],[13.7319,54.1447],[13.7253,54.1537],[13.7249,54.1537],[13.6999,54.1526],[13.6983,54.1531],[13.6983,54.1593],[13.7147,54.164],[13.7119,54.1737],[13.6834,54.168],[13.6383,54.1499],[13.4584,54.142],[13.4145,54.1574],[13.3979,54.1652],[13.4035,54.1737],[13.3838,54.1781],[13.3757,54.1757],[13.3129,54.2052],[13.2888,54.2343],[13.2632,54.2425],[13.2284,54.2474],[13.2108,54.2532],[13.1707,54.2721],[13.1707,54.2766],[13.1612,54.2766],[13.1493,54.2822],[13.0805,54.3565],[13.0956,54.3723],[13.0837,54.379],[13.0504,54.3891],[13.0305,54.4106],[13.0229,54.4113],[13.021,54.4145],[13.0215,54.4265],[13.0342,54.4337],[13.0088,54.4381],[12.9691,54.4294],[12.941,54.4188],[12.9007,54.4225],[12.9212,54.4335],[12.9084,54.4446],[12.8796,54.4488],[12.8566,54.4411],[12.8191,54.4517],[12.7221,54.4517],[12.5769,54.4679],[12.5765,54.4679],[12.5617,54.4589],[12.5483,54.4621],[12.527,54.4821],[12.5339,54.4883],[12.5134,54.4822],[12.502,54.4736],[12.4924,54.4578],[12.4153,54.4201],[11.9573,54.1965],[11.7432,54.157],[11.7288,54.1585],[11.6897,54.1552],[11.6579,54.1422],[11.6569,54.1411],[11.2047,54.0577],[10.9787,54.016],[10.9505,54.0108],[10.9389,54.0087],[10.9401,54.0474],[10.9222,54.0474],[10.9222,53.9614],[10.906,53.9612],[10.9042,53.9313],[10.9203,53.9205],[10.9605,53.9129],[10.9453,53.9052],[10.9129,53.9021],[10.9067,53.9053],[10.9073,53.9155],[10.8852,53.9191],[10.8613,53.9098],[10.8123,53.8827],[10.7726,53.8699],[10.7633,53.8651],[10.7513,53.8431],[10.753,53.8341],[10.7615,53.8225],[10.771,53.7933],[10.7674,53.7746],[10.7584,53.7519],[10.7609,53.7467],[10.7781,53.7458],[10.8059,53.7412],[10.8466,53.7085],[10.8655,53.6999],[10.8789,53.702],[10.9146,53.6968],[10.9381,53.6847],[10.9456,53.6771],[10.9465,53.6649],[10.955,53.6555],[10.956,53.6391],[10.9398,53.6287],[10.9406,53.6114],[10.9527,53.5844],[10.953,53.5737],[10.9423,53.5697],[10.9544,53.5661],[10.9381,53.5525],[10.929,53.5485],[10.9115,53.5714],[10.9036,53.5723],[10.8578,53.5682],[10.8414,53.5719],[10.8297,53.5701],[10.8324,53.5441],[10.8239,53.5313],[10.8204,53.5148],[10.8049,53.5094],[10.7602,53.4882],[10.7257,53.4811],[10.7082,53.4794],[10.7017,53.4755],[10.6945,53.4601],[10.6863,53.4568],[10.6611,53.4582],[10.6408,53.451],[10.6354,53.4452],[10.6272,53.4137],[10.6272,53.4015],[10.6222,53.391],[10.6012,53.3718]]],[[[13.1155,54.3381],[13.1775,54.3102],[13.1775,54.3039],[13.1623,54.3077],[13.1489,54.3048],[13.1428,54.298],[13.1497,54.2903],[13.1597,54.291],[13.1903,54.2998],[13.2048,54.2972],[13.1992,54.2844],[13.2101,54.2758],[13.2424,54.2692],[13.2679,54.2565],[13.2842,54.2628],[13.3147,54.263],[13.3079,54.2692],[13.3095,54.2704],[13.3238,54.2639],[13.3195,54.2564],[13.3115,54.2511],[13.347,54.2375],[13.3787,54.2309],[13.4072,54.2282],[13.423,54.2327],[13.4251,54.2432],[13.421,54.256],[13.4805,54.3373],[13.5953,54.3373],[13.6586,54.3058],[13.6511,54.3039],[13.6511,54.2972],[13.6633,54.2939],[13.6795,54.294],[13.6813,54.2945],[13.7006,54.2849],[13.6909,54.2835],[13.7232,54.2784],[13.7282,54.3057],[13.7361,54.3148],[13.736,54.3151],[13.7361,54.3152],[13.7338,54.3215],[13.7401,54.3298],[13.7531,54.3393],[13.7664,54.3449],[13.742,54.3505],[13.7249,54.3636],[13.7136,54.3757],[13.7109,54.3829],[13.7046,54.3853],[13.6983,54.3921],[13.6774,54.4008],[13.6569,54.4037],[13.6029,54.4245],[13.5814,54.4643],[13.6029,54.4884],[13.6338,54.5095],[13.6511,54.5163],[13.6773,54.5405],[13.6707,54.5662],[13.6405,54.5857],[13.596,54.5914],[13.5863,54.5903],[13.4913,54.6155],[13.4517,54.6502],[13.4391,54.6715],[13.4451,54.6739],[13.4451,54.6801],[13.4314,54.6844],[13.4229,54.6988],[13.4225,54.6988],[13.3361,54.6971],[13.2947,54.6719],[13.2536,54.665],[13.231,54.6533],[13.2254,54.6466],[13.2248,54.635],[13.2312,54.6339],[13.2387,54.6369],[13.2317,54.5825],[13.1875,54.5512],[13.1664,54.5494],[13.1434,54.5429],[13.1589,54.5407],[13.166,54.5191],[13.1811,54.5107],[13.1813,54.5095],[13.1649,54.4364],[13.157,54.4268],[13.163,54.4277],[13.1561,54.3968],[13.1561,54.3964],[13.1598,54.3802],[13.1489,54.3773],[13.1292,54.3596],[13.1155,54.3381]]]]}},
{"type":"Feature","properties":{"entityId":"slavic-tribes","from":1116,"to":1157,"certainty":"estimated","source":"유럽 쪽은 Natural Earth 1:10m admin-1(v5.1.2) 현대 행정구역 조각을 그 시기 국경에 맞춰 묶고, 조각이 역사 경계와 다른 곳은 선을 그어 나눈 근사. 유럽 밖(시베리아·중앙아시아·극동)은 대략적인 추정. 운영자 검수 필요"},"geometry":{"type":"MultiPolygon","coordinates":[[[[10.6012,53.3718],[10.6755,53.3737],[10.7097,53.3683],[10.7316,53.352],[10.7346,53.3217],[10.7394,53.3085],[10.7558,53.3029],[10.7751,53.3002],[10.7868,53.2934],[10.8073,53.2756],[10.8393,53.2601],[10.9302,53.2285],[11.0401,53.1664],[11.0681,53.1555],[11.0894,53.1442],[11.1093,53.1558],[11.1434,53.1727],[11.1645,53.1709],[11.1943,53.1409],[11.2014,53.1405],[11.2247,53.153],[11.2397,53.142],[11.2558,53.1362],[11.2741,53.1175],[11.3276,53.0724],[11.3656,53.064],[11.4169,53.0809],[11.4609,53.0794],[11.4907,53.0607],[11.5813,53.0429],[11.6257,53.0503],[11.6223,53.0224],[11.6806,53.0122],[11.6942,52.984],[11.7629,52.9951],[11.8073,52.9603],[11.8508,52.9551],[11.8319,52.9282],[11.8967,52.9017],[11.9655,52.8852],[12.0929,52.8917],[12.1112,52.8666],[12.1707,52.8722],[12.2033,52.8659],[12.2332,52.8163],[12.2296,52.7987],[12.1971,52.7822],[12.2087,52.7519],[12.191,52.739],[12.2076,52.7061],[12.2281,52.6902],[12.2047,52.6412],[12.162,52.6361],[12.1508,52.58],[12.1243,52.555],[12.1626,52.5468],[12.1496,52.5199],[12.1686,52.5137],[12.2006,52.5248],[12.2084,52.5411],[12.2608,52.5133],[12.2911,52.5181],[12.2867,52.4842],[12.247,52.4424],[12.2573,52.4309],[12.2333,52.3888],[12.234,52.3462],[12.2067,52.3069],[12.209,52.279],[12.2481,52.2524],[12.222,52.2324],[12.1991,52.1939],[12.2197,52.1637],[12.2605,52.1283],[12.2991,52.1097],[12.3613,52.0577],[12.3651,52.0401],[12.4208,52.0116],[12.4666,52.0215],[12.4975,52.0005],[12.5615,51.9717],[12.6076,51.9654],[12.6668,51.9944],[12.7948,51.9462],[12.8441,51.9417],[12.8719,51.9129],[12.9512,51.9069],[12.9915,51.8816],[13.0662,51.8526],[13.1323,51.8576],[13.1608,51.8444],[13.1846,51.8621],[13.2368,51.8555],[13.1635,51.789],[13.1573,51.7485],[13.1816,51.7086],[13.1504,51.6729],[13.0823,51.6384],[13.0617,51.6151],[13.1011,51.5909],[13.1409,51.5854],[13.1715,51.5662],[13.1653,51.5453],[13.196,51.5286],[13.2105,51.4909],[13.189,51.4762],[13.1982,51.4328],[13.1739,51.4068],[13.1877,51.3852],[13.2194,51.4029],[13.2522,51.3852],[13.4108,51.4214],[13.4577,51.407],[13.5217,51.3669],[13.55,51.3634],[13.55,51.75],[13.75,51.95],[13.95,52.08],[14.3,52.1],[14.6,52.02],[14.6973,51.9616],[14.6991,51.9925],[14.7261,52.0264],[14.7354,52.054],[14.7614,52.0767],[14.6964,52.1067],[14.6864,52.121],[14.707,52.1795],[14.6926,52.1996],[14.7121,52.2154],[14.6969,52.2535],[14.6066,52.2758],[14.5842,52.2912],[14.5901,52.3094],[14.5454,52.3822],[14.5398,52.4219],[14.5916,52.4498],[14.6323,52.4967],[14.6091,52.5178],[14.6448,52.5769],[14.608,52.5965],[14.6324,52.6499],[14.6543,52.6699],[14.7394,52.6782],[14.7899,52.6911],[14.8683,52.7581],[14.9319,52.8426],[15.0298,52.8753],[15.1958,52.842],[15.2487,52.8465],[15.3101,52.8896],[15.3481,52.9333],[15.301,52.9523],[15.3575,52.9542],[15.527,52.9893],[15.7331,52.9889],[15.7836,53.0112],[15.8733,53.0803],[15.9258,53.1053],[15.9801,53.1099],[16.0304,53.1032],[16.0384,53.0884],[16.0567,53.0543],[16.0385,53.0067],[16.0938,52.9956],[16.155,52.9736],[16.2174,52.9787],[16.2788,52.9932],[16.3753,53.0482],[16.4562,53.1247],[16.601,53.1755],[16.6747,53.1893],[16.7036,53.2058],[16.7579,53.2537],[16.7516,53.2824],[16.7204,53.3064],[16.6833,53.318],[16.6078,53.3296],[16.5451,53.366],[16.5296,53.4017],[16.5285,53.4415],[16.5511,53.4606],[16.7351,53.4577],[16.7653,53.4612],[16.7908,53.525],[16.8365,53.5852],[16.8722,53.5946],[16.9477,53.5882],[16.9958,53.5529],[17.0372,53.5093],[17.0957,53.4881],[17.2993,53.4831],[17.3356,53.4712],[17.4,53.6],[17.5,53.9],[17.62,54.05],[17.75,54.2],[17.85,54.35],[17.9,54.5],[17.98,54.65],[18.05,54.82],[18.0507,54.8333],[18.0344,54.832],[17.8854,54.8241],[17.853,54.8177],[17.8434,54.8169],[17.8353,54.8156],[17.6242,54.8515],[17.6238,54.8515],[17.053,54.6982],[16.8531,54.6445],[16.8031,54.631],[16.7531,54.6176],[16.6531,54.5907],[16.3638,54.513],[16.2531,54.4803],[14.8013,54.0509],[14.773,54.0387],[14.7366,54.0229],[14.7149,54.0183],[14.6532,54.0008],[14.5173,53.9652],[14.4989,53.9572],[14.3838,53.9246],[14.3046,53.9287],[14.2561,53.9312],[14.2509,53.9315],[14.2113,53.9506],[14.2075,53.9524],[14.1103,53.9993],[14.0166,54.06],[13.9862,54.0712],[13.9484,54.0798],[13.8865,54.101],[13.8801,54.1039],[13.856,54.1184],[13.8441,54.1313],[13.8237,54.164],[13.815,54.1737],[13.7962,54.1783],[13.7776,54.174],[13.7622,54.1645],[13.7529,54.1531],[13.7653,54.1419],[13.8062,54.1166],[13.815,54.1013],[13.8093,54.0751],[13.795,54.0578],[13.7874,54.0683],[13.7937,54.0832],[13.8081,54.0979],[13.8081,54.1047],[13.7345,54.1411],[13.7319,54.1447],[13.7253,54.1537],[13.7249,54.1537],[13.6999,54.1526],[13.6983,54.1531],[13.6983,54.1593],[13.7147,54.164],[13.7119,54.1737],[13.6834,54.168],[13.6383,54.1499],[13.4584,54.142],[13.4145,54.1574],[13.3979,54.1652],[13.4035,54.1737],[13.3838,54.1781],[13.3757,54.1757],[13.3129,54.2052],[13.2888,54.2343],[13.2632,54.2425],[13.2284,54.2474],[13.2108,54.2532],[13.1707,54.2721],[13.1707,54.2766],[13.1612,54.2766],[13.1493,54.2822],[13.0805,54.3565],[13.0956,54.3723],[13.0837,54.379],[13.0504,54.3891],[13.0305,54.4106],[13.0229,54.4113],[13.021,54.4145],[13.0215,54.4265],[13.0342,54.4337],[13.0088,54.4381],[12.9691,54.4294],[12.941,54.4188],[12.9007,54.4225],[12.9212,54.4335],[12.9084,54.4446],[12.8796,54.4488],[12.8566,54.4411],[12.8191,54.4517],[12.7221,54.4517],[12.5769,54.4679],[12.5765,54.4679],[12.5617,54.4589],[12.5483,54.4621],[12.527,54.4821],[12.5339,54.4883],[12.5134,54.4822],[12.502,54.4736],[12.4924,54.4578],[12.4153,54.4201],[11.9573,54.1965],[11.7432,54.157],[11.7288,54.1585],[11.6897,54.1552],[11.6579,54.1422],[11.6569,54.1411],[11.2047,54.0577],[10.9787,54.016],[10.9505,54.0108],[10.9389,54.0087],[10.9401,54.0474],[10.9222,54.0474],[10.9222,53.9614],[10.906,53.9612],[10.9042,53.9313],[10.9203,53.9205],[10.9605,53.9129],[10.9453,53.9052],[10.9129,53.9021],[10.9067,53.9053],[10.9073,53.9155],[10.8852,53.9191],[10.8613,53.9098],[10.8123,53.8827],[10.7726,53.8699],[10.7633,53.8651],[10.7513,53.8431],[10.753,53.8341],[10.7615,53.8225],[10.771,53.7933],[10.7674,53.7746],[10.7584,53.7519],[10.7609,53.7467],[10.7781,53.7458],[10.8059,53.7412],[10.8466,53.7085],[10.8655,53.6999],[10.8789,53.702],[10.9146,53.6968],[10.9381,53.6847],[10.9456,53.6771],[10.9465,53.6649],[10.955,53.6555],[10.956,53.6391],[10.9398,53.6287],[10.9406,53.6114],[10.9527,53.5844],[10.953,53.5737],[10.9423,53.5697],[10.9544,53.5661],[10.9381,53.5525],[10.929,53.5485],[10.9115,53.5714],[10.9036,53.5723],[10.8578,53.5682],[10.8414,53.5719],[10.8297,53.5701],[10.8324,53.5441],[10.8239,53.5313],[10.8204,53.5148],[10.8049,53.5094],[10.7602,53.4882],[10.7257,53.4811],[10.7082,53.4794],[10.7017,53.4755],[10.6945,53.4601],[10.6863,53.4568],[10.6611,53.4582],[10.6408,53.451],[10.6354,53.4452],[10.6272,53.4137],[10.6272,53.4015],[10.6222,53.391],[10.6012,53.3718]]],[[[13.1155,54.3381],[13.1775,54.3102],[13.1775,54.3039],[13.1623,54.3077],[13.1489,54.3048],[13.1428,54.298],[13.1497,54.2903],[13.1597,54.291],[13.1903,54.2998],[13.2048,54.2972],[13.1992,54.2844],[13.2101,54.2758],[13.2424,54.2692],[13.2679,54.2565],[13.2842,54.2628],[13.3147,54.263],[13.3079,54.2692],[13.3095,54.2704],[13.3238,54.2639],[13.3195,54.2564],[13.3115,54.2511],[13.347,54.2375],[13.3787,54.2309],[13.4072,54.2282],[13.423,54.2327],[13.4251,54.2432],[13.421,54.256],[13.4805,54.3373],[13.5953,54.3373],[13.6586,54.3058],[13.6511,54.3039],[13.6511,54.2972],[13.6633,54.2939],[13.6795,54.294],[13.6813,54.2945],[13.7006,54.2849],[13.6909,54.2835],[13.7232,54.2784],[13.7282,54.3057],[13.7361,54.3148],[13.736,54.3151],[13.7361,54.3152],[13.7338,54.3215],[13.7401,54.3298],[13.7531,54.3393],[13.7664,54.3449],[13.742,54.3505],[13.7249,54.3636],[13.7136,54.3757],[13.7109,54.3829],[13.7046,54.3853],[13.6983,54.3921],[13.6774,54.4008],[13.6569,54.4037],[13.6029,54.4245],[13.5814,54.4643],[13.6029,54.4884],[13.6338,54.5095],[13.6511,54.5163],[13.6773,54.5405],[13.6707,54.5662],[13.6405,54.5857],[13.596,54.5914],[13.5863,54.5903],[13.4913,54.6155],[13.4517,54.6502],[13.4391,54.6715],[13.4451,54.6739],[13.4451,54.6801],[13.4314,54.6844],[13.4229,54.6988],[13.4225,54.6988],[13.3361,54.6971],[13.2947,54.6719],[13.2536,54.665],[13.231,54.6533],[13.2254,54.6466],[13.2248,54.635],[13.2312,54.6339],[13.2387,54.6369],[13.2317,54.5825],[13.1875,54.5512],[13.1664,54.5494],[13.1434,54.5429],[13.1589,54.5407],[13.166,54.5191],[13.1811,54.5107],[13.1813,54.5095],[13.1649,54.4364],[13.157,54.4268],[13.163,54.4277],[13.1561,54.3968],[13.1561,54.3964],[13.1598,54.3802],[13.1489,54.3773],[13.1292,54.3596],[13.1155,54.3381]]]]}},
{"type":"Feature","properties":{"entityId":"slavic-tribes","from":1157,"to":1160,"certainty":"estimated","source":"유럽 쪽은 Natural Earth 1:10m admin-1(v5.1.2) 현대 행정구역 조각을 그 시기 국경에 맞춰 묶고, 조각이 역사 경계와 다른 곳은 선을 그어 나눈 근사. 유럽 밖(시베리아·중앙아시아·극동)은 대략적인 추정. 운영자 검수 필요"},"geometry":{"type":"MultiPolygon","coordinates":[[[[10.6012,53.3718],[10.6755,53.3737],[10.7097,53.3683],[10.7316,53.352],[10.7346,53.3217],[10.7394,53.3085],[10.7558,53.3029],[10.7751,53.3002],[10.7868,53.2934],[10.8073,53.2756],[10.8393,53.2601],[10.9302,53.2285],[11.0401,53.1664],[11.0681,53.1555],[11.0894,53.1442],[11.1093,53.1558],[11.1434,53.1727],[11.1645,53.1709],[11.1943,53.1409],[11.2014,53.1405],[11.2247,53.153],[11.2397,53.142],[11.2558,53.1362],[11.2741,53.1175],[11.2963,53.1191],[11.3196,53.116],[11.3523,53.116],[11.3756,53.1098],[11.3943,53.1082],[11.399,53.1331],[11.4145,53.1378],[11.4472,53.1378],[11.5016,53.1191],[11.5281,53.1207],[11.5483,53.13],[11.5552,53.1461],[11.5509,53.1532],[11.5452,53.177],[11.5321,53.1877],[11.5295,53.1952],[11.5357,53.205],[11.5799,53.2296],[11.5996,53.2373],[11.6541,53.2497],[11.6884,53.2509],[11.7002,53.2484],[11.7319,53.2327],[11.7443,53.2156],[11.7645,53.2234],[11.7863,53.228],[11.8392,53.2265],[11.8361,53.2405],[11.816,53.2501],[11.8336,53.2555],[11.861,53.2514],[11.8843,53.2685],[11.9232,53.2799],[11.9401,53.2827],[11.959,53.2778],[11.9792,53.2902],[11.9963,53.298],[12.0119,53.2996],[12.0212,53.3151],[12.0228,53.3291],[12.0492,53.34],[12.0637,53.3561],[12.0954,53.3637],[12.1185,53.3669],[12.1284,53.3657],[12.1441,53.3553],[12.1593,53.3576],[12.1869,53.369],[12.2036,53.3664],[12.2264,53.3429],[12.2337,53.3408],[12.2965,53.3313],[12.3392,53.3163],[12.3693,53.3021],[12.3867,53.2907],[12.4152,53.281],[12.427,53.2704],[12.4458,53.2664],[12.4815,53.2679],[12.5122,53.2727],[12.6182,53.2563],[12.6373,53.2523],[12.6643,53.2357],[12.7062,53.2287],[12.731,53.228],[12.7397,53.2246],[12.7435,53.1987],[12.7534,53.1937],[12.7655,53.1929],[12.8095,53.1987],[12.8374,53.195],[12.8517,53.1877],[12.8823,53.1863],[12.906,53.1908],[12.9329,53.1909],[12.9492,53.1955],[12.9592,53.189],[12.944,53.1776],[12.9515,53.1711],[12.9754,53.165],[13.001,53.1677],[13.0263,53.183],[13.0471,53.198],[13.0764,53.2092],[13.1019,53.2229],[13.113,53.2408],[13.154,53.2593],[13.1681,53.2566],[13.1901,53.2365],[13.2024,53.2332],[13.2305,53.2332],[13.2365,53.2531],[13.2494,53.2712],[13.2662,53.2829],[13.2823,53.2878],[13.3085,53.2893],[13.3295,53.2867],[13.3699,53.2738],[13.3882,53.2709],[13.4058,53.2747],[13.4584,53.3002],[13.469,53.3023],[13.4935,53.3193],[13.5072,53.3424],[13.5259,53.3666],[13.5314,53.3854],[13.5389,53.3967],[13.553,53.4046],[13.5716,53.4105],[13.6071,53.4114],[13.6297,53.424],[13.6484,53.4443],[13.6985,53.47],[13.709,53.4754],[13.7448,53.4785],[13.7791,53.4769],[13.8086,53.4847],[13.8039,53.4971],[13.7788,53.5252],[13.7806,53.5438],[13.7977,53.5423],[13.8226,53.5189],[13.8693,53.508],[13.8708,53.4863],[13.8998,53.4547],[13.9051,53.4411],[13.9206,53.4271],[13.9906,53.4303],[14.0501,53.4276],[14.0715,53.4225],[14.0964,53.4194],[14.1166,53.4365],[14.1415,53.4396],[14.1773,53.4287],[14.2193,53.4303],[14.2426,53.4271],[14.2442,53.4007],[14.2395,53.382],[14.224,53.3602],[14.1882,53.326],[14.1041,53.292],[14.1032,53.2725],[14.1451,53.2687],[14.1829,53.263],[14.2488,53.2591],[14.2628,53.2654],[14.2691,53.2794],[14.2955,53.2871],[14.3235,53.3089],[14.3913,53.334],[14.3925,53.33],[14.4094,53.2724],[14.4416,53.2518],[14.3977,53.211],[14.3779,53.1765],[14.3895,53.1317],[14.3578,53.0747],[14.3433,53.0486],[14.2537,53.0009],[14.2033,52.982],[14.1445,52.9599],[14.1627,52.9082],[14.1608,52.8767],[14.1239,52.8507],[14.1528,52.8283],[14.216,52.818],[14.2713,52.7882],[14.276,52.7857],[14.3822,52.7382],[14.4319,52.6861],[14.4901,52.6506],[14.5499,52.6362],[14.608,52.5965],[14.6324,52.6499],[14.6543,52.6699],[14.7394,52.6782],[14.7899,52.6911],[14.8683,52.7581],[14.9319,52.8426],[15.0298,52.8753],[15.1958,52.842],[15.2487,52.8465],[15.3101,52.8896],[15.3481,52.9333],[15.301,52.9523],[15.3575,52.9542],[15.527,52.9893],[15.7331,52.9889],[15.7836,53.0112],[15.8733,53.0803],[15.9258,53.1053],[15.9801,53.1099],[16.0304,53.1032],[16.0384,53.0884],[16.0567,53.0543],[16.0385,53.0067],[16.0938,52.9956],[16.155,52.9736],[16.2174,52.9787],[16.2788,52.9932],[16.3753,53.0482],[16.4562,53.1247],[16.601,53.1755],[16.6747,53.1893],[16.7036,53.2058],[16.7579,53.2537],[16.7516,53.2824],[16.7204,53.3064],[16.6833,53.318],[16.6078,53.3296],[16.5451,53.366],[16.5296,53.4017],[16.5285,53.4415],[16.5511,53.4606],[16.7351,53.4577],[16.7653,53.4612],[16.7908,53.525],[16.8365,53.5852],[16.8722,53.5946],[16.9477,53.5882],[16.9958,53.5529],[17.0372,53.5093],[17.0957,53.4881],[17.2993,53.4831],[17.3356,53.4712],[17.4,53.6],[17.5,53.9],[17.62,54.05],[17.75,54.2],[17.85,54.35],[17.9,54.5],[17.98,54.65],[18.05,54.82],[18.0507,54.8333],[18.0344,54.832],[17.8854,54.8241],[17.853,54.8177],[17.8434,54.8169],[17.8353,54.8156],[17.6242,54.8515],[17.6238,54.8515],[17.053,54.6982],[16.8531,54.6445],[16.8031,54.631],[16.7531,54.6176],[16.6531,54.5907],[16.3638,54.513],[16.2531,54.4803],[14.8013,54.0509],[14.773,54.0387],[14.7366,54.0229],[14.7149,54.0183],[14.6532,54.0008],[14.5173,53.9652],[14.4989,53.9572],[14.3838,53.9246],[14.3046,53.9287],[14.2561,53.9312],[14.2509,53.9315],[14.2113,53.9506],[14.2075,53.9524],[14.1103,53.9993],[14.0166,54.06],[13.9862,54.0712],[13.9484,54.0798],[13.8865,54.101],[13.8801,54.1039],[13.856,54.1184],[13.8441,54.1313],[13.8237,54.164],[13.815,54.1737],[13.7962,54.1783],[13.7776,54.174],[13.7622,54.1645],[13.7529,54.1531],[13.7653,54.1419],[13.8062,54.1166],[13.815,54.1013],[13.8093,54.0751],[13.795,54.0578],[13.7874,54.0683],[13.7937,54.0832],[13.8081,54.0979],[13.8081,54.1047],[13.7345,54.1411],[13.7319,54.1447],[13.7253,54.1537],[13.7249,54.1537],[13.6999,54.1526],[13.6983,54.1531],[13.6983,54.1593],[13.7147,54.164],[13.7119,54.1737],[13.6834,54.168],[13.6383,54.1499],[13.4584,54.142],[13.4145,54.1574],[13.3979,54.1652],[13.4035,54.1737],[13.3838,54.1781],[13.3757,54.1757],[13.3129,54.2052],[13.2888,54.2343],[13.2632,54.2425],[13.2284,54.2474],[13.2108,54.2532],[13.1707,54.2721],[13.1707,54.2766],[13.1612,54.2766],[13.1493,54.2822],[13.0805,54.3565],[13.0956,54.3723],[13.0837,54.379],[13.0504,54.3891],[13.0305,54.4106],[13.0229,54.4113],[13.021,54.4145],[13.0215,54.4265],[13.0342,54.4337],[13.0088,54.4381],[12.9691,54.4294],[12.941,54.4188],[12.9007,54.4225],[12.9212,54.4335],[12.9084,54.4446],[12.8796,54.4488],[12.8566,54.4411],[12.8191,54.4517],[12.7221,54.4517],[12.5769,54.4679],[12.5765,54.4679],[12.5617,54.4589],[12.5483,54.4621],[12.527,54.4821],[12.5339,54.4883],[12.5134,54.4822],[12.502,54.4736],[12.4924,54.4578],[12.4153,54.4201],[11.9573,54.1965],[11.7432,54.157],[11.7288,54.1585],[11.6897,54.1552],[11.6579,54.1422],[11.6569,54.1411],[11.2047,54.0577],[10.9787,54.016],[10.9505,54.0108],[10.9389,54.0087],[10.9401,54.0474],[10.9222,54.0474],[10.9222,53.9614],[10.906,53.9612],[10.9042,53.9313],[10.9203,53.9205],[10.9605,53.9129],[10.9453,53.9052],[10.9129,53.9021],[10.9067,53.9053],[10.9073,53.9155],[10.8852,53.9191],[10.8613,53.9098],[10.8123,53.8827],[10.7726,53.8699],[10.7633,53.8651],[10.7513,53.8431],[10.753,53.8341],[10.7615,53.8225],[10.771,53.7933],[10.7674,53.7746],[10.7584,53.7519],[10.7609,53.7467],[10.7781,53.7458],[10.8059,53.7412],[10.8466,53.7085],[10.8655,53.6999],[10.8789,53.702],[10.9146,53.6968],[10.9381,53.6847],[10.9456,53.6771],[10.9465,53.6649],[10.955,53.6555],[10.956,53.6391],[10.9398,53.6287],[10.9406,53.6114],[10.9527,53.5844],[10.953,53.5737],[10.9423,53.5697],[10.9544,53.5661],[10.9381,53.5525],[10.929,53.5485],[10.9115,53.5714],[10.9036,53.5723],[10.8578,53.5682],[10.8414,53.5719],[10.8297,53.5701],[10.8324,53.5441],[10.8239,53.5313],[10.8204,53.5148],[10.8049,53.5094],[10.7602,53.4882],[10.7257,53.4811],[10.7082,53.4794],[10.7017,53.4755],[10.6945,53.4601],[10.6863,53.4568],[10.6611,53.4582],[10.6408,53.451],[10.6354,53.4452],[10.6272,53.4137],[10.6272,53.4015],[10.6222,53.391],[10.6012,53.3718]]],[[[13.1155,54.3381],[13.1775,54.3102],[13.1775,54.3039],[13.1623,54.3077],[13.1489,54.3048],[13.1428,54.298],[13.1497,54.2903],[13.1597,54.291],[13.1903,54.2998],[13.2048,54.2972],[13.1992,54.2844],[13.2101,54.2758],[13.2424,54.2692],[13.2679,54.2565],[13.2842,54.2628],[13.3147,54.263],[13.3079,54.2692],[13.3095,54.2704],[13.3238,54.2639],[13.3195,54.2564],[13.3115,54.2511],[13.347,54.2375],[13.3787,54.2309],[13.4072,54.2282],[13.423,54.2327],[13.4251,54.2432],[13.421,54.256],[13.4805,54.3373],[13.5953,54.3373],[13.6586,54.3058],[13.6511,54.3039],[13.6511,54.2972],[13.6633,54.2939],[13.6795,54.294],[13.6813,54.2945],[13.7006,54.2849],[13.6909,54.2835],[13.7232,54.2784],[13.7282,54.3057],[13.7361,54.3148],[13.736,54.3151],[13.7361,54.3152],[13.7338,54.3215],[13.7401,54.3298],[13.7531,54.3393],[13.7664,54.3449],[13.742,54.3505],[13.7249,54.3636],[13.7136,54.3757],[13.7109,54.3829],[13.7046,54.3853],[13.6983,54.3921],[13.6774,54.4008],[13.6569,54.4037],[13.6029,54.4245],[13.5814,54.4643],[13.6029,54.4884],[13.6338,54.5095],[13.6511,54.5163],[13.6773,54.5405],[13.6707,54.5662],[13.6405,54.5857],[13.596,54.5914],[13.5863,54.5903],[13.4913,54.6155],[13.4517,54.6502],[13.4391,54.6715],[13.4451,54.6739],[13.4451,54.6801],[13.4314,54.6844],[13.4229,54.6988],[13.4225,54.6988],[13.3361,54.6971],[13.2947,54.6719],[13.2536,54.665],[13.231,54.6533],[13.2254,54.6466],[13.2248,54.635],[13.2312,54.6339],[13.2387,54.6369],[13.2317,54.5825],[13.1875,54.5512],[13.1664,54.5494],[13.1434,54.5429],[13.1589,54.5407],[13.166,54.5191],[13.1811,54.5107],[13.1813,54.5095],[13.1649,54.4364],[13.157,54.4268],[13.163,54.4277],[13.1561,54.3968],[13.1561,54.3964],[13.1598,54.3802],[13.1489,54.3773],[13.1292,54.3596],[13.1155,54.3381]]]]}},
{"type":"Feature","properties":{"entityId":"slavic-tribes","from":1160,"to":1181,"certainty":"estimated","source":"유럽 쪽은 Natural Earth 1:10m admin-1(v5.1.2) 현대 행정구역 조각을 그 시기 국경에 맞춰 묶고, 조각이 역사 경계와 다른 곳은 선을 그어 나눈 근사. 유럽 밖(시베리아·중앙아시아·극동)은 대략적인 추정. 운영자 검수 필요"},"geometry":{"type":"MultiPolygon","coordinates":[[[[12.4153,54.4201],[12.42,54.38],[12.44,54.25],[12.55,54.1],[12.75,53.98],[12.95,53.92],[12.85,53.8],[13.1,53.72],[13.3,53.66],[13.5,53.7],[13.65,53.72],[13.72,53.6],[13.7,53.5],[13.6985,53.47],[13.709,53.4754],[13.7448,53.4785],[13.7791,53.4769],[13.8086,53.4847],[13.8039,53.4971],[13.7788,53.5252],[13.7806,53.5438],[13.7977,53.5423],[13.8226,53.5189],[13.8693,53.508],[13.8708,53.4863],[13.8998,53.4547],[13.9051,53.4411],[13.9206,53.4271],[13.9906,53.4303],[14.0501,53.4276],[14.0715,53.4225],[14.0964,53.4194],[14.1166,53.4365],[14.1415,53.4396],[14.1773,53.4287],[14.2193,53.4303],[14.2426,53.4271],[14.2442,53.4007],[14.2395,53.382],[14.224,53.3602],[14.1882,53.326],[14.1041,53.292],[14.1032,53.2725],[14.1451,53.2687],[14.1829,53.263],[14.2488,53.2591],[14.2628,53.2654],[14.2691,53.2794],[14.2955,53.2871],[14.3235,53.3089],[14.3913,53.334],[14.3925,53.33],[14.4094,53.2724],[14.4416,53.2518],[14.3977,53.211],[14.3779,53.1765],[14.3895,53.1317],[14.3578,53.0747],[14.3433,53.0486],[14.2537,53.0009],[14.2033,52.982],[14.1445,52.9599],[14.1627,52.9082],[14.1608,52.8767],[14.1239,52.8507],[14.1528,52.8283],[14.216,52.818],[14.2713,52.7882],[14.276,52.7857],[14.3822,52.7382],[14.4319,52.6861],[14.4901,52.6506],[14.5499,52.6362],[14.608,52.5965],[14.6324,52.6499],[14.6543,52.6699],[14.7394,52.6782],[14.7899,52.6911],[14.8683,52.7581],[14.9319,52.8426],[15.0298,52.8753],[15.1958,52.842],[15.2487,52.8465],[15.3101,52.8896],[15.3481,52.9333],[15.301,52.9523],[15.3575,52.9542],[15.527,52.9893],[15.7331,52.9889],[15.7836,53.0112],[15.8733,53.0803],[15.9258,53.1053],[15.9801,53.1099],[16.0304,53.1032],[16.0384,53.0884],[16.0567,53.0543],[16.0385,53.0067],[16.0938,52.9956],[16.155,52.9736],[16.2174,52.9787],[16.2788,52.9932],[16.3753,53.0482],[16.4562,53.1247],[16.601,53.1755],[16.6747,53.1893],[16.7036,53.2058],[16.7579,53.2537],[16.7516,53.2824],[16.7204,53.3064],[16.6833,53.318],[16.6078,53.3296],[16.5451,53.366],[16.5296,53.4017],[16.5285,53.4415],[16.5511,53.4606],[16.7351,53.4577],[16.7653,53.4612],[16.7908,53.525],[16.8365,53.5852],[16.8722,53.5946],[16.9477,53.5882],[16.9958,53.5529],[17.0372,53.5093],[17.0957,53.4881],[17.2993,53.4831],[17.3356,53.4712],[17.4,53.6],[17.5,53.9],[17.62,54.05],[17.75,54.2],[17.85,54.35],[17.9,54.5],[17.98,54.65],[18.05,54.82],[18.0507,54.8333],[18.0344,54.832],[17.8854,54.8241],[17.853,54.8177],[17.8434,54.8169],[17.8353,54.8156],[17.6242,54.8515],[17.6238,54.8515],[17.053,54.6982],[16.8531,54.6445],[16.8031,54.631],[16.7531,54.6176],[16.6531,54.5907],[16.3638,54.513],[16.2531,54.4803],[14.8013,54.0509],[14.773,54.0387],[14.7366,54.0229],[14.7149,54.0183],[14.6532,54.0008],[14.5173,53.9652],[14.4989,53.9572],[14.3838,53.9246],[14.3046,53.9287],[14.2561,53.9312],[14.2509,53.9315],[14.2113,53.9506],[14.2075,53.9524],[14.1103,53.9993],[14.0166,54.06],[13.9862,54.0712],[13.9484,54.0798],[13.8865,54.101],[13.8801,54.1039],[13.856,54.1184],[13.8441,54.1313],[13.8237,54.164],[13.815,54.1737],[13.7962,54.1783],[13.7776,54.174],[13.7622,54.1645],[13.7529,54.1531],[13.7653,54.1419],[13.8062,54.1166],[13.815,54.1013],[13.8093,54.0751],[13.795,54.0578],[13.7874,54.0683],[13.7937,54.0832],[13.8081,54.0979],[13.8081,54.1047],[13.7345,54.1411],[13.7319,54.1447],[13.7253,54.1537],[13.7249,54.1537],[13.6999,54.1526],[13.6983,54.1531],[13.6983,54.1593],[13.7147,54.164],[13.7119,54.1737],[13.6834,54.168],[13.6383,54.1499],[13.4584,54.142],[13.4145,54.1574],[13.3979,54.1652],[13.4035,54.1737],[13.3838,54.1781],[13.3757,54.1757],[13.3129,54.2052],[13.2888,54.2343],[13.2632,54.2425],[13.2284,54.2474],[13.2108,54.2532],[13.1707,54.2721],[13.1707,54.2766],[13.1612,54.2766],[13.1493,54.2822],[13.0805,54.3565],[13.0956,54.3723],[13.0837,54.379],[13.0504,54.3891],[13.0305,54.4106],[13.0229,54.4113],[13.021,54.4145],[13.0215,54.4265],[13.0342,54.4337],[13.0088,54.4381],[12.9691,54.4294],[12.941,54.4188],[12.9007,54.4225],[12.9212,54.4335],[12.9084,54.4446],[12.8796,54.4488],[12.8566,54.4411],[12.8191,54.4517],[12.7221,54.4517],[12.5769,54.4679],[12.5765,54.4679],[12.5617,54.4589],[12.5483,54.4621],[12.527,54.4821],[12.5339,54.4883],[12.5134,54.4822],[12.502,54.4736],[12.4924,54.4578],[12.4153,54.4201]]],[[[13.1155,54.3381],[13.1775,54.3102],[13.1775,54.3039],[13.1623,54.3077],[13.1489,54.3048],[13.1428,54.298],[13.1497,54.2903],[13.1597,54.291],[13.1903,54.2998],[13.2048,54.2972],[13.1992,54.2844],[13.2101,54.2758],[13.2424,54.2692],[13.2679,54.2565],[13.2842,54.2628],[13.3147,54.263],[13.3079,54.2692],[13.3095,54.2704],[13.3238,54.2639],[13.3195,54.2564],[13.3115,54.2511],[13.347,54.2375],[13.3787,54.2309],[13.4072,54.2282],[13.423,54.2327],[13.4251,54.2432],[13.421,54.256],[13.4805,54.3373],[13.5953,54.3373],[13.6586,54.3058],[13.6511,54.3039],[13.6511,54.2972],[13.6633,54.2939],[13.6795,54.294],[13.6813,54.2945],[13.7006,54.2849],[13.6909,54.2835],[13.7232,54.2784],[13.7282,54.3057],[13.7361,54.3148],[13.736,54.3151],[13.7361,54.3152],[13.7338,54.3215],[13.7401,54.3298],[13.7531,54.3393],[13.7664,54.3449],[13.742,54.3505],[13.7249,54.3636],[13.7136,54.3757],[13.7109,54.3829],[13.7046,54.3853],[13.6983,54.3921],[13.6774,54.4008],[13.6569,54.4037],[13.6029,54.4245],[13.5814,54.4643],[13.6029,54.4884],[13.6338,54.5095],[13.6511,54.5163],[13.6773,54.5405],[13.6707,54.5662],[13.6405,54.5857],[13.596,54.5914],[13.5863,54.5903],[13.4913,54.6155],[13.4517,54.6502],[13.4391,54.6715],[13.4451,54.6739],[13.4451,54.6801],[13.4314,54.6844],[13.4229,54.6988],[13.4225,54.6988],[13.3361,54.6971],[13.2947,54.6719],[13.2536,54.665],[13.231,54.6533],[13.2254,54.6466],[13.2248,54.635],[13.2312,54.6339],[13.2387,54.6369],[13.2317,54.5825],[13.1875,54.5512],[13.1664,54.5494],[13.1434,54.5429],[13.1589,54.5407],[13.166,54.5191],[13.1811,54.5107],[13.1813,54.5095],[13.1649,54.4364],[13.157,54.4268],[13.163,54.4277],[13.1561,54.3968],[13.1561,54.3964],[13.1598,54.3802],[13.1489,54.3773],[13.1292,54.3596],[13.1155,54.3381]]]]}}
]}
