{"type":"FeatureCollection","features":[
{"type":"Feature","properties":{"entityId":"slovakia-republic","from":1993,"to":null,"certainty":"estimated","source":"유럽 쪽은 Natural Earth 1:10m admin-1(v5.1.2) 현대 행정구역 조각을 그 시기 국경에 맞춰 묶고, 조각이 역사 경계와 다른 곳은 선을 그어 나눈 근사. 유럽 밖(시베리아·중앙아시아·극동)은 대략적인 추정. 운영자 검수 필요"},"geometry":{"type":"Polygon","coordinates":[[[16.8445,48.3656],[16.9019,48.3394],[16.8984,48.3162],[16.9166,48.2908],[16.9506,48.2766],[16.9819,48.1613],[17.0072,48.1428],[17.0475,48.131],[17.0625,48.1127],[17.0802,48.0976],[17.0591,48.0604],[17.0697,48.0357],[17.125,48.0195],[17.1483,48.0054],[17.1848,48.0203],[17.2623,48.0073],[17.3379,47.9987],[17.3694,47.9812],[17.472,47.8888],[17.5266,47.8721],[17.5726,47.8295],[17.6042,47.8342],[17.6399,47.8192],[17.6767,47.7892],[17.7192,47.7737],[17.8257,47.75],[17.8835,47.7525],[18.1126,47.7625],[18.2359,47.7539],[18.273,47.7563],[18.3479,47.7768],[18.5526,47.7928],[18.5974,47.7907],[18.6338,47.7798],[18.6928,47.778],[18.7677,47.8223],[18.8149,47.8322],[18.7488,47.8707],[18.7422,47.8895],[18.7548,47.9518],[18.7432,47.9711],[18.7942,47.9931],[18.8385,48.04],[18.9336,48.0543],[19.019,48.0655],[19.0985,48.0707],[19.2225,48.0606],[19.2932,48.0878],[19.4282,48.0859],[19.4817,48.1113],[19.503,48.1894],[19.5312,48.2107],[19.6232,48.227],[19.6439,48.2248],[19.687,48.1969],[19.7566,48.2003],[19.7743,48.1859],[19.7667,48.159],[19.7761,48.1495],[19.7856,48.1487],[19.8217,48.1579],[19.8463,48.1527],[19.8843,48.1296],[19.9051,48.1243],[19.9286,48.1301],[19.9739,48.1584],[20.0383,48.1772],[20.097,48.1984],[20.1345,48.2467],[20.1709,48.244],[20.2291,48.2709],[20.2724,48.2525],[20.3243,48.2799],[20.3702,48.3343],[20.409,48.4137],[20.466,48.4638],[20.4817,48.4787],[20.4817,48.5261],[20.5725,48.5366],[20.7841,48.5691],[20.8158,48.5638],[20.8455,48.5458],[20.8914,48.5411],[20.9458,48.519],[21.0065,48.5182],[21.0639,48.5062],[21.1093,48.4891],[21.1867,48.5137],[21.2199,48.5187],[21.2618,48.5032],[21.3023,48.5399],[21.4246,48.5613],[21.4908,48.5403],[21.5218,48.5001],[21.5917,48.493],[21.6134,48.4404],[21.6776,48.3723],[21.7277,48.3409],[21.7894,48.3355],[21.8412,48.3532],[21.8843,48.3575],[21.9293,48.3729],[22.018,48.3797],[22.0965,48.3794],[22.1328,48.4048],[22.1338,48.4768],[22.1483,48.5088],[22.1367,48.5493],[22.1537,48.5859],[22.219,48.6209],[22.2555,48.6568],[22.2943,48.6676],[22.3037,48.6785],[22.3225,48.7003],[22.3308,48.7564],[22.3657,48.7944],[22.3623,48.8443],[22.3708,48.8582],[22.4118,48.8878],[22.4149,48.9117],[22.449,48.9714],[22.5205,48.9929],[22.5248,49.0329],[22.5396,49.0722],[22.505,49.0834],[22.4268,49.0856],[22.3901,49.093],[22.3394,49.1265],[22.2629,49.1306],[22.2159,49.14],[22.198,49.172],[22.1557,49.1715],[22.1115,49.1886],[22.0408,49.1975],[22.0124,49.2111],[21.9932,49.2782],[21.9645,49.3086],[21.9284,49.3308],[21.8746,49.3484],[21.8196,49.3772],[21.7994,49.3748],[21.7576,49.3489],[21.6917,49.4022],[21.6663,49.4018],[21.6012,49.4265],[21.5144,49.4172],[21.4279,49.4098],[21.3304,49.4278],[21.2744,49.4473],[21.2425,49.4413],[21.2112,49.4111],[21.1726,49.3983],[21.1249,49.4237],[21.0535,49.4145],[21.0333,49.3997],[21.0685,49.3814],[21.0725,49.3572],[21.0172,49.3524],[20.9424,49.2959],[20.9006,49.2926],[20.8493,49.3205],[20.7783,49.3312],[20.6895,49.4005],[20.6053,49.4],[20.5677,49.3764],[20.5221,49.3744],[20.4375,49.4025],[20.4221,49.383],[20.3705,49.3817],[20.3295,49.3918],[20.3074,49.3866],[20.2844,49.3386],[20.2072,49.3342],[20.1604,49.3056],[20.1302,49.3039],[20.086,49.243],[20.07,49.1831],[20.0505,49.1732],[20.0173,49.1839],[19.9657,49.2157],[19.9059,49.2228],[19.8683,49.2008],[19.832,49.1859],[19.7607,49.1942],[19.7518,49.2191],[19.8068,49.2752],[19.7832,49.29],[19.7895,49.3092],[19.7836,49.3576],[19.7693,49.3931],[19.6845,49.3891],[19.627,49.4019],[19.6348,49.4413],[19.5948,49.4416],[19.5568,49.4539],[19.5052,49.5634],[19.4489,49.6004],[19.4338,49.5952],[19.3471,49.533],[19.2487,49.5163],[19.2205,49.493],[19.1725,49.4023],[19.1166,49.3909],[19.0676,49.4061],[19.0071,49.3881],[18.9623,49.3892],[18.9524,49.4759],[18.9611,49.4928],[18.9322,49.5043],[18.8332,49.5103],[18.7736,49.5049],[18.7325,49.4803],[18.7045,49.4793],[18.6428,49.4958],[18.6004,49.486],[18.5562,49.4902],[18.5356,49.4817],[18.5147,49.4406],[18.4818,49.4291],[18.4168,49.3855],[18.387,49.3776],[18.3852,49.3423],[18.3616,49.3302],[18.3246,49.3113],[18.19,49.2769],[18.1365,49.2331],[18.1051,49.1698],[18.1029,49.0923],[18.0755,49.0472],[18.0129,49.0191],[17.9592,49.0219],[17.9141,49.0105],[17.8869,48.9472],[17.8603,48.9217],[17.7955,48.9206],[17.7272,48.8629],[17.646,48.8418],[17.5351,48.813],[17.4985,48.8168],[17.4533,48.8428],[17.4112,48.8302],[17.3744,48.8196],[17.2603,48.8578],[17.2122,48.8661],[17.1675,48.8598],[17.1137,48.8339],[17.0987,48.8058],[17.0499,48.774],[17.0253,48.7463],[16.9748,48.6499],[16.9475,48.6232],[16.945,48.6042],[16.9491,48.5448],[16.9139,48.5193],[16.8608,48.4438],[16.8445,48.3656]]]}}
]}
