{
 "type": "FeatureCollection",
 "features": [
  {
   "type": "Feature",
   "properties": {
    "entityId": "song",
    "from": 960,
    "to": 1127,
    "certainty": "estimated",
    "source": "중고등학교 한국사 교과서 시대별 지도의 일반적인 경계를 따른 대략적인 추정. 운영자 검수 필요"
   },
   "geometry": {
    "type": "Polygon",
    "coordinates": [
     [
      [
       99.5,
       27
      ],
      [
       100.5,
       25
      ],
      [
       102.5,
       23.5
      ],
      [
       104,
       22.8
      ],
      [
       104.2,
       21.5
      ],
      [
       105,
       20
      ],
      [
       106.2,
       19.5
      ],
      [
       108.3,
       18
      ],
      [
       109.5,
       17.9
      ],
      [
       111.3,
       19.5
      ],
      [
       113.5,
       21.5
      ],
      [
       116.5,
       22.5
      ],
      [
       118.5,
       24
      ],
      [
       120.2,
       25.3
      ],
      [
       122.3,
       28
      ],
      [
       123,
       30.5
      ],
      [
       122.5,
       33.5
      ],
      [
       123,
       37.2
      ],
      [
       121,
       38.3
      ],
      [
       120.5,
       39.5
      ],
      [
       121.9,
       40.5
      ],
      [
       122.25,
       40.85
      ],
      [
       122.5,
       41.5
      ],
      [
       121,
       42
      ],
      [
       118.5,
       41.5
      ],
      [
       117.3158,
       41.3579
      ],
      [
       120,
       41
      ],
      [
       119.8,
       39.7
      ],
      [
       117.8,
       38.9
      ],
      [
       116.5,
       38.6
      ],
      [
       115.5,
       38.7
      ],
      [
       114,
       39
      ],
      [
       112.6,
       39.1
      ],
      [
       112.3,
       40.3
      ],
      [
       112.5,
       41
      ],
      [
       111,
       41
      ],
      [
       111,
       36.3
      ],
      [
       101.8846,
       36.3
      ],
      [
       101.5,
       36.8
      ],
      [
       102.5,
       35.5
      ],
      [
       102.2,
       33
      ],
      [
       101.8,
       30.5
      ],
      [
       100.8,
       28.5
      ],
      [
       99.5,
       27
      ]
     ]
    ]
   }
  },
  {
   "type": "Feature",
   "properties": {
    "entityId": "song",
    "from": 1127,
    "to": 1279,
    "certainty": "estimated",
    "source": "중고등학교 한국사 교과서 시대별 지도의 일반적인 경계를 따른 대략적인 추정. 운영자 검수 필요"
   },
   "geometry": {
    "type": "Polygon",
    "coordinates": [
     [
      [
       99.5,
       27
      ],
      [
       100.5,
       25
      ],
      [
       102.5,
       23.5
      ],
      [
       104,
       22.8
      ],
      [
       104.2,
       21.5
      ],
      [
       105,
       20
      ],
      [
       106.2,
       19.5
      ],
      [
       108.3,
       18
      ],
      [
       109.5,
       17.9
      ],
      [
       111.3,
       19.5
      ],
      [
       113.5,
       21.5
      ],
      [
       116.5,
       22.5
      ],
      [
       118.5,
       24
      ],
      [
       120.2,
       25.3
      ],
      [
       122.3,
       28
      ],
      [
       123,
       30.5
      ],
      [
       122.5833,
       33
      ],
      [
       102.2,
       33
      ],
      [
       101.8,
       30.5
      ],
      [
       100.8,
       28.5
      ],
      [
       99.5,
       27
      ]
     ]
    ]
   }
  }
 ]
}
