{"type":"FeatureCollection","features":[
{"type":"Feature","properties":{"entityId":"sophene-kingdom","from":-188,"to":-94,"certainty":"estimated","source":"유럽 쪽은 Natural Earth 1:10m admin-1(v5.1.2) 현대 행정구역 조각을 그 시기 국경에 맞춰 묶고, 조각이 역사 경계와 다른 곳은 선을 그어 나눈 근사. 유럽 밖(시베리아·중앙아시아·극동)은 대략적인 추정. 운영자 검수 필요"},"geometry":{"type":"Polygon","coordinates":[[[42.7869,38.1811],[42.865,38.1853],[42.9455,38.1733],[43.0163,38.1518],[43.0258,38.0809],[43.0293,37.9994],[43.0115,37.9167],[43.0081,37.8582],[42.9835,37.8064],[43.0233,37.7317],[43.0119,37.6754],[42.9505,37.626],[42.7811,37.6384],[42.5697,37.663],[42.3676,37.7044],[42.2354,37.7086],[42.157,37.6466],[41.9587,37.659],[41.8169,37.7138],[41.6322,37.6094],[41.5206,37.5433],[41.3677,37.5185],[41.2603,37.5722],[41.19,37.688],[41.1197,37.7582],[41.0752,37.7649],[41.0118,37.7414],[40.662,37.7484],[40.5516,37.7299],[40.5392,37.7073],[40.492,37.657],[40.4122,37.6524],[40.3009,37.5842],[40.2518,37.5693],[40.1426,37.5087],[40.0978,37.4758],[40,37.3757],[39.9537,37.4174],[39.9202,37.4695],[39.8843,37.5501],[39.8567,37.6694],[39.8632,37.7777],[39.8486,37.8019],[39.8128,37.8136],[39.7592,37.8424],[39.7385,37.8172],[39.6913,37.8339],[39.6527,37.8621],[39.5888,37.883],[39.5233,37.9261],[39.4626,37.9767],[39.4079,37.997],[39.3486,37.9989],[39.2675,38.0091],[39.189,38.0431],[39.2346,38.0761],[39.2247,38.0903],[39.2563,38.1531],[39.2526,38.1797],[39.2219,38.205],[39.1413,38.1786],[39.1149,38.1927],[39.1485,38.2842],[39.145,38.3078],[39.1149,38.3435],[39.0734,38.3479],[38.9922,38.326],[38.9572,38.3305],[38.9111,38.3607],[38.8855,38.364],[38.861,38.3988],[38.8269,38.4186],[38.8105,38.4403],[38.7177,38.4186],[38.6889,38.4207],[38.6078,38.4534],[38.5667,38.4646],[38.4817,38.4759],[38.4566,38.4849],[38.4256,38.5124],[38.403,38.508],[38.3735,38.5365],[38.3489,38.5956],[38.3757,38.6452],[38.4024,38.6734],[38.4604,38.6924],[38.4781,38.7254],[38.4713,38.7408],[38.5089,38.7568],[38.6187,38.7482],[38.6357,38.7817],[38.6239,38.8126],[38.6194,38.8959],[38.5899,38.9508],[38.5893,38.9922],[38.6168,39.0203],[38.6879,39.023],[38.7457,39.0378],[38.7372,39.0996],[38.7208,39.1111],[38.7204,39.1579],[38.7556,39.1726],[38.77,39.2296],[38.8477,39.2578],[38.821,39.3072],[38.8368,39.3387],[38.908,39.3608],[38.9342,39.3936],[38.9878,39.4024],[39.006,39.4293],[39.0333,39.4462],[39.1321,39.4748],[39.1846,39.4835],[39.2371,39.4759],[39.3189,39.5008],[39.3958,39.4969],[39.4724,39.4822],[39.5513,39.4828],[39.7038,39.5009],[39.7741,39.5185],[39.8191,39.5626],[39.8564,39.5715],[39.9104,39.5478],[39.9887,39.5324],[40.1399,39.5737],[40.1859,39.583],[40.2427,39.5648],[40.3919,39.561],[40.4729,39.5509],[40.5548,39.549],[40.6188,39.5324],[40.7079,39.5223],[40.7973,39.5521],[40.855,39.581],[40.8862,39.5666],[40.9831,39.4966],[41.0578,39.4688],[41.1183,39.4637],[41.1629,39.423],[41.2051,39.3657],[41.1773,39.3273],[41.1724,39.3048],[41.2024,39.2479],[41.201,39.2018],[41.2703,39.1163],[41.2769,39.0726],[41.2649,39.0322],[41.195,38.9656],[41.1643,38.8879],[41.1861,38.8305],[41.2402,38.7893],[41.2596,38.7392],[41.3112,38.6877],[41.3784,38.6488],[41.3897,38.6091],[41.3781,38.5689],[41.3901,38.5416],[41.4206,38.5346],[41.5312,38.5544],[41.6161,38.5288],[41.6507,38.3937],[41.674,38.3388],[41.6773,38.2214],[41.7799,38.1903],[41.8882,38.1833],[41.9744,38.2012],[42.0602,38.2272],[42.1276,38.2024],[42.1861,38.1554],[42.2509,38.1167],[42.3229,38.0934],[42.4378,38.0643],[42.4993,38.0278],[42.6004,37.9825],[42.6685,37.9442],[42.7066,37.9461],[42.7371,37.9824],[42.7409,38.0285],[42.7357,38.0902],[42.7586,38.1146],[42.7869,38.1811]]]}}
]}
