{"type":"FeatureCollection","features":[
{"type":"Feature","properties":{"entityId":"south-ossetia","from":1992,"to":null,"certainty":"estimated","source":"유럽 쪽은 Natural Earth 1:10m admin-1(v5.1.2) 현대 행정구역 조각을 그 시기 국경에 맞춰 묶고, 조각이 역사 경계와 다른 곳은 선을 그어 나눈 근사. 유럽 밖(시베리아·중앙아시아·극동)은 대략적인 추정. 운영자 검수 필요"},"geometry":{"type":"Polygon","coordinates":[[[43.4,42.75],[43.48,42.58],[43.58,42.45],[43.68,42.36],[43.78,42.28],[43.88,42.22],[43.98,42.205],[44.08,42.22],[44.18,42.16],[44.42,42],[44.55,42.02],[44.6,42.05],[44.63,42.18],[44.58,42.32],[44.45,42.42],[44.35,42.52],[44.3102,42.703],[44.272,42.7024],[44.2301,42.6538],[44.1858,42.6265],[44.1508,42.6187],[44.0551,42.6153],[44.0115,42.6003],[43.9732,42.564],[43.9397,42.5522],[43.9082,42.5662],[43.8854,42.5792],[43.7511,42.5987],[43.7226,42.6249],[43.7257,42.6544],[43.7887,42.6931],[43.8118,42.7173],[43.8006,42.7465],[43.7912,42.75],[43.4,42.75]]]}}
]}
