{"type":"FeatureCollection","features":[
{"type":"Feature","properties":{"entityId":"soviet-occupied","from":1941,"to":1942,"certainty":"estimated","source":"유럽 쪽은 Natural Earth 1:10m admin-1(v5.1.2) 현대 행정구역 조각을 그 시기 국경에 맞춰 묶고, 조각이 역사 경계와 다른 곳은 선을 그어 나눈 근사. 유럽 밖(시베리아·중앙아시아·극동)은 대략적인 추정. 운영자 검수 필요"},"geometry":{"type":"MultiPolygon","coordinates":[[[[20.9706,56.389],[20.971,56.3498],[20.9815,56.3105],[20.9827,56.2908],[20.971,56.2597],[20.9734,56.232],[20.9841,56.2104],[21.0288,56.1474],[21.0377,56.1263],[21.0474,56.0699],[21.0546,56.023],[21.0571,55.9488],[21.0447,55.9177],[21.0447,55.88],[21.05,55.88],[21.17,55.85],[21.33,55.72],[21.45,55.6],[21.6,55.46],[21.85,55.35],[22.05,55.25],[22.3,55.12],[22.5303,55.0739],[22.5411,55.0758],[22.562,55.0676],[22.575,55.065],[22.5712,55.064],[22.5916,55.0376],[22.6084,54.9924],[22.6335,54.9579],[22.7155,54.9514],[22.7521,54.9311],[22.7492,54.9099],[22.8089,54.8938],[22.8293,54.8727],[22.8484,54.8138],[22.8328,54.7787],[22.7648,54.7371],[22.7248,54.7234],[22.727,54.7053],[22.7051,54.6865],[22.7081,54.6356],[22.6817,54.5699],[22.6746,54.4923],[22.6804,54.4532],[22.707,54.4187],[22.7672,54.3563],[22.8113,54.3926],[22.8589,54.3992],[22.9188,54.3811],[22.9733,54.3754],[22.9897,54.3534],[23.0416,54.341],[23.0321,54.3096],[23.0501,54.2948],[23.1171,54.3035],[23.2354,54.2542],[23.316,54.2363],[23.336,54.2263],[23.3823,54.1879],[23.4325,54.1693],[23.4739,54.1126],[23.4962,54.0446],[23.4965,54.022],[23.4593,53.9923],[23.4629,53.9725],[23.4904,53.9506],[23.4856,53.9393],[23.4901,53.95],[22.5916,53.95],[22.6221,53.9248],[22.6185,53.8782],[22.5779,53.8322],[22.543,53.7739],[22.4856,53.7379],[22.207,53.6352],[22.1099,53.5699],[21.9373,53.4993],[21.8626,53.4927],[21.8016,53.4708],[21.7388,53.4576],[21.5957,53.4626],[21.523,53.4435],[21.5753,53.337],[21.6004,53.2221],[21.656,53.138],[21.6928,53.0953],[21.7459,53.0778],[21.8009,53.073],[21.8468,53.0516],[21.8305,53.0336],[21.8347,53.0082],[21.8602,52.9806],[21.9228,52.9528],[21.9511,52.8912],[21.9776,52.862],[22.0489,52.8396],[22.1248,52.8464],[22.1747,52.879],[22.2231,52.8569],[22.2073,52.8017],[22.2636,52.7671],[22.3199,52.7842],[22.3779,52.7941],[22.3935,52.7471],[22.3997,52.695],[22.4118,52.6597],[22.4119,52.6006],[22.5176,52.5294],[22.5114,52.4946],[22.5198,52.4733],[22.5448,52.4625],[22.5388,52.4294],[22.5627,52.4041],[22.6119,52.3873],[22.689,52.3854],[22.8446,52.3656],[22.9228,52.3723],[22.9751,52.3528],[22.9845,52.3301],[23.0058,52.337],[23.0521,52.3096],[23.039,52.2892],[23.087,52.2923],[23.1502,52.2816],[23.1761,52.2851],[23.1945,52.2715],[23.1897,52.2405],[23.2123,52.2317],[23.3958,52.1996],[23.3885,52.1842],[23.4367,52.1757],[23.4505,52.1859],[23.4847,52.1586],[23.5125,52.1244],[23.5794,52.1215],[23.6375,52.0845],[23.6764,51.9941],[23.6476,51.9741],[23.6222,51.9279],[23.6214,51.8956],[23.5946,51.8433],[23.6287,51.8098],[23.6175,51.7865],[23.5604,51.7545],[23.5466,51.7136],[23.5604,51.672],[23.5324,51.659],[23.5438,51.6438],[23.5399,51.6071],[23.574,51.5553],[23.5728,51.5397],[23.6062,51.5174],[23.6148,51.4972],[23.6628,51.4802],[23.6487,51.454],[23.6976,51.4044],[23.6789,51.3941],[23.6839,51.3703],[23.634,51.3393],[23.6352,51.3047],[23.6873,51.2924],[23.7427,51.2163],[23.7652,51.199],[23.816,51.1788],[23.8747,51.1361],[23.8545,51.1215],[23.9042,51.0627],[23.9117,51.0068],[23.9551,50.9836],[23.9793,50.9375],[24.0469,50.898],[24.1302,50.8689],[24.1309,50.8391],[24.0469,50.8291],[24.0205,50.8386],[23.9699,50.8252],[23.9576,50.808],[23.9743,50.7762],[24.0259,50.767],[24.0128,50.7433],[24.0269,50.728],[24.081,50.713],[24.0749,50.6902],[24.1082,50.6303],[24.1259,50.6418],[24.1647,50.6402],[24.2179,50.5892],[24.2479,50.5818],[24.3214,50.5926],[24.3459,50.6089],[24.3795,50.6009],[24.4054,50.5674],[24.4343,50.549],[24.5008,50.5455],[24.5306,50.5241],[24.5354,50.5001],[24.5132,50.4867],[24.4634,50.4788],[24.4567,50.4614],[24.4988,50.4397],[24.5042,50.4106],[24.5418,50.4109],[24.5526,50.4384],[24.591,50.417],[24.6342,50.4134],[24.6394,50.3974],[24.6882,50.3767],[24.7052,50.3496],[24.773,50.3405],[24.8484,50.3549],[24.9114,50.3481],[24.9319,50.3702],[25.0039,50.3457],[25.0489,50.3473],[25.0638,50.3345],[25.0635,50.2948],[25.1041,50.2794],[25.1529,50.2925],[25.1957,50.288],[25.2075,50.2501],[25.1677,50.22],[25.1929,50.1816],[25.1854,50.128],[25.2023,50.095],[25.2959,50.0413],[25.3676,50.0131],[25.3727,49.9965],[25.3898,49.9873],[25.6,49.92],[25.8,49.85],[26,49.75],[26.2,49.62],[26.2239,49.62],[26.2087,49.5669],[26.1643,49.544],[26.1484,49.5165],[26.1985,49.4153],[26.2291,49.397],[26.2391,49.342],[26.2344,49.3195],[26.2563,49.2936],[26.2417,49.2412],[26.2078,49.2273],[26.1992,49.1746],[26.2218,49.148],[26.2109,49.1191],[26.2284,49.0669],[26.1995,49.0413],[26.2212,49.0007],[26.1985,48.9845],[26.1891,48.953],[26.2023,48.935],[26.1954,48.9],[26.2229,48.8972],[26.2143,48.847],[26.2387,48.8188],[26.2642,48.8082],[26.2285,48.7792],[26.2513,48.7524],[26.2355,48.685],[26.2819,48.6616],[26.285,48.6412],[26.3163,48.6428],[26.3067,48.6056],[26.3689,48.5761],[26.354,48.5616],[26.3805,48.5171],[26.404,48.5341],[26.4706,48.5381],[26.5153,48.5149],[26.5399,48.4789],[26.5664,48.4574],[26.6219,48.4583],[26.607,48.4923],[26.6273,48.5084],[26.6436,48.4925],[26.709,48.4969],[26.6709,48.5267],[26.6144,48.5402],[26.6328,48.5624],[26.7218,48.5352],[26.7392,48.5577],[26.7161,48.5778],[26.7172,48.5948],[26.7406,48.5889],[26.7497,48.5616],[26.7728,48.551],[26.7876,48.5683],[26.7831,48.5935],[26.8081,48.6091],[26.8292,48.6018],[26.8226,48.5812],[26.8414,48.5463],[26.885,48.5435],[26.9247,48.5751],[26.9453,48.5814],[27.1134,48.5593],[27.147,48.5819],[27.1814,48.5819],[27.2141,48.5701],[27.2476,48.5704],[27.2618,48.5957],[27.2344,48.6185],[27.2947,48.6161],[27.3218,48.6009],[27.3704,48.6297],[27.4097,48.6207],[27.4382,48.6025],[27.4728,48.5472],[27.5038,48.4724],[27.5571,48.4744],[27.583,48.486],[27.6048,48.4841],[27.6069,48.4578],[27.627,48.4513],[27.7518,48.452],[27.7853,48.4416],[27.8499,48.4096],[27.8854,48.3784],[27.9264,48.3394],[28.0032,48.3259],[28.0559,48.3215],[28.0928,48.3021],[28.0983,48.2841],[28.0787,48.2449],[28.1311,48.2396],[28.1785,48.2589],[28.1999,48.2117],[28.2403,48.2116],[28.2945,48.2365],[28.3406,48.2401],[28.3682,48.2306],[28.3634,48.191],[28.3222,48.1632],[28.3174,48.1354],[28.3496,48.1297],[28.3886,48.1686],[28.4116,48.1707],[28.4369,48.1499],[28.419,48.1222],[28.4474,48.0828],[28.49,48.0655],[28.4998,48.1089],[28.5434,48.088],[28.5191,48.0523],[28.4813,48.0332],[28.4666,47.9972],[28.4965,47.9878],[28.5055,47.9587],[28.4962,47.9155],[28.478,47.8886],[28.504,47.8833],[28.5305,47.8929],[28.5692,47.8871],[28.637,47.8421],[28.6692,47.8581],[28.6568,47.8772],[28.6579,47.8987],[28.6832,47.9339],[28.7204,47.9527],[28.7556,47.9572],[28.7848,47.9828],[28.8128,47.9654],[28.8303,47.9411],[28.8289,47.9171],[28.861,47.8997],[28.9421,47.8832],[28.9803,47.8755],[29.0181,47.8535],[29.0175,47.8269],[28.9803,47.7656],[28.9756,47.7434],[28.9803,47.6874],[28.9954,47.6509],[28.9865,47.6223],[29.0157,47.5821],[29.0267,47.5295],[29.0486,47.5062],[29.0928,47.4874],[29.108,47.4694],[29.0901,47.4373],[29.0824,47.4064],[29.0514,47.3904],[29.0254,47.4009],[29.0084,47.3964],[28.9819,47.3633],[29.0217,47.3331],[29.0711,47.2958],[29.0737,47.2463],[29.1101,47.2336],[29.151,47.2448],[29.1633,47.2309],[29.1633,47.2308],[29.1789,47.1971],[29.1632,47.1919],[29.1444,47.1629],[29.1119,47.1499],[29.0691,47.1015],[29.0987,47.0921],[29.1243,47.0742],[29.1561,47.1136],[29.1892,47.1118],[29.1938,47.1238],[29.1789,47.1561],[29.2003,47.1631],[29.2267,47.1493],[29.2365,47.1624],[29.2922,47.1358],[29.295,47.122],[29.3293,47.1082],[29.3775,47.0708],[29.3806,47.0289],[29.3639,47.0332],[29.3724,47.0043],[29.3409,46.992],[29.295,46.9922],[29.3159,46.9587],[29.3496,46.937],[29.3757,46.9352],[29.4355,46.9575],[29.4617,46.951],[29.4706,46.9416],[29.4762,46.8897],[29.441,46.8593],[29.4504,46.8242],[29.4825,46.7929],[29.5029,46.7963],[29.5533,46.7671],[29.5701,46.7238],[29.6162,46.6986],[29.6516,46.6926],[29.6662,46.6763],[29.7276,46.6701],[29.7583,46.6588],[29.7754,46.6291],[29.7475,46.6176],[29.7276,46.5944],[29.7754,46.5807],[29.8232,46.6012],[29.8399,46.5825],[29.8673,46.5807],[29.8988,46.5531],[29.9161,46.5188],[29.9602,46.5059],[29.9706,46.4917],[29.9949,46.4985],[30.0217,46.4707],[30.0141,46.462],[30.0275,46.4536],[30.1123,46.4228],[30.1316,46.4228],[30.124,46.4155],[30.2,46.33],[30.4,46.22],[30.47,46.12],[30.4983,46.0881],[30.4942,46.0805],[30.5035,46.0976],[30.5123,46.1052],[30.6234,46.2298],[30.6535,46.2596],[30.6824,46.2995],[30.6865,46.32],[30.6851,46.3209],[30.7072,46.3484],[30.7145,46.348],[30.7725,46.3964],[30.7982,46.4464],[30.7821,46.4572],[30.7728,46.4773],[30.7967,46.5514],[30.8294,46.5584],[30.867,46.5558],[30.9062,46.5747],[30.9482,46.5837],[30.9592,46.5834],[30.9669,46.5877],[31.1098,46.6181],[31.1484,46.6236],[31.2563,46.6163],[31.3377,46.6013],[31.4286,46.6376],[31.4737,46.6796],[31.5118,46.6847],[31.481,46.6464],[31.493,46.6287],[31.5789,46.6173],[31.5972,46.6432],[31.6265,46.647],[31.6567,46.6416],[31.6871,46.639],[31.6963,46.5887],[31.7024,46.5552],[31.5643,46.5552],[31.5127,46.5851],[31.5083,46.5876],[31.5106,46.5842],[31.5244,46.5642],[31.6414,46.4821],[31.6636,46.4721],[31.6865,46.4299],[31.6903,46.4786],[31.6933,46.4804],[31.7143,46.4715],[31.7177,46.4713],[31.7282,46.4138],[31.7362,46.3703],[31.7431,46.3325],[31.7787,46.3267],[31.7725,46.3027],[31.8192,46.2806],[31.8823,46.2791],[31.8828,46.2851],[31.9268,46.2875],[31.9626,46.2788],[31.9684,46.2757],[32.0181,46.2575],[32.0336,46.2617],[32.0347,46.2614],[32.0838,46.2394],[32.1154,46.2145],[32.1698,46.201],[32.2461,46.1669],[32.2625,46.1282],[32.3025,46.1167],[32.5034,46.0761],[32.5437,46.0805],[32.575,46.0973],[32.7982,46.1312],[32.8043,46.1309],[32.8446,46.1214],[32.9131,46.1152],[33.0111,46.1269],[33.2983,46.0803],[33.3038,46.0759],[33.394,46.0044],[33.4034,45.9969],[33.449,45.9608],[33.4945,45.9247],[33.5018,45.9189],[33.5476,45.8825],[33.4945,45.8532],[33.4911,45.8513],[33.4822,45.8545],[33.41,45.8266],[33.3864,45.8067],[33.2803,45.7654],[33.217,45.7581],[33.1692,45.7844],[33.1592,45.7685],[33.181,45.7552],[33.1798,45.7539],[33.1435,45.7497],[33.0247,45.6911],[32.9368,45.6625],[32.8682,45.6301],[32.8361,45.5981],[32.8267,45.5935],[32.7986,45.5769],[32.7629,45.5644],[32.7578,45.5646],[32.7509,45.5602],[32.6323,45.5188],[32.6263,45.5124],[32.5252,45.4582],[32.4951,45.4355],[32.4816,45.4089],[32.4971,45.3751],[32.4523,45.3275],[32.4526,45.3274],[32.4523,45.3271],[33.036,45.1709],[33.3278,45.0929],[33.4737,45.0538],[33.5465,45.0343],[33.5403,45.021],[33.4815,44.8954],[33.5293,44.8954],[33.5293,44.8462],[33.5573,44.8462],[33.5573,44.8441],[33.5705,44.8525],[33.5808,44.8193],[33.6173,44.8163],[33.6745,44.7916],[33.6893,44.7542],[33.6114,44.7206],[33.6252,44.6614],[33.7091,44.6664],[33.7505,44.624],[33.713,44.5816],[33.7298,44.5539],[33.7692,44.5559],[33.7771,44.5322],[33.8057,44.5273],[33.8521,44.4316],[33.786,44.4247],[33.7653,44.406],[33.73,44.398],[33.7869,44.3956],[33.8815,44.3606],[33.8817,44.3607],[33.8819,44.3606],[33.9354,44.3834],[33.9579,44.383],[34.0658,44.4196],[34.1026,44.4251],[34.1475,44.4499],[34.1668,44.4735],[34.2082,44.4967],[34.2298,44.4999],[34.2452,44.5156],[34.3122,44.5442],[34.3228,44.5435],[34.3361,44.5544],[34.9523,44.8172],[35.0284,44.8093],[35.0376,44.7988],[35.0808,44.7938],[35.1084,44.8249],[35.1299,44.8606],[35.1564,44.8969],[35.1813,44.907],[35.2151,44.9144],[35.2244,44.9245],[35.276,44.9454],[35.344,44.9562],[35.3672,44.9433],[35.3653,44.9596],[35.8133,45.031],[35.8278,44.9992],[35.848,44.9924],[35.9168,45.0014],[35.9934,44.998],[36.0235,45.026],[36.0563,45.0306],[36.1194,45.0287],[36.136,45.0214],[36.2246,45.0075],[36.2443,45.011],[36.2541,45.0314],[36.3196,45.0472],[36.3678,45.0488],[36.4401,45.0675],[36.4553,45.0916],[36.4171,45.1263],[36.4272,45.1539],[36.4524,45.232],[36.5136,45.3032],[36.5436,45.3474],[36.5452,45.3474],[36.5749,45.3361],[36.58,45.3365],[36.58,45.4262],[36.533,45.4089],[36.5088,45.4284],[36.5316,45.4693],[36.5314,45.4693],[36.5316,45.4697],[36.5312,45.4697],[36.3053,45.4566],[36.3074,45.4609],[36.284,45.4766],[36.2525,45.4615],[36.1375,45.4621],[36.1003,45.4447],[35.8478,45.43],[35.8577,45.4694],[35.8171,45.4641],[35.7991,45.4272],[35.5092,45.4104],[35.3052,45.5105],[35.1136,45.6046],[35.1054,45.6134],[35.0232,45.7011],[35.0135,45.7159],[35.0131,45.7205],[35.0106,45.7473],[35.0081,45.774],[35.0032,45.8275],[34.9987,45.8757],[34.965,46.2404],[35.0308,46.2518],[35.075,46.2711],[35.1051,46.2951],[35.1678,46.361],[35.1724,46.3643],[35.2637,46.4038],[35.2686,46.3982],[35.2586,46.3734],[35.2676,46.3511],[35.2911,46.3439],[35.2892,46.3139],[35.2793,46.282],[35.2784,46.2792],[35.2563,46.2623],[35.2305,46.2425],[35.2172,46.2323],[35.2171,46.2322],[35.0881,46.1512],[35.0444,46.1419],[35.0518,46.1284],[35.0389,46.1203],[34.9854,46.0875],[35,46.0736],[35.0623,46.0986],[35.0965,46.1042],[35.1618,46.1282],[35.2095,46.1699],[35.2146,46.1768],[35.2572,46.2042],[35.2661,46.2151],[35.2919,46.2468],[35.3176,46.2784],[35.4003,46.3801],[35.4455,46.406],[35.4481,46.408],[35.5709,46.4783],[35.6287,46.4985],[35.6613,46.5193],[35.7071,46.5563],[35.8181,46.6198],[35.8336,46.6259],[35.9654,46.6536],[36.0741,46.6597],[36.1928,46.6451],[36.1932,46.6451],[36.2237,46.65],[36.2676,46.6256],[36.2783,46.6074],[36.2844,46.6364],[36.3035,46.6592],[36.3233,46.6736],[36.7584,46.6981],[36.7931,46.7149],[36.794,46.7145],[36.7941,46.7146],[36.7944,46.7145],[36.7974,46.717],[36.8011,46.7188],[36.7903,46.6713],[36.7693,46.6374],[36.8123,46.6806],[36.8296,46.7319],[36.8304,46.733],[36.9451,46.7887],[37.0024,46.8165],[37.0598,46.8444],[37.1172,46.8722],[37.1745,46.9001],[37.2024,46.9136],[37.2192,46.9177],[37.2893,46.9167],[37.3174,46.9008],[37.313,46.8756],[37.3352,46.8825],[37.3779,46.9339],[37.4335,46.9879],[37.4838,47.0274],[38.0234,47.0822],[38.0262,47.0816],[38.0292,47.0828],[38.0606,47.086],[38.1088,47.0838],[38.1301,47.0747],[38.1081,47.0264],[38.1423,47.0377],[38.1982,47.087],[38.2128,47.0913],[38.2878,47.1141],[38.3635,47.1277],[38.4279,47.1335],[38.4397,47.1413],[38.488,47.15],[38.478,47.1425],[38.5174,47.119],[38.568,47.1152],[38.5531,47.1356],[38.6255,47.1356],[38.6667,47.1435],[38.6696,47.1433],[38.67,47.1433],[38.8294,47.1636],[38.8474,47.1636],[38.8543,47.1668],[38.9292,47.1763],[38.992,47.2404],[39.1196,47.2633],[39.135,47.1465],[39.15,47.15],[39.15,47.25],[39,47.45],[38.8,47.75],[38.7743,47.786],[38.55,48.1],[38.3,48.4],[37.95,48.65],[37.7,48.9],[37.45,49],[37.15,49.3],[36.95,49.6],[36.85,49.95],[36.95,50.25],[36.9244,50.3396],[36.85,50.6],[36.85,51],[36.9,51.4],[37,51.75],[37.15,52.1],[37.45,52.45],[37.35,52.75],[37,53.05],[36.55,53.22],[36,53.4],[35.9462,53.5077],[35.9462,53.5077],[35.9,53.6],[35.6,53.9],[35.75,54.2],[36.1,54.5],[36.35,54.75],[36.45,55],[36.6,55.15],[36.5504,55.3187],[36.55,55.32],[36.25,55.5],[36.3,55.72],[35.9,55.78],[35.55,56],[35.3,56.3],[35,56.5],[34.8,56.42],[34.3,56.45],[33.8,56.55],[33.3,56.8],[32.8,57.1],[32.85,57.3],[32.8206,57.3882],[32.75,57.6],[32.3,57.9],[31.9,57.85],[31.5,58],[31.6,58.2],[31.4,58.45],[31.32,58.62],[31.5,58.85],[31.8,59.3],[31.95,59.48],[31.6,59.62],[31.4,59.8],[31.35,59.95],[31.3,60],[31.08,60],[31.02,59.9],[30.85,59.78],[30.55,59.72],[30.32,59.78],[30.17,59.86],[30.12,59.95],[29.86,59.95],[29.83,59.84],[29.6,59.7],[29.2,59.66],[28.95,59.82],[28.9189,59.9318],[28.6761,59.8137],[28.5819,59.8341],[28.5529,59.8536],[28.5173,59.8623],[28.4761,59.8518],[28.4275,59.8134],[28.4186,59.7896],[28.4212,59.7353],[28.4206,59.7335],[28.334,59.6934],[28.2119,59.7246],[28.1988,59.735],[28.1852,59.7586],[28.1239,59.7923],[28.0869,59.7994],[28.007,59.7582],[27.9934,59.7033],[28.0159,59.6597],[28.05,59.6266],[28.0514,59.619],[28.0638,59.5543],[28.0406,59.5223],[28.0206,59.4948],[28.0048,59.4871],[27.9825,59.4763],[27.9811,59.4756],[27.9141,59.4737],[27.4383,59.4605],[27.0716,59.4503],[26.9735,59.4503],[26.8511,59.4728],[26.804,59.4897],[26.7809,59.5026],[26.7023,59.5414],[26.6263,59.5581],[26.5847,59.56],[26.5691,59.5544],[26.4623,59.5544],[26.4095,59.5607],[26.4017,59.5631],[26.3401,59.5705],[26.28,59.5873],[26.1931,59.5865],[26.0781,59.6002],[26.0745,59.6043],[26.0018,59.6326],[25.9644,59.6214],[25.9646,59.6138],[25.8994,59.6216],[25.8831,59.6313],[25.8795,59.6239],[25.8303,59.6298],[25.7927,59.6343],[25.7923,59.6343],[25.781,59.6339],[25.7805,59.6357],[25.7254,59.6658],[25.6947,59.6709],[25.6707,59.6555],[25.6907,59.6494],[25.6852,59.6301],[25.6162,59.6273],[25.5246,59.6377],[25.4849,59.6698],[25.4819,59.6112],[25.4971,59.5709],[25.5006,59.569],[25.1701,59.5308],[25.1455,59.5391],[25.1079,59.529],[25.1096,59.5238],[25.089,59.5214],[24.8936,59.5214],[24.8416,59.5544],[24.8035,59.5705],[24.7726,59.56],[24.7835,59.5198],[24.8002,59.5041],[24.706,59.483],[24.6975,59.491],[24.6663,59.4921],[24.6586,59.4724],[24.6569,59.472],[24.6218,59.4706],[24.6254,59.4678],[24.6042,59.4654],[24.5668,59.4572],[24.5482,59.463],[24.5385,59.4593],[24.4483,59.467],[24.4421,59.4699],[24.3997,59.4788],[24.3338,59.4706],[24.3193,59.4436],[24.2513,59.4114],[24.1829,59.4088],[24.1631,59.4023],[24.1937,59.3841],[24.1758,59.3756],[24.1241,59.3741],[24.0806,59.3955],[24.0482,59.3951],[24.0222,59.3781],[24.0282,59.3577],[24.0485,59.3434],[23.7775,59.2839],[23.7568,59.2836],[23.7441,59.2765],[23.6608,59.2582],[23.6419,59.2574],[23.6281,59.251],[23.5308,59.2297],[23.5256,59.2304],[23.5094,59.225],[23.3406,59.1879],[23.3407,59.1875],[23.3406,59.1875],[23.3645,59.0285],[23.364,59.029],[23.3442,59.0393],[23.278,59.0324],[23.208,59.0441],[23.1314,59.0407],[23.1141,59.0218],[23.1483,58.974],[23.2108,58.973],[23.2234,58.984],[23.2786,58.9707],[23.3401,58.984],[23.3724,58.976],[23.427,58.612],[23.4983,58.572],[23.5164,58.5546],[23.5225,58.5585],[23.5629,58.5358],[23.6034,58.5131],[23.6811,58.4695],[23.6774,58.4352],[23.7189,58.3996],[23.741,58.3431],[23.7771,58.355],[23.8057,58.3465],[23.8187,58.35],[23.8502,58.3427],[23.8547,58.3397],[23.8709,58.3379],[23.9467,58.3205],[24.0606,58.2566],[24.0608,58.2567],[24.061,58.2566],[24.0727,58.2606],[24.0835,58.2509],[24.1117,58.241],[24.1515,58.2731],[24.1653,58.2759],[24.2108,58.2714],[24.2559,58.2895],[24.2869,58.3185],[24.2898,58.3304],[24.2974,58.3382],[24.4176,58.3798],[24.4266,58.3777],[24.339,57.9282],[24.3338,57.9213],[24.331,57.911],[24.3306,57.9104],[24.3301,57.9079],[24.3244,57.8868],[24.3062,57.8682],[24.2888,57.8453],[24.2888,57.8089],[24.2996,57.7438],[24.3001,57.7431],[24.2169,57.4086],[24.1857,57.2832],[24.1753,57.2413],[24.1582,57.1724],[24.1541,57.156],[24.1457,57.1221],[24.1422,57.1082],[24.1116,57.0939],[24.0692,57.0741],[24.0357,57.069],[24.0079,57.0454],[23.9586,57.0223],[23.9494,57.0221],[23.9201,57.0213],[23.8908,57.0206],[23.6564,57.0146],[23.5978,57.0132],[23.5685,57.0124],[23.5393,57.0117],[23.5208,57.0256],[23.5086,57.0312],[23.4432,57.0381],[23.2974,57.0859],[23.2927,57.0889],[23.2859,57.091],[23.2325,57.1739],[23.2224,57.207],[23.2011,57.2224],[23.1976,57.228],[23.1824,57.2777],[23.1602,57.3186],[23.138,57.3432],[23.1302,57.3708],[23.1175,57.3739],[23.0833,57.3782],[23.0408,57.3916],[23.0386,57.3931],[22.9093,57.4607],[22.8789,57.4813],[22.7905,57.5228],[22.7445,57.5468],[22.6888,57.5992],[22.6553,57.6306],[22.6213,57.6626],[22.5915,57.6906],[22.6003,57.7438],[22.6104,57.7546],[22.5858,57.7597],[22.5491,57.7506],[22.5302,57.7483],[22.5238,57.7543],[22.5235,57.7542],[22.5234,57.7543],[22.4946,57.7438],[22.4837,57.7425],[22.2098,57.6621],[21.9438,57.5979],[21.8792,57.5901],[21.7717,57.5861],[21.7297,57.5738],[21.6992,57.5553],[21.6251,57.4768],[21.5666,57.4227],[21.5178,57.3876],[21.5115,57.3787],[21.4978,57.3589],[21.4615,57.3253],[21.4495,57.32],[21.4214,57.2887],[21.4126,57.2501],[21.4143,57.1996],[21.2942,57.0455],[21.2871,57.0364],[21.2588,57.0002],[21.2588,57.0001],[21.2305,56.9639],[21.174,56.8914],[21.1567,56.8856],[21.1472,56.8764],[21.0652,56.8463],[21.0527,56.8289],[21.0636,56.7812],[21.033,56.6362],[21.0329,56.6349],[21.0206,56.615],[21.0105,56.5987],[21.0003,56.5577],[20.9922,56.5489],[20.9963,56.5378],[21.0031,56.53],[21.0277,56.5248],[21.0268,56.5063],[21.0243,56.5105],[21.0064,56.52],[21.0005,56.5106],[21.0033,56.4926],[21.0106,56.4757],[21.0055,56.4655],[21.0054,56.4459],[20.9925,56.4179],[20.9706,56.389]]],[[[21.8324,58.511],[21.8733,58.4856],[21.9833,58.3858],[21.9654,58.3496],[21.9348,58.3242],[21.8945,58.3465],[21.8733,58.3416],[21.9005,58.3081],[21.8898,58.3045],[21.858,58.3014],[21.8433,58.3022],[21.8678,58.2646],[21.9289,58.2451],[21.9366,58.2451],[22.0317,58.2145],[22.053,58.1866],[22.0723,58.1758],[22.1046,58.1729],[22.1058,58.1722],[22.176,58.1575],[22.1871,58.1535],[22.1526,58.1153],[22.1085,58.0834],[22.0962,58.0864],[22.0213,58.0212],[22.0203,58.0196],[21.987,57.9955],[21.983,57.984],[21.9634,57.984],[21.9773,57.9675],[21.9762,57.9642],[21.9763,57.9641],[21.9762,57.9638],[21.9918,57.9401],[21.9901,57.9356],[22.0169,57.9145],[22.0484,57.9151],[22.19,57.9838],[22.203,57.994],[22.2004,58.0207],[22.2251,58.0484],[22.2293,58.0522],[22.2568,58.0932],[22.2699,58.137],[22.2711,58.1616],[22.3726,58.2173],[22.4114,58.2232],[22.4216,58.2216],[22.4389,58.2273],[22.4936,58.2356],[22.4972,58.223],[22.5131,58.2361],[22.6623,58.2327],[22.6692,58.2215],[22.7232,58.2254],[22.7567,58.2423],[22.744,58.2465],[22.7578,58.2607],[22.7899,58.2735],[22.8112,58.2734],[22.854,58.2987],[22.9027,58.3118],[22.9522,58.3477],[22.981,58.3631],[23.0107,58.3679],[23.022,58.3632],[23.0868,58.395],[23.0863,58.4015],[23.1286,58.436],[23.2275,58.4431],[23.2349,58.4399],[23.278,58.4365],[23.2599,58.4454],[23.3075,58.4488],[23.325,58.4423],[23.3333,58.4564],[23.2886,58.4882],[23.2559,58.4976],[23.1157,58.5498],[23.0911,58.571],[22.9898,58.6018],[22.8997,58.6203],[22.8709,58.6166],[22.819,58.6222],[22.8186,58.6222],[22.8164,58.6216],[22.8114,58.623],[22.7975,58.6165],[22.7538,58.6048],[22.6916,58.5982],[22.6827,58.6002],[22.6174,58.6222],[22.5969,58.6237],[22.5832,58.6345],[22.5503,58.6296],[22.5451,58.6274],[22.545,58.6274],[22.473,58.6048],[22.3712,58.5876],[22.322,58.5848],[22.2883,58.5693],[22.2769,58.5184],[22.2679,58.5077],[22.226,58.5172],[22.2129,58.5464],[22.1878,58.5429],[22.1589,58.5136],[22.1136,58.498],[22.1108,58.4915],[22.0808,58.4782],[22.0018,58.5111],[21.9979,58.5113],[21.9956,58.5125],[21.9285,58.5184],[21.9258,58.5146],[21.8744,58.5008],[21.8324,58.511]]],[[[22.0447,58.9362],[22.0625,58.9258],[22.195,58.888],[22.2918,58.8952],[22.3081,58.8959],[22.4071,58.8646],[22.4139,58.8598],[22.4417,58.8153],[22.4426,58.803],[22.4652,58.7666],[22.48,58.7531],[22.475,58.7238],[22.4631,58.7165],[22.5017,58.6948],[22.5557,58.687],[22.6112,58.6905],[22.655,58.7028],[22.681,58.7241],[22.6899,58.7392],[22.7671,58.8198],[22.769,58.8206],[22.7911,58.7993],[22.7783,58.7922],[22.7901,58.781],[22.8454,58.7765],[22.8867,58.7905],[22.8845,58.8038],[22.9234,58.8266],[23.0051,58.8332],[23.0191,58.8291],[23.0405,58.8408],[23.0151,58.8918],[22.9843,58.9108],[22.981,58.9208],[22.9544,58.9471],[22.9496,58.9709],[22.9341,58.984],[22.9112,58.9898],[22.909,58.992],[22.8966,58.9935],[22.8372,59.0086],[22.7876,59.0069],[22.7254,59.0145],[22.711,59.0319],[22.7064,59.0598],[22.7141,59.0696],[22.7042,59.0728],[22.7038,59.0753],[22.6797,59.0807],[22.6667,59.0849],[22.6585,59.0854],[22.6498,59.0874],[22.6494,59.0874],[22.6405,59.0866],[22.5977,59.0895],[22.5783,59.0784],[22.5776,59.0751],[22.5054,59.0267],[22.4992,59.0192],[22.4876,59.0164],[22.4879,59.0056],[22.4703,58.9844],[22.4546,58.9872],[22.4612,58.9745],[22.1574,58.9512],[22.0942,58.956],[22.0555,58.9527],[22.0447,58.9362]]],[[[23.0593,58.6035],[23.0833,58.5905],[23.1346,58.5799],[23.2238,58.5355],[23.2564,58.542],[23.2614,58.5402],[23.2618,58.5402],[23.2926,58.5441],[23.3622,58.5325],[23.4002,58.5554],[23.3816,58.5799],[23.3475,58.6072],[23.3491,58.6351],[23.3303,58.6531],[23.2883,58.6665],[23.1978,58.6806],[23.1671,58.6773],[23.1646,58.6777],[23.1642,58.6777],[23.1611,58.6766],[23.1546,58.6759],[23.1501,58.6727],[23.1102,58.6586],[23.0812,58.6296],[23.0755,58.6298],[23.066,58.6144],[23.0634,58.6118],[23.0637,58.6117],[23.0634,58.6114],[23.064,58.6112],[23.0593,58.6035]]],[[[31.5044,46.3734],[31.522,46.3132],[31.5268,46.3077],[31.5271,46.3066],[31.5631,46.258],[31.6999,46.2146],[32.0095,46.1677],[32.1499,46.1538],[32.1498,46.1539],[32.1503,46.1538],[32.1496,46.154],[32.1501,46.154],[32.1494,46.1542],[32.1499,46.1542],[32.1498,46.1543],[32.1503,46.1542],[32.1354,46.1597],[32.1531,46.156],[32.0937,46.1751],[32.0135,46.2046],[31.6391,46.2723],[31.5851,46.3035],[31.5273,46.3566],[31.522,46.3685],[31.5111,46.3715],[31.5095,46.373],[31.5096,46.3725],[31.5091,46.373],[31.5092,46.3725],[31.5091,46.3726],[31.5093,46.372],[31.5044,46.3734]]],[[[36.5773,45.1942],[36.58,45.1892],[36.58,45.1958],[36.5773,45.1942]]],[[[37.6724,46.6371],[37.6923,46.6231],[37.6923,46.6231],[37.7969,46.6719],[37.7969,46.6719],[37.7655,46.6632],[37.7376,46.6763],[37.7307,46.6627],[37.7401,46.6562],[37.6724,46.6375],[37.6727,46.6373],[37.6726,46.6373],[37.6727,46.6372],[37.6724,46.6371]]]]}},
{"type":"Feature","properties":{"entityId":"soviet-occupied","from":1942,"to":1943,"certainty":"estimated","source":"유럽 쪽은 Natural Earth 1:10m admin-1(v5.1.2) 현대 행정구역 조각을 그 시기 국경에 맞춰 묶고, 조각이 역사 경계와 다른 곳은 선을 그어 나눈 근사. 유럽 밖(시베리아·중앙아시아·극동)은 대략적인 추정. 운영자 검수 필요"},"geometry":{"type":"MultiPolygon","coordinates":[[[[20.9706,56.389],[20.971,56.3498],[20.9815,56.3105],[20.9827,56.2908],[20.971,56.2597],[20.9734,56.232],[20.9841,56.2104],[21.0288,56.1474],[21.0377,56.1263],[21.0474,56.0699],[21.0546,56.023],[21.0571,55.9488],[21.0447,55.9177],[21.0447,55.88],[21.05,55.88],[21.17,55.85],[21.33,55.72],[21.45,55.6],[21.6,55.46],[21.85,55.35],[22.05,55.25],[22.3,55.12],[22.5303,55.0739],[22.5411,55.0758],[22.562,55.0676],[22.575,55.065],[22.5712,55.064],[22.5916,55.0376],[22.6084,54.9924],[22.6335,54.9579],[22.7155,54.9514],[22.7521,54.9311],[22.7492,54.9099],[22.8089,54.8938],[22.8293,54.8727],[22.8484,54.8138],[22.8328,54.7787],[22.7648,54.7371],[22.7248,54.7234],[22.727,54.7053],[22.7051,54.6865],[22.7081,54.6356],[22.6817,54.5699],[22.6746,54.4923],[22.6804,54.4532],[22.707,54.4187],[22.7672,54.3563],[22.8113,54.3926],[22.8589,54.3992],[22.9188,54.3811],[22.9733,54.3754],[22.9897,54.3534],[23.0416,54.341],[23.0321,54.3096],[23.0501,54.2948],[23.1171,54.3035],[23.2354,54.2542],[23.316,54.2363],[23.336,54.2263],[23.3823,54.1879],[23.4325,54.1693],[23.4739,54.1126],[23.4962,54.0446],[23.4965,54.022],[23.4593,53.9923],[23.4629,53.9725],[23.4904,53.9506],[23.4856,53.9393],[23.4901,53.95],[22.5916,53.95],[22.6221,53.9248],[22.6185,53.8782],[22.5779,53.8322],[22.543,53.7739],[22.4856,53.7379],[22.207,53.6352],[22.1099,53.5699],[21.9373,53.4993],[21.8626,53.4927],[21.8016,53.4708],[21.7388,53.4576],[21.5957,53.4626],[21.523,53.4435],[21.5753,53.337],[21.6004,53.2221],[21.656,53.138],[21.6928,53.0953],[21.7459,53.0778],[21.8009,53.073],[21.8468,53.0516],[21.8305,53.0336],[21.8347,53.0082],[21.8602,52.9806],[21.9228,52.9528],[21.9511,52.8912],[21.9776,52.862],[22.0489,52.8396],[22.1248,52.8464],[22.1747,52.879],[22.2231,52.8569],[22.2073,52.8017],[22.2636,52.7671],[22.3199,52.7842],[22.3779,52.7941],[22.3935,52.7471],[22.3997,52.695],[22.4118,52.6597],[22.4119,52.6006],[22.5176,52.5294],[22.5114,52.4946],[22.5198,52.4733],[22.5448,52.4625],[22.5388,52.4294],[22.5627,52.4041],[22.6119,52.3873],[22.689,52.3854],[22.8446,52.3656],[22.9228,52.3723],[22.9751,52.3528],[22.9845,52.3301],[23.0058,52.337],[23.0521,52.3096],[23.039,52.2892],[23.087,52.2923],[23.1502,52.2816],[23.1761,52.2851],[23.1945,52.2715],[23.1897,52.2405],[23.2123,52.2317],[23.3958,52.1996],[23.3885,52.1842],[23.4367,52.1757],[23.4505,52.1859],[23.4847,52.1586],[23.5125,52.1244],[23.5794,52.1215],[23.6375,52.0845],[23.6764,51.9941],[23.6476,51.9741],[23.6222,51.9279],[23.6214,51.8956],[23.5946,51.8433],[23.6287,51.8098],[23.6175,51.7865],[23.5604,51.7545],[23.5466,51.7136],[23.5604,51.672],[23.5324,51.659],[23.5438,51.6438],[23.5399,51.6071],[23.574,51.5553],[23.5728,51.5397],[23.6062,51.5174],[23.6148,51.4972],[23.6628,51.4802],[23.6487,51.454],[23.6976,51.4044],[23.6789,51.3941],[23.6839,51.3703],[23.634,51.3393],[23.6352,51.3047],[23.6873,51.2924],[23.7427,51.2163],[23.7652,51.199],[23.816,51.1788],[23.8747,51.1361],[23.8545,51.1215],[23.9042,51.0627],[23.9117,51.0068],[23.9551,50.9836],[23.9793,50.9375],[24.0469,50.898],[24.1302,50.8689],[24.1309,50.8391],[24.0469,50.8291],[24.0205,50.8386],[23.9699,50.8252],[23.9576,50.808],[23.9743,50.7762],[24.0259,50.767],[24.0128,50.7433],[24.0269,50.728],[24.081,50.713],[24.0749,50.6902],[24.1082,50.6303],[24.1259,50.6418],[24.1647,50.6402],[24.2179,50.5892],[24.2479,50.5818],[24.3214,50.5926],[24.3459,50.6089],[24.3795,50.6009],[24.4054,50.5674],[24.4343,50.549],[24.5008,50.5455],[24.5306,50.5241],[24.5354,50.5001],[24.5132,50.4867],[24.4634,50.4788],[24.4567,50.4614],[24.4988,50.4397],[24.5042,50.4106],[24.5418,50.4109],[24.5526,50.4384],[24.591,50.417],[24.6342,50.4134],[24.6394,50.3974],[24.6882,50.3767],[24.7052,50.3496],[24.773,50.3405],[24.8484,50.3549],[24.9114,50.3481],[24.9319,50.3702],[25.0039,50.3457],[25.0489,50.3473],[25.0638,50.3345],[25.0635,50.2948],[25.1041,50.2794],[25.1529,50.2925],[25.1957,50.288],[25.2075,50.2501],[25.1677,50.22],[25.1929,50.1816],[25.1854,50.128],[25.2023,50.095],[25.2959,50.0413],[25.3676,50.0131],[25.3727,49.9965],[25.3898,49.9873],[25.6,49.92],[25.8,49.85],[26,49.75],[26.2,49.62],[26.2239,49.62],[26.2087,49.5669],[26.1643,49.544],[26.1484,49.5165],[26.1985,49.4153],[26.2291,49.397],[26.2391,49.342],[26.2344,49.3195],[26.2563,49.2936],[26.2417,49.2412],[26.2078,49.2273],[26.1992,49.1746],[26.2218,49.148],[26.2109,49.1191],[26.2284,49.0669],[26.1995,49.0413],[26.2212,49.0007],[26.1985,48.9845],[26.1891,48.953],[26.2023,48.935],[26.1954,48.9],[26.2229,48.8972],[26.2143,48.847],[26.2387,48.8188],[26.2642,48.8082],[26.2285,48.7792],[26.2513,48.7524],[26.2355,48.685],[26.2819,48.6616],[26.285,48.6412],[26.3163,48.6428],[26.3067,48.6056],[26.3689,48.5761],[26.354,48.5616],[26.3805,48.5171],[26.404,48.5341],[26.4706,48.5381],[26.5153,48.5149],[26.5399,48.4789],[26.5664,48.4574],[26.6219,48.4583],[26.607,48.4923],[26.6273,48.5084],[26.6436,48.4925],[26.709,48.4969],[26.6709,48.5267],[26.6144,48.5402],[26.6328,48.5624],[26.7218,48.5352],[26.7392,48.5577],[26.7161,48.5778],[26.7172,48.5948],[26.7406,48.5889],[26.7497,48.5616],[26.7728,48.551],[26.7876,48.5683],[26.7831,48.5935],[26.8081,48.6091],[26.8292,48.6018],[26.8226,48.5812],[26.8414,48.5463],[26.885,48.5435],[26.9247,48.5751],[26.9453,48.5814],[27.1134,48.5593],[27.147,48.5819],[27.1814,48.5819],[27.2141,48.5701],[27.2476,48.5704],[27.2618,48.5957],[27.2344,48.6185],[27.2947,48.6161],[27.3218,48.6009],[27.3704,48.6297],[27.4097,48.6207],[27.4382,48.6025],[27.4728,48.5472],[27.5038,48.4724],[27.5571,48.4744],[27.583,48.486],[27.6048,48.4841],[27.6069,48.4578],[27.627,48.4513],[27.7518,48.452],[27.7853,48.4416],[27.8499,48.4096],[27.8854,48.3784],[27.9264,48.3394],[28.0032,48.3259],[28.0559,48.3215],[28.0928,48.3021],[28.0983,48.2841],[28.0787,48.2449],[28.1311,48.2396],[28.1785,48.2589],[28.1999,48.2117],[28.2403,48.2116],[28.2945,48.2365],[28.3406,48.2401],[28.3682,48.2306],[28.3634,48.191],[28.3222,48.1632],[28.3174,48.1354],[28.3496,48.1297],[28.3886,48.1686],[28.4116,48.1707],[28.4369,48.1499],[28.419,48.1222],[28.4474,48.0828],[28.49,48.0655],[28.4998,48.1089],[28.5434,48.088],[28.5191,48.0523],[28.4813,48.0332],[28.4666,47.9972],[28.4965,47.9878],[28.5055,47.9587],[28.4962,47.9155],[28.478,47.8886],[28.504,47.8833],[28.5305,47.8929],[28.5692,47.8871],[28.637,47.8421],[28.6692,47.8581],[28.6568,47.8772],[28.6579,47.8987],[28.6832,47.9339],[28.7204,47.9527],[28.7556,47.9572],[28.7848,47.9828],[28.8128,47.9654],[28.8303,47.9411],[28.8289,47.9171],[28.861,47.8997],[28.9421,47.8832],[28.9803,47.8755],[29.0181,47.8535],[29.0175,47.8269],[28.9803,47.7656],[28.9756,47.7434],[28.9803,47.6874],[28.9954,47.6509],[28.9865,47.6223],[29.0157,47.5821],[29.0267,47.5295],[29.0486,47.5062],[29.0928,47.4874],[29.108,47.4694],[29.0901,47.4373],[29.0824,47.4064],[29.0514,47.3904],[29.0254,47.4009],[29.0084,47.3964],[28.9819,47.3633],[29.0217,47.3331],[29.0711,47.2958],[29.0737,47.2463],[29.1101,47.2336],[29.151,47.2448],[29.1633,47.2309],[29.1633,47.2308],[29.1789,47.1971],[29.1632,47.1919],[29.1444,47.1629],[29.1119,47.1499],[29.0691,47.1015],[29.0987,47.0921],[29.1243,47.0742],[29.1561,47.1136],[29.1892,47.1118],[29.1938,47.1238],[29.1789,47.1561],[29.2003,47.1631],[29.2267,47.1493],[29.2365,47.1624],[29.2922,47.1358],[29.295,47.122],[29.3293,47.1082],[29.3775,47.0708],[29.3806,47.0289],[29.3639,47.0332],[29.3724,47.0043],[29.3409,46.992],[29.295,46.9922],[29.3159,46.9587],[29.3496,46.937],[29.3757,46.9352],[29.4355,46.9575],[29.4617,46.951],[29.4706,46.9416],[29.4762,46.8897],[29.441,46.8593],[29.4504,46.8242],[29.4825,46.7929],[29.5029,46.7963],[29.5533,46.7671],[29.5701,46.7238],[29.6162,46.6986],[29.6516,46.6926],[29.6662,46.6763],[29.7276,46.6701],[29.7583,46.6588],[29.7754,46.6291],[29.7475,46.6176],[29.7276,46.5944],[29.7754,46.5807],[29.8232,46.6012],[29.8399,46.5825],[29.8673,46.5807],[29.8988,46.5531],[29.9161,46.5188],[29.9602,46.5059],[29.9706,46.4917],[29.9949,46.4985],[30.0217,46.4707],[30.0141,46.462],[30.0275,46.4536],[30.1123,46.4228],[30.1316,46.4228],[30.124,46.4155],[30.2,46.33],[30.4,46.22],[30.47,46.12],[30.4983,46.0881],[30.4942,46.0805],[30.5035,46.0976],[30.5123,46.1052],[30.6234,46.2298],[30.6535,46.2596],[30.6824,46.2995],[30.6865,46.32],[30.6851,46.3209],[30.7072,46.3484],[30.7145,46.348],[30.7725,46.3964],[30.7982,46.4464],[30.7821,46.4572],[30.7728,46.4773],[30.7967,46.5514],[30.8294,46.5584],[30.867,46.5558],[30.9062,46.5747],[30.9482,46.5837],[30.9592,46.5834],[30.9669,46.5877],[31.1098,46.6181],[31.1484,46.6236],[31.2563,46.6163],[31.3377,46.6013],[31.4286,46.6376],[31.4737,46.6796],[31.5118,46.6847],[31.481,46.6464],[31.493,46.6287],[31.5789,46.6173],[31.5972,46.6432],[31.6265,46.647],[31.6567,46.6416],[31.6871,46.639],[31.6963,46.5887],[31.7024,46.5552],[31.5643,46.5552],[31.5127,46.5851],[31.5083,46.5876],[31.5106,46.5842],[31.5244,46.5642],[31.6414,46.4821],[31.6636,46.4721],[31.6865,46.4299],[31.6903,46.4786],[31.6933,46.4804],[31.7143,46.4715],[31.7177,46.4713],[31.7282,46.4138],[31.7362,46.3703],[31.7431,46.3325],[31.7787,46.3267],[31.7725,46.3027],[31.8192,46.2806],[31.8823,46.2791],[31.8828,46.2851],[31.9268,46.2875],[31.9626,46.2788],[31.9684,46.2757],[32.0181,46.2575],[32.0336,46.2617],[32.0347,46.2614],[32.0838,46.2394],[32.1154,46.2145],[32.1698,46.201],[32.2461,46.1669],[32.2625,46.1282],[32.3025,46.1167],[32.5034,46.0761],[32.5437,46.0805],[32.575,46.0973],[32.7982,46.1312],[32.8043,46.1309],[32.8446,46.1214],[32.9131,46.1152],[33.0111,46.1269],[33.2983,46.0803],[33.3038,46.0759],[33.394,46.0044],[33.4034,45.9969],[33.449,45.9608],[33.4945,45.9247],[33.5018,45.9189],[33.5476,45.8825],[33.4945,45.8532],[33.4911,45.8513],[33.4822,45.8545],[33.41,45.8266],[33.3864,45.8067],[33.2803,45.7654],[33.217,45.7581],[33.1692,45.7844],[33.1592,45.7685],[33.181,45.7552],[33.1798,45.7539],[33.1435,45.7497],[33.0247,45.6911],[32.9368,45.6625],[32.8682,45.6301],[32.8361,45.5981],[32.8267,45.5935],[32.7986,45.5769],[32.7629,45.5644],[32.7578,45.5646],[32.7509,45.5602],[32.6323,45.5188],[32.6263,45.5124],[32.5252,45.4582],[32.4951,45.4355],[32.4816,45.4089],[32.4971,45.3751],[32.4523,45.3275],[32.4526,45.3274],[32.4523,45.3271],[33.036,45.1709],[33.3278,45.0929],[33.4737,45.0538],[33.5465,45.0343],[33.5403,45.021],[33.4815,44.8954],[33.4584,44.8462],[33.4353,44.7969],[33.3892,44.6983],[33.3271,44.5658],[33.3273,44.5657],[33.3271,44.5654],[33.5013,44.5011],[33.5176,44.4905],[33.5272,44.4915],[33.6035,44.4634],[33.6298,44.448],[33.6454,44.4251],[33.73,44.398],[33.7869,44.3956],[33.8815,44.3606],[33.8817,44.3607],[33.8819,44.3606],[33.9354,44.3834],[33.9579,44.383],[34.0658,44.4196],[34.1026,44.4251],[34.1475,44.4499],[34.1668,44.4735],[34.2082,44.4967],[34.2298,44.4999],[34.2452,44.5156],[34.3122,44.5442],[34.3228,44.5435],[34.3361,44.5544],[34.9523,44.8172],[35.0284,44.8093],[35.0376,44.7988],[35.0808,44.7938],[35.1084,44.8249],[35.1299,44.8606],[35.1564,44.8969],[35.1813,44.907],[35.2151,44.9144],[35.2244,44.9245],[35.276,44.9454],[35.344,44.9562],[35.3672,44.9433],[35.3653,44.9596],[35.8133,45.031],[35.8278,44.9992],[35.848,44.9924],[35.9168,45.0014],[35.9934,44.998],[36.0235,45.026],[36.0563,45.0306],[36.1194,45.0287],[36.136,45.0214],[36.2246,45.0075],[36.2443,45.011],[36.2541,45.0314],[36.3196,45.0472],[36.3678,45.0488],[36.4401,45.0675],[36.4553,45.0916],[36.4171,45.1263],[36.4272,45.1539],[36.4524,45.232],[36.5136,45.3032],[36.5436,45.3474],[36.5452,45.3474],[36.5749,45.3361],[36.58,45.3365],[36.6309,45.3406],[36.6384,45.3513],[36.6135,45.4089],[36.5833,45.4274],[36.58,45.4262],[36.533,45.4089],[36.5088,45.4284],[36.5316,45.4693],[36.5314,45.4693],[36.5316,45.4697],[36.5312,45.4697],[36.3053,45.4566],[36.3074,45.4609],[36.284,45.4766],[36.2525,45.4615],[36.1375,45.4621],[36.1003,45.4447],[35.8478,45.43],[35.8577,45.4694],[35.8171,45.4641],[35.7991,45.4272],[35.5092,45.4104],[35.3052,45.5105],[35.1136,45.6046],[35.1054,45.6134],[35.0232,45.7011],[35.0135,45.7159],[35.0131,45.7205],[35.0106,45.7473],[35.0081,45.774],[35.0032,45.8275],[34.9987,45.8757],[34.965,46.2404],[35.0308,46.2518],[35.075,46.2711],[35.1051,46.2951],[35.1678,46.361],[35.1724,46.3643],[35.2637,46.4038],[35.2686,46.3982],[35.2586,46.3734],[35.2676,46.3511],[35.2911,46.3439],[35.2892,46.3139],[35.2793,46.282],[35.2784,46.2792],[35.2563,46.2623],[35.2305,46.2425],[35.2172,46.2323],[35.2171,46.2322],[35.0881,46.1512],[35.0444,46.1419],[35.0518,46.1284],[35.0389,46.1203],[34.9854,46.0875],[35,46.0736],[35.0623,46.0986],[35.0965,46.1042],[35.1618,46.1282],[35.2095,46.1699],[35.2146,46.1768],[35.2572,46.2042],[35.2661,46.2151],[35.2919,46.2468],[35.3176,46.2784],[35.4003,46.3801],[35.4455,46.406],[35.4481,46.408],[35.5709,46.4783],[35.6287,46.4985],[35.6613,46.5193],[35.7071,46.5563],[35.8181,46.6198],[35.8336,46.6259],[35.9654,46.6536],[36.0741,46.6597],[36.1928,46.6451],[36.1932,46.6451],[36.2237,46.65],[36.2676,46.6256],[36.2783,46.6074],[36.2844,46.6364],[36.3035,46.6592],[36.3233,46.6736],[36.7584,46.6981],[36.7931,46.7149],[36.794,46.7145],[36.7941,46.7146],[36.7944,46.7145],[36.7974,46.717],[36.8011,46.7188],[36.7903,46.6713],[36.7693,46.6374],[36.8123,46.6806],[36.8296,46.7319],[36.8304,46.733],[36.9451,46.7887],[37.0024,46.8165],[37.0598,46.8444],[37.1172,46.8722],[37.1745,46.9001],[37.2024,46.9136],[37.2192,46.9177],[37.2893,46.9167],[37.3174,46.9008],[37.313,46.8756],[37.3352,46.8825],[37.3779,46.9339],[37.4335,46.9879],[37.4838,47.0274],[38.0234,47.0822],[38.0262,47.0816],[38.0292,47.0828],[38.0606,47.086],[38.1088,47.0838],[38.1301,47.0747],[38.1081,47.0264],[38.1423,47.0377],[38.1982,47.087],[38.2128,47.0913],[38.2878,47.1141],[38.3635,47.1277],[38.4279,47.1335],[38.4397,47.1413],[38.488,47.15],[38.478,47.1425],[38.5174,47.119],[38.568,47.1152],[38.5531,47.1356],[38.6255,47.1356],[38.6667,47.1435],[38.6696,47.1433],[38.67,47.1433],[38.8294,47.1636],[38.8474,47.1636],[38.8543,47.1668],[38.9292,47.1763],[38.992,47.2404],[39.1196,47.2633],[39.135,47.1465],[39.1483,47.0454],[39.0869,47.0284],[39.0752,47.0327],[39.0397,47.0154],[38.7602,46.9381],[38.6903,46.9188],[38.6554,46.9092],[38.6204,46.8995],[38.4806,46.8609],[38.4746,46.8619],[38.4611,46.8555],[37.7969,46.6719],[37.7655,46.6632],[37.7376,46.6763],[37.7307,46.6627],[37.7401,46.6562],[37.6724,46.6375],[37.6727,46.6373],[37.6726,46.6373],[37.6727,46.6372],[37.6724,46.6371],[37.6923,46.6231],[37.7923,46.5526],[37.8273,46.4765],[37.863,46.4548],[37.905,46.411],[37.971,46.3618],[37.9954,46.3544],[38.0187,46.3685],[37.9778,46.3821],[37.9784,46.383],[37.9788,46.383],[38.0259,46.3879],[38.2338,46.2413],[38.0509,46.0574],[38.0379,46.0565],[37.9719,46.04],[37.9401,46.0203],[37.902,45.9508],[37.8934,45.916],[37.8796,45.8852],[37.6353,45.6396],[37.6079,45.6627],[37.5951,45.6353],[37.5896,45.5936],[37.4024,45.4054],[37.1147,45.3417],[37.0667,45.3538],[36.8953,45.43],[36.8333,45.443],[36.7051,45.391],[36.6665,45.3404],[36.688,45.3315],[36.7251,45.3691],[36.7616,45.3483],[36.7636,45.348],[36.7585,45.3408],[36.7888,45.2922],[36.8923,45.3084],[36.9183,45.2984],[36.6752,45.2446],[36.6755,45.2444],[36.6754,45.2444],[36.6756,45.2443],[36.6752,45.2442],[36.7219,45.2124],[36.6861,45.2032],[36.5947,45.2048],[36.58,45.1958],[36.5773,45.1942],[36.58,45.1892],[36.5931,45.1648],[36.6414,45.1284],[36.7017,45.1038],[36.7415,45.1032],[36.7546,45.1058],[36.9283,45.0721],[37.3468,44.7876],[37.3512,44.7786],[37.386,44.7368],[37.4365,44.7168],[37.4783,44.6772],[37.509,44.6753],[37.5146,44.6735],[37.5392,44.6568],[37.6325,44.626],[37.75,44.72],[37.95,44.7],[38.6,44.55],[39.4,44.3],[39.95,44.1],[40.6,43.65],[41.5,43.45],[43,43.2],[43.6,43.2],[44,43.1],[44.35,43.2],[44.55,43.4],[44.75,43.72],[44.7,44],[44.7,44.6],[44.3,45.3],[44,45.9],[44.1,46.3],[44,46.8],[43.3,47.2],[42.8,47.6],[43,48],[43.4,48.3],[43.9,48.4],[44.45,48.45],[44.6,48.65],[44.5,48.85],[43.6,48.95],[43,48.7],[42.4,48.5],[41.9,48.4],[41.5,48.2],[41.1,48.55],[40.55,48.9],[40.0748,49.2024],[40,49.25],[39.8239,49.5435],[39.7,49.75],[40.05,50.15],[39.95,50.5],[39.55,50.95],[39.3,51.3],[39.2,51.6],[39.1,51.75],[38.7,51.85],[38.2,52],[37.75,52.2],[37.45,52.45],[37.35,52.55],[37.05,52.9],[36.7935,53.128],[36.6,53.3],[36.1,53.45],[35.9462,53.5077],[36,53.4],[35.9462,53.5077],[35.7,53.6],[35.2,53.75],[34.45,53.85],[34.15,54.1],[34.35,54.5],[34.4654,54.6616],[34.481,54.6834],[34.6,54.85],[34.95,55.05],[35.1,55.4],[34.9,55.62],[34.6,55.9],[34.45,56.15],[34.3,56.38],[33.9,56.4],[33.4,56.25],[32.9,56.05],[32.5,55.95],[31.9,55.95],[31.4,56.05],[30.95,56.15],[30.8,56.35],[30.95,56.75],[31.3,57.05],[31.45,57.2],[31.9,57.3],[32.4,57.22],[32.8206,57.3882],[32.85,57.4],[32.75,57.65],[32.3,57.9],[31.9,57.85],[31.5,58],[31.6,58.2],[31.4,58.45],[31.32,58.62],[31.5,58.85],[31.8,59.3],[31.95,59.48],[31.6,59.62],[31.4,59.8],[31.35,59.95],[31.3,60],[31.08,60],[31.02,59.9],[30.85,59.78],[30.55,59.72],[30.32,59.78],[30.17,59.86],[30.12,59.95],[29.86,59.95],[29.83,59.84],[29.6,59.7],[29.2,59.66],[28.95,59.82],[28.9189,59.9318],[28.6761,59.8137],[28.5819,59.8341],[28.5529,59.8536],[28.5173,59.8623],[28.4761,59.8518],[28.4275,59.8134],[28.4186,59.7896],[28.4212,59.7353],[28.4206,59.7335],[28.334,59.6934],[28.2119,59.7246],[28.1988,59.735],[28.1852,59.7586],[28.1239,59.7923],[28.0869,59.7994],[28.007,59.7582],[27.9934,59.7033],[28.0159,59.6597],[28.05,59.6266],[28.0514,59.619],[28.0638,59.5543],[28.0406,59.5223],[28.0206,59.4948],[28.0048,59.4871],[27.9825,59.4763],[27.9811,59.4756],[27.9141,59.4737],[27.4383,59.4605],[27.0716,59.4503],[26.9735,59.4503],[26.8511,59.4728],[26.804,59.4897],[26.7809,59.5026],[26.7023,59.5414],[26.6263,59.5581],[26.5847,59.56],[26.5691,59.5544],[26.4623,59.5544],[26.4095,59.5607],[26.4017,59.5631],[26.3401,59.5705],[26.28,59.5873],[26.1931,59.5865],[26.0781,59.6002],[26.0745,59.6043],[26.0018,59.6326],[25.9644,59.6214],[25.9646,59.6138],[25.8994,59.6216],[25.8831,59.6313],[25.8795,59.6239],[25.8303,59.6298],[25.7927,59.6343],[25.7923,59.6343],[25.781,59.6339],[25.7805,59.6357],[25.7254,59.6658],[25.6947,59.6709],[25.6707,59.6555],[25.6907,59.6494],[25.6852,59.6301],[25.6162,59.6273],[25.5246,59.6377],[25.4849,59.6698],[25.4819,59.6112],[25.4971,59.5709],[25.5006,59.569],[25.1701,59.5308],[25.1455,59.5391],[25.1079,59.529],[25.1096,59.5238],[25.089,59.5214],[24.8936,59.5214],[24.8416,59.5544],[24.8035,59.5705],[24.7726,59.56],[24.7835,59.5198],[24.8002,59.5041],[24.706,59.483],[24.6975,59.491],[24.6663,59.4921],[24.6586,59.4724],[24.6569,59.472],[24.6218,59.4706],[24.6254,59.4678],[24.6042,59.4654],[24.5668,59.4572],[24.5482,59.463],[24.5385,59.4593],[24.4483,59.467],[24.4421,59.4699],[24.3997,59.4788],[24.3338,59.4706],[24.3193,59.4436],[24.2513,59.4114],[24.1829,59.4088],[24.1631,59.4023],[24.1937,59.3841],[24.1758,59.3756],[24.1241,59.3741],[24.0806,59.3955],[24.0482,59.3951],[24.0222,59.3781],[24.0282,59.3577],[24.0485,59.3434],[23.7775,59.2839],[23.7568,59.2836],[23.7441,59.2765],[23.6608,59.2582],[23.6419,59.2574],[23.6281,59.251],[23.5308,59.2297],[23.5256,59.2304],[23.5094,59.225],[23.3406,59.1879],[23.3407,59.1875],[23.3406,59.1875],[23.3645,59.0285],[23.364,59.029],[23.3442,59.0393],[23.278,59.0324],[23.208,59.0441],[23.1314,59.0407],[23.1141,59.0218],[23.1483,58.974],[23.2108,58.973],[23.2234,58.984],[23.2786,58.9707],[23.3401,58.984],[23.3724,58.976],[23.427,58.612],[23.4983,58.572],[23.5164,58.5546],[23.5225,58.5585],[23.5629,58.5358],[23.6034,58.5131],[23.6811,58.4695],[23.6774,58.4352],[23.7189,58.3996],[23.741,58.3431],[23.7771,58.355],[23.8057,58.3465],[23.8187,58.35],[23.8502,58.3427],[23.8547,58.3397],[23.8709,58.3379],[23.9467,58.3205],[24.0606,58.2566],[24.0608,58.2567],[24.061,58.2566],[24.0727,58.2606],[24.0835,58.2509],[24.1117,58.241],[24.1515,58.2731],[24.1653,58.2759],[24.2108,58.2714],[24.2559,58.2895],[24.2869,58.3185],[24.2898,58.3304],[24.2974,58.3382],[24.4176,58.3798],[24.4266,58.3777],[24.339,57.9282],[24.3338,57.9213],[24.331,57.911],[24.3306,57.9104],[24.3301,57.9079],[24.3244,57.8868],[24.3062,57.8682],[24.2888,57.8453],[24.2888,57.8089],[24.2996,57.7438],[24.3001,57.7431],[24.2169,57.4086],[24.1857,57.2832],[24.1753,57.2413],[24.1582,57.1724],[24.1541,57.156],[24.1457,57.1221],[24.1422,57.1082],[24.1116,57.0939],[24.0692,57.0741],[24.0357,57.069],[24.0079,57.0454],[23.9586,57.0223],[23.9494,57.0221],[23.9201,57.0213],[23.8908,57.0206],[23.6564,57.0146],[23.5978,57.0132],[23.5685,57.0124],[23.5393,57.0117],[23.5208,57.0256],[23.5086,57.0312],[23.4432,57.0381],[23.2974,57.0859],[23.2927,57.0889],[23.2859,57.091],[23.2325,57.1739],[23.2224,57.207],[23.2011,57.2224],[23.1976,57.228],[23.1824,57.2777],[23.1602,57.3186],[23.138,57.3432],[23.1302,57.3708],[23.1175,57.3739],[23.0833,57.3782],[23.0408,57.3916],[23.0386,57.3931],[22.9093,57.4607],[22.8789,57.4813],[22.7905,57.5228],[22.7445,57.5468],[22.6888,57.5992],[22.6553,57.6306],[22.6213,57.6626],[22.5915,57.6906],[22.6003,57.7438],[22.6104,57.7546],[22.5858,57.7597],[22.5491,57.7506],[22.5302,57.7483],[22.5238,57.7543],[22.5235,57.7542],[22.5234,57.7543],[22.4946,57.7438],[22.4837,57.7425],[22.2098,57.6621],[21.9438,57.5979],[21.8792,57.5901],[21.7717,57.5861],[21.7297,57.5738],[21.6992,57.5553],[21.6251,57.4768],[21.5666,57.4227],[21.5178,57.3876],[21.5115,57.3787],[21.4978,57.3589],[21.4615,57.3253],[21.4495,57.32],[21.4214,57.2887],[21.4126,57.2501],[21.4143,57.1996],[21.2942,57.0455],[21.2871,57.0364],[21.2588,57.0002],[21.2588,57.0001],[21.2305,56.9639],[21.174,56.8914],[21.1567,56.8856],[21.1472,56.8764],[21.0652,56.8463],[21.0527,56.8289],[21.0636,56.7812],[21.033,56.6362],[21.0329,56.6349],[21.0206,56.615],[21.0105,56.5987],[21.0003,56.5577],[20.9922,56.5489],[20.9963,56.5378],[21.0031,56.53],[21.0277,56.5248],[21.0268,56.5063],[21.0243,56.5105],[21.0064,56.52],[21.0005,56.5106],[21.0033,56.4926],[21.0106,56.4757],[21.0055,56.4655],[21.0054,56.4459],[20.9925,56.4179],[20.9706,56.389]],[[36.7864,45.344],[36.8101,45.3399],[36.8025,45.3127],[36.7864,45.344]]],[[[21.8324,58.511],[21.8733,58.4856],[21.9833,58.3858],[21.9654,58.3496],[21.9348,58.3242],[21.8945,58.3465],[21.8733,58.3416],[21.9005,58.3081],[21.8898,58.3045],[21.858,58.3014],[21.8433,58.3022],[21.8678,58.2646],[21.9289,58.2451],[21.9366,58.2451],[22.0317,58.2145],[22.053,58.1866],[22.0723,58.1758],[22.1046,58.1729],[22.1058,58.1722],[22.176,58.1575],[22.1871,58.1535],[22.1526,58.1153],[22.1085,58.0834],[22.0962,58.0864],[22.0213,58.0212],[22.0203,58.0196],[21.987,57.9955],[21.983,57.984],[21.9634,57.984],[21.9773,57.9675],[21.9762,57.9642],[21.9763,57.9641],[21.9762,57.9638],[21.9918,57.9401],[21.9901,57.9356],[22.0169,57.9145],[22.0484,57.9151],[22.19,57.9838],[22.203,57.994],[22.2004,58.0207],[22.2251,58.0484],[22.2293,58.0522],[22.2568,58.0932],[22.2699,58.137],[22.2711,58.1616],[22.3726,58.2173],[22.4114,58.2232],[22.4216,58.2216],[22.4389,58.2273],[22.4936,58.2356],[22.4972,58.223],[22.5131,58.2361],[22.6623,58.2327],[22.6692,58.2215],[22.7232,58.2254],[22.7567,58.2423],[22.744,58.2465],[22.7578,58.2607],[22.7899,58.2735],[22.8112,58.2734],[22.854,58.2987],[22.9027,58.3118],[22.9522,58.3477],[22.981,58.3631],[23.0107,58.3679],[23.022,58.3632],[23.0868,58.395],[23.0863,58.4015],[23.1286,58.436],[23.2275,58.4431],[23.2349,58.4399],[23.278,58.4365],[23.2599,58.4454],[23.3075,58.4488],[23.325,58.4423],[23.3333,58.4564],[23.2886,58.4882],[23.2559,58.4976],[23.1157,58.5498],[23.0911,58.571],[22.9898,58.6018],[22.8997,58.6203],[22.8709,58.6166],[22.819,58.6222],[22.8186,58.6222],[22.8164,58.6216],[22.8114,58.623],[22.7975,58.6165],[22.7538,58.6048],[22.6916,58.5982],[22.6827,58.6002],[22.6174,58.6222],[22.5969,58.6237],[22.5832,58.6345],[22.5503,58.6296],[22.5451,58.6274],[22.545,58.6274],[22.473,58.6048],[22.3712,58.5876],[22.322,58.5848],[22.2883,58.5693],[22.2769,58.5184],[22.2679,58.5077],[22.226,58.5172],[22.2129,58.5464],[22.1878,58.5429],[22.1589,58.5136],[22.1136,58.498],[22.1108,58.4915],[22.0808,58.4782],[22.0018,58.5111],[21.9979,58.5113],[21.9956,58.5125],[21.9285,58.5184],[21.9258,58.5146],[21.8744,58.5008],[21.8324,58.511]]],[[[22.0447,58.9362],[22.0625,58.9258],[22.195,58.888],[22.2918,58.8952],[22.3081,58.8959],[22.4071,58.8646],[22.4139,58.8598],[22.4417,58.8153],[22.4426,58.803],[22.4652,58.7666],[22.48,58.7531],[22.475,58.7238],[22.4631,58.7165],[22.5017,58.6948],[22.5557,58.687],[22.6112,58.6905],[22.655,58.7028],[22.681,58.7241],[22.6899,58.7392],[22.7671,58.8198],[22.769,58.8206],[22.7911,58.7993],[22.7783,58.7922],[22.7901,58.781],[22.8454,58.7765],[22.8867,58.7905],[22.8845,58.8038],[22.9234,58.8266],[23.0051,58.8332],[23.0191,58.8291],[23.0405,58.8408],[23.0151,58.8918],[22.9843,58.9108],[22.981,58.9208],[22.9544,58.9471],[22.9496,58.9709],[22.9341,58.984],[22.9112,58.9898],[22.909,58.992],[22.8966,58.9935],[22.8372,59.0086],[22.7876,59.0069],[22.7254,59.0145],[22.711,59.0319],[22.7064,59.0598],[22.7141,59.0696],[22.7042,59.0728],[22.7038,59.0753],[22.6797,59.0807],[22.6667,59.0849],[22.6585,59.0854],[22.6498,59.0874],[22.6494,59.0874],[22.6405,59.0866],[22.5977,59.0895],[22.5783,59.0784],[22.5776,59.0751],[22.5054,59.0267],[22.4992,59.0192],[22.4876,59.0164],[22.4879,59.0056],[22.4703,58.9844],[22.4546,58.9872],[22.4612,58.9745],[22.1574,58.9512],[22.0942,58.956],[22.0555,58.9527],[22.0447,58.9362]]],[[[23.0593,58.6035],[23.0833,58.5905],[23.1346,58.5799],[23.2238,58.5355],[23.2564,58.542],[23.2614,58.5402],[23.2618,58.5402],[23.2926,58.5441],[23.3622,58.5325],[23.4002,58.5554],[23.3816,58.5799],[23.3475,58.6072],[23.3491,58.6351],[23.3303,58.6531],[23.2883,58.6665],[23.1978,58.6806],[23.1671,58.6773],[23.1646,58.6777],[23.1642,58.6777],[23.1611,58.6766],[23.1546,58.6759],[23.1501,58.6727],[23.1102,58.6586],[23.0812,58.6296],[23.0755,58.6298],[23.066,58.6144],[23.0634,58.6118],[23.0637,58.6117],[23.0634,58.6114],[23.064,58.6112],[23.0593,58.6035]]],[[[31.5044,46.3734],[31.522,46.3132],[31.5268,46.3077],[31.5271,46.3066],[31.5631,46.258],[31.6999,46.2146],[32.0095,46.1677],[32.1499,46.1538],[32.1498,46.1539],[32.1503,46.1538],[32.1496,46.154],[32.1501,46.154],[32.1494,46.1542],[32.1499,46.1542],[32.1498,46.1543],[32.1503,46.1542],[32.1354,46.1597],[32.1531,46.156],[32.0937,46.1751],[32.0135,46.2046],[31.6391,46.2723],[31.5851,46.3035],[31.5273,46.3566],[31.522,46.3685],[31.5111,46.3715],[31.5095,46.373],[31.5096,46.3725],[31.5091,46.373],[31.5092,46.3725],[31.5091,46.3726],[31.5093,46.372],[31.5044,46.3734]]]]}},
{"type":"Feature","properties":{"entityId":"soviet-occupied","from":1943,"to":1944,"certainty":"estimated","source":"유럽 쪽은 Natural Earth 1:10m admin-1(v5.1.2) 현대 행정구역 조각을 그 시기 국경에 맞춰 묶고, 조각이 역사 경계와 다른 곳은 선을 그어 나눈 근사. 유럽 밖(시베리아·중앙아시아·극동)은 대략적인 추정. 운영자 검수 필요"},"geometry":{"type":"MultiPolygon","coordinates":[[[[20.9706,56.389],[20.971,56.3498],[20.9815,56.3105],[20.9827,56.2908],[20.971,56.2597],[20.9734,56.232],[20.9841,56.2104],[21.0288,56.1474],[21.0377,56.1263],[21.0474,56.0699],[21.0546,56.023],[21.0571,55.9488],[21.0447,55.9177],[21.0447,55.88],[21.05,55.88],[21.17,55.85],[21.33,55.72],[21.45,55.6],[21.6,55.46],[21.85,55.35],[22.05,55.25],[22.3,55.12],[22.5303,55.0739],[22.5411,55.0758],[22.562,55.0676],[22.575,55.065],[22.5712,55.064],[22.5916,55.0376],[22.6084,54.9924],[22.6335,54.9579],[22.7155,54.9514],[22.7521,54.9311],[22.7492,54.9099],[22.8089,54.8938],[22.8293,54.8727],[22.8484,54.8138],[22.8328,54.7787],[22.7648,54.7371],[22.7248,54.7234],[22.727,54.7053],[22.7051,54.6865],[22.7081,54.6356],[22.6817,54.5699],[22.6746,54.4923],[22.6804,54.4532],[22.707,54.4187],[22.7672,54.3563],[22.8113,54.3926],[22.8589,54.3992],[22.9188,54.3811],[22.9733,54.3754],[22.9897,54.3534],[23.0416,54.341],[23.0321,54.3096],[23.0501,54.2948],[23.1171,54.3035],[23.2354,54.2542],[23.316,54.2363],[23.336,54.2263],[23.3823,54.1879],[23.4325,54.1693],[23.4739,54.1126],[23.4962,54.0446],[23.4965,54.022],[23.4593,53.9923],[23.4629,53.9725],[23.4904,53.9506],[23.4856,53.9393],[23.4901,53.95],[22.5916,53.95],[22.6221,53.9248],[22.6185,53.8782],[22.5779,53.8322],[22.543,53.7739],[22.4856,53.7379],[22.207,53.6352],[22.1099,53.5699],[21.9373,53.4993],[21.8626,53.4927],[21.8016,53.4708],[21.7388,53.4576],[21.5957,53.4626],[21.523,53.4435],[21.5753,53.337],[21.6004,53.2221],[21.656,53.138],[21.6928,53.0953],[21.7459,53.0778],[21.8009,53.073],[21.8468,53.0516],[21.8305,53.0336],[21.8347,53.0082],[21.8602,52.9806],[21.9228,52.9528],[21.9511,52.8912],[21.9776,52.862],[22.0489,52.8396],[22.1248,52.8464],[22.1747,52.879],[22.2231,52.8569],[22.2073,52.8017],[22.2636,52.7671],[22.3199,52.7842],[22.3779,52.7941],[22.3935,52.7471],[22.3997,52.695],[22.4118,52.6597],[22.4119,52.6006],[22.5176,52.5294],[22.5114,52.4946],[22.5198,52.4733],[22.5448,52.4625],[22.5388,52.4294],[22.5627,52.4041],[22.6119,52.3873],[22.689,52.3854],[22.8446,52.3656],[22.9228,52.3723],[22.9751,52.3528],[22.9845,52.3301],[23.0058,52.337],[23.0521,52.3096],[23.039,52.2892],[23.087,52.2923],[23.1502,52.2816],[23.1761,52.2851],[23.1945,52.2715],[23.1897,52.2405],[23.2123,52.2317],[23.3958,52.1996],[23.3885,52.1842],[23.4367,52.1757],[23.4505,52.1859],[23.4847,52.1586],[23.5125,52.1244],[23.5794,52.1215],[23.6375,52.0845],[23.6764,51.9941],[23.6476,51.9741],[23.6222,51.9279],[23.6214,51.8956],[23.5946,51.8433],[23.6287,51.8098],[23.6175,51.7865],[23.5604,51.7545],[23.5466,51.7136],[23.5604,51.672],[23.5324,51.659],[23.5438,51.6438],[23.5399,51.6071],[23.574,51.5553],[23.5728,51.5397],[23.6062,51.5174],[23.6148,51.4972],[23.6628,51.4802],[23.6487,51.454],[23.6976,51.4044],[23.6789,51.3941],[23.6839,51.3703],[23.634,51.3393],[23.6352,51.3047],[23.6873,51.2924],[23.7427,51.2163],[23.7652,51.199],[23.816,51.1788],[23.8747,51.1361],[23.8545,51.1215],[23.9042,51.0627],[23.9117,51.0068],[23.9551,50.9836],[23.9793,50.9375],[24.0469,50.898],[24.1302,50.8689],[24.1309,50.8391],[24.0469,50.8291],[24.0205,50.8386],[23.9699,50.8252],[23.9576,50.808],[23.9743,50.7762],[24.0259,50.767],[24.0128,50.7433],[24.0269,50.728],[24.081,50.713],[24.0749,50.6902],[24.1082,50.6303],[24.1259,50.6418],[24.1647,50.6402],[24.2179,50.5892],[24.2479,50.5818],[24.3214,50.5926],[24.3459,50.6089],[24.3795,50.6009],[24.4054,50.5674],[24.4343,50.549],[24.5008,50.5455],[24.5306,50.5241],[24.5354,50.5001],[24.5132,50.4867],[24.4634,50.4788],[24.4567,50.4614],[24.4988,50.4397],[24.5042,50.4106],[24.5418,50.4109],[24.5526,50.4384],[24.591,50.417],[24.6342,50.4134],[24.6394,50.3974],[24.6882,50.3767],[24.7052,50.3496],[24.773,50.3405],[24.8484,50.3549],[24.9114,50.3481],[24.9319,50.3702],[25.0039,50.3457],[25.0489,50.3473],[25.0638,50.3345],[25.0635,50.2948],[25.1041,50.2794],[25.1529,50.2925],[25.1957,50.288],[25.2075,50.2501],[25.1677,50.22],[25.1929,50.1816],[25.1854,50.128],[25.2023,50.095],[25.2959,50.0413],[25.3676,50.0131],[25.3727,49.9965],[25.3898,49.9873],[25.6,49.92],[25.8,49.85],[26,49.75],[26.2,49.62],[26.2239,49.62],[26.2087,49.5669],[26.1643,49.544],[26.1484,49.5165],[26.1985,49.4153],[26.2291,49.397],[26.2391,49.342],[26.2344,49.3195],[26.2563,49.2936],[26.2417,49.2412],[26.2078,49.2273],[26.1992,49.1746],[26.2218,49.148],[26.2109,49.1191],[26.2284,49.0669],[26.1995,49.0413],[26.2212,49.0007],[26.1985,48.9845],[26.1891,48.953],[26.2023,48.935],[26.1954,48.9],[26.2229,48.8972],[26.2143,48.847],[26.2387,48.8188],[26.2642,48.8082],[26.2285,48.7792],[26.2513,48.7524],[26.2355,48.685],[26.2819,48.6616],[26.285,48.6412],[26.3163,48.6428],[26.3067,48.6056],[26.3689,48.5761],[26.354,48.5616],[26.3805,48.5171],[26.404,48.5341],[26.4706,48.5381],[26.5153,48.5149],[26.5399,48.4789],[26.5664,48.4574],[26.6219,48.4583],[26.607,48.4923],[26.6273,48.5084],[26.6436,48.4925],[26.709,48.4969],[26.6709,48.5267],[26.6144,48.5402],[26.6328,48.5624],[26.7218,48.5352],[26.7392,48.5577],[26.7161,48.5778],[26.7172,48.5948],[26.7406,48.5889],[26.7497,48.5616],[26.7728,48.551],[26.7876,48.5683],[26.7831,48.5935],[26.8081,48.6091],[26.8292,48.6018],[26.8226,48.5812],[26.8414,48.5463],[26.885,48.5435],[26.9247,48.5751],[26.9453,48.5814],[27.1134,48.5593],[27.147,48.5819],[27.1814,48.5819],[27.2141,48.5701],[27.2476,48.5704],[27.2618,48.5957],[27.2344,48.6185],[27.2947,48.6161],[27.3218,48.6009],[27.3704,48.6297],[27.4097,48.6207],[27.4382,48.6025],[27.4728,48.5472],[27.5038,48.4724],[27.5571,48.4744],[27.583,48.486],[27.6048,48.4841],[27.6069,48.4578],[27.627,48.4513],[27.7518,48.452],[27.7853,48.4416],[27.8499,48.4096],[27.8854,48.3784],[27.9264,48.3394],[28.0032,48.3259],[28.0559,48.3215],[28.0928,48.3021],[28.0983,48.2841],[28.0787,48.2449],[28.1311,48.2396],[28.1785,48.2589],[28.1999,48.2117],[28.2403,48.2116],[28.2945,48.2365],[28.3406,48.2401],[28.3682,48.2306],[28.3634,48.191],[28.3222,48.1632],[28.3174,48.1354],[28.3496,48.1297],[28.3886,48.1686],[28.4116,48.1707],[28.4369,48.1499],[28.419,48.1222],[28.4474,48.0828],[28.49,48.0655],[28.4998,48.1089],[28.5434,48.088],[28.5191,48.0523],[28.4813,48.0332],[28.4666,47.9972],[28.4965,47.9878],[28.5055,47.9587],[28.4962,47.9155],[28.478,47.8886],[28.504,47.8833],[28.5305,47.8929],[28.5692,47.8871],[28.637,47.8421],[28.6692,47.8581],[28.6568,47.8772],[28.6579,47.8987],[28.6832,47.9339],[28.7204,47.9527],[28.7556,47.9572],[28.7848,47.9828],[28.8128,47.9654],[28.8303,47.9411],[28.8289,47.9171],[28.861,47.8997],[28.9421,47.8832],[28.9803,47.8755],[29.0181,47.8535],[29.0175,47.8269],[28.9803,47.7656],[28.9756,47.7434],[28.9803,47.6874],[28.9954,47.6509],[28.9865,47.6223],[29.0157,47.5821],[29.0267,47.5295],[29.0486,47.5062],[29.0928,47.4874],[29.108,47.4694],[29.0901,47.4373],[29.0824,47.4064],[29.0514,47.3904],[29.0254,47.4009],[29.0084,47.3964],[28.9819,47.3633],[29.0217,47.3331],[29.0711,47.2958],[29.0737,47.2463],[29.1101,47.2336],[29.151,47.2448],[29.1633,47.2309],[29.1633,47.2308],[29.1789,47.1971],[29.1632,47.1919],[29.1444,47.1629],[29.1119,47.1499],[29.0691,47.1015],[29.0987,47.0921],[29.1243,47.0742],[29.1561,47.1136],[29.1892,47.1118],[29.1938,47.1238],[29.1789,47.1561],[29.2003,47.1631],[29.2267,47.1493],[29.2365,47.1624],[29.2922,47.1358],[29.295,47.122],[29.3293,47.1082],[29.3775,47.0708],[29.3806,47.0289],[29.3639,47.0332],[29.3724,47.0043],[29.3409,46.992],[29.295,46.9922],[29.3159,46.9587],[29.3496,46.937],[29.3757,46.9352],[29.4355,46.9575],[29.4617,46.951],[29.4706,46.9416],[29.4762,46.8897],[29.441,46.8593],[29.4504,46.8242],[29.4825,46.7929],[29.5029,46.7963],[29.5533,46.7671],[29.5701,46.7238],[29.6162,46.6986],[29.6516,46.6926],[29.6662,46.6763],[29.7276,46.6701],[29.7583,46.6588],[29.7754,46.6291],[29.7475,46.6176],[29.7276,46.5944],[29.7754,46.5807],[29.8232,46.6012],[29.8399,46.5825],[29.8673,46.5807],[29.8988,46.5531],[29.9161,46.5188],[29.9602,46.5059],[29.9706,46.4917],[29.9949,46.4985],[30.0217,46.4707],[30.0141,46.462],[30.0275,46.4536],[30.1123,46.4228],[30.1316,46.4228],[30.124,46.4155],[30.2,46.33],[30.4,46.22],[30.47,46.12],[30.4983,46.0881],[30.4942,46.0805],[30.5035,46.0976],[30.5123,46.1052],[30.6234,46.2298],[30.6535,46.2596],[30.6824,46.2995],[30.6865,46.32],[30.6851,46.3209],[30.7072,46.3484],[30.7145,46.348],[30.7725,46.3964],[30.7982,46.4464],[30.7821,46.4572],[30.7728,46.4773],[30.7967,46.5514],[30.8294,46.5584],[30.867,46.5558],[30.9062,46.5747],[30.9482,46.5837],[30.9592,46.5834],[30.9669,46.5877],[31.1098,46.6181],[31.1484,46.6236],[31.2563,46.6163],[31.3377,46.6013],[31.4286,46.6376],[31.4737,46.6796],[31.5118,46.6847],[31.481,46.6464],[31.493,46.6287],[31.5789,46.6173],[31.5972,46.6432],[31.6265,46.647],[31.6567,46.6416],[31.6871,46.639],[31.6963,46.5887],[32.2,46.55],[32.6,46.62],[32.9,46.65],[33.4,46.8],[34.7,47.45],[34.4,47.6],[34.15,47.75],[33.6,47.95],[33,48.15],[32.6,48.45],[32.5,48.6],[32,49],[31.85,49.35],[31.6,49.65],[31.2,49.75],[30.7,49.75],[30.3,49.9],[29.3,49.85],[28.75,49.95],[28.5,50.1],[28.5,50.4],[28.4,50.7],[28.5,51],[28.65,51.35],[28.7283,51.4022],[28.7311,51.4041],[28.95,51.55],[28.976,51.5723],[29.3,51.85],[29.7,52.15],[30.05,52.5],[30.25,53],[30.55,53.25],[30.95,53.45],[31.05,53.8],[31.05,54.25],[30.75,54.65],[30.5,55],[30.35,55.25],[29.95,55.5],[29.8,55.8],[29.55,56],[29.7,56.25],[30.1,56.4],[30.35,56.45],[30.9,56.8],[31.3,57.15],[31.25,57.35],[31.4,57.7],[31.5,58],[31.6,58.2],[31.4,58.45],[31.32,58.62],[31.5,58.85],[31.8,59.3],[31.95,59.48],[31.6,59.62],[31.4,59.8],[31.35,59.8],[31.1,59.82],[30.85,59.75],[30.55,59.72],[30.32,59.78],[30.17,59.86],[30.12,59.95],[29.86,59.95],[29.83,59.84],[29.6,59.7],[29.2,59.66],[28.95,59.82],[28.9189,59.9318],[28.6761,59.8137],[28.5819,59.8341],[28.5529,59.8536],[28.5173,59.8623],[28.4761,59.8518],[28.4275,59.8134],[28.4186,59.7896],[28.4212,59.7353],[28.4206,59.7335],[28.334,59.6934],[28.2119,59.7246],[28.1988,59.735],[28.1852,59.7586],[28.1239,59.7923],[28.0869,59.7994],[28.007,59.7582],[27.9934,59.7033],[28.0159,59.6597],[28.05,59.6266],[28.0514,59.619],[28.0638,59.5543],[28.0406,59.5223],[28.0206,59.4948],[28.0048,59.4871],[27.9825,59.4763],[27.9811,59.4756],[27.9141,59.4737],[27.4383,59.4605],[27.0716,59.4503],[26.9735,59.4503],[26.8511,59.4728],[26.804,59.4897],[26.7809,59.5026],[26.7023,59.5414],[26.6263,59.5581],[26.5847,59.56],[26.5691,59.5544],[26.4623,59.5544],[26.4095,59.5607],[26.4017,59.5631],[26.3401,59.5705],[26.28,59.5873],[26.1931,59.5865],[26.0781,59.6002],[26.0745,59.6043],[26.0018,59.6326],[25.9644,59.6214],[25.9646,59.6138],[25.8994,59.6216],[25.8831,59.6313],[25.8795,59.6239],[25.8303,59.6298],[25.7927,59.6343],[25.7923,59.6343],[25.781,59.6339],[25.7805,59.6357],[25.7254,59.6658],[25.6947,59.6709],[25.6707,59.6555],[25.6907,59.6494],[25.6852,59.6301],[25.6162,59.6273],[25.5246,59.6377],[25.4849,59.6698],[25.4819,59.6112],[25.4971,59.5709],[25.5006,59.569],[25.1701,59.5308],[25.1455,59.5391],[25.1079,59.529],[25.1096,59.5238],[25.089,59.5214],[24.8936,59.5214],[24.8416,59.5544],[24.8035,59.5705],[24.7726,59.56],[24.7835,59.5198],[24.8002,59.5041],[24.706,59.483],[24.6975,59.491],[24.6663,59.4921],[24.6586,59.4724],[24.6569,59.472],[24.6218,59.4706],[24.6254,59.4678],[24.6042,59.4654],[24.5668,59.4572],[24.5482,59.463],[24.5385,59.4593],[24.4483,59.467],[24.4421,59.4699],[24.3997,59.4788],[24.3338,59.4706],[24.3193,59.4436],[24.2513,59.4114],[24.1829,59.4088],[24.1631,59.4023],[24.1937,59.3841],[24.1758,59.3756],[24.1241,59.3741],[24.0806,59.3955],[24.0482,59.3951],[24.0222,59.3781],[24.0282,59.3577],[24.0485,59.3434],[23.7775,59.2839],[23.7568,59.2836],[23.7441,59.2765],[23.6608,59.2582],[23.6419,59.2574],[23.6281,59.251],[23.5308,59.2297],[23.5256,59.2304],[23.5094,59.225],[23.3406,59.1879],[23.3407,59.1875],[23.3406,59.1875],[23.3645,59.0285],[23.364,59.029],[23.3442,59.0393],[23.278,59.0324],[23.208,59.0441],[23.1314,59.0407],[23.1141,59.0218],[23.1483,58.974],[23.2108,58.973],[23.2234,58.984],[23.2786,58.9707],[23.3401,58.984],[23.3724,58.976],[23.427,58.612],[23.4983,58.572],[23.5164,58.5546],[23.5225,58.5585],[23.5629,58.5358],[23.6034,58.5131],[23.6811,58.4695],[23.6774,58.4352],[23.7189,58.3996],[23.741,58.3431],[23.7771,58.355],[23.8057,58.3465],[23.8187,58.35],[23.8502,58.3427],[23.8547,58.3397],[23.8709,58.3379],[23.9467,58.3205],[24.0606,58.2566],[24.0608,58.2567],[24.061,58.2566],[24.0727,58.2606],[24.0835,58.2509],[24.1117,58.241],[24.1515,58.2731],[24.1653,58.2759],[24.2108,58.2714],[24.2559,58.2895],[24.2869,58.3185],[24.2898,58.3304],[24.2974,58.3382],[24.4176,58.3798],[24.4266,58.3777],[24.339,57.9282],[24.3338,57.9213],[24.331,57.911],[24.3306,57.9104],[24.3301,57.9079],[24.3244,57.8868],[24.3062,57.8682],[24.2888,57.8453],[24.2888,57.8089],[24.2996,57.7438],[24.3001,57.7431],[24.2169,57.4086],[24.1857,57.2832],[24.1753,57.2413],[24.1582,57.1724],[24.1541,57.156],[24.1457,57.1221],[24.1422,57.1082],[24.1116,57.0939],[24.0692,57.0741],[24.0357,57.069],[24.0079,57.0454],[23.9586,57.0223],[23.9494,57.0221],[23.9201,57.0213],[23.8908,57.0206],[23.6564,57.0146],[23.5978,57.0132],[23.5685,57.0124],[23.5393,57.0117],[23.5208,57.0256],[23.5086,57.0312],[23.4432,57.0381],[23.2974,57.0859],[23.2927,57.0889],[23.2859,57.091],[23.2325,57.1739],[23.2224,57.207],[23.2011,57.2224],[23.1976,57.228],[23.1824,57.2777],[23.1602,57.3186],[23.138,57.3432],[23.1302,57.3708],[23.1175,57.3739],[23.0833,57.3782],[23.0408,57.3916],[23.0386,57.3931],[22.9093,57.4607],[22.8789,57.4813],[22.7905,57.5228],[22.7445,57.5468],[22.6888,57.5992],[22.6553,57.6306],[22.6213,57.6626],[22.5915,57.6906],[22.6003,57.7438],[22.6104,57.7546],[22.5858,57.7597],[22.5491,57.7506],[22.5302,57.7483],[22.5238,57.7543],[22.5235,57.7542],[22.5234,57.7543],[22.4946,57.7438],[22.4837,57.7425],[22.2098,57.6621],[21.9438,57.5979],[21.8792,57.5901],[21.7717,57.5861],[21.7297,57.5738],[21.6992,57.5553],[21.6251,57.4768],[21.5666,57.4227],[21.5178,57.3876],[21.5115,57.3787],[21.4978,57.3589],[21.4615,57.3253],[21.4495,57.32],[21.4214,57.2887],[21.4126,57.2501],[21.4143,57.1996],[21.2942,57.0455],[21.2871,57.0364],[21.2588,57.0002],[21.2588,57.0001],[21.2305,56.9639],[21.174,56.8914],[21.1567,56.8856],[21.1472,56.8764],[21.0652,56.8463],[21.0527,56.8289],[21.0636,56.7812],[21.033,56.6362],[21.0329,56.6349],[21.0206,56.615],[21.0105,56.5987],[21.0003,56.5577],[20.9922,56.5489],[20.9963,56.5378],[21.0031,56.53],[21.0277,56.5248],[21.0268,56.5063],[21.0243,56.5105],[21.0064,56.52],[21.0005,56.5106],[21.0033,56.4926],[21.0106,56.4757],[21.0055,56.4655],[21.0054,56.4459],[20.9925,56.4179],[20.9706,56.389]]],[[[21.8324,58.511],[21.8733,58.4856],[21.9833,58.3858],[21.9654,58.3496],[21.9348,58.3242],[21.8945,58.3465],[21.8733,58.3416],[21.9005,58.3081],[21.8898,58.3045],[21.858,58.3014],[21.8433,58.3022],[21.8678,58.2646],[21.9289,58.2451],[21.9366,58.2451],[22.0317,58.2145],[22.053,58.1866],[22.0723,58.1758],[22.1046,58.1729],[22.1058,58.1722],[22.176,58.1575],[22.1871,58.1535],[22.1526,58.1153],[22.1085,58.0834],[22.0962,58.0864],[22.0213,58.0212],[22.0203,58.0196],[21.987,57.9955],[21.983,57.984],[21.9634,57.984],[21.9773,57.9675],[21.9762,57.9642],[21.9763,57.9641],[21.9762,57.9638],[21.9918,57.9401],[21.9901,57.9356],[22.0169,57.9145],[22.0484,57.9151],[22.19,57.9838],[22.203,57.994],[22.2004,58.0207],[22.2251,58.0484],[22.2293,58.0522],[22.2568,58.0932],[22.2699,58.137],[22.2711,58.1616],[22.3726,58.2173],[22.4114,58.2232],[22.4216,58.2216],[22.4389,58.2273],[22.4936,58.2356],[22.4972,58.223],[22.5131,58.2361],[22.6623,58.2327],[22.6692,58.2215],[22.7232,58.2254],[22.7567,58.2423],[22.744,58.2465],[22.7578,58.2607],[22.7899,58.2735],[22.8112,58.2734],[22.854,58.2987],[22.9027,58.3118],[22.9522,58.3477],[22.981,58.3631],[23.0107,58.3679],[23.022,58.3632],[23.0868,58.395],[23.0863,58.4015],[23.1286,58.436],[23.2275,58.4431],[23.2349,58.4399],[23.278,58.4365],[23.2599,58.4454],[23.3075,58.4488],[23.325,58.4423],[23.3333,58.4564],[23.2886,58.4882],[23.2559,58.4976],[23.1157,58.5498],[23.0911,58.571],[22.9898,58.6018],[22.8997,58.6203],[22.8709,58.6166],[22.819,58.6222],[22.8186,58.6222],[22.8164,58.6216],[22.8114,58.623],[22.7975,58.6165],[22.7538,58.6048],[22.6916,58.5982],[22.6827,58.6002],[22.6174,58.6222],[22.5969,58.6237],[22.5832,58.6345],[22.5503,58.6296],[22.5451,58.6274],[22.545,58.6274],[22.473,58.6048],[22.3712,58.5876],[22.322,58.5848],[22.2883,58.5693],[22.2769,58.5184],[22.2679,58.5077],[22.226,58.5172],[22.2129,58.5464],[22.1878,58.5429],[22.1589,58.5136],[22.1136,58.498],[22.1108,58.4915],[22.0808,58.4782],[22.0018,58.5111],[21.9979,58.5113],[21.9956,58.5125],[21.9285,58.5184],[21.9258,58.5146],[21.8744,58.5008],[21.8324,58.511]]],[[[22.0447,58.9362],[22.0625,58.9258],[22.195,58.888],[22.2918,58.8952],[22.3081,58.8959],[22.4071,58.8646],[22.4139,58.8598],[22.4417,58.8153],[22.4426,58.803],[22.4652,58.7666],[22.48,58.7531],[22.475,58.7238],[22.4631,58.7165],[22.5017,58.6948],[22.5557,58.687],[22.6112,58.6905],[22.655,58.7028],[22.681,58.7241],[22.6899,58.7392],[22.7671,58.8198],[22.769,58.8206],[22.7911,58.7993],[22.7783,58.7922],[22.7901,58.781],[22.8454,58.7765],[22.8867,58.7905],[22.8845,58.8038],[22.9234,58.8266],[23.0051,58.8332],[23.0191,58.8291],[23.0405,58.8408],[23.0151,58.8918],[22.9843,58.9108],[22.981,58.9208],[22.9544,58.9471],[22.9496,58.9709],[22.9341,58.984],[22.9112,58.9898],[22.909,58.992],[22.8966,58.9935],[22.8372,59.0086],[22.7876,59.0069],[22.7254,59.0145],[22.711,59.0319],[22.7064,59.0598],[22.7141,59.0696],[22.7042,59.0728],[22.7038,59.0753],[22.6797,59.0807],[22.6667,59.0849],[22.6585,59.0854],[22.6498,59.0874],[22.6494,59.0874],[22.6405,59.0866],[22.5977,59.0895],[22.5783,59.0784],[22.5776,59.0751],[22.5054,59.0267],[22.4992,59.0192],[22.4876,59.0164],[22.4879,59.0056],[22.4703,58.9844],[22.4546,58.9872],[22.4612,58.9745],[22.1574,58.9512],[22.0942,58.956],[22.0555,58.9527],[22.0447,58.9362]]],[[[23.0593,58.6035],[23.0833,58.5905],[23.1346,58.5799],[23.2238,58.5355],[23.2564,58.542],[23.2614,58.5402],[23.2618,58.5402],[23.2926,58.5441],[23.3622,58.5325],[23.4002,58.5554],[23.3816,58.5799],[23.3475,58.6072],[23.3491,58.6351],[23.3303,58.6531],[23.2883,58.6665],[23.1978,58.6806],[23.1671,58.6773],[23.1646,58.6777],[23.1642,58.6777],[23.1611,58.6766],[23.1546,58.6759],[23.1501,58.6727],[23.1102,58.6586],[23.0812,58.6296],[23.0755,58.6298],[23.066,58.6144],[23.0634,58.6118],[23.0637,58.6117],[23.0634,58.6114],[23.064,58.6112],[23.0593,58.6035]]],[[[31.5083,46.5876],[31.5106,46.5842],[31.5127,46.5851],[31.5083,46.5876]]],[[[32.4523,45.3271],[33.036,45.1709],[33.3278,45.0929],[33.4737,45.0538],[33.5465,45.0343],[33.5403,45.021],[33.4815,44.8954],[33.4584,44.8462],[33.4353,44.7969],[33.3892,44.6983],[33.3271,44.5658],[33.3273,44.5657],[33.3271,44.5654],[33.5013,44.5011],[33.5176,44.4905],[33.5272,44.4915],[33.6035,44.4634],[33.6298,44.448],[33.6454,44.4251],[33.73,44.398],[33.7869,44.3956],[33.8815,44.3606],[33.8817,44.3607],[33.8819,44.3606],[33.9354,44.3834],[33.9579,44.383],[34.0658,44.4196],[34.1026,44.4251],[34.1475,44.4499],[34.1668,44.4735],[34.2082,44.4967],[34.2298,44.4999],[34.2452,44.5156],[34.3122,44.5442],[34.3228,44.5435],[34.3361,44.5544],[34.9523,44.8172],[35.0284,44.8093],[35.0376,44.7988],[35.0808,44.7938],[35.1084,44.8249],[35.1299,44.8606],[35.1564,44.8969],[35.1813,44.907],[35.2151,44.9144],[35.2244,44.9245],[35.276,44.9454],[35.344,44.9562],[35.3672,44.9433],[35.3653,44.9596],[35.8133,45.031],[35.8278,44.9992],[35.848,44.9924],[35.9168,45.0014],[35.9934,44.998],[36.0235,45.026],[36.0563,45.0306],[36.1194,45.0287],[36.136,45.0214],[36.2246,45.0075],[36.2443,45.011],[36.2541,45.0314],[36.3196,45.0472],[36.3678,45.0488],[36.4401,45.0675],[36.4553,45.0916],[36.4171,45.1263],[36.4272,45.1539],[36.4524,45.232],[36.5136,45.3032],[36.5436,45.3474],[36.5452,45.3474],[36.5749,45.3361],[36.58,45.3365],[36.58,45.4262],[36.533,45.4089],[36.5088,45.4284],[36.5316,45.4693],[36.5314,45.4693],[36.5316,45.4697],[36.5312,45.4697],[36.3053,45.4566],[36.3074,45.4609],[36.284,45.4766],[36.2525,45.4615],[36.1375,45.4621],[36.1003,45.4447],[35.8478,45.43],[35.8577,45.4694],[35.8171,45.4641],[35.7991,45.4272],[35.5092,45.4104],[35.3052,45.5105],[35.1136,45.6046],[35.1054,45.6134],[35.0232,45.7011],[35.0135,45.7159],[35.0131,45.7205],[35.0106,45.7473],[35.0081,45.774],[35.0032,45.8275],[34.9987,45.8757],[34.5,46.15],[33.6,46.15],[33.3038,46.0759],[33.394,46.0044],[33.4034,45.9969],[33.449,45.9608],[33.4945,45.9247],[33.5018,45.9189],[33.5476,45.8825],[33.4945,45.8532],[33.4911,45.8513],[33.4822,45.8545],[33.41,45.8266],[33.3864,45.8067],[33.2803,45.7654],[33.217,45.7581],[33.1692,45.7844],[33.1592,45.7685],[33.181,45.7552],[33.1798,45.7539],[33.1435,45.7497],[33.0247,45.6911],[32.9368,45.6625],[32.8682,45.6301],[32.8361,45.5981],[32.8267,45.5935],[32.7986,45.5769],[32.7629,45.5644],[32.7578,45.5646],[32.7509,45.5602],[32.6323,45.5188],[32.6263,45.5124],[32.5252,45.4582],[32.4951,45.4355],[32.4816,45.4089],[32.4971,45.3751],[32.4523,45.3275],[32.4526,45.3274],[32.4523,45.3271]]],[[[36.5773,45.1942],[36.58,45.1892],[36.58,45.1958],[36.5773,45.1942]]]]}},
{"type":"Feature","properties":{"entityId":"soviet-occupied","from":1944,"to":1945,"certainty":"estimated","source":"유럽 쪽은 Natural Earth 1:10m admin-1(v5.1.2) 현대 행정구역 조각을 그 시기 국경에 맞춰 묶고, 조각이 역사 경계와 다른 곳은 선을 그어 나눈 근사. 유럽 밖(시베리아·중앙아시아·극동)은 대략적인 추정. 운영자 검수 필요"},"geometry":{"type":"Polygon","coordinates":[[[21.9653,56.3837],[21.7365,56.3237],[21.6845,56.3101],[21.596,56.3079],[21.5589,56.2973],[21.4855,56.2658],[21.4193,56.2374],[21.3583,56.2332],[21.3276,56.2244],[21.2904,56.2069],[21.2549,56.1852],[21.2296,56.1632],[21.2126,56.131],[21.2054,56.1034],[21.1904,56.0845],[21.1502,56.0782],[21.0914,56.0779],[21.0534,56.0726],[21.0427,56.1146],[21.0377,56.1263],[21.0288,56.1474],[20.9841,56.2104],[20.9734,56.232],[20.971,56.2597],[20.9827,56.2908],[20.9815,56.3105],[20.971,56.3498],[20.9706,56.389],[20.9925,56.4179],[21.0054,56.4459],[21.0055,56.4655],[21.0106,56.4757],[21.0033,56.4926],[21.0005,56.5106],[21.0064,56.52],[21.0243,56.5105],[21.0268,56.5063],[21.0277,56.5248],[21.0031,56.53],[20.9963,56.5378],[20.9922,56.5489],[21.0003,56.5577],[21.0105,56.5987],[21.0206,56.615],[21.0329,56.6349],[21.033,56.6362],[21.0636,56.7812],[21.0527,56.8289],[21.0652,56.8463],[21.1472,56.8764],[21.1567,56.8856],[21.174,56.8914],[21.2305,56.9639],[21.2588,57.0001],[21.2588,57.0002],[21.2871,57.0364],[21.2942,57.0455],[21.4143,57.1996],[21.4126,57.2501],[21.4214,57.2887],[21.4495,57.32],[21.4615,57.3253],[21.4978,57.3589],[21.5115,57.3787],[21.5178,57.3876],[21.5666,57.4227],[21.6251,57.4768],[21.6992,57.5553],[21.7297,57.5738],[21.7717,57.5861],[21.8792,57.5901],[21.9438,57.5979],[22.2098,57.6621],[22.4837,57.7425],[22.4946,57.7438],[22.5234,57.7543],[22.5235,57.7542],[22.5238,57.7543],[22.5302,57.7483],[22.5491,57.7506],[22.5858,57.7597],[22.6104,57.7546],[22.6003,57.7438],[22.5915,57.6906],[22.6213,57.6626],[22.6553,57.6306],[22.6888,57.5992],[22.7445,57.5468],[22.7905,57.5228],[22.8789,57.4813],[22.9093,57.4607],[23.0386,57.3931],[23.0408,57.3916],[23.0833,57.3782],[23.1175,57.3739],[23.1302,57.3708],[23.138,57.3432],[23.1602,57.3186],[23.1824,57.2777],[23.1976,57.228],[23.2011,57.2224],[23.2224,57.207],[23.2325,57.1739],[23.2859,57.091],[23.2927,57.0889],[23.2974,57.0859],[23.4432,57.0381],[23.5086,57.0312],[23.5208,57.0256],[23.5393,57.0117],[23.5685,57.0124],[23.5978,57.0132],[23.5978,56.9769],[23.5851,56.9791],[23.5786,56.9821],[23.5759,56.9805],[23.4998,56.9614],[23.4734,56.9435],[23.4772,56.9365],[23.492,56.9346],[23.5068,56.8946],[23.462,56.8842],[23.4866,56.8159],[23.4517,56.7994],[23.4088,56.7924],[23.375,56.8008],[23.322,56.7821],[23.3252,56.7495],[23.2996,56.7154],[23.2158,56.7111],[23.1717,56.6924],[23.1233,56.6988],[23.0993,56.6916],[23.0839,56.6906],[23.0287,56.6949],[22.9862,56.7108],[22.9034,56.7116],[22.8752,56.709],[22.826,56.6981],[22.8001,56.696],[22.8053,56.6784],[22.8287,56.6716],[22.8593,56.6442],[22.8408,56.6172],[22.8172,56.6073],[22.7809,56.6061],[22.7787,56.5878],[22.7981,56.5683],[22.7551,56.562],[22.7121,56.5654],[22.7014,56.4933],[22.7413,56.4754],[22.7482,56.4557],[22.7266,56.4245],[22.786,56.4184],[22.8218,56.4027],[22.8596,56.3971],[22.8229,56.3829],[22.6814,56.3503],[22.6491,56.3531],[22.5782,56.387],[22.5117,56.396],[22.2149,56.3904],[22.1391,56.4157],[22.0941,56.4174],[21.9832,56.3884],[21.9653,56.3837]]]}}
]}
