{"type":"FeatureCollection","features":[
{"type":"Feature","properties":{"entityId":"soviet-union","from":1918,"to":1946,"certainty":"estimated","source":"유럽 쪽은 Natural Earth 1:10m admin-1(v5.1.2) 현대 행정구역 조각을 그 시기 국경에 맞춰 묶고, 조각이 역사 경계와 다른 곳은 선을 그어 나눈 근사. 유럽 밖(시베리아·중앙아시아·극동)은 대략적인 추정. 운영자 검수 필요"},"geometry":{"type":"MultiPolygon","coordinates":[[[[26.1484,49.5165],[26.1985,49.4153],[26.2291,49.397],[26.2391,49.342],[26.2344,49.3195],[26.2563,49.2936],[26.2417,49.2412],[26.2078,49.2273],[26.1992,49.1746],[26.2218,49.148],[26.2109,49.1191],[26.2284,49.0669],[26.1995,49.0413],[26.2212,49.0007],[26.1985,48.9845],[26.1891,48.953],[26.2023,48.935],[26.1954,48.9],[26.2229,48.8972],[26.2143,48.847],[26.2387,48.8188],[26.2642,48.8082],[26.2285,48.7792],[26.2513,48.7524],[26.2355,48.685],[26.2819,48.6616],[26.285,48.6412],[26.3163,48.6428],[26.3067,48.6056],[26.3689,48.5761],[26.354,48.5616],[26.3805,48.5171],[26.404,48.5341],[26.4706,48.5381],[26.5153,48.5149],[26.5399,48.4789],[26.5664,48.4574],[26.6219,48.4583],[26.607,48.4923],[26.6273,48.5084],[26.6436,48.4925],[26.709,48.4969],[26.6709,48.5267],[26.6144,48.5402],[26.6328,48.5624],[26.7218,48.5352],[26.7392,48.5577],[26.7161,48.5778],[26.7172,48.5948],[26.7406,48.5889],[26.7497,48.5616],[26.7728,48.551],[26.7876,48.5683],[26.7831,48.5935],[26.8081,48.6091],[26.8292,48.6018],[26.8226,48.5812],[26.8414,48.5463],[26.885,48.5435],[26.9247,48.5751],[26.9453,48.5814],[27.1134,48.5593],[27.147,48.5819],[27.1814,48.5819],[27.2141,48.5701],[27.2476,48.5704],[27.2618,48.5957],[27.2344,48.6185],[27.2947,48.6161],[27.3218,48.6009],[27.3704,48.6297],[27.4097,48.6207],[27.4382,48.6025],[27.4728,48.5472],[27.5038,48.4724],[27.5571,48.4744],[27.583,48.486],[27.6048,48.4841],[27.6069,48.4578],[27.627,48.4513],[27.7518,48.452],[27.7853,48.4416],[27.8499,48.4096],[27.8854,48.3784],[27.9264,48.3394],[28.0032,48.3259],[28.0559,48.3215],[28.0928,48.3021],[28.0983,48.2841],[28.0787,48.2449],[28.1311,48.2396],[28.1785,48.2589],[28.1999,48.2117],[28.2403,48.2116],[28.2945,48.2365],[28.3406,48.2401],[28.3682,48.2306],[28.3634,48.191],[28.3222,48.1632],[28.3174,48.1354],[28.3496,48.1297],[28.3886,48.1686],[28.4116,48.1707],[28.4369,48.1499],[28.419,48.1222],[28.4474,48.0828],[28.49,48.0655],[28.4998,48.1089],[28.5434,48.088],[28.5191,48.0523],[28.4813,48.0332],[28.4666,47.9972],[28.4965,47.9878],[28.5055,47.9587],[28.4962,47.9155],[28.478,47.8886],[28.504,47.8833],[28.5305,47.8929],[28.5692,47.8871],[28.637,47.8421],[28.6692,47.8581],[28.6568,47.8772],[28.6579,47.8987],[28.6832,47.9339],[28.7204,47.9527],[28.7556,47.9572],[28.7848,47.9828],[28.8128,47.9654],[28.8303,47.9411],[28.8289,47.9171],[28.861,47.8997],[28.9421,47.8832],[28.9803,47.8755],[29.0181,47.8535],[29.0175,47.8269],[28.9803,47.7656],[28.9756,47.7434],[28.9803,47.6874],[28.9954,47.6509],[28.9865,47.6223],[29.0157,47.5821],[29.0267,47.5295],[29.0486,47.5062],[29.0928,47.4874],[29.108,47.4694],[29.0901,47.4373],[29.0824,47.4064],[29.0514,47.3904],[29.0254,47.4009],[29.0084,47.3964],[28.9819,47.3633],[29.0217,47.3331],[29.0711,47.2958],[29.0737,47.2463],[29.1101,47.2336],[29.151,47.2448],[29.1633,47.2309],[29.1633,47.2308],[29.1789,47.1971],[29.1632,47.1919],[29.1444,47.1629],[29.1119,47.1499],[29.0691,47.1015],[29.0987,47.0921],[29.1243,47.0742],[29.1561,47.1136],[29.1892,47.1118],[29.1938,47.1238],[29.1789,47.1561],[29.2003,47.1631],[29.2267,47.1493],[29.2365,47.1624],[29.2922,47.1358],[29.295,47.122],[29.3293,47.1082],[29.3775,47.0708],[29.3806,47.0289],[29.3639,47.0332],[29.3724,47.0043],[29.3409,46.992],[29.295,46.9922],[29.3159,46.9587],[29.3496,46.937],[29.3757,46.9352],[29.4355,46.9575],[29.4617,46.951],[29.4706,46.9416],[29.4762,46.8897],[29.441,46.8593],[29.4504,46.8242],[29.4825,46.7929],[29.5029,46.7963],[29.5533,46.7671],[29.5701,46.7238],[29.6162,46.6986],[29.6516,46.6926],[29.6662,46.6763],[29.7276,46.6701],[29.7583,46.6588],[29.7754,46.6291],[29.7475,46.6176],[29.7276,46.5944],[29.7754,46.5807],[29.8232,46.6012],[29.8399,46.5825],[29.8673,46.5807],[29.8988,46.5531],[29.9,46.5532],[29.9,46.5507],[29.9161,46.5188],[29.9602,46.5059],[29.9706,46.4917],[29.9949,46.4985],[30.0217,46.4707],[30.0141,46.462],[30.0275,46.4536],[30.1123,46.4228],[30.1316,46.4228],[30.124,46.4155],[30.2,46.33],[30.4,46.22],[30.47,46.12],[30.4983,46.0881],[30.5035,46.0976],[30.4942,46.0805],[30.4302,46.0375],[30.3025,45.9338],[30.2614,45.8955],[30.2049,45.8559],[30.2,45.8532],[30.2,45.5],[30.5,45.5],[33,44],[38,43.8],[41.5348,41.5417],[41.5229,41.53],[41.5325,41.53],[41.5208,41.5142],[41.6273,41.4805],[41.7026,41.489],[41.7185,41.4596],[41.761,41.4535],[41.813,41.4218],[41.8627,41.4518],[41.894,41.4855],[41.948,41.5056],[42.0196,41.4851],[42.0835,41.5001],[42.1118,41.4935],[42.1584,41.4999],[42.1893,41.4817],[42.2625,41.4823],[42.4379,41.4309],[42.451,41.4314],[42.4838,41.4422],[42.5455,41.5096],[42.555,41.5503],[42.5866,41.5791],[42.661,41.5883],[42.8009,41.5792],[42.8199,41.5723],[42.8027,41.5341],[42.7665,41.5043],[42.83,41.4725],[42.868,41.5002],[42.889,41.47],[42.9261,41.4591],[42.9577,41.437],[43.0021,41.3827],[43.0756,41.3449],[43.1239,41.3129],[43.1854,41.2938],[43.1572,41.2697],[43.1031,41.2488],[43.172,41.2423],[43.1922,41.225],[43.2162,41.1805],[43.2306,41.1726],[43.3226,41.1921],[43.3833,41.1872],[43.4376,41.1562],[43.4518,41.1326],[43.4404,41.1066],[43.4363,41.0832],[43.4605,41.0229],[43.4796,41.0091],[43.5224,41.0045],[43.5654,40.9881],[43.6049,40.9633],[43.6477,40.9139],[43.6595,40.852],[43.7113,40.7816],[43.7241,40.7464],[43.7294,40.6771],[43.6995,40.6346],[43.7072,40.6119],[43.6648,40.5741],[43.6525,40.5294],[43.5937,40.509],[43.5595,40.4779],[43.5636,40.4647],[43.6253,40.4202],[43.6245,40.4111],[43.5942,40.3454],[43.676,40.266],[43.6903,40.2404],[43.6731,40.2277],[43.7214,40.1694],[43.7116,40.1565],[43.6525,40.139],[43.6654,40.1102],[43.7112,40.0907],[43.8028,40.0707],[43.9121,40.0243],[44.0324,40.0086],[44.1045,40.036],[44.1355,40.0223],[44.2553,40.0434],[44.3256,40.0347],[44.3809,40.0098],[44.4643,39.9723],[44.5222,39.9335],[44.5591,39.8969],[44.5675,39.873],[44.5911,39.8578],[44.5982,39.831],[44.6115,39.8373],[44.6477,39.8051],[44.6824,39.7972],[44.7591,39.7231],[44.7746,39.7028],[44.7843,39.6902],[44.7957,39.6524],[44.807,39.6399],[44.824,39.6305],[44.8723,39.6251],[44.8984,39.5844],[44.9284,39.4882],[44.9616,39.4538],[44.957,39.4345],[45.0064,39.418],[45.0512,39.3871],[45.0686,39.3642],[45.088,39.3507],[45.1144,39.3094],[45.1358,39.2785],[45.1527,39.2135],[45.1789,39.2198],[45.2831,39.1931],[45.3139,39.1942],[45.3111,39.1763],[45.3482,39.1639],[45.3453,39.1384],[45.3793,39.1112],[45.3964,39.0733],[45.4345,39.0528],[45.4271,39.0149],[45.4945,38.9819],[45.5356,38.9685],[45.6278,38.9555],[45.7169,38.9548],[45.7681,38.9391],[45.7911,38.9321],[46.0018,38.8975],[46.068,38.8741],[46.1359,38.8637],[46.2025,38.8705],[46.2719,38.9066],[46.3045,38.9163],[46.3919,38.9224],[46.514,38.8822],[46.5537,38.8898],[46.5854,38.9077],[46.6107,38.934],[46.6388,38.9795],[46.6704,39.0049],[46.7284,39.028],[46.7448,39.0403],[46.7738,39.0854],[46.8117,39.1085],[46.8374,39.1432],[46.8664,39.1654],[46.8987,39.1717],[46.9416,39.1589],[47.0136,39.187],[47.0361,39.207],[47.0529,39.2449],[47.1022,39.3084],[47.1501,39.3311],[47.2613,39.3664],[47.2914,39.3796],[47.3742,39.4556],[47.4488,39.4947],[47.5541,39.522],[47.625,39.5714],[47.7453,39.6238],[47.7882,39.6577],[47.8469,39.6853],[47.9352,39.6865],[47.9577,39.7073],[47.9907,39.6943],[48.052,39.6501],[48.2201,39.494],[48.2886,39.445],[48.3389,39.3789],[48.3284,39.3763],[48.2499,39.3424],[48.1872,39.3326],[48.1246,39.2976],[48.1062,39.2692],[48.1043,39.2348],[48.1422,39.1812],[48.1991,39.1382],[48.2713,39.1083],[48.3068,39.0454],[48.3016,39.0179],[48.2844,38.9938],[48.2432,38.9739],[48.0585,38.9484],[48.0524,38.9279],[48,38.9026],[47.9907,38.8912],[47.9931,38.8501],[48.013,38.8216],[48.078,38.7809],[48.2104,38.7298],[48.2256,38.7132],[48.228,38.6622],[48.2765,38.6318],[48.3103,38.6002],[48.3411,38.5996],[48.3918,38.6181],[48.4153,38.6181],[48.4337,38.57],[48.5356,38.4692],[48.5759,38.4204],[48.613,38.3956],[48.6591,38.3926],[48.7103,38.4071],[48.7553,38.4352],[48.7777,38.4448],[48.8097,38.4446],[48.8743,38.4341],[48.8738,38.4476],[48.8768,38.4476],[48.875,38.4844],[48.8712,38.558],[48.8694,38.5948],[48.8675,38.6317],[48.8634,38.7479],[48.8631,38.7567],[48.8609,38.761],[48.8595,38.7877],[48.8582,38.8144],[48.8581,38.8158],[48.8859,38.8335],[48.9398,38.8678],[48.9657,38.8843],[49.0997,38.9695],[49.1188,38.9753],[49.1939,39.0163],[49.2033,39.0341],[49.2,39.0279],[49.2,38.3353],[54,37.3],[57,38],[61,36.6],[62.5,35.6],[67.5,37.2],[71.5,37],[73.5,39.5],[75,40.3],[80.2,42.2],[80.3,45.3],[83,47.2],[85,47],[87.5,49.2],[90,50],[95,51],[95.5385,51.0385],[98,51.9],[100.0282,51.3592],[102,51.5],[108,50.5],[114,50.2],[116.7,49.85],[119.5,50.3],[121,53.3],[125.5,52.8],[127.5,49.7],[130.5,48.9],[131.3889,48.1889],[132.5,48.3],[133.7457,48.1505],[135.1,48.5],[135,48],[134.6946,48.0367],[134.4,47.7],[133.1,46.4],[132.4,45.2],[131.2,44.8],[131.2,43.3],[131.14,43.1],[131.07,42.9],[130.87,42.86],[130.58,42.81],[130.42,42.71],[130.58,42.62],[130.53,42.54],[130.58,42.42],[130.7,42.3],[130.978,42.1146],[132.5,42.4],[135,43.3],[138,46],[140,48],[141.2,45.8],[141.5,45.8],[141.5,50],[144.8,50],[144.8,48.0261],[145.5,49],[146,54],[156,50.5],[164,56],[172,60],[179.9,65],[179.9,72],[140,77],[100,80],[70,77],[68.9056,76.6717],[68.9195,76.6851],[69.0339,76.7121],[68.9358,76.719],[68.9103,76.76],[68.9043,76.7649],[68.9309,76.7872],[68.898,76.7987],[68.8381,76.8062],[68.7622,76.8414],[68.7624,76.8424],[68.8086,76.8691],[68.7827,76.8779],[68.6904,76.8765],[68.6257,76.8993],[68.5933,76.921],[68.5152,76.9249],[68.4855,76.9336],[68.482,76.934],[68.5132,76.9523],[68.4629,76.9667],[68.2941,76.9591],[68.2587,76.9613],[68.1114,76.9793],[68.0344,76.9985],[67.6663,77.0108],[67.6503,77.0117],[67.6499,77.0117],[67.6442,77.0115],[67.5881,77.0134],[67.4782,77.0041],[67.4053,76.9874],[67.3964,76.986],[67.3456,76.9855],[67.2598,76.9644],[67.1154,76.9511],[66.9435,76.949],[66.9001,76.9314],[66.8291,76.9249],[66.7707,76.9123],[66.6541,76.9007],[66.6295,76.8818],[66.5455,76.8636],[66.4619,76.8605],[66.4097,76.8492],[66.3817,76.8283],[66.3467,76.8207],[66.3421,76.8195],[66.2099,76.8108],[64.4998,76.4384],[61.9315,76.2948],[61.9276,76.2974],[61.9035,76.2932],[61.9029,76.2932],[61.7567,76.2943],[61.7185,76.3114],[61.637,76.312],[61.606,76.297],[61.5698,76.2982],[61.5694,76.2982],[61.2022,76.2826],[61.1907,76.2805],[61.181,76.28],[61.0769,76.28],[61.0438,76.2733],[60.9958,76.2464],[60.9937,76.2308],[61.0149,76.2221],[60.4631,76.1145],[60.2681,76.1101],[60.0837,76.0697],[60.0427,76.0541],[60.0773,76.0394],[59.5399,75.9347],[59.3987,75.9374],[59.366,75.9282],[59.3599,75.9089],[59.3446,75.9076],[59.1106,75.8746],[58.9954,75.8711],[58.9667,75.8672],[58.931,75.8676],[58.75,75.833],[58.7269,75.819],[58.7247,75.8019],[58.6867,75.7889],[58.6099,75.7821],[58.5361,75.76],[58.5536,75.753],[58.4194,75.7201],[58.3111,75.7029],[58.3063,75.7025],[58.2972,75.7007],[58.2439,75.6922],[58.0193,75.6813],[57.9443,75.6549],[57.9255,75.629],[57.9497,75.6249],[57.8686,75.6091],[56.1088,75.1934],[56.082,75.1976],[56.1032,75.2112],[56.0379,75.2176],[55.9182,75.1976],[55.8704,75.1634],[55.8084,75.1566],[55.784,75.1228],[55.7468,75.1082],[55.7468,75.1079],[55.633,75.081],[55.6332,75.0806],[55.633,75.0806],[55.8296,74.7502],[55.709,74.6838],[55.6851,74.6798],[55.6123,74.6761],[55.5296,74.6549],[55.5324,74.6303],[55.561,74.6145],[55.4998,74.567],[55.6361,74.5734],[55.6618,74.5566],[55.6943,74.5509],[55.4049,74.4449],[55.3884,74.4451],[55.3496,74.4338],[55.2801,74.3992],[53.6657,73.808],[53.6536,73.8125],[53.6491,73.8019],[53.5089,73.7506],[53.5094,73.7505],[53.5091,73.7504],[53.5094,73.7504],[53.5089,73.7502],[53.776,73.7143],[53.855,73.6831],[53.8788,73.6675],[53.9459,73.6517],[53.9568,73.6471],[53.947,73.6316],[54.0259,73.6174],[54.2034,73.5411],[54.1793,73.5208],[53.5308,73.2424],[53.5125,73.2393],[53.4843,73.2368],[53.4338,73.2443],[53.3225,73.2209],[53.1897,73.1733],[53.1556,73.1506],[53.1538,73.1064],[53.1219,73.1009],[53.1583,73.0826],[52.6636,72.8703],[52.6167,72.8632],[52.5535,72.8232],[52.5002,72.808],[52.4803,72.7916],[52.4433,72.7757],[52.4433,72.7753],[52.4448,72.7522],[52.3941,72.752],[52.3753,72.7304],[52.3976,72.7179],[52.4474,72.713],[52.4763,72.2746],[52.4658,72.2756],[52.4165,72.2893],[52.4136,72.2695],[52.4637,72.2608],[52.4719,72.2559],[52.4613,72.2533],[52.4363,72.2275],[52.402,72.2232],[52.4147,72.2155],[52.0329,72.1359],[51.8857,72.1526],[51.8853,72.1526],[51.8798,72.1519],[51.8657,72.1587],[51.8431,72.1579],[51.7846,72.1362],[51.6888,72.1093],[51.61,72.0917],[51.5529,72.0526],[51.5573,72.0481],[51.5407,72.0332],[51.4569,72.0158],[51.457,72.0154],[51.4569,72.0154],[51.4683,71.9723],[51.4396,71.9422],[51.4014,71.8705],[51.4095,71.8061],[51.4064,71.7816],[51.4245,71.7368],[51.4719,71.7106],[51.4675,71.6925],[51.5023,71.6641],[51.5109,71.6488],[51.5452,71.6149],[51.5529,71.6035],[51.5324,71.5659],[51.582,71.5447],[51.5993,71.4798],[50,71],[31,71],[31,70.5223],[31.2935,70.4535],[31.2929,70.4534],[31.2933,70.4533],[31.293,70.4532],[31.2935,70.4531],[31.0222,70.3969],[31.0633,70.3668],[31.0194,70.3399],[31.0217,70.3251],[31.0664,70.3005],[31.077,70.2842],[31.0412,70.2849],[31,70.2768],[31,69.9],[30.9498,69.7895],[31.0322,69.7771],[31.1333,69.7757],[31.1996,69.7576],[31.2616,69.7634],[31.3079,69.7524],[31.3513,69.7324],[31.409,69.7158],[31.4065,69.6982],[31.4518,69.6892],[31.4537,69.6894],[31.4778,69.6977],[31.4979,69.6935],[31.5035,69.694],[31.7276,69.7699],[31.728,69.7703],[31.7088,69.8086],[31.728,69.8454],[31.7537,69.8541],[31.8482,69.8529],[31.905,69.83],[32.0034,69.8633],[31.9242,69.8365],[31.95,69.45],[31.6,69.3],[31.2,68.95],[30.5,68.6],[28.452,68.5069],[28.461,68.4911],[28.6638,68.204],[28.6903,68.1832],[28.7272,68.1727],[29.2987,68.0818],[29.3602,68.0567],[29.6512,67.8236],[29.7138,67.7925],[30.0094,67.6858],[29.9777,67.6622],[29.9647,67.5847],[29.9334,67.5264],[29.9162,67.5081],[29.5232,67.3],[30.6,67.3],[30.8,66.7],[30.3,66.3],[29.6389,66.3],[29.6509,66.2879],[29.7924,66.1809],[29.8754,66.1336],[29.9002,66.1081],[29.9205,66.0686],[29.9585,65.9739],[30.0097,65.9157],[30.0393,65.8654],[30.0751,65.8228],[30.1117,65.712],[30.1139,65.6655],[30.0985,65.6564],[30.003,65.6781],[29.7643,65.6481],[29.7029,65.6294],[29.7323,65.6087],[29.8067,65.5849],[29.8386,65.5649],[29.8258,65.552],[29.7455,65.5114],[29.7315,65.4969],[29.7182,65.4542],[29.7306,65.3654],[29.7201,65.3291],[29.6151,65.2694],[29.5801,65.2354],[29.6267,65.2152],[29.7668,65.2174],[29.8332,65.205],[29.8393,65.1669],[29.8091,65.1452],[29.8203,65.1265],[29.8502,65.1215],[29.8205,65.0937],[29.6678,65.0779],[29.6273,65.0622],[29.5984,65.0344],[29.5881,64.9914],[29.6336,64.9072],[29.6983,64.8391],[29.7803,64.7956],[29.8778,64.7848],[30.0625,64.7842],[30.1189,64.7679],[30.1091,64.7201],[30.1705,64.6817],[30.1878,64.6624],[30.1808,64.6428],[30.1364,64.6154],[29.9658,64.5786],[29.97,64.5454],[29.9905,64.5042],[30.0358,64.4915],[30.0704,64.4719],[30.0325,64.3969],[30.053,64.3781],[30.0931,64.3612],[30.1644,64.3419],[30.3211,64.3177],[30.3705,64.3008],[30.446,64.2508],[30.5034,64.2438],[30.5585,64.2197],[30.5325,64.1792],[30.5328,64.1625],[30.5864,64.0847],[30.5805,64.0511],[30.5523,64.0217],[30.5093,63.9914],[30.3286,63.896],[30.2656,63.8307],[30.2015,63.7926],[30.0513,63.7638],[29.9984,63.7471],[29.9808,63.7415],[30.0011,63.7153],[30.2425,63.5818],[30.3805,63.5325],[30.4887,63.4621],[30.8209,63.3757],[30.9749,63.2892],[31.1778,63.2252],[31.2257,63.196],[31.2476,63.1257],[32,62.9],[32.65,62.25],[32.45,61.75],[32.2,61.28],[30.95,60.55],[30.5,60.45],[30.15,60.35],[30.0067,60.1852],[30.1791,60.148],[29.633,60.266],[29.5668,60.2621],[29.5045,60.2417],[29.4466,60.2108],[29.4179,60.1689],[29.4135,60.1691],[29.4135,60.1025],[29.3738,60.1025],[29.3738,60.0769],[29.4531,60.0769],[29.4531,60.0794],[29.4928,60.0794],[29.4928,60.0509],[29.5324,60.0509],[29.5324,60.0187],[29.5721,60.0187],[29.5721,60.0082],[29.5,59.9],[28.8535,59.9],[28.6761,59.8137],[28.9772,59.9602],[29.1183,60.0289],[28.9772,60.0927],[28.3428,60.3797],[28.1898,60.4489],[28.0568,59.7839],[28.007,59.7582],[27.9934,59.7033],[28.0159,59.6597],[28.0293,59.6467],[28,59.5],[27.9957,59.4827],[28.0048,59.4871],[28.0206,59.4948],[28.0406,59.5223],[28.0638,59.5543],[28.0514,59.619],[28.3,59.45],[28.3,59.2],[28.05,58.95],[27.9,58.95],[27.9,59.2877],[27.8823,59.2757],[27.8908,59.258],[27.8735,59.2365],[27.8424,59.1612],[27.7672,59.0559],[27.7244,59.0144],[27.6959,58.9772],[27.4778,58.8754],[27.4463,58.8189],[27.4106,58.7549],[27.4288,58.7094],[27.5549,58.3952],[27.4941,58.3195],[27.4828,58.2686],[27.4954,58.2215],[27.5196,58.1945],[27.5797,58.1259],[27.6304,58.0883],[27.6366,58.0592],[27.6358,58.05],[27.75,58.05],[27.9,57.85],[28.1,57.75],[28.05,57.55],[27.75,57.45],[28.25,57.15],[28.2,56.95],[27.95,56.8],[27.9135,56.8],[27.8761,56.7594],[27.8655,56.7427],[27.8826,56.7255],[27.981,56.687],[27.9913,56.67],[27.9922,56.625],[27.9974,56.6038],[28.0287,56.5768],[28.1087,56.5552],[28.1322,56.536],[28.0992,56.5134],[28.0933,56.5016],[28.1045,56.4831],[28.1565,56.4462],[28.1679,56.4271],[28.1643,56.3928],[28.1744,56.3496],[28.2148,56.2814],[28.2153,56.256],[28.1931,56.231],[28.1691,56.1617],[28.1489,56.1424],[28.111,56.1568],[28.0682,56.1476],[28.0511,56.1407],[27.981,56.118],[27.9397,56.1131],[27.9115,56.1002],[27.8807,56.0639],[27.7812,56.0164],[27.7601,55.9754],[27.75,55.9653],[27.75,55.9],[28.05,55.68],[28.35,55.55],[28.25,55.35],[27.95,55.1],[27.85,54.75],[27.75,54.45],[27.4,54.2],[27.15,53.9],[27,53.65],[26.95,53.3],[27,53],[27.1101,52.6697],[27.1567,52.6697],[27.1892,52.6453],[27.176,52.6089],[27.1308,52.6076],[27.2,52.4],[27.2015,52.3878],[27.2714,52.3607],[27.286,52.3291],[27.3698,52.3145],[27.3965,52.282],[27.5231,52.2368],[27.5406,52.2214],[27.5208,52.1835],[27.5267,52.0727],[27.533,52.0603],[27.5991,52.0185],[27.585,51.9902],[27.5256,51.9426],[27.5319,51.9006],[27.5031,51.8445],[27.5563,51.8059],[27.555,51.7503],[27.5095,51.7056],[27.5124,51.6231],[27.6206,51.5959],[27.6768,51.5948],[27.7052,51.5684],[27.6661,51.4902],[27.5859,51.4723],[27.5757,51.4379],[27.5999,51.4091],[27.5836,51.3937],[27.5439,51.4155],[27.52,51.441],[27.5021,51.4402],[27.4903,51.3671],[27.5113,51.3527],[27.4779,51.3153],[27.4221,51.3073],[27.4182,51.2977],[27.4503,51.2556],[27.4491,51.2279],[27.3976,51.1922],[27.3582,51.142],[27.3496,51.0998],[27.2945,51.0437],[27.2323,51.0304],[27.1982,50.9909],[27.2328,50.9249],[27.216,50.9159],[27.2399,50.8904],[27.2241,50.8245],[27.2292,50.7908],[27.2717,50.7374],[27.2435,50.6818],[27.2152,50.6575],[27.1924,50.6185],[27.1969,50.6052],[27.2356,50.583],[27.1923,50.5412],[27.1318,50.555],[27.1262,50.582],[27.0916,50.5852],[27.0753,50.5615],[27.0228,50.5455],[26.9764,50.5192],[26.9091,50.5315],[26.8071,50.5009],[26.7966,50.4615],[26.7455,50.4667],[26.6937,50.4069],[26.6501,50.3844],[26.6374,50.3555],[26.5911,50.334],[26.5697,50.3099],[26.4647,50.2485],[26.4127,50.2499],[26.3615,50.2303],[26.3034,50.1755],[26.2332,50.1523],[26.2066,50.1414],[26.2717,50.1175],[26.2598,50.0943],[26.2121,50.0907],[26.2319,50.0592],[26.1953,50.0268],[26.2355,50.0072],[26.2268,49.991],[26.1703,49.9786],[26.1512,49.9572],[26.1649,49.9309],[26.1571,49.8938],[26.1926,49.8661],[26.1868,49.8219],[26.222,49.7938],[26.2346,49.7723],[26.2279,49.7283],[26.2055,49.71],[26.2187,49.6816],[26.2525,49.662],[26.2249,49.6234],[26.2087,49.5669],[26.1643,49.544],[26.1484,49.5165]]],[[[44.8472,80.5899],[45.2336,80.5846],[45.3909,80.5597],[45.4322,80.5559],[45.489,80.5242],[45.5153,80.5198],[45.6223,80.5344],[45.6369,80.5373],[45.6393,80.5371],[45.6397,80.5371],[45.7805,80.5511],[45.783,80.5498],[45.8359,80.5513],[45.9214,80.5652],[45.9706,80.5701],[46.0245,80.5406],[46.0373,80.5202],[46.0293,80.515],[46.0213,80.4886],[46.0304,80.4651],[46.084,80.4399],[46.4805,80.4597],[46.5301,80.4741],[46.5238,80.4803],[46.5884,80.5198],[46.6448,80.515],[46.6873,80.5293],[46.6458,80.5496],[46.6765,80.5614],[46.781,80.5614],[46.9924,80.5527],[47.0142,80.5602],[47.0714,80.5594],[46.5033,80.2467],[46.5037,80.2466],[46.5035,80.2465],[46.5036,80.2465],[46.5033,80.2463],[47.5869,80.0093],[47.5873,80.0093],[48.2926,80.1096],[48.3181,80.1004],[48.3724,80.0918],[48.4439,80.1008],[48.5106,80.1242],[48.5342,80.144],[48.7032,80.168],[48.7339,80.1591],[48.9691,80.1519],[48.9894,80.1662],[49.0856,80.1724],[49.1072,80.1895],[49.0687,80.1997],[49.0089,80.2085],[49.0006,80.2245],[49.0379,80.2413],[48.9426,80.273],[48.9263,80.2761],[48.9229,80.2771],[48.9203,80.2773],[48.896,80.2819],[48.8459,80.2831],[48.8941,80.3394],[49.2748,80.3715],[49.4904,80.3635],[49.8162,80.401],[49.8201,80.4181],[51.1369,80.5475],[51.3595,80.6356],[51.4368,80.6474],[51.7009,80.6769],[51.744,80.7143],[51.6893,80.7273],[51.6115,80.7308],[51.5905,80.7406],[51.456,80.744],[51.395,80.7609],[51.3869,80.7622],[51.3097,80.7832],[51.3127,80.79],[51.2919,80.7881],[50.9255,80.8877],[50.9221,80.8887],[50.8784,80.9116],[50.8267,80.9191],[50.8038,80.9138],[50.8021,80.9142],[50.8017,80.9142],[50.4313,80.9107],[50.4276,80.9111],[50.397,80.9211],[50.3291,80.9225],[50.2801,80.9281],[50.2797,80.9281],[50.2717,80.9279],[50.2372,80.9335],[50.1457,80.9251],[50.1249,80.9246],[50.0481,80.9172],[50.0389,80.9186],[50.0385,80.9186],[50.0094,80.9136],[49.5093,80.8656],[49.2429,80.8222],[49.2242,80.8012],[49.0037,80.7757],[49.0868,80.7751],[49.1135,80.7695],[49.0747,80.7585],[48.992,80.7476],[48.9553,80.7348],[48.9989,80.7191],[49.0089,80.7181],[48.5582,80.529],[48.551,80.5313],[48.5654,80.5429],[48.5257,80.5445],[48.4948,80.5516],[48.4262,80.6422],[48.4957,80.6376],[48.5072,80.6347],[48.6406,80.6249],[48.7268,80.6107],[48.7505,80.6174],[48.764,80.6596],[48.6853,80.672],[48.6853,80.718],[48.6185,80.7477],[48.6548,80.7552],[48.4963,80.7981],[48.4584,80.8037],[48.4477,80.8066],[48.3957,80.8128],[48.2752,80.8305],[48.193,80.8224],[47.9004,80.8135],[47.7725,80.8247],[47.5363,80.8567],[47.4448,80.8534],[47.4433,80.8535],[47.3529,80.8535],[47.3088,80.8484],[47.1382,80.8422],[47.092,80.831],[47.1075,80.8252],[47.0217,80.8153],[46.8577,80.7719],[46.7985,80.7714],[46.5238,80.7459],[46.4416,80.7453],[46.4179,80.7394],[46.3269,80.7354],[45.1245,80.6521],[45.1139,80.6502],[45.0947,80.6492],[45.0054,80.634],[44.9071,80.63],[44.8574,80.6174],[44.896,80.6049],[44.9713,80.6018],[44.8472,80.5903],[44.8493,80.5903],[44.8474,80.5901],[44.8491,80.5901],[44.8472,80.5899]]],[[[49.5313,80.1588],[49.5754,80.1363],[49.5985,80.1341],[49.6702,80.1197],[49.7344,80.1025],[49.7879,80.0962],[49.791,80.0956],[49.8831,80.0699],[49.969,80.0599],[49.9701,80.0597],[49.9707,80.0597],[50.0002,80.0563],[50.0813,80.0681],[50.057,80.081],[50.0607,80.0886],[50.0868,80.1035],[50.0734,80.1105],[50.2822,80.1631],[50.3176,80.1678],[50.3356,80.1816],[50.3186,80.196],[50.2565,80.2167],[50.2513,80.2198],[50.2467,80.2199],[50.2285,80.226],[49.8986,80.234],[49.8865,80.2301],[49.8841,80.2302],[49.8837,80.2302],[49.7552,80.2023],[49.5607,80.1729],[49.5313,80.1588]]],[[[50.0453,79.9744],[50.1585,79.9696],[50.4525,79.9243],[50.4529,79.9243],[51.0706,79.9311],[51.4201,79.9164],[51.4661,79.9201],[51.5051,79.9334],[51.4702,79.9443],[51.3828,79.9554],[51.3786,79.9552],[51.3661,79.9596],[51.3884,79.967],[51.3467,79.9771],[51.2912,79.9807],[51.2413,79.9907],[51.2378,80.0095],[51.2557,80.0493],[51.2555,80.0493],[51.2557,80.0497],[51.2493,80.0506],[51.2648,80.0563],[51.19,80.0589],[51.0532,80.0782],[51.001,80.1025],[50.9636,80.1019],[50.9395,80.0942],[50.9353,80.0948],[50.9349,80.0948],[50.719,80.0557],[50.6926,80.0535],[50.6782,80.0483],[50.6757,80.0479],[50.4741,80.0358],[50.1306,79.9858],[50.0549,79.9788],[50.0453,79.9744]]],[[[50.3474,81.091],[50.4303,81.0775],[50.4669,81.0641],[50.4409,81.0483],[50.391,81.0364],[50.3743,81.0228],[50.4094,81.0131],[50.4515,81.0165],[50.5619,81.0433],[50.6145,81.0405],[50.6149,81.0405],[50.6741,81.0435],[50.7502,81.0412],[50.7744,81.044],[50.7791,81.0624],[50.7766,81.0635],[50.7877,81.0718],[50.8685,81.0904],[50.938,81.0917],[50.9768,81.1059],[50.9121,81.143],[50.8198,81.1662],[50.778,81.1702],[50.7264,81.1697],[50.7157,81.1711],[50.7153,81.1711],[50.5929,81.1694],[50.5861,81.1684],[50.5296,81.1679],[50.4909,81.1592],[50.5118,81.1502],[50.5065,81.1451],[50.4633,81.126],[50.4419,81.1252],[50.3674,81.1252],[50.3702,81.1225],[50.3697,81.1225],[50.3698,81.1221],[50.3697,81.1221],[50.3769,81.103],[50.3787,81.102],[50.3474,81.091]]],[[[52.1829,80.2761],[52.2131,80.2629],[52.2129,80.2628],[52.2158,80.2617],[52.3047,80.2227],[52.3425,80.2125],[52.3566,80.2087],[52.5564,80.2011],[52.6053,80.1916],[52.6201,80.1854],[52.6229,80.1833],[52.645,80.1723],[53.4899,80.1718],[53.513,80.1799],[53.5161,80.1846],[53.5201,80.1847],[53.6533,80.2229],[53.6981,80.2247],[53.7048,80.2208],[53.7637,80.2226],[53.8208,80.2413],[53.8695,80.2709],[53.8618,80.2761],[53.6805,80.2945],[53.4877,80.324],[53.3473,80.3674],[53.3346,80.3918],[53.3411,80.399],[53.3297,80.4013],[53.3293,80.4021],[53.3239,80.4025],[53.2937,80.4086],[53.2053,80.4111],[53.1853,80.4125],[53.1849,80.4125],[53.17,80.412],[53.1496,80.4126],[53.1376,80.411],[52.9938,80.4065],[52.9505,80.4126],[52.8595,80.4055],[52.771,80.3803],[52.6983,80.3677],[52.6843,80.358],[52.699,80.3355],[52.7009,80.3352],[52.6809,80.3188],[52.6729,80.3172],[52.6004,80.3151],[52.5972,80.3021],[52.5765,80.2979],[52.4714,80.2908],[52.3055,80.2929],[52.1829,80.2761]]],[[[53.798,80.4729],[54.239,80.4202],[54.2631,80.4223],[54.2757,80.4208],[54.2761,80.4208],[54.2854,80.4243],[54.3338,80.4285],[54.367,80.4545],[54.3735,80.4569],[54.4299,80.4644],[54.4651,80.4815],[54.4583,80.5014],[54.4289,80.5111],[54.4063,80.5402],[54.4098,80.5429],[54.3817,80.5435],[54.2041,80.5618],[54.1768,80.5733],[54.2207,80.5784],[54.315,80.5771],[54.2691,80.5887],[53.8833,80.6107],[53.8535,80.6001],[53.8413,80.5737],[53.8587,80.5544],[53.8908,80.5473],[53.9013,80.5423],[53.9013,80.5149],[53.8726,80.509],[53.8376,80.5051],[53.8423,80.4985],[53.8113,80.4767],[53.8117,80.4767],[53.8115,80.4765],[53.8116,80.4765],[53.8113,80.4763],[53.8156,80.4758],[53.798,80.4729]]],[[[53.9846,80.8285],[53.9904,80.8027],[54.0117,80.7962],[54.5427,80.78],[54.5457,80.7805],[54.6213,80.7645],[54.6681,80.7385],[54.6685,80.7385],[54.6893,80.7391],[54.8767,80.7211],[55.1952,80.7435],[55.4379,80.7155],[55.4317,80.7143],[55.4955,80.7003],[55.5488,80.7002],[55.6221,80.6722],[55.6028,80.6658],[55.6444,80.6494],[55.6808,80.6498],[55.7122,80.6378],[55.885,80.6274],[55.8854,80.6274],[56.3174,80.6326],[56.3425,80.6342],[56.3291,80.6249],[56.9279,80.663],[56.9371,80.6785],[57.054,80.6926],[57.0588,80.6918],[57.5623,80.7484],[57.6343,80.7725],[57.7068,80.7827],[57.7161,80.7932],[57.6813,80.8168],[56.9631,80.9052],[56.9114,80.9125],[56.6344,80.9673],[56.6233,80.9818],[56.4936,80.9951],[56.4722,80.9993],[56.1698,81.0288],[56.1694,81.0288],[56.1645,81.0287],[56.0192,81.0436],[55.7813,81.024],[55.4714,81.0201],[55.4545,81.0222],[55.3216,81.05],[55.1135,81.0655],[54.7549,81.111],[54.7204,81.1196],[54.6472,81.1223],[54.5443,81.0838],[54.5524,81.0671],[54.544,81.0622],[54.4549,81.0486],[54.4173,81.0085],[54.4397,81.001],[54.4161,80.9871],[54.3657,80.9038],[54.2397,80.9021],[54.0453,80.8725],[54.0454,80.8721],[54.0453,80.8721],[54.056,80.8428],[53.9846,80.8285]]],[[[54.9378,80.2641],[54.9544,80.2386],[54.9966,80.2376],[55.0757,80.2193],[55.2349,80.2279],[55.2762,80.2399],[55.3474,80.2516],[55.4241,80.2596],[55.4983,80.2772],[55.5241,80.3063],[55.4988,80.3168],[55.3517,80.3334],[55.2964,80.3322],[55.2466,80.3253],[55.241,80.3257],[55.2406,80.3257],[55.2196,80.3215],[55.071,80.3008],[55.0666,80.2921],[55.0778,80.2909],[54.9923,80.2613],[54.9378,80.2641]]],[[[55.4317,81.2759],[55.5118,81.2759],[55.57,81.2294],[55.5606,81.2231],[55.575,81.2122],[55.6468,81.2003],[55.6709,81.2005],[55.7158,81.1881],[55.7162,81.1881],[55.7848,81.1934],[55.8244,81.1865],[56.1946,81.2236],[56.3638,81.1777],[56.4129,81.1765],[56.4312,81.1745],[56.4664,81.1753],[56.5114,81.1742],[56.5118,81.1742],[56.5274,81.1766],[56.6145,81.1785],[56.7083,81.2039],[56.8768,81.2284],[57.115,81.1857],[57.0685,81.1843],[56.9944,81.1662],[57.3898,81.1238],[57.7005,81.1372],[57.7708,81.148],[57.8366,81.1822],[57.9082,81.196],[58.0838,81.2145],[58.0265,81.234],[57.9899,81.2394],[58.0166,81.2541],[58.0163,81.2542],[58.0164,81.2543],[58.0163,81.2543],[58.0166,81.2545],[57.9122,81.3031],[57.8585,81.3686],[58.1248,81.3776],[58.3057,81.3769],[58.3512,81.3853],[58.373,81.386],[58.4438,81.3982],[58.5176,81.4028],[58.5705,81.4132],[58.562,81.4187],[58.5638,81.419],[58.5634,81.4192],[58.5636,81.4192],[58.5633,81.4193],[58.5638,81.4194],[58.5572,81.4218],[58.5444,81.43],[58.4742,81.4515],[58.4378,81.4645],[58.4305,81.4648],[58.3999,81.4742],[58.0535,81.4819],[58.0166,81.4836],[57.8618,81.5062],[57.8576,81.5096],[57.864,81.5162],[57.8405,81.523],[57.8128,81.545],[57.823,81.5503],[57.784,81.5648],[57.7249,81.5637],[57.7178,81.5652],[57.7174,81.5652],[57.6942,81.5632],[57.5142,81.56],[57.4845,81.5514],[57.5014,81.5466],[57.4546,81.5426],[57.3647,81.5357],[57.0914,81.5409],[57.091,81.5409],[57.0727,81.5364],[57.013,81.5368],[56.9461,81.5224],[56.9832,81.5141],[56.9722,81.5114],[56.8789,81.4786],[56.7925,81.4723],[56.7405,81.4535],[56.7551,81.4499],[56.7923,81.4482],[56.7202,81.4229],[56.4138,81.3876],[56.3359,81.3852],[56.3549,81.3701],[56.1551,81.3031],[55.781,81.3291],[55.7806,81.3291],[55.7064,81.325],[55.7121,81.3306],[55.6109,81.3197],[55.5742,81.3177],[55.4657,81.3244],[55.496,81.3134],[55.4674,81.3118],[55.4678,81.3114],[55.4674,81.3114],[55.492,81.2917],[55.4588,81.2881],[55.4317,81.2759]]],[[[55.7121,80.1035],[55.7283,80.1038],[55.813,80.0875],[55.899,80.0852],[55.9486,80.0784],[56.9568,80.0663],[57.0775,80.083],[57.1179,80.096],[57.1384,80.1178],[57.0739,80.1369],[57.0735,80.1397],[57.1062,80.1773],[57.1193,80.1797],[57.1536,80.199],[57.1207,80.2122],[57.1233,80.3003],[57.131,80.3061],[57.1237,80.3146],[57.1238,80.3166],[57.1238,80.317],[57.1172,80.3223],[57.0977,80.3452],[57.0847,80.3484],[57.0806,80.3517],[57.0652,80.3533],[57.022,80.364],[56.9494,80.365],[56.9438,80.3656],[56.9434,80.3656],[56.9208,80.3654],[56.7123,80.3684],[56.7086,80.3639],[56.7058,80.3639],[56.6554,80.3309],[56.4567,80.3342],[56.1299,80.3512],[56.0328,80.3412],[56.0258,80.3413],[56.0254,80.3413],[56.0236,80.3402],[55.9893,80.3367],[55.9728,80.3232],[55.9924,80.3042],[55.9928,80.3016],[55.9523,80.2618],[56.0049,80.2364],[56.0057,80.2321],[55.9939,80.2134],[56.0099,80.2095],[56.0109,80.2042],[55.9426,80.1643],[55.7997,80.1258],[55.7121,80.1035]]],[[[56.0956,81.091],[56.1442,81.0924],[56.7993,81.0275],[56.8457,81.0136],[56.8967,81.0161],[56.9187,81.0085],[56.8973,80.9928],[56.9324,80.9743],[57.0142,80.9619],[57.1463,80.9617],[57.2014,80.9539],[57.2341,80.9333],[57.1986,80.9061],[57.2316,80.9071],[57.3364,80.8918],[57.4407,80.8837],[57.5344,80.8627],[57.8183,80.8539],[57.8713,80.8264],[57.8442,80.8247],[57.8157,80.8099],[57.8825,80.7873],[57.997,80.7875],[58.256,80.7669],[58.4212,80.7488],[58.5427,80.7543],[58.6272,80.7678],[58.643,80.768],[58.8424,80.7776],[58.8955,80.7737],[58.9344,80.7807],[58.9886,80.8037],[59.014,80.8232],[58.9602,80.8719],[58.9289,80.8821],[58.9084,80.8844],[58.9022,80.8986],[58.8158,80.9333],[58.7618,80.9906],[58.6825,81.02],[58.6966,81.0247],[58.6537,81.0438],[58.5244,81.0588],[58.5062,81.0618],[58.4288,81.0699],[58.1627,81.1007],[58.103,81.1139],[58.049,81.1191],[58.0486,81.1191],[57.6563,81.0323],[57.4647,81.0431],[57.2564,81.0648],[57.1743,81.0569],[56.9443,81.0725],[56.8308,81.0935],[56.7775,81.0974],[56.7029,81.1131],[56.2249,81.1079],[56.1712,81.1213],[56.1239,81.1186],[56.0956,81.091]]],[[[56.9461,80.4815],[57.0176,80.4659],[57.0838,80.4451],[57.1846,80.3965],[57.2089,80.3697],[57.1924,80.3642],[57.211,80.355],[57.2134,80.3288],[57.2487,80.2588],[57.2197,80.2413],[57.2676,80.2215],[57.2818,80.1934],[57.2832,80.1924],[57.2806,80.1904],[57.2902,80.169],[57.4263,80.1278],[57.4972,80.1303],[57.6054,80.1206],[57.7131,80.0988],[57.9705,80.0989],[58.0149,80.111],[57.991,80.1171],[57.9816,80.1315],[58.1211,80.1814],[58.1426,80.1802],[58.2513,80.1867],[58.4065,80.1656],[58.4468,80.1799],[58.4263,80.1867],[58.4671,80.2095],[58.4606,80.2351],[58.4294,80.2419],[58.2829,80.242],[58.2866,80.2472],[58.2866,80.2476],[58.283,80.2975],[58.3105,80.3025],[58.322,80.3036],[58.3385,80.3076],[58.3982,80.3184],[58.4629,80.3202],[58.5579,80.3153],[58.5876,80.3212],[58.5881,80.3238],[58.939,80.3337],[59.2761,80.33],[59.2394,80.3592],[59.1934,80.3785],[59.0021,80.4099],[58.9706,80.416],[58.9566,80.4174],[58.8987,80.4269],[58.8563,80.4273],[58.6936,80.4435],[58.6804,80.446],[58.6606,80.4468],[58.481,80.4646],[58.4743,80.4647],[58.4524,80.4681],[57.4831,80.4767],[57.077,80.4941],[57.0766,80.4941],[57.043,80.4806],[56.9461,80.4815]]],[[[57.8913,81.708],[57.9894,81.6901],[58.2954,81.7142],[59.3556,81.7533],[59.3623,81.7806],[59.358,81.7819],[59.3933,81.8114],[59.44,81.8178],[59.4031,81.8366],[59.3315,81.8412],[59.2622,81.8551],[59.2618,81.8551],[59.2386,81.8545],[59.2147,81.8587],[58.1561,81.8303],[58.137,81.8273],[58.135,81.8273],[58.1286,81.8261],[58.07,81.817],[57.9778,81.8166],[57.9397,81.8036],[57.9782,81.7906],[57.9442,81.7475],[57.9252,81.7338],[57.9119,81.7347],[57.8913,81.708]]],[[[58.4695,81.3475],[58.4812,81.3236],[58.5635,81.3244],[58.6546,81.3066],[59.0544,81.2871],[59.1211,81.2937],[59.2615,81.3015],[59.2852,81.3],[59.3425,81.3043],[59.3854,81.3306],[59.3001,81.3642],[59.2459,81.3765],[59.1572,81.3867],[59.1097,81.3974],[59.0179,81.4034],[58.6692,81.3816],[58.5361,81.3518],[58.4695,81.3475]]],[[[58.7687,80.0211],[58.7927,80.0111],[58.9227,79.9921],[58.9198,79.9855],[58.92,79.9855],[58.9198,79.9851],[59.0922,79.9651],[59.1072,79.9625],[59.1682,79.9486],[59.1807,79.9432],[59.1737,79.9396],[59.2068,79.9289],[59.3721,79.9197],[59.4223,79.931],[59.5292,79.9407],[59.543,79.9396],[59.7376,79.9599],[59.8083,79.976],[59.9027,79.9924],[59.9273,79.9949],[59.9011,80.0016],[59.8393,80.0523],[59.8416,80.0707],[59.7863,80.0942],[59.6479,80.1044],[59.543,80.1191],[59.5426,80.1191],[59.5397,80.1188],[59.5291,80.1209],[58.7964,80.0436],[58.7687,80.0211]]],[[[59.2293,80.6441],[59.2898,80.6174],[59.2615,80.5979],[59.2861,80.582],[59.2907,80.5814],[59.287,80.5722],[59.2871,80.572],[59.287,80.5718],[59.2973,80.5431],[59.2736,80.5429],[59.242,80.5293],[59.3198,80.515],[59.3446,80.5041],[59.6099,80.4409],[59.6364,80.4312],[59.6869,80.4269],[59.9632,80.4431],[60.0291,80.4572],[60.1262,80.4628],[60.1873,80.4815],[60.1867,80.482],[60.2772,80.4937],[60.4035,80.477],[60.5608,80.4465],[61.0446,80.4052],[61.0845,80.4106],[61.1543,80.4345],[61.2821,80.447],[61.3652,80.4741],[61.3738,80.4938],[61.2777,80.5013],[61.282,80.5029],[61.2872,80.5043],[61.4207,80.5176],[61.6062,80.5293],[61.601,80.5368],[61.6618,80.5738],[61.688,80.5771],[61.6984,80.5888],[61.7605,80.6],[62.0723,80.6142],[62.116,80.6224],[62.1473,80.6391],[62.0962,80.6515],[62.1134,80.6829],[62.155,80.7075],[62.1741,80.7143],[62.2307,80.7279],[62.2771,80.762],[62.2752,80.7839],[62.2327,80.7984],[62.2219,80.8132],[62.2083,80.8227],[62.1184,80.8593],[62.1026,80.8673],[62.0978,80.8677],[62.0677,80.8799],[61.6026,80.8957],[61.5613,80.8925],[61.5519,80.8883],[61.3138,80.8621],[61.0582,80.8441],[60.564,80.8228],[60.4567,80.8044],[60.338,80.8024],[60.312,80.8108],[60.2664,80.8107],[60.2428,80.8306],[60.2562,80.831],[60.2244,80.8484],[60.1709,80.8539],[59.8514,80.8424],[59.8386,80.84],[59.7154,80.8361],[59.7137,80.8358],[59.6939,80.8371],[59.6165,80.8207],[59.593,80.817],[59.5906,80.8152],[59.5559,80.8078],[59.5088,80.8037],[59.5606,80.7923],[59.5498,80.784],[59.4958,80.7667],[59.4778,80.7577],[59.4046,80.7503],[59.3581,80.7273],[59.3655,80.7211],[59.2822,80.7],[59.3102,80.687],[59.2347,80.6611],[59.2293,80.6441]]],[[[60.0227,80.9954],[60.07,80.9796],[60.1257,80.9773],[60.315,80.9561],[60.3433,80.9486],[60.9878,80.922],[61.5998,81.0314],[61.6289,81.066],[61.6062,81.0774],[61.6514,81.0985],[61.7017,81.1053],[61.6799,81.1137],[60.6128,81.0925],[60.5924,81.0879],[60.5866,81.0878],[60.4266,81.0619],[60.3045,81.0512],[60.2562,81.0364],[60.2385,81.0314],[60.1498,81.017],[60.0623,81.0083],[60.0227,80.9954]]],[[[62.1058,81.6794],[62.1065,81.6794],[62.1065,81.6732],[62.4345,81.6627],[62.5147,81.6587],[62.5037,81.6528],[62.5339,81.6379],[62.5666,81.6348],[62.5738,81.6325],[62.6198,81.6289],[62.6909,81.6142],[63.2105,81.5927],[63.2966,81.5988],[63.4675,81.5891],[63.7122,81.6147],[63.7803,81.6389],[63.8059,81.6601],[63.7084,81.6866],[63.7082,81.6867],[63.7081,81.6867],[63.6776,81.695],[63.3696,81.6989],[62.7993,81.7195],[62.8047,81.7216],[62.6477,81.7216],[62.6037,81.7152],[62.4897,81.7125],[62.4613,81.7165],[62.3403,81.709],[62.2822,81.7076],[62.2588,81.7039],[62.2249,81.7018],[62.1065,81.6801],[62.1065,81.6799],[62.1058,81.6798],[62.1065,81.6798],[62.1065,81.6797],[62.106,81.6796],[62.1065,81.6796],[62.1065,81.6795],[62.1058,81.6794]]],[[[62.5086,80.8342],[62.5105,80.8101],[62.6165,80.7981],[62.6187,80.7976],[62.761,80.7628],[62.964,80.7204],[63.1307,80.6831],[63.3385,80.6996],[63.3734,80.7003],[63.7468,80.718],[63.7752,80.7136],[64.4256,80.7409],[64.4912,80.7532],[64.5356,80.7553],[64.5867,80.7552],[64.6382,80.7685],[64.7583,80.7851],[64.9998,80.8088],[65.0644,80.8356],[65.0935,80.8431],[65.1546,80.8499],[65.4458,80.9196],[65.4657,80.9349],[65.423,80.9725],[65.3887,80.9862],[65.3659,80.9887],[65.3613,81.0059],[65.45,81.0228],[65.4363,81.0371],[65.3763,81.0599],[65.3259,81.0879],[65.2611,81.124],[65.2298,81.1367],[65.1387,81.151],[65.0295,81.1694],[64.9909,81.1741],[64.8679,81.1934],[64.8402,81.1926],[64.8026,81.1972],[64.7482,81.1976],[64.7048,81.2053],[64.4229,81.1938],[64.2748,81.1691],[64.1902,81.1215],[64.1546,81.1146],[64.1204,81.0936],[64.1327,81.0824],[64.1891,81.0724],[64.165,81.0357],[64.0966,80.9993],[63.8894,80.9843],[63.748,80.9819],[63.6142,80.9819],[63.4466,80.9767],[63.1423,80.9714],[63.1191,80.9665],[63.1138,80.9663],[63.0858,80.9594],[63.0365,80.9489],[63.025,80.9444],[62.8186,80.8934],[62.7807,80.8867],[62.7705,80.8856],[62.5298,80.8438],[62.5086,80.8342]]]]}},
{"type":"Feature","properties":{"entityId":"soviet-union","from":1946,"to":1992,"certainty":"estimated","source":"유럽 쪽은 Natural Earth 1:10m admin-1(v5.1.2) 현대 행정구역 조각을 그 시기 국경에 맞춰 묶고, 조각이 역사 경계와 다른 곳은 선을 그어 나눈 근사. 유럽 밖(시베리아·중앙아시아·극동)은 대략적인 추정. 운영자 검수 필요"},"geometry":{"type":"MultiPolygon","coordinates":[[[[19.6095,54.4567],[19.6803,54.4367],[19.7583,54.4343],[20.3521,54.4157],[22.6984,54.3429],[22.7672,54.3563],[22.8113,54.3926],[22.8589,54.3992],[22.9188,54.3811],[22.9733,54.3754],[22.9897,54.3534],[23.0416,54.341],[23.0321,54.3096],[23.0501,54.2948],[23.1171,54.3035],[23.2354,54.2542],[23.316,54.2363],[23.336,54.2263],[23.3823,54.1879],[23.4325,54.1693],[23.4739,54.1126],[23.4962,54.0446],[23.4965,54.022],[23.4593,53.9923],[23.4629,53.9725],[23.4904,53.9506],[23.4856,53.9393],[23.4869,53.91],[23.5207,53.8373],[23.5299,53.7842],[23.5648,53.7424],[23.5671,53.681],[23.5909,53.6113],[23.6758,53.4557],[23.743,53.3655],[23.783,53.2709],[23.8481,53.1838],[23.8937,53.152],[23.8914,53.1277],[23.8607,53.0875],[23.8679,53.051],[23.9097,53.0127],[23.9175,52.9588],[23.902,52.9125],[23.9121,52.8939],[23.9204,52.7726],[23.9225,52.7426],[23.9088,52.6999],[23.869,52.67],[23.7362,52.6149],[23.569,52.5859],[23.4805,52.5544],[23.3923,52.5096],[23.2705,52.3951],[23.2121,52.3475],[23.1656,52.2894],[23.1761,52.2851],[23.1945,52.2715],[23.1897,52.2405],[23.2123,52.2317],[23.3958,52.1996],[23.3885,52.1842],[23.4367,52.1757],[23.4505,52.1859],[23.4847,52.1586],[23.5125,52.1244],[23.5794,52.1215],[23.6375,52.0845],[23.6764,51.9941],[23.6476,51.9741],[23.6222,51.9279],[23.6214,51.8956],[23.5946,51.8433],[23.6287,51.8098],[23.6175,51.7865],[23.5604,51.7545],[23.5466,51.7136],[23.5604,51.672],[23.5324,51.659],[23.5438,51.6438],[23.5399,51.6071],[23.574,51.5553],[23.5728,51.5397],[23.6062,51.5174],[23.6148,51.4972],[23.6628,51.4802],[23.6487,51.454],[23.6976,51.4044],[23.6789,51.3941],[23.6839,51.3703],[23.634,51.3393],[23.6352,51.3047],[23.6873,51.2924],[23.7427,51.2163],[23.7652,51.199],[23.816,51.1788],[23.8747,51.1361],[23.8545,51.1215],[23.9042,51.0627],[23.9117,51.0068],[23.9551,50.9836],[23.9793,50.9375],[24.0469,50.898],[24.1302,50.8689],[24.1309,50.8391],[24.0469,50.8291],[24.0205,50.8386],[23.9699,50.8252],[23.9576,50.808],[23.9743,50.7762],[24.0259,50.767],[24.0128,50.7433],[24.0269,50.728],[24.081,50.713],[24.0749,50.6902],[24.1082,50.6303],[24.0853,50.6044],[24.0954,50.5569],[24.1077,50.5408],[24.075,50.5143],[24.0107,50.4928],[24.0032,50.4377],[23.9813,50.4048],[23.9287,50.3908],[23.7475,50.3894],[23.6957,50.3768],[23.6587,50.327],[23.5653,50.2578],[23.4364,50.1935],[23.2079,50.034],[23.1778,50.004],[23.1015,49.9571],[22.993,49.8544],[22.9512,49.8266],[22.9244,49.7854],[22.8882,49.7697],[22.8266,49.6974],[22.7773,49.6805],[22.7417,49.6337],[22.6658,49.5674],[22.6409,49.5288],[22.6669,49.4784],[22.6796,49.4189],[22.7142,49.3906],[22.7242,49.3671],[22.7378,49.2754],[22.7029,49.195],[22.6817,49.1612],[22.7057,49.1688],[22.7488,49.1456],[22.7781,49.1203],[22.8534,49.0848],[22.8475,49.0337],[22.865,49.0132],[22.8553,48.994],[22.784,49.0214],[22.7553,49.0447],[22.6429,49.0432],[22.5808,49.0814],[22.5396,49.0722],[22.5248,49.0329],[22.5205,48.9929],[22.449,48.9714],[22.4149,48.9117],[22.4118,48.8878],[22.3708,48.8582],[22.3623,48.8443],[22.3657,48.7944],[22.3308,48.7564],[22.3225,48.7003],[22.2943,48.6676],[22.2555,48.6568],[22.219,48.6209],[22.1537,48.5859],[22.1367,48.5493],[22.1483,48.5088],[22.1338,48.4768],[22.1328,48.4048],[22.1583,48.4022],[22.202,48.4182],[22.2718,48.4035],[22.2568,48.3573],[22.2913,48.3576],[22.3081,48.2937],[22.3571,48.2431],[22.4342,48.2367],[22.4814,48.2426],[22.5558,48.1772],[22.6001,48.1011],[22.6932,48.1018],[22.7457,48.1163],[22.831,48.0724],[22.8616,48.0284],[22.8495,47.9931],[22.8324,47.9789],[22.8776,47.9467],[22.9158,47.9592],[22.9157,47.993],[22.9393,48.0057],[22.9882,47.9864],[23.0203,47.9847],[23.0631,48.0075],[23.099,48.0712],[23.1186,48.0915],[23.1617,48.0959],[23.2314,48.0797],[23.3601,47.9931],[23.396,47.9931],[23.4608,47.9713],[23.4855,47.9742],[23.5145,47.999],[23.5632,48.0058],[23.7105,47.9851],[23.7801,47.9875],[23.8766,47.9344],[23.9773,47.9623],[24.0948,47.9379],[24.1312,47.9145],[24.231,47.897],[24.2979,47.9198],[24.3472,47.9209],[24.3862,47.9437],[24.4285,47.9525],[24.4856,47.9432],[24.5698,47.9373],[24.6085,47.9219],[24.6493,47.8952],[24.6615,47.8539],[24.7128,47.8259],[24.7937,47.8045],[24.8207,47.7841],[24.8778,47.7187],[24.9289,47.7139],[24.9424,47.7156],[25.0174,47.7246],[25.0799,47.7429],[25.1219,47.7703],[25.219,47.8785],[25.2617,47.8986],[25.7525,47.9346],[25.8184,47.9526],[25.9181,47.9682],[25.9657,47.9649],[26.0293,47.9778],[26.1025,47.9783],[26.1731,47.9931],[26.2048,48.0374],[26.2553,48.0723],[26.287,48.1247],[26.3035,48.212],[26.3303,48.2085],[26.3974,48.2262],[26.4447,48.2277],[26.5874,48.2494],[26.6179,48.259],[26.6657,48.2742],[26.6885,48.2748],[26.744,48.2556],[26.8049,48.2583],[26.8447,48.2333],[26.8555,48.2378],[26.8977,48.209],[26.908,48.1845],[26.9381,48.2048],[26.9631,48.1754],[26.9976,48.1666],[26.9666,48.1434],[27.0127,48.1281],[27.0251,48.135],[27.048,48.1214],[27.0343,48.1018],[27.0592,48.0581],[27.1093,48.0335],[27.089,48.0198],[27.0958,48.0056],[27.1215,48.0132],[27.1437,47.9868],[27.1698,47.9738],[27.151,47.9578],[27.1783,47.9421],[27.1607,47.9217],[27.2124,47.8895],[27.2124,47.8479],[27.2534,47.8281],[27.2192,47.8138],[27.2647,47.7646],[27.2881,47.7507],[27.2951,47.7182],[27.272,47.715],[27.304,47.6665],[27.3692,47.6083],[27.4294,47.5781],[27.4313,47.5726],[27.4461,47.5349],[27.4595,47.5332],[27.4731,47.4918],[27.5072,47.478],[27.5482,47.4743],[27.583,47.4507],[27.5625,47.4165],[27.5803,47.406],[27.5724,47.3752],[27.5887,47.3674],[27.6369,47.3067],[27.7228,47.2833],[27.7536,47.2514],[27.7524,47.2389],[27.7883,47.2043],[27.8066,47.1446],[27.8499,47.1285],[27.8438,47.1144],[27.9384,47.0611],[27.9387,47.0466],[28.0083,47.0263],[28.028,47.033],[28.0381,47.0155],[28.0827,46.9715],[28.105,46.9202],[28.1226,46.8423],[28.1378,46.8062],[28.1782,46.7586],[28.1781,46.7398],[28.2341,46.6624],[28.2451,46.6315],[28.2471,46.6072],[28.2254,46.5696],[28.2341,46.5531],[28.2211,46.5412],[28.219,46.5037],[28.2458,46.4755],[28.2461,46.4279],[28.2261,46.4154],[28.2268,46.3955],[28.2129,46.3887],[28.2071,46.3582],[28.1879,46.3438],[28.1929,46.3112],[28.1778,46.287],[28.1352,46.2693],[28.1321,46.2399],[28.109,46.2341],[28.1447,46.1832],[28.1105,46.1015],[28.1078,46.0961],[28.0845,46.0246],[28.0861,46.0006],[28.125,45.9184],[28.1174,45.8952],[28.1311,45.8714],[28.1105,45.8543],[28.1133,45.8254],[28.155,45.7618],[28.168,45.6325],[28.1208,45.6277],[28.0621,45.5936],[28.1409,45.5602],[28.1654,45.5283],[28.1659,45.4946],[28.1995,45.4618],[28.2151,45.4504],[28.2669,45.4405],[28.2864,45.4217],[28.2812,45.4018],[28.3302,45.3229],[28.4052,45.2951],[28.4942,45.2789],[28.577,45.2481],[28.7101,45.227],[28.7787,45.2311],[28.8027,45.2442],[28.7673,45.2578],[28.7615,45.2818],[28.7902,45.2921],[28.7897,45.3214],[28.8163,45.3261],[28.8809,45.3062],[28.9299,45.2791],[28.9528,45.2851],[28.9665,45.3199],[29.0182,45.3309],[29.0695,45.3608],[29.1743,45.389],[29.2282,45.4237],[29.2818,45.4223],[29.3221,45.4438],[29.3537,45.4359],[29.4306,45.4304],[29.5697,45.395],[29.6503,45.3461],[29.6671,45.3119],[29.6723,45.2729],[29.659,45.2159],[29.6954,45.2213],[29.7088,45.2233],[29.7562,45.3212],[29.7502,45.3858],[29.73,45.4126],[29.7378,45.4201],[29.7559,45.4279],[29.7541,45.4356],[30.1793,45.842],[30.2,45.8532],[30.2,45.5],[30.5,45.5],[33,44],[38,43.8],[41.5348,41.5417],[41.5229,41.53],[41.5325,41.53],[41.5208,41.5142],[41.6273,41.4805],[41.7026,41.489],[41.7185,41.4596],[41.761,41.4535],[41.813,41.4218],[41.8627,41.4518],[41.894,41.4855],[41.948,41.5056],[42.0196,41.4851],[42.0835,41.5001],[42.1118,41.4935],[42.1584,41.4999],[42.1893,41.4817],[42.2625,41.4823],[42.4379,41.4309],[42.451,41.4314],[42.4838,41.4422],[42.5455,41.5096],[42.555,41.5503],[42.5866,41.5791],[42.661,41.5883],[42.8009,41.5792],[42.8199,41.5723],[42.8027,41.5341],[42.7665,41.5043],[42.83,41.4725],[42.868,41.5002],[42.889,41.47],[42.9261,41.4591],[42.9577,41.437],[43.0021,41.3827],[43.0756,41.3449],[43.1239,41.3129],[43.1854,41.2938],[43.1572,41.2697],[43.1031,41.2488],[43.172,41.2423],[43.1922,41.225],[43.2162,41.1805],[43.2306,41.1726],[43.3226,41.1921],[43.3833,41.1872],[43.4376,41.1562],[43.4518,41.1326],[43.4404,41.1066],[43.4363,41.0832],[43.4605,41.0229],[43.4796,41.0091],[43.5224,41.0045],[43.5654,40.9881],[43.6049,40.9633],[43.6477,40.9139],[43.6595,40.852],[43.7113,40.7816],[43.7241,40.7464],[43.7294,40.6771],[43.6995,40.6346],[43.7072,40.6119],[43.6648,40.5741],[43.6525,40.5294],[43.5937,40.509],[43.5595,40.4779],[43.5636,40.4647],[43.6253,40.4202],[43.6245,40.4111],[43.5942,40.3454],[43.676,40.266],[43.6903,40.2404],[43.6731,40.2277],[43.7214,40.1694],[43.7116,40.1565],[43.6525,40.139],[43.6654,40.1102],[43.7112,40.0907],[43.8028,40.0707],[43.9121,40.0243],[44.0324,40.0086],[44.1045,40.036],[44.1355,40.0223],[44.2553,40.0434],[44.3256,40.0347],[44.3809,40.0098],[44.4643,39.9723],[44.5222,39.9335],[44.5591,39.8969],[44.5675,39.873],[44.5911,39.8578],[44.5982,39.831],[44.6115,39.8373],[44.6477,39.8051],[44.6824,39.7972],[44.7591,39.7231],[44.7746,39.7028],[44.7843,39.6902],[44.7957,39.6524],[44.807,39.6399],[44.824,39.6305],[44.8723,39.6251],[44.8984,39.5844],[44.9284,39.4882],[44.9616,39.4538],[44.957,39.4345],[45.0064,39.418],[45.0512,39.3871],[45.0686,39.3642],[45.088,39.3507],[45.1144,39.3094],[45.1358,39.2785],[45.1527,39.2135],[45.1789,39.2198],[45.2831,39.1931],[45.3139,39.1942],[45.3111,39.1763],[45.3482,39.1639],[45.3453,39.1384],[45.3793,39.1112],[45.3964,39.0733],[45.4345,39.0528],[45.4271,39.0149],[45.4945,38.9819],[45.5356,38.9685],[45.6278,38.9555],[45.7169,38.9548],[45.7681,38.9391],[45.7911,38.9321],[46.0018,38.8975],[46.068,38.8741],[46.1359,38.8637],[46.2025,38.8705],[46.2719,38.9066],[46.3045,38.9163],[46.3919,38.9224],[46.514,38.8822],[46.5537,38.8898],[46.5854,38.9077],[46.6107,38.934],[46.6388,38.9795],[46.6704,39.0049],[46.7284,39.028],[46.7448,39.0403],[46.7738,39.0854],[46.8117,39.1085],[46.8374,39.1432],[46.8664,39.1654],[46.8987,39.1717],[46.9416,39.1589],[47.0136,39.187],[47.0361,39.207],[47.0529,39.2449],[47.1022,39.3084],[47.1501,39.3311],[47.2613,39.3664],[47.2914,39.3796],[47.3742,39.4556],[47.4488,39.4947],[47.5541,39.522],[47.625,39.5714],[47.7453,39.6238],[47.7882,39.6577],[47.8469,39.6853],[47.9352,39.6865],[47.9577,39.7073],[47.9907,39.6943],[48.052,39.6501],[48.2201,39.494],[48.2886,39.445],[48.3389,39.3789],[48.3284,39.3763],[48.2499,39.3424],[48.1872,39.3326],[48.1246,39.2976],[48.1062,39.2692],[48.1043,39.2348],[48.1422,39.1812],[48.1991,39.1382],[48.2713,39.1083],[48.3068,39.0454],[48.3016,39.0179],[48.2844,38.9938],[48.2432,38.9739],[48.0585,38.9484],[48.0524,38.9279],[48,38.9026],[47.9907,38.8912],[47.9931,38.8501],[48.013,38.8216],[48.078,38.7809],[48.2104,38.7298],[48.2256,38.7132],[48.228,38.6622],[48.2765,38.6318],[48.3103,38.6002],[48.3411,38.5996],[48.3918,38.6181],[48.4153,38.6181],[48.4337,38.57],[48.5356,38.4692],[48.5759,38.4204],[48.613,38.3956],[48.6591,38.3926],[48.7103,38.4071],[48.7553,38.4352],[48.7777,38.4448],[48.8097,38.4446],[48.8743,38.4341],[48.8738,38.4476],[48.8768,38.4476],[48.875,38.4844],[48.8712,38.558],[48.8694,38.5948],[48.8675,38.6317],[48.8634,38.7479],[48.8631,38.7567],[48.8609,38.761],[48.8595,38.7877],[48.8582,38.8144],[48.8581,38.8158],[48.8859,38.8335],[48.9398,38.8678],[48.9657,38.8843],[49.0997,38.9695],[49.1188,38.9753],[49.1939,39.0163],[49.2033,39.0341],[49.2,39.0279],[49.2,38.3353],[54,37.3],[57,38],[61,36.6],[62.5,35.6],[67.5,37.2],[71.5,37],[73.5,39.5],[75,40.3],[80.2,42.2],[80.3,45.3],[83,47.2],[85,47],[87.5,49.2],[90,50],[95,51],[95.5385,51.0385],[98,51.9],[100.0282,51.3592],[102,51.5],[108,50.5],[114,50.2],[116.7,49.85],[119.5,50.3],[121,53.3],[125.5,52.8],[127.5,49.7],[130.5,48.9],[131.3889,48.1889],[132.5,48.3],[133.7457,48.1505],[135.1,48.5],[135,48],[134.6946,48.0367],[134.4,47.7],[133.1,46.4],[132.4,45.2],[131.2,44.8],[131.2,43.3],[131.14,43.1],[131.07,42.9],[130.87,42.86],[130.58,42.81],[130.42,42.71],[130.58,42.62],[130.53,42.54],[130.58,42.42],[130.7,42.3],[130.978,42.1146],[132.5,42.4],[135,43.3],[138,46],[140,48],[141.2,45.8],[144.8,45.8],[144.8,48.0261],[145.5,49],[146,54],[156,50.5],[164,56],[172,60],[179.9,65],[179.9,72],[140,77],[100,80],[70,77],[68.9056,76.6717],[68.9195,76.6851],[69.0339,76.7121],[68.9358,76.719],[68.9103,76.76],[68.9043,76.7649],[68.9309,76.7872],[68.898,76.7987],[68.8381,76.8062],[68.7622,76.8414],[68.7624,76.8424],[68.8086,76.8691],[68.7827,76.8779],[68.6904,76.8765],[68.6257,76.8993],[68.5933,76.921],[68.5152,76.9249],[68.4855,76.9336],[68.482,76.934],[68.5132,76.9523],[68.4629,76.9667],[68.2941,76.9591],[68.2587,76.9613],[68.1114,76.9793],[68.0344,76.9985],[67.6663,77.0108],[67.6503,77.0117],[67.6499,77.0117],[67.6442,77.0115],[67.5881,77.0134],[67.4782,77.0041],[67.4053,76.9874],[67.3964,76.986],[67.3456,76.9855],[67.2598,76.9644],[67.1154,76.9511],[66.9435,76.949],[66.9001,76.9314],[66.8291,76.9249],[66.7707,76.9123],[66.6541,76.9007],[66.6295,76.8818],[66.5455,76.8636],[66.4619,76.8605],[66.4097,76.8492],[66.3817,76.8283],[66.3467,76.8207],[66.3421,76.8195],[66.2099,76.8108],[64.4998,76.4384],[61.9315,76.2948],[61.9276,76.2974],[61.9035,76.2932],[61.9029,76.2932],[61.7567,76.2943],[61.7185,76.3114],[61.637,76.312],[61.606,76.297],[61.5698,76.2982],[61.5694,76.2982],[61.2022,76.2826],[61.1907,76.2805],[61.181,76.28],[61.0769,76.28],[61.0438,76.2733],[60.9958,76.2464],[60.9937,76.2308],[61.0149,76.2221],[60.4631,76.1145],[60.2681,76.1101],[60.0837,76.0697],[60.0427,76.0541],[60.0773,76.0394],[59.5399,75.9347],[59.3987,75.9374],[59.366,75.9282],[59.3599,75.9089],[59.3446,75.9076],[59.1106,75.8746],[58.9954,75.8711],[58.9667,75.8672],[58.931,75.8676],[58.75,75.833],[58.7269,75.819],[58.7247,75.8019],[58.6867,75.7889],[58.6099,75.7821],[58.5361,75.76],[58.5536,75.753],[58.4194,75.7201],[58.3111,75.7029],[58.3063,75.7025],[58.2972,75.7007],[58.2439,75.6922],[58.0193,75.6813],[57.9443,75.6549],[57.9255,75.629],[57.9497,75.6249],[57.8686,75.6091],[56.1088,75.1934],[56.082,75.1976],[56.1032,75.2112],[56.0379,75.2176],[55.9182,75.1976],[55.8704,75.1634],[55.8084,75.1566],[55.784,75.1228],[55.7468,75.1082],[55.7468,75.1079],[55.633,75.081],[55.6332,75.0806],[55.633,75.0806],[55.8296,74.7502],[55.709,74.6838],[55.6851,74.6798],[55.6123,74.6761],[55.5296,74.6549],[55.5324,74.6303],[55.561,74.6145],[55.4998,74.567],[55.6361,74.5734],[55.6618,74.5566],[55.6943,74.5509],[55.4049,74.4449],[55.3884,74.4451],[55.3496,74.4338],[55.2801,74.3992],[53.6657,73.808],[53.6536,73.8125],[53.6491,73.8019],[53.5089,73.7506],[53.5094,73.7505],[53.5091,73.7504],[53.5094,73.7504],[53.5089,73.7502],[53.776,73.7143],[53.855,73.6831],[53.8788,73.6675],[53.9459,73.6517],[53.9568,73.6471],[53.947,73.6316],[54.0259,73.6174],[54.2034,73.5411],[54.1793,73.5208],[53.5308,73.2424],[53.5125,73.2393],[53.4843,73.2368],[53.4338,73.2443],[53.3225,73.2209],[53.1897,73.1733],[53.1556,73.1506],[53.1538,73.1064],[53.1219,73.1009],[53.1583,73.0826],[52.6636,72.8703],[52.6167,72.8632],[52.5535,72.8232],[52.5002,72.808],[52.4803,72.7916],[52.4433,72.7757],[52.4433,72.7753],[52.4448,72.7522],[52.3941,72.752],[52.3753,72.7304],[52.3976,72.7179],[52.4474,72.713],[52.4763,72.2746],[52.4658,72.2756],[52.4165,72.2893],[52.4136,72.2695],[52.4637,72.2608],[52.4719,72.2559],[52.4613,72.2533],[52.4363,72.2275],[52.402,72.2232],[52.4147,72.2155],[52.0329,72.1359],[51.8857,72.1526],[51.8853,72.1526],[51.8798,72.1519],[51.8657,72.1587],[51.8431,72.1579],[51.7846,72.1362],[51.6888,72.1093],[51.61,72.0917],[51.5529,72.0526],[51.5573,72.0481],[51.5407,72.0332],[51.4569,72.0158],[51.457,72.0154],[51.4569,72.0154],[51.4683,71.9723],[51.4396,71.9422],[51.4014,71.8705],[51.4095,71.8061],[51.4064,71.7816],[51.4245,71.7368],[51.4719,71.7106],[51.4675,71.6925],[51.5023,71.6641],[51.5109,71.6488],[51.5452,71.6149],[51.5529,71.6035],[51.5324,71.5659],[51.582,71.5447],[51.5993,71.4798],[50,71],[31,71],[31,70.5223],[31.2935,70.4535],[31.2929,70.4534],[31.2933,70.4533],[31.293,70.4532],[31.2935,70.4531],[31.0222,70.3969],[31.0633,70.3668],[31.0194,70.3399],[31.0217,70.3251],[31.0664,70.3005],[31.077,70.2842],[31.0412,70.2849],[31,70.2768],[31,69.9],[30.9498,69.7895],[31.0322,69.7771],[30.841,69.8058],[30.844,69.7662],[30.8771,69.7376],[30.8843,69.7024],[30.9277,69.6721],[30.927,69.5784],[30.8982,69.5442],[30.853,69.5274],[30.7553,69.5215],[30.5117,69.5363],[30.4807,69.5441],[30.2944,69.6202],[30.2307,69.6373],[30.1861,69.6413],[30.1191,69.6346],[30.1486,69.6185],[30.2088,69.6087],[30.2287,69.5821],[30.2247,69.5408],[30.164,69.5118],[30.145,69.4911],[30.1374,69.453],[30.1234,69.4419],[30.0018,69.3946],[29.9481,69.3656],[29.9007,69.3582],[29.7514,69.3572],[29.6618,69.325],[29.6043,69.3152],[29.4346,69.3118],[29.3768,69.3016],[29.3345,69.2774],[29.3023,69.2008],[29.2688,69.1667],[29.2405,69.1151],[29.173,69.0694],[29.1203,69.0468],[29.0648,69.0347],[29.0081,69.0369],[28.9541,69.0273],[28.8335,68.9845],[28.7133,68.968],[28.4562,68.9001],[28.4102,68.8985],[28.4131,68.8801],[28.4442,68.8658],[28.6457,68.8717],[28.7283,68.865],[28.8015,68.8355],[28.7473,68.7601],[28.7164,68.728],[28.4599,68.5424],[28.4474,68.5149],[28.461,68.4911],[28.6638,68.204],[28.6903,68.1832],[28.7272,68.1727],[29.2987,68.0818],[29.3602,68.0567],[29.6512,67.8236],[29.7138,67.7925],[30.0094,67.6858],[29.9777,67.6622],[29.9647,67.5847],[29.9334,67.5264],[29.9162,67.5081],[29.5198,67.2982],[29.4907,67.263],[29.4294,67.2328],[29.1001,66.9912],[29.0515,66.9078],[29.0892,66.8375],[29.3222,66.6801],[29.3625,66.6266],[29.3924,66.6053],[29.4095,66.5685],[29.5245,66.4912],[29.5462,66.432],[29.5697,66.3782],[29.5932,66.3459],[29.6509,66.2879],[29.7924,66.1809],[29.8754,66.1336],[29.9002,66.1081],[29.9205,66.0686],[29.9585,65.9739],[30.0097,65.9157],[30.0393,65.8654],[30.0751,65.8228],[30.1117,65.712],[30.1139,65.6655],[30.0985,65.6564],[30.003,65.6781],[29.7643,65.6481],[29.7029,65.6294],[29.7323,65.6087],[29.8067,65.5849],[29.8386,65.5649],[29.8258,65.552],[29.7455,65.5114],[29.7315,65.4969],[29.7182,65.4542],[29.7306,65.3654],[29.7201,65.3291],[29.6151,65.2694],[29.5801,65.2354],[29.6267,65.2152],[29.7668,65.2174],[29.8332,65.205],[29.8393,65.1669],[29.8091,65.1452],[29.8203,65.1265],[29.8502,65.1215],[29.8205,65.0937],[29.6678,65.0779],[29.6273,65.0622],[29.5984,65.0344],[29.5881,64.9914],[29.6336,64.9072],[29.6983,64.8391],[29.7803,64.7956],[29.8778,64.7848],[30.0625,64.7842],[30.1189,64.7679],[30.1091,64.7201],[30.1705,64.6817],[30.1878,64.6624],[30.1808,64.6428],[30.1364,64.6154],[29.9658,64.5786],[29.97,64.5454],[29.9905,64.5042],[30.0358,64.4915],[30.0704,64.4719],[30.0325,64.3969],[30.053,64.3781],[30.0931,64.3612],[30.1644,64.3419],[30.3211,64.3177],[30.3705,64.3008],[30.446,64.2508],[30.5034,64.2438],[30.5585,64.2197],[30.5325,64.1792],[30.5328,64.1625],[30.5864,64.0847],[30.5805,64.0511],[30.5523,64.0217],[30.5093,63.9914],[30.3286,63.896],[30.2656,63.8307],[30.2015,63.7926],[30.0513,63.7638],[29.9984,63.7471],[29.9808,63.7415],[30.0011,63.7153],[30.2425,63.5818],[30.3805,63.5325],[30.4887,63.4621],[30.8209,63.3757],[30.9749,63.2892],[31.1778,63.2252],[31.2257,63.196],[31.2508,63.1155],[31.2885,63.0847],[31.3803,63.0479],[31.4445,63.0019],[31.5054,62.9682],[31.5358,62.9195],[31.5695,62.9059],[31.4413,62.7887],[31.4106,62.7465],[31.3633,62.6516],[31.347,62.6293],[31.3028,62.596],[31.2438,62.5033],[31.153,62.4674],[31.1234,62.4348],[30.9806,62.3588],[30.9419,62.3146],[30.9076,62.2929],[30.7938,62.253],[30.7038,62.2104],[30.635,62.184],[30.6072,62.1513],[30.4807,62.0677],[30.3396,61.9917],[30.1456,61.8505],[29.9777,61.7282],[29.8422,61.6602],[29.7791,61.5931],[29.6351,61.5111],[29.5397,61.485],[29.4991,61.4592],[29.4634,61.4138],[29.3184,61.3384],[29.2771,61.3046],[29.2032,61.2459],[29.1301,61.2134],[28.9808,61.1681],[28.9264,61.1479],[28.8555,61.1127],[28.7976,61.0968],[28.7502,61.0614],[28.689,61.0274],[28.6146,60.9619],[28.5264,60.9502],[28.4809,60.9335],[28.3359,60.8594],[28.2439,60.7916],[28.1481,60.7577],[28.0038,60.6642],[27.893,60.6043],[27.8079,60.553],[27.7877,60.565],[27.7877,60.4901],[27.8274,60.4919],[27.867,60.4936],[28.0256,60.5006],[28.0711,60.5026],[28.1898,60.4489],[28.0568,59.7839],[28.007,59.7582],[27.9934,59.7033],[28.0159,59.6597],[27.9951,59.7],[20,59.7],[20,58.5],[20.5,57],[21.0857,55.5776],[21.0582,55.4766],[21.015,55.4019],[20.9488,55.336],[20.9403,55.3276],[20.9066,55.2941],[20.8998,55.2873],[20.8458,55.2318],[20.8262,55.2166],[20.6802,55.1033],[20.674,55.0991],[20.5659,55.0257],[20.2632,54.9547],[20.2514,54.9549],[20.2058,54.9584],[20.1844,54.9561],[20.1082,54.9575],[20.1078,54.9575],[20.0939,54.9537],[20.075,54.9544],[20.0337,54.9482],[19.9959,54.9681],[19.9767,54.9646],[19.9408,54.9344],[19.9207,54.8896],[19.9267,54.8758],[19.8882,54.8668],[19.7801,54.657],[19.7291,54.558],[19.7076,54.5163],[19.6519,54.4857],[19.6133,54.4645],[19.6133,54.4588],[19.6095,54.4567]]],[[[44.8472,80.5899],[45.2336,80.5846],[45.3909,80.5597],[45.4322,80.5559],[45.489,80.5242],[45.5153,80.5198],[45.6223,80.5344],[45.6369,80.5373],[45.6393,80.5371],[45.6397,80.5371],[45.7805,80.5511],[45.783,80.5498],[45.8359,80.5513],[45.9214,80.5652],[45.9706,80.5701],[46.0245,80.5406],[46.0373,80.5202],[46.0293,80.515],[46.0213,80.4886],[46.0304,80.4651],[46.084,80.4399],[46.4805,80.4597],[46.5301,80.4741],[46.5238,80.4803],[46.5884,80.5198],[46.6448,80.515],[46.6873,80.5293],[46.6458,80.5496],[46.6765,80.5614],[46.781,80.5614],[46.9924,80.5527],[47.0142,80.5602],[47.0714,80.5594],[46.5033,80.2467],[46.5037,80.2466],[46.5035,80.2465],[46.5036,80.2465],[46.5033,80.2463],[47.5869,80.0093],[47.5873,80.0093],[48.2926,80.1096],[48.3181,80.1004],[48.3724,80.0918],[48.4439,80.1008],[48.5106,80.1242],[48.5342,80.144],[48.7032,80.168],[48.7339,80.1591],[48.9691,80.1519],[48.9894,80.1662],[49.0856,80.1724],[49.1072,80.1895],[49.0687,80.1997],[49.0089,80.2085],[49.0006,80.2245],[49.0379,80.2413],[48.9426,80.273],[48.9263,80.2761],[48.9229,80.2771],[48.9203,80.2773],[48.896,80.2819],[48.8459,80.2831],[48.8941,80.3394],[49.2748,80.3715],[49.4904,80.3635],[49.8162,80.401],[49.8201,80.4181],[51.1369,80.5475],[51.3595,80.6356],[51.4368,80.6474],[51.7009,80.6769],[51.744,80.7143],[51.6893,80.7273],[51.6115,80.7308],[51.5905,80.7406],[51.456,80.744],[51.395,80.7609],[51.3869,80.7622],[51.3097,80.7832],[51.3127,80.79],[51.2919,80.7881],[50.9255,80.8877],[50.9221,80.8887],[50.8784,80.9116],[50.8267,80.9191],[50.8038,80.9138],[50.8021,80.9142],[50.8017,80.9142],[50.4313,80.9107],[50.4276,80.9111],[50.397,80.9211],[50.3291,80.9225],[50.2801,80.9281],[50.2797,80.9281],[50.2717,80.9279],[50.2372,80.9335],[50.1457,80.9251],[50.1249,80.9246],[50.0481,80.9172],[50.0389,80.9186],[50.0385,80.9186],[50.0094,80.9136],[49.5093,80.8656],[49.2429,80.8222],[49.2242,80.8012],[49.0037,80.7757],[49.0868,80.7751],[49.1135,80.7695],[49.0747,80.7585],[48.992,80.7476],[48.9553,80.7348],[48.9989,80.7191],[49.0089,80.7181],[48.5582,80.529],[48.551,80.5313],[48.5654,80.5429],[48.5257,80.5445],[48.4948,80.5516],[48.4262,80.6422],[48.4957,80.6376],[48.5072,80.6347],[48.6406,80.6249],[48.7268,80.6107],[48.7505,80.6174],[48.764,80.6596],[48.6853,80.672],[48.6853,80.718],[48.6185,80.7477],[48.6548,80.7552],[48.4963,80.7981],[48.4584,80.8037],[48.4477,80.8066],[48.3957,80.8128],[48.2752,80.8305],[48.193,80.8224],[47.9004,80.8135],[47.7725,80.8247],[47.5363,80.8567],[47.4448,80.8534],[47.4433,80.8535],[47.3529,80.8535],[47.3088,80.8484],[47.1382,80.8422],[47.092,80.831],[47.1075,80.8252],[47.0217,80.8153],[46.8577,80.7719],[46.7985,80.7714],[46.5238,80.7459],[46.4416,80.7453],[46.4179,80.7394],[46.3269,80.7354],[45.1245,80.6521],[45.1139,80.6502],[45.0947,80.6492],[45.0054,80.634],[44.9071,80.63],[44.8574,80.6174],[44.896,80.6049],[44.9713,80.6018],[44.8472,80.5903],[44.8493,80.5903],[44.8474,80.5901],[44.8491,80.5901],[44.8472,80.5899]]],[[[49.5313,80.1588],[49.5754,80.1363],[49.5985,80.1341],[49.6702,80.1197],[49.7344,80.1025],[49.7879,80.0962],[49.791,80.0956],[49.8831,80.0699],[49.969,80.0599],[49.9701,80.0597],[49.9707,80.0597],[50.0002,80.0563],[50.0813,80.0681],[50.057,80.081],[50.0607,80.0886],[50.0868,80.1035],[50.0734,80.1105],[50.2822,80.1631],[50.3176,80.1678],[50.3356,80.1816],[50.3186,80.196],[50.2565,80.2167],[50.2513,80.2198],[50.2467,80.2199],[50.2285,80.226],[49.8986,80.234],[49.8865,80.2301],[49.8841,80.2302],[49.8837,80.2302],[49.7552,80.2023],[49.5607,80.1729],[49.5313,80.1588]]],[[[50.0453,79.9744],[50.1585,79.9696],[50.4525,79.9243],[50.4529,79.9243],[51.0706,79.9311],[51.4201,79.9164],[51.4661,79.9201],[51.5051,79.9334],[51.4702,79.9443],[51.3828,79.9554],[51.3786,79.9552],[51.3661,79.9596],[51.3884,79.967],[51.3467,79.9771],[51.2912,79.9807],[51.2413,79.9907],[51.2378,80.0095],[51.2557,80.0493],[51.2555,80.0493],[51.2557,80.0497],[51.2493,80.0506],[51.2648,80.0563],[51.19,80.0589],[51.0532,80.0782],[51.001,80.1025],[50.9636,80.1019],[50.9395,80.0942],[50.9353,80.0948],[50.9349,80.0948],[50.719,80.0557],[50.6926,80.0535],[50.6782,80.0483],[50.6757,80.0479],[50.4741,80.0358],[50.1306,79.9858],[50.0549,79.9788],[50.0453,79.9744]]],[[[50.3474,81.091],[50.4303,81.0775],[50.4669,81.0641],[50.4409,81.0483],[50.391,81.0364],[50.3743,81.0228],[50.4094,81.0131],[50.4515,81.0165],[50.5619,81.0433],[50.6145,81.0405],[50.6149,81.0405],[50.6741,81.0435],[50.7502,81.0412],[50.7744,81.044],[50.7791,81.0624],[50.7766,81.0635],[50.7877,81.0718],[50.8685,81.0904],[50.938,81.0917],[50.9768,81.1059],[50.9121,81.143],[50.8198,81.1662],[50.778,81.1702],[50.7264,81.1697],[50.7157,81.1711],[50.7153,81.1711],[50.5929,81.1694],[50.5861,81.1684],[50.5296,81.1679],[50.4909,81.1592],[50.5118,81.1502],[50.5065,81.1451],[50.4633,81.126],[50.4419,81.1252],[50.3674,81.1252],[50.3702,81.1225],[50.3697,81.1225],[50.3698,81.1221],[50.3697,81.1221],[50.3769,81.103],[50.3787,81.102],[50.3474,81.091]]],[[[52.1829,80.2761],[52.2131,80.2629],[52.2129,80.2628],[52.2158,80.2617],[52.3047,80.2227],[52.3425,80.2125],[52.3566,80.2087],[52.5564,80.2011],[52.6053,80.1916],[52.6201,80.1854],[52.6229,80.1833],[52.645,80.1723],[53.4899,80.1718],[53.513,80.1799],[53.5161,80.1846],[53.5201,80.1847],[53.6533,80.2229],[53.6981,80.2247],[53.7048,80.2208],[53.7637,80.2226],[53.8208,80.2413],[53.8695,80.2709],[53.8618,80.2761],[53.6805,80.2945],[53.4877,80.324],[53.3473,80.3674],[53.3346,80.3918],[53.3411,80.399],[53.3297,80.4013],[53.3293,80.4021],[53.3239,80.4025],[53.2937,80.4086],[53.2053,80.4111],[53.1853,80.4125],[53.1849,80.4125],[53.17,80.412],[53.1496,80.4126],[53.1376,80.411],[52.9938,80.4065],[52.9505,80.4126],[52.8595,80.4055],[52.771,80.3803],[52.6983,80.3677],[52.6843,80.358],[52.699,80.3355],[52.7009,80.3352],[52.6809,80.3188],[52.6729,80.3172],[52.6004,80.3151],[52.5972,80.3021],[52.5765,80.2979],[52.4714,80.2908],[52.3055,80.2929],[52.1829,80.2761]]],[[[53.798,80.4729],[54.239,80.4202],[54.2631,80.4223],[54.2757,80.4208],[54.2761,80.4208],[54.2854,80.4243],[54.3338,80.4285],[54.367,80.4545],[54.3735,80.4569],[54.4299,80.4644],[54.4651,80.4815],[54.4583,80.5014],[54.4289,80.5111],[54.4063,80.5402],[54.4098,80.5429],[54.3817,80.5435],[54.2041,80.5618],[54.1768,80.5733],[54.2207,80.5784],[54.315,80.5771],[54.2691,80.5887],[53.8833,80.6107],[53.8535,80.6001],[53.8413,80.5737],[53.8587,80.5544],[53.8908,80.5473],[53.9013,80.5423],[53.9013,80.5149],[53.8726,80.509],[53.8376,80.5051],[53.8423,80.4985],[53.8113,80.4767],[53.8117,80.4767],[53.8115,80.4765],[53.8116,80.4765],[53.8113,80.4763],[53.8156,80.4758],[53.798,80.4729]]],[[[53.9846,80.8285],[53.9904,80.8027],[54.0117,80.7962],[54.5427,80.78],[54.5457,80.7805],[54.6213,80.7645],[54.6681,80.7385],[54.6685,80.7385],[54.6893,80.7391],[54.8767,80.7211],[55.1952,80.7435],[55.4379,80.7155],[55.4317,80.7143],[55.4955,80.7003],[55.5488,80.7002],[55.6221,80.6722],[55.6028,80.6658],[55.6444,80.6494],[55.6808,80.6498],[55.7122,80.6378],[55.885,80.6274],[55.8854,80.6274],[56.3174,80.6326],[56.3425,80.6342],[56.3291,80.6249],[56.9279,80.663],[56.9371,80.6785],[57.054,80.6926],[57.0588,80.6918],[57.5623,80.7484],[57.6343,80.7725],[57.7068,80.7827],[57.7161,80.7932],[57.6813,80.8168],[56.9631,80.9052],[56.9114,80.9125],[56.6344,80.9673],[56.6233,80.9818],[56.4936,80.9951],[56.4722,80.9993],[56.1698,81.0288],[56.1694,81.0288],[56.1645,81.0287],[56.0192,81.0436],[55.7813,81.024],[55.4714,81.0201],[55.4545,81.0222],[55.3216,81.05],[55.1135,81.0655],[54.7549,81.111],[54.7204,81.1196],[54.6472,81.1223],[54.5443,81.0838],[54.5524,81.0671],[54.544,81.0622],[54.4549,81.0486],[54.4173,81.0085],[54.4397,81.001],[54.4161,80.9871],[54.3657,80.9038],[54.2397,80.9021],[54.0453,80.8725],[54.0454,80.8721],[54.0453,80.8721],[54.056,80.8428],[53.9846,80.8285]]],[[[54.9378,80.2641],[54.9544,80.2386],[54.9966,80.2376],[55.0757,80.2193],[55.2349,80.2279],[55.2762,80.2399],[55.3474,80.2516],[55.4241,80.2596],[55.4983,80.2772],[55.5241,80.3063],[55.4988,80.3168],[55.3517,80.3334],[55.2964,80.3322],[55.2466,80.3253],[55.241,80.3257],[55.2406,80.3257],[55.2196,80.3215],[55.071,80.3008],[55.0666,80.2921],[55.0778,80.2909],[54.9923,80.2613],[54.9378,80.2641]]],[[[55.4317,81.2759],[55.5118,81.2759],[55.57,81.2294],[55.5606,81.2231],[55.575,81.2122],[55.6468,81.2003],[55.6709,81.2005],[55.7158,81.1881],[55.7162,81.1881],[55.7848,81.1934],[55.8244,81.1865],[56.1946,81.2236],[56.3638,81.1777],[56.4129,81.1765],[56.4312,81.1745],[56.4664,81.1753],[56.5114,81.1742],[56.5118,81.1742],[56.5274,81.1766],[56.6145,81.1785],[56.7083,81.2039],[56.8768,81.2284],[57.115,81.1857],[57.0685,81.1843],[56.9944,81.1662],[57.3898,81.1238],[57.7005,81.1372],[57.7708,81.148],[57.8366,81.1822],[57.9082,81.196],[58.0838,81.2145],[58.0265,81.234],[57.9899,81.2394],[58.0166,81.2541],[58.0163,81.2542],[58.0164,81.2543],[58.0163,81.2543],[58.0166,81.2545],[57.9122,81.3031],[57.8585,81.3686],[58.1248,81.3776],[58.3057,81.3769],[58.3512,81.3853],[58.373,81.386],[58.4438,81.3982],[58.5176,81.4028],[58.5705,81.4132],[58.562,81.4187],[58.5638,81.419],[58.5634,81.4192],[58.5636,81.4192],[58.5633,81.4193],[58.5638,81.4194],[58.5572,81.4218],[58.5444,81.43],[58.4742,81.4515],[58.4378,81.4645],[58.4305,81.4648],[58.3999,81.4742],[58.0535,81.4819],[58.0166,81.4836],[57.8618,81.5062],[57.8576,81.5096],[57.864,81.5162],[57.8405,81.523],[57.8128,81.545],[57.823,81.5503],[57.784,81.5648],[57.7249,81.5637],[57.7178,81.5652],[57.7174,81.5652],[57.6942,81.5632],[57.5142,81.56],[57.4845,81.5514],[57.5014,81.5466],[57.4546,81.5426],[57.3647,81.5357],[57.0914,81.5409],[57.091,81.5409],[57.0727,81.5364],[57.013,81.5368],[56.9461,81.5224],[56.9832,81.5141],[56.9722,81.5114],[56.8789,81.4786],[56.7925,81.4723],[56.7405,81.4535],[56.7551,81.4499],[56.7923,81.4482],[56.7202,81.4229],[56.4138,81.3876],[56.3359,81.3852],[56.3549,81.3701],[56.1551,81.3031],[55.781,81.3291],[55.7806,81.3291],[55.7064,81.325],[55.7121,81.3306],[55.6109,81.3197],[55.5742,81.3177],[55.4657,81.3244],[55.496,81.3134],[55.4674,81.3118],[55.4678,81.3114],[55.4674,81.3114],[55.492,81.2917],[55.4588,81.2881],[55.4317,81.2759]]],[[[55.7121,80.1035],[55.7283,80.1038],[55.813,80.0875],[55.899,80.0852],[55.9486,80.0784],[56.9568,80.0663],[57.0775,80.083],[57.1179,80.096],[57.1384,80.1178],[57.0739,80.1369],[57.0735,80.1397],[57.1062,80.1773],[57.1193,80.1797],[57.1536,80.199],[57.1207,80.2122],[57.1233,80.3003],[57.131,80.3061],[57.1237,80.3146],[57.1238,80.3166],[57.1238,80.317],[57.1172,80.3223],[57.0977,80.3452],[57.0847,80.3484],[57.0806,80.3517],[57.0652,80.3533],[57.022,80.364],[56.9494,80.365],[56.9438,80.3656],[56.9434,80.3656],[56.9208,80.3654],[56.7123,80.3684],[56.7086,80.3639],[56.7058,80.3639],[56.6554,80.3309],[56.4567,80.3342],[56.1299,80.3512],[56.0328,80.3412],[56.0258,80.3413],[56.0254,80.3413],[56.0236,80.3402],[55.9893,80.3367],[55.9728,80.3232],[55.9924,80.3042],[55.9928,80.3016],[55.9523,80.2618],[56.0049,80.2364],[56.0057,80.2321],[55.9939,80.2134],[56.0099,80.2095],[56.0109,80.2042],[55.9426,80.1643],[55.7997,80.1258],[55.7121,80.1035]]],[[[56.0956,81.091],[56.1442,81.0924],[56.7993,81.0275],[56.8457,81.0136],[56.8967,81.0161],[56.9187,81.0085],[56.8973,80.9928],[56.9324,80.9743],[57.0142,80.9619],[57.1463,80.9617],[57.2014,80.9539],[57.2341,80.9333],[57.1986,80.9061],[57.2316,80.9071],[57.3364,80.8918],[57.4407,80.8837],[57.5344,80.8627],[57.8183,80.8539],[57.8713,80.8264],[57.8442,80.8247],[57.8157,80.8099],[57.8825,80.7873],[57.997,80.7875],[58.256,80.7669],[58.4212,80.7488],[58.5427,80.7543],[58.6272,80.7678],[58.643,80.768],[58.8424,80.7776],[58.8955,80.7737],[58.9344,80.7807],[58.9886,80.8037],[59.014,80.8232],[58.9602,80.8719],[58.9289,80.8821],[58.9084,80.8844],[58.9022,80.8986],[58.8158,80.9333],[58.7618,80.9906],[58.6825,81.02],[58.6966,81.0247],[58.6537,81.0438],[58.5244,81.0588],[58.5062,81.0618],[58.4288,81.0699],[58.1627,81.1007],[58.103,81.1139],[58.049,81.1191],[58.0486,81.1191],[57.6563,81.0323],[57.4647,81.0431],[57.2564,81.0648],[57.1743,81.0569],[56.9443,81.0725],[56.8308,81.0935],[56.7775,81.0974],[56.7029,81.1131],[56.2249,81.1079],[56.1712,81.1213],[56.1239,81.1186],[56.0956,81.091]]],[[[56.9461,80.4815],[57.0176,80.4659],[57.0838,80.4451],[57.1846,80.3965],[57.2089,80.3697],[57.1924,80.3642],[57.211,80.355],[57.2134,80.3288],[57.2487,80.2588],[57.2197,80.2413],[57.2676,80.2215],[57.2818,80.1934],[57.2832,80.1924],[57.2806,80.1904],[57.2902,80.169],[57.4263,80.1278],[57.4972,80.1303],[57.6054,80.1206],[57.7131,80.0988],[57.9705,80.0989],[58.0149,80.111],[57.991,80.1171],[57.9816,80.1315],[58.1211,80.1814],[58.1426,80.1802],[58.2513,80.1867],[58.4065,80.1656],[58.4468,80.1799],[58.4263,80.1867],[58.4671,80.2095],[58.4606,80.2351],[58.4294,80.2419],[58.2829,80.242],[58.2866,80.2472],[58.2866,80.2476],[58.283,80.2975],[58.3105,80.3025],[58.322,80.3036],[58.3385,80.3076],[58.3982,80.3184],[58.4629,80.3202],[58.5579,80.3153],[58.5876,80.3212],[58.5881,80.3238],[58.939,80.3337],[59.2761,80.33],[59.2394,80.3592],[59.1934,80.3785],[59.0021,80.4099],[58.9706,80.416],[58.9566,80.4174],[58.8987,80.4269],[58.8563,80.4273],[58.6936,80.4435],[58.6804,80.446],[58.6606,80.4468],[58.481,80.4646],[58.4743,80.4647],[58.4524,80.4681],[57.4831,80.4767],[57.077,80.4941],[57.0766,80.4941],[57.043,80.4806],[56.9461,80.4815]]],[[[57.8913,81.708],[57.9894,81.6901],[58.2954,81.7142],[59.3556,81.7533],[59.3623,81.7806],[59.358,81.7819],[59.3933,81.8114],[59.44,81.8178],[59.4031,81.8366],[59.3315,81.8412],[59.2622,81.8551],[59.2618,81.8551],[59.2386,81.8545],[59.2147,81.8587],[58.1561,81.8303],[58.137,81.8273],[58.135,81.8273],[58.1286,81.8261],[58.07,81.817],[57.9778,81.8166],[57.9397,81.8036],[57.9782,81.7906],[57.9442,81.7475],[57.9252,81.7338],[57.9119,81.7347],[57.8913,81.708]]],[[[58.4695,81.3475],[58.4812,81.3236],[58.5635,81.3244],[58.6546,81.3066],[59.0544,81.2871],[59.1211,81.2937],[59.2615,81.3015],[59.2852,81.3],[59.3425,81.3043],[59.3854,81.3306],[59.3001,81.3642],[59.2459,81.3765],[59.1572,81.3867],[59.1097,81.3974],[59.0179,81.4034],[58.6692,81.3816],[58.5361,81.3518],[58.4695,81.3475]]],[[[58.7687,80.0211],[58.7927,80.0111],[58.9227,79.9921],[58.9198,79.9855],[58.92,79.9855],[58.9198,79.9851],[59.0922,79.9651],[59.1072,79.9625],[59.1682,79.9486],[59.1807,79.9432],[59.1737,79.9396],[59.2068,79.9289],[59.3721,79.9197],[59.4223,79.931],[59.5292,79.9407],[59.543,79.9396],[59.7376,79.9599],[59.8083,79.976],[59.9027,79.9924],[59.9273,79.9949],[59.9011,80.0016],[59.8393,80.0523],[59.8416,80.0707],[59.7863,80.0942],[59.6479,80.1044],[59.543,80.1191],[59.5426,80.1191],[59.5397,80.1188],[59.5291,80.1209],[58.7964,80.0436],[58.7687,80.0211]]],[[[59.2293,80.6441],[59.2898,80.6174],[59.2615,80.5979],[59.2861,80.582],[59.2907,80.5814],[59.287,80.5722],[59.2871,80.572],[59.287,80.5718],[59.2973,80.5431],[59.2736,80.5429],[59.242,80.5293],[59.3198,80.515],[59.3446,80.5041],[59.6099,80.4409],[59.6364,80.4312],[59.6869,80.4269],[59.9632,80.4431],[60.0291,80.4572],[60.1262,80.4628],[60.1873,80.4815],[60.1867,80.482],[60.2772,80.4937],[60.4035,80.477],[60.5608,80.4465],[61.0446,80.4052],[61.0845,80.4106],[61.1543,80.4345],[61.2821,80.447],[61.3652,80.4741],[61.3738,80.4938],[61.2777,80.5013],[61.282,80.5029],[61.2872,80.5043],[61.4207,80.5176],[61.6062,80.5293],[61.601,80.5368],[61.6618,80.5738],[61.688,80.5771],[61.6984,80.5888],[61.7605,80.6],[62.0723,80.6142],[62.116,80.6224],[62.1473,80.6391],[62.0962,80.6515],[62.1134,80.6829],[62.155,80.7075],[62.1741,80.7143],[62.2307,80.7279],[62.2771,80.762],[62.2752,80.7839],[62.2327,80.7984],[62.2219,80.8132],[62.2083,80.8227],[62.1184,80.8593],[62.1026,80.8673],[62.0978,80.8677],[62.0677,80.8799],[61.6026,80.8957],[61.5613,80.8925],[61.5519,80.8883],[61.3138,80.8621],[61.0582,80.8441],[60.564,80.8228],[60.4567,80.8044],[60.338,80.8024],[60.312,80.8108],[60.2664,80.8107],[60.2428,80.8306],[60.2562,80.831],[60.2244,80.8484],[60.1709,80.8539],[59.8514,80.8424],[59.8386,80.84],[59.7154,80.8361],[59.7137,80.8358],[59.6939,80.8371],[59.6165,80.8207],[59.593,80.817],[59.5906,80.8152],[59.5559,80.8078],[59.5088,80.8037],[59.5606,80.7923],[59.5498,80.784],[59.4958,80.7667],[59.4778,80.7577],[59.4046,80.7503],[59.3581,80.7273],[59.3655,80.7211],[59.2822,80.7],[59.3102,80.687],[59.2347,80.6611],[59.2293,80.6441]]],[[[60.0227,80.9954],[60.07,80.9796],[60.1257,80.9773],[60.315,80.9561],[60.3433,80.9486],[60.9878,80.922],[61.5998,81.0314],[61.6289,81.066],[61.6062,81.0774],[61.6514,81.0985],[61.7017,81.1053],[61.6799,81.1137],[60.6128,81.0925],[60.5924,81.0879],[60.5866,81.0878],[60.4266,81.0619],[60.3045,81.0512],[60.2562,81.0364],[60.2385,81.0314],[60.1498,81.017],[60.0623,81.0083],[60.0227,80.9954]]],[[[62.1058,81.6794],[62.1065,81.6794],[62.1065,81.6732],[62.4345,81.6627],[62.5147,81.6587],[62.5037,81.6528],[62.5339,81.6379],[62.5666,81.6348],[62.5738,81.6325],[62.6198,81.6289],[62.6909,81.6142],[63.2105,81.5927],[63.2966,81.5988],[63.4675,81.5891],[63.7122,81.6147],[63.7803,81.6389],[63.8059,81.6601],[63.7084,81.6866],[63.7082,81.6867],[63.7081,81.6867],[63.6776,81.695],[63.3696,81.6989],[62.7993,81.7195],[62.8047,81.7216],[62.6477,81.7216],[62.6037,81.7152],[62.4897,81.7125],[62.4613,81.7165],[62.3403,81.709],[62.2822,81.7076],[62.2588,81.7039],[62.2249,81.7018],[62.1065,81.6801],[62.1065,81.6799],[62.1058,81.6798],[62.1065,81.6798],[62.1065,81.6797],[62.106,81.6796],[62.1065,81.6796],[62.1065,81.6795],[62.1058,81.6794]]],[[[62.5086,80.8342],[62.5105,80.8101],[62.6165,80.7981],[62.6187,80.7976],[62.761,80.7628],[62.964,80.7204],[63.1307,80.6831],[63.3385,80.6996],[63.3734,80.7003],[63.7468,80.718],[63.7752,80.7136],[64.4256,80.7409],[64.4912,80.7532],[64.5356,80.7553],[64.5867,80.7552],[64.6382,80.7685],[64.7583,80.7851],[64.9998,80.8088],[65.0644,80.8356],[65.0935,80.8431],[65.1546,80.8499],[65.4458,80.9196],[65.4657,80.9349],[65.423,80.9725],[65.3887,80.9862],[65.3659,80.9887],[65.3613,81.0059],[65.45,81.0228],[65.4363,81.0371],[65.3763,81.0599],[65.3259,81.0879],[65.2611,81.124],[65.2298,81.1367],[65.1387,81.151],[65.0295,81.1694],[64.9909,81.1741],[64.8679,81.1934],[64.8402,81.1926],[64.8026,81.1972],[64.7482,81.1976],[64.7048,81.2053],[64.4229,81.1938],[64.2748,81.1691],[64.1902,81.1215],[64.1546,81.1146],[64.1204,81.0936],[64.1327,81.0824],[64.1891,81.0724],[64.165,81.0357],[64.0966,80.9993],[63.8894,80.9843],[63.748,80.9819],[63.6142,80.9819],[63.4466,80.9767],[63.1423,80.9714],[63.1191,80.9665],[63.1138,80.9663],[63.0858,80.9594],[63.0365,80.9489],[63.025,80.9444],[62.8186,80.8934],[62.7807,80.8867],[62.7705,80.8856],[62.5298,80.8438],[62.5086,80.8342]]]]}}
]}
