{
 "type": "FeatureCollection",
 "features": [
  {
   "type": "Feature",
   "properties": {
    "entityId": "ssangseong",
    "from": 1258,
    "to": 1356,
    "certainty": "estimated",
    "source": "중고등학교 한국사 교과서 시대별 지도의 일반적인 경계를 따른 대략적인 추정. 운영자 검수 필요"
   },
   "geometry": {
    "type": "Polygon",
    "coordinates": [
     [
      [
       128.1,
       39.05
      ],
      [
       127.55,
       38.95
      ],
      [
       127.3,
       39.2
      ],
      [
       127,
       39.6
      ],
      [
       127,
       39.95
      ],
      [
       127.4,
       39.8
      ],
      [
       127.8,
       39.7
      ],
      [
       128.1,
       39.05
      ]
     ]
    ]
   }
  }
 ]
}
