{"type":"FeatureCollection","features":[
{"type":"Feature","properties":{"entityId":"strathclyde","from":476,"to":927,"certainty":"estimated","source":"유럽 쪽은 Natural Earth 1:10m admin-1(v5.1.2) 현대 행정구역 조각을 그 시기 국경에 맞춰 묶고, 조각이 역사 경계와 다른 곳은 선을 그어 나눈 근사. 유럽 밖(시베리아·중앙아시아·극동)은 대략적인 추정. 운영자 검수 필요"},"geometry":{"type":"Polygon","coordinates":[[[-4.7872,55.5654],[-4.821,55.5936],[-4.8888,55.65],[-4.8951,55.6553],[-4.9353,55.6888],[-4.9755,55.7222],[-4.9374,55.7222],[-4.9374,55.7557],[-4.9374,55.7892],[-4.9511,55.7892],[-4.9511,55.824],[-4.9511,55.8588],[-4.9296,55.8588],[-4.9296,55.8936],[-4.9296,55.9283],[-4.9045,55.9283],[-4.8955,55.9283],[-4.8955,55.9631],[-4.8659,55.9631],[-4.8364,55.9631],[-4.8364,55.9513],[-4.8181,55.9556],[-4.8069,55.9561],[-4.7858,55.957],[-4.7773,55.9547],[-4.7773,55.972],[-4.7477,55.972],[-4.7182,55.972],[-4.7182,55.9633],[-4.6886,55.9633],[-4.6755,55.9633],[-4.6735,55.9619],[-4.6591,55.9567],[-4.6591,55.9326],[-4.6295,55.93],[-4.6268,55.9298],[-4.6099,55.9283],[-4.5999,55.9283],[-4.5999,55.9426],[-4.5906,55.9415],[-4.5978,55.9603],[-4.601,56.0003],[-4.599,56.0119],[-4.5981,56.0778],[-4.5758,56.0778],[-4.549,56.0732],[-4.5214,56.0724],[-4.5003,56.0627],[-4.4467,56.0538],[-4.4284,56.0455],[-4.4297,56.0411],[-4.4706,56.0286],[-4.4731,56.0172],[-4.4584,56.003],[-4.432,55.9985],[-4.4086,55.9758],[-4.3903,55.9716],[-4.3648,55.9756],[-4.3601,55.9763],[-4.3017,55.9572],[-4.2745,55.9588],[-4.2653,55.968],[-4.2678,55.988],[-4.2875,56.0166],[-4.2773,56.0252],[-4.2476,56.0194],[-4.1983,56.0197],[-4.1745,56.0105],[-4.1584,56.0258],[-4.1422,56.0286],[-4.1409,56.0086],[-4.1257,56.0055],[-4.082,56.0258],[-4.0178,56.0258],[-4.0113,56.0122],[-4.0075,56.0044],[-3.9728,56.0063],[-3.9681,55.9999],[-3.9747,55.9852],[-3.9372,55.9844],[-3.935,55.9688],[-3.9225,55.9575],[-3.865,55.9561],[-3.8661,55.9497],[-3.8939,55.9333],[-3.8564,55.9169],[-3.815,55.9064],[-3.8089,55.8952],[-3.8206,55.8891],[-3.7934,55.8719],[-3.7283,55.8833],[-3.7064,55.8769],[-3.7103,55.8702],[-3.745,55.858],[-3.7184,55.8124],[-3.7334,55.7835],[-3.7239,55.778],[-3.6881,55.7952],[-3.6112,55.8038],[-3.59,55.8016],[-3.565,55.7877],[-3.5228,55.7855],[-3.4579,55.7696],[-3.4359,55.7183],[-3.3945,55.7077],[-3.4795,55.6485],[-3.4781,55.6122],[-3.527,55.6002],[-3.4872,55.5602],[-3.485,55.515],[-3.5122,55.4922],[-3.5348,55.438],[-3.5003,55.4097],[-3.4437,55.4044],[-3.4106,55.4119],[-3.345,55.4119],[-3.3164,55.4383],[-3.2525,55.4288],[-3.2414,55.4188],[-3.3034,55.3849],[-3.3039,55.3427],[-3.285,55.3411],[-3.2075,55.3722],[-3.1642,55.3497],[-3.1045,55.3522],[-3.0984,55.3296],[-3.057,55.3072],[-3.0345,55.273],[-2.9975,55.2683],[-2.945,55.288],[-2.8912,55.278],[-2.8726,55.2619],[-2.8984,55.238],[-2.8689,55.2369],[-2.8639,55.2185],[-2.8842,55.2019],[-2.8895,55.1552],[-2.8595,55.1363],[-2.8503,55.1113],[-2.8831,55.0836],[-2.9223,55.0717],[-2.9538,55.041],[-3.015,55.0515],[-3.0303,55.0459],[-3.033,55.0152],[-3.0503,54.9815],[-3.0656,54.9791],[-3.1095,54.9722],[-3.1095,54.9356],[-3.1228,54.9327],[-3.1534,54.937],[-3.1534,54.9689],[-3.1973,54.9708],[-3.2412,54.9727],[-3.2851,54.9745],[-3.329,54.9764],[-3.329,54.9326],[-3.3729,54.9326],[-3.3729,54.936],[-3.4168,54.936],[-3.4607,54.936],[-3.4607,54.9146],[-3.4607,54.8886],[-3.4624,54.8886],[-3.4624,54.8627],[-3.5054,54.8627],[-3.5054,54.8367],[-3.5485,54.8367],[-3.5485,54.8111],[-3.5924,54.8111],[-3.5924,54.7847],[-3.6141,54.7847],[-3.6363,54.7847],[-3.6508,54.7847],[-3.6508,54.7584],[-3.6874,54.7584],[-3.6874,54.732],[-3.7241,54.732],[-3.7241,54.7203],[-3.768,54.7203],[-3.768,54.6894],[-3.8119,54.6894],[-3.8119,54.6681],[-3.8119,54.6618],[-3.8119,54.6405],[-3.8558,54.6468],[-3.8997,54.6532],[-4.0753,54.6787],[-4.3505,54.7186],[-4.3481,54.702],[-4.3719,54.6823],[-4.4053,54.6821],[-4.4612,54.7012],[-4.5056,54.7047],[-4.5544,54.7482],[-4.844,54.7902],[-4.8618,54.8104],[-4.8904,54.7713],[-4.9043,54.7187],[-4.896,54.7045],[-4.8673,54.6901],[-4.8721,54.6492],[-4.8591,54.633],[-4.9441,54.6528],[-4.9599,54.6755],[-4.9473,54.7012],[-4.9503,54.7124],[-5.0313,54.7609],[-5.1186,54.8422],[-5.1282,54.8489],[-5.1571,54.8791],[-5.1755,54.9146],[-5.1807,54.9544],[-5.1708,55.0087],[-5.1246,55.0168],[-5.1151,55.0316],[-5.0878,55.0013],[-5.0564,54.9888],[-5.0476,55.0047],[-5.0441,55.0109],[-5.047,55.0151],[-5.0476,55.0221],[-5.0817,55.061],[-5.0815,55.0612],[-5.0817,55.0614],[-4.8581,55.3361],[-4.7303,55.4931],[-4.7182,55.508],[-4.7533,55.5372],[-4.7872,55.5654]]]}},
{"type":"Feature","properties":{"entityId":"strathclyde","from":927,"to":945,"certainty":"estimated","source":"유럽 쪽은 Natural Earth 1:10m admin-1(v5.1.2) 현대 행정구역 조각을 그 시기 국경에 맞춰 묶고, 조각이 역사 경계와 다른 곳은 선을 그어 나눈 근사. 유럽 밖(시베리아·중앙아시아·극동)은 대략적인 추정. 운영자 검수 필요"},"geometry":{"type":"Polygon","coordinates":[[[-4.7872,55.5654],[-4.821,55.5936],[-4.8888,55.65],[-4.8951,55.6553],[-4.9353,55.6888],[-4.9755,55.7222],[-4.9374,55.7222],[-4.9374,55.7557],[-4.9374,55.7892],[-4.9511,55.7892],[-4.9511,55.824],[-4.9511,55.8588],[-4.9296,55.8588],[-4.9296,55.8936],[-4.9296,55.9283],[-4.9045,55.9283],[-4.8955,55.9283],[-4.8955,55.9631],[-4.8659,55.9631],[-4.8364,55.9631],[-4.8364,55.9513],[-4.8181,55.9556],[-4.8069,55.9561],[-4.7858,55.957],[-4.7773,55.9547],[-4.7773,55.972],[-4.7477,55.972],[-4.7182,55.972],[-4.7182,55.9633],[-4.6886,55.9633],[-4.6755,55.9633],[-4.6735,55.9619],[-4.6591,55.9567],[-4.6591,55.9326],[-4.6295,55.93],[-4.6268,55.9298],[-4.6099,55.9283],[-4.5999,55.9283],[-4.5999,55.9426],[-4.5906,55.9415],[-4.5978,55.9603],[-4.601,56.0003],[-4.599,56.0119],[-4.5981,56.0778],[-4.5758,56.0778],[-4.549,56.0732],[-4.5214,56.0724],[-4.5003,56.0627],[-4.4467,56.0538],[-4.4284,56.0455],[-4.4297,56.0411],[-4.4706,56.0286],[-4.4731,56.0172],[-4.4584,56.003],[-4.432,55.9985],[-4.4086,55.9758],[-4.3903,55.9716],[-4.3648,55.9756],[-4.3601,55.9763],[-4.3017,55.9572],[-4.2745,55.9588],[-4.2653,55.968],[-4.2678,55.988],[-4.2875,56.0166],[-4.2773,56.0252],[-4.2476,56.0194],[-4.1983,56.0197],[-4.1745,56.0105],[-4.1584,56.0258],[-4.1422,56.0286],[-4.1409,56.0086],[-4.1257,56.0055],[-4.082,56.0258],[-4.0178,56.0258],[-4.0113,56.0122],[-4.0075,56.0044],[-3.9728,56.0063],[-3.9681,55.9999],[-3.9747,55.9852],[-3.9372,55.9844],[-3.935,55.9688],[-3.9225,55.9575],[-3.865,55.9561],[-3.8661,55.9497],[-3.8939,55.9333],[-3.8564,55.9169],[-3.815,55.9064],[-3.8089,55.8952],[-3.8206,55.8891],[-3.7934,55.8719],[-3.7283,55.8833],[-3.7064,55.8769],[-3.7103,55.8702],[-3.745,55.858],[-3.7184,55.8124],[-3.7334,55.7835],[-3.7239,55.778],[-3.6881,55.7952],[-3.6112,55.8038],[-3.59,55.8016],[-3.565,55.7877],[-3.5228,55.7855],[-3.4579,55.7696],[-3.4359,55.7183],[-3.3945,55.7077],[-3.4795,55.6485],[-3.4781,55.6122],[-3.527,55.6002],[-3.4872,55.5602],[-3.485,55.515],[-3.5122,55.4922],[-3.5348,55.438],[-3.5003,55.4097],[-3.4437,55.4044],[-3.4106,55.4119],[-3.345,55.4119],[-3.3164,55.4383],[-3.2525,55.4288],[-3.2414,55.4188],[-3.3034,55.3849],[-3.3039,55.3427],[-3.285,55.3411],[-3.2075,55.3722],[-3.1642,55.3497],[-3.1045,55.3522],[-3.0984,55.3296],[-3.057,55.3072],[-3.0345,55.273],[-2.9975,55.2683],[-2.945,55.288],[-2.8912,55.278],[-2.8726,55.2619],[-2.8984,55.238],[-2.8689,55.2369],[-2.8639,55.2185],[-2.8842,55.2019],[-2.8895,55.1552],[-2.8595,55.1363],[-2.8503,55.1113],[-2.8225,55.1352],[-2.7189,55.1672],[-2.685,55.1908],[-2.6409,55.1321],[-2.5978,55.1236],[-2.5875,55.103],[-2.5473,55.0799],[-2.5053,55.0869],[-2.4853,55.0794],[-2.4948,55.058],[-2.482,55.0391],[-2.56,55.0119],[-2.5678,54.9861],[-2.592,54.9666],[-2.565,54.9577],[-2.5417,54.923],[-2.5703,54.893],[-2.5936,54.8827],[-2.5664,54.8583],[-2.5636,54.8236],[-2.5336,54.808],[-2.5,54.8052],[-2.4,54.8472],[-2.362,54.8108],[-2.305,54.7832],[-2.3272,54.7274],[-2.3539,54.6908],[-2.2909,54.6658],[-2.2792,54.6502],[-2.3056,54.6277],[-2.2853,54.588],[-2.2095,54.5522],[-2.1917,54.5313],[-2.1631,54.528],[-2.1552,54.4556],[-2.1942,54.4466],[-2.2447,54.448],[-2.2956,54.4177],[-2.2834,54.3827],[-2.3472,54.3502],[-2.3061,54.3205],[-2.3098,54.2433],[-2.3525,54.2505],[-2.4006,54.2283],[-2.4475,54.2302],[-2.4578,54.2383],[-2.5317,54.2086],[-2.5767,54.1961],[-2.6281,54.1991],[-2.6711,54.1586],[-2.7092,54.1644],[-2.7331,54.183],[-2.7923,54.1908],[-2.8364,54.1676],[-2.8401,54.1731],[-2.872,54.1731],[-2.872,54.1492],[-2.872,54.1353],[-2.872,54.1233],[-2.91,54.1233],[-2.91,54.0974],[-2.948,54.0974],[-2.948,54.1036],[-2.9801,54.1036],[-2.9801,54.0741],[-3.0121,54.0741],[-3.0441,54.0741],[-3.0762,54.1036],[-3.1,54.1255],[-3.1179,54.1088],[-3.1453,54.1],[-3.1454,54.0638],[-3.1898,54.0979],[-3.241,54.1121],[-3.2331,54.1592],[-3.2484,54.1737],[-3.2391,54.1754],[-3.2716,54.1969],[-3.3068,54.1919],[-3.3285,54.2047],[-3.4074,54.2777],[-3.4055,54.3013],[-3.4112,54.3061],[-3.556,54.4536],[-3.5919,54.4831],[-3.6342,54.5129],[-3.6116,54.5299],[-3.5909,54.5636],[-3.5912,54.5648],[-3.5911,54.5649],[-3.5912,54.5652],[-3.5887,54.5694],[-3.5871,54.574],[-3.6308,54.6142],[-3.7241,54.6277],[-3.768,54.6341],[-3.8119,54.6405],[-3.8558,54.6468],[-3.8997,54.6532],[-4.0753,54.6787],[-4.3505,54.7186],[-4.3481,54.702],[-4.3719,54.6823],[-4.4053,54.6821],[-4.4612,54.7012],[-4.5056,54.7047],[-4.5544,54.7482],[-4.844,54.7902],[-4.8618,54.8104],[-4.8904,54.7713],[-4.9043,54.7187],[-4.896,54.7045],[-4.8673,54.6901],[-4.8721,54.6492],[-4.8591,54.633],[-4.9441,54.6528],[-4.9599,54.6755],[-4.9473,54.7012],[-4.9503,54.7124],[-5.0313,54.7609],[-5.1186,54.8422],[-5.1282,54.8489],[-5.1571,54.8791],[-5.1755,54.9146],[-5.1807,54.9544],[-5.1708,55.0087],[-5.1246,55.0168],[-5.1151,55.0316],[-5.0878,55.0013],[-5.0564,54.9888],[-5.0476,55.0047],[-5.0441,55.0109],[-5.047,55.0151],[-5.0476,55.0221],[-5.0817,55.061],[-5.0815,55.0612],[-5.0817,55.0614],[-4.8581,55.3361],[-4.7303,55.4931],[-4.7182,55.508],[-4.7533,55.5372],[-4.7872,55.5654]]]}}
]}
