{"type":"FeatureCollection","features":[
{"type":"Feature","properties":{"entityId":"suebi-kingdom","from":476,"to":585,"certainty":"estimated","source":"유럽 쪽은 Natural Earth 1:10m admin-1(v5.1.2) 현대 행정구역 조각을 그 시기 국경에 맞춰 묶고, 조각이 역사 경계와 다른 곳은 선을 그어 나눈 근사. 유럽 밖(시베리아·중앙아시아·극동)은 대략적인 추정. 운영자 검수 필요"},"geometry":{"type":"Polygon","coordinates":[[[-7.0365,43.6089],[-7.0365,43.5781],[-7.0365,43.5544],[-7.0323,43.553],[-7.0319,43.5474],[-7.0309,43.5332],[-7.0432,43.5133],[-7.0277,43.5133],[-7.0383,43.4792],[-7.0469,43.4837],[-7.1127,43.4293],[-7.1609,43.4291],[-7.1669,43.3862],[-7.126,43.3727],[-7.1216,43.3368],[-7.0713,43.2977],[-7.051,43.2373],[-6.9656,43.195],[-6.9709,43.1517],[-6.9434,43.1326],[-6.8985,43.1491],[-6.8663,43.1753],[-6.8322,43.1399],[-6.8315,43.1202],[-6.869,43.0953],[-6.9452,43.0767],[-6.9634,43.0426],[-6.9885,43.0193],[-6.9664,42.9943],[-6.9452,43.0246],[-6.9137,42.9947],[-6.8689,42.9887],[-6.8369,42.9627],[-6.8283,42.9148],[-6.7953,42.9109],[-6.7709,42.8941],[-6.7194,42.9202],[-6.6357,42.9273],[-6.5621,42.9167],[-6.5016,42.9297],[-6.449,42.9511],[-6.4441,42.964],[-6.4812,42.9824],[-6.4147,43.0049],[-6.3928,43.0422],[-6.3649,43.0514],[-6.2344,43.0144],[-6.1997,43.041],[-6.1355,43.0271],[-6.1024,43.0348],[-6.0791,43.0651],[-6.0168,43.0573],[-5.9878,43.0623],[-5.9547,43.0176],[-5.889,42.9856],[-5.8448,42.9717],[-5.8048,42.9706],[-5.7699,42.9816],[-5.73,43.0406],[-5.6652,43.0483],[-5.6371,43.038],[-5.541,43.0218],[-5.4908,43.0286],[-5.4734,43.0511],[-5.4188,43.0519],[-5.3899,43.0638],[-5.3828,43.0853],[-5.361,43.0915],[-5.3075,43.0855],[-5.212,43.094],[-5.1595,43.1132],[-5.1181,43.1086],[-5.0955,43.1283],[-5.0721,43.1725],[-5.0083,43.1929],[-4.9085,43.2373],[-4.8594,43.2234],[-4.8319,43.1887],[-4.836,43.1351],[-4.8279,43.1081],[-4.7705,43.0786],[-4.7387,43.0481],[-4.7269,43.0159],[-4.7892,42.9898],[-4.8134,42.9257],[-4.8476,42.9024],[-4.8657,42.8605],[-4.9019,42.8481],[-4.9037,42.7796],[-4.9321,42.74],[-4.8875,42.7116],[-4.8981,42.6691],[-4.8953,42.6216],[-4.9144,42.5448],[-4.888,42.5369],[-4.8881,42.518],[-4.9127,42.4006],[-4.9113,42.3815],[-4.9727,42.3743],[-4.9796,42.3379],[-4.9425,42.3465],[-4.9549,42.296],[-5.0022,42.2892],[-5.0383,42.2971],[-5.0417,42.2675],[-5.064,42.2737],[-5.0938,42.3094],[-5.124,42.3002],[-5.1704,42.2679],[-5.2382,42.2643],[-5.2653,42.2182],[-5.3217,42.2042],[-5.3612,42.225],[-5.3872,42.1952],[-5.3769,42.1343],[-5.3874,42.083],[-5.3763,42.0414],[-5.4216,42.0308],[-5.5208,42.097],[-5.5417,42.098],[-5.5534,42.063],[-5.6247,42.0836],[-5.6211,42.1022],[-5.6433,42.1287],[-5.6796,42.1402],[-5.6769,42.1203],[-5.7431,42.1135],[-5.7551,42.1368],[-5.8382,42.1186],[-5.8694,42.122],[-5.893,42.1505],[-5.9559,42.1258],[-6.045,42.1577],[-6.2037,42.1483],[-6.2795,42.1778],[-6.3115,42.2081],[-6.3395,42.2001],[-6.4278,42.202],[-6.4906,42.1842],[-6.5578,42.2071],[-6.6163,42.2056],[-6.6541,42.2168],[-6.7056,42.2172],[-6.7832,42.2529],[-6.8055,42.2179],[-6.8668,42.217],[-6.9329,42.1741],[-6.9556,42.1322],[-6.9869,42.1141],[-7.0247,42.0757],[-7.0127,42.0522],[-6.9848,42.0512],[-6.9653,42.0283],[-6.9877,41.9834],[-6.9835,41.963],[-6.9451,41.9434],[-6.855,41.9429],[-6.8312,41.954],[-6.8249,41.9838],[-6.7944,41.9797],[-6.7579,41.9376],[-6.728,41.9309],[-6.6568,41.9331],[-6.6228,41.941],[-6.6095,41.9623],[-6.5851,41.9547],[-6.5676,41.9261],[-6.5758,41.8829],[-6.5242,41.8674],[-6.5357,41.8486],[-6.5601,41.7669],[-6.5774,41.7397],[-6.5553,41.6749],[-6.5134,41.6509],[-6.4608,41.6766],[-6.3659,41.6636],[-6.3171,41.6501],[-6.2722,41.6282],[-6.2059,41.5703],[-6.2859,41.4869],[-6.2829,41.4656],[-6.321,41.4196],[-6.3762,41.3969],[-6.431,41.339],[-6.4821,41.303],[-6.5635,41.2707],[-6.6466,41.2676],[-6.6938,41.2174],[-6.7069,41.1943],[-6.759,41.1518],[-6.7648,41.1089],[-6.818,41.0541],[-6.9068,41.0561],[-6.9274,41.0481],[-6.9425,41.016],[-6.9306,40.9921],[-6.8852,40.9489],[-6.847,40.8789],[-6.8212,40.8701],[-6.8203,40.8442],[-6.8367,40.8402],[-6.837,40.7433],[-6.8162,40.6772],[-6.8143,40.6472],[-6.8445,40.5978],[-6.8484,40.5648],[-6.8181,40.5319],[-6.8153,40.5025],[-6.8571,40.4421],[-6.8513,40.4095],[-6.8281,40.3806],[-6.7944,40.3564],[-6.812,40.3323],[-6.8639,40.301],[-6.8745,40.2792],[-6.8964,40.2555],[-6.9421,40.255],[-6.9975,40.2856],[-7.0754,40.2863],[-7.1103,40.3193],[-7.1538,40.28],[-7.2016,40.28],[-7.2466,40.2673],[-7.3203,40.2854],[-7.2798,40.3505],[-7.2712,40.4098],[-7.3261,40.4098],[-7.3477,40.3906],[-7.3909,40.3828],[-7.4535,40.4134],[-7.5039,40.3766],[-7.5267,40.3376],[-7.5769,40.3192],[-7.6019,40.3268],[-7.6432,40.2867],[-7.7339,40.2442],[-7.7821,40.232],[-7.8069,40.185],[-7.7965,40.1657],[-7.7419,40.1283],[-7.7401,40.0945],[-7.7687,40.0775],[-7.806,40.0775],[-7.8072,40.0407],[-7.8449,40.0582],[-7.8949,40.0469],[-7.9173,40.0045],[-7.9444,40.0031],[-7.9695,39.9817],[-8.0257,39.9754],[-8.0322,39.9609],[-8.0715,39.9567],[-8.1263,39.9212],[-8.1284,39.944],[-8.108,39.9653],[-8.1494,40.017],[-8.1455,40.0624],[-8.1746,40.0863],[-8.2052,40.0551],[-8.2351,40.064],[-8.2931,40.016],[-8.271,39.9848],[-8.2877,39.9708],[-8.314,39.9751],[-8.3491,39.9445],[-8.4048,39.9343],[-8.3853,39.9566],[-8.4127,40.0103],[-8.4509,40.0121],[-8.51,39.9782],[-8.5355,39.956],[-8.5538,40.0201],[-8.5948,40.0209],[-8.629,39.9963],[-8.6772,40.0281],[-8.7689,40.0373],[-8.8154,40.0211],[-8.8476,40.0262],[-8.9025,40.0474],[-8.8929,40.0691],[-8.9194,40.0691],[-8.946,40.0691],[-8.9728,40.0691],[-8.9931,40.0691],[-8.9865,40.106],[-8.9769,40.1601],[-8.9701,40.1798],[-8.9188,40.3273],[-8.8675,40.4749],[-8.8547,40.5118],[-8.8419,40.5487],[-8.8162,40.6225],[-8.7681,40.7609],[-8.7761,40.9176],[-8.7799,40.9914],[-8.7818,41.0283],[-8.7837,41.0652],[-8.7897,41.1837],[-8.8061,41.2128],[-8.8889,41.3603],[-8.9304,41.4341],[-8.9511,41.471],[-8.9719,41.5079],[-8.9913,41.5425],[-8.9916,41.5448],[-8.9963,41.5817],[-9.001,41.6186],[-9.0057,41.6555],[-9.0246,41.8031],[-9.0293,41.84],[-9.034,41.8769],[-9.0345,41.881],[-9.0345,41.8813],[-9.0345,41.8814],[-9.0296,41.9506],[-9.0191,42.0982],[-8.9982,42.3933],[-8.993,42.4656],[-8.9905,42.5018],[-8.9879,42.5379],[-8.9873,42.5469],[-9.0115,42.5307],[-9.0264,42.5431],[-9.0334,42.5781],[-9.0709,42.5961],[-9.0657,42.6203],[-9.0432,42.6545],[-9.2677,42.8925],[-9.2684,42.8913],[-9.2757,42.9009],[-9.3945,43.0269],[-9.3942,43.027],[-9.3945,43.0273],[-9.1978,43.1276],[-9.1919,43.1417],[-9.2084,43.1379],[-9.2176,43.1553],[-9.1701,43.1887],[-9.1379,43.2015],[-9.1287,43.1986],[-9.0957,43.2152],[-9.0237,43.2395],[-8.9736,43.2711],[-8.988,43.283],[-8.9305,43.2998],[-8.9228,43.3032],[-8.8725,43.3349],[-8.8721,43.3349],[-8.8538,43.3334],[-8.8412,43.3389],[-8.817,43.3358],[-8.8086,43.3295],[-8.8024,43.329],[-8.0603,43.7072],[-8.0593,43.7094],[-8.0557,43.7096],[-7.9797,43.7483],[-7.9794,43.7483],[-7.9793,43.7483],[-7.9381,43.7422],[-7.9086,43.7663],[-7.8808,43.7633],[-7.859,43.7305],[-7.8097,43.7232],[-7.8007,43.7267],[-7.7738,43.7426],[-7.7444,43.7481],[-7.7264,43.755],[-7.6957,43.7749],[-7.6855,43.7934],[-7.6683,43.7725],[-7.6781,43.758],[-7.652,43.7485],[-7.641,43.7527],[-7.6353,43.7424],[-7.5942,43.7273],[-7.5045,43.7394],[-7.5044,43.7394],[-7.5041,43.7394],[-7.3997,43.696],[-7.3846,43.6849],[-7.3671,43.6801],[-7.3527,43.6615],[-7.3428,43.6542],[-7.1721,43.6289],[-7.0817,43.6156],[-7.0365,43.6089]],[[-5.3193,42.245],[-5.3032,42.2521],[-5.3092,42.2932],[-5.3483,42.2782],[-5.3372,42.2466],[-5.3193,42.245]]]}}
]}
