{
 "type": "FeatureCollection",
 "features": [
  {
   "type": "Feature",
   "properties": {
    "entityId": "sushen",
    "from": -700,
    "to": -281,
    "certainty": "estimated",
    "source": "중고등학교 한국사 교과서 시대별 지도의 일반적인 경계를 따른 대략적인 추정. 운영자 검수 필요"
   },
   "geometry": {
    "type": "Polygon",
    "coordinates": [
     [
      [
       124.5,
       43.2278
      ],
      [
       125,
       43.2
      ],
      [
       126.6,
       42.7
      ],
      [
       127.3,
       41.9
      ],
      [
       127.2238,
       41.5697
      ],
      [
       128.2,
       41.5
      ],
      [
       128.9,
       42.05
      ],
      [
       129.7,
       42.45
      ],
      [
       130,
       42.9
      ],
      [
       130.4,
       42.6
      ],
      [
       130.7,
       42.3
      ],
      [
       131,
       42.1
      ],
      [
       131.5,
       41
      ],
      [
       130.8571,
       38.5
      ],
      [
       136,
       38.5
      ],
      [
       136,
       49.5
      ],
      [
       126.5,
       49.5
      ],
      [
       126.5,
       45.5
      ],
      [
       124.5,
       45.5
      ],
      [
       124.5,
       43.2278
      ]
     ]
    ]
   }
  },
  {
   "type": "Feature",
   "properties": {
    "entityId": "sushen",
    "from": -281,
    "to": -221,
    "certainty": "estimated",
    "source": "중고등학교 한국사 교과서 시대별 지도의 일반적인 경계를 따른 대략적인 추정. 운영자 검수 필요"
   },
   "geometry": {
    "type": "Polygon",
    "coordinates": [
     [
      [
       124.4,
       40
      ],
      [
       125.3,
       40.6
      ],
      [
       126,
       41
      ],
      [
       126.8,
       41.6
      ],
      [
       128.2,
       41.5
      ],
      [
       128.9,
       42.05
      ],
      [
       129.7,
       42.45
      ],
      [
       130,
       42.9
      ],
      [
       130.4,
       42.6
      ],
      [
       130.7,
       42.3
      ],
      [
       131,
       42.1
      ],
      [
       131.5,
       41
      ],
      [
       130.8571,
       38.5
      ],
      [
       136,
       38.5
      ],
      [
       136,
       49.5
      ],
      [
       126.5,
       49.5
      ],
      [
       126.5,
       45.5
      ],
      [
       124.5,
       45.5
      ],
      [
       124.5,
       42.3714
      ],
      [
       125,
       41.8
      ],
      [
       125,
       40.8
      ],
      [
       124.5,
       40.1333
      ],
      [
       124.5,
       40.0667
      ],
      [
       124.4,
       40
      ]
     ]
    ]
   }
  },
  {
   "type": "Feature",
   "properties": {
    "entityId": "sushen",
    "from": -221,
    "to": -220,
    "certainty": "estimated",
    "source": "중고등학교 한국사 교과서 시대별 지도의 일반적인 경계를 따른 대략적인 추정. 운영자 검수 필요"
   },
   "geometry": {
    "type": "Polygon",
    "coordinates": [
     [
      [
       124.4,
       40
      ],
      [
       125.3,
       40.6
      ],
      [
       126,
       41
      ],
      [
       126.8,
       41.6
      ],
      [
       128.2,
       41.5
      ],
      [
       128.9,
       42.05
      ],
      [
       129.7,
       42.45
      ],
      [
       130,
       42.9
      ],
      [
       130.4,
       42.6
      ],
      [
       130.7,
       42.3
      ],
      [
       131,
       42.1
      ],
      [
       131.5,
       41
      ],
      [
       130.8571,
       38.5
      ],
      [
       136,
       38.5
      ],
      [
       136,
       49.5
      ],
      [
       126.5,
       49.5
      ],
      [
       126.5,
       45.5
      ],
      [
       124.5,
       45.5
      ],
      [
       124.5,
       40.0667
      ],
      [
       124.4,
       40
      ]
     ]
    ]
   }
  },
  {
   "type": "Feature",
   "properties": {
    "entityId": "sushen",
    "from": -220,
    "to": -206,
    "certainty": "estimated",
    "source": "중고등학교 한국사 교과서 시대별 지도의 일반적인 경계를 따른 대략적인 추정. 운영자 검수 필요"
   },
   "geometry": {
    "type": "Polygon",
    "coordinates": [
     [
      [
       124.4,
       40
      ],
      [
       125.3,
       40.6
      ],
      [
       126,
       41
      ],
      [
       126.8,
       41.6
      ],
      [
       128.2,
       41.5
      ],
      [
       128.9,
       42.05
      ],
      [
       129.7,
       42.45
      ],
      [
       130,
       42.9
      ],
      [
       130.4,
       42.6
      ],
      [
       130.7,
       42.3
      ],
      [
       131,
       42.1
      ],
      [
       131.5,
       41
      ],
      [
       130.8571,
       38.5
      ],
      [
       136,
       38.5
      ],
      [
       136,
       49.5
      ],
      [
       126.5,
       49.5
      ],
      [
       126.5,
       45.5
      ],
      [
       124.5,
       45.5
      ],
      [
       124.5,
       42.3714
      ],
      [
       125,
       41.8
      ],
      [
       125,
       40.8
      ],
      [
       124.5,
       40.1333
      ],
      [
       124.5,
       40.0667
      ],
      [
       124.4,
       40
      ]
     ]
    ]
   }
  },
  {
   "type": "Feature",
   "properties": {
    "entityId": "sushen",
    "from": -206,
    "to": -201,
    "certainty": "estimated",
    "source": "중고등학교 한국사 교과서 시대별 지도의 일반적인 경계를 따른 대략적인 추정. 운영자 검수 필요"
   },
   "geometry": {
    "type": "Polygon",
    "coordinates": [
     [
      [
       124.4,
       40
      ],
      [
       125.3,
       40.6
      ],
      [
       126,
       41
      ],
      [
       126.8,
       41.6
      ],
      [
       128.2,
       41.5
      ],
      [
       128.9,
       42.05
      ],
      [
       129.7,
       42.45
      ],
      [
       130,
       42.9
      ],
      [
       130.4,
       42.6
      ],
      [
       130.7,
       42.3
      ],
      [
       131,
       42.1
      ],
      [
       131.5,
       41
      ],
      [
       130.8571,
       38.5
      ],
      [
       136,
       38.5
      ],
      [
       136,
       49.5
      ],
      [
       126.5,
       49.5
      ],
      [
       126.5,
       45.5
      ],
      [
       124.5,
       45.5
      ],
      [
       124.5,
       40.0667
      ],
      [
       124.4,
       40
      ]
     ]
    ]
   }
  },
  {
   "type": "Feature",
   "properties": {
    "entityId": "sushen",
    "from": -201,
    "to": -199,
    "certainty": "estimated",
    "source": "중고등학교 한국사 교과서 시대별 지도의 일반적인 경계를 따른 대략적인 추정. 운영자 검수 필요"
   },
   "geometry": {
    "type": "Polygon",
    "coordinates": [
     [
      [
       124.4,
       40
      ],
      [
       125.3,
       40.6
      ],
      [
       126,
       41
      ],
      [
       126.8,
       41.6
      ],
      [
       128.2,
       41.5
      ],
      [
       128.9,
       42.05
      ],
      [
       129.7,
       42.45
      ],
      [
       130,
       42.9
      ],
      [
       130.4,
       42.6
      ],
      [
       130.7,
       42.3
      ],
      [
       131,
       42.1
      ],
      [
       131.5,
       41
      ],
      [
       130.8571,
       38.5
      ],
      [
       136,
       38.5
      ],
      [
       136,
       49.5
      ],
      [
       126.5,
       49.5
      ],
      [
       126.5,
       45.5
      ],
      [
       124.5,
       45.5
      ],
      [
       124.5,
       42.3714
      ],
      [
       125,
       41.8
      ],
      [
       125,
       40.8
      ],
      [
       124.5,
       40.1333
      ],
      [
       124.5,
       40.0667
      ],
      [
       124.4,
       40
      ]
     ]
    ]
   }
  },
  {
   "type": "Feature",
   "properties": {
    "entityId": "sushen",
    "from": -199,
    "to": -107,
    "certainty": "estimated",
    "source": "중고등학교 한국사 교과서 시대별 지도의 일반적인 경계를 따른 대략적인 추정. 운영자 검수 필요"
   },
   "geometry": {
    "type": "Polygon",
    "coordinates": [
     [
      [
       124.4,
       40
      ],
      [
       125.3,
       40.6
      ],
      [
       126,
       41
      ],
      [
       126.8,
       41.6
      ],
      [
       128.2,
       41.5
      ],
      [
       128.9,
       42.05
      ],
      [
       129.7,
       42.45
      ],
      [
       130,
       42.9
      ],
      [
       130.4,
       42.6
      ],
      [
       130.7,
       42.3
      ],
      [
       131,
       42.1
      ],
      [
       131.5,
       41
      ],
      [
       130.8571,
       38.5
      ],
      [
       136,
       38.5
      ],
      [
       136,
       49.5
      ],
      [
       126.5,
       49.5
      ],
      [
       126.5,
       46.2
      ],
      [
       127,
       46.3
      ],
      [
       128.8,
       45.5
      ],
      [
       128.8,
       43.7
      ],
      [
       127,
       43.3
      ],
      [
       125,
       43
      ],
      [
       124.5,
       43.1667
      ],
      [
       124.5,
       42.3714
      ],
      [
       125,
       41.8
      ],
      [
       125,
       40.8
      ],
      [
       124.5,
       40.1333
      ],
      [
       124.5,
       40.0667
      ],
      [
       124.4,
       40
      ]
     ]
    ]
   }
  },
  {
   "type": "Feature",
   "properties": {
    "entityId": "sushen",
    "from": -107,
    "to": -36,
    "certainty": "estimated",
    "source": "중고등학교 한국사 교과서 시대별 지도의 일반적인 경계를 따른 대략적인 추정. 운영자 검수 필요"
   },
   "geometry": {
    "type": "Polygon",
    "coordinates": [
     [
      [
       124.4,
       40
      ],
      [
       125.3,
       40.6
      ],
      [
       126,
       41
      ],
      [
       126.8,
       41.6
      ],
      [
       127.9529,
       41.5176
      ],
      [
       128.2,
       41.6
      ],
      [
       129,
       42.4
      ],
      [
       129.963,
       42.8444
      ],
      [
       130,
       42.9
      ],
      [
       130.0317,
       42.8762
      ],
      [
       130.3,
       43
      ],
      [
       130.7733,
       42.8107
      ],
      [
       130.6111,
       42.3889
      ],
      [
       130.7,
       42.3
      ],
      [
       131,
       42.1
      ],
      [
       131.5,
       41
      ],
      [
       130.8571,
       38.5
      ],
      [
       136,
       38.5
      ],
      [
       136,
       49.5
      ],
      [
       126.5,
       49.5
      ],
      [
       126.5,
       46.2
      ],
      [
       127,
       46.3
      ],
      [
       128.8,
       45.5
      ],
      [
       128.8,
       43.7
      ],
      [
       127,
       43.3
      ],
      [
       125,
       43
      ],
      [
       124.5,
       43.1667
      ],
      [
       124.5,
       42.3714
      ],
      [
       125,
       41.8
      ],
      [
       125,
       40.8
      ],
      [
       124.5,
       40.1333
      ],
      [
       124.5,
       40.0667
      ],
      [
       124.4,
       40
      ]
     ]
    ]
   }
  },
  {
   "type": "Feature",
   "properties": {
    "entityId": "sushen",
    "from": -36,
    "to": 1,
    "certainty": "estimated",
    "source": "중고등학교 한국사 교과서 시대별 지도의 일반적인 경계를 따른 대략적인 추정. 운영자 검수 필요"
   },
   "geometry": {
    "type": "MultiPolygon",
    "coordinates": [
     [
      [
       [
        124.4,
        40
       ],
       [
        125.3,
        40.6
       ],
       [
        125.825,
        40.9
       ],
       [
        125.6,
        40.8
       ],
       [
        124.8941,
        40.6588
       ],
       [
        124.5,
        40.1333
       ],
       [
        124.5,
        40.0667
       ],
       [
        124.4,
        40
       ]
      ]
     ],
     [
      [
       [
        124.5,
        42.3714
       ],
       [
        125,
        41.8
       ],
       [
        124.8783,
        41.9391
       ],
       [
        125.8,
        42.4
       ],
       [
        126.8,
        42.3
       ],
       [
        127,
        41.6
       ],
       [
        126.9836,
        41.5869
       ],
       [
        127.9529,
        41.5176
       ],
       [
        128.2,
        41.6
       ],
       [
        129,
        42.4
       ],
       [
        129.963,
        42.8444
       ],
       [
        130,
        42.9
       ],
       [
        130.0317,
        42.8762
       ],
       [
        130.3,
        43
       ],
       [
        130.7733,
        42.8107
       ],
       [
        130.6111,
        42.3889
       ],
       [
        130.7,
        42.3
       ],
       [
        131,
        42.1
       ],
       [
        131.5,
        41
       ],
       [
        130.8571,
        38.5
       ],
       [
        136,
        38.5
       ],
       [
        136,
        49.5
       ],
       [
        126.5,
        49.5
       ],
       [
        126.5,
        46.2
       ],
       [
        127,
        46.3
       ],
       [
        128.8,
        45.5
       ],
       [
        128.8,
        43.7
       ],
       [
        127,
        43.3
       ],
       [
        125,
        43
       ],
       [
        124.5,
        43.1667
       ],
       [
        124.5,
        42.3714
       ]
      ]
     ]
    ]
   }
  }
 ]
}
