{"type":"FeatureCollection","features":[
{"type":"Feature","properties":{"entityId":"sweden-early","from":1000,"to":1164,"certainty":"estimated","source":"유럽 쪽은 Natural Earth 1:10m admin-1(v5.1.2) 현대 행정구역 조각을 그 시기 국경에 맞춰 묶고, 조각이 역사 경계와 다른 곳은 선을 그어 나눈 근사. 유럽 밖(시베리아·중앙아시아·극동)은 대략적인 추정. 운영자 검수 필요"},"geometry":{"type":"MultiPolygon","coordinates":[[[[11.6582,57.6842],[11.6777,57.6479],[11.7119,57.5841],[11.7291,57.5522],[11.8246,57.5522],[11.8246,57.5679],[11.9145,57.5679],[11.9128,57.5829],[11.9562,57.5864],[12.0693,57.5726],[12.1455,57.5806],[12.3019,57.6164],[12.3319,57.5838],[12.3306,57.5067],[12.3368,57.4908],[12.4155,57.4359],[12.3932,57.3835],[12.4028,57.3538],[12.4345,57.3059],[12.4579,57.2913],[12.5148,57.2981],[12.5508,57.3284],[12.5946,57.3506],[12.6742,57.3467],[12.7023,57.3358],[12.7482,57.3025],[12.7844,57.2961],[12.8199,57.3022],[12.8642,57.284],[12.9444,57.2775],[12.9543,57.2675],[12.9307,57.2327],[12.9532,57.1996],[13.019,57.193],[13.0558,57.1679],[13.1166,57.157],[13.1,57.146],[13.0899,57.11],[13.1011,57.0838],[13.1381,57.0412],[13.1515,57.038],[13.2238,57.0789],[13.2395,57.0975],[13.3947,57.1206],[13.4876,57.1081],[13.5924,57.0678],[13.607,57.0214],[13.6398,57.001],[13.6937,56.9834],[13.698,56.9646],[13.6771,56.9343],[13.6218,56.9068],[13.5386,56.8936],[13.4858,56.8792],[13.4187,56.879],[13.3521,56.8676],[13.3213,56.8321],[13.3082,56.7019],[13.3523,56.6705],[13.4187,56.603],[13.4488,56.5591],[13.4516,56.492],[13.4718,56.4477],[13.5014,56.4238],[13.5767,56.4238],[13.9933,56.4792],[14.0419,56.4927],[14.0633,56.5255],[14.0947,56.5412],[14.1623,56.5233],[14.2778,56.5239],[14.3591,56.5072],[14.5407,56.4775],[14.5963,56.4645],[14.7,56.4098],[14.7251,56.402],[14.8696,56.3791],[14.9152,56.3819],[14.9828,56.4258],[14.9957,56.4474],[15.104,56.4628],[15.1883,56.4439],[15.2157,56.4431],[15.247,56.4675],[15.3426,56.4693],[15.363,56.4821],[15.4192,56.5029],[15.5125,56.4876],[15.5495,56.5091],[15.5973,56.5017],[15.6681,56.4571],[15.7246,56.4282],[15.8002,56.3749],[15.8596,56.3506],[15.98,56.3262],[16.031,56.3263],[16.0662,56.3359],[16.0762,56.3648],[16.1406,56.4803],[16.166,56.508],[16.1787,56.5371],[16.2132,56.5484],[16.2201,56.592],[16.2985,56.6626],[16.3011,56.6633],[16.325,56.6522],[16.3587,56.6544],[16.3792,56.6756],[16.3778,56.7259],[16.3683,56.7405],[16.3842,56.7678],[16.4126,56.7774],[16.4548,56.7683],[16.4745,56.7863],[16.4634,56.7978],[16.4286,56.7829],[16.4089,56.8084],[16.4363,56.8569],[16.4363,56.8765],[16.4578,56.9275],[16.5258,57.0602],[16.5348,57.0517],[16.5833,57.0449],[16.5545,57.0808],[16.5696,57.0865],[16.5431,57.118],[16.5126,57.1264],[16.5082,57.1414],[16.4801,57.1871],[16.4925,57.2419],[16.4945,57.2429],[16.4931,57.2446],[16.5046,57.295],[16.5123,57.3032],[16.5628,57.3193],[16.5474,57.3288],[16.5696,57.3466],[16.5575,57.3514],[16.5896,57.3855],[16.6317,57.3808],[16.6257,57.399],[16.6726,57.4155],[16.6333,57.4371],[16.6722,57.4597],[16.6595,57.4763],[16.689,57.4717],[16.6292,57.5569],[16.6106,57.5609],[16.6054,57.5684],[16.5933,57.6093],[16.6305,57.6291],[16.6151,57.6479],[16.6106,57.6824],[16.5954,57.6947],[16.5976,57.704],[16.6392,57.6923],[16.7068,57.6885],[16.7149,57.7028],[16.6908,57.7257],[16.6182,57.7666],[16.6122,57.7682],[16.6147,57.7794],[16.6211,57.7742],[16.683,57.7473],[16.7068,57.7506],[16.6755,57.7645],[16.6191,57.7986],[16.6406,57.8931],[16.6707,57.8914],[16.6818,57.9165],[16.6852,57.9166],[16.7108,57.8913],[16.7581,57.877],[16.7654,57.8988],[16.7273,57.9288],[16.7825,57.9151],[16.7415,57.9462],[16.7354,57.9719],[16.7064,57.9621],[16.6963,57.9762],[16.6966,57.9989],[16.7,57.9977],[16.6966,58.0005],[16.6969,58.0167],[16.7205,58.025],[16.7378,58.0142],[16.7464,58.0166],[16.7546,58.025],[16.7402,58.0398],[16.7074,58.0499],[16.6974,58.054],[16.6975,58.0574],[16.701,58.057],[16.7123,58.0595],[16.7176,58.0668],[16.7149,58.0796],[16.7361,58.0848],[16.7161,58.1042],[16.6983,58.1166],[16.6988,58.1494],[16.7016,58.1617],[16.7214,58.1498],[16.7772,58.1305],[16.8098,58.1621],[16.7915,58.1729],[16.7883,58.1793],[16.7962,58.182],[16.8171,58.1772],[16.8223,58.1796],[16.8241,58.1929],[16.8213,58.2071],[16.8137,58.2204],[16.8026,58.231],[16.7893,58.2373],[16.803,58.2447],[16.7399,58.2651],[16.7307,58.2803],[16.743,58.2813],[16.7586,58.2897],[16.7614,58.3056],[16.7893,58.3056],[16.7992,58.3236],[16.7793,58.3256],[16.7379,58.3211],[16.7428,58.3429],[16.7751,58.3397],[16.7713,58.3631],[16.7546,58.3738],[16.7523,58.3701],[16.7487,58.3689],[16.7649,58.4403],[16.7655,58.4407],[16.7964,58.4451],[16.8303,58.4521],[16.8529,58.4631],[16.8505,58.467],[16.9007,58.4834],[16.9162,58.4835],[16.9402,58.4911],[16.8929,58.5146],[16.8287,58.5585],[16.8303,58.5594],[16.8268,58.5598],[16.7968,58.5803],[16.8087,58.6328],[16.9242,58.6254],[17.0358,58.6413],[17.0042,58.6659],[17.0272,58.6763],[17.0698,58.6618],[17.093,58.6608],[17.1457,58.6966],[17.1253,58.7058],[17.0967,58.7078],[17.1022,58.7103],[17.178,58.7318],[17.2761,58.7307],[17.2761,58.7488],[17.3578,58.7512],[17.3716,58.779],[17.3596,58.7886],[17.378,58.8015],[17.4597,58.7914],[17.4883,58.7996],[17.45,58.8159],[17.4654,58.8597],[17.5096,58.8716],[17.5557,58.8542],[17.5907,58.8673],[17.5627,58.8851],[17.6038,58.8943],[17.6377,58.9019],[17.6716,58.9096],[17.6848,58.9008],[17.6878,58.9132],[17.7495,58.9271],[17.7493,58.9238],[17.783,58.9157],[17.7744,58.8862],[17.8035,58.9083],[17.7879,58.9357],[17.7999,58.9384],[17.8052,58.9339],[17.8518,58.9248],[17.8718,58.902],[17.8694,58.877],[17.8928,58.861],[17.8997,58.9157],[17.9307,58.9101],[17.9706,58.936],[17.9612,58.9634],[18.0186,59.0229],[18.018,59.0235],[18.0494,59.0386],[18.0505,59.0386],[18.0503,59.0391],[18.0906,59.0584],[18.0962,59.0583],[18.1042,59.0639],[18.2554,59.1018],[18.2554,59.1013],[18.2009,59.0808],[18.3242,59.1081],[18.3118,59.1254],[18.3226,59.1322],[18.3261,59.1354],[18.3815,59.1478],[18.4143,59.14],[18.4297,59.1746],[18.3926,59.1689],[18.3777,59.1912],[18.3866,59.214],[18.4268,59.1968],[18.3917,59.2272],[18.4119,59.2792],[18.4131,59.2788],[18.4304,59.2583],[18.4683,59.2521],[18.5204,59.2287],[18.5516,59.2259],[18.5781,59.2446],[18.5324,59.2419],[18.5161,59.2713],[18.5391,59.26],[18.6123,59.2583],[18.5234,59.2886],[18.5001,59.2922],[18.5217,59.2985],[18.6198,59.3083],[18.6465,59.3303],[18.6326,59.3469],[18.5927,59.3565],[18.5864,59.3639],[18.6008,59.3625],[18.6123,59.3749],[18.5649,59.3892],[18.5602,59.3947],[18.5425,59.3996],[18.5366,59.416],[18.4846,59.4342],[18.4268,59.4364],[18.4375,59.4193],[18.4806,59.4016],[18.459,59.3964],[18.4569,59.3955],[18.4478,59.3955],[18.4499,59.3925],[18.3943,59.3687],[18.3911,59.3691],[18.3897,59.3695],[18.3827,59.3701],[18.337,59.3756],[18.3366,59.3756],[18.3305,59.3748],[18.3181,59.3759],[18.2796,59.368],[18.2718,59.3669],[18.2702,59.366],[18.2547,59.3628],[18.2466,59.3526],[18.2106,59.3322],[18.2026,59.3306],[18.1966,59.3342],[18.1729,59.3266],[18.1725,59.3266],[18.1842,59.341],[18.2121,59.3415],[18.2041,59.3654],[18.2046,59.366],[18.2375,59.3728],[18.2129,59.3763],[18.2324,59.4002],[18.2476,59.3977],[18.3073,59.3968],[18.3379,59.4085],[18.2931,59.414],[18.2827,59.4364],[18.2772,59.4386],[18.3336,59.4737],[18.345,59.4731],[18.4131,59.491],[18.4338,59.5037],[18.5228,59.5422],[18.5407,59.5458],[18.5973,59.574],[18.64,59.5836],[18.6865,59.6058],[18.6711,59.6231],[18.6793,59.6289],[18.7005,59.6214],[18.742,59.6494],[18.7086,59.6494],[18.7186,59.6564],[18.8462,59.7117],[18.8555,59.7131],[18.9014,59.7347],[18.9015,59.7349],[18.9232,59.7419],[18.9413,59.7238],[18.9753,59.7191],[19.036,59.7285],[19.0745,59.7497],[19.0852,59.7722],[19.042,59.785],[18.9786,59.7835],[18.9803,59.7892],[18.9978,59.7946],[18.9963,59.8098],[18.9955,59.8395],[18.9824,59.8483],[18.9616,59.8896],[19.0213,59.84],[19.0679,59.8337],[19.0716,59.8963],[19.0368,59.9025],[19.0436,59.8821],[19.0095,59.8963],[19.0095,59.9094],[18.9658,59.9268],[18.9407,59.9311],[18.9346,59.9433],[18.8842,59.9797],[18.8518,60.0266],[18.8462,60.0312],[18.8245,60.0683],[18.8205,60.1137],[18.8035,60.1216],[18.7659,60.1111],[18.7598,60.0973],[18.7277,60.116],[18.7207,60.126],[18.7075,60.1278],[18.6586,60.1563],[18.561,60.2131],[18.5494,60.2199],[18.5515,60.23],[18.5637,60.2276],[18.6048,60.2383],[18.5654,60.2593],[18.5363,60.265],[18.4517,60.3105],[18.4478,60.3135],[18.4478,60.3414],[18.428,60.3488],[18.3584,60.3476],[18.3263,60.3555],[18.3181,60.3545],[17.9901,60.5452],[17.9954,60.553],[17.9749,60.5878],[17.9186,60.6002],[17.9002,60.5975],[17.833,60.6367],[17.7648,60.7041],[17.7094,60.7588],[17.6817,60.7861],[17.6541,60.8134],[17.5566,60.9097],[17.1737,61.2879],[17.1805,61.2944],[17.1873,61.2912],[17.2479,61.2873],[17.1889,61.3025],[17.1994,61.3126],[17.1993,61.3129],[17.1994,61.313],[17.1973,61.3174],[17.2137,61.3134],[17.2761,61.314],[17.2018,61.3371],[17.2002,61.3481],[17.1792,61.3553],[17.1778,61.3581],[17.141,61.3807],[17.1612,61.4199],[17.1662,61.4164],[17.2171,61.4339],[17.1741,61.4448],[17.305,61.6983],[17.3063,61.698],[17.3132,61.682],[17.3509,61.6772],[17.3443,61.6905],[17.3823,61.6885],[17.4199,61.6498],[17.4461,61.6329],[17.4963,61.6351],[17.5203,61.7024],[17.4831,61.7346],[17.4301,61.7269],[17.419,61.7401],[17.3974,61.7817],[17.3898,61.8116],[17.4056,61.8211],[17.388,61.8187],[17.3812,61.8457],[17.4735,62.0245],[17.5007,62.0772],[17.5279,62.1298],[17.5414,62.1561],[17.555,62.1824],[17.5666,62.2049],[17.5695,62.2047],[17.6527,62.232],[17.5994,62.2496],[17.5896,62.2495],[17.6869,62.4379],[17.7074,62.4374],[17.6909,62.4457],[17.719,62.5],[17.7947,62.5012],[17.8235,62.4858],[17.8617,62.5008],[17.8928,62.5275],[17.8843,62.5357],[17.9017,62.5473],[17.9094,62.5494],[17.9105,62.5531],[17.9482,62.5781],[17.9614,62.5814],[17.9683,62.5605],[18.0425,62.5921],[18.0642,62.5958],[18.0432,62.6262],[17.914,62.6533],[17.9053,62.6599],[17.9259,62.6708],[17.9336,62.6708],[17.9749,62.6572],[17.9973,62.6649],[18.0027,62.709],[17.9954,62.7277],[17.9624,62.7521],[17.9568,62.7825],[17.9403,62.79],[18.04,62.8344],[18.0915,62.8351],[18.0774,62.8129],[18.0767,62.8087],[18.034,62.8115],[18.009,62.7944],[18.0684,62.7939],[18.0773,62.7739],[18.1405,62.7719],[18.1612,62.7899],[18.1714,62.7899],[18.2003,62.805],[18.1951,62.7774],[18.2588,62.8106],[18.2827,62.8415],[18.2622,62.8483],[18.2301,62.83],[18.247,62.849],[18.3012,62.8607],[18.3311,62.8401],[18.4001,62.8415],[18.4714,62.8677],[18.4634,62.8876],[18.4435,62.8916],[18.463,62.8958],[18.4673,62.9024],[18.4723,62.9017],[18.5125,62.9041],[18.511,62.9324],[18.4846,62.9288],[18.4876,62.9532],[18.5281,62.9538],[18.5366,62.9731],[18.5767,62.9584],[18.5511,62.9859],[18.5244,62.9919],[18.4338,62.9913],[18.396,62.9931],[18.4667,63.0246],[18.4679,63.0237],[18.4866,63.0257],[18.4889,63.0345],[18.8421,63.1919],[18.8626,63.192],[18.9133,63.2121],[18.8953,63.2156],[18.9573,63.2433],[18.9666,63.2389],[18.9618,63.2258],[19.0368,63.1779],[19.0679,63.2021],[19.112,63.2196],[19.0564,63.2265],[19.0399,63.239],[19.0417,63.2412],[19.0671,63.255],[19.0972,63.2379],[19.1535,63.294],[19.1472,63.2984],[19.1907,63.3221],[19.2075,63.3261],[19.2293,63.3425],[19.2455,63.3223],[19.2695,63.3425],[19.2735,63.3841],[19.3107,63.4007],[19.3478,63.4172],[19.3478,63.4218],[19.3125,63.4218],[19.3125,63.4579],[19.3156,63.4577],[19.313,63.4649],[19.206,63.5942],[19.0795,63.6944],[19.026,63.7248],[18.976,63.7361],[18.9562,63.7703],[18.9129,63.785],[18.8316,63.7921],[18.7881,63.811],[18.6758,63.8326],[18.6012,63.8311],[18.5208,63.852],[18.4306,63.9277],[18.4306,63.9393],[18.4791,63.9474],[18.4677,63.971],[18.4268,63.9829],[18.3623,63.9828],[17.7299,63.8895],[16.9017,63.9599],[16.7842,63.9972],[16.745,64.0175],[16.6303,63.852],[16.6192,63.7934],[16.592,63.7369],[16.4874,63.7073],[16.2621,63.6921],[16.1621,63.7022],[16.1043,63.6956],[16.012,63.6739],[15.9378,63.6638],[15.9123,63.6397],[15.9674,63.5911],[15.9898,63.5612],[16.0205,63.4619],[16.0888,63.4422],[16.1373,63.4202],[16.1813,63.3778],[16.9691,62.9934],[16.9649,62.9793],[16.7228,62.9424],[16.6584,62.9225],[16.4418,62.7865],[16.3921,62.7451],[16.3139,62.7248],[15.8861,62.7105],[15.6091,62.6534],[15.1725,62.6032],[14.9941,62.6108],[14.8615,62.6017],[14.8248,62.5847],[14.8328,62.5452],[14.871,62.4823],[14.8378,62.4545],[14.8514,62.4252],[14.8969,62.4026],[14.9563,62.3531],[15.066,62.2977],[15.1937,62.2741],[15.2699,62.2877],[15.3587,62.282],[15.3801,62.2405],[15.4302,62.2006],[15.4549,62.1601],[15.4167,62.1169],[15.134,62.0053],[15.1252,62.0003],[15.1453,61.9425],[15.1383,61.9087],[15.1197,61.885],[15.1256,61.8513],[15.0865,61.8388],[15.0577,61.8527],[14.9605,61.8537],[14.9375,61.8329],[14.9019,61.8305],[14.8632,61.8462],[14.8376,61.84],[14.8502,61.8134],[14.8384,61.7963],[14.8112,61.8075],[14.7341,61.8807],[14.6841,61.8687],[14.6017,61.812],[14.5698,61.7747],[14.5453,61.7227],[14.5217,61.6314],[14.4816,61.5915],[14.3824,61.582],[14.2964,61.5999],[13.6065,61.6585],[13.5457,61.6856],[13.5228,61.7222],[13.4465,61.7935],[13.4092,61.8359],[13.327,61.9058],[13.359,61.9801],[13.3821,62.0044],[13.2854,62.0474],[13.1867,62.0433],[13.0486,62.0812],[12.9754,62.1306],[12.7971,62.2071],[12.3412,62.2744],[12.3151,62.2718],[12.3175,62.234],[12.1617,61.7248],[12.1756,61.7115],[12.2913,61.6511],[12.3378,61.633],[12.4165,61.5823],[12.4825,61.5691],[12.5509,61.5669],[12.6138,61.547],[12.8771,61.371],[12.8882,61.3496],[12.8547,61.2553],[12.8197,61.2049],[12.7467,61.1515],[12.7329,61.1291],[12.7108,61.057],[12.6825,61.0403],[12.5697,61.0506],[12.5118,61.0491],[12.281,61.0152],[12.2533,61.0017],[12.2561,60.9813],[12.2948,60.9353],[12.3132,60.9019],[12.35,60.7933],[12.377,60.7541],[12.4825,60.6573],[12.5944,60.5149],[12.6126,60.4554],[12.5936,60.395],[12.5586,60.3599],[12.5047,60.3256],[12.4873,60.2959],[12.5216,60.1976],[12.5247,60.1617],[12.5109,60.118],[12.4832,60.0812],[12.4468,60.0511],[12.2906,59.9587],[12.1437,59.8984],[12.1027,59.894],[11.9422,59.902],[11.8746,59.8849],[11.8496,59.8724],[11.843,59.8384],[11.8837,59.8054],[11.9035,59.77],[11.8917,59.7058],[11.8284,59.6597],[11.6937,59.6223],[11.6749,59.6071],[11.6774,59.5591],[11.784,59.3606],[11.8068,59.2936],[11.8111,59.2487],[11.7756,59.2025],[11.7485,59.1401],[11.7453,59.0922],[11.719,59.0413],[11.75,59],[11.85,58.75],[11.95,58.45],[12.05,58.2],[12.05,57.85],[11.7,57.68],[11.6582,57.6842]]],[[[16.3914,56.4587],[16.3939,56.4526],[16.3998,56.3112],[16.4021,56.3065],[16.3989,56.2982],[16.4126,56.2709],[16.4126,56.2293],[16.4502,56.2187],[16.4909,56.2396],[16.5211,56.2822],[16.5298,56.2903],[16.5361,56.3034],[16.5664,56.3461],[16.5679,56.369],[16.6735,56.5876],[16.6828,56.5935],[16.6937,56.6294],[16.7178,56.6792],[16.7565,56.7475],[16.7605,56.7675],[16.7782,56.8042],[16.797,56.8154],[16.8303,56.8258],[16.8352,56.8382],[16.8394,56.8407],[16.8499,56.8756],[16.8582,56.8968],[16.8831,56.9162],[16.8741,56.9565],[16.88,56.9759],[16.9339,57.0176],[16.9162,57.0279],[16.9359,57.0532],[16.9606,57.0632],[16.9721,57.0998],[16.9844,57.1156],[17.0153,57.1479],[17.0209,57.1626],[17.0381,57.1847],[17.0495,57.1883],[17.0663,57.2267],[17.0571,57.2435],[17.0519,57.2799],[17.108,57.3145],[17.1245,57.3193],[17.0972,57.3528],[17.0735,57.3432],[17.0653,57.3577],[17.0192,57.3446],[16.9665,57.3046],[16.9611,57.2504],[16.9334,57.2158],[16.9099,57.2022],[16.904,57.1791],[16.9002,57.1744],[16.8642,57.091],[16.8264,57.0387],[16.7936,57.0039],[16.7229,56.9007],[16.6612,56.8852],[16.6379,56.8825],[16.6209,56.8723],[16.4528,56.6375],[16.446,56.6183],[16.4309,56.597],[16.4194,56.5856],[16.4114,56.5696],[16.4106,56.5685],[16.4104,56.5677],[16.3989,56.5447],[16.3942,56.4911],[16.3926,56.4834],[16.3926,56.483],[16.3929,56.4759],[16.3914,56.4587]]],[[[18.0994,57.259],[18.1348,57.2419],[18.1638,57.2122],[18.1664,57.2077],[18.1853,57.1448],[18.2065,57.1393],[18.2106,57.1323],[18.222,57.125],[18.2144,57.1138],[18.2251,57.0949],[18.2009,57.0728],[18.2233,57.0603],[18.2799,57.0877],[18.2859,57.0839],[18.2227,57.0257],[18.2009,57.0176],[18.2022,57.0041],[18.1624,56.9453],[18.1387,56.922],[18.1697,56.912],[18.2039,56.9152],[18.2985,56.9416],[18.3196,56.9669],[18.3406,56.9778],[18.3417,56.9804],[18.3584,56.9897],[18.3496,56.9989],[18.3518,57.004],[18.4001,57.004],[18.3643,57.0114],[18.3572,57.0167],[18.3874,57.0872],[18.4222,57.1167],[18.4546,57.1274],[18.4348,57.1274],[18.4774,57.1635],[18.499,57.1752],[18.5554,57.1925],[18.5748,57.2066],[18.6401,57.2248],[18.6805,57.2299],[18.7141,57.2429],[18.712,57.2633],[18.7438,57.3233],[18.7834,57.3615],[18.8276,57.3791],[18.8345,57.3808],[18.8392,57.3837],[18.8446,57.3858],[18.8711,57.3908],[18.9099,57.3876],[18.93,57.4045],[18.9089,57.4392],[18.8797,57.4492],[18.8689,57.4353],[18.8542,57.4378],[18.7906,57.4834],[18.802,57.5834],[18.8103,57.6073],[18.8048,57.6084],[18.8158,57.7052],[18.8626,57.7238],[18.8652,57.7233],[18.9413,57.7296],[18.937,57.7401],[18.9454,57.7416],[18.9696,57.7776],[18.9816,57.7705],[18.9858,57.8016],[18.9914,57.8098],[18.9959,57.8122],[19.0326,57.823],[19.0852,57.8258],[19.075,57.8354],[19.0749,57.8355],[19.0747,57.8356],[19.0748,57.8356],[19.0746,57.8357],[19.075,57.8358],[19.0738,57.8364],[19.0402,57.8679],[19.014,57.8813],[19.0095,57.9083],[18.9764,57.9115],[18.9453,57.9032],[18.9084,57.9138],[18.9133,57.9213],[18.8374,57.9122],[18.8451,57.9011],[18.8406,57.9],[18.8159,57.8547],[18.8107,57.8512],[18.8071,57.8387],[18.8047,57.8341],[18.7918,57.8387],[18.7625,57.871],[18.7693,57.8878],[18.7424,57.9179],[18.7005,57.9213],[18.658,57.9018],[18.6049,57.8426],[18.5687,57.8361],[18.5501,57.8394],[18.4994,57.8266],[18.4631,57.8032],[18.4287,57.7707],[18.405,57.7577],[18.2826,57.6552],[18.2034,57.6118],[18.1619,57.5781],[18.1615,57.5779],[18.1603,57.5768],[18.135,57.5563],[18.1349,57.5541],[18.1282,57.5482],[18.112,57.5111],[18.1209,57.4651],[18.1281,57.4536],[18.1278,57.4487],[18.1278,57.4483],[18.1529,57.3392],[18.1273,57.3021],[18.1156,57.297],[18.0994,57.259]]],[[[18.3444,59.0257],[18.3665,59.0091],[18.4053,59.0086],[18.4359,59.0498],[18.4901,59.0894],[18.4854,59.0976],[18.4818,59.1013],[18.4846,59.1044],[18.4843,59.1045],[18.4846,59.1048],[18.4768,59.1063],[18.466,59.1173],[18.4045,59.0911],[18.3978,59.0892],[18.3956,59.0873],[18.3748,59.0784],[18.3757,59.0692],[18.3718,59.062],[18.3498,59.0529],[18.3444,59.0257]]],[[[18.5105,59.4831],[18.5564,59.4223],[18.5809,59.4307],[18.5796,59.4489],[18.5921,59.4654],[18.6053,59.4668],[18.6012,59.4743],[18.6213,59.4889],[18.633,59.4897],[18.6539,59.5047],[18.697,59.5245],[18.697,59.5251],[18.7375,59.5351],[18.697,59.5336],[18.697,59.5353],[18.6882,59.5367],[18.6745,59.5456],[18.6325,59.5499],[18.6229,59.5472],[18.6214,59.5475],[18.621,59.5475],[18.6152,59.5451],[18.5925,59.5388],[18.5807,59.5308],[18.5706,59.5266],[18.5693,59.5231],[18.5105,59.4831]]],[[[19.0368,57.9052],[19.0716,57.8679],[19.1296,57.8469],[19.1603,57.8803],[19.1499,57.8946],[19.1578,57.9222],[19.2709,57.9483],[19.2961,57.9437],[19.3386,57.9636],[19.3057,57.9764],[19.2855,57.9765],[19.2802,57.9781],[19.1963,57.9801],[19.1634,57.9871],[19.1403,57.9815],[19.1362,57.9816],[19.1358,57.9816],[19.1334,57.9798],[19.0866,57.9685],[19.044,57.9144],[19.0386,57.9104],[19.0388,57.9102],[19.0386,57.91],[19.0397,57.9089],[19.0368,57.9052]]]]}}
]}
