{"type":"FeatureCollection","features":[
{"type":"Feature","properties":{"entityId":"sweden","from":1905,"to":null,"certainty":"estimated","source":"유럽 쪽은 Natural Earth 1:10m admin-1(v5.1.2) 현대 행정구역 조각을 그 시기 국경에 맞춰 묶고, 조각이 역사 경계와 다른 곳은 선을 그어 나눈 근사. 유럽 밖(시베리아·중앙아시아·극동)은 대략적인 추정. 운영자 검수 필요"},"geometry":{"type":"MultiPolygon","coordinates":[[[[16.8087,58.6328],[16.7968,58.5803],[16.8268,58.5598],[16.8303,58.5594],[16.8287,58.5585],[16.8929,58.5146],[16.9402,58.4911],[16.9162,58.4835],[16.9007,58.4834],[16.8505,58.467],[16.8529,58.4631],[16.8303,58.4521],[16.7964,58.4451],[16.7655,58.4407],[16.7649,58.4403],[16.7487,58.3689],[16.7523,58.3701],[16.7546,58.3738],[16.7713,58.3631],[16.7751,58.3397],[16.7428,58.3429],[16.7379,58.3211],[16.7793,58.3256],[16.7992,58.3236],[16.7893,58.3056],[16.7614,58.3056],[16.7586,58.2897],[16.743,58.2813],[16.7307,58.2803],[16.7399,58.2651],[16.803,58.2447],[16.7893,58.2373],[16.8026,58.231],[16.8137,58.2204],[16.8213,58.2071],[16.8241,58.1929],[16.8223,58.1796],[16.8171,58.1772],[16.7962,58.182],[16.7883,58.1793],[16.7915,58.1729],[16.8098,58.1621],[16.7772,58.1305],[16.7214,58.1498],[16.7016,58.1617],[16.6988,58.1494],[16.6983,58.1166],[16.7161,58.1042],[16.7361,58.0848],[16.7149,58.0796],[16.7176,58.0668],[16.7123,58.0595],[16.701,58.057],[16.6975,58.0574],[16.6974,58.054],[16.7074,58.0499],[16.7402,58.0398],[16.7546,58.025],[16.7464,58.0166],[16.7378,58.0142],[16.7205,58.025],[16.6969,58.0167],[16.6966,58.0005],[16.7,57.9977],[16.6966,57.9989],[16.6963,57.9762],[16.7064,57.9621],[16.7354,57.9719],[16.7415,57.9462],[16.7825,57.9151],[16.7273,57.9288],[16.7654,57.8988],[16.7581,57.877],[16.7108,57.8913],[16.6852,57.9166],[16.6818,57.9165],[16.6707,57.8914],[16.6406,57.8931],[16.6191,57.7986],[16.6755,57.7645],[16.7068,57.7506],[16.683,57.7473],[16.6211,57.7742],[16.6147,57.7794],[16.6122,57.7682],[16.6182,57.7666],[16.6908,57.7257],[16.7149,57.7028],[16.7068,57.6885],[16.6392,57.6923],[16.5976,57.704],[16.5954,57.6947],[16.6106,57.6824],[16.6151,57.6479],[16.6305,57.6291],[16.5933,57.6093],[16.6054,57.5684],[16.6106,57.5609],[16.6292,57.5569],[16.689,57.4717],[16.6595,57.4763],[16.6722,57.4597],[16.6333,57.4371],[16.6726,57.4155],[16.6257,57.399],[16.6317,57.3808],[16.5896,57.3855],[16.5575,57.3514],[16.5696,57.3466],[16.5474,57.3288],[16.5628,57.3193],[16.5123,57.3032],[16.5046,57.295],[16.4931,57.2446],[16.4945,57.2429],[16.4925,57.2419],[16.4801,57.1871],[16.5082,57.1414],[16.5126,57.1264],[16.5431,57.118],[16.5696,57.0865],[16.5545,57.0808],[16.5833,57.0449],[16.5348,57.0517],[16.5258,57.0602],[16.4578,56.9275],[16.4363,56.8765],[16.4363,56.8569],[16.4089,56.8084],[16.4286,56.7829],[16.4634,56.7978],[16.4745,56.7863],[16.4548,56.7683],[16.4126,56.7774],[16.3842,56.7678],[16.3683,56.7405],[16.3778,56.7259],[16.3792,56.6756],[16.3587,56.6544],[16.325,56.6522],[16.3011,56.6633],[16.2985,56.6626],[16.2201,56.592],[16.2132,56.5484],[16.1787,56.5371],[16.166,56.508],[16.1406,56.4803],[16.0762,56.3648],[16.0662,56.3359],[16.0383,56.2551],[16.0044,56.2194],[15.9321,56.1747],[15.9019,56.137],[15.8818,56.1036],[15.8814,56.1036],[15.8755,56.1041],[15.8744,56.1027],[15.8517,56.0864],[15.7887,56.1064],[15.7918,56.1107],[15.6958,56.1184],[15.7053,56.1164],[15.7022,56.0767],[15.6511,56.09],[15.6423,56.1046],[15.6648,56.1208],[15.3683,56.1444],[15.3656,56.1411],[15.321,56.1396],[15.322,56.1481],[15.2229,56.156],[15.1924,56.1529],[15.1757,56.1598],[15.1365,56.1629],[15.1309,56.1611],[15.0852,56.1646],[15.0842,56.1671],[15.0403,56.1705],[15.049,56.1536],[14.9714,56.1693],[14.9324,56.1677],[14.906,56.1612],[14.8482,56.164],[14.8303,56.1426],[14.7875,56.162],[14.7837,56.1619],[14.7154,56.1342],[14.7453,56.0582],[14.7678,56.0307],[14.7155,56.0023],[14.7057,56.017],[14.673,56.0053],[14.6115,56.0111],[14.6238,56.0245],[14.6205,56.03],[14.5674,56.0467],[14.5603,56.0489],[14.5599,56.0488],[14.5409,56.0223],[14.5389,56.0196],[14.5143,55.9853],[14.4874,55.9478],[14.4081,55.8374],[14.2749,55.6519],[14.276,55.6364],[14.2761,55.6363],[14.2777,55.6336],[14.3582,55.5637],[14.363,55.5236],[14.2947,55.4755],[14.2649,55.4612],[14.219,55.4138],[14.1812,55.3908],[14.0941,55.3874],[14.0354,55.3971],[14.0293,55.3994],[13.9947,55.4038],[13.5658,55.3869],[13.4496,55.3674],[13.4109,55.3523],[13.3814,55.346],[13.2805,55.3454],[13.1681,55.3692],[13.1581,55.3707],[12.9441,55.3623],[12.9437,55.3623],[12.9347,55.389],[12.9326,55.388],[12.8867,55.3933],[12.8328,55.3826],[12.8288,55.4001],[12.8594,55.4349],[12.8937,55.4221],[12.9144,55.4487],[12.7298,55.9928],[12.6151,56.1124],[12.6095,56.1165],[12.5955,56.1328],[12.5909,56.1376],[12.5895,56.1398],[12.5537,56.1815],[12.5446,56.2104],[12.5225,56.2452],[12.4721,56.2903],[12.4725,56.2903],[12.4723,56.2905],[12.4721,56.2907],[12.4761,56.2909],[12.4514,56.3044],[12.5019,56.2922],[12.5081,56.2925],[12.5082,56.2925],[12.5085,56.2925],[12.5481,56.281],[12.6396,56.2589],[12.6233,56.3067],[12.6038,56.3332],[12.4385,56.558],[12.4178,56.5861],[12.3972,56.6142],[12.3558,56.6704],[12.2732,56.7827],[11.8613,57.3429],[11.8246,57.3928],[11.7881,57.4424],[11.7462,57.5203],[11.7291,57.5522],[11.7119,57.5841],[11.6777,57.6479],[11.5405,57.9031],[11.4245,58.119],[11.4066,58.1311],[11.4132,58.14],[11.2942,58.3615],[11.2536,58.3659],[11.2317,58.3397],[11.2249,58.3707],[11.2044,58.4011],[11.2234,58.4249],[11.2516,58.4228],[11.2517,58.4243],[11.2548,58.4334],[11.2532,58.4377],[11.0582,58.8005],[11.0285,58.8557],[10.9865,58.894],[10.9711,58.9081],[10.9276,58.9478],[10.9711,58.9478],[10.9711,58.9408],[11.0147,58.9408],[11.0147,58.9876],[11.0582,58.9876],[11.0582,58.9905],[11.1057,58.9905],[11.1057,59.0366],[11.1057,59.0826],[11.1531,59.0826],[11.1531,59.112],[11.2005,59.112],[11.2068,59.112],[11.2166,59.1104],[11.2479,59.1119],[11.2953,59.1143],[11.3138,59.1152],[11.3427,59.1078],[11.3705,59.1007],[11.3893,59.0808],[11.39,59.0788],[11.3602,59.0788],[11.3727,59.0498],[11.3998,59.0498],[11.4036,59.0386],[11.4051,59.0365],[11.4051,59.0107],[11.4141,59.0011],[11.4375,58.9917],[11.4532,58.9605],[11.452,58.896],[11.4826,58.8869],[11.5471,58.8847],[11.6116,58.8932],[11.6644,58.9201],[11.6937,58.9735],[11.7089,59.0216],[11.7453,59.0922],[11.7485,59.1401],[11.7756,59.2025],[11.8111,59.2487],[11.8068,59.2936],[11.784,59.3606],[11.6774,59.5591],[11.6749,59.6071],[11.6937,59.6223],[11.8284,59.6597],[11.8917,59.7058],[11.9035,59.77],[11.8837,59.8054],[11.843,59.8384],[11.8496,59.8724],[11.8746,59.8849],[11.9422,59.902],[12.1027,59.894],[12.1437,59.8984],[12.2906,59.9587],[12.4468,60.0511],[12.4832,60.0812],[12.5109,60.118],[12.5247,60.1617],[12.5216,60.1976],[12.4873,60.2959],[12.5047,60.3256],[12.5586,60.3599],[12.5936,60.395],[12.6126,60.4554],[12.5944,60.5149],[12.4825,60.6573],[12.377,60.7541],[12.35,60.7933],[12.3132,60.9019],[12.2948,60.9353],[12.2561,60.9813],[12.2533,61.0017],[12.281,61.0152],[12.5118,61.0491],[12.5697,61.0506],[12.6825,61.0403],[12.7108,61.057],[12.7329,61.1291],[12.7467,61.1515],[12.8197,61.2049],[12.8547,61.2553],[12.8882,61.3496],[12.8771,61.371],[12.6138,61.547],[12.5509,61.5669],[12.4825,61.5691],[12.4165,61.5823],[12.3378,61.633],[12.2913,61.6511],[12.1756,61.7115],[12.1617,61.7248],[12.3175,62.234],[12.3151,62.2718],[12.3143,62.2861],[12.2795,62.3442],[12.0912,62.5863],[12.1031,62.634],[12.1541,62.7105],[12.1562,62.7337],[12.097,62.8866],[12.1044,62.9233],[12.2227,63.0015],[12.0598,63.2048],[11.9924,63.2889],[12.2049,63.4546],[12.2195,63.4966],[12.1703,63.5981],[12.2932,63.657],[12.4825,63.8095],[12.6819,63.9564],[12.7553,63.9914],[12.9824,64.0588],[13.2341,64.0909],[13.9394,64.0095],[13.9823,64.0195],[14.1478,64.169],[14.1614,64.2054],[14.1156,64.4412],[14.0969,64.4653],[14.0609,64.4766],[13.9401,64.4913],[13.6428,64.584],[14.1724,64.9914],[14.3107,65.0841],[14.3321,65.114],[14.3329,65.115],[14.366,65.2158],[14.4005,65.2555],[14.4821,65.2887],[14.5143,65.3181],[14.5183,65.3645],[14.5104,65.4647],[14.5607,65.7011],[14.5702,65.7167],[14.6371,65.7812],[14.6489,65.8024],[14.6444,65.8429],[14.5405,66.1254],[15.0534,66.1533],[15.4819,66.2749],[15.4918,66.288],[15.4761,66.3549],[15.4299,66.4636],[15.4263,66.4912],[15.6695,66.5994],[16.0388,66.8875],[16.1257,66.9344],[16.3106,67.0099],[16.3997,67.036],[16.4156,67.0527],[16.4438,67.1826],[16.4379,67.2003],[16.1271,67.4228],[16.1807,67.4964],[16.1996,67.5083],[16.367,67.5217],[16.4286,67.534],[16.483,67.5578],[16.5872,67.6259],[16.6087,67.6473],[16.7619,67.8772],[16.808,67.9106],[17.2201,68.0401],[17.3,68.0979],[17.3215,68.1053],[17.8954,67.9697],[17.921,67.9729],[17.9819,68.0162],[18.1667,68.1585],[18.1886,68.1987],[18.1357,68.3957],[18.1368,68.4263],[18.1615,68.5302],[18.1893,68.5384],[18.4362,68.5739],[18.4818,68.562],[18.6446,68.5012],[18.7003,68.4956],[19.0381,68.5056],[19.4817,68.424],[19.931,68.3502],[19.9712,68.3513],[20.0103,68.3639],[20.2459,68.4774],[19.9622,68.5412],[20.1518,68.6068],[20.2366,68.6591],[20.3388,68.7655],[20.3565,68.8046],[20.3488,68.8931],[20.3411,68.9101],[20.1023,69.0221],[20.6232,69.0364],[20.6755,69.0182],[20.7954,69.0112],[20.864,68.9863],[20.9112,68.9807],[20.9346,68.967],[20.9178,68.933],[20.8876,68.9271],[20.8845,68.9067],[20.9057,68.8946],[21.0721,68.8694],[21.2166,68.8172],[21.3147,68.754],[21.4064,68.7489],[21.4636,68.6869],[21.4957,68.6755],[21.5725,68.6674],[21.6616,68.6335],[21.7168,68.6192],[21.7371,68.5879],[21.9192,68.5682],[22.0361,68.5065],[22.0384,68.4883],[22.0722,68.477],[22.3031,68.4761],[22.3711,68.4684],[22.378,68.4541],[22.4569,68.4518],[22.5213,68.4382],[22.5652,68.4363],[22.6076,68.4249],[22.6622,68.4274],[22.7486,68.3855],[22.8083,68.3949],[22.8334,68.3848],[22.9037,68.3366],[23.0522,68.2982],[23.0816,68.2653],[23.14,68.2342],[23.1552,68.2174],[23.1598,68.1787],[23.1517,68.1303],[23.1872,68.1223],[23.2721,68.145],[23.3065,68.1456],[23.3309,68.1278],[23.383,68.0512],[23.4847,68.0159],[23.5737,67.9733],[23.6431,67.9632],[23.6612,67.9329],[23.6033,67.903],[23.5325,67.8932],[23.4989,67.8822],[23.4767,67.8413],[23.4847,67.7962],[23.4846,67.7372],[23.5188,67.6528],[23.5426,67.6267],[23.5535,67.587],[23.4734,67.555],[23.4847,67.543],[23.4313,67.4855],[23.4437,67.461],[23.4772,67.4438],[23.5946,67.4536],[23.6627,67.4362],[23.7308,67.4314],[23.7652,67.4201],[23.7514,67.3462],[23.7857,67.3375],[23.7632,67.3065],[23.7354,67.2897],[23.6223,67.269],[23.6027,67.2603],[23.5915,67.225],[23.6149,67.214],[23.574,67.173],[23.5813,67.1531],[23.6666,67.0979],[23.6839,67.0495],[23.7438,67.001],[23.8167,66.9755],[23.8736,66.9247],[23.9334,66.8888],[24.0013,66.8124],[23.9992,66.7963],[23.9392,66.7911],[23.8924,66.7509],[23.903,66.7069],[23.899,66.6664],[23.8819,66.6318],[23.8932,66.596],[23.8819,66.5635],[23.8077,66.5392],[23.7859,66.5184],[23.7311,66.5031],[23.7311,66.4872],[23.6768,66.474],[23.6423,66.4363],[23.6659,66.4056],[23.677,66.3636],[23.666,66.3055],[23.6894,66.257],[23.7242,66.2066],[23.7856,66.1767],[23.8893,66.1611],[23.9114,66.1486],[23.9656,66.0816],[24.0197,66.0489],[24.0553,65.9852],[24.0548,65.9479],[24.1023,65.9086],[24.1245,65.8689],[24.1634,65.8408],[24.1631,65.8227],[24.1751,65.8071],[24.1546,65.8054],[24.0523,65.7966],[24.0532,65.796],[24.0056,65.7926],[23.9562,65.7883],[23.9264,65.7604],[23.8547,65.7891],[23.7817,65.793],[23.7704,65.8099],[23.69,65.8279],[23.6851,65.8267],[23.6493,65.803],[23.6233,65.7962],[23.6084,65.809],[23.593,65.8054],[23.4238,65.8036],[23.422,65.8022],[23.4334,65.7667],[23.385,65.7752],[23.3794,65.8],[23.2222,65.7863],[23.2114,65.7806],[23.2376,65.7687],[23.1585,65.7502],[23.1284,65.734],[23.1296,65.715],[23.0788,65.7072],[23.0868,65.7277],[23.0636,65.7467],[23.002,65.7636],[22.9898,65.7643],[22.936,65.7786],[22.9303,65.7833],[22.9194,65.7863],[22.8997,65.796],[22.8602,65.796],[22.8372,65.8077],[22.818,65.8286],[22.6984,65.809],[22.6997,65.8039],[22.6776,65.7647],[22.6481,65.7551],[22.653,65.7781],[22.6279,65.7904],[22.601,65.793],[22.5375,65.7826],[22.5227,65.7764],[22.5163,65.7791],[22.3473,65.7513],[22.326,65.7355],[22.2997,65.7435],[22.2821,65.7406],[22.2783,65.732],[22.3395,65.7242],[22.3618,65.7163],[22.388,65.6725],[22.3396,65.665],[22.3294,65.6893],[22.3079,65.7008],[22.2733,65.6954],[22.2702,65.6496],[22.2849,65.6315],[22.2688,65.6303],[22.2682,65.6214],[22.2625,65.6118],[22.2627,65.6118],[22.3006,65.6115],[22.3191,65.6315],[22.2896,65.6557],[22.2931,65.6737],[22.3333,65.6514],[22.3259,65.6452],[22.3845,65.6278],[22.3333,65.6042],[22.366,65.5889],[22.405,65.5832],[22.429,65.549],[22.4053,65.5419],[22.3501,65.5694],[22.263,65.5896],[22.2566,65.569],[22.2283,65.5721],[22.1265,65.6037],[22.0884,65.6106],[22.0941,65.5888],[22.1187,65.5835],[22.1701,65.553],[22.203,65.549],[22.1769,65.5398],[22.1209,65.5395],[22.1092,65.5371],[22.0882,65.5293],[22.0878,65.5293],[22.0815,65.5294],[22.0659,65.5143],[22.0476,65.525],[22.0112,65.5175],[21.9178,65.5308],[21.9048,65.5088],[21.9282,65.4897],[21.9471,65.5094],[22.0316,65.467],[22.0117,65.432],[21.9661,65.4337],[21.9422,65.4534],[21.9323,65.4414],[21.9422,65.4118],[21.8885,65.4077],[21.8809,65.4186],[21.821,65.401],[21.7902,65.4001],[21.7439,65.408],[21.6262,65.3231],[21.7017,65.2859],[21.6681,65.2528],[21.6228,65.2408],[21.577,65.2381],[21.5444,65.2473],[21.5356,65.2577],[21.5153,65.243],[21.5376,65.2309],[21.6099,65.1689],[21.6188,65.148],[21.5999,65.1391],[21.5761,65.1384],[21.5734,65.1249],[21.5602,65.1148],[21.5622,65.112],[21.5438,65.0831],[21.5817,65.0677],[21.5632,65.0613],[21.4914,65.0622],[21.4741,65.0489],[21.5034,65.0214],[21.4631,65.0077],[21.4279,65.0136],[21.4258,65.012],[21.3971,64.9967],[21.3831,64.9866],[21.3942,64.9668],[21.3778,64.96],[21.3259,64.9586],[21.2926,64.9408],[21.2432,64.9082],[21.2769,64.7752],[21.3058,64.7683],[21.2995,64.7488],[21.2836,64.7486],[21.2942,64.7066],[21.3123,64.6993],[21.2989,64.688],[21.2991,64.6873],[21.3322,64.6288],[21.3594,64.5909],[21.374,64.608],[21.3942,64.603],[21.4556,64.5625],[21.4673,64.5873],[21.4898,64.5792],[21.4898,64.5559],[21.5151,64.5371],[21.5519,64.5347],[21.4966,64.5246],[21.4631,64.5484],[21.4134,64.531],[21.4391,64.5147],[21.4761,64.515],[21.4898,64.487],[21.4875,64.484],[21.5194,64.4638],[21.5192,64.4635],[21.5194,64.4634],[21.515,64.4552],[21.5199,64.4554],[21.5376,64.4727],[21.5786,64.4659],[21.5977,64.4752],[21.6001,64.4424],[21.5752,64.4411],[21.5139,64.4147],[21.4573,64.3716],[21.3732,64.3304],[21.3596,64.3388],[21.3233,64.3245],[21.3328,64.315],[21.2878,64.3023],[21.271,64.3041],[21.2566,64.2985],[21.1532,64.2456],[21.117,64.2211],[21.1079,64.2225],[21.019,64.177],[20.9538,64.0981],[20.9543,64.0948],[20.9385,64.0797],[20.9127,64.0485],[20.897,63.9837],[20.8415,63.9594],[20.832,63.9509],[20.8206,63.9372],[20.7865,63.8786],[20.7293,63.8496],[20.7251,63.8495],[20.6793,63.8274],[20.709,63.8222],[20.6747,63.7893],[20.6431,63.8145],[20.6351,63.8165],[20.5719,63.8018],[20.565,63.7983],[20.5427,63.7753],[20.5355,63.7933],[20.4588,63.7754],[20.4558,63.7722],[20.4495,63.7715],[20.4159,63.7504],[20.4211,63.7123],[20.4056,63.6898],[20.3649,63.6807],[20.3535,63.7014],[20.3591,63.7178],[20.3176,63.7026],[20.3181,63.679],[20.2952,63.6522],[20.2676,63.6706],[20.2717,63.6857],[20.2445,63.6758],[20.2428,63.6509],[20.1535,63.6509],[20.1199,63.6425],[20.1138,63.6456],[20.0146,63.6285],[20.0305,63.6025],[19.9563,63.6184],[19.9376,63.6152],[19.9045,63.606],[19.8739,63.5893],[19.8644,63.5732],[19.7784,63.5354],[19.7581,63.5091],[19.7725,63.4646],[19.6873,63.4313],[19.6395,63.4449],[19.638,63.4657],[19.5894,63.4878],[19.5354,63.5008],[19.511,63.49],[19.5234,63.4858],[19.497,63.4799],[19.4926,63.4601],[19.4938,63.4485],[19.5117,63.4333],[19.508,63.4119],[19.4546,63.4312],[19.4222,63.4503],[19.3478,63.4172],[19.3107,63.4007],[19.2735,63.3841],[19.2695,63.3425],[19.2455,63.3223],[19.2293,63.3425],[19.2075,63.3261],[19.1907,63.3221],[19.1472,63.2984],[19.1535,63.294],[19.0972,63.2379],[19.0671,63.255],[19.0417,63.2412],[19.0399,63.239],[19.0564,63.2265],[19.112,63.2196],[19.0679,63.2021],[19.0368,63.1779],[18.9618,63.2258],[18.9666,63.2389],[18.9573,63.2433],[18.8953,63.2156],[18.9133,63.2121],[18.8626,63.192],[18.8421,63.1919],[18.4889,63.0345],[18.4866,63.0257],[18.4679,63.0237],[18.4667,63.0246],[18.396,62.9931],[18.4338,62.9913],[18.5244,62.9919],[18.5511,62.9859],[18.5767,62.9584],[18.5366,62.9731],[18.5281,62.9538],[18.4876,62.9532],[18.4846,62.9288],[18.511,62.9324],[18.5125,62.9041],[18.4723,62.9017],[18.4673,62.9024],[18.463,62.8958],[18.4435,62.8916],[18.4634,62.8876],[18.4714,62.8677],[18.4001,62.8415],[18.3311,62.8401],[18.3012,62.8607],[18.247,62.849],[18.2301,62.83],[18.2622,62.8483],[18.2827,62.8415],[18.2588,62.8106],[18.1951,62.7774],[18.2003,62.805],[18.1714,62.7899],[18.1612,62.7899],[18.1405,62.7719],[18.0773,62.7739],[18.0684,62.7939],[18.009,62.7944],[18.034,62.8115],[18.0767,62.8087],[18.0774,62.8129],[18.0915,62.8351],[18.04,62.8344],[17.9403,62.79],[17.9568,62.7825],[17.9624,62.7521],[17.9954,62.7277],[18.0027,62.709],[17.9973,62.6649],[17.9749,62.6572],[17.9336,62.6708],[17.9259,62.6708],[17.9053,62.6599],[17.914,62.6533],[18.0432,62.6262],[18.0642,62.5958],[18.0425,62.5921],[17.9683,62.5605],[17.9614,62.5814],[17.9482,62.5781],[17.9105,62.5531],[17.9094,62.5494],[17.9017,62.5473],[17.8843,62.5357],[17.8928,62.5275],[17.8617,62.5008],[17.8235,62.4858],[17.7947,62.5012],[17.719,62.5],[17.6909,62.4457],[17.7074,62.4374],[17.6869,62.4379],[17.5896,62.2495],[17.5994,62.2496],[17.6527,62.232],[17.5695,62.2047],[17.5666,62.2049],[17.555,62.1824],[17.5414,62.1561],[17.5279,62.1298],[17.5143,62.1035],[17.5007,62.0772],[17.4735,62.0245],[17.3812,61.8457],[17.388,61.8187],[17.4056,61.8211],[17.3898,61.8116],[17.3974,61.7817],[17.419,61.7401],[17.4301,61.7269],[17.4831,61.7346],[17.5203,61.7024],[17.4963,61.6351],[17.4461,61.6329],[17.4199,61.6498],[17.3823,61.6885],[17.3443,61.6905],[17.3509,61.6772],[17.3132,61.682],[17.3063,61.698],[17.305,61.6983],[17.1741,61.4448],[17.2171,61.4339],[17.1662,61.4164],[17.1612,61.4199],[17.141,61.3807],[17.1778,61.3581],[17.1792,61.3553],[17.2002,61.3481],[17.2018,61.3371],[17.2761,61.314],[17.2137,61.3134],[17.1973,61.3174],[17.1994,61.313],[17.1993,61.3129],[17.1994,61.3126],[17.1889,61.3025],[17.2479,61.2873],[17.1873,61.2912],[17.1805,61.2944],[17.1737,61.2879],[17.5566,60.9097],[17.6541,60.8134],[17.6817,60.7861],[17.7094,60.7588],[17.7648,60.7041],[17.833,60.6367],[17.9002,60.5975],[17.9186,60.6002],[17.9749,60.5878],[17.9954,60.553],[17.9901,60.5452],[18.3181,60.3545],[18.3263,60.3555],[18.3584,60.3476],[18.428,60.3488],[18.4478,60.3414],[18.4478,60.3135],[18.4517,60.3105],[18.5363,60.265],[18.5654,60.2593],[18.6048,60.2383],[18.5637,60.2276],[18.5515,60.23],[18.5494,60.2199],[18.561,60.2131],[18.6098,60.1847],[18.6586,60.1563],[18.7075,60.1278],[18.7207,60.126],[18.7277,60.116],[18.7598,60.0973],[18.7659,60.1111],[18.8035,60.1216],[18.8205,60.1137],[18.8245,60.0683],[18.8462,60.0312],[18.8518,60.0266],[18.8842,59.9797],[18.9346,59.9433],[18.9407,59.9311],[18.9658,59.9268],[19.0095,59.9094],[19.0095,59.8963],[19.0436,59.8821],[19.0368,59.9025],[19.0716,59.8963],[19.0679,59.8337],[19.0213,59.84],[18.9616,59.8896],[18.9824,59.8483],[18.9955,59.8395],[18.9963,59.8098],[18.9978,59.7946],[18.9803,59.7892],[18.9786,59.7835],[19.042,59.785],[19.0852,59.7722],[19.0745,59.7497],[19.036,59.7285],[18.9753,59.7191],[18.9413,59.7238],[18.9232,59.7419],[18.9015,59.7349],[18.9014,59.7347],[18.8555,59.7131],[18.8462,59.7117],[18.7186,59.6564],[18.7086,59.6494],[18.742,59.6494],[18.7005,59.6214],[18.6793,59.6289],[18.6711,59.6231],[18.6865,59.6058],[18.64,59.5836],[18.5973,59.574],[18.5407,59.5458],[18.5228,59.5422],[18.4338,59.5037],[18.4131,59.491],[18.345,59.4731],[18.3336,59.4737],[18.2772,59.4386],[18.2827,59.4364],[18.2931,59.414],[18.3379,59.4085],[18.3073,59.3968],[18.2476,59.3977],[18.2324,59.4002],[18.2129,59.3763],[18.2375,59.3728],[18.2046,59.366],[18.2041,59.3654],[18.2121,59.3415],[18.1842,59.341],[18.1725,59.3266],[18.1729,59.3266],[18.1966,59.3342],[18.2026,59.3306],[18.2106,59.3322],[18.2466,59.3526],[18.2547,59.3628],[18.2702,59.366],[18.2718,59.3669],[18.2796,59.368],[18.3181,59.3759],[18.3305,59.3748],[18.3366,59.3756],[18.3368,59.3756],[18.337,59.3756],[18.3827,59.3701],[18.3897,59.3695],[18.3911,59.3691],[18.3943,59.3687],[18.4499,59.3925],[18.4478,59.3955],[18.4569,59.3955],[18.459,59.3964],[18.4806,59.4016],[18.4375,59.4193],[18.4268,59.4364],[18.4846,59.4342],[18.5366,59.416],[18.5425,59.3996],[18.5602,59.3947],[18.5649,59.3892],[18.6123,59.3749],[18.6008,59.3625],[18.5864,59.3639],[18.5927,59.3565],[18.6326,59.3469],[18.6465,59.3303],[18.6198,59.3083],[18.5217,59.2985],[18.5001,59.2922],[18.5234,59.2886],[18.6123,59.2583],[18.5391,59.26],[18.5161,59.2713],[18.5324,59.2419],[18.5781,59.2446],[18.5516,59.2259],[18.5204,59.2287],[18.4683,59.2521],[18.4304,59.2583],[18.4131,59.2788],[18.4119,59.2792],[18.3917,59.2272],[18.4268,59.1968],[18.3866,59.214],[18.3777,59.1912],[18.3926,59.1689],[18.4297,59.1746],[18.4143,59.14],[18.3815,59.1478],[18.3261,59.1354],[18.3226,59.1322],[18.3118,59.1254],[18.3242,59.1081],[18.2009,59.0808],[18.2554,59.1013],[18.2554,59.1018],[18.1042,59.0639],[18.0962,59.0583],[18.0906,59.0584],[18.0503,59.0391],[18.0505,59.0386],[18.0494,59.0386],[18.018,59.0235],[18.0186,59.0229],[17.9612,58.9634],[17.9706,58.936],[17.9307,58.9101],[17.8997,58.9157],[17.8928,58.861],[17.8694,58.877],[17.8718,58.902],[17.8518,58.9248],[17.8052,58.9339],[17.7999,58.9384],[17.7879,58.9357],[17.8035,58.9083],[17.7744,58.8862],[17.783,58.9157],[17.7493,58.9238],[17.7495,58.9271],[17.6878,58.9132],[17.6848,58.9008],[17.6716,58.9096],[17.6377,58.9019],[17.6038,58.8943],[17.5627,58.8851],[17.5907,58.8673],[17.5557,58.8542],[17.5096,58.8716],[17.4654,58.8597],[17.45,58.8159],[17.4883,58.7996],[17.4597,58.7914],[17.378,58.8015],[17.3596,58.7886],[17.3716,58.779],[17.3578,58.7512],[17.2761,58.7488],[17.2761,58.7307],[17.178,58.7318],[17.1022,58.7103],[17.0967,58.7078],[17.1253,58.7058],[17.1457,58.6966],[17.093,58.6608],[17.0698,58.6618],[17.0272,58.6763],[17.0042,58.6659],[17.0358,58.6413],[16.9242,58.6254],[16.8087,58.6328]]],[[[18.3757,59.0692],[18.3748,59.0784],[18.3956,59.0873],[18.3978,59.0892],[18.4045,59.0911],[18.466,59.1173],[18.4768,59.1063],[18.4846,59.1048],[18.4843,59.1045],[18.4846,59.1044],[18.4818,59.1013],[18.4854,59.0976],[18.4901,59.0894],[18.4359,59.0498],[18.4053,59.0086],[18.3665,59.0091],[18.3444,59.0257],[18.3498,59.0529],[18.3718,59.062],[18.3757,59.0692]]],[[[18.6012,59.4743],[18.6053,59.4668],[18.5921,59.4654],[18.5796,59.4489],[18.5809,59.4307],[18.5564,59.4223],[18.5105,59.4831],[18.5693,59.5231],[18.5706,59.5266],[18.5807,59.5308],[18.5925,59.5388],[18.6152,59.5451],[18.621,59.5475],[18.6213,59.5475],[18.6214,59.5475],[18.6229,59.5472],[18.6325,59.5499],[18.6745,59.5456],[18.6882,59.5367],[18.697,59.5353],[18.697,59.5336],[18.7375,59.5351],[18.697,59.5251],[18.697,59.5245],[18.6539,59.5047],[18.633,59.4897],[18.6213,59.4889],[18.6012,59.4743]]],[[[17.0571,57.2435],[17.0663,57.2267],[17.0495,57.1883],[17.0381,57.1847],[17.0209,57.1626],[17.0153,57.1479],[16.9844,57.1156],[16.9721,57.0998],[16.9606,57.0632],[16.9359,57.0532],[16.9162,57.0279],[16.9339,57.0176],[16.88,56.9759],[16.8741,56.9565],[16.8831,56.9162],[16.8582,56.8968],[16.8499,56.8756],[16.8394,56.8407],[16.8352,56.8382],[16.8303,56.8258],[16.797,56.8154],[16.7782,56.8042],[16.7605,56.7675],[16.7565,56.7475],[16.7178,56.6792],[16.6937,56.6294],[16.6828,56.5935],[16.6735,56.5876],[16.5679,56.369],[16.5664,56.3461],[16.5361,56.3034],[16.5298,56.2903],[16.5211,56.2822],[16.4909,56.2396],[16.4502,56.2187],[16.4126,56.2293],[16.4126,56.2709],[16.3989,56.2982],[16.4021,56.3065],[16.3998,56.3112],[16.3939,56.4526],[16.3914,56.4587],[16.3929,56.4759],[16.3926,56.483],[16.3926,56.4831],[16.3926,56.4834],[16.3942,56.4911],[16.3989,56.5447],[16.4104,56.5677],[16.4106,56.5685],[16.4114,56.5696],[16.4194,56.5856],[16.4309,56.597],[16.446,56.6183],[16.4528,56.6375],[16.6209,56.8723],[16.6379,56.8825],[16.6612,56.8852],[16.7229,56.9007],[16.7936,57.0039],[16.8264,57.0387],[16.8642,57.091],[16.9002,57.1744],[16.904,57.1791],[16.9099,57.2022],[16.9334,57.2158],[16.9611,57.2504],[16.9665,57.3046],[17.0192,57.3446],[17.0653,57.3577],[17.0735,57.3432],[17.0972,57.3528],[17.1245,57.3193],[17.108,57.3145],[17.0519,57.2799],[17.0571,57.2435]]],[[[19.0747,57.8356],[19.0749,57.8355],[19.075,57.8354],[19.0852,57.8258],[19.0326,57.823],[18.9959,57.8122],[18.9914,57.8098],[18.9858,57.8016],[18.9816,57.7705],[18.9696,57.7776],[18.9454,57.7416],[18.937,57.7401],[18.9413,57.7296],[18.8652,57.7233],[18.8626,57.7238],[18.8158,57.7052],[18.8048,57.6084],[18.8103,57.6073],[18.802,57.5834],[18.7906,57.4834],[18.8542,57.4378],[18.8689,57.4353],[18.8797,57.4492],[18.9089,57.4392],[18.93,57.4045],[18.9099,57.3876],[18.8711,57.3908],[18.8446,57.3858],[18.8392,57.3837],[18.8345,57.3808],[18.8276,57.3791],[18.7834,57.3615],[18.7438,57.3233],[18.712,57.2633],[18.7141,57.2429],[18.6805,57.2299],[18.6401,57.2248],[18.5748,57.2066],[18.5554,57.1925],[18.499,57.1752],[18.4774,57.1635],[18.4348,57.1274],[18.4546,57.1274],[18.4222,57.1167],[18.3874,57.0872],[18.3572,57.0167],[18.3643,57.0114],[18.4001,57.004],[18.3518,57.004],[18.3496,56.9989],[18.3584,56.9897],[18.3417,56.9804],[18.3406,56.9778],[18.3196,56.9669],[18.2985,56.9416],[18.2039,56.9152],[18.1697,56.912],[18.1387,56.922],[18.1624,56.9453],[18.2022,57.0041],[18.2009,57.0176],[18.2227,57.0257],[18.2859,57.0839],[18.2799,57.0877],[18.2233,57.0603],[18.2009,57.0728],[18.2251,57.0949],[18.2144,57.1138],[18.222,57.125],[18.2106,57.1323],[18.2065,57.1393],[18.1853,57.1448],[18.1664,57.2077],[18.1638,57.2122],[18.1348,57.2419],[18.0994,57.259],[18.1156,57.297],[18.1273,57.3021],[18.1529,57.3392],[18.1278,57.4483],[18.1278,57.4486],[18.1278,57.4487],[18.1281,57.4536],[18.1209,57.4651],[18.112,57.5111],[18.1282,57.5482],[18.1349,57.5541],[18.135,57.5563],[18.1603,57.5768],[18.1615,57.5779],[18.1619,57.5781],[18.2034,57.6118],[18.2826,57.6552],[18.405,57.7577],[18.4287,57.7707],[18.4631,57.8032],[18.4994,57.8266],[18.5501,57.8394],[18.5687,57.8361],[18.6049,57.8426],[18.658,57.9018],[18.7005,57.9213],[18.7424,57.9179],[18.7693,57.8878],[18.7625,57.871],[18.7918,57.8387],[18.8047,57.8341],[18.8071,57.8387],[18.8107,57.8512],[18.8159,57.8547],[18.8406,57.9],[18.8451,57.9011],[18.8374,57.9122],[18.9133,57.9213],[18.9084,57.9138],[18.9453,57.9032],[18.9764,57.9115],[19.0095,57.9083],[19.014,57.8813],[19.0402,57.8679],[19.0738,57.8364],[19.075,57.8358],[19.0746,57.8357],[19.0748,57.8356],[19.0747,57.8356]]],[[[19.1499,57.8946],[19.1603,57.8803],[19.1296,57.8469],[19.0716,57.8679],[19.0368,57.9052],[19.0397,57.9089],[19.0386,57.91],[19.0388,57.9102],[19.0386,57.9104],[19.044,57.9144],[19.0866,57.9685],[19.1334,57.9798],[19.1358,57.9816],[19.1362,57.9816],[19.1403,57.9815],[19.1634,57.9871],[19.1963,57.9801],[19.2802,57.9781],[19.2855,57.9765],[19.3057,57.9764],[19.3386,57.9636],[19.2961,57.9437],[19.2709,57.9483],[19.1578,57.9222],[19.1499,57.8946]]]]}}
]}
