{"type":"FeatureCollection","features":[
{"type":"Feature","properties":{"entityId":"sweden-medieval","from":1453,"to":1523,"certainty":"estimated","source":"유럽 쪽은 Natural Earth 1:10m admin-1(v5.1.2) 현대 행정구역 조각을 그 시기 국경에 맞춰 묶고, 조각이 역사 경계와 다른 곳은 선을 그어 나눈 근사. 유럽 밖(시베리아·중앙아시아·극동)은 대략적인 추정. 운영자 검수 필요"},"geometry":{"type":"MultiPolygon","coordinates":[[[[11.6582,57.6842],[11.6777,57.6479],[11.7119,57.5841],[11.7291,57.5522],[11.8246,57.5522],[11.8246,57.5679],[11.9145,57.5679],[11.9128,57.5829],[11.9562,57.5864],[12.0693,57.5726],[12.1455,57.5806],[12.3019,57.6164],[12.3319,57.5838],[12.3306,57.5067],[12.3368,57.4908],[12.4155,57.4359],[12.3932,57.3835],[12.4028,57.3538],[12.4345,57.3059],[12.4579,57.2913],[12.5148,57.2981],[12.5508,57.3284],[12.5946,57.3506],[12.6742,57.3467],[12.7023,57.3358],[12.7482,57.3025],[12.7844,57.2961],[12.8199,57.3022],[12.8642,57.284],[12.9444,57.2775],[12.9543,57.2675],[12.9307,57.2327],[12.9532,57.1996],[13.019,57.193],[13.0558,57.1679],[13.1166,57.157],[13.1,57.146],[13.0899,57.11],[13.1011,57.0838],[13.1381,57.0412],[13.1515,57.038],[13.2238,57.0789],[13.2395,57.0975],[13.3947,57.1206],[13.4876,57.1081],[13.5924,57.0678],[13.607,57.0214],[13.6398,57.001],[13.6937,56.9834],[13.698,56.9646],[13.6771,56.9343],[13.6218,56.9068],[13.5386,56.8936],[13.4858,56.8792],[13.4187,56.879],[13.3521,56.8676],[13.3213,56.8321],[13.3082,56.7019],[13.3523,56.6705],[13.4187,56.603],[13.4488,56.5591],[13.4516,56.492],[13.4718,56.4477],[13.5014,56.4238],[13.5767,56.4238],[13.9933,56.4792],[14.0419,56.4927],[14.0633,56.5255],[14.0947,56.5412],[14.1623,56.5233],[14.2778,56.5239],[14.3591,56.5072],[14.5407,56.4775],[14.5963,56.4645],[14.7,56.4098],[14.7251,56.402],[14.8696,56.3791],[14.9152,56.3819],[14.9828,56.4258],[14.9957,56.4474],[15.104,56.4628],[15.1883,56.4439],[15.2157,56.4431],[15.247,56.4675],[15.3426,56.4693],[15.363,56.4821],[15.4192,56.5029],[15.5125,56.4876],[15.5495,56.5091],[15.5973,56.5017],[15.6681,56.4571],[15.7246,56.4282],[15.8002,56.3749],[15.8596,56.3506],[15.98,56.3262],[16.031,56.3263],[16.0662,56.3359],[16.0762,56.3648],[16.1406,56.4803],[16.166,56.508],[16.1787,56.5371],[16.2132,56.5484],[16.2201,56.592],[16.2985,56.6626],[16.3011,56.6633],[16.325,56.6522],[16.3587,56.6544],[16.3792,56.6756],[16.3778,56.7259],[16.3683,56.7405],[16.3842,56.7678],[16.4126,56.7774],[16.4548,56.7683],[16.4745,56.7863],[16.4634,56.7978],[16.4286,56.7829],[16.4089,56.8084],[16.4363,56.8569],[16.4363,56.8765],[16.4578,56.9275],[16.5258,57.0602],[16.5348,57.0517],[16.5833,57.0449],[16.5545,57.0808],[16.5696,57.0865],[16.5431,57.118],[16.5126,57.1264],[16.5082,57.1414],[16.4801,57.1871],[16.4925,57.2419],[16.4945,57.2429],[16.4931,57.2446],[16.5046,57.295],[16.5123,57.3032],[16.5628,57.3193],[16.5474,57.3288],[16.5696,57.3466],[16.5575,57.3514],[16.5896,57.3855],[16.6317,57.3808],[16.6257,57.399],[16.6726,57.4155],[16.6333,57.4371],[16.6722,57.4597],[16.6595,57.4763],[16.689,57.4717],[16.6292,57.5569],[16.6106,57.5609],[16.6054,57.5684],[16.5933,57.6093],[16.6305,57.6291],[16.6151,57.6479],[16.6106,57.6824],[16.5954,57.6947],[16.5976,57.704],[16.6392,57.6923],[16.7068,57.6885],[16.7149,57.7028],[16.6908,57.7257],[16.6182,57.7666],[16.6122,57.7682],[16.6147,57.7794],[16.6211,57.7742],[16.683,57.7473],[16.7068,57.7506],[16.6755,57.7645],[16.6191,57.7986],[16.6406,57.8931],[16.6707,57.8914],[16.6818,57.9165],[16.6852,57.9166],[16.7108,57.8913],[16.7581,57.877],[16.7654,57.8988],[16.7273,57.9288],[16.7825,57.9151],[16.7415,57.9462],[16.7354,57.9719],[16.7064,57.9621],[16.6963,57.9762],[16.6966,57.9989],[16.7,57.9977],[16.6966,58.0005],[16.6969,58.0167],[16.7205,58.025],[16.7378,58.0142],[16.7464,58.0166],[16.7546,58.025],[16.7402,58.0398],[16.7074,58.0499],[16.6974,58.054],[16.6975,58.0574],[16.701,58.057],[16.7123,58.0595],[16.7176,58.0668],[16.7149,58.0796],[16.7361,58.0848],[16.7161,58.1042],[16.6983,58.1166],[16.6988,58.1494],[16.7016,58.1617],[16.7214,58.1498],[16.7772,58.1305],[16.8098,58.1621],[16.7915,58.1729],[16.7883,58.1793],[16.7962,58.182],[16.8171,58.1772],[16.8223,58.1796],[16.8241,58.1929],[16.8213,58.2071],[16.8137,58.2204],[16.8026,58.231],[16.7893,58.2373],[16.803,58.2447],[16.7399,58.2651],[16.7307,58.2803],[16.743,58.2813],[16.7586,58.2897],[16.7614,58.3056],[16.7893,58.3056],[16.7992,58.3236],[16.7793,58.3256],[16.7379,58.3211],[16.7428,58.3429],[16.7751,58.3397],[16.7713,58.3631],[16.7546,58.3738],[16.7523,58.3701],[16.7487,58.3689],[16.7649,58.4403],[16.7655,58.4407],[16.7964,58.4451],[16.8303,58.4521],[16.8529,58.4631],[16.8505,58.467],[16.9007,58.4834],[16.9162,58.4835],[16.9402,58.4911],[16.8929,58.5146],[16.8287,58.5585],[16.8303,58.5594],[16.8268,58.5598],[16.7968,58.5803],[16.8087,58.6328],[16.9242,58.6254],[17.0358,58.6413],[17.0042,58.6659],[17.0272,58.6763],[17.0698,58.6618],[17.093,58.6608],[17.1457,58.6966],[17.1253,58.7058],[17.0967,58.7078],[17.1022,58.7103],[17.178,58.7318],[17.2761,58.7307],[17.2761,58.7488],[17.3578,58.7512],[17.3716,58.779],[17.3596,58.7886],[17.378,58.8015],[17.4597,58.7914],[17.4883,58.7996],[17.45,58.8159],[17.4654,58.8597],[17.5096,58.8716],[17.5557,58.8542],[17.5907,58.8673],[17.5627,58.8851],[17.6038,58.8943],[17.6377,58.9019],[17.6716,58.9096],[17.6848,58.9008],[17.6878,58.9132],[17.7495,58.9271],[17.7493,58.9238],[17.783,58.9157],[17.7744,58.8862],[17.8035,58.9083],[17.7879,58.9357],[17.7999,58.9384],[17.8052,58.9339],[17.8518,58.9248],[17.8718,58.902],[17.8694,58.877],[17.8928,58.861],[17.8997,58.9157],[17.9307,58.9101],[17.9706,58.936],[17.9612,58.9634],[18.0186,59.0229],[18.018,59.0235],[18.0494,59.0386],[18.0505,59.0386],[18.0503,59.0391],[18.0906,59.0584],[18.0962,59.0583],[18.1042,59.0639],[18.2554,59.1018],[18.2554,59.1013],[18.2009,59.0808],[18.3242,59.1081],[18.3118,59.1254],[18.3226,59.1322],[18.3261,59.1354],[18.3815,59.1478],[18.4143,59.14],[18.4297,59.1746],[18.3926,59.1689],[18.3777,59.1912],[18.3866,59.214],[18.4268,59.1968],[18.3917,59.2272],[18.4119,59.2792],[18.4131,59.2788],[18.4304,59.2583],[18.4683,59.2521],[18.5204,59.2287],[18.5516,59.2259],[18.5781,59.2446],[18.5324,59.2419],[18.5161,59.2713],[18.5391,59.26],[18.6123,59.2583],[18.5234,59.2886],[18.5001,59.2922],[18.5217,59.2985],[18.6198,59.3083],[18.6465,59.3303],[18.6326,59.3469],[18.5927,59.3565],[18.5864,59.3639],[18.6008,59.3625],[18.6123,59.3749],[18.5649,59.3892],[18.5602,59.3947],[18.5425,59.3996],[18.5366,59.416],[18.4846,59.4342],[18.4268,59.4364],[18.4375,59.4193],[18.4806,59.4016],[18.459,59.3964],[18.4569,59.3955],[18.4478,59.3955],[18.4499,59.3925],[18.3943,59.3687],[18.3911,59.3691],[18.3897,59.3695],[18.3827,59.3701],[18.337,59.3756],[18.3366,59.3756],[18.3305,59.3748],[18.3181,59.3759],[18.2796,59.368],[18.2718,59.3669],[18.2702,59.366],[18.2547,59.3628],[18.2466,59.3526],[18.2106,59.3322],[18.2026,59.3306],[18.1966,59.3342],[18.1729,59.3266],[18.1725,59.3266],[18.1842,59.341],[18.2121,59.3415],[18.2041,59.3654],[18.2046,59.366],[18.2375,59.3728],[18.2129,59.3763],[18.2324,59.4002],[18.2476,59.3977],[18.3073,59.3968],[18.3379,59.4085],[18.2931,59.414],[18.2827,59.4364],[18.2772,59.4386],[18.3336,59.4737],[18.345,59.4731],[18.4131,59.491],[18.4338,59.5037],[18.5228,59.5422],[18.5407,59.5458],[18.5973,59.574],[18.64,59.5836],[18.6865,59.6058],[18.6711,59.6231],[18.6793,59.6289],[18.7005,59.6214],[18.742,59.6494],[18.7086,59.6494],[18.7186,59.6564],[18.8462,59.7117],[18.8555,59.7131],[18.9014,59.7347],[18.9015,59.7349],[18.9232,59.7419],[18.9413,59.7238],[18.9753,59.7191],[19.036,59.7285],[19.0745,59.7497],[19.0852,59.7722],[19.042,59.785],[18.9786,59.7835],[18.9803,59.7892],[18.9978,59.7946],[18.9963,59.8098],[18.9955,59.8395],[18.9824,59.8483],[18.9616,59.8896],[19.0213,59.84],[19.0679,59.8337],[19.0716,59.8963],[19.0368,59.9025],[19.0436,59.8821],[19.0095,59.8963],[19.0095,59.9094],[18.9658,59.9268],[18.9407,59.9311],[18.9346,59.9433],[18.8842,59.9797],[18.8518,60.0266],[18.8462,60.0312],[18.8245,60.0683],[18.8205,60.1137],[18.8035,60.1216],[18.7659,60.1111],[18.7598,60.0973],[18.7277,60.116],[18.7207,60.126],[18.7075,60.1278],[18.6586,60.1563],[18.561,60.2131],[18.5494,60.2199],[18.5515,60.23],[18.5637,60.2276],[18.6048,60.2383],[18.5654,60.2593],[18.5363,60.265],[18.4517,60.3105],[18.4478,60.3135],[18.4478,60.3414],[18.428,60.3488],[18.3584,60.3476],[18.3263,60.3555],[18.3181,60.3545],[17.9901,60.5452],[17.9954,60.553],[17.9749,60.5878],[17.9186,60.6002],[17.9002,60.5975],[17.833,60.6367],[17.7648,60.7041],[17.7094,60.7588],[17.6817,60.7861],[17.6541,60.8134],[17.5566,60.9097],[17.1737,61.2879],[17.1805,61.2944],[17.1873,61.2912],[17.2479,61.2873],[17.1889,61.3025],[17.1994,61.3126],[17.1993,61.3129],[17.1994,61.313],[17.1973,61.3174],[17.2137,61.3134],[17.2761,61.314],[17.2018,61.3371],[17.2002,61.3481],[17.1792,61.3553],[17.1778,61.3581],[17.141,61.3807],[17.1612,61.4199],[17.1662,61.4164],[17.2171,61.4339],[17.1741,61.4448],[17.305,61.6983],[17.3063,61.698],[17.3132,61.682],[17.3509,61.6772],[17.3443,61.6905],[17.3823,61.6885],[17.4199,61.6498],[17.4461,61.6329],[17.4963,61.6351],[17.5203,61.7024],[17.4831,61.7346],[17.4301,61.7269],[17.419,61.7401],[17.3974,61.7817],[17.3898,61.8116],[17.4056,61.8211],[17.388,61.8187],[17.3812,61.8457],[17.4735,62.0245],[17.5007,62.0772],[17.5279,62.1298],[17.5414,62.1561],[17.555,62.1824],[17.5666,62.2049],[17.5695,62.2047],[17.6527,62.232],[17.5994,62.2496],[17.5896,62.2495],[17.6869,62.4379],[17.7074,62.4374],[17.6909,62.4457],[17.719,62.5],[17.7947,62.5012],[17.8235,62.4858],[17.8617,62.5008],[17.8928,62.5275],[17.8843,62.5357],[17.9017,62.5473],[17.9094,62.5494],[17.9105,62.5531],[17.9482,62.5781],[17.9614,62.5814],[17.9683,62.5605],[18.0425,62.5921],[18.0642,62.5958],[18.0432,62.6262],[17.914,62.6533],[17.9053,62.6599],[17.9259,62.6708],[17.9336,62.6708],[17.9749,62.6572],[17.9973,62.6649],[18.0027,62.709],[17.9954,62.7277],[17.9624,62.7521],[17.9568,62.7825],[17.9403,62.79],[18.04,62.8344],[18.0915,62.8351],[18.0774,62.8129],[18.0767,62.8087],[18.034,62.8115],[18.009,62.7944],[18.0684,62.7939],[18.0773,62.7739],[18.1405,62.7719],[18.1612,62.7899],[18.1714,62.7899],[18.2003,62.805],[18.1951,62.7774],[18.2588,62.8106],[18.2827,62.8415],[18.2622,62.8483],[18.2301,62.83],[18.247,62.849],[18.3012,62.8607],[18.3311,62.8401],[18.4001,62.8415],[18.4714,62.8677],[18.4634,62.8876],[18.4435,62.8916],[18.463,62.8958],[18.4673,62.9024],[18.4723,62.9017],[18.5125,62.9041],[18.511,62.9324],[18.4846,62.9288],[18.4876,62.9532],[18.5281,62.9538],[18.5366,62.9731],[18.5767,62.9584],[18.5511,62.9859],[18.5244,62.9919],[18.4338,62.9913],[18.396,62.9931],[18.4667,63.0246],[18.4679,63.0237],[18.4866,63.0257],[18.4889,63.0345],[18.8421,63.1919],[18.8626,63.192],[18.9133,63.2121],[18.8953,63.2156],[18.9573,63.2433],[18.9666,63.2389],[18.9618,63.2258],[19.0368,63.1779],[19.0679,63.2021],[19.112,63.2196],[19.0564,63.2265],[19.0399,63.239],[19.0417,63.2412],[19.0671,63.255],[19.0972,63.2379],[19.1535,63.294],[19.1472,63.2984],[19.1907,63.3221],[19.2075,63.3261],[19.2293,63.3425],[19.2455,63.3223],[19.2695,63.3425],[19.2735,63.3841],[19.3107,63.4007],[19.3478,63.4172],[19.4222,63.4503],[19.4546,63.4312],[19.508,63.4119],[19.5117,63.4333],[19.4938,63.4485],[19.4926,63.4601],[19.497,63.4799],[19.5234,63.4858],[19.511,63.49],[19.5354,63.5008],[19.5894,63.4878],[19.638,63.4657],[19.6395,63.4449],[19.6873,63.4313],[19.7725,63.4646],[19.7581,63.5091],[19.7784,63.5354],[19.8644,63.5732],[19.8739,63.5893],[19.9045,63.606],[19.9376,63.6152],[19.9563,63.6184],[20.0305,63.6025],[20.0146,63.6285],[20.1138,63.6456],[20.1199,63.6425],[20.1535,63.6509],[20.2428,63.6509],[20.2445,63.6758],[20.2717,63.6857],[20.2676,63.6706],[20.2952,63.6522],[20.3181,63.679],[20.3176,63.7026],[20.3591,63.7178],[20.3535,63.7014],[20.3649,63.6807],[20.4056,63.6898],[20.4211,63.7123],[20.4159,63.7504],[20.4495,63.7715],[20.4558,63.7722],[20.4588,63.7754],[20.5355,63.7933],[20.5427,63.7753],[20.565,63.7983],[20.5719,63.8018],[20.6351,63.8165],[20.6431,63.8145],[20.6747,63.7893],[20.709,63.8222],[20.6793,63.8274],[20.7251,63.8495],[20.7293,63.8496],[20.7865,63.8786],[20.8206,63.9372],[20.832,63.9509],[20.8415,63.9594],[20.897,63.9837],[20.9127,64.0485],[20.9385,64.0797],[20.9543,64.0948],[20.9538,64.0981],[21.019,64.177],[21.1079,64.2225],[21.117,64.2211],[21.1532,64.2456],[21.2566,64.2985],[21.271,64.3041],[21.2878,64.3023],[21.3328,64.315],[21.3233,64.3245],[21.3596,64.3388],[21.3732,64.3304],[21.4573,64.3716],[21.5139,64.4147],[21.5752,64.4411],[21.6001,64.4424],[21.5977,64.4752],[21.5786,64.4659],[21.5376,64.4727],[21.5199,64.4554],[21.515,64.4552],[21.5194,64.4634],[21.5192,64.4635],[21.5194,64.4638],[21.4875,64.484],[21.4898,64.487],[21.4761,64.515],[21.4391,64.5147],[21.4134,64.531],[21.4631,64.5484],[21.4966,64.5246],[21.5519,64.5347],[21.5151,64.5371],[21.4898,64.5559],[21.4898,64.5792],[21.4673,64.5873],[21.4556,64.5625],[21.3942,64.603],[21.374,64.608],[21.3594,64.5909],[21.3322,64.6288],[21.2991,64.6873],[21.2989,64.688],[21.3123,64.6993],[21.2942,64.7066],[21.2836,64.7486],[21.2995,64.7488],[21.3058,64.7683],[21.2769,64.7752],[21.2432,64.9082],[21.2926,64.9408],[21.3259,64.9586],[21.3778,64.96],[21.3942,64.9668],[21.3831,64.9866],[21.3971,64.9967],[21.4258,65.012],[21.4279,65.0136],[21.4631,65.0077],[21.5034,65.0214],[21.4741,65.0489],[21.4914,65.0622],[21.5632,65.0613],[21.5817,65.0677],[21.5438,65.0831],[21.5622,65.112],[21.5602,65.1148],[21.5734,65.1249],[21.5761,65.1384],[21.5999,65.1391],[21.6188,65.148],[21.6099,65.1689],[21.5376,65.2309],[21.5153,65.243],[21.5356,65.2577],[21.5444,65.2473],[21.577,65.2381],[21.6228,65.2408],[21.6681,65.2528],[21.7017,65.2859],[21.6262,65.3231],[21.7439,65.408],[21.7902,65.4001],[21.821,65.401],[21.8809,65.4186],[21.8885,65.4077],[21.9422,65.4118],[21.9323,65.4414],[21.9422,65.4534],[21.9661,65.4337],[22.0117,65.432],[22.0316,65.467],[21.9471,65.5094],[21.9282,65.4897],[21.9048,65.5088],[21.9178,65.5308],[22.0112,65.5175],[22.0476,65.525],[22.0659,65.5143],[22.0815,65.5294],[22.0878,65.5293],[22.0882,65.5293],[22.1092,65.5371],[22.1209,65.5395],[22.1769,65.5398],[22.203,65.549],[22.1701,65.553],[22.1187,65.5835],[22.0941,65.5888],[22.0884,65.6106],[22.1265,65.6037],[22.2283,65.5721],[22.2566,65.569],[22.263,65.5896],[22.3501,65.5694],[22.4053,65.5419],[22.429,65.549],[22.405,65.5832],[22.366,65.5889],[22.3333,65.6042],[22.3845,65.6278],[22.3259,65.6452],[22.3333,65.6514],[22.2931,65.6737],[22.2896,65.6557],[22.3191,65.6315],[22.3006,65.6115],[22.2627,65.6118],[22.2625,65.6118],[22.2682,65.6214],[22.2688,65.6303],[22.2849,65.6315],[22.2702,65.6496],[22.2733,65.6954],[22.3079,65.7008],[22.3294,65.6893],[22.3396,65.665],[22.388,65.6725],[22.3618,65.7163],[22.3395,65.7242],[22.2783,65.732],[22.2821,65.7406],[22.2997,65.7435],[22.326,65.7355],[22.3473,65.7513],[22.5163,65.7791],[22.5227,65.7764],[22.5375,65.7826],[22.601,65.793],[22.6279,65.7904],[22.653,65.7781],[22.6481,65.7551],[22.6776,65.7647],[22.6997,65.8039],[22.6984,65.809],[22.818,65.8286],[22.8372,65.8077],[22.8602,65.796],[22.8997,65.796],[22.9194,65.7863],[22.9303,65.7833],[22.936,65.7786],[22.9898,65.7643],[23.002,65.7636],[23.0636,65.7467],[23.0868,65.7277],[23.0788,65.7072],[23.1296,65.715],[23.1284,65.734],[23.1585,65.7502],[23.2376,65.7687],[23.2114,65.7806],[23.2222,65.7863],[23.3794,65.8],[23.385,65.7752],[23.4334,65.7667],[23.422,65.8022],[23.4238,65.8036],[23.593,65.8054],[23.6084,65.809],[23.6233,65.7962],[23.6493,65.803],[23.6851,65.8267],[23.69,65.8279],[23.7704,65.8099],[23.7817,65.793],[23.8547,65.7891],[23.9264,65.7604],[23.9562,65.7883],[24.0056,65.7926],[24.0532,65.796],[24.0523,65.7966],[24.1546,65.8054],[24.1751,65.8071],[24.1882,65.7902],[24.2246,65.7749],[24.2512,65.7941],[24.2435,65.8111],[24.3296,65.7949],[24.3571,65.7792],[24.4048,65.7692],[24.4515,65.796],[24.4543,65.7969],[24.5188,65.796],[24.5209,65.7971],[24.5615,65.7833],[24.5505,65.7635],[24.5549,65.7451],[24.5965,65.7092],[24.6458,65.6982],[24.6625,65.6827],[24.6711,65.645],[24.687,65.6315],[24.7453,65.6514],[24.7841,65.657],[24.8383,65.6595],[24.9166,65.6376],[24.9372,65.6241],[24.9611,65.6251],[25.0986,65.5867],[25.1248,65.5611],[25.1855,65.5624],[25.2292,65.5501],[25.2466,65.5434],[25.3019,65.5075],[25.3247,65.4117],[25.3174,65.3881],[25.3069,65.3816],[25.2661,65.3776],[25.3077,65.357],[25.3063,65.3527],[25.3022,65.2908],[25.2798,65.261],[25.3,65.2569],[25.2991,65.2433],[25.2897,65.2214],[25.2798,65.22],[25.2815,65.2022],[25.2748,65.1867],[25.2258,65.1566],[25.2114,65.1238],[25.3157,65.1108],[25.3387,65.0988],[25.3417,65.0946],[24.7302,64.9019],[24.4779,64.7823],[23.9951,64.5536],[23.5122,64.3248],[23.3915,64.2676],[23.3614,64.2533],[23.2708,64.2104],[22.788,63.9816],[22.7578,63.9673],[22.7277,63.953],[22.6673,63.9244],[22.5466,63.8672],[22.4442,63.8187],[21.581,63.2211],[21.5581,63.2326],[21.4966,63.209],[21.5129,63.185],[21.5297,63.1819],[21.2717,62.8682],[21.2674,62.869],[21.2267,62.8585],[21.2161,62.8148],[21.1834,62.7824],[21.1509,62.7944],[21.1135,62.7812],[21.1165,62.7497],[21.1434,62.7377],[21.1214,62.6936],[21.0789,62.6783],[21.0832,62.6592],[21.0744,62.6282],[21.0582,62.6085],[21.0583,62.6083],[21.0582,62.6081],[21.1177,62.4975],[21.1156,62.4958],[21.1164,62.4602],[21.1364,62.4626],[21.1455,62.4458],[21.1314,62.4167],[21.1336,62.404],[21.1604,62.418],[21.1921,62.3592],[21.1898,62.3524],[21.1989,62.3464],[21.3127,62.1348],[21.3033,62.114],[21.2891,62.1216],[21.2762,62.0502],[21.2366,61.985],[21.2832,61.974],[21.2926,61.9687],[21.2775,61.9515],[21.3167,61.9392],[21.3438,61.9392],[21.3858,61.915],[21.4012,61.8956],[21.3942,61.8894],[21.4333,61.8553],[21.4477,61.8372],[21.4446,61.8263],[21.461,61.8203],[21.4686,61.8108],[21.4806,61.7937],[21.47,61.7597],[21.4893,61.737],[21.5302,61.7232],[21.5439,61.7036],[21.5436,61.7023],[21.5178,61.7051],[21.5385,61.6797],[21.5134,61.569],[21.508,61.5701],[21.4601,61.5624],[21.5035,61.5253],[21.4932,61.4799],[21.4221,61.4853],[21.4897,61.4644],[21.4777,61.4115],[21.4489,61.4028],[21.4744,61.3969],[21.403,61.0825],[21.3858,61.0663],[21.367,61.0601],[21.3781,61.0569],[21.3755,61.0438],[21.3203,61.0602],[21.2987,61.0601],[21.3115,61.0375],[21.339,61.0266],[21.3185,61.0124],[21.3357,61.0046],[21.3619,60.9743],[21.3606,60.9675],[21.3606,60.9671],[21.3654,60.9356],[21.3049,60.9714],[21.27,60.968],[21.2434,60.9509],[21.2832,60.9428],[21.3123,60.923],[21.2766,60.8891],[21.2278,60.8997],[21.2024,60.8895],[21.2644,60.882],[21.3181,60.8802],[21.3279,60.9101],[21.3668,60.9271],[21.3672,60.9244],[21.3631,60.9067],[21.3533,60.9025],[21.3607,60.896],[21.3536,60.8647],[21.3185,60.8647],[21.3259,60.8349],[21.3446,60.8249],[21.321,60.7213],[21.3211,60.7213],[21.321,60.7209],[21.411,60.6902],[21.411,60.6818],[21.3533,60.6902],[21.3796,60.647],[21.4141,60.6323],[21.4285,60.6083],[21.4148,60.6083],[21.4284,60.5941],[21.4085,60.5804],[21.4426,60.5673],[21.4861,60.5742],[21.513,60.5734],[21.5262,60.5696],[21.5366,60.565],[21.5178,60.5673],[21.5697,60.5264],[21.5838,60.505],[21.5581,60.4923],[21.6121,60.4888],[21.6414,60.4958],[21.669,60.5452],[21.6657,60.5552],[21.718,60.5789],[21.7304,60.5814],[21.806,60.5556],[21.803,60.5251],[21.7853,60.478],[21.806,60.486],[21.874,60.478],[21.8485,60.5037],[21.8503,60.5116],[21.8538,60.5054],[21.933,60.5001],[21.9388,60.4983],[21.9354,60.4923],[21.9586,60.4923],[21.9829,60.4849],[21.9819,60.4768],[22.0181,60.4711],[22.0181,60.4575],[22.0645,60.4363],[22.0879,60.4528],[22.1113,60.4457],[22.1167,60.437],[22.151,60.4336],[22.2546,60.4019],[22.2915,60.3826],[22.2983,60.3826],[22.3301,60.3525],[22.3004,60.3478],[22.2657,60.354],[22.2896,60.358],[22.2997,60.3676],[22.2557,60.3742],[22.1976,60.3662],[22.1807,60.3692],[22.2075,60.3756],[22.2062,60.3826],[22.1468,60.3804],[22.1125,60.3529],[22.1274,60.3565],[22.1094,60.3148],[22.1079,60.3135],[22.1068,60.3135],[22.0838,60.3015],[22.0827,60.2919],[22.077,60.287],[22.0773,60.2869],[22.077,60.2866],[22.0819,60.2849],[22.0801,60.2695],[22.1096,60.2713],[22.142,60.264],[22.1886,60.2363],[22.2102,60.1963],[22.257,60.1651],[22.2912,60.1651],[22.2908,60.1646],[22.2987,60.1469],[22.3369,60.1485],[22.32,60.164],[22.3239,60.1651],[22.3618,60.1651],[22.3616,60.1655],[22.3618,60.1655],[22.3583,60.1747],[22.3679,60.1774],[22.375,60.204],[22.3492,60.199],[22.3474,60.2037],[22.3043,60.228],[22.3114,60.2693],[22.3159,60.2708],[22.3318,60.2694],[22.3296,60.2753],[22.3832,60.2931],[22.3933,60.2932],[22.4673,60.2236],[22.4481,60.2214],[22.4152,60.1496],[22.4656,60.1476],[22.4692,60.1461],[22.4561,60.1237],[22.4221,60.1148],[22.4435,60.102],[22.437,60.0909],[22.437,60.0766],[22.4304,60.0819],[22.4019,60.0758],[22.4084,60.0528],[22.3872,60.0517],[22.3827,60.0745],[22.3548,60.0756],[22.3532,60.0323],[22.3828,59.9926],[22.3945,60.005],[22.4426,59.9975],[22.4481,60.053],[22.4622,60.0297],[22.4723,60.0296],[22.4699,59.9975],[22.53,60.0082],[22.5639,60.0288],[22.5821,60.0286],[22.5749,60.017],[22.6053,59.9959],[22.65,60.0287],[22.6569,60.0298],[22.6821,59.9975],[22.7041,60.001],[22.7171,59.9888],[22.74,59.9672],[22.7724,59.9367],[22.8047,59.9064],[22.869,59.8459],[22.8694,59.8459],[22.9455,59.8558],[23.0034,59.8633],[22.9923,59.8534],[22.9866,59.852],[22.9314,59.8428],[22.9051,59.8112],[22.9837,59.8228],[23.0202,59.8162],[23.0206,59.8162],[23.0545,59.822],[23.0681,59.8208],[23.0792,59.8262],[23.0856,59.8273],[23.2513,59.8411],[23.2232,59.8669],[23.2803,59.8993],[23.7804,59.9643],[23.7995,59.9566],[23.8274,59.9704],[24.3554,60.0391],[24.3584,60.0385],[24.3577,60.036],[24.3191,60.0141],[24.3127,59.9975],[24.3677,60.022],[24.3748,60.005],[24.4127,60.0276],[24.4425,60.0217],[24.4163,59.9914],[24.4681,59.9964],[24.527,60.0353],[24.5945,60.0602],[24.5744,60.0736],[24.9015,60.1415],[24.9509,60.1435],[24.9576,60.1532],[24.9996,60.1619],[25.0293,60.1479],[25.0674,60.1627],[25.0479,60.1689],[25.0633,60.1751],[25.0976,60.1822],[25.0947,60.1763],[25.177,60.1833],[25.2039,60.2043],[25.2038,60.2043],[25.402,60.2455],[25.5028,60.2462],[25.5336,60.2728],[25.5656,60.2795],[25.5645,60.2783],[25.5921,60.2426],[25.6223,60.2383],[25.6034,60.2154],[25.636,60.2043],[25.6437,60.2281],[25.6844,60.2452],[25.601,60.2868],[25.6546,60.2979],[25.6558,60.293],[25.7355,60.2473],[25.762,60.2404],[25.7805,60.2514],[25.8489,60.2657],[25.7875,60.2836],[25.8045,60.2924],[25.861,60.284],[25.8949,60.2496],[25.9302,60.2452],[25.8924,60.2916],[25.8843,60.32],[25.8915,60.3291],[25.9474,60.3474],[26.0116,60.3437],[26.0388,60.3227],[26.0401,60.2998],[26.0913,60.3066],[26.1082,60.3359],[26.0606,60.3681],[26.0389,60.3754],[26.0375,60.3774],[26.1382,60.3984],[26.1424,60.396],[26.1594,60.4028],[26.1916,60.4095],[26.2006,60.4087],[26.2063,60.4064],[26.2067,60.4064],[26.2158,60.4073],[26.2734,60.4022],[26.2616,60.4119],[26.2993,60.4157],[26.324,60.383],[26.3812,60.3987],[26.3833,60.4165],[26.4242,60.396],[26.4164,60.4119],[26.4515,60.4165],[26.4714,60.4324],[26.4934,60.4334],[26.5284,60.4349],[26.5305,60.4267],[26.5338,60.4137],[26.5134,60.4113],[26.5261,60.3852],[26.5486,60.3784],[26.5731,60.4053],[26.6365,60.4149],[26.6526,60.4269],[26.6215,60.439],[26.6522,60.4403],[26.6873,60.4182],[26.739,60.437],[26.739,60.4441],[26.9484,60.4533],[26.9546,60.4494],[26.9598,60.4538],[27.4293,60.4744],[27.4568,60.4637],[27.5067,60.4575],[27.4815,60.4727],[27.4927,60.4772],[27.5838,60.4812],[27.5925,60.4774],[27.6296,60.4711],[27.6209,60.4828],[27.6975,60.4862],[27.7054,60.4854],[27.7084,60.4867],[27.7877,60.4901],[27.8274,60.4919],[27.867,60.4936],[28.0256,60.5006],[28.0711,60.5026],[28.3428,60.3797],[28.9772,60.0927],[29.0631,60.0539],[29.95,60.12],[29.8,60.35],[29.7,60.6],[29.45,60.85],[29.1,61.05],[28.8947,61.1321],[28.9264,61.1479],[28.9808,61.1681],[29.1301,61.2134],[29.2032,61.2459],[29.2771,61.3046],[29.3184,61.3384],[29.4634,61.4138],[29.4991,61.4592],[29.5397,61.485],[29.6351,61.5111],[29.7791,61.5931],[29.8422,61.6602],[29.9777,61.7282],[30.1456,61.8505],[30.0572,61.8488],[29.564,61.7241],[29.6536,61.7833],[29.6938,61.8249],[29.6736,61.8504],[29.6863,61.8754],[29.6238,61.9059],[29.6166,61.9235],[29.6564,61.9731],[29.5452,62.0259],[29.4938,62.0615],[29.4591,62.0987],[29.4221,62.1606],[29.4131,62.2448],[29.3559,62.2834],[29.3134,62.3323],[29.2814,62.383],[29.2495,62.4096],[29.2088,62.4176],[29.1834,62.4098],[29.1593,62.3855],[29.1019,62.3967],[29.1078,62.4143],[29.084,62.4213],[29.1071,62.4911],[29.0241,62.5094],[29.0398,62.524],[28.9889,62.5445],[28.9322,62.5796],[28.8098,62.6308],[28.6582,62.6533],[28.7021,62.6923],[28.6464,62.7443],[28.6731,62.7666],[28.7265,62.7811],[28.7699,62.8256],[28.796,62.8283],[28.8795,62.7946],[28.9241,62.782],[28.9561,62.7885],[29.0815,62.8375],[29.0883,62.85],[29.0392,62.8625],[28.9335,62.9277],[28.9944,62.9329],[28.9693,62.9456],[28.9889,62.9602],[29.0573,62.9816],[29.0519,62.999],[28.8769,63.0602],[28.7197,63.1645],[28.6182,63.2088],[28.6572,63.2362],[28.653,63.2515],[28.7053,63.2711],[28.7031,63.29],[28.7361,63.3111],[28.7532,63.3353],[28.7614,63.3766],[28.7526,63.3901],[28.6817,63.4205],[28.6477,63.4583],[28.6118,63.532],[28.6752,63.549],[28.6338,63.5725],[28.615,63.5951],[28.588,63.6567],[28.6074,63.6735],[28.5498,63.6929],[28.4696,63.6972],[28.4456,63.7054],[28.3584,63.7534],[28.4412,63.8249],[28.4655,63.8713],[28.5186,63.882],[28.572,63.8834],[28.9347,63.842],[29.6562,63.8734],[29.6866,63.858],[29.7359,63.7322],[29.7832,63.7152],[29.9301,63.748],[29.9984,63.7471],[30.0513,63.7638],[30.2015,63.7926],[30.2656,63.8307],[30.3286,63.896],[30.5093,63.9914],[30.5523,64.0217],[30.5805,64.0511],[30.5864,64.0847],[30.5328,64.1625],[30.5325,64.1792],[30.5585,64.2197],[30.5034,64.2438],[30.446,64.2508],[30.3705,64.3008],[30.3211,64.3177],[30.1644,64.3419],[30.0931,64.3612],[30.053,64.3781],[30.0325,64.3969],[30.0704,64.4719],[30.0358,64.4915],[29.9905,64.5042],[29.97,64.5454],[29.9658,64.5786],[30.1364,64.6154],[30.1808,64.6428],[30.1878,64.6624],[30.1705,64.6817],[30.1091,64.7201],[30.1189,64.7679],[30.0625,64.7842],[29.8778,64.7848],[29.7803,64.7956],[29.6983,64.8391],[29.6336,64.9072],[29.5881,64.9914],[29.5984,65.0344],[29.6273,65.0622],[29.6678,65.0779],[29.8205,65.0937],[29.8502,65.1215],[29.8203,65.1265],[29.8091,65.1452],[29.8393,65.1669],[29.8332,65.205],[29.7668,65.2174],[29.6267,65.2152],[29.5801,65.2354],[29.6151,65.2694],[29.7201,65.3291],[29.7306,65.3654],[29.7182,65.4542],[29.7315,65.4969],[29.7455,65.5114],[29.8258,65.552],[29.8386,65.5649],[29.8067,65.5849],[29.7323,65.6087],[29.7029,65.6294],[29.7643,65.6481],[30.003,65.6781],[30.0985,65.6564],[30.1139,65.6655],[30.1117,65.712],[30.0751,65.8228],[30.0393,65.8654],[30.0097,65.9157],[29.9585,65.9739],[29.9205,66.0686],[29.9002,66.1081],[29.8754,66.1336],[29.7924,66.1809],[29.6509,66.2879],[29.5932,66.3459],[29.5697,66.3782],[29.5462,66.432],[29.5245,66.4912],[29.4095,66.5685],[29.3924,66.6053],[29.3625,66.6266],[29.3222,66.6801],[29.0892,66.8375],[29.0515,66.9078],[29.1001,66.9912],[29.4294,67.2328],[29.4907,67.263],[29.5198,67.2982],[29.9162,67.5081],[29.9334,67.5264],[29.9647,67.5847],[29.9777,67.6622],[30.0094,67.6858],[29.7138,67.7925],[29.6512,67.8236],[29.3602,68.0567],[29.2987,68.0818],[28.7272,68.1727],[28.6903,68.1832],[28.6638,68.204],[28.461,68.4911],[28.4474,68.5149],[28.4599,68.5424],[28.7164,68.728],[28.7473,68.7601],[28.8015,68.8355],[28.7283,68.865],[28.6457,68.8717],[28.4442,68.8658],[28.4131,68.8801],[28.4102,68.8985],[28.4562,68.9001],[28.7133,68.968],[28.8335,68.9845],[28.9541,69.0273],[28.8396,69.0803],[28.827,69.1068],[28.8441,69.1813],[28.8648,69.2166],[29.2293,69.3769],[29.3445,69.4644],[29.2032,69.586],[29.1471,69.6639],[29.1312,69.6742],[28.4809,69.7857],[28.4046,69.8023],[28.3797,69.8224],[28.3812,69.8562],[28.1893,69.886],[28.1674,69.8943],[27.981,70.0096],[27.8973,70.0707],[27.8669,70.0753],[27.7922,70.0589],[27.6651,70.0683],[27.6126,70.0621],[27.5709,70.0409],[27.5633,70.0236],[27.4452,70.0032],[27.3809,69.9743],[27.3232,69.9597],[27.3524,69.9487],[27.3118,69.9295],[27.1003,69.9018],[27.0075,69.9225],[26.9511,69.9202],[26.8646,69.9381],[26.7719,69.9284],[26.707,69.9351],[26.5339,69.9252],[26.5007,69.9183],[26.4359,69.8742],[26.4479,69.856],[26.4187,69.8356],[26.3168,69.7949],[26.2682,69.7583],[26.1983,69.7154],[26.032,69.6967],[25.9813,69.6749],[25.9617,69.6525],[26.0051,69.6108],[26.004,69.5872],[25.9603,69.5487],[25.9002,69.532],[25.8867,69.5209],[25.9064,69.5019],[25.8857,69.4791],[25.8867,69.4552],[25.8414,69.4178],[25.8774,69.3708],[25.7866,69.3128],[25.7745,69.2988],[25.7372,69.2182],[25.7341,69.1913],[25.7683,69.1421],[25.7502,69.0592],[25.7658,69.0307],[25.8011,69.0132],[25.7958,68.9933],[25.7539,68.9784],[25.7264,68.9425],[25.6948,68.9256],[25.6516,68.8835],[25.6024,68.8721],[25.4811,68.8877],[25.3872,68.8746],[25.2013,68.8126],[25.1627,68.7846],[25.1496,68.7646],[25.1442,68.668],[25.1176,68.6377],[25.071,68.6314],[24.9518,68.6051],[24.9271,68.5704],[24.9052,68.557],[24.8609,68.5634],[24.8296,68.5941],[24.7542,68.6379],[24.6634,68.6661],[24.3325,68.7086],[24.1869,68.7445],[24.1312,68.7762],[23.929,68.8162],[23.8526,68.8167],[23.7872,68.7998],[23.768,68.756],[23.7348,68.7154],[23.6416,68.695],[23.4816,68.6856],[23.1976,68.618],[23.1754,68.6217],[23.0979,68.6701],[23.0715,68.6809],[23.0193,68.6867],[22.8517,68.6757],[22.5965,68.7246],[22.5429,68.726],[22.4287,68.7101],[22.3967,68.7318],[22.3714,68.8226],[22.3568,68.8328],[22.2772,68.8575],[22.2002,68.9085],[22.1607,68.9561],[22.0231,69.012],[21.9461,69.0657],[21.6629,69.2632],[21.6388,69.2714],[21.3136,69.2914],[21.0984,69.2395],[21.0797,69.2301],[21.0336,69.1812],[21.1564,69.0876],[21.099,69.0438],[21.0325,69.041],[20.7444,69.1044],[20.7166,69.0988],[20.6232,69.0364],[20.1023,69.0221],[20.3411,68.9101],[20.3488,68.8931],[20.3565,68.8046],[20.3388,68.7655],[20.2366,68.6591],[20.1518,68.6068],[19.9622,68.5412],[20.2459,68.4774],[20.0103,68.3639],[19.9712,68.3513],[19.931,68.3502],[19.4817,68.424],[19.0381,68.5056],[18.7003,68.4956],[18.6446,68.5012],[18.4818,68.562],[18.4362,68.5739],[18.1893,68.5384],[18.1615,68.5302],[18.1368,68.4263],[18.1357,68.3957],[18.1886,68.1987],[18.1667,68.1585],[17.9819,68.0162],[17.921,67.9729],[17.8954,67.9697],[17.3215,68.1053],[17.3,68.0979],[17.2201,68.0401],[16.808,67.9106],[16.7619,67.8772],[16.6087,67.6473],[16.5872,67.6259],[16.483,67.5578],[16.4286,67.534],[16.367,67.5217],[16.1996,67.5083],[16.1807,67.4964],[16.1271,67.4228],[16.4379,67.2003],[16.4438,67.1826],[16.4156,67.0527],[16.3997,67.036],[16.3106,67.0099],[16.1257,66.9344],[16.0388,66.8875],[15.6695,66.5994],[15.4263,66.4912],[15.4299,66.4636],[15.4761,66.3549],[15.4918,66.288],[15.4819,66.2749],[15.0534,66.1533],[14.5405,66.1254],[14.6444,65.8429],[14.6489,65.8024],[14.6371,65.7812],[14.5702,65.7167],[14.5607,65.7011],[14.5104,65.4647],[14.5183,65.3645],[14.5143,65.3181],[14.4821,65.2887],[14.4005,65.2555],[14.366,65.2158],[14.3329,65.115],[14.7085,65.0004],[14.7634,64.9731],[14.8862,64.8792],[15.0227,64.8443],[15.0564,64.8163],[15.0763,64.7794],[15.1115,64.7567],[15.17,64.7549],[15.2693,64.7225],[15.3613,64.6661],[15.2915,64.6446],[15.3636,64.6059],[15.5311,64.5409],[15.5814,64.5073],[15.5989,64.4719],[15.6394,64.4726],[15.6731,64.5272],[15.7132,64.5305],[15.7446,64.5071],[15.7649,64.4454],[15.7876,64.4267],[15.9854,64.3536],[16.0234,64.3301],[16.0489,64.2911],[16.0846,64.263],[16.1561,64.2741],[16.1938,64.274],[16.263,64.2556],[16.745,64.0175],[16.6303,63.852],[16.6192,63.7934],[16.592,63.7369],[16.4874,63.7073],[16.2621,63.6921],[16.1621,63.7022],[16.1043,63.6956],[16.012,63.6739],[15.9378,63.6638],[15.9123,63.6397],[15.9674,63.5911],[15.9898,63.5612],[16.0205,63.4619],[16.0888,63.4422],[16.1373,63.4202],[16.1813,63.3778],[16.9691,62.9934],[16.9649,62.9793],[16.7228,62.9424],[16.6584,62.9225],[16.4418,62.7865],[16.3921,62.7451],[16.3139,62.7248],[15.8861,62.7105],[15.6091,62.6534],[15.1725,62.6032],[14.9941,62.6108],[14.8615,62.6017],[14.8248,62.5847],[14.8328,62.5452],[14.871,62.4823],[14.8378,62.4545],[14.8514,62.4252],[14.8969,62.4026],[14.9563,62.3531],[15.066,62.2977],[15.1937,62.2741],[15.2699,62.2877],[15.3587,62.282],[15.3801,62.2405],[15.4302,62.2006],[15.4549,62.1601],[15.4167,62.1169],[15.134,62.0053],[15.1252,62.0003],[15.1453,61.9425],[15.1383,61.9087],[15.1197,61.885],[15.1256,61.8513],[15.0865,61.8388],[15.0577,61.8527],[14.9605,61.8537],[14.9375,61.8329],[14.9019,61.8305],[14.8632,61.8462],[14.8376,61.84],[14.8502,61.8134],[14.8384,61.7963],[14.8112,61.8075],[14.7341,61.8807],[14.6841,61.8687],[14.6017,61.812],[14.5698,61.7747],[14.5453,61.7227],[14.5217,61.6314],[14.4816,61.5915],[14.3824,61.582],[14.2964,61.5999],[13.6065,61.6585],[13.5457,61.6856],[13.5228,61.7222],[13.4465,61.7935],[13.4092,61.8359],[13.327,61.9058],[13.359,61.9801],[13.3821,62.0044],[13.2854,62.0474],[13.1867,62.0433],[13.0486,62.0812],[12.9754,62.1306],[12.7971,62.2071],[12.3412,62.2744],[12.3151,62.2718],[12.3175,62.234],[12.1617,61.7248],[12.1756,61.7115],[12.2913,61.6511],[12.3378,61.633],[12.4165,61.5823],[12.4825,61.5691],[12.5509,61.5669],[12.6138,61.547],[12.8771,61.371],[12.8882,61.3496],[12.8547,61.2553],[12.8197,61.2049],[12.7467,61.1515],[12.7329,61.1291],[12.7108,61.057],[12.6825,61.0403],[12.5697,61.0506],[12.5118,61.0491],[12.281,61.0152],[12.2533,61.0017],[12.2561,60.9813],[12.2948,60.9353],[12.3132,60.9019],[12.35,60.7933],[12.377,60.7541],[12.4825,60.6573],[12.5944,60.5149],[12.6126,60.4554],[12.5936,60.395],[12.5586,60.3599],[12.5047,60.3256],[12.4873,60.2959],[12.5216,60.1976],[12.5247,60.1617],[12.5109,60.118],[12.4832,60.0812],[12.4468,60.0511],[12.2906,59.9587],[12.1437,59.8984],[12.1027,59.894],[11.9422,59.902],[11.8746,59.8849],[11.8496,59.8724],[11.843,59.8384],[11.8837,59.8054],[11.9035,59.77],[11.8917,59.7058],[11.8284,59.6597],[11.6937,59.6223],[11.6749,59.6071],[11.6774,59.5591],[11.784,59.3606],[11.8068,59.2936],[11.8111,59.2487],[11.7756,59.2025],[11.7485,59.1401],[11.7453,59.0922],[11.719,59.0413],[11.75,59],[11.85,58.75],[11.95,58.45],[12.05,58.2],[12.05,57.85],[11.7,57.68],[11.6582,57.6842]]],[[[16.3914,56.4587],[16.3939,56.4526],[16.3998,56.3112],[16.4021,56.3065],[16.3989,56.2982],[16.4126,56.2709],[16.4126,56.2293],[16.4502,56.2187],[16.4909,56.2396],[16.5211,56.2822],[16.5298,56.2903],[16.5361,56.3034],[16.5664,56.3461],[16.5679,56.369],[16.6735,56.5876],[16.6828,56.5935],[16.6937,56.6294],[16.7178,56.6792],[16.7565,56.7475],[16.7605,56.7675],[16.7782,56.8042],[16.797,56.8154],[16.8303,56.8258],[16.8352,56.8382],[16.8394,56.8407],[16.8499,56.8756],[16.8582,56.8968],[16.8831,56.9162],[16.8741,56.9565],[16.88,56.9759],[16.9339,57.0176],[16.9162,57.0279],[16.9359,57.0532],[16.9606,57.0632],[16.9721,57.0998],[16.9844,57.1156],[17.0153,57.1479],[17.0209,57.1626],[17.0381,57.1847],[17.0495,57.1883],[17.0663,57.2267],[17.0571,57.2435],[17.0519,57.2799],[17.108,57.3145],[17.1245,57.3193],[17.0972,57.3528],[17.0735,57.3432],[17.0653,57.3577],[17.0192,57.3446],[16.9665,57.3046],[16.9611,57.2504],[16.9334,57.2158],[16.9099,57.2022],[16.904,57.1791],[16.9002,57.1744],[16.8642,57.091],[16.8264,57.0387],[16.7936,57.0039],[16.7229,56.9007],[16.6612,56.8852],[16.6379,56.8825],[16.6209,56.8723],[16.4528,56.6375],[16.446,56.6183],[16.4309,56.597],[16.4194,56.5856],[16.4114,56.5696],[16.4106,56.5685],[16.4104,56.5677],[16.3989,56.5447],[16.3942,56.4911],[16.3926,56.4834],[16.3926,56.483],[16.3929,56.4759],[16.3914,56.4587]]],[[[18.3444,59.0257],[18.3665,59.0091],[18.4053,59.0086],[18.4359,59.0498],[18.4901,59.0894],[18.4854,59.0976],[18.4818,59.1013],[18.4846,59.1044],[18.4843,59.1045],[18.4846,59.1048],[18.4768,59.1063],[18.466,59.1173],[18.4045,59.0911],[18.3978,59.0892],[18.3956,59.0873],[18.3748,59.0784],[18.3757,59.0692],[18.3718,59.062],[18.3498,59.0529],[18.3444,59.0257]]],[[[18.5105,59.4831],[18.5564,59.4223],[18.5809,59.4307],[18.5796,59.4489],[18.5921,59.4654],[18.6053,59.4668],[18.6012,59.4743],[18.6213,59.4889],[18.633,59.4897],[18.6539,59.5047],[18.697,59.5245],[18.697,59.5251],[18.7375,59.5351],[18.697,59.5336],[18.697,59.5353],[18.6882,59.5367],[18.6745,59.5456],[18.6325,59.5499],[18.6229,59.5472],[18.6214,59.5475],[18.621,59.5475],[18.6152,59.5451],[18.5925,59.5388],[18.5807,59.5308],[18.5706,59.5266],[18.5693,59.5231],[18.5105,59.4831]]],[[[19.5132,60.1838],[19.5166,60.1701],[19.527,60.1486],[19.5446,60.1348],[19.5652,60.13],[19.5848,60.1353],[19.5996,60.1491],[19.6033,60.164],[19.6278,60.1699],[19.6325,60.1654],[19.647,60.1558],[19.6711,60.1581],[19.6743,60.1663],[19.6731,60.1842],[19.6675,60.1968],[19.6508,60.2082],[19.6385,60.2305],[19.6384,60.2316],[19.636,60.2351],[19.6294,60.2471],[19.629,60.2471],[19.6273,60.247],[19.6084,60.2569],[19.5938,60.2605],[19.5789,60.2605],[19.5679,60.2551],[19.5517,60.2437],[19.5498,60.2436],[19.5487,60.2416],[19.5422,60.237],[19.5371,60.2322],[19.5352,60.2221],[19.5356,60.2178],[19.5187,60.187],[19.5132,60.1838]]],[[[19.6722,60.2328],[19.7035,60.1746],[19.7244,60.1359],[19.7442,60.0991],[19.7499,60.0973],[19.763,60.0739],[19.7734,60.0865],[19.7768,60.0887],[19.7982,60.0818],[19.7986,60.0818],[19.8253,60.0832],[19.8317,60.0795],[19.8587,60.0808],[19.8681,60.0854],[19.9257,60.0884],[19.9412,60.0602],[19.9378,60.0504],[19.9485,60.0477],[19.9582,60.0538],[19.9514,60.0701],[19.949,60.0839],[19.9643,60.0904],[20.012,60.0928],[20.0316,60.0874],[20.0448,60.0875],[20.0505,60.0978],[20.0475,60.1054],[20.0326,60.1136],[20.0326,60.1397],[20.033,60.1444],[20.0442,60.1763],[20.0407,60.1736],[20.0434,60.1807],[20.0722,60.1929],[20.1259,60.1998],[20.1546,60.1929],[20.1946,60.1929],[20.2594,60.2606],[20.2592,60.2608],[20.2594,60.261],[20.2414,60.2835],[20.1838,60.294],[20.1694,60.3148],[20.0866,60.353],[20.0326,60.3599],[20.0322,60.3599],[20.0214,60.3513],[19.9894,60.3513],[19.9658,60.3551],[19.9462,60.3582],[19.9212,60.3793],[19.8886,60.4068],[19.8883,60.4067],[19.8882,60.4068],[19.8766,60.404],[19.832,60.3933],[19.8234,60.3912],[19.7874,60.3547],[19.7876,60.3545],[19.7874,60.3543],[19.8126,60.3318],[19.8244,60.328],[19.8505,60.3196],[19.8558,60.3179],[19.8702,60.3022],[19.8689,60.29],[19.8666,60.2679],[19.8605,60.252],[19.8486,60.2211],[19.819,60.2179],[19.7842,60.2141],[19.7823,60.2517],[19.7823,60.252],[19.7806,60.2853],[19.7802,60.2853],[19.737,60.2818],[19.6866,60.2679],[19.68,60.252],[19.6722,60.2332],[19.6723,60.233],[19.6722,60.2328]]],[[[20.3901,60.0282],[20.4024,60.0213],[20.4321,60.0251],[20.4396,60.031],[20.4858,60.0332],[20.5047,60.0222],[20.5008,60.0127],[20.5119,60.0063],[20.527,60.0051],[20.5399,60.0095],[20.5446,60.0137],[20.5599,60.0147],[20.5775,60.0067],[20.5872,60.0081],[20.599,60.0171],[20.605,60.0175],[20.6073,60.0247],[20.6099,60.0299],[20.6095,60.0315],[20.6122,60.0401],[20.6121,60.0402],[20.6122,60.0405],[20.6114,60.0411],[20.6179,60.0422],[20.6101,60.045],[20.605,60.0521],[20.5964,60.0513],[20.569,60.07],[20.5386,60.072],[20.5334,60.0736],[20.5289,60.0726],[20.4898,60.0752],[20.4894,60.0752],[20.4282,60.0613],[20.3994,60.0405],[20.3996,60.0403],[20.3994,60.0401],[20.4012,60.0384],[20.3901,60.0282]]],[[[21.0789,63.2878],[21.0843,63.2782],[21.0834,63.2782],[21.0837,63.2778],[21.0834,63.2778],[21.0871,63.2733],[21.1131,63.2275],[21.1342,63.2165],[21.1456,63.2027],[21.1336,63.1984],[21.1472,63.1822],[21.173,63.188],[21.2272,63.1628],[21.2434,63.1507],[21.2835,63.1519],[21.3185,63.1649],[21.3127,63.1677],[21.3178,63.1788],[21.3644,63.2045],[21.3775,63.1901],[21.4284,63.1984],[21.4177,63.2158],[21.4222,63.2465],[21.4221,63.2465],[21.4222,63.2469],[21.4216,63.2471],[21.3963,63.2607],[21.3712,63.2607],[21.3646,63.2625],[21.3645,63.2624],[21.3642,63.2625],[21.3603,63.2607],[21.356,63.2607],[21.2912,63.2394],[21.2894,63.2282],[21.2886,63.2278],[21.2278,63.2226],[21.2171,63.2416],[21.2206,63.2587],[21.2263,63.2663],[21.2434,63.281],[21.2051,63.2782],[21.1041,63.2782],[21.0789,63.2878]]],[[[21.213,60.6043],[21.2314,60.5599],[21.2292,60.5599],[21.2339,60.5538],[21.2454,60.5262],[21.2583,60.515],[21.2503,60.4984],[21.2879,60.4893],[21.2994,60.4793],[21.2998,60.4793],[21.319,60.4817],[21.3191,60.4817],[21.3191,60.4818],[21.3681,60.488],[21.4052,60.4852],[21.4426,60.4711],[21.4367,60.483],[21.4387,60.4897],[21.4631,60.4923],[21.4619,60.5394],[21.4236,60.542],[21.403,60.551],[21.3942,60.5599],[21.3836,60.5595],[21.2998,60.596],[21.2889,60.61],[21.2912,60.6151],[21.2593,60.6475],[21.2139,60.6164],[21.2179,60.6118],[21.213,60.6047],[21.2131,60.6044],[21.213,60.6043]]],[[[21.4823,60.1148],[21.5144,60.0974],[21.5343,60.1009],[21.5406,60.0974],[21.541,60.0974],[21.5971,60.1042],[21.6131,60.1021],[21.6182,60.1067],[21.6274,60.1078],[21.649,60.1408],[21.6489,60.141],[21.649,60.1412],[21.6447,60.1495],[21.6543,60.1558],[21.6388,60.1609],[21.6346,60.169],[21.5698,60.1724],[21.5694,60.1724],[21.5506,60.1649],[21.5298,60.1594],[21.5215,60.1534],[21.5082,60.1481],[21.4866,60.1273],[21.4869,60.1272],[21.4866,60.1269],[21.505,60.1168],[21.4823,60.1148]]],[[[21.6954,60.1148],[21.7314,60.1061],[21.7316,60.1062],[21.7318,60.1061],[21.8326,60.1408],[21.8406,60.1558],[21.8678,60.1558],[21.8476,60.169],[21.8484,60.1705],[21.8877,60.1763],[21.8603,60.1927],[21.865,60.2016],[21.8648,60.2016],[21.865,60.202],[21.8646,60.202],[21.7638,60.1985],[21.7467,60.1908],[21.7437,60.1906],[21.7279,60.1822],[21.7062,60.1724],[21.6968,60.1227],[21.6958,60.1216],[21.6966,60.1215],[21.6954,60.1152],[21.6955,60.1152],[21.6954,60.1148]]],[[[21.7853,60.3854],[21.8374,60.3576],[21.9008,60.3421],[21.9222,60.3318],[21.9226,60.3318],[21.9383,60.3329],[21.9606,60.3275],[21.9976,60.3339],[21.9925,60.3368],[21.9946,60.337],[21.9943,60.3374],[21.9946,60.3374],[21.9834,60.3508],[21.9976,60.355],[21.9749,60.3695],[21.9152,60.3892],[21.9087,60.3926],[21.9256,60.396],[21.9504,60.396],[21.9474,60.4004],[21.9514,60.4012],[21.9512,60.4014],[21.951,60.4015],[21.9514,60.4016],[21.9403,60.411],[21.932,60.4233],[21.8923,60.4492],[21.8324,60.4711],[21.8081,60.4667],[21.7984,60.4438],[21.841,60.4194],[21.8436,60.4158],[21.8088,60.4052],[21.7853,60.3854]]],[[[24.5628,65.0372],[24.5771,65.0127],[24.579,64.979],[24.6284,64.9704],[24.6316,64.9678],[24.6376,64.9687],[24.6978,64.9582],[24.6982,64.9582],[24.712,64.9612],[24.7131,64.9517],[24.7521,64.9531],[24.7801,64.9668],[24.8161,64.9681],[24.8124,64.9792],[24.7888,64.978],[24.8494,64.9912],[24.8926,65.0259],[24.9686,65.0348],[25.028,65.0346],[25.0618,65.0435],[25.0336,65.0575],[24.9934,65.0551],[24.9562,65.0584],[24.8877,65.0699],[24.897,65.0724],[24.8831,65.0869],[24.8345,65.0948],[24.7409,65.0833],[24.6542,65.0802],[24.5853,65.0478],[24.5754,65.0437],[24.5754,65.0431],[24.5628,65.0372]]]]}}
]}
