{"type":"FeatureCollection","features":[
{"type":"Feature","properties":{"entityId":"sweden-kingdom","from":1789,"to":1809,"certainty":"estimated","source":"유럽 쪽은 Natural Earth 1:10m admin-1(v5.1.2) 현대 행정구역 조각을 그 시기 국경에 맞춰 묶고, 조각이 역사 경계와 다른 곳은 선을 그어 나눈 근사. 유럽 밖(시베리아·중앙아시아·극동)은 대략적인 추정. 운영자 검수 필요"},"geometry":{"type":"MultiPolygon","coordinates":[[[[10.9276,58.9478],[10.9711,58.9081],[10.9865,58.894],[11.0285,58.8557],[11.0582,58.8005],[11.2532,58.4377],[11.2548,58.4334],[11.2517,58.4243],[11.2516,58.4228],[11.2234,58.4249],[11.2044,58.4011],[11.2249,58.3707],[11.2317,58.3397],[11.2536,58.3659],[11.2942,58.3615],[11.4132,58.14],[11.4066,58.1311],[11.4245,58.119],[11.5405,57.9031],[11.6777,57.6479],[11.7119,57.5841],[11.7291,57.5522],[11.7462,57.5203],[11.7881,57.4424],[11.8246,57.3928],[11.8613,57.3429],[12.2732,56.7827],[12.3558,56.6704],[12.3972,56.6142],[12.4178,56.5861],[12.4385,56.558],[12.6038,56.3332],[12.6233,56.3067],[12.6396,56.2589],[12.5481,56.281],[12.5085,56.2925],[12.5081,56.2925],[12.5019,56.2922],[12.4514,56.3044],[12.4761,56.2909],[12.4721,56.2907],[12.4725,56.2903],[12.4721,56.2903],[12.5225,56.2452],[12.5446,56.2104],[12.5537,56.1815],[12.5895,56.1398],[12.5909,56.1376],[12.5955,56.1328],[12.6095,56.1165],[12.6151,56.1124],[12.7298,55.9928],[12.9144,55.4487],[12.8937,55.4221],[12.8594,55.4349],[12.8288,55.4001],[12.8328,55.3826],[12.8867,55.3933],[12.9326,55.388],[12.9347,55.389],[12.9437,55.3623],[12.9441,55.3623],[13.1581,55.3707],[13.1681,55.3692],[13.2805,55.3454],[13.3814,55.346],[13.4109,55.3523],[13.4496,55.3674],[13.5658,55.3869],[13.9947,55.4038],[14.0293,55.3994],[14.0354,55.3971],[14.0941,55.3874],[14.1812,55.3908],[14.219,55.4138],[14.2649,55.4612],[14.2947,55.4755],[14.363,55.5236],[14.3582,55.5637],[14.2777,55.6336],[14.2761,55.6363],[14.276,55.6364],[14.2749,55.6519],[14.4081,55.8374],[14.4874,55.9478],[14.5143,55.9853],[14.5389,56.0196],[14.5409,56.0223],[14.5599,56.0488],[14.5603,56.0489],[14.5674,56.0467],[14.6205,56.03],[14.6238,56.0245],[14.6115,56.0111],[14.673,56.0053],[14.7057,56.017],[14.7155,56.0023],[14.7678,56.0307],[14.7453,56.0582],[14.7154,56.1342],[14.7837,56.1619],[14.7875,56.162],[14.8303,56.1426],[14.8482,56.164],[14.906,56.1612],[14.9324,56.1677],[14.9714,56.1693],[15.049,56.1536],[15.0403,56.1705],[15.0842,56.1671],[15.0852,56.1646],[15.1309,56.1611],[15.1365,56.1629],[15.1757,56.1598],[15.1924,56.1529],[15.2229,56.156],[15.322,56.1481],[15.321,56.1396],[15.3656,56.1411],[15.3683,56.1444],[15.6648,56.1208],[15.6423,56.1046],[15.6511,56.09],[15.7022,56.0767],[15.7053,56.1164],[15.6958,56.1184],[15.7918,56.1107],[15.7887,56.1064],[15.8517,56.0864],[15.8744,56.1027],[15.8755,56.1041],[15.8814,56.1036],[15.8818,56.1036],[15.9019,56.137],[15.9321,56.1747],[16.0044,56.2194],[16.0383,56.2551],[16.0662,56.3359],[16.0762,56.3648],[16.1406,56.4803],[16.166,56.508],[16.1787,56.5371],[16.2132,56.5484],[16.2201,56.592],[16.2985,56.6626],[16.3011,56.6633],[16.325,56.6522],[16.3587,56.6544],[16.3792,56.6756],[16.3778,56.7259],[16.3683,56.7405],[16.3842,56.7678],[16.4126,56.7774],[16.4548,56.7683],[16.4745,56.7863],[16.4634,56.7978],[16.4286,56.7829],[16.4089,56.8084],[16.4363,56.8569],[16.4363,56.8765],[16.4578,56.9275],[16.5258,57.0602],[16.5348,57.0517],[16.5833,57.0449],[16.5545,57.0808],[16.5696,57.0865],[16.5431,57.118],[16.5126,57.1264],[16.5082,57.1414],[16.4801,57.1871],[16.4925,57.2419],[16.4945,57.2429],[16.4931,57.2446],[16.5046,57.295],[16.5123,57.3032],[16.5628,57.3193],[16.5474,57.3288],[16.5696,57.3466],[16.5575,57.3514],[16.5896,57.3855],[16.6317,57.3808],[16.6257,57.399],[16.6726,57.4155],[16.6333,57.4371],[16.6722,57.4597],[16.6595,57.4763],[16.689,57.4717],[16.6292,57.5569],[16.6106,57.5609],[16.6054,57.5684],[16.5933,57.6093],[16.6305,57.6291],[16.6151,57.6479],[16.6106,57.6824],[16.5954,57.6947],[16.5976,57.704],[16.6392,57.6923],[16.7068,57.6885],[16.7149,57.7028],[16.6908,57.7257],[16.6182,57.7666],[16.6122,57.7682],[16.6147,57.7794],[16.6211,57.7742],[16.683,57.7473],[16.7068,57.7506],[16.6755,57.7645],[16.6191,57.7986],[16.6406,57.8931],[16.6707,57.8914],[16.6818,57.9165],[16.6852,57.9166],[16.7108,57.8913],[16.7581,57.877],[16.7654,57.8988],[16.7273,57.9288],[16.7825,57.9151],[16.7415,57.9462],[16.7354,57.9719],[16.7064,57.9621],[16.6963,57.9762],[16.6966,57.9989],[16.7,57.9977],[16.6966,58.0005],[16.6969,58.0167],[16.7205,58.025],[16.7378,58.0142],[16.7464,58.0166],[16.7546,58.025],[16.7402,58.0398],[16.7074,58.0499],[16.6974,58.054],[16.6975,58.0574],[16.701,58.057],[16.7123,58.0595],[16.7176,58.0668],[16.7149,58.0796],[16.7361,58.0848],[16.7161,58.1042],[16.6983,58.1166],[16.6988,58.1494],[16.7016,58.1617],[16.7214,58.1498],[16.7772,58.1305],[16.8098,58.1621],[16.7915,58.1729],[16.7883,58.1793],[16.7962,58.182],[16.8171,58.1772],[16.8223,58.1796],[16.8241,58.1929],[16.8213,58.2071],[16.8137,58.2204],[16.8026,58.231],[16.7893,58.2373],[16.803,58.2447],[16.7399,58.2651],[16.7307,58.2803],[16.743,58.2813],[16.7586,58.2897],[16.7614,58.3056],[16.7893,58.3056],[16.7992,58.3236],[16.7793,58.3256],[16.7379,58.3211],[16.7428,58.3429],[16.7751,58.3397],[16.7713,58.3631],[16.7546,58.3738],[16.7523,58.3701],[16.7487,58.3689],[16.7649,58.4403],[16.7655,58.4407],[16.7964,58.4451],[16.8303,58.4521],[16.8529,58.4631],[16.8505,58.467],[16.9007,58.4834],[16.9162,58.4835],[16.9402,58.4911],[16.8929,58.5146],[16.8287,58.5585],[16.8303,58.5594],[16.8268,58.5598],[16.7968,58.5803],[16.8087,58.6328],[16.9242,58.6254],[17.0358,58.6413],[17.0042,58.6659],[17.0272,58.6763],[17.0698,58.6618],[17.093,58.6608],[17.1457,58.6966],[17.1253,58.7058],[17.0967,58.7078],[17.1022,58.7103],[17.178,58.7318],[17.2761,58.7307],[17.2761,58.7488],[17.3578,58.7512],[17.3716,58.779],[17.3596,58.7886],[17.378,58.8015],[17.4597,58.7914],[17.4883,58.7996],[17.45,58.8159],[17.4654,58.8597],[17.5096,58.8716],[17.5557,58.8542],[17.5907,58.8673],[17.5627,58.8851],[17.6038,58.8943],[17.6377,58.9019],[17.6716,58.9096],[17.6848,58.9008],[17.6878,58.9132],[17.7495,58.9271],[17.7493,58.9238],[17.783,58.9157],[17.7744,58.8862],[17.8035,58.9083],[17.7879,58.9357],[17.7999,58.9384],[17.8052,58.9339],[17.8518,58.9248],[17.8718,58.902],[17.8694,58.877],[17.8928,58.861],[17.8997,58.9157],[17.9307,58.9101],[17.9706,58.936],[17.9612,58.9634],[18.0186,59.0229],[18.018,59.0235],[18.0494,59.0386],[18.0505,59.0386],[18.0503,59.0391],[18.0906,59.0584],[18.0962,59.0583],[18.1042,59.0639],[18.2554,59.1018],[18.2554,59.1013],[18.2009,59.0808],[18.3242,59.1081],[18.3118,59.1254],[18.3226,59.1322],[18.3261,59.1354],[18.3815,59.1478],[18.4143,59.14],[18.4297,59.1746],[18.3926,59.1689],[18.3777,59.1912],[18.3866,59.214],[18.4268,59.1968],[18.3917,59.2272],[18.4119,59.2792],[18.4131,59.2788],[18.4304,59.2583],[18.4683,59.2521],[18.5204,59.2287],[18.5516,59.2259],[18.5781,59.2446],[18.5324,59.2419],[18.5161,59.2713],[18.5391,59.26],[18.6123,59.2583],[18.5234,59.2886],[18.5001,59.2922],[18.5217,59.2985],[18.6198,59.3083],[18.6465,59.3303],[18.6326,59.3469],[18.5927,59.3565],[18.5864,59.3639],[18.6008,59.3625],[18.6123,59.3749],[18.5649,59.3892],[18.5602,59.3947],[18.5425,59.3996],[18.5366,59.416],[18.4846,59.4342],[18.4268,59.4364],[18.4375,59.4193],[18.4806,59.4016],[18.459,59.3964],[18.4569,59.3955],[18.4478,59.3955],[18.4499,59.3925],[18.3943,59.3687],[18.3911,59.3691],[18.3897,59.3695],[18.3827,59.3701],[18.337,59.3756],[18.3366,59.3756],[18.3305,59.3748],[18.3181,59.3759],[18.2796,59.368],[18.2718,59.3669],[18.2702,59.366],[18.2547,59.3628],[18.2466,59.3526],[18.2106,59.3322],[18.2026,59.3306],[18.1966,59.3342],[18.1729,59.3266],[18.1725,59.3266],[18.1842,59.341],[18.2121,59.3415],[18.2041,59.3654],[18.2046,59.366],[18.2375,59.3728],[18.2129,59.3763],[18.2324,59.4002],[18.2476,59.3977],[18.3073,59.3968],[18.3379,59.4085],[18.2931,59.414],[18.2827,59.4364],[18.2772,59.4386],[18.3336,59.4737],[18.345,59.4731],[18.4131,59.491],[18.4338,59.5037],[18.5228,59.5422],[18.5407,59.5458],[18.5973,59.574],[18.64,59.5836],[18.6865,59.6058],[18.6711,59.6231],[18.6793,59.6289],[18.7005,59.6214],[18.742,59.6494],[18.7086,59.6494],[18.7186,59.6564],[18.8462,59.7117],[18.8555,59.7131],[18.9014,59.7347],[18.9015,59.7349],[18.9232,59.7419],[18.9413,59.7238],[18.9753,59.7191],[19.036,59.7285],[19.0745,59.7497],[19.0852,59.7722],[19.042,59.785],[18.9786,59.7835],[18.9803,59.7892],[18.9978,59.7946],[18.9963,59.8098],[18.9955,59.8395],[18.9824,59.8483],[18.9616,59.8896],[19.0213,59.84],[19.0679,59.8337],[19.0716,59.8963],[19.0368,59.9025],[19.0436,59.8821],[19.0095,59.8963],[19.0095,59.9094],[18.9658,59.9268],[18.9407,59.9311],[18.9346,59.9433],[18.8842,59.9797],[18.8518,60.0266],[18.8462,60.0312],[18.8245,60.0683],[18.8205,60.1137],[18.8035,60.1216],[18.7659,60.1111],[18.7598,60.0973],[18.7277,60.116],[18.7207,60.126],[18.7075,60.1278],[18.6586,60.1563],[18.561,60.2131],[18.5494,60.2199],[18.5515,60.23],[18.5637,60.2276],[18.6048,60.2383],[18.5654,60.2593],[18.5363,60.265],[18.4517,60.3105],[18.4478,60.3135],[18.4478,60.3414],[18.428,60.3488],[18.3584,60.3476],[18.3263,60.3555],[18.3181,60.3545],[17.9901,60.5452],[17.9954,60.553],[17.9749,60.5878],[17.9186,60.6002],[17.9002,60.5975],[17.833,60.6367],[17.7648,60.7041],[17.7094,60.7588],[17.6817,60.7861],[17.6541,60.8134],[17.5566,60.9097],[17.1737,61.2879],[17.1805,61.2944],[17.1873,61.2912],[17.2479,61.2873],[17.1889,61.3025],[17.1994,61.3126],[17.1993,61.3129],[17.1994,61.313],[17.1973,61.3174],[17.2137,61.3134],[17.2761,61.314],[17.2018,61.3371],[17.2002,61.3481],[17.1792,61.3553],[17.1778,61.3581],[17.141,61.3807],[17.1612,61.4199],[17.1662,61.4164],[17.2171,61.4339],[17.1741,61.4448],[17.305,61.6983],[17.3063,61.698],[17.3132,61.682],[17.3509,61.6772],[17.3443,61.6905],[17.3823,61.6885],[17.4199,61.6498],[17.4461,61.6329],[17.4963,61.6351],[17.5203,61.7024],[17.4831,61.7346],[17.4301,61.7269],[17.419,61.7401],[17.3974,61.7817],[17.3898,61.8116],[17.4056,61.8211],[17.388,61.8187],[17.3812,61.8457],[17.4735,62.0245],[17.5007,62.0772],[17.5279,62.1298],[17.5414,62.1561],[17.555,62.1824],[17.5666,62.2049],[17.5695,62.2047],[17.6527,62.232],[17.5994,62.2496],[17.5896,62.2495],[17.6869,62.4379],[17.7074,62.4374],[17.6909,62.4457],[17.719,62.5],[17.7947,62.5012],[17.8235,62.4858],[17.8617,62.5008],[17.8928,62.5275],[17.8843,62.5357],[17.9017,62.5473],[17.9094,62.5494],[17.9105,62.5531],[17.9482,62.5781],[17.9614,62.5814],[17.9683,62.5605],[18.0425,62.5921],[18.0642,62.5958],[18.0432,62.6262],[17.914,62.6533],[17.9053,62.6599],[17.9259,62.6708],[17.9336,62.6708],[17.9749,62.6572],[17.9973,62.6649],[18.0027,62.709],[17.9954,62.7277],[17.9624,62.7521],[17.9568,62.7825],[17.9403,62.79],[18.04,62.8344],[18.0915,62.8351],[18.0774,62.8129],[18.0767,62.8087],[18.034,62.8115],[18.009,62.7944],[18.0684,62.7939],[18.0773,62.7739],[18.1405,62.7719],[18.1612,62.7899],[18.1714,62.7899],[18.2003,62.805],[18.1951,62.7774],[18.2588,62.8106],[18.2827,62.8415],[18.2622,62.8483],[18.2301,62.83],[18.247,62.849],[18.3012,62.8607],[18.3311,62.8401],[18.4001,62.8415],[18.4714,62.8677],[18.4634,62.8876],[18.4435,62.8916],[18.463,62.8958],[18.4673,62.9024],[18.4723,62.9017],[18.5125,62.9041],[18.511,62.9324],[18.4846,62.9288],[18.4876,62.9532],[18.5281,62.9538],[18.5366,62.9731],[18.5767,62.9584],[18.5511,62.9859],[18.5244,62.9919],[18.4338,62.9913],[18.396,62.9931],[18.4667,63.0246],[18.4679,63.0237],[18.4866,63.0257],[18.4889,63.0345],[18.8421,63.1919],[18.8626,63.192],[18.9133,63.2121],[18.8953,63.2156],[18.9573,63.2433],[18.9666,63.2389],[18.9618,63.2258],[19.0368,63.1779],[19.0679,63.2021],[19.112,63.2196],[19.0564,63.2265],[19.0399,63.239],[19.0417,63.2412],[19.0671,63.255],[19.0972,63.2379],[19.1535,63.294],[19.1472,63.2984],[19.1907,63.3221],[19.2075,63.3261],[19.2293,63.3425],[19.2455,63.3223],[19.2695,63.3425],[19.2735,63.3841],[19.3107,63.4007],[19.3478,63.4172],[19.4222,63.4503],[19.4546,63.4312],[19.508,63.4119],[19.5117,63.4333],[19.4938,63.4485],[19.4926,63.4601],[19.497,63.4799],[19.5234,63.4858],[19.511,63.49],[19.5354,63.5008],[19.5894,63.4878],[19.638,63.4657],[19.6395,63.4449],[19.6873,63.4313],[19.7725,63.4646],[19.7581,63.5091],[19.7784,63.5354],[19.8644,63.5732],[19.8739,63.5893],[19.9045,63.606],[19.9376,63.6152],[19.9563,63.6184],[20.0305,63.6025],[20.0146,63.6285],[20.1138,63.6456],[20.1199,63.6425],[20.1535,63.6509],[20.2428,63.6509],[20.2445,63.6758],[20.2717,63.6857],[20.2676,63.6706],[20.2952,63.6522],[20.3181,63.679],[20.3176,63.7026],[20.3591,63.7178],[20.3535,63.7014],[20.3649,63.6807],[20.4056,63.6898],[20.4211,63.7123],[20.4159,63.7504],[20.4495,63.7715],[20.4558,63.7722],[20.4588,63.7754],[20.5355,63.7933],[20.5427,63.7753],[20.565,63.7983],[20.5719,63.8018],[20.6351,63.8165],[20.6431,63.8145],[20.6747,63.7893],[20.709,63.8222],[20.6793,63.8274],[20.7251,63.8495],[20.7293,63.8496],[20.7865,63.8786],[20.8206,63.9372],[20.832,63.9509],[20.8415,63.9594],[20.897,63.9837],[20.9127,64.0485],[20.9385,64.0797],[20.9543,64.0948],[20.9538,64.0981],[21.019,64.177],[21.1079,64.2225],[21.117,64.2211],[21.1532,64.2456],[21.2566,64.2985],[21.271,64.3041],[21.2878,64.3023],[21.3328,64.315],[21.3233,64.3245],[21.3596,64.3388],[21.3732,64.3304],[21.4573,64.3716],[21.5139,64.4147],[21.5752,64.4411],[21.6001,64.4424],[21.5977,64.4752],[21.5786,64.4659],[21.5376,64.4727],[21.5199,64.4554],[21.515,64.4552],[21.5194,64.4634],[21.5192,64.4635],[21.5194,64.4638],[21.4875,64.484],[21.4898,64.487],[21.4761,64.515],[21.4391,64.5147],[21.4134,64.531],[21.4631,64.5484],[21.4966,64.5246],[21.5519,64.5347],[21.5151,64.5371],[21.4898,64.5559],[21.4898,64.5792],[21.4673,64.5873],[21.4556,64.5625],[21.3942,64.603],[21.374,64.608],[21.3594,64.5909],[21.3322,64.6288],[21.2991,64.6873],[21.2989,64.688],[21.3123,64.6993],[21.2942,64.7066],[21.2836,64.7486],[21.2995,64.7488],[21.3058,64.7683],[21.2769,64.7752],[21.2432,64.9082],[21.2926,64.9408],[21.3259,64.9586],[21.3778,64.96],[21.3942,64.9668],[21.3831,64.9866],[21.3971,64.9967],[21.4258,65.012],[21.4279,65.0136],[21.4631,65.0077],[21.5034,65.0214],[21.4741,65.0489],[21.4914,65.0622],[21.5632,65.0613],[21.5817,65.0677],[21.5438,65.0831],[21.5622,65.112],[21.5602,65.1148],[21.5734,65.1249],[21.5761,65.1384],[21.5999,65.1391],[21.6188,65.148],[21.6099,65.1689],[21.5376,65.2309],[21.5153,65.243],[21.5356,65.2577],[21.5444,65.2473],[21.577,65.2381],[21.6228,65.2408],[21.6681,65.2528],[21.7017,65.2859],[21.6262,65.3231],[21.7439,65.408],[21.7902,65.4001],[21.821,65.401],[21.8809,65.4186],[21.8885,65.4077],[21.9422,65.4118],[21.9323,65.4414],[21.9422,65.4534],[21.9661,65.4337],[22.0117,65.432],[22.0316,65.467],[21.9471,65.5094],[21.9282,65.4897],[21.9048,65.5088],[21.9178,65.5308],[22.0112,65.5175],[22.0476,65.525],[22.0659,65.5143],[22.0815,65.5294],[22.0878,65.5293],[22.0882,65.5293],[22.1092,65.5371],[22.1209,65.5395],[22.1769,65.5398],[22.203,65.549],[22.1701,65.553],[22.1187,65.5835],[22.0941,65.5888],[22.0884,65.6106],[22.1265,65.6037],[22.2283,65.5721],[22.2566,65.569],[22.263,65.5896],[22.3501,65.5694],[22.4053,65.5419],[22.429,65.549],[22.405,65.5832],[22.366,65.5889],[22.3333,65.6042],[22.3845,65.6278],[22.3259,65.6452],[22.3333,65.6514],[22.2931,65.6737],[22.2896,65.6557],[22.3191,65.6315],[22.3006,65.6115],[22.2627,65.6118],[22.2625,65.6118],[22.2682,65.6214],[22.2688,65.6303],[22.2849,65.6315],[22.2702,65.6496],[22.2733,65.6954],[22.3079,65.7008],[22.3294,65.6893],[22.3396,65.665],[22.388,65.6725],[22.3618,65.7163],[22.3395,65.7242],[22.2783,65.732],[22.2821,65.7406],[22.2997,65.7435],[22.326,65.7355],[22.3473,65.7513],[22.5163,65.7791],[22.5227,65.7764],[22.5375,65.7826],[22.601,65.793],[22.6279,65.7904],[22.653,65.7781],[22.6481,65.7551],[22.6776,65.7647],[22.6997,65.8039],[22.6984,65.809],[22.818,65.8286],[22.8372,65.8077],[22.8602,65.796],[22.8997,65.796],[22.9194,65.7863],[22.9303,65.7833],[22.936,65.7786],[22.9898,65.7643],[23.002,65.7636],[23.0636,65.7467],[23.0868,65.7277],[23.0788,65.7072],[23.1296,65.715],[23.1284,65.734],[23.1585,65.7502],[23.2376,65.7687],[23.2114,65.7806],[23.2222,65.7863],[23.3794,65.8],[23.385,65.7752],[23.4334,65.7667],[23.422,65.8022],[23.4238,65.8036],[23.593,65.8054],[23.6084,65.809],[23.6233,65.7962],[23.6493,65.803],[23.6851,65.8267],[23.69,65.8279],[23.7704,65.8099],[23.7817,65.793],[23.8547,65.7891],[23.9264,65.7604],[23.9562,65.7883],[24.0056,65.7926],[24.0532,65.796],[24.0523,65.7966],[24.1546,65.8054],[24.1751,65.8071],[24.1882,65.7902],[24.2246,65.7749],[24.2512,65.7941],[24.2435,65.8111],[24.3296,65.7949],[24.3571,65.7792],[24.4048,65.7692],[24.4515,65.796],[24.4543,65.7969],[24.5188,65.796],[24.5209,65.7971],[24.5615,65.7833],[24.5505,65.7635],[24.5549,65.7451],[24.5965,65.7092],[24.6458,65.6982],[24.6625,65.6827],[24.6711,65.645],[24.687,65.6315],[24.7453,65.6514],[24.7841,65.657],[24.8383,65.6595],[24.9166,65.6376],[24.9372,65.6241],[24.9611,65.6251],[25.0986,65.5867],[25.1248,65.5611],[25.1855,65.5624],[25.2292,65.5501],[25.2466,65.5434],[25.3019,65.5075],[25.3247,65.4117],[25.3174,65.3881],[25.3069,65.3816],[25.2661,65.3776],[25.3077,65.357],[25.3063,65.3527],[25.3022,65.2908],[25.2798,65.261],[25.3,65.2569],[25.2991,65.2433],[25.2897,65.2214],[25.2798,65.22],[25.2815,65.2022],[25.2748,65.1867],[25.2258,65.1566],[25.2114,65.1238],[25.3157,65.1108],[25.3387,65.0988],[25.3417,65.0946],[24.7302,64.9019],[24.4779,64.7823],[23.9951,64.5536],[23.5122,64.3248],[23.3915,64.2676],[23.3614,64.2533],[23.2708,64.2104],[22.788,63.9816],[22.7578,63.9673],[22.7277,63.953],[22.6673,63.9244],[22.5466,63.8672],[22.4442,63.8187],[21.581,63.2211],[21.5581,63.2326],[21.4966,63.209],[21.5129,63.185],[21.5297,63.1819],[21.2717,62.8682],[21.2674,62.869],[21.2267,62.8585],[21.2161,62.8148],[21.1834,62.7824],[21.1509,62.7944],[21.1135,62.7812],[21.1165,62.7497],[21.1434,62.7377],[21.1214,62.6936],[21.0789,62.6783],[21.0832,62.6592],[21.0744,62.6282],[21.0582,62.6085],[21.0583,62.6083],[21.0582,62.6081],[21.1177,62.4975],[21.1156,62.4958],[21.1164,62.4602],[21.1364,62.4626],[21.1455,62.4458],[21.1314,62.4167],[21.1336,62.404],[21.1604,62.418],[21.1921,62.3592],[21.1898,62.3524],[21.1989,62.3464],[21.3127,62.1348],[21.3033,62.114],[21.2891,62.1216],[21.2762,62.0502],[21.2366,61.985],[21.2832,61.974],[21.2926,61.9687],[21.2775,61.9515],[21.3167,61.9392],[21.3438,61.9392],[21.3858,61.915],[21.4012,61.8956],[21.3942,61.8894],[21.4333,61.8553],[21.4477,61.8372],[21.4446,61.8263],[21.461,61.8203],[21.4686,61.8108],[21.4806,61.7937],[21.47,61.7597],[21.4893,61.737],[21.5302,61.7232],[21.5439,61.7036],[21.5436,61.7023],[21.5178,61.7051],[21.5385,61.6797],[21.5134,61.569],[21.508,61.5701],[21.4601,61.5624],[21.5035,61.5253],[21.4932,61.4799],[21.4221,61.4853],[21.4897,61.4644],[21.4777,61.4115],[21.4489,61.4028],[21.4744,61.3969],[21.403,61.0825],[21.3858,61.0663],[21.367,61.0601],[21.3781,61.0569],[21.3755,61.0438],[21.3203,61.0602],[21.2987,61.0601],[21.3115,61.0375],[21.339,61.0266],[21.3185,61.0124],[21.3357,61.0046],[21.3619,60.9743],[21.3606,60.9675],[21.3606,60.9671],[21.3654,60.9356],[21.3049,60.9714],[21.27,60.968],[21.2434,60.9509],[21.2832,60.9428],[21.3123,60.923],[21.2766,60.8891],[21.2278,60.8997],[21.2024,60.8895],[21.2644,60.882],[21.3181,60.8802],[21.3279,60.9101],[21.3668,60.9271],[21.3672,60.9244],[21.3631,60.9067],[21.3533,60.9025],[21.3607,60.896],[21.3536,60.8647],[21.3185,60.8647],[21.3259,60.8349],[21.3446,60.8249],[21.321,60.7213],[21.3211,60.7213],[21.321,60.7209],[21.411,60.6902],[21.411,60.6818],[21.3533,60.6902],[21.3796,60.647],[21.4141,60.6323],[21.4285,60.6083],[21.4148,60.6083],[21.4284,60.5941],[21.4085,60.5804],[21.4426,60.5673],[21.4861,60.5742],[21.513,60.5734],[21.5262,60.5696],[21.5366,60.565],[21.5178,60.5673],[21.5697,60.5264],[21.5838,60.505],[21.5581,60.4923],[21.6121,60.4888],[21.6414,60.4958],[21.669,60.5452],[21.6657,60.5552],[21.718,60.5789],[21.7304,60.5814],[21.806,60.5556],[21.803,60.5251],[21.7853,60.478],[21.806,60.486],[21.874,60.478],[21.8485,60.5037],[21.8503,60.5116],[21.8538,60.5054],[21.933,60.5001],[21.9388,60.4983],[21.9354,60.4923],[21.9586,60.4923],[21.9829,60.4849],[21.9819,60.4768],[22.0181,60.4711],[22.0181,60.4575],[22.0645,60.4363],[22.0879,60.4528],[22.1113,60.4457],[22.1167,60.437],[22.151,60.4336],[22.2546,60.4019],[22.2915,60.3826],[22.2983,60.3826],[22.3301,60.3525],[22.3004,60.3478],[22.2657,60.354],[22.2896,60.358],[22.2997,60.3676],[22.2557,60.3742],[22.1976,60.3662],[22.1807,60.3692],[22.2075,60.3756],[22.2062,60.3826],[22.1468,60.3804],[22.1125,60.3529],[22.1274,60.3565],[22.1094,60.3148],[22.1079,60.3135],[22.1068,60.3135],[22.0838,60.3015],[22.0827,60.2919],[22.077,60.287],[22.0773,60.2869],[22.077,60.2866],[22.0819,60.2849],[22.0801,60.2695],[22.1096,60.2713],[22.142,60.264],[22.1886,60.2363],[22.2102,60.1963],[22.257,60.1651],[22.2912,60.1651],[22.2908,60.1646],[22.2987,60.1469],[22.3369,60.1485],[22.32,60.164],[22.3239,60.1651],[22.3618,60.1651],[22.3616,60.1655],[22.3618,60.1655],[22.3583,60.1747],[22.3679,60.1774],[22.375,60.204],[22.3492,60.199],[22.3474,60.2037],[22.3043,60.228],[22.3114,60.2693],[22.3159,60.2708],[22.3318,60.2694],[22.3296,60.2753],[22.3832,60.2931],[22.3933,60.2932],[22.4673,60.2236],[22.4481,60.2214],[22.4152,60.1496],[22.4656,60.1476],[22.4692,60.1461],[22.4561,60.1237],[22.4221,60.1148],[22.4435,60.102],[22.437,60.0909],[22.437,60.0766],[22.4304,60.0819],[22.4019,60.0758],[22.4084,60.0528],[22.3872,60.0517],[22.3827,60.0745],[22.3548,60.0756],[22.3532,60.0323],[22.3828,59.9926],[22.3945,60.005],[22.4426,59.9975],[22.4481,60.053],[22.4622,60.0297],[22.4723,60.0296],[22.4699,59.9975],[22.53,60.0082],[22.5639,60.0288],[22.5821,60.0286],[22.5749,60.017],[22.6053,59.9959],[22.65,60.0287],[22.6569,60.0298],[22.6821,59.9975],[22.7041,60.001],[22.7171,59.9888],[22.74,59.9672],[22.7724,59.9367],[22.8047,59.9064],[22.869,59.8459],[22.8694,59.8459],[22.9455,59.8558],[23.0034,59.8633],[22.9923,59.8534],[22.9866,59.852],[22.9314,59.8428],[22.9051,59.8112],[22.9837,59.8228],[23.0202,59.8162],[23.0206,59.8162],[23.0545,59.822],[23.0681,59.8208],[23.0792,59.8262],[23.0856,59.8273],[23.2513,59.8411],[23.2232,59.8669],[23.2803,59.8993],[23.7804,59.9643],[23.7995,59.9566],[23.8274,59.9704],[24.3554,60.0391],[24.3584,60.0385],[24.3577,60.036],[24.3191,60.0141],[24.3127,59.9975],[24.3677,60.022],[24.3748,60.005],[24.4127,60.0276],[24.4425,60.0217],[24.4163,59.9914],[24.4681,59.9964],[24.527,60.0353],[24.5945,60.0602],[24.5744,60.0736],[24.9015,60.1415],[24.9509,60.1435],[24.9576,60.1532],[24.9996,60.1619],[25.0293,60.1479],[25.0674,60.1627],[25.0479,60.1689],[25.0633,60.1751],[25.0976,60.1822],[25.0947,60.1763],[25.177,60.1833],[25.2039,60.2043],[25.2038,60.2043],[25.402,60.2455],[25.5028,60.2462],[25.5336,60.2728],[25.5656,60.2795],[25.5645,60.2783],[25.5921,60.2426],[25.6223,60.2383],[25.6034,60.2154],[25.636,60.2043],[25.6437,60.2281],[25.6844,60.2452],[25.601,60.2868],[25.6546,60.2979],[25.6558,60.293],[25.7355,60.2473],[25.762,60.2404],[25.7805,60.2514],[25.8489,60.2657],[25.7875,60.2836],[25.8045,60.2924],[25.861,60.284],[25.8949,60.2496],[25.9302,60.2452],[25.8924,60.2916],[25.8843,60.32],[25.8915,60.3291],[25.9474,60.3474],[26.0116,60.3437],[26.0388,60.3227],[26.0401,60.2998],[26.0913,60.3066],[26.1082,60.3359],[26.0606,60.3681],[26.0389,60.3754],[26.0375,60.3774],[26.1382,60.3984],[26.1424,60.396],[26.1594,60.4028],[26.1916,60.4095],[26.2006,60.4087],[26.2063,60.4064],[26.2067,60.4064],[26.2158,60.4073],[26.2734,60.4022],[26.2616,60.4119],[26.2993,60.4157],[26.324,60.383],[26.3812,60.3987],[26.3833,60.4165],[26.4242,60.396],[26.4164,60.4119],[26.4515,60.4165],[26.4714,60.4324],[26.4934,60.4334],[26.4934,60.4613],[26.4827,60.468],[26.4797,60.4753],[26.4749,60.4873],[26.4935,60.4958],[26.4935,60.5239],[26.5129,60.5239],[26.5129,60.5532],[26.5435,60.5532],[26.5435,60.5824],[26.5533,60.5918],[26.501,60.5994],[26.4163,60.6513],[26.3483,60.6711],[26.3287,60.6879],[26.3279,60.7172],[26.3019,60.7441],[26.2708,60.7548],[26.2155,60.7554],[26.1969,60.7997],[26.1551,60.8258],[26.0931,60.8307],[26.0968,60.862],[26.1594,60.92],[26.1457,60.9301],[26.0771,60.9389],[26.0428,60.9551],[26.0462,60.9841],[26.1116,60.9856],[26.1366,61.0249],[26.1087,61.0669],[26.0582,61.0902],[26.0521,61.1076],[26.0855,61.1378],[26.1302,61.1514],[26.1979,61.133],[26.3006,61.1549],[26.3954,61.1998],[26.4182,61.2192],[26.4331,61.2537],[26.5151,61.2737],[26.6119,61.2871],[26.6347,61.2826],[26.6659,61.2481],[26.6403,61.2215],[26.6645,61.2098],[26.6989,61.2142],[26.7614,61.2392],[26.7969,61.2735],[26.8719,61.2833],[26.9183,61.2268],[26.9252,61.1905],[26.9436,61.1713],[27.0016,61.1515],[27.2132,61.1618],[27.3304,61.1683],[27.3666,61.1814],[27.3858,61.213],[27.3358,61.2183],[27.3311,61.2528],[27.2261,61.3161],[27.2407,61.3299],[27.1434,61.3284],[26.9764,61.3439],[26.9685,61.3598],[27.0184,61.3753],[27.1131,61.3731],[27.2024,61.3997],[27.3034,61.4006],[27.5403,61.3603],[28.1815,61.3733],[28.3416,61.4186],[28.3965,61.4469],[28.4249,61.4814],[28.4689,61.5092],[28.5101,61.5084],[28.5383,61.4813],[28.5629,61.4729],[28.6532,61.4696],[28.7505,61.4816],[28.8093,61.498],[28.815,61.5308],[28.8382,61.5392],[28.8932,61.5335],[29.0533,61.5342],[29.1902,61.5482],[29.272,61.5721],[29.3411,61.6215],[29.4665,61.6581],[29.5324,61.6848],[29.564,61.7241],[30.0572,61.8488],[30.1456,61.8505],[30.3396,61.9917],[30.4807,62.0677],[30.6072,62.1513],[30.635,62.184],[30.7038,62.2104],[30.7938,62.253],[30.9076,62.2929],[30.9419,62.3146],[30.9806,62.3588],[31.1234,62.4348],[31.153,62.4674],[31.2438,62.5033],[31.3028,62.596],[31.347,62.6293],[31.3633,62.6516],[31.4106,62.7465],[31.4413,62.7887],[31.5695,62.9059],[31.5358,62.9195],[31.5054,62.9682],[31.4445,63.0019],[31.3803,63.0479],[31.2885,63.0847],[31.2508,63.1155],[31.2257,63.196],[31.1778,63.2252],[30.9749,63.2892],[30.8209,63.3757],[30.4887,63.4621],[30.3805,63.5325],[30.2425,63.5818],[30.0011,63.7153],[29.9808,63.7415],[29.9984,63.7471],[30.0513,63.7638],[30.2015,63.7926],[30.2656,63.8307],[30.3286,63.896],[30.5093,63.9914],[30.5523,64.0217],[30.5805,64.0511],[30.5864,64.0847],[30.5328,64.1625],[30.5325,64.1792],[30.5585,64.2197],[30.5034,64.2438],[30.446,64.2508],[30.3705,64.3008],[30.3211,64.3177],[30.1644,64.3419],[30.0931,64.3612],[30.053,64.3781],[30.0325,64.3969],[30.0704,64.4719],[30.0358,64.4915],[29.9905,64.5042],[29.97,64.5454],[29.9658,64.5786],[30.1364,64.6154],[30.1808,64.6428],[30.1878,64.6624],[30.1705,64.6817],[30.1091,64.7201],[30.1189,64.7679],[30.0625,64.7842],[29.8778,64.7848],[29.7803,64.7956],[29.6983,64.8391],[29.6336,64.9072],[29.5881,64.9914],[29.5984,65.0344],[29.6273,65.0622],[29.6678,65.0779],[29.8205,65.0937],[29.8502,65.1215],[29.8203,65.1265],[29.8091,65.1452],[29.8393,65.1669],[29.8332,65.205],[29.7668,65.2174],[29.6267,65.2152],[29.5801,65.2354],[29.6151,65.2694],[29.7201,65.3291],[29.7306,65.3654],[29.7182,65.4542],[29.7315,65.4969],[29.7455,65.5114],[29.8258,65.552],[29.8386,65.5649],[29.8067,65.5849],[29.7323,65.6087],[29.7029,65.6294],[29.7643,65.6481],[30.003,65.6781],[30.0985,65.6564],[30.1139,65.6655],[30.1117,65.712],[30.0751,65.8228],[30.0393,65.8654],[30.0097,65.9157],[29.9585,65.9739],[29.9205,66.0686],[29.9002,66.1081],[29.8754,66.1336],[29.7924,66.1809],[29.6509,66.2879],[29.5932,66.3459],[29.5697,66.3782],[29.5462,66.432],[29.5245,66.4912],[29.4095,66.5685],[29.3924,66.6053],[29.3625,66.6266],[29.3222,66.6801],[29.0892,66.8375],[29.0515,66.9078],[29.1001,66.9912],[29.4294,67.2328],[29.4907,67.263],[29.5198,67.2982],[29.9162,67.5081],[29.9334,67.5264],[29.9647,67.5847],[29.9777,67.6622],[30.0094,67.6858],[29.7138,67.7925],[29.6512,67.8236],[29.3602,68.0567],[29.2987,68.0818],[28.7272,68.1727],[28.6903,68.1832],[28.6638,68.204],[28.461,68.4911],[28.4474,68.5149],[28.4599,68.5424],[28.7164,68.728],[28.7473,68.7601],[28.8015,68.8355],[28.7283,68.865],[28.6457,68.8717],[28.4442,68.8658],[28.4131,68.8801],[28.4102,68.8985],[28.4562,68.9001],[28.7133,68.968],[28.8335,68.9845],[28.9541,69.0273],[28.8396,69.0803],[28.827,69.1068],[28.8441,69.1813],[28.8648,69.2166],[29.2293,69.3769],[29.3445,69.4644],[29.2032,69.586],[29.1471,69.6639],[29.1312,69.6742],[28.4809,69.7857],[28.4046,69.8023],[28.3797,69.8224],[28.3812,69.8562],[28.1893,69.886],[28.1674,69.8943],[27.981,70.0096],[27.8973,70.0707],[27.8669,70.0753],[27.7922,70.0589],[27.6651,70.0683],[27.6126,70.0621],[27.5709,70.0409],[27.5633,70.0236],[27.4452,70.0032],[27.3809,69.9743],[27.3232,69.9597],[27.3524,69.9487],[27.3118,69.9295],[27.1003,69.9018],[27.0075,69.9225],[26.9511,69.9202],[26.8646,69.9381],[26.7719,69.9284],[26.707,69.9351],[26.5339,69.9252],[26.5007,69.9183],[26.4359,69.8742],[26.4479,69.856],[26.4187,69.8356],[26.3168,69.7949],[26.2682,69.7583],[26.1983,69.7154],[26.032,69.6967],[25.9813,69.6749],[25.9617,69.6525],[26.0051,69.6108],[26.004,69.5872],[25.9603,69.5487],[25.9002,69.532],[25.8867,69.5209],[25.9064,69.5019],[25.8857,69.4791],[25.8867,69.4552],[25.8414,69.4178],[25.8774,69.3708],[25.7866,69.3128],[25.7745,69.2988],[25.7372,69.2182],[25.7341,69.1913],[25.7683,69.1421],[25.7502,69.0592],[25.7658,69.0307],[25.8011,69.0132],[25.7958,68.9933],[25.7539,68.9784],[25.7264,68.9425],[25.6948,68.9256],[25.6516,68.8835],[25.6024,68.8721],[25.4811,68.8877],[25.3872,68.8746],[25.2013,68.8126],[25.1627,68.7846],[25.1496,68.7646],[25.1442,68.668],[25.1176,68.6377],[25.071,68.6314],[24.9518,68.6051],[24.9271,68.5704],[24.9052,68.557],[24.8609,68.5634],[24.8296,68.5941],[24.7542,68.6379],[24.6634,68.6661],[24.3325,68.7086],[24.1869,68.7445],[24.1312,68.7762],[23.929,68.8162],[23.8526,68.8167],[23.7872,68.7998],[23.768,68.756],[23.7348,68.7154],[23.6416,68.695],[23.4816,68.6856],[23.1976,68.618],[23.1754,68.6217],[23.0979,68.6701],[23.0715,68.6809],[23.0193,68.6867],[22.8517,68.6757],[22.5965,68.7246],[22.5429,68.726],[22.4287,68.7101],[22.3967,68.7318],[22.3714,68.8226],[22.3568,68.8328],[22.2772,68.8575],[22.2002,68.9085],[22.1607,68.9561],[22.0231,69.012],[21.9461,69.0657],[21.6629,69.2632],[21.6388,69.2714],[21.3136,69.2914],[21.0984,69.2395],[21.0797,69.2301],[21.0336,69.1812],[21.1564,69.0876],[21.099,69.0438],[21.0325,69.041],[20.7444,69.1044],[20.7166,69.0988],[20.6232,69.0364],[20.1023,69.0221],[20.3411,68.9101],[20.3488,68.8931],[20.3565,68.8046],[20.3388,68.7655],[20.2366,68.6591],[20.1518,68.6068],[19.9622,68.5412],[20.2459,68.4774],[20.0103,68.3639],[19.9712,68.3513],[19.931,68.3502],[19.4817,68.424],[19.0381,68.5056],[18.7003,68.4956],[18.6446,68.5012],[18.4818,68.562],[18.4362,68.5739],[18.1893,68.5384],[18.1615,68.5302],[18.1368,68.4263],[18.1357,68.3957],[18.1886,68.1987],[18.1667,68.1585],[17.9819,68.0162],[17.921,67.9729],[17.8954,67.9697],[17.3215,68.1053],[17.3,68.0979],[17.2201,68.0401],[16.808,67.9106],[16.7619,67.8772],[16.6087,67.6473],[16.5872,67.6259],[16.483,67.5578],[16.4286,67.534],[16.367,67.5217],[16.1996,67.5083],[16.1807,67.4964],[16.1271,67.4228],[16.4379,67.2003],[16.4438,67.1826],[16.4156,67.0527],[16.3997,67.036],[16.3106,67.0099],[16.1257,66.9344],[16.0388,66.8875],[15.6695,66.5994],[15.4263,66.4912],[15.4299,66.4636],[15.4761,66.3549],[15.4918,66.288],[15.4819,66.2749],[15.0534,66.1533],[14.5405,66.1254],[14.6444,65.8429],[14.6489,65.8024],[14.6371,65.7812],[14.5702,65.7167],[14.5607,65.7011],[14.5104,65.4647],[14.5183,65.3645],[14.5143,65.3181],[14.4821,65.2887],[14.4005,65.2555],[14.366,65.2158],[14.3329,65.115],[14.3321,65.114],[14.3107,65.0841],[14.1724,64.9914],[13.6428,64.584],[13.9401,64.4913],[14.0609,64.4766],[14.0969,64.4653],[14.1156,64.4412],[14.1614,64.2054],[14.1478,64.169],[13.9823,64.0195],[13.9394,64.0095],[13.2341,64.0909],[12.9824,64.0588],[12.7553,63.9914],[12.6819,63.9564],[12.4825,63.8095],[12.2932,63.657],[12.1703,63.5981],[12.2195,63.4966],[12.2049,63.4546],[11.9924,63.2889],[12.0598,63.2048],[12.2227,63.0015],[12.1044,62.9233],[12.097,62.8866],[12.1562,62.7337],[12.1541,62.7105],[12.1031,62.634],[12.0912,62.5863],[12.2795,62.3442],[12.3143,62.2861],[12.3151,62.2718],[12.3175,62.234],[12.1617,61.7248],[12.1756,61.7115],[12.2913,61.6511],[12.3378,61.633],[12.4165,61.5823],[12.4825,61.5691],[12.5509,61.5669],[12.6138,61.547],[12.8771,61.371],[12.8882,61.3496],[12.8547,61.2553],[12.8197,61.2049],[12.7467,61.1515],[12.7329,61.1291],[12.7108,61.057],[12.6825,61.0403],[12.5697,61.0506],[12.5118,61.0491],[12.281,61.0152],[12.2533,61.0017],[12.2561,60.9813],[12.2948,60.9353],[12.3132,60.9019],[12.35,60.7933],[12.377,60.7541],[12.4825,60.6573],[12.5944,60.5149],[12.6126,60.4554],[12.5936,60.395],[12.5586,60.3599],[12.5047,60.3256],[12.4873,60.2959],[12.5216,60.1976],[12.5247,60.1617],[12.5109,60.118],[12.4832,60.0812],[12.4468,60.0511],[12.2906,59.9587],[12.1437,59.8984],[12.1027,59.894],[11.9422,59.902],[11.8746,59.8849],[11.8496,59.8724],[11.843,59.8384],[11.8837,59.8054],[11.9035,59.77],[11.8917,59.7058],[11.8284,59.6597],[11.6937,59.6223],[11.6749,59.6071],[11.6774,59.5591],[11.784,59.3606],[11.8068,59.2936],[11.8111,59.2487],[11.7756,59.2025],[11.7485,59.1401],[11.7453,59.0922],[11.7089,59.0216],[11.6937,58.9735],[11.6644,58.9201],[11.6116,58.8932],[11.5471,58.8847],[11.4826,58.8869],[11.452,58.896],[11.4532,58.9605],[11.4375,58.9917],[11.4141,59.0011],[11.4051,59.0107],[11.4051,59.0365],[11.4036,59.0386],[11.3998,59.0498],[11.3727,59.0498],[11.3602,59.0788],[11.39,59.0788],[11.3893,59.0808],[11.3705,59.1007],[11.3427,59.1078],[11.3138,59.1152],[11.2953,59.1143],[11.2479,59.1119],[11.2166,59.1104],[11.2068,59.112],[11.1531,59.112],[11.1531,59.0826],[11.1057,59.0826],[11.1057,58.9905],[11.0582,58.9905],[11.0582,58.9876],[11.0147,58.9876],[11.0147,58.9408],[10.9711,58.9408],[10.9711,58.9478],[10.9276,58.9478]],[[22.451,60.1885],[22.4728,60.2184],[22.4922,60.2002],[22.4698,60.202],[22.4694,60.202],[22.4603,60.1856],[22.451,60.1885]]],[[[12.4153,54.4201],[12.42,54.38],[12.44,54.25],[12.55,54.1],[12.75,53.98],[12.95,53.92],[13.05,53.91],[13.13,53.96],[13.34,53.935],[13.55,53.89],[13.7,53.875],[13.82,53.89],[13.8,53.98],[13.775,54.06],[13.73,54.12],[13.7319,54.1447],[13.7253,54.1537],[13.7249,54.1537],[13.6999,54.1526],[13.6983,54.1531],[13.6983,54.1593],[13.7147,54.164],[13.7119,54.1737],[13.6834,54.168],[13.6383,54.1499],[13.4584,54.142],[13.4145,54.1574],[13.3979,54.1652],[13.4035,54.1737],[13.3838,54.1781],[13.3757,54.1757],[13.3129,54.2052],[13.2888,54.2343],[13.2632,54.2425],[13.2284,54.2474],[13.2108,54.2532],[13.1707,54.2721],[13.1707,54.2766],[13.1612,54.2766],[13.1493,54.2822],[13.0805,54.3565],[13.0956,54.3723],[13.0837,54.379],[13.0504,54.3891],[13.0305,54.4106],[13.0229,54.4113],[13.021,54.4145],[13.0215,54.4265],[13.0342,54.4337],[13.0088,54.4381],[12.9691,54.4294],[12.941,54.4188],[12.9007,54.4225],[12.9212,54.4335],[12.9084,54.4446],[12.8796,54.4488],[12.8566,54.4411],[12.8191,54.4517],[12.7221,54.4517],[12.5769,54.4679],[12.5765,54.4679],[12.5617,54.4589],[12.5483,54.4621],[12.527,54.4821],[12.5339,54.4883],[12.5134,54.4822],[12.502,54.4736],[12.4924,54.4578],[12.4153,54.4201]]],[[[13.1155,54.3381],[13.1775,54.3102],[13.1775,54.3039],[13.1623,54.3077],[13.1489,54.3048],[13.1428,54.298],[13.1497,54.2903],[13.1597,54.291],[13.1903,54.2998],[13.2048,54.2972],[13.1992,54.2844],[13.2101,54.2758],[13.2424,54.2692],[13.2679,54.2565],[13.2842,54.2628],[13.3147,54.263],[13.3079,54.2692],[13.3095,54.2704],[13.3238,54.2639],[13.3195,54.2564],[13.3115,54.2511],[13.347,54.2375],[13.3787,54.2309],[13.4072,54.2282],[13.423,54.2327],[13.4251,54.2432],[13.421,54.256],[13.4805,54.3373],[13.5953,54.3373],[13.6586,54.3058],[13.6511,54.3039],[13.6511,54.2972],[13.6633,54.2939],[13.6795,54.294],[13.6813,54.2945],[13.7006,54.2849],[13.6909,54.2835],[13.7232,54.2784],[13.7282,54.3057],[13.7361,54.3148],[13.736,54.3151],[13.7361,54.3152],[13.7338,54.3215],[13.7401,54.3298],[13.7531,54.3393],[13.7664,54.3449],[13.742,54.3505],[13.7249,54.3636],[13.7136,54.3757],[13.7109,54.3829],[13.7046,54.3853],[13.6983,54.3921],[13.6774,54.4008],[13.6569,54.4037],[13.6029,54.4245],[13.5814,54.4643],[13.6029,54.4884],[13.6338,54.5095],[13.6511,54.5163],[13.6773,54.5405],[13.6707,54.5662],[13.6405,54.5857],[13.596,54.5914],[13.5863,54.5903],[13.4913,54.6155],[13.4517,54.6502],[13.4391,54.6715],[13.4451,54.6739],[13.4451,54.6801],[13.4314,54.6844],[13.4229,54.6988],[13.4225,54.6988],[13.3361,54.6971],[13.2947,54.6719],[13.2536,54.665],[13.231,54.6533],[13.2254,54.6466],[13.2248,54.635],[13.2312,54.6339],[13.2387,54.6369],[13.2317,54.5825],[13.1875,54.5512],[13.1664,54.5494],[13.1434,54.5429],[13.1589,54.5407],[13.166,54.5191],[13.1811,54.5107],[13.1813,54.5095],[13.1649,54.4364],[13.157,54.4268],[13.163,54.4277],[13.1561,54.3968],[13.1561,54.3964],[13.1598,54.3802],[13.1489,54.3773],[13.1292,54.3596],[13.1155,54.3381]]],[[[16.3914,56.4587],[16.3939,56.4526],[16.3998,56.3112],[16.4021,56.3065],[16.3989,56.2982],[16.4126,56.2709],[16.4126,56.2293],[16.4502,56.2187],[16.4909,56.2396],[16.5211,56.2822],[16.5298,56.2903],[16.5361,56.3034],[16.5664,56.3461],[16.5679,56.369],[16.6735,56.5876],[16.6828,56.5935],[16.6937,56.6294],[16.7178,56.6792],[16.7565,56.7475],[16.7605,56.7675],[16.7782,56.8042],[16.797,56.8154],[16.8303,56.8258],[16.8352,56.8382],[16.8394,56.8407],[16.8499,56.8756],[16.8582,56.8968],[16.8831,56.9162],[16.8741,56.9565],[16.88,56.9759],[16.9339,57.0176],[16.9162,57.0279],[16.9359,57.0532],[16.9606,57.0632],[16.9721,57.0998],[16.9844,57.1156],[17.0153,57.1479],[17.0209,57.1626],[17.0381,57.1847],[17.0495,57.1883],[17.0663,57.2267],[17.0571,57.2435],[17.0519,57.2799],[17.108,57.3145],[17.1245,57.3193],[17.0972,57.3528],[17.0735,57.3432],[17.0653,57.3577],[17.0192,57.3446],[16.9665,57.3046],[16.9611,57.2504],[16.9334,57.2158],[16.9099,57.2022],[16.904,57.1791],[16.9002,57.1744],[16.8642,57.091],[16.8264,57.0387],[16.7936,57.0039],[16.7229,56.9007],[16.6612,56.8852],[16.6379,56.8825],[16.6209,56.8723],[16.4528,56.6375],[16.446,56.6183],[16.4309,56.597],[16.4194,56.5856],[16.4114,56.5696],[16.4106,56.5685],[16.4104,56.5677],[16.3989,56.5447],[16.3942,56.4911],[16.3926,56.4834],[16.3926,56.483],[16.3929,56.4759],[16.3914,56.4587]]],[[[18.0994,57.259],[18.1348,57.2419],[18.1638,57.2122],[18.1664,57.2077],[18.1853,57.1448],[18.2065,57.1393],[18.2106,57.1323],[18.222,57.125],[18.2144,57.1138],[18.2251,57.0949],[18.2009,57.0728],[18.2233,57.0603],[18.2799,57.0877],[18.2859,57.0839],[18.2227,57.0257],[18.2009,57.0176],[18.2022,57.0041],[18.1624,56.9453],[18.1387,56.922],[18.1697,56.912],[18.2039,56.9152],[18.2985,56.9416],[18.3196,56.9669],[18.3406,56.9778],[18.3417,56.9804],[18.3584,56.9897],[18.3496,56.9989],[18.3518,57.004],[18.4001,57.004],[18.3643,57.0114],[18.3572,57.0167],[18.3874,57.0872],[18.4222,57.1167],[18.4546,57.1274],[18.4348,57.1274],[18.4774,57.1635],[18.499,57.1752],[18.5554,57.1925],[18.5748,57.2066],[18.6401,57.2248],[18.6805,57.2299],[18.7141,57.2429],[18.712,57.2633],[18.7438,57.3233],[18.7834,57.3615],[18.8276,57.3791],[18.8345,57.3808],[18.8392,57.3837],[18.8446,57.3858],[18.8711,57.3908],[18.9099,57.3876],[18.93,57.4045],[18.9089,57.4392],[18.8797,57.4492],[18.8689,57.4353],[18.8542,57.4378],[18.7906,57.4834],[18.802,57.5834],[18.8103,57.6073],[18.8048,57.6084],[18.8158,57.7052],[18.8626,57.7238],[18.8652,57.7233],[18.9413,57.7296],[18.937,57.7401],[18.9454,57.7416],[18.9696,57.7776],[18.9816,57.7705],[18.9858,57.8016],[18.9914,57.8098],[18.9959,57.8122],[19.0326,57.823],[19.0852,57.8258],[19.075,57.8354],[19.0749,57.8355],[19.0747,57.8356],[19.0748,57.8356],[19.0746,57.8357],[19.075,57.8358],[19.0738,57.8364],[19.0402,57.8679],[19.014,57.8813],[19.0095,57.9083],[18.9764,57.9115],[18.9453,57.9032],[18.9084,57.9138],[18.9133,57.9213],[18.8374,57.9122],[18.8451,57.9011],[18.8406,57.9],[18.8159,57.8547],[18.8107,57.8512],[18.8071,57.8387],[18.8047,57.8341],[18.7918,57.8387],[18.7625,57.871],[18.7693,57.8878],[18.7424,57.9179],[18.7005,57.9213],[18.658,57.9018],[18.6049,57.8426],[18.5687,57.8361],[18.5501,57.8394],[18.4994,57.8266],[18.4631,57.8032],[18.4287,57.7707],[18.405,57.7577],[18.2826,57.6552],[18.2034,57.6118],[18.1619,57.5781],[18.1615,57.5779],[18.1603,57.5768],[18.135,57.5563],[18.1349,57.5541],[18.1282,57.5482],[18.112,57.5111],[18.1209,57.4651],[18.1281,57.4536],[18.1278,57.4487],[18.1278,57.4483],[18.1529,57.3392],[18.1273,57.3021],[18.1156,57.297],[18.0994,57.259]]],[[[18.3444,59.0257],[18.3665,59.0091],[18.4053,59.0086],[18.4359,59.0498],[18.4901,59.0894],[18.4854,59.0976],[18.4818,59.1013],[18.4846,59.1044],[18.4843,59.1045],[18.4846,59.1048],[18.4768,59.1063],[18.466,59.1173],[18.4045,59.0911],[18.3978,59.0892],[18.3956,59.0873],[18.3748,59.0784],[18.3757,59.0692],[18.3718,59.062],[18.3498,59.0529],[18.3444,59.0257]]],[[[18.5105,59.4831],[18.5564,59.4223],[18.5809,59.4307],[18.5796,59.4489],[18.5921,59.4654],[18.6053,59.4668],[18.6012,59.4743],[18.6213,59.4889],[18.633,59.4897],[18.6539,59.5047],[18.697,59.5245],[18.697,59.5251],[18.7375,59.5351],[18.697,59.5336],[18.697,59.5353],[18.6882,59.5367],[18.6745,59.5456],[18.6325,59.5499],[18.6229,59.5472],[18.6214,59.5475],[18.621,59.5475],[18.6152,59.5451],[18.5925,59.5388],[18.5807,59.5308],[18.5706,59.5266],[18.5693,59.5231],[18.5105,59.4831]]],[[[19.0368,57.9052],[19.0716,57.8679],[19.1296,57.8469],[19.1603,57.8803],[19.1499,57.8946],[19.1578,57.9222],[19.2709,57.9483],[19.2961,57.9437],[19.3386,57.9636],[19.3057,57.9764],[19.2855,57.9765],[19.2802,57.9781],[19.1963,57.9801],[19.1634,57.9871],[19.1403,57.9815],[19.1362,57.9816],[19.1358,57.9816],[19.1334,57.9798],[19.0866,57.9685],[19.044,57.9144],[19.0386,57.9104],[19.0388,57.9102],[19.0386,57.91],[19.0397,57.9089],[19.0368,57.9052]]],[[[19.5132,60.1838],[19.5166,60.1701],[19.527,60.1486],[19.5446,60.1348],[19.5652,60.13],[19.5848,60.1353],[19.5996,60.1491],[19.6033,60.164],[19.6278,60.1699],[19.6325,60.1654],[19.647,60.1558],[19.6711,60.1581],[19.6743,60.1663],[19.6731,60.1842],[19.6675,60.1968],[19.6508,60.2082],[19.6385,60.2305],[19.6384,60.2316],[19.636,60.2351],[19.6294,60.2471],[19.629,60.2471],[19.6273,60.247],[19.6084,60.2569],[19.5938,60.2605],[19.5789,60.2605],[19.5679,60.2551],[19.5517,60.2437],[19.5498,60.2436],[19.5487,60.2416],[19.5422,60.237],[19.5371,60.2322],[19.5352,60.2221],[19.5356,60.2178],[19.5187,60.187],[19.5132,60.1838]]],[[[19.6722,60.2328],[19.7035,60.1746],[19.7244,60.1359],[19.7442,60.0991],[19.7499,60.0973],[19.763,60.0739],[19.7734,60.0865],[19.7768,60.0887],[19.7982,60.0818],[19.7986,60.0818],[19.8253,60.0832],[19.8317,60.0795],[19.8587,60.0808],[19.8681,60.0854],[19.9257,60.0884],[19.9412,60.0602],[19.9378,60.0504],[19.9485,60.0477],[19.9582,60.0538],[19.9514,60.0701],[19.949,60.0839],[19.9643,60.0904],[20.012,60.0928],[20.0316,60.0874],[20.0448,60.0875],[20.0505,60.0978],[20.0475,60.1054],[20.0326,60.1136],[20.0326,60.1397],[20.033,60.1444],[20.0442,60.1763],[20.0407,60.1736],[20.0434,60.1807],[20.0722,60.1929],[20.1259,60.1998],[20.1546,60.1929],[20.1946,60.1929],[20.2594,60.2606],[20.2592,60.2608],[20.2594,60.261],[20.2414,60.2835],[20.1838,60.294],[20.1694,60.3148],[20.0866,60.353],[20.0326,60.3599],[20.0322,60.3599],[20.0214,60.3513],[19.9894,60.3513],[19.9658,60.3551],[19.9462,60.3582],[19.9212,60.3793],[19.8886,60.4068],[19.8883,60.4067],[19.8882,60.4068],[19.8766,60.404],[19.832,60.3933],[19.8234,60.3912],[19.7874,60.3547],[19.7876,60.3545],[19.7874,60.3543],[19.8126,60.3318],[19.8244,60.328],[19.8505,60.3196],[19.8558,60.3179],[19.8702,60.3022],[19.8689,60.29],[19.8666,60.2679],[19.8605,60.252],[19.8486,60.2211],[19.819,60.2179],[19.7842,60.2141],[19.7823,60.2517],[19.7823,60.252],[19.7806,60.2853],[19.7802,60.2853],[19.737,60.2818],[19.6866,60.2679],[19.68,60.252],[19.6722,60.2332],[19.6723,60.233],[19.6722,60.2328]]],[[[20.3901,60.0282],[20.4024,60.0213],[20.4321,60.0251],[20.4396,60.031],[20.4858,60.0332],[20.5047,60.0222],[20.5008,60.0127],[20.5119,60.0063],[20.527,60.0051],[20.5399,60.0095],[20.5446,60.0137],[20.5599,60.0147],[20.5775,60.0067],[20.5872,60.0081],[20.599,60.0171],[20.605,60.0175],[20.6073,60.0247],[20.6099,60.0299],[20.6095,60.0315],[20.6122,60.0401],[20.6121,60.0402],[20.6122,60.0405],[20.6114,60.0411],[20.6179,60.0422],[20.6101,60.045],[20.605,60.0521],[20.5964,60.0513],[20.569,60.07],[20.5386,60.072],[20.5334,60.0736],[20.5289,60.0726],[20.4898,60.0752],[20.4894,60.0752],[20.4282,60.0613],[20.3994,60.0405],[20.3996,60.0403],[20.3994,60.0401],[20.4012,60.0384],[20.3901,60.0282]]],[[[21.0789,63.2878],[21.0843,63.2782],[21.0834,63.2782],[21.0837,63.2778],[21.0834,63.2778],[21.0871,63.2733],[21.1131,63.2275],[21.1342,63.2165],[21.1456,63.2027],[21.1336,63.1984],[21.1472,63.1822],[21.173,63.188],[21.2272,63.1628],[21.2434,63.1507],[21.2835,63.1519],[21.3185,63.1649],[21.3127,63.1677],[21.3178,63.1788],[21.3644,63.2045],[21.3775,63.1901],[21.4284,63.1984],[21.4177,63.2158],[21.4222,63.2465],[21.4221,63.2465],[21.4222,63.2469],[21.4216,63.2471],[21.3963,63.2607],[21.3712,63.2607],[21.3646,63.2625],[21.3645,63.2624],[21.3642,63.2625],[21.3603,63.2607],[21.356,63.2607],[21.2912,63.2394],[21.2894,63.2282],[21.2886,63.2278],[21.2278,63.2226],[21.2171,63.2416],[21.2206,63.2587],[21.2263,63.2663],[21.2434,63.281],[21.2051,63.2782],[21.1041,63.2782],[21.0789,63.2878]]],[[[21.213,60.6043],[21.2314,60.5599],[21.2292,60.5599],[21.2339,60.5538],[21.2454,60.5262],[21.2583,60.515],[21.2503,60.4984],[21.2879,60.4893],[21.2994,60.4793],[21.2998,60.4793],[21.319,60.4817],[21.3191,60.4817],[21.3191,60.4818],[21.3681,60.488],[21.4052,60.4852],[21.4426,60.4711],[21.4367,60.483],[21.4387,60.4897],[21.4631,60.4923],[21.4619,60.5394],[21.4236,60.542],[21.403,60.551],[21.3942,60.5599],[21.3836,60.5595],[21.2998,60.596],[21.2889,60.61],[21.2912,60.6151],[21.2593,60.6475],[21.2139,60.6164],[21.2179,60.6118],[21.213,60.6047],[21.2131,60.6044],[21.213,60.6043]]],[[[21.4823,60.1148],[21.5144,60.0974],[21.5343,60.1009],[21.5406,60.0974],[21.541,60.0974],[21.5971,60.1042],[21.6131,60.1021],[21.6182,60.1067],[21.6274,60.1078],[21.649,60.1408],[21.6489,60.141],[21.649,60.1412],[21.6447,60.1495],[21.6543,60.1558],[21.6388,60.1609],[21.6346,60.169],[21.5698,60.1724],[21.5694,60.1724],[21.5506,60.1649],[21.5298,60.1594],[21.5215,60.1534],[21.5082,60.1481],[21.4866,60.1273],[21.4869,60.1272],[21.4866,60.1269],[21.505,60.1168],[21.4823,60.1148]]],[[[21.6954,60.1148],[21.7314,60.1061],[21.7316,60.1062],[21.7318,60.1061],[21.8326,60.1408],[21.8406,60.1558],[21.8678,60.1558],[21.8476,60.169],[21.8484,60.1705],[21.8877,60.1763],[21.8603,60.1927],[21.865,60.2016],[21.8648,60.2016],[21.865,60.202],[21.8646,60.202],[21.7638,60.1985],[21.7467,60.1908],[21.7437,60.1906],[21.7279,60.1822],[21.7062,60.1724],[21.6968,60.1227],[21.6958,60.1216],[21.6966,60.1215],[21.6954,60.1152],[21.6955,60.1152],[21.6954,60.1148]]],[[[21.7853,60.3854],[21.8374,60.3576],[21.9008,60.3421],[21.9222,60.3318],[21.9226,60.3318],[21.9383,60.3329],[21.9606,60.3275],[21.9976,60.3339],[21.9925,60.3368],[21.9946,60.337],[21.9943,60.3374],[21.9946,60.3374],[21.9834,60.3508],[21.9976,60.355],[21.9749,60.3695],[21.9152,60.3892],[21.9087,60.3926],[21.9256,60.396],[21.9504,60.396],[21.9474,60.4004],[21.9514,60.4012],[21.9512,60.4014],[21.951,60.4015],[21.9514,60.4016],[21.9403,60.411],[21.932,60.4233],[21.8923,60.4492],[21.8324,60.4711],[21.8081,60.4667],[21.7984,60.4438],[21.841,60.4194],[21.8436,60.4158],[21.8088,60.4052],[21.7853,60.3854]]],[[[24.5628,65.0372],[24.5771,65.0127],[24.579,64.979],[24.6284,64.9704],[24.6316,64.9678],[24.6376,64.9687],[24.6978,64.9582],[24.6982,64.9582],[24.712,64.9612],[24.7131,64.9517],[24.7521,64.9531],[24.7801,64.9668],[24.8161,64.9681],[24.8124,64.9792],[24.7888,64.978],[24.8494,64.9912],[24.8926,65.0259],[24.9686,65.0348],[25.028,65.0346],[25.0618,65.0435],[25.0336,65.0575],[24.9934,65.0551],[24.9562,65.0584],[24.8877,65.0699],[24.897,65.0724],[24.8831,65.0869],[24.8345,65.0948],[24.7409,65.0833],[24.6542,65.0802],[24.5853,65.0478],[24.5754,65.0437],[24.5754,65.0431],[24.5628,65.0372]]]]}},
{"type":"Feature","properties":{"entityId":"sweden-kingdom","from":1809,"to":1814,"certainty":"estimated","source":"유럽 쪽은 Natural Earth 1:10m admin-1(v5.1.2) 현대 행정구역 조각을 그 시기 국경에 맞춰 묶고, 조각이 역사 경계와 다른 곳은 선을 그어 나눈 근사. 유럽 밖(시베리아·중앙아시아·극동)은 대략적인 추정. 운영자 검수 필요"},"geometry":{"type":"MultiPolygon","coordinates":[[[[10.9276,58.9478],[10.9711,58.9081],[10.9865,58.894],[11.0285,58.8557],[11.0582,58.8005],[11.2532,58.4377],[11.2548,58.4334],[11.2517,58.4243],[11.2516,58.4228],[11.2234,58.4249],[11.2044,58.4011],[11.2249,58.3707],[11.2317,58.3397],[11.2536,58.3659],[11.2942,58.3615],[11.4132,58.14],[11.4066,58.1311],[11.4245,58.119],[11.5405,57.9031],[11.6777,57.6479],[11.7119,57.5841],[11.7291,57.5522],[11.7462,57.5203],[11.7881,57.4424],[11.8246,57.3928],[11.8613,57.3429],[12.2732,56.7827],[12.3558,56.6704],[12.3972,56.6142],[12.4178,56.5861],[12.4385,56.558],[12.6038,56.3332],[12.6233,56.3067],[12.6396,56.2589],[12.5481,56.281],[12.5085,56.2925],[12.5081,56.2925],[12.5019,56.2922],[12.4514,56.3044],[12.4761,56.2909],[12.4721,56.2907],[12.4725,56.2903],[12.4721,56.2903],[12.5225,56.2452],[12.5446,56.2104],[12.5537,56.1815],[12.5895,56.1398],[12.5909,56.1376],[12.5955,56.1328],[12.6095,56.1165],[12.6151,56.1124],[12.7298,55.9928],[12.9144,55.4487],[12.8937,55.4221],[12.8594,55.4349],[12.8288,55.4001],[12.8328,55.3826],[12.8867,55.3933],[12.9326,55.388],[12.9347,55.389],[12.9437,55.3623],[12.9441,55.3623],[13.1581,55.3707],[13.1681,55.3692],[13.2805,55.3454],[13.3814,55.346],[13.4109,55.3523],[13.4496,55.3674],[13.5658,55.3869],[13.9947,55.4038],[14.0293,55.3994],[14.0354,55.3971],[14.0941,55.3874],[14.1812,55.3908],[14.219,55.4138],[14.2649,55.4612],[14.2947,55.4755],[14.363,55.5236],[14.3582,55.5637],[14.2777,55.6336],[14.2761,55.6363],[14.276,55.6364],[14.2749,55.6519],[14.4081,55.8374],[14.4874,55.9478],[14.5143,55.9853],[14.5389,56.0196],[14.5409,56.0223],[14.5599,56.0488],[14.5603,56.0489],[14.5674,56.0467],[14.6205,56.03],[14.6238,56.0245],[14.6115,56.0111],[14.673,56.0053],[14.7057,56.017],[14.7155,56.0023],[14.7678,56.0307],[14.7453,56.0582],[14.7154,56.1342],[14.7837,56.1619],[14.7875,56.162],[14.8303,56.1426],[14.8482,56.164],[14.906,56.1612],[14.9324,56.1677],[14.9714,56.1693],[15.049,56.1536],[15.0403,56.1705],[15.0842,56.1671],[15.0852,56.1646],[15.1309,56.1611],[15.1365,56.1629],[15.1757,56.1598],[15.1924,56.1529],[15.2229,56.156],[15.322,56.1481],[15.321,56.1396],[15.3656,56.1411],[15.3683,56.1444],[15.6648,56.1208],[15.6423,56.1046],[15.6511,56.09],[15.7022,56.0767],[15.7053,56.1164],[15.6958,56.1184],[15.7918,56.1107],[15.7887,56.1064],[15.8517,56.0864],[15.8744,56.1027],[15.8755,56.1041],[15.8814,56.1036],[15.8818,56.1036],[15.9019,56.137],[15.9321,56.1747],[16.0044,56.2194],[16.0383,56.2551],[16.0662,56.3359],[16.0762,56.3648],[16.1406,56.4803],[16.166,56.508],[16.1787,56.5371],[16.2132,56.5484],[16.2201,56.592],[16.2985,56.6626],[16.3011,56.6633],[16.325,56.6522],[16.3587,56.6544],[16.3792,56.6756],[16.3778,56.7259],[16.3683,56.7405],[16.3842,56.7678],[16.4126,56.7774],[16.4548,56.7683],[16.4745,56.7863],[16.4634,56.7978],[16.4286,56.7829],[16.4089,56.8084],[16.4363,56.8569],[16.4363,56.8765],[16.4578,56.9275],[16.5258,57.0602],[16.5348,57.0517],[16.5833,57.0449],[16.5545,57.0808],[16.5696,57.0865],[16.5431,57.118],[16.5126,57.1264],[16.5082,57.1414],[16.4801,57.1871],[16.4925,57.2419],[16.4945,57.2429],[16.4931,57.2446],[16.5046,57.295],[16.5123,57.3032],[16.5628,57.3193],[16.5474,57.3288],[16.5696,57.3466],[16.5575,57.3514],[16.5896,57.3855],[16.6317,57.3808],[16.6257,57.399],[16.6726,57.4155],[16.6333,57.4371],[16.6722,57.4597],[16.6595,57.4763],[16.689,57.4717],[16.6292,57.5569],[16.6106,57.5609],[16.6054,57.5684],[16.5933,57.6093],[16.6305,57.6291],[16.6151,57.6479],[16.6106,57.6824],[16.5954,57.6947],[16.5976,57.704],[16.6392,57.6923],[16.7068,57.6885],[16.7149,57.7028],[16.6908,57.7257],[16.6182,57.7666],[16.6122,57.7682],[16.6147,57.7794],[16.6211,57.7742],[16.683,57.7473],[16.7068,57.7506],[16.6755,57.7645],[16.6191,57.7986],[16.6406,57.8931],[16.6707,57.8914],[16.6818,57.9165],[16.6852,57.9166],[16.7108,57.8913],[16.7581,57.877],[16.7654,57.8988],[16.7273,57.9288],[16.7825,57.9151],[16.7415,57.9462],[16.7354,57.9719],[16.7064,57.9621],[16.6963,57.9762],[16.6966,57.9989],[16.7,57.9977],[16.6966,58.0005],[16.6969,58.0167],[16.7205,58.025],[16.7378,58.0142],[16.7464,58.0166],[16.7546,58.025],[16.7402,58.0398],[16.7074,58.0499],[16.6974,58.054],[16.6975,58.0574],[16.701,58.057],[16.7123,58.0595],[16.7176,58.0668],[16.7149,58.0796],[16.7361,58.0848],[16.7161,58.1042],[16.6983,58.1166],[16.6988,58.1494],[16.7016,58.1617],[16.7214,58.1498],[16.7772,58.1305],[16.8098,58.1621],[16.7915,58.1729],[16.7883,58.1793],[16.7962,58.182],[16.8171,58.1772],[16.8223,58.1796],[16.8241,58.1929],[16.8213,58.2071],[16.8137,58.2204],[16.8026,58.231],[16.7893,58.2373],[16.803,58.2447],[16.7399,58.2651],[16.7307,58.2803],[16.743,58.2813],[16.7586,58.2897],[16.7614,58.3056],[16.7893,58.3056],[16.7992,58.3236],[16.7793,58.3256],[16.7379,58.3211],[16.7428,58.3429],[16.7751,58.3397],[16.7713,58.3631],[16.7546,58.3738],[16.7523,58.3701],[16.7487,58.3689],[16.7649,58.4403],[16.7655,58.4407],[16.7964,58.4451],[16.8303,58.4521],[16.8529,58.4631],[16.8505,58.467],[16.9007,58.4834],[16.9162,58.4835],[16.9402,58.4911],[16.8929,58.5146],[16.8287,58.5585],[16.8303,58.5594],[16.8268,58.5598],[16.7968,58.5803],[16.8087,58.6328],[16.9242,58.6254],[17.0358,58.6413],[17.0042,58.6659],[17.0272,58.6763],[17.0698,58.6618],[17.093,58.6608],[17.1457,58.6966],[17.1253,58.7058],[17.0967,58.7078],[17.1022,58.7103],[17.178,58.7318],[17.2761,58.7307],[17.2761,58.7488],[17.3578,58.7512],[17.3716,58.779],[17.3596,58.7886],[17.378,58.8015],[17.4597,58.7914],[17.4883,58.7996],[17.45,58.8159],[17.4654,58.8597],[17.5096,58.8716],[17.5557,58.8542],[17.5907,58.8673],[17.5627,58.8851],[17.6038,58.8943],[17.6377,58.9019],[17.6716,58.9096],[17.6848,58.9008],[17.6878,58.9132],[17.7495,58.9271],[17.7493,58.9238],[17.783,58.9157],[17.7744,58.8862],[17.8035,58.9083],[17.7879,58.9357],[17.7999,58.9384],[17.8052,58.9339],[17.8518,58.9248],[17.8718,58.902],[17.8694,58.877],[17.8928,58.861],[17.8997,58.9157],[17.9307,58.9101],[17.9706,58.936],[17.9612,58.9634],[18.0186,59.0229],[18.018,59.0235],[18.0494,59.0386],[18.0505,59.0386],[18.0503,59.0391],[18.0906,59.0584],[18.0962,59.0583],[18.1042,59.0639],[18.2554,59.1018],[18.2554,59.1013],[18.2009,59.0808],[18.3242,59.1081],[18.3118,59.1254],[18.3226,59.1322],[18.3261,59.1354],[18.3815,59.1478],[18.4143,59.14],[18.4297,59.1746],[18.3926,59.1689],[18.3777,59.1912],[18.3866,59.214],[18.4268,59.1968],[18.3917,59.2272],[18.4119,59.2792],[18.4131,59.2788],[18.4304,59.2583],[18.4683,59.2521],[18.5204,59.2287],[18.5516,59.2259],[18.5781,59.2446],[18.5324,59.2419],[18.5161,59.2713],[18.5391,59.26],[18.6123,59.2583],[18.5234,59.2886],[18.5001,59.2922],[18.5217,59.2985],[18.6198,59.3083],[18.6465,59.3303],[18.6326,59.3469],[18.5927,59.3565],[18.5864,59.3639],[18.6008,59.3625],[18.6123,59.3749],[18.5649,59.3892],[18.5602,59.3947],[18.5425,59.3996],[18.5366,59.416],[18.4846,59.4342],[18.4268,59.4364],[18.4375,59.4193],[18.4806,59.4016],[18.459,59.3964],[18.4569,59.3955],[18.4478,59.3955],[18.4499,59.3925],[18.3943,59.3687],[18.3911,59.3691],[18.3897,59.3695],[18.3827,59.3701],[18.337,59.3756],[18.3366,59.3756],[18.3305,59.3748],[18.3181,59.3759],[18.2796,59.368],[18.2718,59.3669],[18.2702,59.366],[18.2547,59.3628],[18.2466,59.3526],[18.2106,59.3322],[18.2026,59.3306],[18.1966,59.3342],[18.1729,59.3266],[18.1725,59.3266],[18.1842,59.341],[18.2121,59.3415],[18.2041,59.3654],[18.2046,59.366],[18.2375,59.3728],[18.2129,59.3763],[18.2324,59.4002],[18.2476,59.3977],[18.3073,59.3968],[18.3379,59.4085],[18.2931,59.414],[18.2827,59.4364],[18.2772,59.4386],[18.3336,59.4737],[18.345,59.4731],[18.4131,59.491],[18.4338,59.5037],[18.5228,59.5422],[18.5407,59.5458],[18.5973,59.574],[18.64,59.5836],[18.6865,59.6058],[18.6711,59.6231],[18.6793,59.6289],[18.7005,59.6214],[18.742,59.6494],[18.7086,59.6494],[18.7186,59.6564],[18.8462,59.7117],[18.8555,59.7131],[18.9014,59.7347],[18.9015,59.7349],[18.9232,59.7419],[18.9413,59.7238],[18.9753,59.7191],[19.036,59.7285],[19.0745,59.7497],[19.0852,59.7722],[19.042,59.785],[18.9786,59.7835],[18.9803,59.7892],[18.9978,59.7946],[18.9963,59.8098],[18.9955,59.8395],[18.9824,59.8483],[18.9616,59.8896],[19.0213,59.84],[19.0679,59.8337],[19.0716,59.8963],[19.0368,59.9025],[19.0436,59.8821],[19.0095,59.8963],[19.0095,59.9094],[18.9658,59.9268],[18.9407,59.9311],[18.9346,59.9433],[18.8842,59.9797],[18.8518,60.0266],[18.8462,60.0312],[18.8245,60.0683],[18.8205,60.1137],[18.8035,60.1216],[18.7659,60.1111],[18.7598,60.0973],[18.7277,60.116],[18.7207,60.126],[18.7075,60.1278],[18.6586,60.1563],[18.561,60.2131],[18.5494,60.2199],[18.5515,60.23],[18.5637,60.2276],[18.6048,60.2383],[18.5654,60.2593],[18.5363,60.265],[18.4517,60.3105],[18.4478,60.3135],[18.4478,60.3414],[18.428,60.3488],[18.3584,60.3476],[18.3263,60.3555],[18.3181,60.3545],[17.9901,60.5452],[17.9954,60.553],[17.9749,60.5878],[17.9186,60.6002],[17.9002,60.5975],[17.833,60.6367],[17.7648,60.7041],[17.7094,60.7588],[17.6817,60.7861],[17.6541,60.8134],[17.5566,60.9097],[17.1737,61.2879],[17.1805,61.2944],[17.1873,61.2912],[17.2479,61.2873],[17.1889,61.3025],[17.1994,61.3126],[17.1993,61.3129],[17.1994,61.313],[17.1973,61.3174],[17.2137,61.3134],[17.2761,61.314],[17.2018,61.3371],[17.2002,61.3481],[17.1792,61.3553],[17.1778,61.3581],[17.141,61.3807],[17.1612,61.4199],[17.1662,61.4164],[17.2171,61.4339],[17.1741,61.4448],[17.305,61.6983],[17.3063,61.698],[17.3132,61.682],[17.3509,61.6772],[17.3443,61.6905],[17.3823,61.6885],[17.4199,61.6498],[17.4461,61.6329],[17.4963,61.6351],[17.5203,61.7024],[17.4831,61.7346],[17.4301,61.7269],[17.419,61.7401],[17.3974,61.7817],[17.3898,61.8116],[17.4056,61.8211],[17.388,61.8187],[17.3812,61.8457],[17.4735,62.0245],[17.5007,62.0772],[17.5279,62.1298],[17.5414,62.1561],[17.555,62.1824],[17.5666,62.2049],[17.5695,62.2047],[17.6527,62.232],[17.5994,62.2496],[17.5896,62.2495],[17.6869,62.4379],[17.7074,62.4374],[17.6909,62.4457],[17.719,62.5],[17.7947,62.5012],[17.8235,62.4858],[17.8617,62.5008],[17.8928,62.5275],[17.8843,62.5357],[17.9017,62.5473],[17.9094,62.5494],[17.9105,62.5531],[17.9482,62.5781],[17.9614,62.5814],[17.9683,62.5605],[18.0425,62.5921],[18.0642,62.5958],[18.0432,62.6262],[17.914,62.6533],[17.9053,62.6599],[17.9259,62.6708],[17.9336,62.6708],[17.9749,62.6572],[17.9973,62.6649],[18.0027,62.709],[17.9954,62.7277],[17.9624,62.7521],[17.9568,62.7825],[17.9403,62.79],[18.04,62.8344],[18.0915,62.8351],[18.0774,62.8129],[18.0767,62.8087],[18.034,62.8115],[18.009,62.7944],[18.0684,62.7939],[18.0773,62.7739],[18.1405,62.7719],[18.1612,62.7899],[18.1714,62.7899],[18.2003,62.805],[18.1951,62.7774],[18.2588,62.8106],[18.2827,62.8415],[18.2622,62.8483],[18.2301,62.83],[18.247,62.849],[18.3012,62.8607],[18.3311,62.8401],[18.4001,62.8415],[18.4714,62.8677],[18.4634,62.8876],[18.4435,62.8916],[18.463,62.8958],[18.4673,62.9024],[18.4723,62.9017],[18.5125,62.9041],[18.511,62.9324],[18.4846,62.9288],[18.4876,62.9532],[18.5281,62.9538],[18.5366,62.9731],[18.5767,62.9584],[18.5511,62.9859],[18.5244,62.9919],[18.4338,62.9913],[18.396,62.9931],[18.4667,63.0246],[18.4679,63.0237],[18.4866,63.0257],[18.4889,63.0345],[18.8421,63.1919],[18.8626,63.192],[18.9133,63.2121],[18.8953,63.2156],[18.9573,63.2433],[18.9666,63.2389],[18.9618,63.2258],[19.0368,63.1779],[19.0679,63.2021],[19.112,63.2196],[19.0564,63.2265],[19.0399,63.239],[19.0417,63.2412],[19.0671,63.255],[19.0972,63.2379],[19.1535,63.294],[19.1472,63.2984],[19.1907,63.3221],[19.2075,63.3261],[19.2293,63.3425],[19.2455,63.3223],[19.2695,63.3425],[19.2735,63.3841],[19.3107,63.4007],[19.3478,63.4172],[19.4222,63.4503],[19.4546,63.4312],[19.508,63.4119],[19.5117,63.4333],[19.4938,63.4485],[19.4926,63.4601],[19.497,63.4799],[19.5234,63.4858],[19.511,63.49],[19.5354,63.5008],[19.5894,63.4878],[19.638,63.4657],[19.6395,63.4449],[19.6873,63.4313],[19.7725,63.4646],[19.7581,63.5091],[19.7784,63.5354],[19.8644,63.5732],[19.8739,63.5893],[19.9045,63.606],[19.9376,63.6152],[19.9563,63.6184],[20.0305,63.6025],[20.0146,63.6285],[20.1138,63.6456],[20.1199,63.6425],[20.1535,63.6509],[20.2428,63.6509],[20.2445,63.6758],[20.2717,63.6857],[20.2676,63.6706],[20.2952,63.6522],[20.3181,63.679],[20.3176,63.7026],[20.3591,63.7178],[20.3535,63.7014],[20.3649,63.6807],[20.4056,63.6898],[20.4211,63.7123],[20.4159,63.7504],[20.4495,63.7715],[20.4558,63.7722],[20.4588,63.7754],[20.5355,63.7933],[20.5427,63.7753],[20.565,63.7983],[20.5719,63.8018],[20.6351,63.8165],[20.6431,63.8145],[20.6747,63.7893],[20.709,63.8222],[20.6793,63.8274],[20.7251,63.8495],[20.7293,63.8496],[20.7865,63.8786],[20.8206,63.9372],[20.832,63.9509],[20.8415,63.9594],[20.897,63.9837],[20.9127,64.0485],[20.9385,64.0797],[20.9543,64.0948],[20.9538,64.0981],[21.019,64.177],[21.1079,64.2225],[21.117,64.2211],[21.1532,64.2456],[21.2566,64.2985],[21.271,64.3041],[21.2878,64.3023],[21.3328,64.315],[21.3233,64.3245],[21.3596,64.3388],[21.3732,64.3304],[21.4573,64.3716],[21.5139,64.4147],[21.5752,64.4411],[21.6001,64.4424],[21.5977,64.4752],[21.5786,64.4659],[21.5376,64.4727],[21.5199,64.4554],[21.515,64.4552],[21.5194,64.4634],[21.5192,64.4635],[21.5194,64.4638],[21.4875,64.484],[21.4898,64.487],[21.4761,64.515],[21.4391,64.5147],[21.4134,64.531],[21.4631,64.5484],[21.4966,64.5246],[21.5519,64.5347],[21.5151,64.5371],[21.4898,64.5559],[21.4898,64.5792],[21.4673,64.5873],[21.4556,64.5625],[21.3942,64.603],[21.374,64.608],[21.3594,64.5909],[21.3322,64.6288],[21.2991,64.6873],[21.2989,64.688],[21.3123,64.6993],[21.2942,64.7066],[21.2836,64.7486],[21.2995,64.7488],[21.3058,64.7683],[21.2769,64.7752],[21.2432,64.9082],[21.2926,64.9408],[21.3259,64.9586],[21.3778,64.96],[21.3942,64.9668],[21.3831,64.9866],[21.3971,64.9967],[21.4258,65.012],[21.4279,65.0136],[21.4631,65.0077],[21.5034,65.0214],[21.4741,65.0489],[21.4914,65.0622],[21.5632,65.0613],[21.5817,65.0677],[21.5438,65.0831],[21.5622,65.112],[21.5602,65.1148],[21.5734,65.1249],[21.5761,65.1384],[21.5999,65.1391],[21.6188,65.148],[21.6099,65.1689],[21.5376,65.2309],[21.5153,65.243],[21.5356,65.2577],[21.5444,65.2473],[21.577,65.2381],[21.6228,65.2408],[21.6681,65.2528],[21.7017,65.2859],[21.6262,65.3231],[21.7439,65.408],[21.7902,65.4001],[21.821,65.401],[21.8809,65.4186],[21.8885,65.4077],[21.9422,65.4118],[21.9323,65.4414],[21.9422,65.4534],[21.9661,65.4337],[22.0117,65.432],[22.0316,65.467],[21.9471,65.5094],[21.9282,65.4897],[21.9048,65.5088],[21.9178,65.5308],[22.0112,65.5175],[22.0476,65.525],[22.0659,65.5143],[22.0815,65.5294],[22.0878,65.5293],[22.0882,65.5293],[22.1092,65.5371],[22.1209,65.5395],[22.1769,65.5398],[22.203,65.549],[22.1701,65.553],[22.1187,65.5835],[22.0941,65.5888],[22.0884,65.6106],[22.1265,65.6037],[22.2283,65.5721],[22.2566,65.569],[22.263,65.5896],[22.3501,65.5694],[22.4053,65.5419],[22.429,65.549],[22.405,65.5832],[22.366,65.5889],[22.3333,65.6042],[22.3845,65.6278],[22.3259,65.6452],[22.3333,65.6514],[22.2931,65.6737],[22.2896,65.6557],[22.3191,65.6315],[22.3006,65.6115],[22.2627,65.6118],[22.2625,65.6118],[22.2682,65.6214],[22.2688,65.6303],[22.2849,65.6315],[22.2702,65.6496],[22.2733,65.6954],[22.3079,65.7008],[22.3294,65.6893],[22.3396,65.665],[22.388,65.6725],[22.3618,65.7163],[22.3395,65.7242],[22.2783,65.732],[22.2821,65.7406],[22.2997,65.7435],[22.326,65.7355],[22.3473,65.7513],[22.5163,65.7791],[22.5227,65.7764],[22.5375,65.7826],[22.601,65.793],[22.6279,65.7904],[22.653,65.7781],[22.6481,65.7551],[22.6776,65.7647],[22.6997,65.8039],[22.6984,65.809],[22.818,65.8286],[22.8372,65.8077],[22.8602,65.796],[22.8997,65.796],[22.9194,65.7863],[22.9303,65.7833],[22.936,65.7786],[22.9898,65.7643],[23.002,65.7636],[23.0636,65.7467],[23.0868,65.7277],[23.0788,65.7072],[23.1296,65.715],[23.1284,65.734],[23.1585,65.7502],[23.2376,65.7687],[23.2114,65.7806],[23.2222,65.7863],[23.3794,65.8],[23.385,65.7752],[23.4334,65.7667],[23.422,65.8022],[23.4238,65.8036],[23.593,65.8054],[23.6084,65.809],[23.6233,65.7962],[23.6493,65.803],[23.6851,65.8267],[23.69,65.8279],[23.7704,65.8099],[23.7817,65.793],[23.8547,65.7891],[23.9264,65.7604],[23.9562,65.7883],[24.0056,65.7926],[24.0532,65.796],[24.0523,65.7966],[24.1546,65.8054],[24.1751,65.8071],[24.1631,65.8227],[24.1634,65.8408],[24.1245,65.8689],[24.1023,65.9086],[24.0548,65.9479],[24.0553,65.9852],[24.0197,66.0489],[23.9656,66.0816],[23.9114,66.1486],[23.8893,66.1611],[23.7856,66.1767],[23.7242,66.2066],[23.6894,66.257],[23.666,66.3055],[23.677,66.3636],[23.6659,66.4056],[23.6423,66.4363],[23.6768,66.474],[23.7311,66.4872],[23.7311,66.5031],[23.7859,66.5184],[23.8077,66.5392],[23.8819,66.5635],[23.8932,66.596],[23.8819,66.6318],[23.899,66.6664],[23.903,66.7069],[23.8924,66.7509],[23.9392,66.7911],[23.9992,66.7963],[24.0013,66.8124],[23.9334,66.8888],[23.8736,66.9247],[23.8167,66.9755],[23.7438,67.001],[23.6839,67.0495],[23.6666,67.0979],[23.5813,67.1531],[23.574,67.173],[23.6149,67.214],[23.5915,67.225],[23.6027,67.2603],[23.6223,67.269],[23.7354,67.2897],[23.7632,67.3065],[23.7857,67.3375],[23.7514,67.3462],[23.7652,67.4201],[23.7308,67.4314],[23.6627,67.4362],[23.5946,67.4536],[23.4772,67.4438],[23.4437,67.461],[23.4313,67.4855],[23.4847,67.543],[23.4734,67.555],[23.5535,67.587],[23.5426,67.6267],[23.5188,67.6528],[23.4846,67.7372],[23.4847,67.7962],[23.4767,67.8413],[23.4989,67.8822],[23.5325,67.8932],[23.6033,67.903],[23.6612,67.9329],[23.6431,67.9632],[23.5737,67.9733],[23.4847,68.0159],[23.383,68.0512],[23.3309,68.1278],[23.3065,68.1456],[23.2721,68.145],[23.1872,68.1223],[23.1517,68.1303],[23.1598,68.1787],[23.1552,68.2174],[23.14,68.2342],[23.0816,68.2653],[23.0522,68.2982],[22.9037,68.3366],[22.8334,68.3848],[22.8083,68.3949],[22.7486,68.3855],[22.6622,68.4274],[22.6076,68.4249],[22.5652,68.4363],[22.5213,68.4382],[22.4569,68.4518],[22.378,68.4541],[22.3711,68.4684],[22.3031,68.4761],[22.0722,68.477],[22.0384,68.4883],[22.0361,68.5065],[21.9192,68.5682],[21.7371,68.5879],[21.7168,68.6192],[21.6616,68.6335],[21.5725,68.6674],[21.4957,68.6755],[21.4636,68.6869],[21.4064,68.7489],[21.3147,68.754],[21.2166,68.8172],[21.0721,68.8694],[20.9057,68.8946],[20.8845,68.9067],[20.8876,68.9271],[20.9178,68.933],[20.9346,68.967],[20.9112,68.9807],[20.864,68.9863],[20.7954,69.0112],[20.6755,69.0182],[20.6232,69.0364],[20.1023,69.0221],[20.3411,68.9101],[20.3488,68.8931],[20.3565,68.8046],[20.3388,68.7655],[20.2366,68.6591],[20.1518,68.6068],[19.9622,68.5412],[20.2459,68.4774],[20.0103,68.3639],[19.9712,68.3513],[19.931,68.3502],[19.4817,68.424],[19.0381,68.5056],[18.7003,68.4956],[18.6446,68.5012],[18.4818,68.562],[18.4362,68.5739],[18.1893,68.5384],[18.1615,68.5302],[18.1368,68.4263],[18.1357,68.3957],[18.1886,68.1987],[18.1667,68.1585],[17.9819,68.0162],[17.921,67.9729],[17.8954,67.9697],[17.3215,68.1053],[17.3,68.0979],[17.2201,68.0401],[16.808,67.9106],[16.7619,67.8772],[16.6087,67.6473],[16.5872,67.6259],[16.483,67.5578],[16.4286,67.534],[16.367,67.5217],[16.1996,67.5083],[16.1807,67.4964],[16.1271,67.4228],[16.4379,67.2003],[16.4438,67.1826],[16.4156,67.0527],[16.3997,67.036],[16.3106,67.0099],[16.1257,66.9344],[16.0388,66.8875],[15.6695,66.5994],[15.4263,66.4912],[15.4299,66.4636],[15.4761,66.3549],[15.4918,66.288],[15.4819,66.2749],[15.0534,66.1533],[14.5405,66.1254],[14.6444,65.8429],[14.6489,65.8024],[14.6371,65.7812],[14.5702,65.7167],[14.5607,65.7011],[14.5104,65.4647],[14.5183,65.3645],[14.5143,65.3181],[14.4821,65.2887],[14.4005,65.2555],[14.366,65.2158],[14.3329,65.115],[14.3321,65.114],[14.3107,65.0841],[14.1724,64.9914],[13.6428,64.584],[13.9401,64.4913],[14.0609,64.4766],[14.0969,64.4653],[14.1156,64.4412],[14.1614,64.2054],[14.1478,64.169],[13.9823,64.0195],[13.9394,64.0095],[13.2341,64.0909],[12.9824,64.0588],[12.7553,63.9914],[12.6819,63.9564],[12.4825,63.8095],[12.2932,63.657],[12.1703,63.5981],[12.2195,63.4966],[12.2049,63.4546],[11.9924,63.2889],[12.0598,63.2048],[12.2227,63.0015],[12.1044,62.9233],[12.097,62.8866],[12.1562,62.7337],[12.1541,62.7105],[12.1031,62.634],[12.0912,62.5863],[12.2795,62.3442],[12.3143,62.2861],[12.3151,62.2718],[12.3175,62.234],[12.1617,61.7248],[12.1756,61.7115],[12.2913,61.6511],[12.3378,61.633],[12.4165,61.5823],[12.4825,61.5691],[12.5509,61.5669],[12.6138,61.547],[12.8771,61.371],[12.8882,61.3496],[12.8547,61.2553],[12.8197,61.2049],[12.7467,61.1515],[12.7329,61.1291],[12.7108,61.057],[12.6825,61.0403],[12.5697,61.0506],[12.5118,61.0491],[12.281,61.0152],[12.2533,61.0017],[12.2561,60.9813],[12.2948,60.9353],[12.3132,60.9019],[12.35,60.7933],[12.377,60.7541],[12.4825,60.6573],[12.5944,60.5149],[12.6126,60.4554],[12.5936,60.395],[12.5586,60.3599],[12.5047,60.3256],[12.4873,60.2959],[12.5216,60.1976],[12.5247,60.1617],[12.5109,60.118],[12.4832,60.0812],[12.4468,60.0511],[12.2906,59.9587],[12.1437,59.8984],[12.1027,59.894],[11.9422,59.902],[11.8746,59.8849],[11.8496,59.8724],[11.843,59.8384],[11.8837,59.8054],[11.9035,59.77],[11.8917,59.7058],[11.8284,59.6597],[11.6937,59.6223],[11.6749,59.6071],[11.6774,59.5591],[11.784,59.3606],[11.8068,59.2936],[11.8111,59.2487],[11.7756,59.2025],[11.7485,59.1401],[11.7453,59.0922],[11.7089,59.0216],[11.6937,58.9735],[11.6644,58.9201],[11.6116,58.8932],[11.5471,58.8847],[11.4826,58.8869],[11.452,58.896],[11.4532,58.9605],[11.4375,58.9917],[11.4141,59.0011],[11.4051,59.0107],[11.4051,59.0365],[11.4036,59.0386],[11.3998,59.0498],[11.3727,59.0498],[11.3602,59.0788],[11.39,59.0788],[11.3893,59.0808],[11.3705,59.1007],[11.3427,59.1078],[11.3138,59.1152],[11.2953,59.1143],[11.2479,59.1119],[11.2166,59.1104],[11.2068,59.112],[11.1531,59.112],[11.1531,59.0826],[11.1057,59.0826],[11.1057,58.9905],[11.0582,58.9905],[11.0582,58.9876],[11.0147,58.9876],[11.0147,58.9408],[10.9711,58.9408],[10.9711,58.9478],[10.9276,58.9478]]],[[[12.4153,54.4201],[12.42,54.38],[12.44,54.25],[12.55,54.1],[12.75,53.98],[12.95,53.92],[13.05,53.91],[13.13,53.96],[13.34,53.935],[13.55,53.89],[13.7,53.875],[13.82,53.89],[13.8,53.98],[13.775,54.06],[13.73,54.12],[13.7319,54.1447],[13.7253,54.1537],[13.7249,54.1537],[13.6999,54.1526],[13.6983,54.1531],[13.6983,54.1593],[13.7147,54.164],[13.7119,54.1737],[13.6834,54.168],[13.6383,54.1499],[13.4584,54.142],[13.4145,54.1574],[13.3979,54.1652],[13.4035,54.1737],[13.3838,54.1781],[13.3757,54.1757],[13.3129,54.2052],[13.2888,54.2343],[13.2632,54.2425],[13.2284,54.2474],[13.2108,54.2532],[13.1707,54.2721],[13.1707,54.2766],[13.1612,54.2766],[13.1493,54.2822],[13.0805,54.3565],[13.0956,54.3723],[13.0837,54.379],[13.0504,54.3891],[13.0305,54.4106],[13.0229,54.4113],[13.021,54.4145],[13.0215,54.4265],[13.0342,54.4337],[13.0088,54.4381],[12.9691,54.4294],[12.941,54.4188],[12.9007,54.4225],[12.9212,54.4335],[12.9084,54.4446],[12.8796,54.4488],[12.8566,54.4411],[12.8191,54.4517],[12.7221,54.4517],[12.5769,54.4679],[12.5765,54.4679],[12.5617,54.4589],[12.5483,54.4621],[12.527,54.4821],[12.5339,54.4883],[12.5134,54.4822],[12.502,54.4736],[12.4924,54.4578],[12.4153,54.4201]]],[[[13.1155,54.3381],[13.1775,54.3102],[13.1775,54.3039],[13.1623,54.3077],[13.1489,54.3048],[13.1428,54.298],[13.1497,54.2903],[13.1597,54.291],[13.1903,54.2998],[13.2048,54.2972],[13.1992,54.2844],[13.2101,54.2758],[13.2424,54.2692],[13.2679,54.2565],[13.2842,54.2628],[13.3147,54.263],[13.3079,54.2692],[13.3095,54.2704],[13.3238,54.2639],[13.3195,54.2564],[13.3115,54.2511],[13.347,54.2375],[13.3787,54.2309],[13.4072,54.2282],[13.423,54.2327],[13.4251,54.2432],[13.421,54.256],[13.4805,54.3373],[13.5953,54.3373],[13.6586,54.3058],[13.6511,54.3039],[13.6511,54.2972],[13.6633,54.2939],[13.6795,54.294],[13.6813,54.2945],[13.7006,54.2849],[13.6909,54.2835],[13.7232,54.2784],[13.7282,54.3057],[13.7361,54.3148],[13.736,54.3151],[13.7361,54.3152],[13.7338,54.3215],[13.7401,54.3298],[13.7531,54.3393],[13.7664,54.3449],[13.742,54.3505],[13.7249,54.3636],[13.7136,54.3757],[13.7109,54.3829],[13.7046,54.3853],[13.6983,54.3921],[13.6774,54.4008],[13.6569,54.4037],[13.6029,54.4245],[13.5814,54.4643],[13.6029,54.4884],[13.6338,54.5095],[13.6511,54.5163],[13.6773,54.5405],[13.6707,54.5662],[13.6405,54.5857],[13.596,54.5914],[13.5863,54.5903],[13.4913,54.6155],[13.4517,54.6502],[13.4391,54.6715],[13.4451,54.6739],[13.4451,54.6801],[13.4314,54.6844],[13.4229,54.6988],[13.4225,54.6988],[13.3361,54.6971],[13.2947,54.6719],[13.2536,54.665],[13.231,54.6533],[13.2254,54.6466],[13.2248,54.635],[13.2312,54.6339],[13.2387,54.6369],[13.2317,54.5825],[13.1875,54.5512],[13.1664,54.5494],[13.1434,54.5429],[13.1589,54.5407],[13.166,54.5191],[13.1811,54.5107],[13.1813,54.5095],[13.1649,54.4364],[13.157,54.4268],[13.163,54.4277],[13.1561,54.3968],[13.1561,54.3964],[13.1598,54.3802],[13.1489,54.3773],[13.1292,54.3596],[13.1155,54.3381]]],[[[16.3914,56.4587],[16.3939,56.4526],[16.3998,56.3112],[16.4021,56.3065],[16.3989,56.2982],[16.4126,56.2709],[16.4126,56.2293],[16.4502,56.2187],[16.4909,56.2396],[16.5211,56.2822],[16.5298,56.2903],[16.5361,56.3034],[16.5664,56.3461],[16.5679,56.369],[16.6735,56.5876],[16.6828,56.5935],[16.6937,56.6294],[16.7178,56.6792],[16.7565,56.7475],[16.7605,56.7675],[16.7782,56.8042],[16.797,56.8154],[16.8303,56.8258],[16.8352,56.8382],[16.8394,56.8407],[16.8499,56.8756],[16.8582,56.8968],[16.8831,56.9162],[16.8741,56.9565],[16.88,56.9759],[16.9339,57.0176],[16.9162,57.0279],[16.9359,57.0532],[16.9606,57.0632],[16.9721,57.0998],[16.9844,57.1156],[17.0153,57.1479],[17.0209,57.1626],[17.0381,57.1847],[17.0495,57.1883],[17.0663,57.2267],[17.0571,57.2435],[17.0519,57.2799],[17.108,57.3145],[17.1245,57.3193],[17.0972,57.3528],[17.0735,57.3432],[17.0653,57.3577],[17.0192,57.3446],[16.9665,57.3046],[16.9611,57.2504],[16.9334,57.2158],[16.9099,57.2022],[16.904,57.1791],[16.9002,57.1744],[16.8642,57.091],[16.8264,57.0387],[16.7936,57.0039],[16.7229,56.9007],[16.6612,56.8852],[16.6379,56.8825],[16.6209,56.8723],[16.4528,56.6375],[16.446,56.6183],[16.4309,56.597],[16.4194,56.5856],[16.4114,56.5696],[16.4106,56.5685],[16.4104,56.5677],[16.3989,56.5447],[16.3942,56.4911],[16.3926,56.4834],[16.3926,56.483],[16.3929,56.4759],[16.3914,56.4587]]],[[[18.0994,57.259],[18.1348,57.2419],[18.1638,57.2122],[18.1664,57.2077],[18.1853,57.1448],[18.2065,57.1393],[18.2106,57.1323],[18.222,57.125],[18.2144,57.1138],[18.2251,57.0949],[18.2009,57.0728],[18.2233,57.0603],[18.2799,57.0877],[18.2859,57.0839],[18.2227,57.0257],[18.2009,57.0176],[18.2022,57.0041],[18.1624,56.9453],[18.1387,56.922],[18.1697,56.912],[18.2039,56.9152],[18.2985,56.9416],[18.3196,56.9669],[18.3406,56.9778],[18.3417,56.9804],[18.3584,56.9897],[18.3496,56.9989],[18.3518,57.004],[18.4001,57.004],[18.3643,57.0114],[18.3572,57.0167],[18.3874,57.0872],[18.4222,57.1167],[18.4546,57.1274],[18.4348,57.1274],[18.4774,57.1635],[18.499,57.1752],[18.5554,57.1925],[18.5748,57.2066],[18.6401,57.2248],[18.6805,57.2299],[18.7141,57.2429],[18.712,57.2633],[18.7438,57.3233],[18.7834,57.3615],[18.8276,57.3791],[18.8345,57.3808],[18.8392,57.3837],[18.8446,57.3858],[18.8711,57.3908],[18.9099,57.3876],[18.93,57.4045],[18.9089,57.4392],[18.8797,57.4492],[18.8689,57.4353],[18.8542,57.4378],[18.7906,57.4834],[18.802,57.5834],[18.8103,57.6073],[18.8048,57.6084],[18.8158,57.7052],[18.8626,57.7238],[18.8652,57.7233],[18.9413,57.7296],[18.937,57.7401],[18.9454,57.7416],[18.9696,57.7776],[18.9816,57.7705],[18.9858,57.8016],[18.9914,57.8098],[18.9959,57.8122],[19.0326,57.823],[19.0852,57.8258],[19.075,57.8354],[19.0749,57.8355],[19.0747,57.8356],[19.0748,57.8356],[19.0746,57.8357],[19.075,57.8358],[19.0738,57.8364],[19.0402,57.8679],[19.014,57.8813],[19.0095,57.9083],[18.9764,57.9115],[18.9453,57.9032],[18.9084,57.9138],[18.9133,57.9213],[18.8374,57.9122],[18.8451,57.9011],[18.8406,57.9],[18.8159,57.8547],[18.8107,57.8512],[18.8071,57.8387],[18.8047,57.8341],[18.7918,57.8387],[18.7625,57.871],[18.7693,57.8878],[18.7424,57.9179],[18.7005,57.9213],[18.658,57.9018],[18.6049,57.8426],[18.5687,57.8361],[18.5501,57.8394],[18.4994,57.8266],[18.4631,57.8032],[18.4287,57.7707],[18.405,57.7577],[18.2826,57.6552],[18.2034,57.6118],[18.1619,57.5781],[18.1615,57.5779],[18.1603,57.5768],[18.135,57.5563],[18.1349,57.5541],[18.1282,57.5482],[18.112,57.5111],[18.1209,57.4651],[18.1281,57.4536],[18.1278,57.4487],[18.1278,57.4483],[18.1529,57.3392],[18.1273,57.3021],[18.1156,57.297],[18.0994,57.259]]],[[[18.3444,59.0257],[18.3665,59.0091],[18.4053,59.0086],[18.4359,59.0498],[18.4901,59.0894],[18.4854,59.0976],[18.4818,59.1013],[18.4846,59.1044],[18.4843,59.1045],[18.4846,59.1048],[18.4768,59.1063],[18.466,59.1173],[18.4045,59.0911],[18.3978,59.0892],[18.3956,59.0873],[18.3748,59.0784],[18.3757,59.0692],[18.3718,59.062],[18.3498,59.0529],[18.3444,59.0257]]],[[[18.5105,59.4831],[18.5564,59.4223],[18.5809,59.4307],[18.5796,59.4489],[18.5921,59.4654],[18.6053,59.4668],[18.6012,59.4743],[18.6213,59.4889],[18.633,59.4897],[18.6539,59.5047],[18.697,59.5245],[18.697,59.5251],[18.7375,59.5351],[18.697,59.5336],[18.697,59.5353],[18.6882,59.5367],[18.6745,59.5456],[18.6325,59.5499],[18.6229,59.5472],[18.6214,59.5475],[18.621,59.5475],[18.6152,59.5451],[18.5925,59.5388],[18.5807,59.5308],[18.5706,59.5266],[18.5693,59.5231],[18.5105,59.4831]]],[[[19.0368,57.9052],[19.0716,57.8679],[19.1296,57.8469],[19.1603,57.8803],[19.1499,57.8946],[19.1578,57.9222],[19.2709,57.9483],[19.2961,57.9437],[19.3386,57.9636],[19.3057,57.9764],[19.2855,57.9765],[19.2802,57.9781],[19.1963,57.9801],[19.1634,57.9871],[19.1403,57.9815],[19.1362,57.9816],[19.1358,57.9816],[19.1334,57.9798],[19.0866,57.9685],[19.044,57.9144],[19.0386,57.9104],[19.0388,57.9102],[19.0386,57.91],[19.0397,57.9089],[19.0368,57.9052]]]]}}
]}
