{"type":"FeatureCollection","features":[
{"type":"Feature","properties":{"entityId":"syracuse","from":-263,"to":-211,"certainty":"estimated","source":"유럽 쪽은 Natural Earth 1:10m admin-1(v5.1.2) 현대 행정구역 조각을 그 시기 국경에 맞춰 묶고, 조각이 역사 경계와 다른 곳은 선을 그어 나눈 근사. 유럽 밖(시베리아·중앙아시아·극동)은 대략적인 추정. 운영자 검수 필요"},"geometry":{"type":"Polygon","coordinates":[[[15.0071,36.6662],[15.0071,36.6743],[15.0071,36.7006],[15.0003,36.7024],[14.9956,36.7656],[14.9702,36.7949],[14.8626,36.824],[14.8433,36.8368],[14.8522,36.8618],[14.9182,36.8509],[14.9339,36.8556],[14.9287,36.8817],[14.8594,36.9174],[14.8417,36.9433],[14.848,36.9734],[14.9069,36.9308],[14.9241,36.939],[14.9018,36.9906],[14.8353,37.0415],[14.7937,37.132],[14.8387,37.129],[14.8649,37.1746],[14.8559,37.2023],[14.8257,37.1961],[14.7854,37.2082],[14.7773,37.2275],[14.8024,37.249],[14.8573,37.2711],[14.8673,37.3149],[14.8433,37.3246],[14.8075,37.317],[14.7878,37.3335],[14.8299,37.358],[14.8512,37.386],[14.9011,37.4103],[14.9461,37.4023],[14.9814,37.3736],[15.0315,37.3775],[15.0925,37.3588],[15.0933,37.3571],[15.1187,37.3571],[15.1463,37.3571],[15.1747,37.3571],[15.203,37.3571],[15.2494,37.2598],[15.252,37.2577],[15.251,37.2565],[15.3094,37.1338],[15.3093,37.1336],[15.3094,37.1334],[15.297,37.1031],[15.3032,37.1012],[15.3027,37.0625],[15.2948,37.0567],[15.295,37.0558],[15.295,37.0467],[15.3123,37.044],[15.3324,37.0116],[15.3089,37.0178],[15.2888,37.0092],[15.2681,36.9939],[15.2681,36.9731],[15.2445,36.9721],[15.2435,36.9717],[15.1319,36.6976],[15.1349,36.6877],[15.1192,36.6663],[15.1006,36.6206],[15.1003,36.6208],[15.1002,36.6206],[15.0445,36.6479],[15.0071,36.6662]]]}}
]}
