{"type":"FeatureCollection","features":[
{"type":"Feature","properties":{"entityId":"taifas-second","from":1145,"to":1147,"certainty":"estimated","source":"유럽 쪽은 Natural Earth 1:10m admin-1(v5.1.2) 현대 행정구역 조각을 그 시기 국경에 맞춰 묶고, 조각이 역사 경계와 다른 곳은 선을 그어 나눈 근사. 유럽 밖(시베리아·중앙아시아·극동)은 대략적인 추정. 운영자 검수 필요"},"geometry":{"type":"Polygon","coordinates":[[[-9.5277,38.738],[-9.5061,38.704],[-9.4247,38.5761],[-9.4122,38.5564],[-9.3953,38.5298],[-9.3443,38.4497],[-9.2865,38.3588],[-9.2108,38.343],[-9.0095,38.301],[-8.8401,38.2657],[-8.8203,38.1359],[-8.8771,37.9661],[-8.8948,37.9525],[-8.8668,37.9387],[-8.8221,37.8713],[-8.8214,37.868],[-8.8141,37.8326],[-8.8067,37.7972],[-8.817,37.7403],[-8.8087,37.7229],[-8.7946,37.7258],[-8.8002,37.6944],[-8.8265,37.6006],[-8.8184,37.5873],[-8.8157,37.4671],[-8.815,37.4371],[-8.8149,37.4308],[-8.825,37.407],[-8.8503,37.347],[-8.8828,37.3099],[-8.8739,37.2912],[-8.9075,37.2117],[-8.9227,37.1997],[-8.9185,37.1859],[-8.9265,37.1669],[-8.9752,37.0765],[-8.9856,37.0634],[-8.9896,37.0499],[-8.9985,37.0333],[-8.9983,37.0332],[-8.9985,37.0329],[-8.9949,37.0319],[-8.9979,37.0215],[-8.9829,37.0266],[-8.946,37.0079],[-8.8789,37.0472],[-8.8643,37.0424],[-8.8977,36.8698],[-8.8976,36.8698],[-8.8977,36.8694],[-8.8973,36.8695],[-8.8973,36.8694],[-8.3827,36.9794],[-7.8573,36.8389],[-7.8572,36.839],[-7.8569,36.8389],[-7.5462,37.0385],[-7.4617,37.0928],[-7.4538,37.0978],[-7.3772,37.0851],[-7.3349,37.078],[-7.2927,37.0709],[-7.2083,37.0569],[-6.8705,37.0004],[-6.5326,36.944],[-6.5217,36.9422],[-6.4844,36.8668],[-6.4567,36.8108],[-6.4429,36.7828],[-6.4291,36.7549],[-6.4333,36.7512],[-6.4315,36.7146],[-6.407,36.6767],[-6.3947,36.6369],[-6.3631,36.6213],[-6.2373,36.3667],[-5.8665,36.0299],[-5.5206,35.9713],[-5.4718,35.963],[-5.4718,35.9832],[-5.423,35.9832],[-5.423,36.0078],[-5.3255,36.0078],[-5.3255,35.9973],[-5.2767,36.0456],[-5.228,36.0938],[-5.2279,36.0939],[-5.1791,36.1421],[-5.1304,36.1903],[-5.1286,36.1921],[-5.1286,36.2207],[-5.1867,36.2207],[-5.1867,36.2511],[-5.2538,36.2511],[-5.2538,36.297],[-5.2537,36.2971],[-5.2778,36.3369],[-5.32,36.3249],[-5.3351,36.3953],[-5.3554,36.4337],[-5.3915,36.4658],[-5.4154,36.507],[-5.4413,36.5236],[-5.5132,36.5118],[-5.5502,36.4932],[-5.5714,36.4936],[-5.6078,36.5197],[-5.5927,36.5386],[-5.5092,36.56],[-5.4728,36.5828],[-5.4449,36.6182],[-5.3837,36.6346],[-5.3393,36.6663],[-5.321,36.7287],[-5.2974,36.7707],[-5.3327,36.8057],[-5.335,36.8397],[-5.2907,36.8724],[-5.2627,36.8739],[-5.1941,36.8291],[-5.1618,36.83],[-5.1311,36.8438],[-5.0881,36.8936],[-5.0847,36.9254],[-5.097,36.9559],[-5.1422,37.0037],[-4.9166,37.113],[-4.9021,37.1342],[-4.9569,37.1668],[-4.9208,37.1796],[-4.8783,37.166],[-4.8399,37.1918],[-4.7963,37.1585],[-4.7381,37.1812],[-4.7184,37.2146],[-4.7356,37.2449],[-4.7198,37.2597],[-4.6532,37.2559],[-4.6138,37.2552],[-4.5963,37.2216],[-4.5393,37.2113],[-4.4806,37.2388],[-4.4449,37.2776],[-4.3835,37.2776],[-4.3722,37.2155],[-4.3263,37.2027],[-4.3203,37.1866],[-4.2552,37.2295],[-4.2634,37.2604],[-4.2371,37.2964],[-4.2355,37.3272],[-4.2092,37.3524],[-4.1721,37.3467],[-4.1372,37.3576],[-4.0764,37.4035],[-4.0009,37.4021],[-3.9508,37.3784],[-3.8413,37.3863],[-3.7919,37.4663],[-3.6831,37.5181],[-3.6272,37.5294],[-3.5071,37.6133],[-3.4683,37.6063],[-3.424,37.5685],[-3.3993,37.5641],[-3.3151,37.5778],[-3.2518,37.633],[-3.1873,37.6359],[-3.0908,37.596],[-3.0513,37.6129],[-2.9834,37.6015],[-2.9762,37.6327],[-2.9021,37.6657],[-2.9002,37.7482],[-2.8896,37.7743],[-2.7863,37.9125],[-2.6996,37.9726],[-2.6708,37.9615],[-2.5983,38.0057],[-2.6025,38.062],[-2.5474,38.0806],[-2.4658,38.0494],[-2.3612,38.0243],[-2.3385,38.0265],[-2.2962,38.0006],[-2.2614,37.9535],[-2.2097,37.9157],[-2.1718,37.8964],[-2.1255,37.8987],[-2.077,37.8811],[-1.9828,37.8708],[-2.0028,37.788],[-1.9952,37.7355],[-2.0044,37.7045],[-2.0007,37.6538],[-1.8384,37.4548],[-1.8057,37.4375],[-1.7927,37.4507],[-1.7324,37.4384],[-1.6416,37.381],[-1.6264,37.3863],[-1.6264,37.3292],[-1.5817,37.3292],[-1.5817,37.2871],[-1.5293,37.3441],[-1.4768,37.4011],[-1.438,37.4432],[-1.4029,37.4525],[-0.9582,37.5699],[-0.9252,37.5559],[-0.8757,37.5757],[-0.8661,37.5764],[-0.8364,37.5764],[-0.8272,37.5793],[-0.8224,37.5797],[-0.772,37.5953],[-0.7673,37.5985],[-0.764,37.5996],[-0.7279,37.6034],[-0.7053,37.6195],[-0.7072,37.6362],[-0.682,37.6429],[-0.6471,37.7478],[-0.6286,37.8036],[-0.61,37.8594],[-0.5359,38.0825],[-0.466,38.2928],[-0.1606,38.5289],[-0.1317,38.5353],[-0.0902,38.5353],[-0.06,38.5527],[-0.0563,38.5828],[-0.052,38.5848],[0.0237,38.6297],[0.0604,38.6348],[0.083,38.661],[0.1257,38.6855],[0.145,38.6863],[0.1626,38.7135],[0.1921,38.7304],[0.2277,38.7346],[0.2179,38.7681],[0.1786,38.7915],[0.1744,38.7979],[0.1853,38.8035],[0.154,38.831],[0.111,38.8499],[0.06,38.8583],[0.023,38.871],[0.0188,38.8725],[0.0052,38.8925],[-0.014,38.9208],[-0.0298,38.944],[-0.088,39.0296],[-0.1695,39.1495],[-0.2787,39.3102],[-0.2169,39.4408],[-0.148,39.5865],[-0.1136,39.6593],[-0.0963,39.6957],[-0.0791,39.7321],[0.0587,40.0234],[0.0662,40.0319],[0.117,40.0563],[0.1445,40.0788],[0.1728,40.122],[0.2485,40.1993],[0.2647,40.2098],[0.2988,40.2468],[0.3506,40.2849],[0.4203,40.3883],[0.4461,40.4084],[0.4513,40.4288],[0.4654,40.4469],[0.4977,40.4759],[0.5442,40.5178],[0.5553,40.5277],[0.5913,40.5601],[0.6024,40.5701],[0.6159,40.5535],[0.6771,40.5652],[0.707,40.5834],[0.7564,40.6422],[0.7624,40.6463],[0.8167,40.6683],[0.8483,40.6754],[0.8546,40.6837],[0.8588,40.6854],[0.8912,40.7219],[0.891,40.7221],[0.8912,40.7223],[0.7976,40.8039],[0.7582,40.813],[0.7705,40.8589],[0.7926,40.8762],[0.8156,40.892],[1.0133,41.0477],[1.149,41.0701],[1.1836,41.0626],[1.196,41.0779],[1.5509,41.1364],[1.5953,41.1438],[1.6397,41.1511],[1.6397,41.1957],[1.6244,41.1922],[1.6278,41.218],[1.5739,41.2344],[1.6055,41.259],[1.6086,41.2885],[1.5861,41.301],[1.5661,41.3341],[1.5596,41.3663],[1.5368,41.3852],[1.4853,41.4075],[1.4719,41.4266],[1.4828,41.4766],[1.4047,41.5067],[1.3974,41.5213],[1.4277,41.5524],[1.4311,41.574],[1.3927,41.575],[1.3718,41.5654],[1.2078,41.5723],[1.178,41.5445],[1.1702,41.4954],[1.1574,41.4802],[1.1172,41.4725],[1.073,41.4827],[1.062,41.4516],[1.0237,41.4063],[0.9895,41.3983],[0.9577,41.3545],[0.879,41.342],[0.8335,41.3585],[0.805,41.3313],[0.7585,41.3313],[0.7364,41.3184],[0.6208,41.2987],[0.5619,41.3239],[0.5314,41.2928],[0.5098,41.2885],[0.4728,41.3283],[0.4381,41.3248],[0.4332,41.2761],[0.3858,41.2789],[0.3604,41.2328],[0.3211,41.2139],[0.2997,41.1649],[0.2089,41.1196],[0.2165,41.0706],[0.167,41.0651],[0.1192,41.0764],[0.0725,41.0771],[0.0396,41.0486],[0.021,41.0542],[-0.0169,41.1217],[-0.0362,41.1341],[-0.2686,41.215],[-0.3132,41.2555],[-0.3372,41.2415],[-0.4059,41.2724],[-0.4402,41.3143],[-0.4651,41.3186],[-0.493,41.3543],[-0.5505,41.353],[-0.5594,41.3247],[-0.5093,41.25],[-0.5326,41.2325],[-0.6015,41.3196],[-0.6311,41.3099],[-0.6255,41.2483],[-0.6426,41.2384],[-0.6101,41.1917],[-0.694,41.1126],[-0.7403,41.1563],[-0.7725,41.1519],[-0.7924,41.1021],[-0.8236,41.0929],[-0.8835,41.1303],[-0.9383,41.0824],[-0.9543,41.079],[-0.9952,41.0969],[-1.0006,41.1148],[-1.0865,41.1593],[-1.1103,41.1556],[-1.1225,41.1364],[-1.1681,41.1219],[-1.2144,41.1371],[-1.2547,41.1282],[-1.2674,41.1009],[-1.254,41.0714],[-1.2702,41.0542],[-1.3292,41.0547],[-1.3586,41.0704],[-1.4033,41.0641],[-1.4294,41.0286],[-1.4582,41.0139],[-1.4492,40.9702],[-1.4644,40.9513],[-1.5268,40.9532],[-1.5559,40.9438],[-1.6219,40.9468],[-1.6102,40.9277],[-1.6141,40.8867],[-1.601,40.8587],[-1.5446,40.8174],[-1.5388,40.7768],[-1.557,40.7252],[-1.5397,40.6944],[-1.5374,40.663],[-1.5552,40.6142],[-1.5512,40.5951],[-1.5867,40.5706],[-1.6711,40.5893],[-1.6986,40.5424],[-1.6998,40.4933],[-1.75,40.4592],[-1.8083,40.402],[-1.7793,40.3922],[-1.7206,40.3354],[-1.7136,40.2877],[-1.7,40.2948],[-1.6601,40.283],[-1.5551,40.2054],[-1.4444,40.1967],[-1.4485,40.1498],[-1.4523,40.1307],[-1.4169,40.1095],[-1.3783,40.0221],[-1.3695,40.0163],[-1.243,39.9974],[-1.1627,40.0115],[-1.1455,39.9723],[-1.1962,39.9506],[-1.2029,39.8633],[-1.2256,39.7963],[-1.267,39.7435],[-1.2655,39.6938],[-1.2922,39.6727],[-1.3204,39.6714],[-1.372,39.6836],[-1.4275,39.6452],[-1.4632,39.5902],[-1.4944,39.5673],[-1.5045,39.5455],[-1.4984,39.4961],[-1.5182,39.4518],[-1.501,39.422],[-1.7394,39.3211],[-1.77,39.2806],[-1.8451,39.2861],[-1.887,39.3046],[-1.9899,39.2937],[-2.029,39.3379],[-2.0208,39.352],[-2.0907,39.3595],[-2.049,39.2668],[-2.1684,39.281],[-2.2888,39.2267],[-2.3211,39.2837],[-2.3492,39.2789],[-2.3739,39.2329],[-2.5112,39.342],[-2.5294,39.3276],[-2.5678,39.3269],[-2.6193,39.34],[-2.6622,39.3218],[-2.7421,39.318],[-2.7222,39.2686],[-2.8427,39.1344],[-2.8098,39.0845],[-2.8074,39.0538],[-2.8798,38.9455],[-2.8706,38.9121],[-2.7995,38.9079],[-2.7624,38.8808],[-2.7492,38.8113],[-2.7318,38.7901],[-2.6818,38.7771],[-2.6507,38.7422],[-2.6453,38.7074],[-2.6793,38.6355],[-2.7285,38.6246],[-2.751,38.6055],[-2.7655,38.5737],[-2.7469,38.5469],[-2.756,38.5331],[-2.7909,38.5071],[-2.8449,38.4834],[-2.879,38.4606],[-2.9235,38.4763],[-2.9508,38.4745],[-2.9927,38.452],[-3.0009,38.4301],[-3.0463,38.4729],[-3.0697,38.4827],[-3.1135,38.4576],[-3.2403,38.4637],[-3.3074,38.4819],[-3.3619,38.4733],[-3.3959,38.4264],[-3.4696,38.4045],[-3.5264,38.4171],[-3.5438,38.4488],[-3.5768,38.4435],[-3.5887,38.4077],[-3.6199,38.4014],[-3.7942,38.4261],[-3.8231,38.4152],[-3.8397,38.3926],[-3.8937,38.3816],[-4.1776,38.3906],[-4.2155,38.4012],[-4.265,38.4014],[-4.2755,38.3509],[-4.3018,38.3501],[-4.4497,38.396],[-4.5171,38.4555],[-4.5704,38.4867],[-4.6105,38.497],[-4.6327,38.5235],[-4.704,38.5594],[-4.728,38.5798],[-4.769,38.5944],[-4.8285,38.6041],[-4.8659,38.635],[-4.8697,38.6739],[-4.883,38.6852],[-4.946,38.6837],[-4.9792,38.6944],[-5.0366,38.7284],[-4.9979,38.7358],[-4.9717,38.7692],[-4.9475,38.8394],[-4.9129,38.8823],[-4.8508,38.8867],[-4.8363,38.9285],[-4.8466,38.946],[-4.9138,38.9597],[-4.9443,39.0097],[-4.9541,39.0456],[-4.9378,39.0531],[-4.8773,39.0326],[-4.8347,39.0476],[-4.8402,39.0686],[-4.864,39.0816],[-4.8674,39.1061],[-4.847,39.1655],[-4.8068,39.1988],[-4.7273,39.1965],[-4.6584,39.1739],[-4.7106,39.2253],[-4.7536,39.2974],[-4.7568,39.3165],[-4.7109,39.3441],[-4.6779,39.4176],[-4.6927,39.4498],[-4.753,39.4182],[-4.767,39.4046],[-4.8801,39.3669],[-4.9444,39.3919],[-4.9714,39.4097],[-5.0392,39.4781],[-5.0792,39.4928],[-5.1594,39.5639],[-5.1964,39.5877],[-5.1976,39.5996],[-5.1518,39.663],[-5.1417,39.7203],[-5.1654,39.7472],[-5.1656,39.75],[-7.0069,39.75],[-7.0133,39.7389],[-6.993,39.7742],[-7.0003,39.8025],[-6.9852,39.8211],[-6.9528,39.8329],[-6.9242,39.8716],[-6.9223,39.9224],[-6.9095,39.932],[-6.8969,39.9871],[-6.8797,40.0092],[-6.9199,40.0649],[-6.9557,40.1029],[-7.0158,40.1191],[-7.0431,40.1814],[-7.0248,40.2162],[-6.9421,40.255],[-6.9975,40.2856],[-7.0754,40.2863],[-7.1103,40.3193],[-7.1538,40.28],[-7.2016,40.28],[-7.2466,40.2673],[-7.3203,40.2854],[-7.2798,40.3505],[-7.2712,40.4098],[-7.3261,40.4098],[-7.3477,40.3906],[-7.3909,40.3828],[-7.4535,40.4134],[-7.5039,40.3766],[-7.5267,40.3376],[-7.5769,40.3192],[-7.6019,40.3268],[-7.6432,40.2867],[-7.7339,40.2442],[-7.7821,40.232],[-7.8069,40.185],[-7.7965,40.1657],[-7.7419,40.1283],[-7.7401,40.0945],[-7.7687,40.0775],[-7.806,40.0775],[-7.8072,40.0407],[-7.8449,40.0582],[-7.8949,40.0469],[-7.9173,40.0045],[-7.9444,40.0031],[-7.9695,39.9817],[-8.0257,39.9754],[-8.0322,39.9609],[-8.0715,39.9567],[-8.1263,39.9212],[-8.1284,39.944],[-8.108,39.9653],[-8.1494,40.017],[-8.1455,40.0624],[-8.1746,40.0863],[-8.2052,40.0551],[-8.2351,40.064],[-8.2931,40.016],[-8.271,39.9848],[-8.2877,39.9708],[-8.314,39.9751],[-8.3491,39.9445],[-8.4048,39.9343],[-8.3853,39.9566],[-8.4127,40.0103],[-8.4509,40.0121],[-8.51,39.9782],[-8.5355,39.956],[-8.5538,40.0201],[-8.5948,40.0209],[-8.629,39.9963],[-8.6772,40.0281],[-8.7689,40.0373],[-8.8154,40.0211],[-8.8476,40.0262],[-8.9025,40.0474],[-8.8929,40.0691],[-8.9931,40.0691],[-8.9997,40.0322],[-9.0489,39.7556],[-9.0693,39.737],[-9.3934,39.4419],[-9.4485,39.3917],[-9.4603,39.2943],[-9.4693,39.2205],[-9.4782,39.1467],[-9.514,38.8516],[-9.5277,38.7384],[-9.5277,38.738]]]}},
{"type":"Feature","properties":{"entityId":"taifas-second","from":1147,"to":1149,"certainty":"estimated","source":"유럽 쪽은 Natural Earth 1:10m admin-1(v5.1.2) 현대 행정구역 조각을 그 시기 국경에 맞춰 묶고, 조각이 역사 경계와 다른 곳은 선을 그어 나눈 근사. 유럽 밖(시베리아·중앙아시아·극동)은 대략적인 추정. 운영자 검수 필요"},"geometry":{"type":"MultiPolygon","coordinates":[[[[-9.3953,38.5298],[-9.3443,38.4497],[-9.2865,38.3588],[-9.2108,38.343],[-9.0095,38.301],[-8.8401,38.2657],[-8.8203,38.1359],[-8.8771,37.9661],[-8.8948,37.9525],[-8.8668,37.9387],[-8.8221,37.8713],[-8.8214,37.868],[-8.8141,37.8326],[-8.8067,37.7972],[-8.817,37.7403],[-8.8087,37.7229],[-8.7946,37.7258],[-8.8002,37.6944],[-8.8265,37.6006],[-8.8184,37.5873],[-8.8157,37.4671],[-8.815,37.4371],[-8.8149,37.4308],[-8.825,37.407],[-8.8503,37.347],[-8.8828,37.3099],[-8.8739,37.2912],[-8.9075,37.2117],[-8.9227,37.1997],[-8.9185,37.1859],[-8.9265,37.1669],[-8.9752,37.0765],[-8.9856,37.0634],[-8.9896,37.0499],[-8.9985,37.0333],[-8.9983,37.0332],[-8.9985,37.0329],[-8.9949,37.0319],[-8.9979,37.0215],[-8.9829,37.0266],[-8.946,37.0079],[-8.8789,37.0472],[-8.8643,37.0424],[-8.8977,36.8698],[-8.8976,36.8698],[-8.8977,36.8694],[-8.8973,36.8695],[-8.8973,36.8694],[-8.3827,36.9794],[-7.8573,36.8389],[-7.8572,36.839],[-7.8569,36.8389],[-7.5462,37.0385],[-7.4617,37.0928],[-7.4538,37.0978],[-7.3772,37.0851],[-7.3349,37.078],[-7.3349,37.1366],[-7.3772,37.1366],[-7.3772,37.1659],[-7.4078,37.1659],[-7.4144,37.1928],[-7.4342,37.2593],[-7.445,37.3868],[-7.4623,37.4179],[-7.4629,37.4511],[-7.4759,37.4943],[-7.5146,37.5283],[-7.5297,37.5672],[-7.5143,37.6014],[-7.4716,37.6369],[-7.4575,37.7001],[-7.4263,37.7506],[-7.3344,37.8119],[-7.3069,37.8508],[-7.2686,37.9492],[-7.2727,37.977],[-7.2233,37.9938],[-7.1853,37.9887],[-7.1522,38.0007],[-7.1233,38.04],[-7.0494,38.0202],[-7.024,38.0226],[-6.9976,38.0896],[-6.9576,38.1682],[-6.9506,38.1984],[-6.9338,38.2093],[-6.7979,38.1729],[-6.7955,38.1514],[-6.8104,38.113],[-6.7488,38.0936],[-6.6446,38.0937],[-6.6173,38.0868],[-6.5844,38.0568],[-6.5717,38.0239],[-6.4848,38.0164],[-6.4496,38.0514],[-6.4131,38.0537],[-6.3724,38.0312],[-6.3563,38],[-6.2003,37.952],[-6.1833,37.939],[-6.1141,37.9786],[-5.976,37.9986],[-5.9411,38.0183],[-5.9107,38.0735],[-5.9228,38.0928],[-5.9154,38.1141],[-5.8745,38.1401],[-5.8371,38.1743],[-5.8072,38.183],[-5.7275,38.1883],[-5.698,38.1659],[-5.696,38.1485],[-5.7341,38.1297],[-5.7282,38.0954],[-5.6936,38.0913],[-5.6234,38.1369],[-5.581,38.1351],[-5.5818,38.1156],[-5.4961,38.0428],[-5.4786,37.9813],[-5.4218,37.9407],[-5.4134,37.8851],[-5.3932,37.8576],[-5.3496,37.8306],[-5.3347,37.7861],[-5.3097,37.7734],[-5.3111,37.6979],[-5.39,37.6976],[-5.414,37.6739],[-5.401,37.631],[-5.3801,37.6118],[-5.3444,37.61],[-5.2768,37.6245],[-5.1911,37.6696],[-5.1525,37.6619],[-5.1231,37.6694],[-5.105,37.6909],[-5.0266,37.7105],[-4.9821,37.6902],[-4.9555,37.648],[-4.9552,37.6184],[-4.928,37.5837],[-4.9439,37.5202],[-4.9083,37.4948],[-4.8875,37.4626],[-4.8849,37.4381],[-4.8499,37.4107],[-4.8221,37.3582],[-4.7838,37.3304],[-4.7634,37.3288],[-4.7106,37.3616],[-4.6772,37.3408],[-4.6707,37.2991],[-4.6532,37.2559],[-4.6138,37.2552],[-4.5963,37.2216],[-4.5393,37.2113],[-4.4806,37.2388],[-4.4449,37.2776],[-4.3835,37.2776],[-4.3722,37.2155],[-4.3263,37.2027],[-4.3203,37.1866],[-4.2552,37.2295],[-4.2634,37.2604],[-4.2371,37.2964],[-4.2355,37.3272],[-4.2092,37.3524],[-4.1721,37.3467],[-4.1372,37.3576],[-4.0764,37.4035],[-4.0009,37.4021],[-3.9508,37.3784],[-3.8413,37.3863],[-3.7919,37.4663],[-3.6831,37.5181],[-3.6272,37.5294],[-3.5071,37.6133],[-3.4683,37.6063],[-3.424,37.5685],[-3.3993,37.5641],[-3.3151,37.5778],[-3.2518,37.633],[-3.1873,37.6359],[-3.0908,37.596],[-3.0513,37.6129],[-2.9834,37.6015],[-2.9762,37.6327],[-2.9021,37.6657],[-2.9002,37.7482],[-2.8896,37.7743],[-2.7863,37.9125],[-2.6996,37.9726],[-2.6708,37.9615],[-2.5983,38.0057],[-2.6025,38.062],[-2.5474,38.0806],[-2.4658,38.0494],[-2.3612,38.0243],[-2.3385,38.0265],[-2.2962,38.0006],[-2.2614,37.9535],[-2.2097,37.9157],[-2.1718,37.8964],[-2.1255,37.8987],[-2.077,37.8811],[-1.9828,37.8708],[-2.0028,37.788],[-1.9952,37.7355],[-2.0044,37.7045],[-2.0007,37.6538],[-1.8384,37.4548],[-1.8057,37.4375],[-1.7927,37.4507],[-1.7324,37.4384],[-1.6416,37.381],[-1.6264,37.3863],[-1.6264,37.3292],[-1.5817,37.3292],[-1.5817,37.2871],[-1.5293,37.3441],[-1.4768,37.4011],[-1.438,37.4432],[-1.4029,37.4525],[-0.9582,37.5699],[-0.9252,37.5559],[-0.8757,37.5757],[-0.8661,37.5764],[-0.8364,37.5764],[-0.8272,37.5793],[-0.8224,37.5797],[-0.772,37.5953],[-0.7673,37.5985],[-0.764,37.5996],[-0.7279,37.6034],[-0.7053,37.6195],[-0.7072,37.6362],[-0.682,37.6429],[-0.6471,37.7478],[-0.6286,37.8036],[-0.61,37.8594],[-0.5359,38.0825],[-0.466,38.2928],[-0.1606,38.5289],[-0.1317,38.5353],[-0.0902,38.5353],[-0.06,38.5527],[-0.0563,38.5828],[-0.052,38.5848],[0.0237,38.6297],[0.0604,38.6348],[0.083,38.661],[0.1257,38.6855],[0.145,38.6863],[0.1626,38.7135],[0.1921,38.7304],[0.2277,38.7346],[0.2179,38.7681],[0.1786,38.7915],[0.1744,38.7979],[0.1853,38.8035],[0.154,38.831],[0.111,38.8499],[0.06,38.8583],[0.023,38.871],[0.0188,38.8725],[0.0052,38.8925],[-0.014,38.9208],[-0.0298,38.944],[-0.088,39.0296],[-0.1695,39.1495],[-0.2787,39.3102],[-0.2169,39.4408],[-0.148,39.5865],[-0.1136,39.6593],[-0.0963,39.6957],[-0.0791,39.7321],[0.0587,40.0234],[0.0662,40.0319],[0.117,40.0563],[0.1445,40.0788],[0.1728,40.122],[0.2485,40.1993],[0.2647,40.2098],[0.2988,40.2468],[0.3506,40.2849],[0.4203,40.3883],[0.4461,40.4084],[0.4513,40.4288],[0.4654,40.4469],[0.4977,40.4759],[0.5442,40.5178],[0.5553,40.5277],[0.5913,40.5601],[0.6024,40.5701],[0.6159,40.5535],[0.6771,40.5652],[0.707,40.5834],[0.7564,40.6422],[0.7624,40.6463],[0.8167,40.6683],[0.8483,40.6754],[0.8546,40.6837],[0.8588,40.6854],[0.8912,40.7219],[0.891,40.7221],[0.8912,40.7223],[0.7976,40.8039],[0.7582,40.813],[0.7705,40.8589],[0.7926,40.8762],[0.8156,40.892],[1.0133,41.0477],[1.149,41.0701],[1.1836,41.0626],[1.196,41.0779],[1.5509,41.1364],[1.5953,41.1438],[1.6397,41.1511],[1.6397,41.1957],[1.6244,41.1922],[1.6278,41.218],[1.5739,41.2344],[1.6055,41.259],[1.6086,41.2885],[1.5861,41.301],[1.5661,41.3341],[1.5596,41.3663],[1.5368,41.3852],[1.4853,41.4075],[1.4719,41.4266],[1.4828,41.4766],[1.4047,41.5067],[1.3974,41.5213],[1.4277,41.5524],[1.4311,41.574],[1.3927,41.575],[1.3718,41.5654],[1.2078,41.5723],[1.178,41.5445],[1.1702,41.4954],[1.1574,41.4802],[1.1172,41.4725],[1.073,41.4827],[1.062,41.4516],[1.0237,41.4063],[0.9895,41.3983],[0.9577,41.3545],[0.879,41.342],[0.8335,41.3585],[0.805,41.3313],[0.7585,41.3313],[0.7364,41.3184],[0.6208,41.2987],[0.5619,41.3239],[0.5314,41.2928],[0.5098,41.2885],[0.4728,41.3283],[0.4381,41.3248],[0.4332,41.2761],[0.3858,41.2789],[0.3604,41.2328],[0.3211,41.2139],[0.2997,41.1649],[0.2089,41.1196],[0.2165,41.0706],[0.167,41.0651],[0.1192,41.0764],[0.0725,41.0771],[0.0396,41.0486],[0.021,41.0542],[-0.0169,41.1217],[-0.0362,41.1341],[-0.2686,41.215],[-0.3132,41.2555],[-0.3372,41.2415],[-0.4059,41.2724],[-0.4402,41.3143],[-0.4651,41.3186],[-0.493,41.3543],[-0.5505,41.353],[-0.5594,41.3247],[-0.5093,41.25],[-0.5326,41.2325],[-0.6015,41.3196],[-0.6311,41.3099],[-0.6255,41.2483],[-0.6426,41.2384],[-0.6101,41.1917],[-0.694,41.1126],[-0.7403,41.1563],[-0.7725,41.1519],[-0.7924,41.1021],[-0.8236,41.0929],[-0.8835,41.1303],[-0.9383,41.0824],[-0.9543,41.079],[-0.9952,41.0969],[-1.0006,41.1148],[-1.0865,41.1593],[-1.1103,41.1556],[-1.1225,41.1364],[-1.1681,41.1219],[-1.2144,41.1371],[-1.2547,41.1282],[-1.2674,41.1009],[-1.254,41.0714],[-1.2702,41.0542],[-1.3292,41.0547],[-1.3586,41.0704],[-1.4033,41.0641],[-1.4294,41.0286],[-1.4582,41.0139],[-1.4492,40.9702],[-1.4644,40.9513],[-1.5268,40.9532],[-1.5559,40.9438],[-1.6219,40.9468],[-1.6102,40.9277],[-1.6141,40.8867],[-1.601,40.8587],[-1.5446,40.8174],[-1.5388,40.7768],[-1.557,40.7252],[-1.5397,40.6944],[-1.5374,40.663],[-1.5552,40.6142],[-1.5512,40.5951],[-1.5867,40.5706],[-1.6711,40.5893],[-1.6986,40.5424],[-1.6998,40.4933],[-1.75,40.4592],[-1.8083,40.402],[-1.8564,40.4288],[-1.8916,40.533],[-1.9299,40.5927],[-1.9555,40.5991],[-1.9828,40.5872],[-2.0311,40.5994],[-2.0857,40.6411],[-2.157,40.6588],[-2.1773,40.6286],[-2.2119,40.6234],[-2.2742,40.6462],[-2.2914,40.6333],[-2.2929,40.5948],[-2.3309,40.5733],[-2.389,40.6108],[-2.4078,40.6064],[-2.4161,40.5801],[-2.3901,40.5502],[-2.3979,40.5287],[-2.4321,40.5356],[-2.488,40.513],[-2.5278,40.5441],[-2.5454,40.5372],[-2.5287,40.4989],[-2.535,40.4698],[-2.5081,40.4511],[-2.5128,40.4197],[-2.5753,40.4479],[-2.6269,40.4531],[-2.6795,40.4332],[-2.7229,40.3973],[-2.7699,40.4213],[-2.8077,40.4069],[-2.8154,40.3254],[-2.801,40.2665],[-2.8163,40.2099],[-2.8662,40.1979],[-2.8852,40.1727],[-2.9128,40.1576],[-2.947,40.1698],[-2.9981,40.2092],[-3.0198,40.1931],[-3.0143,40.1553],[-3.0637,40.1684],[-3.0728,40.1576],[-3.0857,40.1457],[-3.063,40.0981],[-3.0938,40.0726],[-3.1635,40.0662],[-3.1701,40.0483],[-3.1426,39.9851],[-3.0966,39.9868],[-3.097,39.9333],[-3.1251,39.8781],[-3.0963,39.8691],[-3.0596,39.8376],[-3.0407,39.7875],[-3.0153,39.7645],[-2.9995,39.7219],[-2.9082,39.6423],[-2.9254,39.6018],[-2.9312,39.4714],[-2.9072,39.4302],[-2.8698,39.3904],[-2.8966,39.3667],[-2.8825,39.351],[-2.8307,39.3551],[-2.7891,39.3976],[-2.7421,39.318],[-2.7222,39.2686],[-2.8427,39.1344],[-2.8098,39.0845],[-2.8074,39.0538],[-2.8798,38.9455],[-2.8706,38.9121],[-2.7995,38.9079],[-2.7624,38.8808],[-2.7492,38.8113],[-2.7318,38.7901],[-2.6818,38.7771],[-2.6507,38.7422],[-2.6453,38.7074],[-2.6793,38.6355],[-2.7285,38.6246],[-2.751,38.6055],[-2.7655,38.5737],[-2.7469,38.5469],[-2.756,38.5331],[-2.7909,38.5071],[-2.8449,38.4834],[-2.879,38.4606],[-2.9235,38.4763],[-2.9508,38.4745],[-2.9927,38.452],[-3.0009,38.4301],[-3.0463,38.4729],[-3.0697,38.4827],[-3.1135,38.4576],[-3.2403,38.4637],[-3.3074,38.4819],[-3.3619,38.4733],[-3.3959,38.4264],[-3.4696,38.4045],[-3.5264,38.4171],[-3.5438,38.4488],[-3.5768,38.4435],[-3.5887,38.4077],[-3.6199,38.4014],[-3.7942,38.4261],[-3.8231,38.4152],[-3.8397,38.3926],[-3.8937,38.3816],[-4.1776,38.3906],[-4.2155,38.4012],[-4.265,38.4014],[-4.2755,38.3509],[-4.3018,38.3501],[-4.4497,38.396],[-4.5171,38.4555],[-4.5704,38.4867],[-4.6105,38.497],[-4.6327,38.5235],[-4.704,38.5594],[-4.728,38.5798],[-4.769,38.5944],[-4.8285,38.6041],[-4.8659,38.635],[-4.8697,38.6739],[-4.883,38.6852],[-4.946,38.6837],[-4.9792,38.6944],[-5.0366,38.7284],[-4.9979,38.7358],[-4.9717,38.7692],[-4.9475,38.8394],[-4.9129,38.8823],[-4.8508,38.8867],[-4.8363,38.9285],[-4.8466,38.946],[-4.9138,38.9597],[-4.9443,39.0097],[-4.9541,39.0456],[-4.9378,39.0531],[-4.8773,39.0326],[-4.8347,39.0476],[-4.8402,39.0686],[-4.864,39.0816],[-4.8674,39.1061],[-4.847,39.1655],[-4.8068,39.1988],[-4.7273,39.1965],[-4.6584,39.1739],[-4.7106,39.2253],[-4.7536,39.2974],[-4.7568,39.3165],[-4.7109,39.3441],[-4.6779,39.4176],[-4.6927,39.4498],[-4.753,39.4182],[-4.767,39.4046],[-4.8801,39.3669],[-4.9444,39.3919],[-4.9714,39.4097],[-5.0392,39.4781],[-5.0792,39.4928],[-5.1594,39.5639],[-5.1964,39.5877],[-5.1976,39.5996],[-5.1518,39.663],[-5.1417,39.7203],[-5.1654,39.7472],[-5.1656,39.75],[-7.0069,39.75],[-7.0133,39.7389],[-7.0096,39.7155],[-7.0358,39.6893],[-7.1829,39.6751],[-7.2358,39.6865],[-7.2928,39.6833],[-7.3414,39.6718],[-7.5573,39.6798],[-7.5559,39.6772],[-7.6032,39.6658],[-7.6389,39.6422],[-7.6955,39.6527],[-7.7401,39.6043],[-7.7597,39.5985],[-7.8047,39.5571],[-7.8618,39.5202],[-7.9366,39.5533],[-7.968,39.5369],[-8.0102,39.4687],[-7.9549,39.4279],[-7.9689,39.3902],[-8.024,39.3598],[-8.0461,39.3217],[-8.0854,39.2853],[-8.1194,39.2854],[-8.1527,39.2523],[-8.2357,39.1945],[-8.2912,39.1638],[-8.3336,39.117],[-8.3341,39.1007],[-8.291,39.0796],[-8.2547,39.0214],[-8.1969,39.0009],[-8.2301,38.983],[-8.2451,38.9322],[-8.2601,38.914],[-8.2429,38.897],[-8.1699,38.8666],[-8.1756,38.8418],[-8.1289,38.8014],[-8.1516,38.7745],[-8.2021,38.8168],[-8.25,38.8301],[-8.2857,38.8574],[-8.3381,38.847],[-8.3746,38.8527],[-8.3884,38.833],[-8.4235,38.8278],[-8.4542,38.8056],[-8.4987,38.7988],[-8.5466,38.767],[-8.5932,38.7725],[-8.6045,38.7836],[-8.6078,38.8304],[-8.6437,38.8153],[-8.7032,38.8344],[-8.762,38.7381],[-8.7856,38.7342],[-8.8422,38.7562],[-8.8898,38.7415],[-8.9194,38.7501],[-8.9231,38.7778],[-8.9426,38.7756],[-8.946,38.783],[-9.0508,38.783],[-9.0508,38.7231],[-9.1049,38.7231],[-9.1049,38.6928],[-9.159,38.6928],[-9.159,38.6799],[-9.2051,38.6759],[-9.2051,38.6967],[-9.2202,38.6939],[-9.2512,38.6962],[-9.2512,38.6661],[-9.2527,38.6655],[-9.2513,38.6632],[-9.2973,38.6632],[-9.2973,38.592],[-9.3434,38.592],[-9.3434,38.5564],[-9.3618,38.5564],[-9.3618,38.5298],[-9.3953,38.5298]]],[[[1.2122,38.9032],[1.2166,38.8851],[1.2599,38.8579],[1.2666,38.8703],[1.3003,38.8705],[1.3078,38.8579],[1.3435,38.8624],[1.3707,38.8318],[1.4031,38.8323],[1.4081,38.8575],[1.4092,38.8574],[1.4092,38.8575],[1.4096,38.8574],[1.4408,38.91],[1.445,38.9132],[1.4587,38.9001],[1.5098,38.9302],[1.5412,38.9678],[1.5762,38.9858],[1.586,39.0055],[1.6103,39.0254],[1.6231,39.0292],[1.621,39.0342],[1.6256,39.0379],[1.6255,39.0382],[1.6256,39.0383],[1.6148,39.0869],[1.5644,39.1217],[1.5641,39.1216],[1.564,39.1217],[1.5393,39.1171],[1.5371,39.118],[1.5292,39.1153],[1.4596,39.1024],[1.4507,39.1018],[1.4474,39.1001],[1.348,39.0817],[1.3214,39.0531],[1.2928,39.0333],[1.2992,38.9824],[1.2544,38.9741],[1.2505,38.9658],[1.2368,38.9652],[1.2122,38.9032]]],[[[1.3828,38.7116],[1.3829,38.6421],[1.4128,38.6464],[1.4455,38.6716],[1.478,38.6716],[1.5234,38.6494],[1.5814,38.6531],[1.5774,38.6628],[1.5932,38.6716],[1.5932,38.7016],[1.496,38.712],[1.4348,38.7693],[1.4347,38.7691],[1.4344,38.7693],[1.4164,38.7397],[1.4078,38.7231],[1.3828,38.7116]]],[[[2.3556,39.5587],[2.3919,39.5237],[2.4373,39.5337],[2.4568,39.531],[2.4736,39.51],[2.469,39.5059],[2.4927,39.4702],[2.5202,39.4728],[2.5449,39.493],[2.5629,39.5217],[2.576,39.531],[2.6335,39.5552],[2.7016,39.5414],[2.7448,39.5101],[2.7496,39.4909],[2.7366,39.4621],[2.7512,39.4548],[2.7617,39.4002],[2.7866,39.3759],[2.8255,39.3636],[2.9126,39.3587],[2.9212,39.3595],[2.997,39.3306],[3.0013,39.3177],[3.0293,39.3046],[3.0608,39.2691],[3.1294,39.3157],[3.221,39.3599],[3.2526,39.3862],[3.2688,39.4276],[3.2825,39.4201],[3.2918,39.4758],[3.2947,39.4802],[3.3324,39.5314],[3.406,39.592],[3.3987,39.6077],[3.4,39.6101],[3.4148,39.6264],[3.4228,39.6385],[3.4432,39.6458],[3.4675,39.6876],[3.4744,39.7497],[3.4527,39.7511],[3.4508,39.7623],[3.3968,39.7779],[3.3428,39.7866],[3.3424,39.7866],[3.2418,39.7571],[3.1449,39.79],[3.1592,39.8365],[3.1875,39.8577],[3.1931,39.8596],[3.2068,39.893],[3.198,39.8911],[3.1664,39.9081],[3.1664,39.9233],[3.1823,39.942],[3.2036,39.9492],[3.1946,39.9565],[3.1988,39.9615],[3.1985,39.9616],[3.1988,39.9619],[3.184,39.9652],[3.1795,39.9688],[3.1745,39.9672],[3.1592,39.9706],[3.1588,39.9706],[2.9032,39.9081],[2.8248,39.8726],[2.8132,39.8726],[2.7756,39.8492],[2.7412,39.8291],[2.7039,39.8142],[2.6782,39.7924],[2.6399,39.7701],[2.6314,39.7701],[2.6259,39.7619],[2.5215,39.7011],[2.5176,39.7001],[2.5122,39.6957],[2.4223,39.6433],[2.3577,39.6119],[2.3556,39.5587]]],[[[3.8034,40.0132],[3.8435,39.9882],[3.8428,39.9758],[3.8428,39.9754],[3.846,39.9732],[3.8307,39.9361],[3.8693,39.9255],[3.9413,39.9368],[4.0151,39.9258],[4.1772,39.8433],[4.2481,39.8165],[4.3001,39.8218],[4.3016,39.858],[4.3137,39.8812],[4.3371,39.8672],[4.3208,39.895],[4.322,39.8973],[4.3219,39.8975],[4.322,39.8977],[4.3148,39.9168],[4.2997,39.9363],[4.298,39.942],[4.2949,39.9426],[4.2717,39.9726],[4.2546,39.9975],[4.2518,39.9982],[4.2248,40.0331],[4.178,40.0449],[4.1765,40.0592],[4.1663,40.0478],[4.1224,40.0588],[4.1051,40.0794],[4.0801,40.0694],[4.0592,40.0747],[4.0588,40.0747],[3.8536,40.0626],[3.8508,40.0526],[3.8219,40.0476],[3.8034,40.0132]]]]}},
{"type":"Feature","properties":{"entityId":"taifas-second","from":1149,"to":1150,"certainty":"estimated","source":"유럽 쪽은 Natural Earth 1:10m admin-1(v5.1.2) 현대 행정구역 조각을 그 시기 국경에 맞춰 묶고, 조각이 역사 경계와 다른 곳은 선을 그어 나눈 근사. 유럽 밖(시베리아·중앙아시아·극동)은 대략적인 추정. 운영자 검수 필요"},"geometry":{"type":"MultiPolygon","coordinates":[[[[-9.3953,38.5298],[-9.3443,38.4497],[-9.2865,38.3588],[-9.2108,38.343],[-9.0095,38.301],[-8.8401,38.2657],[-8.8203,38.1359],[-8.8771,37.9661],[-8.8948,37.9525],[-8.8668,37.9387],[-8.8221,37.8713],[-8.8214,37.868],[-8.8141,37.8326],[-8.8067,37.7972],[-8.817,37.7403],[-8.8087,37.7229],[-8.7946,37.7258],[-8.8002,37.6944],[-8.8265,37.6006],[-8.8184,37.5873],[-8.8157,37.4671],[-8.815,37.4371],[-8.8149,37.4308],[-8.825,37.407],[-8.8503,37.347],[-8.8828,37.3099],[-8.8739,37.2912],[-8.9075,37.2117],[-8.9227,37.1997],[-8.9185,37.1859],[-8.9265,37.1669],[-8.9752,37.0765],[-8.9856,37.0634],[-8.9896,37.0499],[-8.9985,37.0333],[-8.9983,37.0332],[-8.9985,37.0329],[-8.9949,37.0319],[-8.9979,37.0215],[-8.9829,37.0266],[-8.946,37.0079],[-8.8789,37.0472],[-8.8643,37.0424],[-8.8977,36.8698],[-8.8976,36.8698],[-8.8977,36.8694],[-8.8973,36.8695],[-8.8973,36.8694],[-8.3827,36.9794],[-7.8573,36.8389],[-7.8572,36.839],[-7.8569,36.8389],[-7.5462,37.0385],[-7.4617,37.0928],[-7.4538,37.0978],[-7.3772,37.0851],[-7.3349,37.078],[-7.3349,37.1366],[-7.3772,37.1366],[-7.3772,37.1659],[-7.4078,37.1659],[-7.4144,37.1928],[-7.4342,37.2593],[-7.445,37.3868],[-7.4623,37.4179],[-7.4629,37.4511],[-7.4759,37.4943],[-7.5146,37.5283],[-7.5297,37.5672],[-7.5143,37.6014],[-7.4716,37.6369],[-7.4575,37.7001],[-7.4263,37.7506],[-7.3344,37.8119],[-7.3069,37.8508],[-7.2686,37.9492],[-7.2727,37.977],[-7.2233,37.9938],[-7.1853,37.9887],[-7.1522,38.0007],[-7.1233,38.04],[-7.0494,38.0202],[-7.024,38.0226],[-6.9976,38.0896],[-6.9576,38.1682],[-6.9506,38.1984],[-6.9338,38.2093],[-6.7979,38.1729],[-6.7955,38.1514],[-6.8104,38.113],[-6.7488,38.0936],[-6.6446,38.0937],[-6.6173,38.0868],[-6.5844,38.0568],[-6.5717,38.0239],[-6.4848,38.0164],[-6.4496,38.0514],[-6.4131,38.0537],[-6.3724,38.0312],[-6.3563,38],[-6.2003,37.952],[-6.1833,37.939],[-6.1141,37.9786],[-5.976,37.9986],[-5.9411,38.0183],[-5.9107,38.0735],[-5.9228,38.0928],[-5.9154,38.1141],[-5.8745,38.1401],[-5.8371,38.1743],[-5.8072,38.183],[-5.7275,38.1883],[-5.698,38.1659],[-5.696,38.1485],[-5.7341,38.1297],[-5.7282,38.0954],[-5.6936,38.0913],[-5.6234,38.1369],[-5.581,38.1351],[-5.5382,38.1624],[-5.5197,38.2089],[-5.5213,38.2668],[-5.5503,38.3208],[-5.5671,38.3363],[-5.561,38.3773],[-5.5758,38.3943],[-5.5694,38.4253],[-5.5493,38.4408],[-5.4808,38.4692],[-5.4649,38.4891],[-5.4196,38.5158],[-5.4003,38.5491],[-5.3624,38.5839],[-5.3068,38.5855],[-5.2881,38.6125],[-5.2101,38.659],[-5.1808,38.666],[-5.1594,38.7179],[-5.0799,38.7194],[-5.0366,38.7284],[-4.9979,38.7358],[-4.9717,38.7692],[-4.9475,38.8394],[-4.9129,38.8823],[-4.8508,38.8867],[-4.8363,38.9285],[-4.8466,38.946],[-4.9138,38.9597],[-4.9443,39.0097],[-4.9541,39.0456],[-4.9378,39.0531],[-4.8773,39.0326],[-4.8347,39.0476],[-4.8402,39.0686],[-4.864,39.0816],[-4.8674,39.1061],[-4.847,39.1655],[-4.8068,39.1988],[-4.7273,39.1965],[-4.6584,39.1739],[-4.7106,39.2253],[-4.7536,39.2974],[-4.7568,39.3165],[-4.7109,39.3441],[-4.6779,39.4176],[-4.6927,39.4498],[-4.753,39.4182],[-4.767,39.4046],[-4.8801,39.3669],[-4.9444,39.3919],[-4.9714,39.4097],[-5.0392,39.4781],[-5.0792,39.4928],[-5.1594,39.5639],[-5.1964,39.5877],[-5.1976,39.5996],[-5.1518,39.663],[-5.1417,39.7203],[-5.1654,39.7472],[-5.1656,39.75],[-7.0069,39.75],[-7.0133,39.7389],[-7.0096,39.7155],[-7.0358,39.6893],[-7.1829,39.6751],[-7.2358,39.6865],[-7.2928,39.6833],[-7.3414,39.6718],[-7.5573,39.6798],[-7.5559,39.6772],[-7.6032,39.6658],[-7.6389,39.6422],[-7.6955,39.6527],[-7.7401,39.6043],[-7.7597,39.5985],[-7.8047,39.5571],[-7.8618,39.5202],[-7.9366,39.5533],[-7.968,39.5369],[-8.0102,39.4687],[-7.9549,39.4279],[-7.9689,39.3902],[-8.024,39.3598],[-8.0461,39.3217],[-8.0854,39.2853],[-8.1194,39.2854],[-8.1527,39.2523],[-8.2357,39.1945],[-8.2912,39.1638],[-8.3336,39.117],[-8.3341,39.1007],[-8.291,39.0796],[-8.2547,39.0214],[-8.1969,39.0009],[-8.2301,38.983],[-8.2451,38.9322],[-8.2601,38.914],[-8.2429,38.897],[-8.1699,38.8666],[-8.1756,38.8418],[-8.1289,38.8014],[-8.1516,38.7745],[-8.2021,38.8168],[-8.25,38.8301],[-8.2857,38.8574],[-8.3381,38.847],[-8.3746,38.8527],[-8.3884,38.833],[-8.4235,38.8278],[-8.4542,38.8056],[-8.4987,38.7988],[-8.5466,38.767],[-8.5932,38.7725],[-8.6045,38.7836],[-8.6078,38.8304],[-8.6437,38.8153],[-8.7032,38.8344],[-8.762,38.7381],[-8.7856,38.7342],[-8.8422,38.7562],[-8.8898,38.7415],[-8.9194,38.7501],[-8.9231,38.7778],[-8.9426,38.7756],[-8.946,38.783],[-9.0508,38.783],[-9.0508,38.7231],[-9.1049,38.7231],[-9.1049,38.6928],[-9.159,38.6928],[-9.159,38.6799],[-9.2051,38.6759],[-9.2051,38.6967],[-9.2202,38.6939],[-9.2512,38.6962],[-9.2512,38.6661],[-9.2527,38.6655],[-9.2513,38.6632],[-9.2973,38.6632],[-9.2973,38.592],[-9.3434,38.592],[-9.3434,38.5564],[-9.3618,38.5564],[-9.3618,38.5298],[-9.3953,38.5298]]],[[[-3.1701,40.0483],[-3.1426,39.9851],[-3.0966,39.9868],[-3.097,39.9333],[-3.1251,39.8781],[-3.0963,39.8691],[-3.0596,39.8376],[-3.0407,39.7875],[-3.0153,39.7645],[-2.9995,39.7219],[-2.9082,39.6423],[-2.9254,39.6018],[-2.9312,39.4714],[-2.9072,39.4302],[-2.8698,39.3904],[-2.8966,39.3667],[-2.8825,39.351],[-2.8307,39.3551],[-2.7891,39.3976],[-2.7421,39.318],[-2.7222,39.2686],[-2.8427,39.1344],[-2.8098,39.0845],[-2.8074,39.0538],[-2.8798,38.9455],[-2.8706,38.9121],[-2.7995,38.9079],[-2.7624,38.8808],[-2.7492,38.8113],[-2.7318,38.7901],[-2.6818,38.7771],[-2.6507,38.7422],[-2.6453,38.7074],[-2.6793,38.6355],[-2.7285,38.6246],[-2.751,38.6055],[-2.7655,38.5737],[-2.7469,38.5469],[-2.756,38.5331],[-2.6752,38.5002],[-2.6428,38.5093],[-2.5738,38.502],[-2.574,38.4346],[-2.5572,38.4145],[-2.4887,38.3987],[-2.4711,38.2982],[-2.4401,38.2828],[-2.4303,38.2588],[-2.4489,38.2223],[-2.4448,38.1882],[-2.5474,38.0806],[-2.4658,38.0494],[-2.3612,38.0243],[-2.3385,38.0265],[-2.2962,38.0006],[-2.2614,37.9535],[-2.2097,37.9157],[-2.1718,37.8964],[-2.1255,37.8987],[-2.077,37.8811],[-1.9828,37.8708],[-2.0028,37.788],[-1.9952,37.7355],[-2.0044,37.7045],[-2.0007,37.6538],[-1.8384,37.4548],[-1.8057,37.4375],[-1.7927,37.4507],[-1.7324,37.4384],[-1.6416,37.381],[-1.6264,37.3863],[-1.6264,37.3292],[-1.5817,37.3292],[-1.5817,37.2871],[-1.5293,37.3441],[-1.4768,37.4011],[-1.438,37.4432],[-1.4029,37.4525],[-0.9582,37.5699],[-0.9252,37.5559],[-0.8757,37.5757],[-0.8661,37.5764],[-0.8364,37.5764],[-0.8272,37.5793],[-0.8224,37.5797],[-0.772,37.5953],[-0.7673,37.5985],[-0.764,37.5996],[-0.7279,37.6034],[-0.7053,37.6195],[-0.7072,37.6362],[-0.682,37.6429],[-0.6471,37.7478],[-0.6286,37.8036],[-0.61,37.8594],[-0.5359,38.0825],[-0.466,38.2928],[-0.1606,38.5289],[-0.1317,38.5353],[-0.0902,38.5353],[-0.06,38.5527],[-0.0563,38.5828],[-0.052,38.5848],[0.0237,38.6297],[0.0604,38.6348],[0.083,38.661],[0.1257,38.6855],[0.145,38.6863],[0.1626,38.7135],[0.1921,38.7304],[0.2277,38.7346],[0.2179,38.7681],[0.1786,38.7915],[0.1744,38.7979],[0.1853,38.8035],[0.154,38.831],[0.111,38.8499],[0.06,38.8583],[0.023,38.871],[0.0188,38.8725],[0.0052,38.8925],[-0.014,38.9208],[-0.0298,38.944],[-0.088,39.0296],[-0.1695,39.1495],[-0.2787,39.3102],[-0.2169,39.4408],[-0.148,39.5865],[-0.1136,39.6593],[-0.0963,39.6957],[-0.0791,39.7321],[0.0587,40.0234],[0.0662,40.0319],[0.117,40.0563],[0.1445,40.0788],[0.1728,40.122],[0.2485,40.1993],[0.2647,40.2098],[0.2988,40.2468],[0.3506,40.2849],[0.4203,40.3883],[0.4461,40.4084],[0.4513,40.4288],[0.4654,40.4469],[0.4977,40.4759],[0.5442,40.5178],[0.5193,40.5178],[0.5238,40.5262],[0.4561,40.5492],[0.4369,40.5774],[0.3875,40.6037],[0.2931,40.6321],[0.2762,40.6543],[0.2877,40.6838],[0.2438,40.703],[0.2193,40.7305],[0.173,40.7309],[0.1727,40.7471],[0.2274,40.7717],[0.2719,40.8292],[0.2496,40.8886],[0.2897,40.9825],[0.2742,41.0189],[0.2278,41.0432],[0.2165,41.0706],[0.167,41.0651],[0.1192,41.0764],[0.0725,41.0771],[0.0396,41.0486],[0.021,41.0542],[-0.0169,41.1217],[-0.0362,41.1341],[-0.2686,41.215],[-0.3132,41.2555],[-0.3372,41.2415],[-0.4059,41.2724],[-0.4402,41.3143],[-0.4651,41.3186],[-0.493,41.3543],[-0.5505,41.353],[-0.5594,41.3247],[-0.5093,41.25],[-0.5326,41.2325],[-0.6015,41.3196],[-0.6311,41.3099],[-0.6255,41.2483],[-0.6426,41.2384],[-0.6101,41.1917],[-0.694,41.1126],[-0.7403,41.1563],[-0.7725,41.1519],[-0.7924,41.1021],[-0.8236,41.0929],[-0.8835,41.1303],[-0.9383,41.0824],[-0.9543,41.079],[-0.9952,41.0969],[-1.0006,41.1148],[-1.0865,41.1593],[-1.1103,41.1556],[-1.1225,41.1364],[-1.1681,41.1219],[-1.2144,41.1371],[-1.2547,41.1282],[-1.2674,41.1009],[-1.254,41.0714],[-1.2702,41.0542],[-1.3292,41.0547],[-1.3586,41.0704],[-1.4033,41.0641],[-1.4294,41.0286],[-1.4582,41.0139],[-1.4492,40.9702],[-1.4644,40.9513],[-1.5268,40.9532],[-1.5559,40.9438],[-1.6219,40.9468],[-1.6102,40.9277],[-1.6141,40.8867],[-1.601,40.8587],[-1.5446,40.8174],[-1.5388,40.7768],[-1.557,40.7252],[-1.5397,40.6944],[-1.5374,40.663],[-1.5552,40.6142],[-1.5512,40.5951],[-1.5867,40.5706],[-1.6711,40.5893],[-1.6986,40.5424],[-1.6998,40.4933],[-1.75,40.4592],[-1.8083,40.402],[-1.8564,40.4288],[-1.8916,40.533],[-1.9299,40.5927],[-1.9555,40.5991],[-1.9828,40.5872],[-2.0311,40.5994],[-2.0857,40.6411],[-2.157,40.6588],[-2.1773,40.6286],[-2.2119,40.6234],[-2.2742,40.6462],[-2.2914,40.6333],[-2.2929,40.5948],[-2.3309,40.5733],[-2.389,40.6108],[-2.4078,40.6064],[-2.4161,40.5801],[-2.3901,40.5502],[-2.3979,40.5287],[-2.4321,40.5356],[-2.488,40.513],[-2.5278,40.5441],[-2.5454,40.5372],[-2.5287,40.4989],[-2.535,40.4698],[-2.5081,40.4511],[-2.5128,40.4197],[-2.5753,40.4479],[-2.6269,40.4531],[-2.6795,40.4332],[-2.7229,40.3973],[-2.7699,40.4213],[-2.8077,40.4069],[-2.8154,40.3254],[-2.801,40.2665],[-2.8163,40.2099],[-2.8662,40.1979],[-2.8852,40.1727],[-2.9128,40.1576],[-2.947,40.1698],[-2.9981,40.2092],[-3.0198,40.1931],[-3.0143,40.1553],[-3.0637,40.1684],[-3.0728,40.1576],[-3.0857,40.1457],[-3.063,40.0981],[-3.0938,40.0726],[-3.1635,40.0662],[-3.1701,40.0483]]],[[[1.2122,38.9032],[1.2166,38.8851],[1.2599,38.8579],[1.2666,38.8703],[1.3003,38.8705],[1.3078,38.8579],[1.3435,38.8624],[1.3707,38.8318],[1.4031,38.8323],[1.4081,38.8575],[1.4092,38.8574],[1.4092,38.8575],[1.4096,38.8574],[1.4408,38.91],[1.445,38.9132],[1.4587,38.9001],[1.5098,38.9302],[1.5412,38.9678],[1.5762,38.9858],[1.586,39.0055],[1.6103,39.0254],[1.6231,39.0292],[1.621,39.0342],[1.6256,39.0379],[1.6255,39.0382],[1.6256,39.0383],[1.6148,39.0869],[1.5644,39.1217],[1.5641,39.1216],[1.564,39.1217],[1.5393,39.1171],[1.5371,39.118],[1.5292,39.1153],[1.4596,39.1024],[1.4507,39.1018],[1.4474,39.1001],[1.348,39.0817],[1.3214,39.0531],[1.2928,39.0333],[1.2992,38.9824],[1.2544,38.9741],[1.2505,38.9658],[1.2368,38.9652],[1.2122,38.9032]]],[[[1.3828,38.7116],[1.3829,38.6421],[1.4128,38.6464],[1.4455,38.6716],[1.478,38.6716],[1.5234,38.6494],[1.5814,38.6531],[1.5774,38.6628],[1.5932,38.6716],[1.5932,38.7016],[1.496,38.712],[1.4348,38.7693],[1.4347,38.7691],[1.4344,38.7693],[1.4164,38.7397],[1.4078,38.7231],[1.3828,38.7116]]],[[[2.3556,39.5587],[2.3919,39.5237],[2.4373,39.5337],[2.4568,39.531],[2.4736,39.51],[2.469,39.5059],[2.4927,39.4702],[2.5202,39.4728],[2.5449,39.493],[2.5629,39.5217],[2.576,39.531],[2.6335,39.5552],[2.7016,39.5414],[2.7448,39.5101],[2.7496,39.4909],[2.7366,39.4621],[2.7512,39.4548],[2.7617,39.4002],[2.7866,39.3759],[2.8255,39.3636],[2.9126,39.3587],[2.9212,39.3595],[2.997,39.3306],[3.0013,39.3177],[3.0293,39.3046],[3.0608,39.2691],[3.1294,39.3157],[3.221,39.3599],[3.2526,39.3862],[3.2688,39.4276],[3.2825,39.4201],[3.2918,39.4758],[3.2947,39.4802],[3.3324,39.5314],[3.406,39.592],[3.3987,39.6077],[3.4,39.6101],[3.4148,39.6264],[3.4228,39.6385],[3.4432,39.6458],[3.4675,39.6876],[3.4744,39.7497],[3.4527,39.7511],[3.4508,39.7623],[3.3968,39.7779],[3.3428,39.7866],[3.3424,39.7866],[3.2418,39.7571],[3.1449,39.79],[3.1592,39.8365],[3.1875,39.8577],[3.1931,39.8596],[3.2068,39.893],[3.198,39.8911],[3.1664,39.9081],[3.1664,39.9233],[3.1823,39.942],[3.2036,39.9492],[3.1946,39.9565],[3.1988,39.9615],[3.1985,39.9616],[3.1988,39.9619],[3.184,39.9652],[3.1795,39.9688],[3.1745,39.9672],[3.1592,39.9706],[3.1588,39.9706],[2.9032,39.9081],[2.8248,39.8726],[2.8132,39.8726],[2.7756,39.8492],[2.7412,39.8291],[2.7039,39.8142],[2.6782,39.7924],[2.6399,39.7701],[2.6314,39.7701],[2.6259,39.7619],[2.5215,39.7011],[2.5176,39.7001],[2.5122,39.6957],[2.4223,39.6433],[2.3577,39.6119],[2.3556,39.5587]]],[[[3.8034,40.0132],[3.8435,39.9882],[3.8428,39.9758],[3.8428,39.9754],[3.846,39.9732],[3.8307,39.9361],[3.8693,39.9255],[3.9413,39.9368],[4.0151,39.9258],[4.1772,39.8433],[4.2481,39.8165],[4.3001,39.8218],[4.3016,39.858],[4.3137,39.8812],[4.3371,39.8672],[4.3208,39.895],[4.322,39.8973],[4.3219,39.8975],[4.322,39.8977],[4.3148,39.9168],[4.2997,39.9363],[4.298,39.942],[4.2949,39.9426],[4.2717,39.9726],[4.2546,39.9975],[4.2518,39.9982],[4.2248,40.0331],[4.178,40.0449],[4.1765,40.0592],[4.1663,40.0478],[4.1224,40.0588],[4.1051,40.0794],[4.0801,40.0694],[4.0592,40.0747],[4.0588,40.0747],[3.8536,40.0626],[3.8508,40.0526],[3.8219,40.0476],[3.8034,40.0132]]]]}},
{"type":"Feature","properties":{"entityId":"taifas-second","from":1150,"to":1171,"certainty":"estimated","source":"유럽 쪽은 Natural Earth 1:10m admin-1(v5.1.2) 현대 행정구역 조각을 그 시기 국경에 맞춰 묶고, 조각이 역사 경계와 다른 곳은 선을 그어 나눈 근사. 유럽 밖(시베리아·중앙아시아·극동)은 대략적인 추정. 운영자 검수 필요"},"geometry":{"type":"MultiPolygon","coordinates":[[[[-2.3385,38.0265],[-2.3612,38.0243],[-2.4658,38.0494],[-2.5474,38.0806],[-2.4448,38.1882],[-2.4489,38.2223],[-2.4303,38.2588],[-2.4401,38.2828],[-2.4711,38.2982],[-2.4887,38.3987],[-2.5572,38.4145],[-2.574,38.4346],[-2.5738,38.502],[-2.6428,38.5093],[-2.6752,38.5002],[-2.756,38.5331],[-2.7469,38.5469],[-2.7655,38.5737],[-2.751,38.6055],[-2.7285,38.6246],[-2.6793,38.6355],[-2.6453,38.7074],[-2.6507,38.7422],[-2.6818,38.7771],[-2.7318,38.7901],[-2.7492,38.8113],[-2.7624,38.8808],[-2.7995,38.9079],[-2.8706,38.9121],[-2.8798,38.9455],[-2.8074,39.0538],[-2.8098,39.0845],[-2.8427,39.1344],[-2.7222,39.2686],[-2.7421,39.318],[-2.7891,39.3976],[-2.8307,39.3551],[-2.8825,39.351],[-2.8966,39.3667],[-2.8698,39.3904],[-2.9072,39.4302],[-2.9312,39.4714],[-2.9254,39.6018],[-2.9082,39.6423],[-2.9995,39.7219],[-3.0153,39.7645],[-3.0407,39.7875],[-3.0596,39.8376],[-3.0963,39.8691],[-3.1251,39.8781],[-3.097,39.9333],[-3.0966,39.9868],[-3.1426,39.9851],[-3.1701,40.0483],[-3.1635,40.0662],[-3.0938,40.0726],[-3.063,40.0981],[-3.0857,40.1457],[-3.0728,40.1576],[-3.0637,40.1684],[-3.0143,40.1553],[-3.0198,40.1931],[-2.9981,40.2092],[-2.947,40.1698],[-2.9128,40.1576],[-2.8852,40.1727],[-2.8662,40.1979],[-2.8163,40.2099],[-2.801,40.2665],[-2.8154,40.3254],[-2.8077,40.4069],[-2.7699,40.4213],[-2.7229,40.3973],[-2.6795,40.4332],[-2.6269,40.4531],[-2.5753,40.4479],[-2.5128,40.4197],[-2.5081,40.4511],[-2.535,40.4698],[-2.5287,40.4989],[-2.5454,40.5372],[-2.5278,40.5441],[-2.488,40.513],[-2.4321,40.5356],[-2.3979,40.5287],[-2.3901,40.5502],[-2.4161,40.5801],[-2.4078,40.6064],[-2.389,40.6108],[-2.3309,40.5733],[-2.2929,40.5948],[-2.2914,40.6333],[-2.2742,40.6462],[-2.2119,40.6234],[-2.1773,40.6286],[-2.157,40.6588],[-2.0857,40.6411],[-2.0311,40.5994],[-1.9828,40.5872],[-1.9555,40.5991],[-1.9299,40.5927],[-1.8916,40.533],[-1.8564,40.4288],[-1.8083,40.402],[-1.75,40.4592],[-1.6998,40.4933],[-1.6986,40.5424],[-1.6711,40.5893],[-1.5867,40.5706],[-1.5512,40.5951],[-1.5552,40.6142],[-1.5374,40.663],[-1.5397,40.6944],[-1.557,40.7252],[-1.5388,40.7768],[-1.5446,40.8174],[-1.601,40.8587],[-1.6141,40.8867],[-1.6102,40.9277],[-1.6219,40.9468],[-1.5559,40.9438],[-1.5268,40.9532],[-1.4644,40.9513],[-1.4492,40.9702],[-1.4582,41.0139],[-1.4294,41.0286],[-1.4033,41.0641],[-1.3586,41.0704],[-1.3292,41.0547],[-1.2702,41.0542],[-1.254,41.0714],[-1.2674,41.1009],[-1.2547,41.1282],[-1.2144,41.1371],[-1.1681,41.1219],[-1.1225,41.1364],[-1.1103,41.1556],[-1.0865,41.1593],[-1.0006,41.1148],[-0.9952,41.0969],[-0.9543,41.079],[-0.9383,41.0824],[-0.8835,41.1303],[-0.8236,41.0929],[-0.7924,41.1021],[-0.7725,41.1519],[-0.7403,41.1563],[-0.694,41.1126],[-0.6101,41.1917],[-0.6426,41.2384],[-0.6255,41.2483],[-0.6311,41.3099],[-0.6015,41.3196],[-0.5326,41.2325],[-0.5093,41.25],[-0.5594,41.3247],[-0.5505,41.353],[-0.493,41.3543],[-0.4651,41.3186],[-0.4402,41.3143],[-0.4059,41.2724],[-0.3372,41.2415],[-0.3132,41.2555],[-0.2686,41.215],[-0.0362,41.1341],[-0.0169,41.1217],[0.021,41.0542],[0.0396,41.0486],[0.0725,41.0771],[0.1192,41.0764],[0.167,41.0651],[0.2165,41.0706],[0.2278,41.0432],[0.2742,41.0189],[0.2897,40.9825],[0.2496,40.8886],[0.2719,40.8292],[0.2274,40.7717],[0.1727,40.7471],[0.173,40.7309],[0.2193,40.7305],[0.2438,40.703],[0.2877,40.6838],[0.2762,40.6543],[0.2931,40.6321],[0.3875,40.6037],[0.4369,40.5774],[0.4561,40.5492],[0.5238,40.5262],[0.5193,40.5178],[0.5442,40.5178],[0.4977,40.4759],[0.4654,40.4469],[0.4513,40.4288],[0.4461,40.4084],[0.4203,40.3883],[0.3506,40.2849],[0.2988,40.2468],[0.2647,40.2098],[0.2485,40.1993],[0.1728,40.122],[0.1445,40.0788],[0.117,40.0563],[0.0662,40.0319],[0.0587,40.0234],[-0.0791,39.7321],[-0.0963,39.6957],[-0.1136,39.6593],[-0.148,39.5865],[-0.2169,39.4408],[-0.2787,39.3102],[-0.1695,39.1495],[-0.088,39.0296],[-0.0298,38.944],[-0.014,38.9208],[0.0052,38.8925],[0.0188,38.8725],[0.023,38.871],[0.06,38.8583],[0.111,38.8499],[0.154,38.831],[0.1853,38.8035],[0.1744,38.7979],[0.1786,38.7915],[0.2179,38.7681],[0.2277,38.7346],[0.1921,38.7304],[0.1626,38.7135],[0.145,38.6863],[0.1257,38.6855],[0.083,38.661],[0.0604,38.6348],[0.0237,38.6297],[-0.052,38.5848],[-0.0563,38.5828],[-0.06,38.5527],[-0.0902,38.5353],[-0.1317,38.5353],[-0.1606,38.5289],[-0.466,38.2928],[-0.5359,38.0825],[-0.61,37.8594],[-0.6193,37.8315],[-0.6286,37.8036],[-0.6471,37.7478],[-0.682,37.6429],[-0.7072,37.6362],[-0.7053,37.6195],[-0.7279,37.6034],[-0.764,37.5996],[-0.7673,37.5985],[-0.772,37.5953],[-0.8224,37.5797],[-0.8272,37.5793],[-0.8364,37.5764],[-0.8661,37.5764],[-0.8757,37.5757],[-0.9252,37.5559],[-0.9582,37.5699],[-1.4029,37.4525],[-1.438,37.4432],[-1.4768,37.4011],[-1.5293,37.3441],[-1.5555,37.3156],[-1.5817,37.2871],[-1.5817,37.2929],[-1.5817,37.3156],[-1.5817,37.3292],[-1.6264,37.3292],[-1.6264,37.3577],[-1.6264,37.3655],[-1.6264,37.3863],[-1.6416,37.381],[-1.7324,37.4384],[-1.7927,37.4507],[-1.8057,37.4375],[-1.8384,37.4548],[-2.0007,37.6538],[-2.0044,37.7045],[-1.9952,37.7355],[-2.0028,37.788],[-1.9828,37.8708],[-2.077,37.8811],[-2.1255,37.8987],[-2.1718,37.8964],[-2.2097,37.9157],[-2.2614,37.9535],[-2.2962,38.0006],[-2.3385,38.0265]]],[[[1.4455,38.6716],[1.4128,38.6464],[1.3829,38.6421],[1.3828,38.7116],[1.4078,38.7231],[1.4164,38.7397],[1.4344,38.7693],[1.4347,38.7691],[1.4348,38.7693],[1.496,38.712],[1.5932,38.7016],[1.5932,38.6716],[1.5774,38.6628],[1.5814,38.6531],[1.5234,38.6494],[1.478,38.6716],[1.4455,38.6716]]],[[[1.586,39.0055],[1.5762,38.9858],[1.5412,38.9678],[1.5098,38.9302],[1.4587,38.9001],[1.445,38.9132],[1.4408,38.91],[1.4096,38.8574],[1.4092,38.8575],[1.4092,38.8574],[1.4081,38.8575],[1.4031,38.8323],[1.3707,38.8318],[1.3435,38.8624],[1.3078,38.8579],[1.3003,38.8705],[1.2666,38.8703],[1.2599,38.8579],[1.2166,38.8851],[1.2122,38.9032],[1.2368,38.9652],[1.2505,38.9658],[1.2544,38.9741],[1.2992,38.9824],[1.2928,39.0333],[1.3214,39.0531],[1.348,39.0817],[1.4474,39.1001],[1.4507,39.1018],[1.4596,39.1024],[1.5292,39.1153],[1.5371,39.118],[1.5393,39.1171],[1.564,39.1217],[1.5641,39.1216],[1.5644,39.1217],[1.6148,39.0869],[1.6256,39.0383],[1.6255,39.0382],[1.6256,39.0379],[1.621,39.0342],[1.6231,39.0292],[1.6103,39.0254],[1.586,39.0055]]],[[[3.4,39.6101],[3.3987,39.6077],[3.406,39.592],[3.3324,39.5314],[3.2947,39.4802],[3.2918,39.4758],[3.2825,39.4201],[3.2688,39.4276],[3.2526,39.3862],[3.221,39.3599],[3.1294,39.3157],[3.0608,39.2691],[3.0293,39.3046],[3.0013,39.3177],[2.997,39.3306],[2.9212,39.3595],[2.9126,39.3587],[2.8255,39.3636],[2.7866,39.3759],[2.7617,39.4002],[2.7512,39.4548],[2.7366,39.4621],[2.7496,39.4909],[2.7448,39.5101],[2.7016,39.5414],[2.6335,39.5552],[2.576,39.531],[2.5629,39.5217],[2.5449,39.493],[2.5202,39.4728],[2.4927,39.4702],[2.469,39.5059],[2.4736,39.51],[2.4568,39.531],[2.4373,39.5337],[2.3919,39.5237],[2.3556,39.5587],[2.3577,39.6119],[2.4223,39.6433],[2.5122,39.6957],[2.5176,39.7001],[2.5215,39.7011],[2.6259,39.7619],[2.6314,39.7701],[2.6399,39.7701],[2.6782,39.7924],[2.7039,39.8142],[2.7412,39.8291],[2.7756,39.8492],[2.8132,39.8726],[2.8248,39.8726],[2.9032,39.9081],[3.1588,39.9706],[3.159,39.9706],[3.1592,39.9706],[3.1745,39.9672],[3.1795,39.9688],[3.184,39.9652],[3.1988,39.9619],[3.1985,39.9616],[3.1988,39.9615],[3.1946,39.9565],[3.2036,39.9492],[3.1823,39.942],[3.1664,39.9233],[3.1664,39.9081],[3.198,39.8911],[3.2068,39.893],[3.1931,39.8596],[3.1875,39.8577],[3.1592,39.8365],[3.1449,39.79],[3.2418,39.7571],[3.3424,39.7866],[3.3427,39.7866],[3.3428,39.7866],[3.3968,39.7779],[3.4508,39.7623],[3.4527,39.7511],[3.4744,39.7497],[3.4675,39.6876],[3.4432,39.6458],[3.4228,39.6385],[3.4148,39.6264],[3.4,39.6101]]],[[[4.3016,39.858],[4.3001,39.8218],[4.2481,39.8165],[4.1772,39.8433],[4.0151,39.9258],[3.9413,39.9368],[3.8693,39.9255],[3.8307,39.9361],[3.846,39.9732],[3.8428,39.9754],[3.8428,39.9758],[3.8435,39.9882],[3.8034,40.0132],[3.8219,40.0476],[3.8508,40.0526],[3.8536,40.0626],[4.0588,40.0747],[4.0589,40.0747],[4.0592,40.0747],[4.0801,40.0694],[4.1051,40.0794],[4.1224,40.0588],[4.1663,40.0478],[4.1765,40.0592],[4.178,40.0449],[4.2248,40.0331],[4.2518,39.9982],[4.2546,39.9975],[4.2717,39.9726],[4.2949,39.9426],[4.298,39.942],[4.2997,39.9363],[4.3148,39.9168],[4.322,39.8977],[4.3219,39.8975],[4.322,39.8973],[4.3208,39.895],[4.3371,39.8672],[4.3137,39.8812],[4.3016,39.858]]]]}},
{"type":"Feature","properties":{"entityId":"taifas-second","from":1171,"to":1172,"certainty":"estimated","source":"유럽 쪽은 Natural Earth 1:10m admin-1(v5.1.2) 현대 행정구역 조각을 그 시기 국경에 맞춰 묶고, 조각이 역사 경계와 다른 곳은 선을 그어 나눈 근사. 유럽 밖(시베리아·중앙아시아·극동)은 대략적인 추정. 운영자 검수 필요"},"geometry":{"type":"MultiPolygon","coordinates":[[[[-2.3385,38.0265],[-2.3612,38.0243],[-2.4658,38.0494],[-2.5474,38.0806],[-2.4448,38.1882],[-2.4489,38.2223],[-2.4303,38.2588],[-2.4401,38.2828],[-2.4711,38.2982],[-2.4887,38.3987],[-2.5572,38.4145],[-2.574,38.4346],[-2.5738,38.502],[-2.6428,38.5093],[-2.6752,38.5002],[-2.756,38.5331],[-2.7469,38.5469],[-2.7655,38.5737],[-2.751,38.6055],[-2.7285,38.6246],[-2.6793,38.6355],[-2.6453,38.7074],[-2.6507,38.7422],[-2.6818,38.7771],[-2.7318,38.7901],[-2.7492,38.8113],[-2.7624,38.8808],[-2.7995,38.9079],[-2.8706,38.9121],[-2.8798,38.9455],[-2.8074,39.0538],[-2.8098,39.0845],[-2.8427,39.1344],[-2.7222,39.2686],[-2.7421,39.318],[-2.7891,39.3976],[-2.8307,39.3551],[-2.8825,39.351],[-2.8966,39.3667],[-2.8698,39.3904],[-2.9072,39.4302],[-2.9312,39.4714],[-2.9254,39.6018],[-2.9082,39.6423],[-2.9995,39.7219],[-3.0153,39.7645],[-3.0407,39.7875],[-3.0596,39.8376],[-3.0963,39.8691],[-3.1251,39.8781],[-3.097,39.9333],[-3.0966,39.9868],[-3.1426,39.9851],[-3.1701,40.0483],[-3.1635,40.0662],[-3.0938,40.0726],[-3.063,40.0981],[-3.0857,40.1457],[-3.0728,40.1576],[-3.0637,40.1684],[-3.0143,40.1553],[-3.0198,40.1931],[-2.9981,40.2092],[-2.947,40.1698],[-2.9128,40.1576],[-2.8852,40.1727],[-2.8662,40.1979],[-2.8163,40.2099],[-2.801,40.2665],[-2.8154,40.3254],[-2.8077,40.4069],[-2.7699,40.4213],[-2.7229,40.3973],[-2.6795,40.4332],[-2.6269,40.4531],[-2.5753,40.4479],[-2.5128,40.4197],[-2.5081,40.4511],[-2.535,40.4698],[-2.5287,40.4989],[-2.5454,40.5372],[-2.5278,40.5441],[-2.488,40.513],[-2.4321,40.5356],[-2.3979,40.5287],[-2.3901,40.5502],[-2.4161,40.5801],[-2.4078,40.6064],[-2.389,40.6108],[-2.3309,40.5733],[-2.2929,40.5948],[-2.2914,40.6333],[-2.2742,40.6462],[-2.2119,40.6234],[-2.1773,40.6286],[-2.157,40.6588],[-2.0857,40.6411],[-2.0311,40.5994],[-1.9828,40.5872],[-1.9555,40.5991],[-1.9299,40.5927],[-1.8916,40.533],[-1.8564,40.4288],[-1.8083,40.402],[-1.7793,40.3922],[-1.7206,40.3354],[-1.7136,40.2877],[-1.7,40.2948],[-1.6601,40.283],[-1.5551,40.2054],[-1.4444,40.1967],[-1.4485,40.1498],[-1.3641,40.1396],[-1.3245,40.1493],[-1.3142,40.1953],[-1.2946,40.2016],[-1.2715,40.1627],[-1.2347,40.123],[-1.1511,40.1101],[-1.08,40.0658],[-1.0917,40.0346],[-1.1627,40.0115],[-1.1455,39.9723],[-1.1294,39.964],[-1.0535,39.9788],[-1.0003,39.9792],[-0.9231,39.956],[-0.9048,39.9346],[-0.9121,39.9064],[-0.9024,39.8654],[-0.8781,39.8522],[-0.847,39.8553],[-0.7913,39.8775],[-0.8238,39.9063],[-0.8391,39.9458],[-0.8244,39.9815],[-0.7662,40.0094],[-0.7467,40.0414],[-0.6839,40.0444],[-0.6143,40.0717],[-0.6134,40.1139],[-0.5832,40.1348],[-0.5523,40.2003],[-0.5442,40.2401],[-0.5011,40.2303],[-0.4423,40.2378],[-0.3914,40.2639],[-0.3909,40.2956],[-0.3317,40.3457],[-0.2921,40.3655],[-0.2891,40.3892],[-0.3355,40.4278],[-0.3237,40.457],[-0.2774,40.4718],[-0.2806,40.4999],[-0.2967,40.5079],[-0.2944,40.6058],[-0.3251,40.6042],[-0.3746,40.6182],[-0.3773,40.6602],[-0.3458,40.6739],[-0.313,40.6629],[-0.2341,40.6948],[-0.2234,40.7453],[-0.1948,40.776],[-0.1658,40.7799],[-0.0745,40.7308],[0.0182,40.7261],[0.045,40.6962],[0.0815,40.7164],[0.173,40.7309],[0.2193,40.7305],[0.2438,40.703],[0.2877,40.6838],[0.2762,40.6543],[0.2931,40.6321],[0.3875,40.6037],[0.4369,40.5774],[0.4561,40.5492],[0.5238,40.5262],[0.5193,40.5178],[0.5442,40.5178],[0.4977,40.4759],[0.4654,40.4469],[0.4513,40.4288],[0.4461,40.4084],[0.4203,40.3883],[0.3506,40.2849],[0.2988,40.2468],[0.2647,40.2098],[0.2485,40.1993],[0.1728,40.122],[0.1445,40.0788],[0.117,40.0563],[0.0662,40.0319],[0.0587,40.0234],[-0.0791,39.7321],[-0.0963,39.6957],[-0.1136,39.6593],[-0.148,39.5865],[-0.2169,39.4408],[-0.2787,39.3102],[-0.1695,39.1495],[-0.088,39.0296],[-0.0298,38.944],[-0.014,38.9208],[0.0052,38.8925],[0.0188,38.8725],[0.023,38.871],[0.06,38.8583],[0.111,38.8499],[0.154,38.831],[0.1853,38.8035],[0.1744,38.7979],[0.1786,38.7915],[0.2179,38.7681],[0.2277,38.7346],[0.1921,38.7304],[0.1626,38.7135],[0.145,38.6863],[0.1257,38.6855],[0.083,38.661],[0.0604,38.6348],[0.0237,38.6297],[-0.052,38.5848],[-0.0563,38.5828],[-0.06,38.5527],[-0.0902,38.5353],[-0.1317,38.5353],[-0.1606,38.5289],[-0.466,38.2928],[-0.5359,38.0825],[-0.61,37.8594],[-0.6193,37.8315],[-0.6286,37.8036],[-0.6471,37.7478],[-0.682,37.6429],[-0.7072,37.6362],[-0.7053,37.6195],[-0.7279,37.6034],[-0.764,37.5996],[-0.7673,37.5985],[-0.772,37.5953],[-0.8224,37.5797],[-0.8272,37.5793],[-0.8364,37.5764],[-0.8661,37.5764],[-0.8757,37.5757],[-0.9252,37.5559],[-0.9582,37.5699],[-1.4029,37.4525],[-1.438,37.4432],[-1.4768,37.4011],[-1.5293,37.3441],[-1.5555,37.3156],[-1.5817,37.2871],[-1.5817,37.2929],[-1.5817,37.3156],[-1.5817,37.3292],[-1.6264,37.3292],[-1.6264,37.3577],[-1.6264,37.3655],[-1.6264,37.3863],[-1.6416,37.381],[-1.7324,37.4384],[-1.7927,37.4507],[-1.8057,37.4375],[-1.8384,37.4548],[-2.0007,37.6538],[-2.0044,37.7045],[-1.9952,37.7355],[-2.0028,37.788],[-1.9828,37.8708],[-2.077,37.8811],[-2.1255,37.8987],[-2.1718,37.8964],[-2.2097,37.9157],[-2.2614,37.9535],[-2.2962,38.0006],[-2.3385,38.0265]]],[[[1.4455,38.6716],[1.4128,38.6464],[1.3829,38.6421],[1.3828,38.7116],[1.4078,38.7231],[1.4164,38.7397],[1.4344,38.7693],[1.4347,38.7691],[1.4348,38.7693],[1.496,38.712],[1.5932,38.7016],[1.5932,38.6716],[1.5774,38.6628],[1.5814,38.6531],[1.5234,38.6494],[1.478,38.6716],[1.4455,38.6716]]],[[[1.586,39.0055],[1.5762,38.9858],[1.5412,38.9678],[1.5098,38.9302],[1.4587,38.9001],[1.445,38.9132],[1.4408,38.91],[1.4096,38.8574],[1.4092,38.8575],[1.4092,38.8574],[1.4081,38.8575],[1.4031,38.8323],[1.3707,38.8318],[1.3435,38.8624],[1.3078,38.8579],[1.3003,38.8705],[1.2666,38.8703],[1.2599,38.8579],[1.2166,38.8851],[1.2122,38.9032],[1.2368,38.9652],[1.2505,38.9658],[1.2544,38.9741],[1.2992,38.9824],[1.2928,39.0333],[1.3214,39.0531],[1.348,39.0817],[1.4474,39.1001],[1.4507,39.1018],[1.4596,39.1024],[1.5292,39.1153],[1.5371,39.118],[1.5393,39.1171],[1.564,39.1217],[1.5641,39.1216],[1.5644,39.1217],[1.6148,39.0869],[1.6256,39.0383],[1.6255,39.0382],[1.6256,39.0379],[1.621,39.0342],[1.6231,39.0292],[1.6103,39.0254],[1.586,39.0055]]],[[[3.4,39.6101],[3.3987,39.6077],[3.406,39.592],[3.3324,39.5314],[3.2947,39.4802],[3.2918,39.4758],[3.2825,39.4201],[3.2688,39.4276],[3.2526,39.3862],[3.221,39.3599],[3.1294,39.3157],[3.0608,39.2691],[3.0293,39.3046],[3.0013,39.3177],[2.997,39.3306],[2.9212,39.3595],[2.9126,39.3587],[2.8255,39.3636],[2.7866,39.3759],[2.7617,39.4002],[2.7512,39.4548],[2.7366,39.4621],[2.7496,39.4909],[2.7448,39.5101],[2.7016,39.5414],[2.6335,39.5552],[2.576,39.531],[2.5629,39.5217],[2.5449,39.493],[2.5202,39.4728],[2.4927,39.4702],[2.469,39.5059],[2.4736,39.51],[2.4568,39.531],[2.4373,39.5337],[2.3919,39.5237],[2.3556,39.5587],[2.3577,39.6119],[2.4223,39.6433],[2.5122,39.6957],[2.5176,39.7001],[2.5215,39.7011],[2.6259,39.7619],[2.6314,39.7701],[2.6399,39.7701],[2.6782,39.7924],[2.7039,39.8142],[2.7412,39.8291],[2.7756,39.8492],[2.8132,39.8726],[2.8248,39.8726],[2.9032,39.9081],[3.1588,39.9706],[3.159,39.9706],[3.1592,39.9706],[3.1745,39.9672],[3.1795,39.9688],[3.184,39.9652],[3.1988,39.9619],[3.1985,39.9616],[3.1988,39.9615],[3.1946,39.9565],[3.2036,39.9492],[3.1823,39.942],[3.1664,39.9233],[3.1664,39.9081],[3.198,39.8911],[3.2068,39.893],[3.1931,39.8596],[3.1875,39.8577],[3.1592,39.8365],[3.1449,39.79],[3.2418,39.7571],[3.3424,39.7866],[3.3427,39.7866],[3.3428,39.7866],[3.3968,39.7779],[3.4508,39.7623],[3.4527,39.7511],[3.4744,39.7497],[3.4675,39.6876],[3.4432,39.6458],[3.4228,39.6385],[3.4148,39.6264],[3.4,39.6101]]],[[[4.3016,39.858],[4.3001,39.8218],[4.2481,39.8165],[4.1772,39.8433],[4.0151,39.9258],[3.9413,39.9368],[3.8693,39.9255],[3.8307,39.9361],[3.846,39.9732],[3.8428,39.9754],[3.8428,39.9758],[3.8435,39.9882],[3.8034,40.0132],[3.8219,40.0476],[3.8508,40.0526],[3.8536,40.0626],[4.0588,40.0747],[4.0589,40.0747],[4.0592,40.0747],[4.0801,40.0694],[4.1051,40.0794],[4.1224,40.0588],[4.1663,40.0478],[4.1765,40.0592],[4.178,40.0449],[4.2248,40.0331],[4.2518,39.9982],[4.2546,39.9975],[4.2717,39.9726],[4.2949,39.9426],[4.298,39.942],[4.2997,39.9363],[4.3148,39.9168],[4.322,39.8977],[4.3219,39.8975],[4.322,39.8973],[4.3208,39.895],[4.3371,39.8672],[4.3137,39.8812],[4.3016,39.858]]]]}}
]}
