{
 "type": "FeatureCollection",
 "features": [
  {
   "type": "Feature",
   "properties": {
    "entityId": "tamna-chonggwanbu",
    "from": 1273,
    "to": 1294,
    "certainty": "estimated",
    "source": "중고등학교 한국사 교과서 시대별 지도의 일반적인 경계를 따른 대략적인 추정. 운영자 검수 필요"
   },
   "geometry": {
    "type": "Polygon",
    "coordinates": [
     [
      [
       125.9,
       32.9
      ],
      [
       127.2,
       32.9
      ],
      [
       127.2,
       33.7
      ],
      [
       125.9,
       33.7
      ],
      [
       125.9,
       32.9
      ]
     ]
    ]
   }
  }
 ]
}
