{"type":"FeatureCollection","features":[
{"type":"Feature","properties":{"entityId":"tao-klarjeti","from":813,"to":888,"certainty":"estimated","source":"유럽 쪽은 Natural Earth 1:10m admin-1(v5.1.2) 현대 행정구역 조각을 그 시기 국경에 맞춰 묶고, 조각이 역사 경계와 다른 곳은 선을 그어 나눈 근사. 유럽 밖(시베리아·중앙아시아·극동)은 대략적인 추정. 운영자 검수 필요"},"geometry":{"type":"Polygon","coordinates":[[[41.5,41.3],[41.6,41.1],[41.75,40.95],[42.0228,40.911],[41.9589,40.8775],[41.946,40.8385],[41.9526,40.7956],[41.9272,40.7551],[41.8874,40.7244],[41.868,40.6847],[41.8664,40.6397],[41.8208,40.5876],[41.7541,40.6155],[41.95,40.4],[42.25,40.35],[42.3444,40.3395],[42.3906,40.3596],[42.4568,40.3972],[42.5382,40.4307],[42.5141,40.5305],[42.537,40.5992],[42.6522,40.6157],[42.7719,40.6253],[42.7911,40.6971],[42.8054,40.8169],[42.8294,40.8935],[42.9491,40.9414],[43.2749,41.0468],[43.3755,41.0899],[43.4404,41.1066],[43.4701,41.1062],[43.5241,41.1228],[43.5666,41.1241],[43.7297,41.1067],[43.7737,41.1145],[43.8204,41.1455],[43.8632,41.159],[43.9778,41.1645],[43.9782,41.1646],[43.9675,41.2167],[43.9441,41.2471],[43.937,41.2912],[43.9515,41.3354],[43.937,41.3759],[43.9161,41.3858],[43.901,41.466],[43.8474,41.5219],[43.7997,41.5239],[43.7517,41.5148],[43.6727,41.5185],[43.7039,41.5674],[43.7102,41.6674],[43.7331,41.6987],[43.7772,41.6932],[43.8369,41.6951],[43.8862,41.7342],[43.8441,41.7725],[43.739,41.7674],[43.6722,41.7914],[43.6574,41.8179],[43.6266,41.8218],[43.5691,41.8637],[43.5544,41.8938],[43.4541,41.918],[43.4262,41.9166],[43.1274,41.8254],[43.0936,41.832],[42.9909,41.8252],[42.9481,41.8118],[42.903,41.8124],[42.8171,41.8261],[42.7114,41.8059],[42.6496,41.8334],[42.6017,41.8217],[42.5761,41.7936],[42.5312,41.8027],[42.4817,41.7987],[42.4435,41.8055],[42.4055,41.8349],[42.3559,41.8324],[42.3024,41.8073],[42.2298,41.7986],[42.1505,41.8246],[42.063,41.8114],[42.0007,41.843],[41.9516,41.8583],[41.9463,41.8793],[41.9047,41.8978],[41.7739,41.9026],[41.7739,41.8847],[41.6768,41.8847],[41.5681,41.5782],[41.558,41.5644],[41.5229,41.53],[41.52,41.5271],[41.52,41.48],[41.5,41.3]]]}},
{"type":"Feature","properties":{"entityId":"tao-klarjeti","from":888,"to":904,"certainty":"estimated","source":"유럽 쪽은 Natural Earth 1:10m admin-1(v5.1.2) 현대 행정구역 조각을 그 시기 국경에 맞춰 묶고, 조각이 역사 경계와 다른 곳은 선을 그어 나눈 근사. 유럽 밖(시베리아·중앙아시아·극동)은 대략적인 추정. 운영자 검수 필요"},"geometry":{"type":"Polygon","coordinates":[[[41.5,41.3],[41.6,41.1],[41.75,40.95],[42.0228,40.911],[41.9589,40.8775],[41.946,40.8385],[41.9526,40.7956],[41.9272,40.7551],[41.8874,40.7244],[41.868,40.6847],[41.8664,40.6397],[41.8208,40.5876],[41.7541,40.6155],[41.95,40.4],[42.25,40.35],[42.3444,40.3395],[42.3906,40.3596],[42.4568,40.3972],[42.5382,40.4307],[42.5141,40.5305],[42.537,40.5992],[42.6522,40.6157],[42.7719,40.6253],[42.7911,40.6971],[42.8054,40.8169],[42.8294,40.8935],[42.9491,40.9414],[43.2749,41.0468],[43.3755,41.0899],[43.4404,41.1066],[43.4701,41.1062],[43.5241,41.1228],[43.5666,41.1241],[43.7297,41.1067],[43.7737,41.1145],[43.8204,41.1455],[43.8632,41.159],[43.9778,41.1645],[43.9782,41.1646],[44.0413,41.1826],[44.1036,41.1752],[44.1601,41.1979],[44.1684,41.2236],[44.191,41.23],[44.2665,41.1962],[44.3085,41.1938],[44.3573,41.2122],[44.4106,41.1877],[44.4549,41.1805],[44.5166,41.2068],[44.531,41.1815],[44.5515,41.177],[44.5914,41.2158],[44.6129,41.2231],[44.6749,41.2085],[44.8215,41.2062],[44.8538,41.2235],[44.8095,41.2444],[44.8207,41.2733],[44.9172,41.2618],[44.9552,41.2627],[45.0024,41.2905],[45.0978,41.3499],[45.2496,41.4445],[45.2817,41.4529],[45.3331,41.4444],[45.3082,41.5113],[45.2896,41.5312],[45.2263,41.5397],[45.2083,41.5486],[45.1956,41.5952],[45.2299,41.6545],[45.2031,41.7401],[45.1855,41.767],[45.1474,41.77],[45.1143,41.788],[45.0662,41.8375],[45.0528,41.867],[45.0214,41.8811],[45.0778,41.9165],[45.1326,41.8898],[45.2129,41.8983],[45.1771,41.9307],[45.0817,41.9479],[45.0723,41.9788],[45.0878,42.0061],[45.0698,42.0377],[45.055,42.1045],[45.0688,42.1277],[45.0842,42.1849],[45.1032,42.2076],[45.1237,42.2581],[45.174,42.2985],[45.2146,42.3063],[45.2236,42.345],[45.2108,42.385],[45.2205,42.4083],[45.2583,42.4485],[45.2552,42.4789],[45.269,42.5242],[45.3016,42.5598],[45.2827,42.5864],[45.1842,42.6748],[45.123,42.7023],[45.076,42.6914],[45.0481,42.6859],[45.0121,42.6953],[44.903,42.7531],[44.8594,42.7595],[44.8337,42.7341],[44.7985,42.6717],[44.7823,42.6167],[44.7611,42.6192],[44.7364,42.6776],[44.6794,42.7237],[44.6388,42.7401],[44.5583,42.7531],[44.4792,42.7443],[44.4014,42.7135],[44.3607,42.7038],[44.272,42.7024],[44.2301,42.6538],[44.1858,42.6265],[44.1508,42.6187],[44.0551,42.6153],[44.0115,42.6003],[43.9732,42.564],[43.9397,42.5522],[43.9082,42.5662],[43.9022,42.5156],[43.8489,42.4874],[43.8271,42.4582],[43.808,42.4515],[43.669,42.4433],[43.5874,42.3947],[43.6228,42.3787],[43.6617,42.3743],[43.7501,42.394],[43.7728,42.374],[43.7602,42.309],[43.6835,42.2935],[43.6159,42.2578],[43.6077,42.2281],[43.6082,42.1702],[43.5807,42.1511],[43.549,42.0963],[43.4889,42.0574],[43.4847,42.0151],[43.4695,41.9793],[43.4335,41.9554],[43.4262,41.9166],[43.1274,41.8254],[43.0936,41.832],[42.9909,41.8252],[42.9481,41.8118],[42.903,41.8124],[42.8171,41.8261],[42.7114,41.8059],[42.6496,41.8334],[42.6017,41.8217],[42.5761,41.7936],[42.5312,41.8027],[42.4817,41.7987],[42.4435,41.8055],[42.4055,41.8349],[42.3559,41.8324],[42.3024,41.8073],[42.2298,41.7986],[42.1505,41.8246],[42.063,41.8114],[42.0007,41.843],[41.9516,41.8583],[41.9463,41.8793],[41.9047,41.8978],[41.7739,41.9026],[41.7739,41.8847],[41.6768,41.8847],[41.5681,41.5782],[41.558,41.5644],[41.5229,41.53],[41.52,41.5271],[41.52,41.48],[41.5,41.3]]]}},
{"type":"Feature","properties":{"entityId":"tao-klarjeti","from":904,"to":981,"certainty":"estimated","source":"유럽 쪽은 Natural Earth 1:10m admin-1(v5.1.2) 현대 행정구역 조각을 그 시기 국경에 맞춰 묶고, 조각이 역사 경계와 다른 곳은 선을 그어 나눈 근사. 유럽 밖(시베리아·중앙아시아·극동)은 대략적인 추정. 운영자 검수 필요"},"geometry":{"type":"Polygon","coordinates":[[[41.5,41.3],[41.6,41.1],[41.75,40.95],[42.0228,40.911],[41.9589,40.8775],[41.946,40.8385],[41.9526,40.7956],[41.9272,40.7551],[41.8874,40.7244],[41.868,40.6847],[41.8664,40.6397],[41.8208,40.5876],[41.7541,40.6155],[41.95,40.4],[42.25,40.35],[42.3444,40.3395],[42.3906,40.3596],[42.4568,40.3972],[42.5382,40.4307],[42.5141,40.5305],[42.537,40.5992],[42.6522,40.6157],[42.7719,40.6253],[42.7911,40.6971],[42.8054,40.8169],[42.8294,40.8935],[42.9491,40.9414],[43.2749,41.0468],[43.3755,41.0899],[43.4404,41.1066],[43.4701,41.1062],[43.5241,41.1228],[43.5666,41.1241],[43.7297,41.1067],[43.7737,41.1145],[43.8204,41.1455],[43.8632,41.159],[43.9778,41.1645],[43.9782,41.1646],[43.9675,41.2167],[43.9441,41.2471],[43.937,41.2912],[43.9515,41.3354],[43.937,41.3759],[43.9161,41.3858],[43.901,41.466],[43.8474,41.5219],[43.7997,41.5239],[43.7517,41.5148],[43.6727,41.5185],[43.7039,41.5674],[43.7102,41.6674],[43.7331,41.6987],[43.7772,41.6932],[43.8369,41.6951],[43.8862,41.7342],[43.8441,41.7725],[43.739,41.7674],[43.6722,41.7914],[43.6574,41.8179],[43.6266,41.8218],[43.5691,41.8637],[43.5544,41.8938],[43.4541,41.918],[43.4262,41.9166],[43.1274,41.8254],[43.0936,41.832],[42.9909,41.8252],[42.9481,41.8118],[42.903,41.8124],[42.8171,41.8261],[42.7114,41.8059],[42.6496,41.8334],[42.6017,41.8217],[42.5761,41.7936],[42.5312,41.8027],[42.4817,41.7987],[42.4435,41.8055],[42.4055,41.8349],[42.3559,41.8324],[42.3024,41.8073],[42.2298,41.7986],[42.1505,41.8246],[42.063,41.8114],[42.0007,41.843],[41.9516,41.8583],[41.9463,41.8793],[41.9047,41.8978],[41.7739,41.9026],[41.7739,41.8847],[41.6768,41.8847],[41.5681,41.5782],[41.558,41.5644],[41.5229,41.53],[41.52,41.5271],[41.52,41.48],[41.5,41.3]]]}},
{"type":"Feature","properties":{"entityId":"tao-klarjeti","from":981,"to":1000,"certainty":"estimated","source":"유럽 쪽은 Natural Earth 1:10m admin-1(v5.1.2) 현대 행정구역 조각을 그 시기 국경에 맞춰 묶고, 조각이 역사 경계와 다른 곳은 선을 그어 나눈 근사. 유럽 밖(시베리아·중앙아시아·극동)은 대략적인 추정. 운영자 검수 필요"},"geometry":{"type":"Polygon","coordinates":[[[41.5,41.3],[41.6,41.1],[41.75,40.95],[42.0228,40.911],[41.9589,40.8775],[41.946,40.8385],[41.9526,40.7956],[41.9272,40.7551],[41.8874,40.7244],[41.868,40.6847],[41.8664,40.6397],[41.8208,40.5876],[41.7541,40.6155],[41.95,40.4],[42.25,40.35],[42.3444,40.3395],[42.3906,40.3596],[42.4568,40.3972],[42.5382,40.4307],[42.5141,40.5305],[42.537,40.5992],[42.6522,40.6157],[42.7719,40.6253],[42.7911,40.6971],[42.8054,40.8169],[42.8294,40.8935],[42.9491,40.9414],[43.2749,41.0468],[43.3755,41.0899],[43.4404,41.1066],[43.4518,41.1326],[43.4376,41.1562],[43.3833,41.1872],[43.3226,41.1921],[43.2306,41.1726],[43.2162,41.1805],[43.1922,41.225],[43.172,41.2423],[43.1031,41.2488],[43.1572,41.2697],[43.1854,41.2938],[43.1239,41.3129],[43.0756,41.3449],[43.0021,41.3827],[42.9577,41.437],[42.9261,41.4591],[42.889,41.47],[42.868,41.5002],[42.83,41.4725],[42.7665,41.5043],[42.8027,41.5341],[42.8199,41.5723],[42.8009,41.5792],[42.661,41.5883],[42.5866,41.5791],[42.555,41.5503],[42.5455,41.5096],[42.4838,41.4422],[42.451,41.4314],[42.4379,41.4309],[42.2625,41.4823],[42.1893,41.4817],[42.1584,41.4999],[42.1118,41.4935],[42.0835,41.5001],[42.0196,41.4851],[41.948,41.5056],[41.894,41.4855],[41.8627,41.4518],[41.813,41.4218],[41.761,41.4535],[41.7185,41.4596],[41.7026,41.489],[41.6273,41.4805],[41.5208,41.5142],[41.5325,41.53],[41.5229,41.53],[41.52,41.5271],[41.52,41.48],[41.5,41.3]]]}}
]}
