{"type":"FeatureCollection","features":[
{"type":"Feature","properties":{"entityId":"teutonic-order","from":1300,"to":1309,"certainty":"estimated","source":"유럽 쪽은 Natural Earth 1:10m admin-1(v5.1.2) 현대 행정구역 조각을 그 시기 국경에 맞춰 묶고, 조각이 역사 경계와 다른 곳은 선을 그어 나눈 근사. 유럽 밖(시베리아·중앙아시아·극동)은 대략적인 추정. 운영자 검수 필요"},"geometry":{"type":"Polygon","coordinates":[[[18.1,53.13],[18.3,53.1],[18.45,53.1],[18.45,52.93],[18.95,52.93],[18.95,53.0167],[19.05,53.1],[19.3,53.18],[19.45,53.22],[19.7096,53.22],[19.6813,53.263],[19.7329,53.1846],[19.7479,53.0931],[19.8112,53.1129],[19.8371,53.1437],[19.8768,53.1511],[19.9248,53.1273],[20.2406,53.098],[20.3158,53.1063],[20.3719,53.1337],[20.3889,53.1675],[20.4198,53.182],[20.4948,53.1861],[20.6346,53.2346],[20.704,53.2759],[20.7756,53.2754],[20.8391,53.2834],[20.9123,53.3086],[21.0079,53.3084],[21.0979,53.3256],[21.1737,53.3796],[21.2626,53.3746],[21.308,53.3788],[21.3488,53.3961],[21.3774,53.4299],[21.402,53.4379],[21.523,53.4435],[21.5957,53.4626],[21.7388,53.4576],[21.8016,53.4708],[21.8626,53.4927],[21.9373,53.4993],[22.1099,53.5699],[22.207,53.6352],[22.4856,53.7379],[22.543,53.7739],[22.5779,53.8322],[22.6185,53.8782],[22.6221,53.9248],[22.516,54.0124],[22.4652,54.0417],[22.4491,54.0992],[22.3481,54.1786],[22.4422,54.257],[22.6653,54.2753],[22.7317,54.3017],[22.7887,54.3366],[22.8113,54.3926],[22.7672,54.3563],[22.707,54.4187],[22.6804,54.4532],[22.6746,54.4923],[22.6817,54.5699],[22.7081,54.6356],[22.7051,54.6865],[22.727,54.7053],[22.7248,54.7234],[22.7648,54.7371],[22.8328,54.7787],[22.8484,54.8138],[22.8293,54.8727],[22.8089,54.8938],[22.7492,54.9099],[22.7521,54.9311],[22.7155,54.9514],[22.6335,54.9579],[22.6084,54.9924],[22.5916,55.0376],[22.5712,55.064],[22.5411,55.0758],[22.4363,55.0578],[22.2699,55.0695],[22.2513,55.0709],[22.1427,55.0546],[22.0999,55.0299],[22.05,55.0335],[22.0277,55.0444],[22.0154,55.0884],[21.9775,55.092],[21.9428,55.0783],[21.8732,55.0949],[21.8199,55.1193],[21.7506,55.128],[21.7162,55.1495],[21.6458,55.181],[21.6051,55.1925],[21.5039,55.1944],[21.4677,55.2112],[21.4055,55.2724],[21.3749,55.29],[21.3498,55.2878],[21.2676,55.2487],[21.2676,55.2449],[21.2328,55.2449],[21.2301,55.2031],[21.2229,55.2015],[21.2017,55.2144],[21.1813,55.1933],[21.186,55.171],[20.6948,55.0559],[20.7736,55.1145],[20.8237,55.1431],[20.884,55.1981],[20.9131,55.2332],[20.9894,55.2731],[20.9246,55.2827],[20.9361,55.2941],[20.9066,55.2941],[20.8998,55.2873],[20.8458,55.2318],[20.8262,55.2166],[20.6802,55.1033],[20.674,55.0991],[20.5659,55.0257],[20.2632,54.9547],[20.2514,54.9549],[20.2058,54.9584],[20.1844,54.9561],[20.1082,54.9575],[20.1078,54.9575],[20.0939,54.9537],[20.075,54.9544],[20.0337,54.9482],[19.9959,54.9681],[19.9767,54.9646],[19.9408,54.9344],[19.9207,54.8896],[19.9267,54.8758],[19.8882,54.8668],[19.7801,54.657],[19.7291,54.558],[19.7076,54.5163],[19.6519,54.4857],[19.6133,54.4645],[19.6133,54.4588],[19.6095,54.4567],[19.6803,54.4367],[19.7583,54.4343],[19.7205,54.391],[19.6839,54.3814],[19.6192,54.3535],[19.5634,54.3463],[19.4347,54.2971],[19.3652,54.2282],[19.3863,54.2766],[19.2739,54.2816],[19.2497,54.2654],[19.2428,54.2313],[19.2958,54.1465],[19.2688,54.112],[19.2093,54.0721],[19.2301,54.0095],[19.2636,53.9769],[19.3118,53.9601],[19.3632,53.9561],[19.3708,53.95],[19.3892,53.9352],[19.3698,53.8958],[19.4054,53.8855],[19.5044,53.8903],[19.5544,53.8822],[19.5504,53.8493],[19.5201,53.8251],[19.5,53.7873],[19.5,53.88],[18.86,53.88],[18.86,53.6],[19.1681,53.6],[19.2759,53.7193],[19.1283,53.5559],[19.0741,53.5416],[18.9601,53.5375],[18.8746,53.5623],[18.8088,53.6027],[18.8046,53.6046],[18.72,53.52],[18.55,53.43],[18.42,53.35],[18.3,53.25],[18.1,53.13]]]}},
{"type":"Feature","properties":{"entityId":"teutonic-order","from":1309,"to":1329,"certainty":"estimated","source":"유럽 쪽은 Natural Earth 1:10m admin-1(v5.1.2) 현대 행정구역 조각을 그 시기 국경에 맞춰 묶고, 조각이 역사 경계와 다른 곳은 선을 그어 나눈 근사. 유럽 밖(시베리아·중앙아시아·극동)은 대략적인 추정. 운영자 검수 필요"},"geometry":{"type":"Polygon","coordinates":[[[17.3356,53.4712],[17.3528,53.4656],[17.3972,53.4338],[17.4252,53.444],[17.4554,53.5069],[17.5076,53.5616],[17.5445,53.5639],[17.6832,53.5424],[17.7455,53.5573],[17.7556,53.6058],[17.7877,53.6236],[17.8564,53.6388],[17.8971,53.6832],[17.9241,53.6956],[18.0511,53.681],[18.2205,53.696],[18.2557,53.6942],[18.3179,53.6532],[18.4978,53.6354],[18.583,53.6053],[18.6779,53.6321],[18.7594,53.6252],[18.8046,53.6046],[18.72,53.52],[18.55,53.43],[18.42,53.35],[18.3,53.25],[18.1,53.13],[18.3,53.1],[18.45,53.1],[18.45,52.93],[18.95,52.93],[18.95,53.0167],[19.05,53.1],[19.3,53.18],[19.45,53.22],[19.7096,53.22],[19.6813,53.263],[19.7329,53.1846],[19.7479,53.0931],[19.8112,53.1129],[19.8371,53.1437],[19.8768,53.1511],[19.9248,53.1273],[20.2406,53.098],[20.3158,53.1063],[20.3719,53.1337],[20.3889,53.1675],[20.4198,53.182],[20.4948,53.1861],[20.6346,53.2346],[20.704,53.2759],[20.7756,53.2754],[20.8391,53.2834],[20.9123,53.3086],[21.0079,53.3084],[21.0979,53.3256],[21.1737,53.3796],[21.2626,53.3746],[21.308,53.3788],[21.3488,53.3961],[21.3774,53.4299],[21.402,53.4379],[21.523,53.4435],[21.5957,53.4626],[21.7388,53.4576],[21.8016,53.4708],[21.8626,53.4927],[21.9373,53.4993],[22.1099,53.5699],[22.207,53.6352],[22.4856,53.7379],[22.543,53.7739],[22.5779,53.8322],[22.6185,53.8782],[22.6221,53.9248],[22.516,54.0124],[22.4652,54.0417],[22.4491,54.0992],[22.3481,54.1786],[22.4422,54.257],[22.6653,54.2753],[22.7317,54.3017],[22.7887,54.3366],[22.8113,54.3926],[22.7672,54.3563],[22.707,54.4187],[22.6804,54.4532],[22.6746,54.4923],[22.6817,54.5699],[22.7081,54.6356],[22.7051,54.6865],[22.727,54.7053],[22.7248,54.7234],[22.7648,54.7371],[22.8328,54.7787],[22.8484,54.8138],[22.8293,54.8727],[22.8089,54.8938],[22.7492,54.9099],[22.7521,54.9311],[22.7155,54.9514],[22.6335,54.9579],[22.6084,54.9924],[22.5916,55.0376],[22.5712,55.064],[22.5411,55.0758],[22.4363,55.0578],[22.2699,55.0695],[22.2513,55.0709],[22.1427,55.0546],[22.0999,55.0299],[22.05,55.0335],[22.0277,55.0444],[22.0154,55.0884],[21.9775,55.092],[21.9428,55.0783],[21.8732,55.0949],[21.8199,55.1193],[21.7506,55.128],[21.7162,55.1495],[21.6458,55.181],[21.6051,55.1925],[21.5039,55.1944],[21.4677,55.2112],[21.4055,55.2724],[21.3749,55.29],[21.3498,55.2878],[21.2676,55.2487],[21.2676,55.2449],[21.2328,55.2449],[21.2301,55.2031],[21.2229,55.2015],[21.2017,55.2144],[21.1813,55.1933],[21.186,55.171],[20.6948,55.0559],[20.7736,55.1145],[20.8237,55.1431],[20.884,55.1981],[20.9131,55.2332],[20.9894,55.2731],[20.9246,55.2827],[20.9361,55.2941],[20.9066,55.2941],[20.8998,55.2873],[20.8458,55.2318],[20.8262,55.2166],[20.6802,55.1033],[20.674,55.0991],[20.5659,55.0257],[20.2632,54.9547],[20.2514,54.9549],[20.2058,54.9584],[20.1844,54.9561],[20.1082,54.9575],[20.1078,54.9575],[20.0939,54.9537],[20.075,54.9544],[20.0337,54.9482],[19.9959,54.9681],[19.9767,54.9646],[19.9408,54.9344],[19.9207,54.8896],[19.9267,54.8758],[19.8882,54.8668],[19.7801,54.657],[19.7291,54.558],[19.7076,54.5163],[19.6519,54.4857],[19.6133,54.4645],[19.6038,54.4593],[19.5746,54.4429],[19.5606,54.435],[19.5391,54.4282],[19.1874,54.4325],[18.95,54.4354],[18.697,54.4385],[18.6214,54.6823],[18.4614,54.7094],[18.45,54.727],[18.4381,54.7453],[18.45,54.7447],[18.5022,54.7418],[18.6786,54.6654],[18.7659,54.6419],[18.784,54.6235],[18.8176,54.5981],[18.8343,54.6167],[18.814,54.6432],[18.7517,54.6901],[18.6743,54.7169],[18.535,54.77],[18.45,54.7971],[18.3226,54.8377],[18.3188,54.8377],[18.3169,54.8383],[18.1524,54.8383],[18.113,54.8362],[18.0846,54.836],[18.0507,54.8333],[18.05,54.82],[17.98,54.65],[17.9,54.5],[17.85,54.35],[17.75,54.2],[17.62,54.05],[17.5,53.9],[17.4,53.6],[17.3356,53.4712]]]}},
{"type":"Feature","properties":{"entityId":"teutonic-order","from":1329,"to":1398,"certainty":"estimated","source":"유럽 쪽은 Natural Earth 1:10m admin-1(v5.1.2) 현대 행정구역 조각을 그 시기 국경에 맞춰 묶고, 조각이 역사 경계와 다른 곳은 선을 그어 나눈 근사. 유럽 밖(시베리아·중앙아시아·극동)은 대략적인 추정. 운영자 검수 필요"},"geometry":{"type":"MultiPolygon","coordinates":[[[[17.3356,53.4712],[17.3528,53.4656],[17.3972,53.4338],[17.4252,53.444],[17.4554,53.5069],[17.5076,53.5616],[17.5445,53.5639],[17.6832,53.5424],[17.7455,53.5573],[17.7556,53.6058],[17.7877,53.6236],[17.8564,53.6388],[17.8971,53.6832],[17.9241,53.6956],[18.0511,53.681],[18.2205,53.696],[18.2557,53.6942],[18.3179,53.6532],[18.4978,53.6354],[18.583,53.6053],[18.6779,53.6321],[18.7594,53.6252],[18.8046,53.6046],[18.72,53.52],[18.55,53.43],[18.42,53.35],[18.3,53.25],[18.1,53.13],[18.3,53.1],[18.45,53.1],[18.45,52.93],[18.95,52.93],[18.95,53.0167],[19.05,53.1],[19.3,53.18],[19.45,53.22],[19.7096,53.22],[19.6813,53.263],[19.7329,53.1846],[19.7479,53.0931],[19.8112,53.1129],[19.8371,53.1437],[19.8768,53.1511],[19.9248,53.1273],[20.2406,53.098],[20.3158,53.1063],[20.3719,53.1337],[20.3889,53.1675],[20.4198,53.182],[20.4948,53.1861],[20.6346,53.2346],[20.704,53.2759],[20.7756,53.2754],[20.8391,53.2834],[20.9123,53.3086],[21.0079,53.3084],[21.0979,53.3256],[21.1737,53.3796],[21.2626,53.3746],[21.308,53.3788],[21.3488,53.3961],[21.3774,53.4299],[21.402,53.4379],[21.523,53.4435],[21.5957,53.4626],[21.7388,53.4576],[21.8016,53.4708],[21.8626,53.4927],[21.9373,53.4993],[22.1099,53.5699],[22.207,53.6352],[22.4856,53.7379],[22.543,53.7739],[22.5779,53.8322],[22.6185,53.8782],[22.6221,53.9248],[22.516,54.0124],[22.4652,54.0417],[22.4491,54.0992],[22.3481,54.1786],[22.4422,54.257],[22.6653,54.2753],[22.7317,54.3017],[22.7887,54.3366],[22.8113,54.3926],[22.7672,54.3563],[22.707,54.4187],[22.6804,54.4532],[22.6746,54.4923],[22.6817,54.5699],[22.7081,54.6356],[22.7051,54.6865],[22.727,54.7053],[22.7248,54.7234],[22.7648,54.7371],[22.8328,54.7787],[22.8484,54.8138],[22.8293,54.8727],[22.8089,54.8938],[22.7492,54.9099],[22.7521,54.9311],[22.7155,54.9514],[22.6335,54.9579],[22.6084,54.9924],[22.5916,55.0376],[22.5712,55.064],[22.5411,55.0758],[22.4363,55.0578],[22.5303,55.0739],[22.3,55.12],[22.05,55.25],[21.85,55.35],[21.6,55.46],[21.45,55.6],[21.33,55.72],[21.17,55.85],[21.05,55.88],[21.0447,55.88],[21.0447,55.8737],[21.0606,55.7893],[21.0744,55.7449],[21.1213,55.7047],[21.1501,55.6525],[21.2166,55.3893],[21.1834,55.3462],[21.1888,55.3386],[21.2027,55.3462],[21.2022,55.3446],[21.2023,55.3444],[21.2022,55.3442],[21.2278,55.2867],[21.2346,55.2714],[21.2328,55.2449],[21.2301,55.2031],[21.2229,55.2015],[21.2017,55.2144],[21.1813,55.1933],[21.186,55.171],[20.6948,55.0559],[20.7736,55.1145],[20.8237,55.1431],[20.884,55.1981],[20.9131,55.2332],[20.9894,55.2731],[20.9889,55.2913],[21.0379,55.3286],[21.0735,55.3918],[21.1062,55.4212],[21.0872,55.4411],[21.1199,55.4894],[21.1199,55.527],[21.1336,55.5683],[21.1315,55.6556],[21.1174,55.6998],[21.0852,55.7228],[21.0935,55.6955],[21.0907,55.6331],[21.0994,55.613],[21.0966,55.594],[21.087,55.5824],[21.0582,55.4766],[21.015,55.4019],[20.9488,55.336],[20.9403,55.3276],[20.9066,55.2941],[20.8998,55.2873],[20.8458,55.2318],[20.8262,55.2166],[20.6802,55.1033],[20.674,55.0991],[20.5659,55.0257],[20.2632,54.9547],[20.2514,54.9549],[20.2058,54.9584],[20.1844,54.9561],[20.1082,54.9575],[20.1078,54.9575],[20.0939,54.9537],[20.075,54.9544],[20.0337,54.9482],[19.9959,54.9681],[19.9767,54.9646],[19.9408,54.9344],[19.9207,54.8896],[19.9267,54.8758],[19.8882,54.8668],[19.7801,54.657],[19.7291,54.558],[19.7076,54.5163],[19.6519,54.4857],[19.6133,54.4645],[19.6038,54.4593],[19.5746,54.4429],[19.5606,54.435],[19.5391,54.4282],[19.1874,54.4325],[18.95,54.4354],[18.697,54.4385],[18.6214,54.6823],[18.4614,54.7094],[18.45,54.727],[18.4381,54.7453],[18.45,54.7447],[18.5022,54.7418],[18.6786,54.6654],[18.7659,54.6419],[18.784,54.6235],[18.8176,54.5981],[18.8343,54.6167],[18.814,54.6432],[18.7517,54.6901],[18.6743,54.7169],[18.535,54.77],[18.45,54.7971],[18.3226,54.8377],[18.3188,54.8377],[18.3169,54.8383],[18.1524,54.8383],[18.113,54.8362],[18.0846,54.836],[18.0507,54.8333],[18.05,54.82],[17.98,54.65],[17.9,54.5],[17.85,54.35],[17.75,54.2],[17.62,54.05],[17.5,53.9],[17.4,53.6],[17.3356,53.4712]]],[[[22.562,55.0676],[22.5712,55.064],[22.575,55.065],[22.562,55.0676]]]]}},
{"type":"Feature","properties":{"entityId":"teutonic-order","from":1398,"to":1402,"certainty":"estimated","source":"유럽 쪽은 Natural Earth 1:10m admin-1(v5.1.2) 현대 행정구역 조각을 그 시기 국경에 맞춰 묶고, 조각이 역사 경계와 다른 곳은 선을 그어 나눈 근사. 유럽 밖(시베리아·중앙아시아·극동)은 대략적인 추정. 운영자 검수 필요"},"geometry":{"type":"MultiPolygon","coordinates":[[[[17.3356,53.4712],[17.3528,53.4656],[17.3972,53.4338],[17.4252,53.444],[17.4554,53.5069],[17.5076,53.5616],[17.5445,53.5639],[17.6832,53.5424],[17.7455,53.5573],[17.7556,53.6058],[17.7877,53.6236],[17.8564,53.6388],[17.8971,53.6832],[17.9241,53.6956],[18.0511,53.681],[18.2205,53.696],[18.2557,53.6942],[18.3179,53.6532],[18.4978,53.6354],[18.583,53.6053],[18.6779,53.6321],[18.7594,53.6252],[18.8046,53.6046],[18.72,53.52],[18.55,53.43],[18.42,53.35],[18.3,53.25],[18.1,53.13],[18.3,53.1],[18.45,53.1],[18.45,52.93],[18.95,52.93],[18.95,53.0167],[19.05,53.1],[19.3,53.18],[19.45,53.22],[19.7096,53.22],[19.6813,53.263],[19.7329,53.1846],[19.7479,53.0931],[19.8112,53.1129],[19.8371,53.1437],[19.8768,53.1511],[19.9248,53.1273],[20.2406,53.098],[20.3158,53.1063],[20.3719,53.1337],[20.3889,53.1675],[20.4198,53.182],[20.4948,53.1861],[20.6346,53.2346],[20.704,53.2759],[20.7756,53.2754],[20.8391,53.2834],[20.9123,53.3086],[21.0079,53.3084],[21.0979,53.3256],[21.1737,53.3796],[21.2626,53.3746],[21.308,53.3788],[21.3488,53.3961],[21.3774,53.4299],[21.402,53.4379],[21.523,53.4435],[21.5957,53.4626],[21.7388,53.4576],[21.8016,53.4708],[21.8626,53.4927],[21.9373,53.4993],[22.1099,53.5699],[22.207,53.6352],[22.4856,53.7379],[22.543,53.7739],[22.5779,53.8322],[22.6185,53.8782],[22.6221,53.9248],[22.516,54.0124],[22.4652,54.0417],[22.4491,54.0992],[22.3481,54.1786],[22.4422,54.257],[22.6653,54.2753],[22.7317,54.3017],[22.7887,54.3366],[22.8113,54.3926],[22.7672,54.3563],[22.707,54.4187],[22.6804,54.4532],[22.6746,54.4923],[22.6817,54.5699],[22.7081,54.6356],[22.7051,54.6865],[22.727,54.7053],[22.7248,54.7234],[22.7648,54.7371],[22.8328,54.7787],[22.8484,54.8138],[22.8293,54.8727],[22.8089,54.8938],[22.7492,54.9099],[22.7521,54.9311],[22.7155,54.9514],[22.6335,54.9579],[22.6084,54.9924],[22.5916,55.0376],[22.5712,55.064],[22.575,55.065],[22.5993,55.0715],[22.6442,55.0571],[22.7287,55.0659],[22.8201,55.0884],[22.871,55.0923],[22.9254,55.0835],[23.0017,55.1054],[23.3198,55.0712],[23.4123,55.0787],[23.4233,55.1097],[23.456,55.1455],[23.4531,55.1841],[23.4775,55.215],[23.4323,55.2315],[23.3755,55.2242],[23.3262,55.2455],[23.2231,55.2414],[23.1896,55.2683],[23.1555,55.2779],[23.1139,55.2695],[23.0088,55.261],[22.9961,55.271],[23.0132,55.2938],[22.9218,55.335],[22.919,55.3208],[22.8786,55.2965],[22.8062,55.3389],[22.8034,55.3844],[22.7823,55.3942],[22.7478,55.3912],[22.7266,55.4022],[22.7205,55.4305],[22.6682,55.4494],[22.6457,55.4743],[22.6768,55.4894],[22.7345,55.5021],[22.8087,55.5084],[22.8406,55.4845],[22.8665,55.4807],[23.0208,55.5155],[23.0569,55.5295],[23.0934,55.5654],[23.1142,55.5743],[23.216,55.5757],[23.252,55.5421],[23.3248,55.5673],[23.4006,55.5307],[23.4562,55.5177],[23.5298,55.5465],[23.5859,55.529],[23.5691,55.4991],[23.581,55.4832],[23.6341,55.4746],[23.6851,55.512],[23.731,55.5306],[23.8671,55.5693],[23.9155,55.6236],[23.9987,55.6368],[24.0049,55.6505],[23.9932,55.6917],[24.0274,55.7145],[24.0213,55.7626],[23.9954,55.7958],[23.9501,55.8144],[23.9374,55.8435],[23.9759,55.846],[23.9892,55.8725],[24.0511,55.8938],[24.0702,55.9338],[24.0682,55.9597],[24.0115,55.9852],[24.0032,56.0262],[24.0098,56.0451],[24.0412,56.0428],[24.0593,56.0764],[24.0912,56.1063],[24.1101,56.1474],[24.1511,56.1561],[24.1608,56.1849],[24.1295,56.1963],[24.1425,56.231],[24.1404,56.2576],[24.0752,56.2712],[23.9813,56.3124],[23.8711,56.3321],[23.825,56.3349],[23.7561,56.326],[23.725,56.3288],[23.7067,56.3544],[23.6099,56.3538],[23.5176,56.3287],[23.4816,56.3301],[23.378,56.3546],[23.3106,56.3706],[23.2884,56.373],[23.1726,56.358],[23.1542,56.3514],[23.1629,56.341],[23.1127,56.3109],[23.0623,56.3042],[23.0167,56.3239],[22.957,56.402],[22.9245,56.4121],[22.889,56.4084],[22.8596,56.3971],[22.8229,56.3829],[22.6814,56.3503],[22.6491,56.3531],[22.5782,56.387],[22.5117,56.396],[22.2149,56.3904],[22.1391,56.4157],[22.0941,56.4174],[21.9832,56.3884],[21.9653,56.3837],[21.7365,56.3237],[21.6845,56.3101],[21.596,56.3079],[21.5589,56.2973],[21.4855,56.2658],[21.4193,56.2374],[21.3583,56.2332],[21.3276,56.2244],[21.2904,56.2069],[21.2549,56.1852],[21.2296,56.1632],[21.2126,56.131],[21.2054,56.1034],[21.1904,56.0845],[21.1502,56.0782],[21.0914,56.0779],[21.0534,56.0726],[21.0427,56.1146],[21.0377,56.1263],[21.0474,56.0699],[21.0546,56.023],[21.0571,55.9488],[21.0447,55.9177],[21.0447,55.8737],[21.0606,55.7893],[21.0744,55.7449],[21.1213,55.7047],[21.1501,55.6525],[21.2166,55.3893],[21.1834,55.3462],[21.1888,55.3386],[21.2027,55.3462],[21.2022,55.3446],[21.2023,55.3444],[21.2022,55.3442],[21.2278,55.2867],[21.2346,55.2714],[21.2328,55.2449],[21.2301,55.2031],[21.2229,55.2015],[21.2017,55.2144],[21.1813,55.1933],[21.186,55.171],[20.6948,55.0559],[20.7736,55.1145],[20.8237,55.1431],[20.884,55.1981],[20.9131,55.2332],[20.9894,55.2731],[20.9889,55.2913],[21.0379,55.3286],[21.0735,55.3918],[21.1062,55.4212],[21.0872,55.4411],[21.1199,55.4894],[21.1199,55.527],[21.1336,55.5683],[21.1315,55.6556],[21.1174,55.6998],[21.0852,55.7228],[21.0935,55.6955],[21.0907,55.6331],[21.0994,55.613],[21.0966,55.594],[21.087,55.5824],[21.0582,55.4766],[21.015,55.4019],[20.9488,55.336],[20.9403,55.3276],[20.9066,55.2941],[20.8998,55.2873],[20.8458,55.2318],[20.8262,55.2166],[20.6802,55.1033],[20.674,55.0991],[20.5659,55.0257],[20.2632,54.9547],[20.2514,54.9549],[20.2058,54.9584],[20.1844,54.9561],[20.1082,54.9575],[20.1078,54.9575],[20.0939,54.9537],[20.075,54.9544],[20.0337,54.9482],[19.9959,54.9681],[19.9767,54.9646],[19.9408,54.9344],[19.9207,54.8896],[19.9267,54.8758],[19.8882,54.8668],[19.7801,54.657],[19.7291,54.558],[19.7076,54.5163],[19.6519,54.4857],[19.6133,54.4645],[19.6038,54.4593],[19.5746,54.4429],[19.5606,54.435],[19.5391,54.4282],[19.1874,54.4325],[18.95,54.4354],[18.697,54.4385],[18.6214,54.6823],[18.4614,54.7094],[18.45,54.727],[18.4381,54.7453],[18.45,54.7447],[18.5022,54.7418],[18.6786,54.6654],[18.7659,54.6419],[18.784,54.6235],[18.8176,54.5981],[18.8343,54.6167],[18.814,54.6432],[18.7517,54.6901],[18.6743,54.7169],[18.535,54.77],[18.45,54.7971],[18.3226,54.8377],[18.3188,54.8377],[18.3169,54.8383],[18.1524,54.8383],[18.113,54.8362],[18.0846,54.836],[18.0507,54.8333],[18.05,54.82],[17.98,54.65],[17.9,54.5],[17.85,54.35],[17.75,54.2],[17.62,54.05],[17.5,53.9],[17.4,53.6],[17.3356,53.4712]]],[[[18.0994,57.259],[18.1348,57.2419],[18.1638,57.2122],[18.1664,57.2077],[18.1853,57.1448],[18.2065,57.1393],[18.2106,57.1323],[18.222,57.125],[18.2144,57.1138],[18.2251,57.0949],[18.2009,57.0728],[18.2233,57.0603],[18.2799,57.0877],[18.2859,57.0839],[18.2227,57.0257],[18.2009,57.0176],[18.2022,57.0041],[18.1624,56.9453],[18.1387,56.922],[18.1697,56.912],[18.2039,56.9152],[18.2985,56.9416],[18.3196,56.9669],[18.3406,56.9778],[18.3417,56.9804],[18.3584,56.9897],[18.3496,56.9989],[18.3518,57.004],[18.4001,57.004],[18.3643,57.0114],[18.3572,57.0167],[18.3874,57.0872],[18.4222,57.1167],[18.4546,57.1274],[18.4348,57.1274],[18.4774,57.1635],[18.499,57.1752],[18.5554,57.1925],[18.5748,57.2066],[18.6401,57.2248],[18.6805,57.2299],[18.7141,57.2429],[18.712,57.2633],[18.7438,57.3233],[18.7834,57.3615],[18.8276,57.3791],[18.8345,57.3808],[18.8392,57.3837],[18.8446,57.3858],[18.8711,57.3908],[18.9099,57.3876],[18.93,57.4045],[18.9089,57.4392],[18.8797,57.4492],[18.8689,57.4353],[18.8542,57.4378],[18.7906,57.4834],[18.802,57.5834],[18.8103,57.6073],[18.8048,57.6084],[18.8158,57.7052],[18.8626,57.7238],[18.8652,57.7233],[18.9413,57.7296],[18.937,57.7401],[18.9454,57.7416],[18.9696,57.7776],[18.9816,57.7705],[18.9858,57.8016],[18.9914,57.8098],[18.9959,57.8122],[19.0326,57.823],[19.0852,57.8258],[19.075,57.8354],[19.0749,57.8355],[19.0747,57.8356],[19.0748,57.8356],[19.0746,57.8357],[19.075,57.8358],[19.0738,57.8364],[19.0402,57.8679],[19.014,57.8813],[19.0095,57.9083],[18.9764,57.9115],[18.9453,57.9032],[18.9084,57.9138],[18.9133,57.9213],[18.8374,57.9122],[18.8451,57.9011],[18.8406,57.9],[18.8159,57.8547],[18.8107,57.8512],[18.8071,57.8387],[18.8047,57.8341],[18.7918,57.8387],[18.7625,57.871],[18.7693,57.8878],[18.7424,57.9179],[18.7005,57.9213],[18.658,57.9018],[18.6049,57.8426],[18.5687,57.8361],[18.5501,57.8394],[18.4994,57.8266],[18.4631,57.8032],[18.4287,57.7707],[18.405,57.7577],[18.2826,57.6552],[18.2034,57.6118],[18.1619,57.5781],[18.1615,57.5779],[18.1603,57.5768],[18.135,57.5563],[18.1349,57.5541],[18.1282,57.5482],[18.112,57.5111],[18.1209,57.4651],[18.1281,57.4536],[18.1278,57.4487],[18.1278,57.4483],[18.1529,57.3392],[18.1273,57.3021],[18.1156,57.297],[18.0994,57.259]]],[[[19.0368,57.9052],[19.0716,57.8679],[19.1296,57.8469],[19.1603,57.8803],[19.1499,57.8946],[19.1578,57.9222],[19.2709,57.9483],[19.2961,57.9437],[19.3386,57.9636],[19.3057,57.9764],[19.2855,57.9765],[19.2802,57.9781],[19.1963,57.9801],[19.1634,57.9871],[19.1403,57.9815],[19.1362,57.9816],[19.1358,57.9816],[19.1334,57.9798],[19.0866,57.9685],[19.044,57.9144],[19.0386,57.9104],[19.0388,57.9102],[19.0386,57.91],[19.0397,57.9089],[19.0368,57.9052]]]]}},
{"type":"Feature","properties":{"entityId":"teutonic-order","from":1402,"to":1408,"certainty":"estimated","source":"유럽 쪽은 Natural Earth 1:10m admin-1(v5.1.2) 현대 행정구역 조각을 그 시기 국경에 맞춰 묶고, 조각이 역사 경계와 다른 곳은 선을 그어 나눈 근사. 유럽 밖(시베리아·중앙아시아·극동)은 대략적인 추정. 운영자 검수 필요"},"geometry":{"type":"MultiPolygon","coordinates":[[[[14.15,52.95],[14.2713,52.7882],[14.276,52.7857],[14.3822,52.7382],[14.4319,52.6861],[14.4901,52.6506],[14.5499,52.6362],[14.608,52.5965],[14.6448,52.5769],[14.6091,52.5178],[14.6323,52.4967],[14.5916,52.4498],[14.5398,52.4219],[14.5454,52.3822],[14.5901,52.3094],[14.5842,52.2912],[14.6066,52.2758],[14.6969,52.2535],[14.7121,52.2154],[14.6931,52.2],[15.35,52.2],[15.4,52.5],[15.55,52.7],[15.8,52.82],[15.95,53],[16.0384,53.0884],[16.15,53.2],[16.1,53.5],[15.95,53.85],[15.7,53.85],[15.6,53.62],[15.45,53.45],[15.15,53.22],[14.95,53.05],[14.75,53.08],[14.4,53.1],[14.3578,53.0747],[14.3433,53.0486],[14.2537,53.0009],[14.2033,52.982],[14.15,52.95]]],[[[17.3356,53.4712],[17.3528,53.4656],[17.3972,53.4338],[17.4252,53.444],[17.4554,53.5069],[17.5076,53.5616],[17.5445,53.5639],[17.6832,53.5424],[17.7455,53.5573],[17.7556,53.6058],[17.7877,53.6236],[17.8564,53.6388],[17.8971,53.6832],[17.9241,53.6956],[18.0511,53.681],[18.2205,53.696],[18.2557,53.6942],[18.3179,53.6532],[18.4978,53.6354],[18.583,53.6053],[18.6779,53.6321],[18.7594,53.6252],[18.8046,53.6046],[18.72,53.52],[18.55,53.43],[18.42,53.35],[18.3,53.25],[18.1,53.13],[18.3,53.1],[18.45,53.1],[18.45,52.93],[18.95,52.93],[18.95,53.0167],[19.05,53.1],[19.3,53.18],[19.45,53.22],[19.7096,53.22],[19.6813,53.263],[19.7329,53.1846],[19.7479,53.0931],[19.8112,53.1129],[19.8371,53.1437],[19.8768,53.1511],[19.9248,53.1273],[20.2406,53.098],[20.3158,53.1063],[20.3719,53.1337],[20.3889,53.1675],[20.4198,53.182],[20.4948,53.1861],[20.6346,53.2346],[20.704,53.2759],[20.7756,53.2754],[20.8391,53.2834],[20.9123,53.3086],[21.0079,53.3084],[21.0979,53.3256],[21.1737,53.3796],[21.2626,53.3746],[21.308,53.3788],[21.3488,53.3961],[21.3774,53.4299],[21.402,53.4379],[21.523,53.4435],[21.5957,53.4626],[21.7388,53.4576],[21.8016,53.4708],[21.8626,53.4927],[21.9373,53.4993],[22.1099,53.5699],[22.207,53.6352],[22.4856,53.7379],[22.543,53.7739],[22.5779,53.8322],[22.6185,53.8782],[22.6221,53.9248],[22.516,54.0124],[22.4652,54.0417],[22.4491,54.0992],[22.3481,54.1786],[22.4422,54.257],[22.6653,54.2753],[22.7317,54.3017],[22.7887,54.3366],[22.8113,54.3926],[22.7672,54.3563],[22.707,54.4187],[22.6804,54.4532],[22.6746,54.4923],[22.6817,54.5699],[22.7081,54.6356],[22.7051,54.6865],[22.727,54.7053],[22.7248,54.7234],[22.7648,54.7371],[22.8328,54.7787],[22.8484,54.8138],[22.8293,54.8727],[22.8089,54.8938],[22.7492,54.9099],[22.7521,54.9311],[22.7155,54.9514],[22.6335,54.9579],[22.6084,54.9924],[22.5916,55.0376],[22.5712,55.064],[22.575,55.065],[22.5993,55.0715],[22.6442,55.0571],[22.7287,55.0659],[22.8201,55.0884],[22.871,55.0923],[22.9254,55.0835],[23.0017,55.1054],[23.3198,55.0712],[23.4123,55.0787],[23.4233,55.1097],[23.456,55.1455],[23.4531,55.1841],[23.4775,55.215],[23.4323,55.2315],[23.3755,55.2242],[23.3262,55.2455],[23.2231,55.2414],[23.1896,55.2683],[23.1555,55.2779],[23.1139,55.2695],[23.0088,55.261],[22.9961,55.271],[23.0132,55.2938],[22.9218,55.335],[22.919,55.3208],[22.8786,55.2965],[22.8062,55.3389],[22.8034,55.3844],[22.7823,55.3942],[22.7478,55.3912],[22.7266,55.4022],[22.7205,55.4305],[22.6682,55.4494],[22.6457,55.4743],[22.6768,55.4894],[22.7345,55.5021],[22.8087,55.5084],[22.8406,55.4845],[22.8665,55.4807],[23.0208,55.5155],[23.0569,55.5295],[23.0934,55.5654],[23.1142,55.5743],[23.216,55.5757],[23.252,55.5421],[23.3248,55.5673],[23.4006,55.5307],[23.4562,55.5177],[23.5298,55.5465],[23.5859,55.529],[23.5691,55.4991],[23.581,55.4832],[23.6341,55.4746],[23.6851,55.512],[23.731,55.5306],[23.8671,55.5693],[23.9155,55.6236],[23.9987,55.6368],[24.0049,55.6505],[23.9932,55.6917],[24.0274,55.7145],[24.0213,55.7626],[23.9954,55.7958],[23.9501,55.8144],[23.9374,55.8435],[23.9759,55.846],[23.9892,55.8725],[24.0511,55.8938],[24.0702,55.9338],[24.0682,55.9597],[24.0115,55.9852],[24.0032,56.0262],[24.0098,56.0451],[24.0412,56.0428],[24.0593,56.0764],[24.0912,56.1063],[24.1101,56.1474],[24.1511,56.1561],[24.1608,56.1849],[24.1295,56.1963],[24.1425,56.231],[24.1404,56.2576],[24.0752,56.2712],[23.9813,56.3124],[23.8711,56.3321],[23.825,56.3349],[23.7561,56.326],[23.725,56.3288],[23.7067,56.3544],[23.6099,56.3538],[23.5176,56.3287],[23.4816,56.3301],[23.378,56.3546],[23.3106,56.3706],[23.2884,56.373],[23.1726,56.358],[23.1542,56.3514],[23.1629,56.341],[23.1127,56.3109],[23.0623,56.3042],[23.0167,56.3239],[22.957,56.402],[22.9245,56.4121],[22.889,56.4084],[22.8596,56.3971],[22.8229,56.3829],[22.6814,56.3503],[22.6491,56.3531],[22.5782,56.387],[22.5117,56.396],[22.2149,56.3904],[22.1391,56.4157],[22.0941,56.4174],[21.9832,56.3884],[21.9653,56.3837],[21.7365,56.3237],[21.6845,56.3101],[21.596,56.3079],[21.5589,56.2973],[21.4855,56.2658],[21.4193,56.2374],[21.3583,56.2332],[21.3276,56.2244],[21.2904,56.2069],[21.2549,56.1852],[21.2296,56.1632],[21.2126,56.131],[21.2054,56.1034],[21.1904,56.0845],[21.1502,56.0782],[21.0914,56.0779],[21.0534,56.0726],[21.0427,56.1146],[21.0377,56.1263],[21.0474,56.0699],[21.0546,56.023],[21.0571,55.9488],[21.0447,55.9177],[21.0447,55.8737],[21.0606,55.7893],[21.0744,55.7449],[21.1213,55.7047],[21.1501,55.6525],[21.2166,55.3893],[21.1834,55.3462],[21.1888,55.3386],[21.2027,55.3462],[21.2022,55.3446],[21.2023,55.3444],[21.2022,55.3442],[21.2278,55.2867],[21.2346,55.2714],[21.2328,55.2449],[21.2301,55.2031],[21.2229,55.2015],[21.2017,55.2144],[21.1813,55.1933],[21.186,55.171],[20.6948,55.0559],[20.7736,55.1145],[20.8237,55.1431],[20.884,55.1981],[20.9131,55.2332],[20.9894,55.2731],[20.9889,55.2913],[21.0379,55.3286],[21.0735,55.3918],[21.1062,55.4212],[21.0872,55.4411],[21.1199,55.4894],[21.1199,55.527],[21.1336,55.5683],[21.1315,55.6556],[21.1174,55.6998],[21.0852,55.7228],[21.0935,55.6955],[21.0907,55.6331],[21.0994,55.613],[21.0966,55.594],[21.087,55.5824],[21.0582,55.4766],[21.015,55.4019],[20.9488,55.336],[20.9403,55.3276],[20.9066,55.2941],[20.8998,55.2873],[20.8458,55.2318],[20.8262,55.2166],[20.6802,55.1033],[20.674,55.0991],[20.5659,55.0257],[20.2632,54.9547],[20.2514,54.9549],[20.2058,54.9584],[20.1844,54.9561],[20.1082,54.9575],[20.1078,54.9575],[20.0939,54.9537],[20.075,54.9544],[20.0337,54.9482],[19.9959,54.9681],[19.9767,54.9646],[19.9408,54.9344],[19.9207,54.8896],[19.9267,54.8758],[19.8882,54.8668],[19.7801,54.657],[19.7291,54.558],[19.7076,54.5163],[19.6519,54.4857],[19.6133,54.4645],[19.6038,54.4593],[19.5746,54.4429],[19.5606,54.435],[19.5391,54.4282],[19.1874,54.4325],[18.95,54.4354],[18.697,54.4385],[18.6214,54.6823],[18.4614,54.7094],[18.45,54.727],[18.4381,54.7453],[18.45,54.7447],[18.5022,54.7418],[18.6786,54.6654],[18.7659,54.6419],[18.784,54.6235],[18.8176,54.5981],[18.8343,54.6167],[18.814,54.6432],[18.7517,54.6901],[18.6743,54.7169],[18.535,54.77],[18.45,54.7971],[18.3226,54.8377],[18.3188,54.8377],[18.3169,54.8383],[18.1524,54.8383],[18.113,54.8362],[18.0846,54.836],[18.0507,54.8333],[18.05,54.82],[17.98,54.65],[17.9,54.5],[17.85,54.35],[17.75,54.2],[17.62,54.05],[17.5,53.9],[17.4,53.6],[17.3356,53.4712]]],[[[18.0994,57.259],[18.1348,57.2419],[18.1638,57.2122],[18.1664,57.2077],[18.1853,57.1448],[18.2065,57.1393],[18.2106,57.1323],[18.222,57.125],[18.2144,57.1138],[18.2251,57.0949],[18.2009,57.0728],[18.2233,57.0603],[18.2799,57.0877],[18.2859,57.0839],[18.2227,57.0257],[18.2009,57.0176],[18.2022,57.0041],[18.1624,56.9453],[18.1387,56.922],[18.1697,56.912],[18.2039,56.9152],[18.2985,56.9416],[18.3196,56.9669],[18.3406,56.9778],[18.3417,56.9804],[18.3584,56.9897],[18.3496,56.9989],[18.3518,57.004],[18.4001,57.004],[18.3643,57.0114],[18.3572,57.0167],[18.3874,57.0872],[18.4222,57.1167],[18.4546,57.1274],[18.4348,57.1274],[18.4774,57.1635],[18.499,57.1752],[18.5554,57.1925],[18.5748,57.2066],[18.6401,57.2248],[18.6805,57.2299],[18.7141,57.2429],[18.712,57.2633],[18.7438,57.3233],[18.7834,57.3615],[18.8276,57.3791],[18.8345,57.3808],[18.8392,57.3837],[18.8446,57.3858],[18.8711,57.3908],[18.9099,57.3876],[18.93,57.4045],[18.9089,57.4392],[18.8797,57.4492],[18.8689,57.4353],[18.8542,57.4378],[18.7906,57.4834],[18.802,57.5834],[18.8103,57.6073],[18.8048,57.6084],[18.8158,57.7052],[18.8626,57.7238],[18.8652,57.7233],[18.9413,57.7296],[18.937,57.7401],[18.9454,57.7416],[18.9696,57.7776],[18.9816,57.7705],[18.9858,57.8016],[18.9914,57.8098],[18.9959,57.8122],[19.0326,57.823],[19.0852,57.8258],[19.075,57.8354],[19.0749,57.8355],[19.0747,57.8356],[19.0748,57.8356],[19.0746,57.8357],[19.075,57.8358],[19.0738,57.8364],[19.0402,57.8679],[19.014,57.8813],[19.0095,57.9083],[18.9764,57.9115],[18.9453,57.9032],[18.9084,57.9138],[18.9133,57.9213],[18.8374,57.9122],[18.8451,57.9011],[18.8406,57.9],[18.8159,57.8547],[18.8107,57.8512],[18.8071,57.8387],[18.8047,57.8341],[18.7918,57.8387],[18.7625,57.871],[18.7693,57.8878],[18.7424,57.9179],[18.7005,57.9213],[18.658,57.9018],[18.6049,57.8426],[18.5687,57.8361],[18.5501,57.8394],[18.4994,57.8266],[18.4631,57.8032],[18.4287,57.7707],[18.405,57.7577],[18.2826,57.6552],[18.2034,57.6118],[18.1619,57.5781],[18.1615,57.5779],[18.1603,57.5768],[18.135,57.5563],[18.1349,57.5541],[18.1282,57.5482],[18.112,57.5111],[18.1209,57.4651],[18.1281,57.4536],[18.1278,57.4487],[18.1278,57.4483],[18.1529,57.3392],[18.1273,57.3021],[18.1156,57.297],[18.0994,57.259]]],[[[19.0368,57.9052],[19.0716,57.8679],[19.1296,57.8469],[19.1603,57.8803],[19.1499,57.8946],[19.1578,57.9222],[19.2709,57.9483],[19.2961,57.9437],[19.3386,57.9636],[19.3057,57.9764],[19.2855,57.9765],[19.2802,57.9781],[19.1963,57.9801],[19.1634,57.9871],[19.1403,57.9815],[19.1362,57.9816],[19.1358,57.9816],[19.1334,57.9798],[19.0866,57.9685],[19.044,57.9144],[19.0386,57.9104],[19.0388,57.9102],[19.0386,57.91],[19.0397,57.9089],[19.0368,57.9052]]]]}},
{"type":"Feature","properties":{"entityId":"teutonic-order","from":1408,"to":1411,"certainty":"estimated","source":"유럽 쪽은 Natural Earth 1:10m admin-1(v5.1.2) 현대 행정구역 조각을 그 시기 국경에 맞춰 묶고, 조각이 역사 경계와 다른 곳은 선을 그어 나눈 근사. 유럽 밖(시베리아·중앙아시아·극동)은 대략적인 추정. 운영자 검수 필요"},"geometry":{"type":"MultiPolygon","coordinates":[[[[14.15,52.95],[14.2713,52.7882],[14.276,52.7857],[14.3822,52.7382],[14.4319,52.6861],[14.4901,52.6506],[14.5499,52.6362],[14.608,52.5965],[14.6448,52.5769],[14.6091,52.5178],[14.6323,52.4967],[14.5916,52.4498],[14.5398,52.4219],[14.5454,52.3822],[14.5901,52.3094],[14.5842,52.2912],[14.6066,52.2758],[14.6969,52.2535],[14.7121,52.2154],[14.6931,52.2],[15.35,52.2],[15.4,52.5],[15.55,52.7],[15.8,52.82],[15.95,53],[16.0384,53.0884],[16.15,53.2],[16.1,53.5],[15.95,53.85],[15.7,53.85],[15.6,53.62],[15.45,53.45],[15.15,53.22],[14.95,53.05],[14.75,53.08],[14.4,53.1],[14.3578,53.0747],[14.3433,53.0486],[14.2537,53.0009],[14.2033,52.982],[14.15,52.95]]],[[[17.3356,53.4712],[17.3528,53.4656],[17.3972,53.4338],[17.4252,53.444],[17.4554,53.5069],[17.5076,53.5616],[17.5445,53.5639],[17.6832,53.5424],[17.7455,53.5573],[17.7556,53.6058],[17.7877,53.6236],[17.8564,53.6388],[17.8971,53.6832],[17.9241,53.6956],[18.0511,53.681],[18.2205,53.696],[18.2557,53.6942],[18.3179,53.6532],[18.4978,53.6354],[18.583,53.6053],[18.6779,53.6321],[18.7594,53.6252],[18.8046,53.6046],[18.72,53.52],[18.55,53.43],[18.42,53.35],[18.3,53.25],[18.1,53.13],[18.3,53.1],[18.45,53.1],[18.45,52.93],[18.95,52.93],[18.95,53.0167],[19.05,53.1],[19.3,53.18],[19.45,53.22],[19.7096,53.22],[19.6813,53.263],[19.7329,53.1846],[19.7479,53.0931],[19.8112,53.1129],[19.8371,53.1437],[19.8768,53.1511],[19.9248,53.1273],[20.2406,53.098],[20.3158,53.1063],[20.3719,53.1337],[20.3889,53.1675],[20.4198,53.182],[20.4948,53.1861],[20.6346,53.2346],[20.704,53.2759],[20.7756,53.2754],[20.8391,53.2834],[20.9123,53.3086],[21.0079,53.3084],[21.0979,53.3256],[21.1737,53.3796],[21.2626,53.3746],[21.308,53.3788],[21.3488,53.3961],[21.3774,53.4299],[21.402,53.4379],[21.523,53.4435],[21.5957,53.4626],[21.7388,53.4576],[21.8016,53.4708],[21.8626,53.4927],[21.9373,53.4993],[22.1099,53.5699],[22.207,53.6352],[22.4856,53.7379],[22.543,53.7739],[22.5779,53.8322],[22.6185,53.8782],[22.6221,53.9248],[22.516,54.0124],[22.4652,54.0417],[22.4491,54.0992],[22.3481,54.1786],[22.4422,54.257],[22.6653,54.2753],[22.7317,54.3017],[22.7887,54.3366],[22.8113,54.3926],[22.7672,54.3563],[22.707,54.4187],[22.6804,54.4532],[22.6746,54.4923],[22.6817,54.5699],[22.7081,54.6356],[22.7051,54.6865],[22.727,54.7053],[22.7248,54.7234],[22.7648,54.7371],[22.8328,54.7787],[22.8484,54.8138],[22.8293,54.8727],[22.8089,54.8938],[22.7492,54.9099],[22.7521,54.9311],[22.7155,54.9514],[22.6335,54.9579],[22.6084,54.9924],[22.5916,55.0376],[22.5712,55.064],[22.575,55.065],[22.5993,55.0715],[22.6442,55.0571],[22.7287,55.0659],[22.8201,55.0884],[22.871,55.0923],[22.9254,55.0835],[23.0017,55.1054],[23.3198,55.0712],[23.4123,55.0787],[23.4233,55.1097],[23.456,55.1455],[23.4531,55.1841],[23.4775,55.215],[23.4323,55.2315],[23.3755,55.2242],[23.3262,55.2455],[23.2231,55.2414],[23.1896,55.2683],[23.1555,55.2779],[23.1139,55.2695],[23.0088,55.261],[22.9961,55.271],[23.0132,55.2938],[22.9218,55.335],[22.919,55.3208],[22.8786,55.2965],[22.8062,55.3389],[22.8034,55.3844],[22.7823,55.3942],[22.7478,55.3912],[22.7266,55.4022],[22.7205,55.4305],[22.6682,55.4494],[22.6457,55.4743],[22.6768,55.4894],[22.7345,55.5021],[22.8087,55.5084],[22.8406,55.4845],[22.8665,55.4807],[23.0208,55.5155],[23.0569,55.5295],[23.0934,55.5654],[23.1142,55.5743],[23.216,55.5757],[23.252,55.5421],[23.3248,55.5673],[23.4006,55.5307],[23.4562,55.5177],[23.5298,55.5465],[23.5859,55.529],[23.5691,55.4991],[23.581,55.4832],[23.6341,55.4746],[23.6851,55.512],[23.731,55.5306],[23.8671,55.5693],[23.9155,55.6236],[23.9987,55.6368],[24.0049,55.6505],[23.9932,55.6917],[24.0274,55.7145],[24.0213,55.7626],[23.9954,55.7958],[23.9501,55.8144],[23.9374,55.8435],[23.9759,55.846],[23.9892,55.8725],[24.0511,55.8938],[24.0702,55.9338],[24.0682,55.9597],[24.0115,55.9852],[24.0032,56.0262],[24.0098,56.0451],[24.0412,56.0428],[24.0593,56.0764],[24.0912,56.1063],[24.1101,56.1474],[24.1511,56.1561],[24.1608,56.1849],[24.1295,56.1963],[24.1425,56.231],[24.1404,56.2576],[24.0752,56.2712],[23.9813,56.3124],[23.8711,56.3321],[23.825,56.3349],[23.7561,56.326],[23.725,56.3288],[23.7067,56.3544],[23.6099,56.3538],[23.5176,56.3287],[23.4816,56.3301],[23.378,56.3546],[23.3106,56.3706],[23.2884,56.373],[23.1726,56.358],[23.1542,56.3514],[23.1629,56.341],[23.1127,56.3109],[23.0623,56.3042],[23.0167,56.3239],[22.957,56.402],[22.9245,56.4121],[22.889,56.4084],[22.8596,56.3971],[22.8229,56.3829],[22.6814,56.3503],[22.6491,56.3531],[22.5782,56.387],[22.5117,56.396],[22.2149,56.3904],[22.1391,56.4157],[22.0941,56.4174],[21.9832,56.3884],[21.9653,56.3837],[21.7365,56.3237],[21.6845,56.3101],[21.596,56.3079],[21.5589,56.2973],[21.4855,56.2658],[21.4193,56.2374],[21.3583,56.2332],[21.3276,56.2244],[21.2904,56.2069],[21.2549,56.1852],[21.2296,56.1632],[21.2126,56.131],[21.2054,56.1034],[21.1904,56.0845],[21.1502,56.0782],[21.0914,56.0779],[21.0534,56.0726],[21.0427,56.1146],[21.0377,56.1263],[21.0474,56.0699],[21.0546,56.023],[21.0571,55.9488],[21.0447,55.9177],[21.0447,55.8737],[21.0606,55.7893],[21.0744,55.7449],[21.1213,55.7047],[21.1501,55.6525],[21.2166,55.3893],[21.1834,55.3462],[21.1888,55.3386],[21.2027,55.3462],[21.2022,55.3446],[21.2023,55.3444],[21.2022,55.3442],[21.2278,55.2867],[21.2346,55.2714],[21.2328,55.2449],[21.2301,55.2031],[21.2229,55.2015],[21.2017,55.2144],[21.1813,55.1933],[21.186,55.171],[20.6948,55.0559],[20.7736,55.1145],[20.8237,55.1431],[20.884,55.1981],[20.9131,55.2332],[20.9894,55.2731],[20.9889,55.2913],[21.0379,55.3286],[21.0735,55.3918],[21.1062,55.4212],[21.0872,55.4411],[21.1199,55.4894],[21.1199,55.527],[21.1336,55.5683],[21.1315,55.6556],[21.1174,55.6998],[21.0852,55.7228],[21.0935,55.6955],[21.0907,55.6331],[21.0994,55.613],[21.0966,55.594],[21.087,55.5824],[21.0582,55.4766],[21.015,55.4019],[20.9488,55.336],[20.9403,55.3276],[20.9066,55.2941],[20.8998,55.2873],[20.8458,55.2318],[20.8262,55.2166],[20.6802,55.1033],[20.674,55.0991],[20.5659,55.0257],[20.2632,54.9547],[20.2514,54.9549],[20.2058,54.9584],[20.1844,54.9561],[20.1082,54.9575],[20.1078,54.9575],[20.0939,54.9537],[20.075,54.9544],[20.0337,54.9482],[19.9959,54.9681],[19.9767,54.9646],[19.9408,54.9344],[19.9207,54.8896],[19.9267,54.8758],[19.8882,54.8668],[19.7801,54.657],[19.7291,54.558],[19.7076,54.5163],[19.6519,54.4857],[19.6133,54.4645],[19.6038,54.4593],[19.5746,54.4429],[19.5606,54.435],[19.5391,54.4282],[19.1874,54.4325],[18.95,54.4354],[18.697,54.4385],[18.6214,54.6823],[18.4614,54.7094],[18.45,54.727],[18.4381,54.7453],[18.45,54.7447],[18.5022,54.7418],[18.6786,54.6654],[18.7659,54.6419],[18.784,54.6235],[18.8176,54.5981],[18.8343,54.6167],[18.814,54.6432],[18.7517,54.6901],[18.6743,54.7169],[18.535,54.77],[18.45,54.7971],[18.3226,54.8377],[18.3188,54.8377],[18.3169,54.8383],[18.1524,54.8383],[18.113,54.8362],[18.0846,54.836],[18.0507,54.8333],[18.05,54.82],[17.98,54.65],[17.9,54.5],[17.85,54.35],[17.75,54.2],[17.62,54.05],[17.5,53.9],[17.4,53.6],[17.3356,53.4712]]]]}},
{"type":"Feature","properties":{"entityId":"teutonic-order","from":1411,"to":1453,"certainty":"estimated","source":"유럽 쪽은 Natural Earth 1:10m admin-1(v5.1.2) 현대 행정구역 조각을 그 시기 국경에 맞춰 묶고, 조각이 역사 경계와 다른 곳은 선을 그어 나눈 근사. 유럽 밖(시베리아·중앙아시아·극동)은 대략적인 추정. 운영자 검수 필요"},"geometry":{"type":"MultiPolygon","coordinates":[[[[14.15,52.95],[14.2713,52.7882],[14.276,52.7857],[14.3822,52.7382],[14.4319,52.6861],[14.4901,52.6506],[14.5499,52.6362],[14.608,52.5965],[14.6448,52.5769],[14.6091,52.5178],[14.6323,52.4967],[14.5916,52.4498],[14.5398,52.4219],[14.5454,52.3822],[14.5901,52.3094],[14.5842,52.2912],[14.6066,52.2758],[14.6969,52.2535],[14.7121,52.2154],[14.6931,52.2],[15.35,52.2],[15.4,52.5],[15.55,52.7],[15.8,52.82],[15.95,53],[16.0384,53.0884],[16.15,53.2],[16.1,53.5],[15.95,53.85],[15.7,53.85],[15.6,53.62],[15.45,53.45],[15.15,53.22],[14.95,53.05],[14.75,53.08],[14.4,53.1],[14.3578,53.0747],[14.3433,53.0486],[14.2537,53.0009],[14.2033,52.982],[14.15,52.95]]],[[[17.3356,53.4712],[17.3528,53.4656],[17.3972,53.4338],[17.4252,53.444],[17.4554,53.5069],[17.5076,53.5616],[17.5445,53.5639],[17.6832,53.5424],[17.7455,53.5573],[17.7556,53.6058],[17.7877,53.6236],[17.8564,53.6388],[17.8971,53.6832],[17.9241,53.6956],[18.0511,53.681],[18.2205,53.696],[18.2557,53.6942],[18.3179,53.6532],[18.4978,53.6354],[18.583,53.6053],[18.6779,53.6321],[18.7594,53.6252],[18.8046,53.6046],[18.72,53.52],[18.55,53.43],[18.42,53.35],[18.3,53.25],[18.1,53.13],[18.3,53.1],[18.45,53.1],[18.45,52.93],[18.95,52.93],[18.95,53.0167],[19.05,53.1],[19.3,53.18],[19.45,53.22],[19.7096,53.22],[19.6813,53.263],[19.7329,53.1846],[19.7479,53.0931],[19.8112,53.1129],[19.8371,53.1437],[19.8768,53.1511],[19.9248,53.1273],[20.2406,53.098],[20.3158,53.1063],[20.3719,53.1337],[20.3889,53.1675],[20.4198,53.182],[20.4948,53.1861],[20.6346,53.2346],[20.704,53.2759],[20.7756,53.2754],[20.8391,53.2834],[20.9123,53.3086],[21.0079,53.3084],[21.0979,53.3256],[21.1737,53.3796],[21.2626,53.3746],[21.308,53.3788],[21.3488,53.3961],[21.3774,53.4299],[21.402,53.4379],[21.523,53.4435],[21.5957,53.4626],[21.7388,53.4576],[21.8016,53.4708],[21.8626,53.4927],[21.9373,53.4993],[22.1099,53.5699],[22.207,53.6352],[22.4856,53.7379],[22.543,53.7739],[22.5779,53.8322],[22.6185,53.8782],[22.6221,53.9248],[22.516,54.0124],[22.4652,54.0417],[22.4491,54.0992],[22.3481,54.1786],[22.4422,54.257],[22.6653,54.2753],[22.7317,54.3017],[22.7887,54.3366],[22.8113,54.3926],[22.7672,54.3563],[22.707,54.4187],[22.6804,54.4532],[22.6746,54.4923],[22.6817,54.5699],[22.7081,54.6356],[22.7051,54.6865],[22.727,54.7053],[22.7248,54.7234],[22.7648,54.7371],[22.8328,54.7787],[22.8484,54.8138],[22.8293,54.8727],[22.8089,54.8938],[22.7492,54.9099],[22.7521,54.9311],[22.7155,54.9514],[22.6335,54.9579],[22.6084,54.9924],[22.5916,55.0376],[22.5712,55.064],[22.5411,55.0758],[22.4363,55.0578],[22.5303,55.0739],[22.3,55.12],[22.05,55.25],[21.85,55.35],[21.6,55.46],[21.45,55.6],[21.33,55.72],[21.17,55.85],[21.05,55.88],[21.0447,55.88],[21.0447,55.8737],[21.0606,55.7893],[21.0744,55.7449],[21.1213,55.7047],[21.1501,55.6525],[21.2166,55.3893],[21.1834,55.3462],[21.1888,55.3386],[21.2027,55.3462],[21.2022,55.3446],[21.2023,55.3444],[21.2022,55.3442],[21.2278,55.2867],[21.2346,55.2714],[21.2328,55.2449],[21.2301,55.2031],[21.2229,55.2015],[21.2017,55.2144],[21.1813,55.1933],[21.186,55.171],[20.6948,55.0559],[20.7736,55.1145],[20.8237,55.1431],[20.884,55.1981],[20.9131,55.2332],[20.9894,55.2731],[20.9889,55.2913],[21.0379,55.3286],[21.0735,55.3918],[21.1062,55.4212],[21.0872,55.4411],[21.1199,55.4894],[21.1199,55.527],[21.1336,55.5683],[21.1315,55.6556],[21.1174,55.6998],[21.0852,55.7228],[21.0935,55.6955],[21.0907,55.6331],[21.0994,55.613],[21.0966,55.594],[21.087,55.5824],[21.0582,55.4766],[21.015,55.4019],[20.9488,55.336],[20.9403,55.3276],[20.9066,55.2941],[20.8998,55.2873],[20.8458,55.2318],[20.8262,55.2166],[20.6802,55.1033],[20.674,55.0991],[20.5659,55.0257],[20.2632,54.9547],[20.2514,54.9549],[20.2058,54.9584],[20.1844,54.9561],[20.1082,54.9575],[20.1078,54.9575],[20.0939,54.9537],[20.075,54.9544],[20.0337,54.9482],[19.9959,54.9681],[19.9767,54.9646],[19.9408,54.9344],[19.9207,54.8896],[19.9267,54.8758],[19.8882,54.8668],[19.7801,54.657],[19.7291,54.558],[19.7076,54.5163],[19.6519,54.4857],[19.6133,54.4645],[19.6038,54.4593],[19.5746,54.4429],[19.5606,54.435],[19.5391,54.4282],[19.1874,54.4325],[18.95,54.4354],[18.697,54.4385],[18.6214,54.6823],[18.4614,54.7094],[18.45,54.727],[18.4381,54.7453],[18.45,54.7447],[18.5022,54.7418],[18.6786,54.6654],[18.7659,54.6419],[18.784,54.6235],[18.8176,54.5981],[18.8343,54.6167],[18.814,54.6432],[18.7517,54.6901],[18.6743,54.7169],[18.535,54.77],[18.45,54.7971],[18.3226,54.8377],[18.3188,54.8377],[18.3169,54.8383],[18.1524,54.8383],[18.113,54.8362],[18.0846,54.836],[18.0507,54.8333],[18.05,54.82],[17.98,54.65],[17.9,54.5],[17.85,54.35],[17.75,54.2],[17.62,54.05],[17.5,53.9],[17.4,53.6],[17.3356,53.4712]]],[[[22.562,55.0676],[22.5712,55.064],[22.575,55.065],[22.562,55.0676]]]]}},
{"type":"Feature","properties":{"entityId":"teutonic-order","from":1453,"to":1466,"certainty":"estimated","source":"유럽 쪽은 Natural Earth 1:10m admin-1(v5.1.2) 현대 행정구역 조각을 그 시기 국경에 맞춰 묶고, 조각이 역사 경계와 다른 곳은 선을 그어 나눈 근사. 유럽 밖(시베리아·중앙아시아·극동)은 대략적인 추정. 운영자 검수 필요"},"geometry":{"type":"MultiPolygon","coordinates":[[[[17.3356,53.4712],[17.3528,53.4656],[17.3972,53.4338],[17.4252,53.444],[17.4554,53.5069],[17.5076,53.5616],[17.5445,53.5639],[17.6832,53.5424],[17.7455,53.5573],[17.7556,53.6058],[17.7877,53.6236],[17.8564,53.6388],[17.8971,53.6832],[17.9241,53.6956],[18.0511,53.681],[18.2205,53.696],[18.2557,53.6942],[18.3179,53.6532],[18.4978,53.6354],[18.583,53.6053],[18.6779,53.6321],[18.7594,53.6252],[18.8046,53.6046],[18.72,53.52],[18.55,53.43],[18.42,53.35],[18.3,53.25],[18.1,53.13],[18.3,53.1],[18.45,53.1],[18.45,52.93],[18.95,52.93],[18.95,53.0167],[19.05,53.1],[19.3,53.18],[19.45,53.22],[19.7096,53.22],[19.6813,53.263],[19.7329,53.1846],[19.7479,53.0931],[19.8112,53.1129],[19.8371,53.1437],[19.8768,53.1511],[19.9248,53.1273],[20.2406,53.098],[20.3158,53.1063],[20.3719,53.1337],[20.3889,53.1675],[20.4198,53.182],[20.4948,53.1861],[20.6346,53.2346],[20.704,53.2759],[20.7756,53.2754],[20.8391,53.2834],[20.9123,53.3086],[21.0079,53.3084],[21.0979,53.3256],[21.1737,53.3796],[21.2626,53.3746],[21.308,53.3788],[21.3488,53.3961],[21.3774,53.4299],[21.402,53.4379],[21.523,53.4435],[21.5957,53.4626],[21.7388,53.4576],[21.8016,53.4708],[21.8626,53.4927],[21.9373,53.4993],[22.1099,53.5699],[22.207,53.6352],[22.4856,53.7379],[22.543,53.7739],[22.5779,53.8322],[22.6185,53.8782],[22.6221,53.9248],[22.516,54.0124],[22.4652,54.0417],[22.4491,54.0992],[22.3481,54.1786],[22.4422,54.257],[22.6653,54.2753],[22.7317,54.3017],[22.7887,54.3366],[22.8113,54.3926],[22.7672,54.3563],[22.707,54.4187],[22.6804,54.4532],[22.6746,54.4923],[22.6817,54.5699],[22.7081,54.6356],[22.7051,54.6865],[22.727,54.7053],[22.7248,54.7234],[22.7648,54.7371],[22.8328,54.7787],[22.8484,54.8138],[22.8293,54.8727],[22.8089,54.8938],[22.7492,54.9099],[22.7521,54.9311],[22.7155,54.9514],[22.6335,54.9579],[22.6084,54.9924],[22.5916,55.0376],[22.5712,55.064],[22.5411,55.0758],[22.4363,55.0578],[22.5303,55.0739],[22.3,55.12],[22.05,55.25],[21.85,55.35],[21.6,55.46],[21.45,55.6],[21.33,55.72],[21.17,55.85],[21.05,55.88],[21.0447,55.88],[21.0447,55.8737],[21.0606,55.7893],[21.0744,55.7449],[21.1213,55.7047],[21.1501,55.6525],[21.2166,55.3893],[21.1834,55.3462],[21.1888,55.3386],[21.2027,55.3462],[21.2022,55.3446],[21.2023,55.3444],[21.2022,55.3442],[21.2278,55.2867],[21.2346,55.2714],[21.2328,55.2449],[21.2301,55.2031],[21.2229,55.2015],[21.2017,55.2144],[21.1813,55.1933],[21.186,55.171],[20.6948,55.0559],[20.7736,55.1145],[20.8237,55.1431],[20.884,55.1981],[20.9131,55.2332],[20.9894,55.2731],[20.9889,55.2913],[21.0379,55.3286],[21.0735,55.3918],[21.1062,55.4212],[21.0872,55.4411],[21.1199,55.4894],[21.1199,55.527],[21.1336,55.5683],[21.1315,55.6556],[21.1174,55.6998],[21.0852,55.7228],[21.0935,55.6955],[21.0907,55.6331],[21.0994,55.613],[21.0966,55.594],[21.087,55.5824],[21.0582,55.4766],[21.015,55.4019],[20.9488,55.336],[20.9403,55.3276],[20.9066,55.2941],[20.8998,55.2873],[20.8458,55.2318],[20.8262,55.2166],[20.6802,55.1033],[20.674,55.0991],[20.5659,55.0257],[20.2632,54.9547],[20.2514,54.9549],[20.2058,54.9584],[20.1844,54.9561],[20.1082,54.9575],[20.1078,54.9575],[20.0939,54.9537],[20.075,54.9544],[20.0337,54.9482],[19.9959,54.9681],[19.9767,54.9646],[19.9408,54.9344],[19.9207,54.8896],[19.9267,54.8758],[19.8882,54.8668],[19.7801,54.657],[19.7291,54.558],[19.7076,54.5163],[19.6519,54.4857],[19.6133,54.4645],[19.6038,54.4593],[19.5746,54.4429],[19.5606,54.435],[19.5391,54.4282],[19.1874,54.4325],[18.95,54.4354],[18.697,54.4385],[18.6214,54.6823],[18.4614,54.7094],[18.45,54.727],[18.4381,54.7453],[18.45,54.7447],[18.5022,54.7418],[18.6786,54.6654],[18.7659,54.6419],[18.784,54.6235],[18.8176,54.5981],[18.8343,54.6167],[18.814,54.6432],[18.7517,54.6901],[18.6743,54.7169],[18.535,54.77],[18.45,54.7971],[18.3226,54.8377],[18.3188,54.8377],[18.3169,54.8383],[18.1524,54.8383],[18.113,54.8362],[18.0846,54.836],[18.0507,54.8333],[18.05,54.82],[17.98,54.65],[17.9,54.5],[17.85,54.35],[17.75,54.2],[17.62,54.05],[17.5,53.9],[17.4,53.6],[17.3356,53.4712]]],[[[22.562,55.0676],[22.5712,55.064],[22.575,55.065],[22.562,55.0676]]]]}},
{"type":"Feature","properties":{"entityId":"teutonic-order","from":1466,"to":1525,"certainty":"estimated","source":"유럽 쪽은 Natural Earth 1:10m admin-1(v5.1.2) 현대 행정구역 조각을 그 시기 국경에 맞춰 묶고, 조각이 역사 경계와 다른 곳은 선을 그어 나눈 근사. 유럽 밖(시베리아·중앙아시아·극동)은 대략적인 추정. 운영자 검수 필요"},"geometry":{"type":"MultiPolygon","coordinates":[[[[18.86,53.6],[19.1681,53.6],[19.2759,53.7193],[19.1283,53.5559],[19.2148,53.4552],[19.2396,53.4122],[19.2855,53.3645],[19.4045,53.3429],[19.5115,53.3043],[19.6256,53.2864],[19.6813,53.263],[19.7329,53.1846],[19.7479,53.0931],[19.8112,53.1129],[19.8371,53.1437],[19.8768,53.1511],[19.9248,53.1273],[20.2406,53.098],[20.3158,53.1063],[20.3719,53.1337],[20.3889,53.1675],[20.4198,53.182],[20.4948,53.1861],[20.6346,53.2346],[20.704,53.2759],[20.7756,53.2754],[20.8391,53.2834],[20.9123,53.3086],[21.0079,53.3084],[21.0979,53.3256],[21.1737,53.3796],[21.2626,53.3746],[21.308,53.3788],[21.3488,53.3961],[21.3774,53.4299],[21.402,53.4379],[21.523,53.4435],[21.5957,53.4626],[21.7388,53.4576],[21.8016,53.4708],[21.8626,53.4927],[21.9373,53.4993],[22.1099,53.5699],[22.207,53.6352],[22.4856,53.7379],[22.543,53.7739],[22.5779,53.8322],[22.6185,53.8782],[22.6221,53.9248],[22.516,54.0124],[22.4652,54.0417],[22.4491,54.0992],[22.3481,54.1786],[22.4422,54.257],[22.6653,54.2753],[22.7317,54.3017],[22.7887,54.3366],[22.8113,54.3926],[22.7672,54.3563],[22.707,54.4187],[22.6804,54.4532],[22.6746,54.4923],[22.6817,54.5699],[22.7081,54.6356],[22.7051,54.6865],[22.727,54.7053],[22.7248,54.7234],[22.7648,54.7371],[22.8328,54.7787],[22.8484,54.8138],[22.8293,54.8727],[22.8089,54.8938],[22.7492,54.9099],[22.7521,54.9311],[22.7155,54.9514],[22.6335,54.9579],[22.6084,54.9924],[22.5916,55.0376],[22.5712,55.064],[22.5411,55.0758],[22.4363,55.0578],[22.5303,55.0739],[22.3,55.12],[22.05,55.25],[21.85,55.35],[21.6,55.46],[21.45,55.6],[21.33,55.72],[21.17,55.85],[21.05,55.88],[21.0447,55.88],[21.0447,55.8737],[21.0606,55.7893],[21.0744,55.7449],[21.1213,55.7047],[21.1501,55.6525],[21.2166,55.3893],[21.1834,55.3462],[21.1888,55.3386],[21.2027,55.3462],[21.2022,55.3446],[21.2023,55.3444],[21.2022,55.3442],[21.2278,55.2867],[21.2346,55.2714],[21.2328,55.2449],[21.2301,55.2031],[21.2229,55.2015],[21.2017,55.2144],[21.1813,55.1933],[21.186,55.171],[20.6948,55.0559],[20.7736,55.1145],[20.8237,55.1431],[20.884,55.1981],[20.9131,55.2332],[20.9894,55.2731],[20.9889,55.2913],[21.0379,55.3286],[21.0735,55.3918],[21.1062,55.4212],[21.0872,55.4411],[21.1199,55.4894],[21.1199,55.527],[21.1336,55.5683],[21.1315,55.6556],[21.1174,55.6998],[21.0852,55.7228],[21.0935,55.6955],[21.0907,55.6331],[21.0994,55.613],[21.0966,55.594],[21.087,55.5824],[21.0582,55.4766],[21.015,55.4019],[20.9488,55.336],[20.9403,55.3276],[20.9066,55.2941],[20.8998,55.2873],[20.8458,55.2318],[20.8262,55.2166],[20.6802,55.1033],[20.674,55.0991],[20.5659,55.0257],[20.2632,54.9547],[20.2514,54.9549],[20.2058,54.9584],[20.1844,54.9561],[20.1082,54.9575],[20.1078,54.9575],[20.0939,54.9537],[20.075,54.9544],[20.0337,54.9482],[19.9959,54.9681],[19.9767,54.9646],[19.9408,54.9344],[19.9207,54.8896],[19.9267,54.8758],[19.8882,54.8668],[19.7801,54.657],[19.7291,54.558],[19.7076,54.5163],[19.6519,54.4857],[19.6133,54.4645],[19.6133,54.4588],[19.6095,54.4567],[19.6803,54.4367],[19.7583,54.4343],[20.3521,54.4157],[19.975,54.4275],[20.05,54.36],[20.4,54.22],[20.6,54.2],[21,54.1],[21.2,54.12],[21.28,54],[21.15,53.88],[21,53.78],[20.8,53.7],[20.55,53.66],[20.35,53.68],[20.2,53.75],[20.15,53.88],[20.1,54],[19.95,54.05],[19.75,54.1],[19.6,54.1],[19.55,53.95],[19.3708,53.95],[19.3892,53.9352],[19.3698,53.8958],[19.4054,53.8855],[19.5044,53.8903],[19.5544,53.8822],[19.5504,53.8493],[19.5201,53.8251],[19.5,53.7873],[19.5,53.88],[18.86,53.88],[18.86,53.6]]],[[[22.562,55.0676],[22.5712,55.064],[22.575,55.065],[22.562,55.0676]]]]}}
]}
