{"type":"FeatureCollection","features":[
{"type":"Feature","properties":{"entityId":"thessalonica-kingdom","from":1204,"to":1205,"certainty":"estimated","source":"유럽 쪽은 Natural Earth 1:10m admin-1(v5.1.2) 현대 행정구역 조각을 그 시기 국경에 맞춰 묶고, 조각이 역사 경계와 다른 곳은 선을 그어 나눈 근사. 유럽 밖(시베리아·중앙아시아·극동)은 대략적인 추정. 운영자 검수 필요"},"geometry":{"type":"MultiPolygon","coordinates":[[[[20.7396,40.3092],[20.7732,40.299],[20.8064,40.3199],[20.8439,40.3266],[20.8784,40.2653],[20.9208,40.225],[20.9479,40.1809],[20.9608,40.1384],[20.9323,40.087],[20.9482,40.077],[20.9611,40.0345],[20.9879,40.0068],[21.027,40.0215],[21.0429,40.0115],[21.0403,39.9817],[21.0139,39.941],[21.0453,39.9182],[21.0588,39.862],[21.0779,39.8325],[21.0949,39.8277],[21.1892,39.8496],[21.2249,39.8482],[21.2906,39.8186],[21.2912,39.8048],[21.2639,39.8108],[21.2151,39.7837],[21.1984,39.7556],[21.2162,39.6687],[21.1432,39.68],[21.1104,39.6592],[21.1232,39.6003],[21.1661,39.5652],[21.169,39.5102],[21.1531,39.4847],[21.1749,39.4521],[21.1787,39.4189],[21.226,39.3888],[21.2403,39.3543],[21.2752,39.3337],[21.3459,39.3308],[21.3851,39.2797],[21.3331,39.2012],[21.3623,39.1539],[21.3626,39.1211],[21.3963,39.0788],[21.3908,39.0522],[21.3651,39.0142],[21.3693,39.0001],[21.4693,38.9526],[21.4748,38.8945],[21.5233,38.8722],[21.6108,38.8506],[21.6114,38.8369],[21.5368,38.8023],[21.5306,38.773],[21.5607,38.731],[21.6475,38.6904],[21.737,38.6957],[21.7451,38.6674],[21.8036,38.6929],[21.8086,38.7332],[21.8609,38.7295],[21.958,38.7692],[21.9984,38.7427],[21.9825,38.7032],[21.987,38.6753],[21.9744,38.6496],[21.9783,38.619],[21.9656,38.5933],[21.9954,38.5676],[21.9787,38.5397],[21.9827,38.5091],[21.9534,38.4882],[21.9168,38.4819],[21.8757,38.4543],[21.8551,38.4241],[21.8512,38.388],[21.8576,38.3866],[21.8576,38.3623],[21.8909,38.3623],[21.8909,38.3686],[21.9575,38.3686],[21.9575,38.3585],[22.0242,38.3585],[22.0242,38.3542],[22.0908,38.3542],[22.0908,38.3098],[22.1574,38.3098],[22.1574,38.2957],[22.1907,38.2957],[22.1907,38.2685],[22.224,38.2685],[22.224,38.2662],[22.2907,38.2662],[22.2907,38.2562],[22.4239,38.2562],[22.4239,38.2517],[22.4573,38.2517],[22.4573,38.2163],[22.5572,38.2163],[22.5572,38.2038],[22.6571,38.2038],[22.6571,38.1558],[22.6904,38.1558],[22.6904,38.1795],[22.7238,38.1795],[22.7238,38.1315],[22.9569,38.1315],[22.9569,38.1423],[23.0569,38.1423],[23.0569,38.101],[23.0902,38.101],[23.0902,38.0625],[23.0763,38.0597],[23.1108,38.0229],[23.1594,37.9405],[23.1668,37.9441],[23.1668,37.93],[23.1929,37.93],[23.1929,37.8978],[23.219,37.8903],[23.3233,37.8603],[23.532,37.8004],[23.9493,37.6805],[23.9497,37.6774],[24.0327,37.6515],[24.0367,37.6554],[24.039,37.6547],[24.039,37.6548],[24.0394,37.6547],[24.0394,37.6551],[24.0393,37.6579],[24.0721,37.6895],[24.0594,37.6993],[24.0731,37.7272],[24.0594,37.7335],[24.0819,37.7525],[24.0874,37.7852],[24.077,37.8111],[24.0608,37.8191],[24.0588,37.8286],[24.0669,37.8371],[24.0532,37.8781],[24.048,37.8798],[24.0426,37.9058],[24.0433,37.9164],[24.0401,37.9173],[24.0322,37.9551],[24.031,37.9882],[24.0306,38.0037],[24.0327,38.0078],[24.0304,38.011],[24.0272,38.1361],[24.0532,38.1453],[24.0806,38.166],[24.069,38.2047],[23.9912,38.2542],[23.951,38.2909],[23.9124,38.2982],[23.8639,38.3151],[23.7187,38.4003],[23.7007,38.4108],[23.71,38.4125],[23.7466,38.4053],[23.7582,38.4008],[23.7694,38.4008],[23.779,38.3989],[23.7971,38.4008],[23.8683,38.4008],[23.9124,38.392],[23.9535,38.3961],[24.039,38.3904],[24.0426,38.3748],[24.0584,38.3468],[24.0254,38.3305],[24.0794,38.3254],[24.1047,38.3159],[24.1144,38.2976],[24.1009,38.2753],[24.1094,38.2563],[24.13,38.268],[24.1416,38.2463],[24.1311,38.2358],[24.1661,38.2243],[24.1902,38.2047],[24.1938,38.1508],[24.1952,38.1482],[24.186,38.1274],[24.208,38.1248],[24.2108,38.1197],[24.2108,38.0978],[24.2515,38.0961],[24.2853,38.0775],[24.2922,38.0699],[24.304,38.0673],[24.3162,38.0606],[24.3182,38.0587],[24.327,38.0425],[24.3138,38.0292],[24.3386,37.9967],[24.3718,37.9719],[24.4021,37.9879],[24.3864,37.9965],[24.4203,38.0158],[24.4458,38.005],[24.4587,37.9925],[24.4769,37.9625],[24.5093,37.9626],[24.5667,37.9879],[24.5786,38.0199],[24.5794,38.0206],[24.5796,38.0225],[24.5945,38.0624],[24.5853,38.0762],[24.5902,38.1231],[24.5902,38.1235],[24.5846,38.1289],[24.5877,38.1592],[24.4992,38.1466],[24.4642,38.146],[24.4069,38.1555],[24.3926,38.164],[24.3698,38.1617],[24.3598,38.1634],[24.277,38.2207],[24.2576,38.2605],[24.2525,38.2924],[24.228,38.3211],[24.2194,38.3387],[24.2117,38.3683],[24.2108,38.3777],[24.2086,38.3802],[24.1994,38.416],[24.2039,38.4187],[24.1967,38.4264],[24.1871,38.4634],[24.2122,38.5032],[24.2121,38.5035],[24.2122,38.5036],[24.2106,38.5093],[24.2315,38.5224],[24.2161,38.5395],[24.1798,38.5634],[24.1546,38.5887],[24.1351,38.6358],[24.1556,38.6527],[24.1039,38.6694],[24.1006,38.672],[24.0949,38.6724],[24.0731,38.6794],[24.0057,38.678],[23.9842,38.6862],[23.9771,38.6797],[23.8774,38.6859],[23.742,38.7424],[23.7385,38.7494],[23.7026,38.7651],[23.6932,38.7628],[23.6902,38.764],[23.6362,38.771],[23.5937,38.7875],[23.594,38.7893],[23.5851,38.7909],[23.5552,38.8025],[23.5247,38.8232],[23.4984,38.8321],[23.4706,38.8508],[23.4372,38.9173],[23.4256,38.9543],[23.4174,38.9569],[23.4166,38.9585],[23.3832,38.9829],[23.3816,39.0015],[23.3285,39.023],[23.3122,39.0349],[23.3118,39.0349],[23.31,39.0348],[23.2991,39.0425],[23.273,39.0388],[23.25,39.0295],[23.1679,39.009],[23.138,39.009],[23.0944,38.9879],[23.0911,38.9734],[23.0183,38.9335],[22.9857,38.9604],[22.9967,38.9634],[23.0144,38.9934],[23.1116,39.05],[23.2027,39.103],[23.2186,39.1039],[23.2855,39.148],[23.3013,39.1514],[23.3438,39.1796],[23.3432,39.1849],[23.3518,39.1899],[23.3515,39.1902],[23.3518,39.1903],[23.331,39.2098],[23.2957,39.2637],[23.287,39.2883],[23.2823,39.2945],[23.2713,39.3229],[23.2468,39.3413],[23.233,39.3595],[23.1441,39.45],[23.1074,39.4873],[23.1018,39.4974],[23.0559,39.5272],[23.024,39.5373],[22.9774,39.5643],[22.9198,39.6286],[22.8664,39.7393],[22.8587,39.7733],[22.8403,39.8034],[22.8011,39.8403],[22.7877,39.8479],[22.777,39.8583],[22.7623,39.8977],[22.7437,39.9475],[22.7159,40.022],[22.7065,40.0471],[22.632,40.2463],[22.6283,40.2563],[22.7422,40.3901],[22.8152,40.476],[22.8953,40.3981],[22.8882,40.3863],[22.9064,40.3873],[23.3442,39.9617],[23.3608,39.9617],[23.3606,39.9611],[23.3644,39.9617],[23.4925,39.9617],[23.548,39.9461],[23.6165,39.9233],[23.7031,39.9127],[23.7479,39.9305],[23.6973,39.9405],[23.676,39.9611],[23.6759,39.9617],[23.899,39.9617],[23.9142,39.9666],[23.9197,39.9564],[23.9912,39.9536],[23.9728,39.9619],[23.9987,39.9748],[23.988,39.99],[23.9884,39.9903],[24.0511,40.0104],[24.14,40.0388],[24.1844,40.0531],[24.2289,40.0673],[24.4066,40.1242],[24.4063,40.1245],[24.4066,40.1246],[24.3815,40.145],[24.3938,40.1525],[24.3833,40.1791],[24.3206,40.228],[24.2663,40.289],[24.2334,40.3169],[24.2223,40.3171],[24.2122,40.3282],[24.1889,40.3388],[24.1799,40.3515],[24.1336,40.3638],[24.0855,40.3856],[24.0293,40.4313],[24.0288,40.4321],[24.0114,40.4492],[24.0076,40.4489],[24.0042,40.4517],[23.9154,40.5239],[23.9092,40.5289],[23.9149,40.5389],[23.8888,40.5638],[23.8663,40.5638],[23.8291,40.5941],[23.7704,40.6418],[23.7443,40.677],[23.7484,40.6932],[23.8291,40.7106],[23.8635,40.718],[23.8978,40.7254],[23.9665,40.7402],[23.9863,40.7322],[24.0731,40.7214],[24.1101,40.7279],[24.2959,40.8112],[24.6124,40.8794],[24.6287,40.8586],[24.6619,40.8791],[24.6798,40.8694],[24.6907,40.8682],[24.7284,40.8527],[24.7539,40.8614],[24.79,40.8575],[24.802,40.8535],[24.8297,40.8768],[24.8342,40.8791],[24.82,40.95],[24.8,41.08],[24.75,41.15],[24.7,41.25],[24.65,41.4],[24.6471,41.4172],[24.6382,41.4177],[24.6443,41.4277],[24.5958,41.4298],[24.5811,41.4602],[24.5494,41.4854],[24.5309,41.5475],[24.5102,41.5617],[24.4592,41.5495],[24.4388,41.5277],[24.3539,41.5191],[24.2868,41.5176],[24.2864,41.5404],[24.2507,41.5635],[24.1977,41.5477],[24.1628,41.512],[24.1463,41.5268],[24.0766,41.536],[24.0473,41.5257],[24.0525,41.4715],[24.0459,41.4555],[24.0007,41.4641],[23.9499,41.4376],[23.8948,41.4643],[23.8677,41.4455],[23.7771,41.429],[23.7544,41.4007],[23.7054,41.4032],[23.6529,41.3976],[23.6248,41.3771],[23.579,41.372],[23.513,41.3977],[23.4145,41.3999],[23.3472,41.3712],[23.326,41.3693],[23.2877,41.3982],[23.2466,41.3897],[23.2098,41.3686],[23.1995,41.333],[23.1797,41.3214],[23.1152,41.3127],[22.917,41.3358],[22.826,41.341],[22.7968,41.337],[22.781,41.3349],[22.7623,41.3225],[22.7513,41.3152],[22.742,41.287],[22.7409,41.2836],[22.7367,41.2044],[22.7272,41.1658],[22.7158,41.1456],[22.7049,41.1397],[22.6919,41.1446],[22.6741,41.1566],[22.6572,41.177],[22.6445,41.1802],[22.6293,41.1771],[22.6259,41.1698],[22.6245,41.1526],[22.6073,41.136],[22.5866,41.1241],[22.5492,41.1185],[22.5007,41.1221],[22.4675,41.115],[22.4218,41.1146],[22.3802,41.1317],[22.3067,41.1284],[22.3026,41.1455],[22.2136,41.1607],[22.1603,41.1519],[22.1034,41.1215],[22.0482,41.1519],[22.0291,41.1386],[21.9651,41.1244],[21.9255,41.1068],[21.9012,41.0908],[21.8963,41.0647],[21.8807,41.0384],[21.845,41.0124],[21.8313,40.9935],[21.7837,40.9642],[21.7781,40.9337],[21.7571,40.9225],[21.737,40.9192],[21.6851,40.928],[21.6569,40.9182],[21.6439,40.8945],[21.6237,40.8944],[21.5816,40.8663],[21.5537,40.8704],[21.5057,40.9009],[21.4294,40.909],[21.3813,40.9005],[21.3449,40.8731],[21.2954,40.8609],[21.2458,40.8632],[21.183,40.8702],[21.1121,40.8539],[20.9653,40.8494],[20.967,40.802],[20.9437,40.7653],[20.9635,40.7361],[21.0186,40.6909],[21.0367,40.6397],[21.0188,40.559],[20.9815,40.5233],[20.9579,40.5149],[20.9368,40.4725],[20.9119,40.4595],[20.8668,40.4721],[20.8267,40.4648],[20.8092,40.4366],[20.7795,40.429],[20.769,40.4126],[20.7739,40.3749],[20.7396,40.3092]]],[[[22.8997,36.3282],[22.9055,36.3132],[22.9113,36.2331],[22.9087,36.206],[22.9496,36.165],[23.0025,36.1466],[23.052,36.1448],[23.0539,36.1905],[23.0852,36.2318],[23.1039,36.2372],[23.0962,36.2468],[23.0961,36.2469],[23.0769,36.2707],[23.0476,36.2876],[22.999,36.3284],[22.9825,36.348],[22.9564,36.3835],[22.9529,36.3832],[22.9522,36.384],[22.952,36.3838],[22.9518,36.384],[22.9506,36.383],[22.9326,36.3813],[22.8997,36.3282]]],[[[23.2612,37.66],[23.2648,37.66],[23.2612,37.6663],[23.2612,37.66]]],[[[23.5872,39.2076],[23.6278,39.1473],[23.6342,39.1428],[23.6646,39.0952],[23.6663,39.0948],[23.666,39.0928],[23.7168,39.0772],[23.7295,39.0811],[23.7366,39.0796],[23.7367,39.0797],[23.737,39.0796],[23.7447,39.0858],[23.7603,39.0906],[23.7927,39.1182],[23.7727,39.1293],[23.7488,39.1304],[23.729,39.1404],[23.7305,39.1461],[23.6834,39.1632],[23.6522,39.1788],[23.6013,39.2138],[23.5872,39.2076]]],[[[23.8335,39.1461],[23.8645,39.144],[23.8958,39.1618],[23.8999,39.1677],[23.9386,39.2011],[23.9597,39.244],[23.967,39.2512],[23.971,39.2671],[23.9722,39.2719],[23.9398,39.2798],[23.9017,39.2328],[23.8878,39.2258],[23.8488,39.1592],[23.8335,39.1461]]],[[[24.512,40.6668],[24.5146,40.6519],[24.5142,40.6476],[24.5142,40.6472],[24.5155,40.6465],[24.5168,40.6391],[24.5402,40.634],[24.6114,40.5978],[24.6423,40.5706],[24.6639,40.5839],[24.7738,40.6142],[24.7738,40.6146],[24.7735,40.618],[24.7824,40.6202],[24.7705,40.6556],[24.7702,40.6595],[24.7789,40.6813],[24.7864,40.6879],[24.7831,40.6918],[24.7882,40.7045],[24.7881,40.7047],[24.7882,40.7049],[24.7738,40.7309],[24.7703,40.7345],[24.7864,40.7351],[24.7492,40.7562],[24.7412,40.7644],[24.7317,40.7835],[24.7213,40.785],[24.7198,40.7865],[24.702,40.7878],[24.6746,40.7917],[24.6423,40.8039],[24.6255,40.7932],[24.6226,40.7934],[24.6222,40.7934],[24.5862,40.7691],[24.5843,40.7669],[24.5667,40.7556],[24.5334,40.7182],[24.5234,40.6942],[24.5178,40.6875],[24.517,40.6789],[24.512,40.6668]]],[[[25.4435,40.4819],[25.4663,40.4558],[25.5326,40.415],[25.5661,40.405],[25.5727,40.4007],[25.573,40.4008],[25.5731,40.4007],[25.5772,40.4017],[25.5891,40.3981],[25.6826,40.4231],[25.6837,40.4265],[25.6847,40.4267],[25.6845,40.4271],[25.6847,40.4271],[25.6842,40.428],[25.6907,40.4477],[25.6887,40.475],[25.6565,40.4962],[25.5759,40.5147],[25.5715,40.5148],[25.5695,40.5157],[25.5692,40.5156],[25.5691,40.5157],[25.5661,40.5149],[25.5466,40.5153],[25.5021,40.4976],[25.4467,40.4827],[25.447,40.4825],[25.4469,40.4825],[25.4471,40.4824],[25.4467,40.4823],[25.4474,40.4818],[25.4435,40.4819]]]]}},
{"type":"Feature","properties":{"entityId":"thessalonica-kingdom","from":1205,"to":1222,"certainty":"estimated","source":"유럽 쪽은 Natural Earth 1:10m admin-1(v5.1.2) 현대 행정구역 조각을 그 시기 국경에 맞춰 묶고, 조각이 역사 경계와 다른 곳은 선을 그어 나눈 근사. 유럽 밖(시베리아·중앙아시아·극동)은 대략적인 추정. 운영자 검수 필요"},"geometry":{"type":"MultiPolygon","coordinates":[[[[20.7396,40.3092],[20.7732,40.299],[20.8064,40.3199],[20.8439,40.3266],[20.8784,40.2653],[20.9208,40.225],[20.9479,40.1809],[20.9608,40.1384],[20.9323,40.087],[20.9482,40.077],[20.9611,40.0345],[20.9879,40.0068],[21.027,40.0215],[21.0429,40.0115],[21.0403,39.9817],[21.0139,39.941],[21.0453,39.9182],[21.0588,39.862],[21.0779,39.8325],[21.0949,39.8277],[21.1892,39.8496],[21.2249,39.8482],[21.2906,39.8186],[21.2912,39.8048],[21.2639,39.8108],[21.2151,39.7837],[21.1984,39.7556],[21.2162,39.6687],[21.1432,39.68],[21.1104,39.6592],[21.1232,39.6003],[21.1661,39.5652],[21.169,39.5102],[21.1531,39.4847],[21.1749,39.4521],[21.1787,39.4189],[21.226,39.3888],[21.2403,39.3543],[21.2752,39.3337],[21.3459,39.3308],[21.3851,39.2797],[21.3331,39.2012],[21.3623,39.1539],[21.3757,39.1496],[21.4228,39.1877],[21.4776,39.2112],[21.5089,39.191],[21.5521,39.2268],[21.6377,39.2437],[21.6608,39.2191],[21.6662,39.1774],[21.6986,39.1624],[21.697,39.1216],[21.72,39.0969],[21.7564,39.1006],[21.813,39.1319],[21.8309,39.1324],[21.8991,39.1021],[21.9134,39.0866],[21.9157,39.0316],[21.97,39.0358],[22.0126,39.0523],[22.0392,39.0763],[22.0958,39.091],[22.1167,39.1048],[22.147,39.1611],[22.2359,39.2402],[22.2844,39.2175],[22.3547,39.1975],[22.4054,39.169],[22.413,39.1242],[22.4285,39.114],[22.4939,39.1192],[22.4926,39.0509],[22.516,39.0287],[22.5546,39.0263],[22.6308,39.0327],[22.7144,38.9942],[22.7863,38.9819],[22.8394,38.9803],[22.8694,38.957],[22.9271,38.9602],[22.966,38.9742],[22.9967,38.9634],[23.0144,38.9934],[23.1116,39.05],[23.2027,39.103],[23.2186,39.1039],[23.2855,39.148],[23.3013,39.1514],[23.3438,39.1796],[23.3432,39.1849],[23.3518,39.1899],[23.3515,39.1902],[23.3518,39.1903],[23.331,39.2098],[23.2957,39.2637],[23.287,39.2883],[23.2823,39.2945],[23.2713,39.3229],[23.2468,39.3413],[23.233,39.3595],[23.1441,39.45],[23.1074,39.4873],[23.1018,39.4974],[23.0559,39.5272],[23.024,39.5373],[22.9774,39.5643],[22.9198,39.6286],[22.8664,39.7393],[22.8587,39.7733],[22.8403,39.8034],[22.8011,39.8403],[22.7877,39.8479],[22.777,39.8583],[22.7623,39.8977],[22.7437,39.9475],[22.7159,40.022],[22.7065,40.0471],[22.632,40.2463],[22.6283,40.2563],[22.7422,40.3901],[22.8152,40.476],[22.8953,40.3981],[22.8882,40.3863],[22.9064,40.3873],[23.3442,39.9617],[23.3608,39.9617],[23.3606,39.9611],[23.3644,39.9617],[23.4925,39.9617],[23.548,39.9461],[23.6165,39.9233],[23.7031,39.9127],[23.7479,39.9305],[23.6973,39.9405],[23.676,39.9611],[23.6759,39.9617],[23.899,39.9617],[23.9142,39.9666],[23.9197,39.9564],[23.9912,39.9536],[23.9728,39.9619],[23.9987,39.9748],[23.988,39.99],[23.9884,39.9903],[24.0511,40.0104],[24.14,40.0388],[24.1844,40.0531],[24.2289,40.0673],[24.4066,40.1242],[24.4063,40.1245],[24.4066,40.1246],[24.3815,40.145],[24.3938,40.1525],[24.3833,40.1791],[24.3206,40.228],[24.2663,40.289],[24.2334,40.3169],[24.2223,40.3171],[24.2122,40.3282],[24.1889,40.3388],[24.1799,40.3515],[24.1336,40.3638],[24.0855,40.3856],[24.0293,40.4313],[24.0288,40.4321],[24.0114,40.4492],[24.0076,40.4489],[24.0042,40.4517],[23.9154,40.5239],[23.9092,40.5289],[23.9149,40.5389],[23.8888,40.5638],[23.8663,40.5638],[23.8291,40.5941],[23.7704,40.6418],[23.7443,40.677],[23.7484,40.6932],[23.8291,40.7106],[23.8635,40.718],[23.8978,40.7254],[23.9665,40.7402],[23.9863,40.7322],[24.0731,40.7214],[24.1101,40.7279],[24.2959,40.8112],[24.6124,40.8794],[24.6287,40.8586],[24.6619,40.8791],[24.6798,40.8694],[24.6907,40.8682],[24.7284,40.8527],[24.7539,40.8614],[24.79,40.8575],[24.802,40.8535],[24.8297,40.8768],[24.8342,40.8791],[24.82,40.95],[24.8,41.08],[24.75,41.15],[24.7,41.25],[24.65,41.4],[24.6471,41.4172],[24.6382,41.4177],[24.6443,41.4277],[24.5958,41.4298],[24.5811,41.4602],[24.5494,41.4854],[24.5309,41.5475],[24.5102,41.5617],[24.4592,41.5495],[24.4388,41.5277],[24.3539,41.5191],[24.2868,41.5176],[24.2864,41.5404],[24.2507,41.5635],[24.1977,41.5477],[24.1628,41.512],[24.1463,41.5268],[24.0766,41.536],[24.0473,41.5257],[24.0525,41.4715],[24.0459,41.4555],[24.0007,41.4641],[23.9499,41.4376],[23.8948,41.4643],[23.8677,41.4455],[23.7771,41.429],[23.7544,41.4007],[23.7054,41.4032],[23.6529,41.3976],[23.6248,41.3771],[23.579,41.372],[23.513,41.3977],[23.4145,41.3999],[23.3472,41.3712],[23.326,41.3693],[23.2877,41.3982],[23.2466,41.3897],[23.2098,41.3686],[23.1995,41.333],[23.1797,41.3214],[23.1152,41.3127],[22.917,41.3358],[22.826,41.341],[22.7968,41.337],[22.781,41.3349],[22.7623,41.3225],[22.7513,41.3152],[22.742,41.287],[22.7409,41.2836],[22.7367,41.2044],[22.7272,41.1658],[22.7158,41.1456],[22.7049,41.1397],[22.6919,41.1446],[22.6741,41.1566],[22.6572,41.177],[22.6445,41.1802],[22.6293,41.1771],[22.6259,41.1698],[22.6245,41.1526],[22.6073,41.136],[22.5866,41.1241],[22.5492,41.1185],[22.5007,41.1221],[22.4675,41.115],[22.4218,41.1146],[22.3802,41.1317],[22.3067,41.1284],[22.3026,41.1455],[22.2136,41.1607],[22.1603,41.1519],[22.1034,41.1215],[22.0482,41.1519],[22.0291,41.1386],[21.9651,41.1244],[21.9255,41.1068],[21.9012,41.0908],[21.8963,41.0647],[21.8807,41.0384],[21.845,41.0124],[21.8313,40.9935],[21.7837,40.9642],[21.7781,40.9337],[21.7571,40.9225],[21.737,40.9192],[21.6851,40.928],[21.6569,40.9182],[21.6439,40.8945],[21.6237,40.8944],[21.5816,40.8663],[21.5537,40.8704],[21.5057,40.9009],[21.4294,40.909],[21.3813,40.9005],[21.3449,40.8731],[21.2954,40.8609],[21.2458,40.8632],[21.183,40.8702],[21.1121,40.8539],[20.9653,40.8494],[20.967,40.802],[20.9437,40.7653],[20.9635,40.7361],[21.0186,40.6909],[21.0367,40.6397],[21.0188,40.559],[20.9815,40.5233],[20.9579,40.5149],[20.9368,40.4725],[20.9119,40.4595],[20.8668,40.4721],[20.8267,40.4648],[20.8092,40.4366],[20.7795,40.429],[20.769,40.4126],[20.7739,40.3749],[20.7396,40.3092]]],[[[23.5872,39.2076],[23.6278,39.1473],[23.6342,39.1428],[23.6646,39.0952],[23.6663,39.0948],[23.666,39.0928],[23.7168,39.0772],[23.7295,39.0811],[23.7366,39.0796],[23.7367,39.0797],[23.737,39.0796],[23.7447,39.0858],[23.7603,39.0906],[23.7927,39.1182],[23.7727,39.1293],[23.7488,39.1304],[23.729,39.1404],[23.7305,39.1461],[23.6834,39.1632],[23.6522,39.1788],[23.6013,39.2138],[23.5872,39.2076]]],[[[23.8335,39.1461],[23.8645,39.144],[23.8958,39.1618],[23.8999,39.1677],[23.9386,39.2011],[23.9597,39.244],[23.967,39.2512],[23.971,39.2671],[23.9722,39.2719],[23.9398,39.2798],[23.9017,39.2328],[23.8878,39.2258],[23.8488,39.1592],[23.8335,39.1461]]],[[[24.512,40.6668],[24.5146,40.6519],[24.5142,40.6476],[24.5142,40.6472],[24.5155,40.6465],[24.5168,40.6391],[24.5402,40.634],[24.6114,40.5978],[24.6423,40.5706],[24.6639,40.5839],[24.7738,40.6142],[24.7738,40.6146],[24.7735,40.618],[24.7824,40.6202],[24.7705,40.6556],[24.7702,40.6595],[24.7789,40.6813],[24.7864,40.6879],[24.7831,40.6918],[24.7882,40.7045],[24.7881,40.7047],[24.7882,40.7049],[24.7738,40.7309],[24.7703,40.7345],[24.7864,40.7351],[24.7492,40.7562],[24.7412,40.7644],[24.7317,40.7835],[24.7213,40.785],[24.7198,40.7865],[24.702,40.7878],[24.6746,40.7917],[24.6423,40.8039],[24.6255,40.7932],[24.6226,40.7934],[24.6222,40.7934],[24.5862,40.7691],[24.5843,40.7669],[24.5667,40.7556],[24.5334,40.7182],[24.5234,40.6942],[24.5178,40.6875],[24.517,40.6789],[24.512,40.6668]]],[[[25.4435,40.4819],[25.4663,40.4558],[25.5326,40.415],[25.5661,40.405],[25.5727,40.4007],[25.573,40.4008],[25.5731,40.4007],[25.5772,40.4017],[25.5891,40.3981],[25.6826,40.4231],[25.6837,40.4265],[25.6847,40.4267],[25.6845,40.4271],[25.6847,40.4271],[25.6842,40.428],[25.6907,40.4477],[25.6887,40.475],[25.6565,40.4962],[25.5759,40.5147],[25.5715,40.5148],[25.5695,40.5157],[25.5692,40.5156],[25.5691,40.5157],[25.5661,40.5149],[25.5466,40.5153],[25.5021,40.4976],[25.4467,40.4827],[25.447,40.4825],[25.4469,40.4825],[25.4471,40.4824],[25.4467,40.4823],[25.4474,40.4818],[25.4435,40.4819]]]]}},
{"type":"Feature","properties":{"entityId":"thessalonica-kingdom","from":1222,"to":1224,"certainty":"estimated","source":"유럽 쪽은 Natural Earth 1:10m admin-1(v5.1.2) 현대 행정구역 조각을 그 시기 국경에 맞춰 묶고, 조각이 역사 경계와 다른 곳은 선을 그어 나눈 근사. 유럽 밖(시베리아·중앙아시아·극동)은 대략적인 추정. 운영자 검수 필요"},"geometry":{"type":"MultiPolygon","coordinates":[[[[21.6992,40.8268],[21.7349,40.7403],[21.7693,40.7307],[21.7458,40.6733],[21.8576,40.6515],[21.8795,40.6516],[21.8552,40.6079],[21.8564,40.5804],[21.883,40.5525],[21.8706,40.5129],[21.9237,40.4571],[21.9932,40.4266],[22.0103,40.4053],[22.0663,40.4121],[22.075,40.3699],[22.1084,40.3411],[22.1242,40.298],[22.1711,40.2812],[22.1552,40.2585],[22.1521,40.2287],[22.099,40.2025],[22.0948,40.1674],[22.1024,40.1527],[22.1324,40.1736],[22.1846,40.1643],[22.1716,40.1386],[22.172,40.1084],[22.1965,40.0888],[22.2549,40.139],[22.2973,40.1501],[22.3375,40.1203],[22.3348,40.0768],[22.3463,40.0479],[22.3765,40.0222],[22.4441,39.9861],[22.4662,39.9558],[22.4968,39.9327],[22.5343,39.9224],[22.6139,39.9394],[22.6471,39.9269],[22.7096,39.935],[22.7098,39.935],[22.7098,39.9378],[22.71,39.9475],[22.7437,39.9475],[22.7159,40.022],[22.7065,40.0471],[22.632,40.2463],[22.6283,40.2563],[22.7422,40.3901],[22.8152,40.476],[22.8953,40.3981],[22.8882,40.3863],[22.9064,40.3873],[23.3442,39.9617],[23.3608,39.9617],[23.3606,39.9611],[23.3644,39.9617],[23.4925,39.9617],[23.548,39.9461],[23.6165,39.9233],[23.7031,39.9127],[23.7479,39.9305],[23.6973,39.9405],[23.676,39.9611],[23.6759,39.9617],[23.899,39.9617],[23.9142,39.9666],[23.9197,39.9564],[23.9912,39.9536],[23.9728,39.9619],[23.9987,39.9748],[23.988,39.99],[23.9884,39.9903],[24.0511,40.0104],[24.14,40.0388],[24.1844,40.0531],[24.2289,40.0673],[24.4066,40.1242],[24.4063,40.1245],[24.4066,40.1246],[24.3815,40.145],[24.3938,40.1525],[24.3833,40.1791],[24.3206,40.228],[24.2663,40.289],[24.2334,40.3169],[24.2223,40.3171],[24.2122,40.3282],[24.1889,40.3388],[24.1799,40.3515],[24.1336,40.3638],[24.0855,40.3856],[24.0293,40.4313],[24.0288,40.4321],[24.0114,40.4492],[24.0076,40.4489],[24.0042,40.4517],[23.9154,40.5239],[23.9092,40.5289],[23.9149,40.5389],[23.8888,40.5638],[23.8663,40.5638],[23.8291,40.5941],[23.7704,40.6418],[23.7443,40.677],[23.7484,40.6932],[23.8291,40.7106],[23.8635,40.718],[23.8978,40.7254],[23.9665,40.7402],[23.9863,40.7322],[24.0731,40.7214],[24.1101,40.7279],[24.2959,40.8112],[24.6124,40.8794],[24.6287,40.8586],[24.6619,40.8791],[24.6798,40.8694],[24.6907,40.8682],[24.7284,40.8527],[24.7539,40.8614],[24.79,40.8575],[24.802,40.8535],[24.8297,40.8768],[24.8342,40.8791],[24.82,40.95],[24.8,41.08],[24.75,41.15],[24.7,41.25],[24.65,41.4],[24.6471,41.4172],[24.6382,41.4177],[24.6443,41.4277],[24.5958,41.4298],[24.5811,41.4602],[24.5494,41.4854],[24.5309,41.5475],[24.5102,41.5617],[24.4592,41.5495],[24.4388,41.5277],[24.3539,41.5191],[24.2868,41.5176],[24.2864,41.5404],[24.2507,41.5635],[24.1977,41.5477],[24.1628,41.512],[24.1463,41.5268],[24.0766,41.536],[24.0473,41.5257],[24.0525,41.4715],[24.0459,41.4555],[24.0007,41.4641],[23.9499,41.4376],[23.8948,41.4643],[23.8677,41.4455],[23.7771,41.429],[23.7544,41.4007],[23.7054,41.4032],[23.6529,41.3976],[23.6248,41.3771],[23.579,41.372],[23.513,41.3977],[23.4145,41.3999],[23.3472,41.3712],[23.326,41.3693],[23.2877,41.3982],[23.2466,41.3897],[23.2098,41.3686],[23.1995,41.333],[23.1797,41.3214],[23.1152,41.3127],[22.917,41.3358],[22.826,41.341],[22.7968,41.337],[22.781,41.3349],[22.7623,41.3225],[22.7513,41.3152],[22.742,41.287],[22.7409,41.2836],[22.7367,41.2044],[22.7272,41.1658],[22.7158,41.1456],[22.7049,41.1397],[22.6919,41.1446],[22.6741,41.1566],[22.6572,41.177],[22.6445,41.1802],[22.6293,41.1771],[22.6259,41.1698],[22.6245,41.1526],[22.6073,41.136],[22.5866,41.1241],[22.5492,41.1185],[22.5007,41.1221],[22.4675,41.115],[22.4218,41.1146],[22.3802,41.1317],[22.3067,41.1284],[22.3026,41.1455],[22.2136,41.1607],[22.1603,41.1519],[22.1034,41.1215],[22.0482,41.1519],[22.0291,41.1386],[21.9651,41.1244],[21.9255,41.1068],[21.9012,41.0908],[21.8963,41.0647],[21.8807,41.0384],[21.845,41.0124],[21.8313,40.9935],[21.7837,40.9642],[21.7781,40.9337],[21.7571,40.9225],[21.7638,40.8876],[21.8131,40.8624],[21.7929,40.8375],[21.7354,40.8252],[21.6992,40.8268]]],[[[24.512,40.6668],[24.5146,40.6519],[24.5142,40.6476],[24.5142,40.6472],[24.5155,40.6465],[24.5168,40.6391],[24.5402,40.634],[24.6114,40.5978],[24.6423,40.5706],[24.6639,40.5839],[24.7738,40.6142],[24.7738,40.6146],[24.7735,40.618],[24.7824,40.6202],[24.7705,40.6556],[24.7702,40.6595],[24.7789,40.6813],[24.7864,40.6879],[24.7831,40.6918],[24.7882,40.7045],[24.7881,40.7047],[24.7882,40.7049],[24.7738,40.7309],[24.7703,40.7345],[24.7864,40.7351],[24.7492,40.7562],[24.7412,40.7644],[24.7317,40.7835],[24.7213,40.785],[24.7198,40.7865],[24.702,40.7878],[24.6746,40.7917],[24.6423,40.8039],[24.6255,40.7932],[24.6226,40.7934],[24.6222,40.7934],[24.5862,40.7691],[24.5843,40.7669],[24.5667,40.7556],[24.5334,40.7182],[24.5234,40.6942],[24.5178,40.6875],[24.517,40.6789],[24.512,40.6668]]],[[[25.4435,40.4819],[25.4663,40.4558],[25.5326,40.415],[25.5661,40.405],[25.5727,40.4007],[25.573,40.4008],[25.5731,40.4007],[25.5772,40.4017],[25.5891,40.3981],[25.6826,40.4231],[25.6837,40.4265],[25.6847,40.4267],[25.6845,40.4271],[25.6847,40.4271],[25.6842,40.428],[25.6907,40.4477],[25.6887,40.475],[25.6565,40.4962],[25.5759,40.5147],[25.5715,40.5148],[25.5695,40.5157],[25.5692,40.5156],[25.5691,40.5157],[25.5661,40.5149],[25.5466,40.5153],[25.5021,40.4976],[25.4467,40.4827],[25.447,40.4825],[25.4469,40.4825],[25.4471,40.4824],[25.4467,40.4823],[25.4474,40.4818],[25.4435,40.4819]]]]}}
]}
