{"type":"FeatureCollection","features":[
{"type":"Feature","properties":{"entityId":"thracian-tribes","from":-263,"to":-27,"certainty":"estimated","source":"유럽 쪽은 Natural Earth 1:10m admin-1(v5.1.2) 현대 행정구역 조각을 그 시기 국경에 맞춰 묶고, 조각이 역사 경계와 다른 곳은 선을 그어 나눈 근사. 유럽 밖(시베리아·중앙아시아·극동)은 대략적인 추정. 운영자 검수 필요"},"geometry":{"type":"MultiPolygon","coordinates":[[[[20.3891,44.2943],[20.4154,44.2841],[20.4231,44.2418],[20.4603,44.1578],[20.5119,44.1378],[20.5383,44.0999],[20.5402,44.0789],[20.6042,44.0502],[20.6369,44.0202],[20.6202,44.0054],[20.595,44.0113],[20.5665,43.9688],[20.5262,43.9469],[20.5477,43.9156],[20.5765,43.9046],[20.6208,43.8592],[20.6614,43.8297],[20.6901,43.7884],[20.7177,43.7758],[20.769,43.7882],[20.7652,43.8239],[20.7915,43.8314],[20.8369,43.8284],[20.8557,43.8401],[20.8942,43.8266],[20.9084,43.8074],[20.9247,43.7552],[20.957,43.7282],[20.9164,43.7269],[20.9148,43.6728],[20.8781,43.6445],[20.9162,43.6383],[20.9504,43.6093],[20.9153,43.5885],[20.9081,43.5643],[20.919,43.5354],[20.9452,43.506],[20.8889,43.4929],[20.8528,43.499],[20.8336,43.5148],[20.7946,43.5042],[20.7603,43.5092],[20.7812,43.4771],[20.7693,43.413],[20.7731,43.3887],[20.8291,43.383],[20.8365,43.3282],[20.8075,43.3013],[20.8097,43.2596],[20.8384,43.2459],[20.8647,43.2173],[20.84,43.2121],[20.8386,43.1705],[20.9125,43.1388],[20.9549,43.1753],[20.949,43.2216],[20.968,43.2511],[21.032,43.2546],[21.0725,43.2359],[21.1341,43.2548],[21.1687,43.3037],[21.1939,43.3173],[21.202,43.3467],[21.289,43.3765],[21.337,43.3863],[21.3789,43.3779],[21.4159,43.3846],[21.4472,43.3668],[21.4694,43.3678],[21.4901,43.3474],[21.5479,43.3422],[21.5939,43.3492],[21.5781,43.3137],[21.6032,43.2761],[21.623,43.271],[21.6149,43.2394],[21.7002,43.2118],[21.7007,43.2474],[21.7659,43.2466],[21.7787,43.222],[21.7611,43.2009],[21.8039,43.1589],[21.8055,43.1378],[21.8493,43.1393],[21.9045,43.1634],[21.9368,43.1331],[21.9936,43.1514],[22.028,43.1438],[22.0776,43.1022],[22.1326,43.078],[22.1552,43.0587],[22.2127,43.0568],[22.234,43.074],[22.257,43.0585],[22.2024,43.0222],[22.2044,43.0132],[22.2556,42.9929],[22.2892,42.991],[22.39,42.956],[22.4014,42.9426],[22.3592,42.9296],[22.4138,42.8932],[22.4654,42.8781],[22.5448,42.8717],[22.506,42.8701],[22.4814,42.8467],[22.4304,42.8171],[22.4531,42.7636],[22.4814,42.7398],[22.4421,42.6817],[22.4413,42.6329],[22.4253,42.5729],[22.5249,42.5077],[22.5365,42.4784],[22.5088,42.4049],[22.4698,42.3917],[22.424,42.3259],[22.345,42.3134],[22.4436,42.2144],[22.4814,42.1933],[22.5069,42.1489],[22.5311,42.1291],[22.6178,42.0827],[22.6272,42.0791],[22.6759,42.0606],[22.7057,42.0559],[22.7251,42.0425],[22.7809,42.0432],[22.7989,42.0212],[22.827,42.0251],[22.8456,42.0074],[22.8754,42.0331],[22.8969,42.0304],[22.9336,42.086],[22.959,42.0871],[22.9762,42.0683],[23.0051,42.0699],[23.0607,42.0487],[23.1227,42.0576],[23.2006,42.0917],[23.2605,42.0929],[23.3872,42.0623],[23.4443,42.0697],[23.4936,42.0991],[23.5475,42.0841],[23.5808,42.1144],[23.6002,42.1509],[23.6984,42.1668],[23.718,42.1605],[23.7631,42.1776],[23.7957,42.1887],[23.8009,42.2113],[23.8481,42.2257],[23.8806,42.2615],[23.8885,42.2907],[23.9125,42.296],[23.9581,42.268],[23.9741,42.2833],[23.9415,42.3468],[23.9594,42.3923],[24.0384,42.408],[24.0547,42.445],[24.0387,42.4649],[23.9881,42.4587],[23.9214,42.5075],[23.8981,42.547],[23.904,42.5695],[23.9614,42.5793],[24.0347,42.5534],[24.0815,42.5729],[24.1296,42.5816],[24.1575,42.6107],[24.2289,42.6297],[24.285,42.6213],[24.3018,42.588],[24.3504,42.5652],[24.4082,42.5621],[24.4418,42.5632],[24.4683,42.5771],[24.473,42.5993],[24.4472,42.6126],[24.4163,42.645],[24.3731,42.6617],[24.3602,42.7074],[24.3967,42.7549],[24.4376,42.7517],[24.5,42.792],[24.5853,42.7886],[24.6307,42.7753],[24.6644,42.7425],[24.704,42.7167],[24.752,42.7094],[24.7751,42.7191],[24.8277,42.719],[24.8787,42.7102],[24.9247,42.714],[24.9662,42.7321],[24.98,42.7532],[25.0112,42.7585],[25.0025,42.8074],[24.9776,42.8532],[24.8948,42.8888],[24.8675,42.9868],[24.9202,43.0336],[24.9116,43.0663],[24.9243,43.1069],[24.9617,43.1269],[24.9854,43.1959],[25.0725,43.1811],[25.1165,43.2152],[25.1116,43.2799],[25.1496,43.2871],[25.2257,43.3365],[25.2203,43.3741],[25.1991,43.406],[25.1903,43.4421],[25.1475,43.4403],[25.136,43.4617],[25.1967,43.5115],[25.2194,43.5466],[25.1952,43.5582],[25.1874,43.5891],[25.2173,43.6157],[25.2312,43.6561],[25.2854,43.6904],[25.2113,43.7119],[25.0816,43.7189],[24.9637,43.7496],[24.7526,43.7388],[24.6618,43.7557],[24.5001,43.7995],[24.4312,43.7942],[24.3755,43.7639],[24.3367,43.7593],[24.1496,43.7547],[23.7999,43.8185],[23.7208,43.8458],[23.6209,43.834],[23.5927,43.8374],[23.4847,43.8806],[23.3252,43.8866],[23.2345,43.8773],[23.1318,43.8479],[23.0526,43.8428],[22.9196,43.8342],[22.8634,43.8554],[22.8505,43.897],[22.8859,43.9945],[22.9058,44.004],[22.9881,44.0177],[23.023,44.0316],[23.0401,44.0623],[23.031,44.0931],[23.0083,44.1004],[22.9064,44.1229],[22.6916,44.2284],[22.6895,44.2917],[22.6815,44.3053],[22.5828,44.3284],[22.5494,44.349],[22.5051,44.4041],[22.501,44.4419],[22.477,44.464],[22.4841,44.4998],[22.5355,44.5075],[22.5567,44.5215],[22.5656,44.5554],[22.6212,44.5692],[22.7001,44.5418],[22.7417,44.5519],[22.7652,44.5828],[22.7001,44.6306],[22.6212,44.6374],[22.5533,44.6692],[22.4837,44.724],[22.4261,44.7337],[22.3807,44.7005],[22.3197,44.6853],[22.1851,44.5151],[22.1482,44.5009],[22.1043,44.5096],[22.0763,44.5507],[22.0452,44.5692],[22.0362,44.5895],[22.0342,44.5962],[22.0043,44.6515],[21.8554,44.6985],[21.7568,44.6773],[21.7052,44.6771],[21.6563,44.6877],[21.6197,44.7139],[21.5956,44.766],[21.5584,44.7817],[21.4972,44.778],[21.3959,44.7902],[21.3598,44.8267],[21.2695,44.8137],[21.1888,44.7782],[21.1638,44.7478],[21.1123,44.7448],[21.0779,44.7265],[21.0368,44.722],[20.9896,44.7168],[20.8832,44.6727],[20.8265,44.6609],[20.7948,44.6647],[20.7715,44.6163],[20.7815,44.5876],[20.8064,44.5632],[20.7371,44.533],[20.7641,44.496],[20.8211,44.464],[20.8376,44.4415],[20.8191,44.4159],[20.7759,44.4228],[20.7567,44.416],[20.7315,44.3785],[20.7579,44.3511],[20.787,44.3448],[20.7676,44.3312],[20.772,44.2978],[20.7314,44.3227],[20.6846,44.3347],[20.6498,44.3218],[20.623,44.3398],[20.6065,44.3737],[20.5431,44.3556],[20.5379,44.3857],[20.4838,44.3989],[20.4422,44.4189],[20.4095,44.4026],[20.3996,44.3821],[20.4312,44.3603],[20.4003,44.3247],[20.3891,44.2943]]],[[[24.0631,41.792],[24.0664,41.7679],[24.0996,41.7421],[24.1023,41.7094],[24.0726,41.6863],[24.1231,41.6546],[24.0779,41.624],[24.1977,41.5477],[24.2507,41.5635],[24.2864,41.5404],[24.2868,41.5176],[24.3539,41.5191],[24.4388,41.5277],[24.4592,41.5495],[24.5102,41.5617],[24.5309,41.5475],[24.5494,41.4854],[24.5811,41.4602],[24.5958,41.4298],[24.6443,41.4277],[24.6382,41.4177],[24.6471,41.4172],[24.65,41.4],[24.7,41.25],[24.75,41.15],[24.8,41.08],[24.82,40.95],[24.8342,40.8791],[24.9548,40.9411],[24.9555,40.9411],[25.4467,40.852],[25.8819,40.8314],[25.8922,40.8264],[25.9729,40.7875],[25.9901,40.7792],[26.0119,40.7687],[26.019,40.757],[26.0222,40.7517],[26.0402,40.7517],[26.044,40.7385],[26.0816,40.7356],[26.1345,40.7671],[26.1583,40.8122],[26.212,40.8474],[26.2051,40.8584],[26.2262,40.8993],[26.2392,40.8857],[26.2604,40.9204],[26.2907,40.9061],[26.2944,40.9267],[26.3591,40.9647],[26.3359,40.9971],[26.3596,41.0024],[26.3742,41.0311],[26.3476,41.041],[26.3224,41.0886],[26.3395,41.1145],[26.3173,41.1223],[26.336,41.1526],[26.3211,41.1876],[26.336,41.2289],[26.3317,41.2541],[26.3951,41.259],[26.4893,41.3109],[26.5402,41.3518],[26.5911,41.3293],[26.6226,41.3404],[26.6366,41.3785],[26.6322,41.4197],[26.6159,41.4685],[26.6017,41.5473],[26.5955,41.6124],[26.5764,41.591],[26.4644,41.6485],[26.4762,41.6757],[26.4044,41.6918],[26.3774,41.7106],[26.3334,41.713],[26.2739,41.7149],[26.2345,41.7458],[26.2118,41.7505],[26.1899,41.7347],[26.1084,41.7279],[26.0605,41.7073],[26.0481,41.6891],[26.0595,41.6438],[26.0098,41.6358],[25.9989,41.6191],[25.9642,41.6126],[25.9569,41.592],[25.9169,41.5627],[25.8731,41.5782],[25.8276,41.6148],[25.8172,41.6548],[25.7822,41.6646],[25.747,41.6517],[25.7147,41.6211],[25.6802,41.6304],[25.6391,41.6204],[25.6056,41.6337],[25.634,41.7009],[25.5858,41.7614],[25.5672,41.7615],[25.5316,41.7867],[25.4708,41.77],[25.4084,41.7978],[25.3893,41.8466],[25.3531,41.8385],[25.3304,41.8176],[25.3,41.8097],[25.2472,41.817],[25.2108,41.8785],[25.2226,41.9037],[25.1959,41.9086],[25.1494,41.8818],[25.1243,41.8445],[25.1021,41.831],[25.0911,41.7933],[25.0671,41.795],[25.0313,41.8009],[24.9938,41.8389],[24.9338,41.8314],[24.9144,41.8581],[24.8452,41.8958],[24.8088,41.931],[24.7602,41.9411],[24.6591,41.9253],[24.5626,41.8852],[24.4511,41.9494],[24.424,41.8895],[24.3577,41.8615],[24.3152,41.8174],[24.3146,41.771],[24.2713,41.7419],[24.2143,41.7407],[24.1772,41.7281],[24.1893,41.7641],[24.1496,41.7911],[24.0996,41.7971],[24.0631,41.792]]]]}},
{"type":"Feature","properties":{"entityId":"thracian-tribes","from":-27,"to":-26,"certainty":"estimated","source":"유럽 쪽은 Natural Earth 1:10m admin-1(v5.1.2) 현대 행정구역 조각을 그 시기 국경에 맞춰 묶고, 조각이 역사 경계와 다른 곳은 선을 그어 나눈 근사. 유럽 밖(시베리아·중앙아시아·극동)은 대략적인 추정. 운영자 검수 필요"},"geometry":{"type":"MultiPolygon","coordinates":[[[[22.345,42.3134],[22.4436,42.2144],[22.4814,42.1933],[22.5069,42.1489],[22.5311,42.1291],[22.6178,42.0827],[22.6272,42.0791],[22.6759,42.0606],[22.7057,42.0559],[22.7251,42.0425],[22.7809,42.0432],[22.7989,42.0212],[22.827,42.0251],[22.8456,42.0074],[22.8754,42.0331],[22.8969,42.0304],[22.9336,42.086],[22.959,42.0871],[22.9762,42.0683],[23.0051,42.0699],[23.0607,42.0487],[23.1227,42.0576],[23.2006,42.0917],[23.2605,42.0929],[23.3872,42.0623],[23.4443,42.0697],[23.4936,42.0991],[23.5475,42.0841],[23.5808,42.1144],[23.6002,42.1509],[23.6984,42.1668],[23.718,42.1605],[23.7631,42.1776],[23.7957,42.1887],[23.8009,42.2113],[23.8481,42.2257],[23.8806,42.2615],[23.8885,42.2907],[23.9125,42.296],[23.9581,42.268],[23.9741,42.2833],[23.9415,42.3468],[23.9594,42.3923],[24.0384,42.408],[24.0547,42.445],[24.0387,42.4649],[23.9881,42.4587],[23.9214,42.5075],[23.8981,42.547],[23.904,42.5695],[23.9614,42.5793],[24.0347,42.5534],[24.0815,42.5729],[24.1296,42.5816],[24.1575,42.6107],[24.2289,42.6297],[24.285,42.6213],[24.3018,42.588],[24.3504,42.5652],[24.4082,42.5621],[24.4418,42.5632],[24.4683,42.5771],[24.473,42.5993],[24.4472,42.6126],[24.4163,42.645],[24.3731,42.6617],[24.3602,42.7074],[24.3967,42.7549],[24.3325,42.7578],[24.2852,42.7797],[24.1586,42.7809],[24.1386,42.8036],[24.1521,42.8438],[24.1514,42.9087],[24.1293,42.9358],[24.0906,42.9423],[24.0447,42.9788],[24.046,43.0204],[24.0062,43.0602],[23.9775,43.0599],[23.9356,43.0278],[23.9023,43.0428],[23.8035,43.0561],[23.766,43.0679],[23.7167,43.0346],[23.6654,43.0283],[23.6344,43.053],[23.5526,43.0092],[23.4936,43.0706],[23.4352,43.1082],[23.4346,43.1281],[23.4698,43.1369],[23.4314,43.162],[23.3989,43.1629],[23.3627,43.1337],[23.3181,43.1208],[23.2861,43.1292],[23.2203,43.1112],[23.1273,43.1172],[23.1011,43.1318],[23.0289,43.1949],[22.9829,43.1873],[22.974,43.1412],[22.9353,43.0856],[22.8967,43.0627],[22.8842,43.0367],[22.8288,42.9934],[22.7764,42.9797],[22.7396,42.8989],[22.727,42.8869],[22.6662,42.8719],[22.5909,42.8869],[22.5448,42.8717],[22.506,42.8701],[22.4814,42.8467],[22.4304,42.8171],[22.4531,42.7636],[22.4814,42.7398],[22.4421,42.6817],[22.4413,42.6329],[22.4253,42.5729],[22.5249,42.5077],[22.5365,42.4784],[22.5088,42.4049],[22.4698,42.3917],[22.424,42.3259],[22.345,42.3134]]],[[[24.0631,41.792],[24.0664,41.7679],[24.0996,41.7421],[24.1023,41.7094],[24.0726,41.6863],[24.1231,41.6546],[24.0779,41.624],[24.1977,41.5477],[24.2507,41.5635],[24.2864,41.5404],[24.2868,41.5176],[24.3539,41.5191],[24.4388,41.5277],[24.4592,41.5495],[24.5102,41.5617],[24.5309,41.5475],[24.5494,41.4854],[24.5811,41.4602],[24.5958,41.4298],[24.6443,41.4277],[24.6382,41.4177],[24.6471,41.4172],[24.65,41.4],[24.7,41.25],[24.75,41.15],[24.8,41.08],[24.82,40.95],[24.8342,40.8791],[24.9548,40.9411],[24.9555,40.9411],[25.4467,40.852],[25.8819,40.8314],[25.8922,40.8264],[25.9729,40.7875],[25.9901,40.7792],[26.0119,40.7687],[26.019,40.757],[26.0222,40.7517],[26.0402,40.7517],[26.044,40.7385],[26.0816,40.7356],[26.1345,40.7671],[26.1583,40.8122],[26.212,40.8474],[26.2051,40.8584],[26.2262,40.8993],[26.2392,40.8857],[26.2604,40.9204],[26.2907,40.9061],[26.2944,40.9267],[26.3591,40.9647],[26.3359,40.9971],[26.3596,41.0024],[26.3742,41.0311],[26.3476,41.041],[26.3224,41.0886],[26.3395,41.1145],[26.3173,41.1223],[26.336,41.1526],[26.3211,41.1876],[26.336,41.2289],[26.3317,41.2541],[26.3951,41.259],[26.4893,41.3109],[26.5402,41.3518],[26.5911,41.3293],[26.6226,41.3404],[26.6366,41.3785],[26.6322,41.4197],[26.6159,41.4685],[26.6017,41.5473],[26.5955,41.6124],[26.5764,41.591],[26.4644,41.6485],[26.4762,41.6757],[26.4044,41.6918],[26.3774,41.7106],[26.3334,41.713],[26.2739,41.7149],[26.2345,41.7458],[26.2118,41.7505],[26.1899,41.7347],[26.1084,41.7279],[26.0605,41.7073],[26.0481,41.6891],[26.0595,41.6438],[26.0098,41.6358],[25.9989,41.6191],[25.9642,41.6126],[25.9569,41.592],[25.9169,41.5627],[25.8731,41.5782],[25.8276,41.6148],[25.8172,41.6548],[25.7822,41.6646],[25.747,41.6517],[25.7147,41.6211],[25.6802,41.6304],[25.6391,41.6204],[25.6056,41.6337],[25.634,41.7009],[25.5858,41.7614],[25.5672,41.7615],[25.5316,41.7867],[25.4708,41.77],[25.4084,41.7978],[25.3893,41.8466],[25.3531,41.8385],[25.3304,41.8176],[25.3,41.8097],[25.2472,41.817],[25.2108,41.8785],[25.2226,41.9037],[25.1959,41.9086],[25.1494,41.8818],[25.1243,41.8445],[25.1021,41.831],[25.0911,41.7933],[25.0671,41.795],[25.0313,41.8009],[24.9938,41.8389],[24.9338,41.8314],[24.9144,41.8581],[24.8452,41.8958],[24.8088,41.931],[24.7602,41.9411],[24.6591,41.9253],[24.5626,41.8852],[24.4511,41.9494],[24.424,41.8895],[24.3577,41.8615],[24.3152,41.8174],[24.3146,41.771],[24.2713,41.7419],[24.2143,41.7407],[24.1772,41.7281],[24.1893,41.7641],[24.1496,41.7911],[24.0996,41.7971],[24.0631,41.792]]]]}}
]}
