{
 "type": "FeatureCollection",
 "features": [
  {
   "type": "Feature",
   "properties": {
    "entityId": "tibet",
    "from": 618,
    "to": 663,
    "certainty": "estimated",
    "source": "중고등학교 한국사 교과서 시대별 지도의 일반적인 경계를 따른 대략적인 추정. 운영자 검수 필요"
   },
   "geometry": {
    "type": "Polygon",
    "coordinates": [
     [
      [
       98.5,
       36.5
      ],
      [
       102.5,
       35.5
      ],
      [
       102.2,
       33
      ],
      [
       101.8,
       30.5
      ],
      [
       100.8,
       28.5
      ],
      [
       99.5,
       27
      ],
      [
       98.5,
       28.2
      ],
      [
       96,
       28.3
      ],
      [
       92,
       27.8
      ],
      [
       88.5,
       27.5
      ],
      [
       85,
       28.3
      ],
      [
       81,
       30.2
      ],
      [
       78.5,
       32.5
      ],
      [
       79.5,
       35.5
      ],
      [
       85,
       36.2
      ],
      [
       90,
       36.5
      ],
      [
       95,
       36.5
      ],
      [
       98.5,
       36.5
      ]
     ]
    ]
   }
  },
  {
   "type": "Feature",
   "properties": {
    "entityId": "tibet",
    "from": 663,
    "to": 843,
    "certainty": "estimated",
    "source": "중고등학교 한국사 교과서 시대별 지도의 일반적인 경계를 따른 대략적인 추정. 운영자 검수 필요"
   },
   "geometry": {
    "type": "Polygon",
    "coordinates": [
     [
      [
       78.5,
       32.5
      ],
      [
       81,
       30.2
      ],
      [
       85,
       28.3
      ],
      [
       88.5,
       27.5
      ],
      [
       92,
       27.8
      ],
      [
       96,
       28.3
      ],
      [
       98.5,
       28.2
      ],
      [
       99.5,
       27
      ],
      [
       100.8,
       28.5
      ],
      [
       101.8,
       30.5
      ],
      [
       102.2,
       33
      ],
      [
       102.5,
       35.5
      ],
      [
       101.5,
       36.8
      ],
      [
       98,
       38.5
      ],
      [
       93,
       39.5
      ],
      [
       92.66,
       39.57
      ],
      [
       92.64,
       39.51
      ],
      [
       92.52,
       39.37
      ],
      [
       92.34,
       39.24
      ],
      [
       92.35,
       39.07
      ],
      [
       92.4,
       39.02
      ],
      [
       92.26,
       39
      ],
      [
       91.11,
       38.71
      ],
      [
       90.8,
       38.7
      ],
      [
       89.8,
       38
      ],
      [
       89.6,
       37.3
      ],
      [
       89.6,
       36.476
      ],
      [
       85,
       36.2
      ],
      [
       79.5,
       35.5
      ],
      [
       78.5,
       32.5
      ]
     ]
    ]
   }
  }
 ]
}
