{"type":"FeatureCollection","features":[
{"type":"Feature","properties":{"entityId":"transylvania","from":1600,"to":1622,"certainty":"estimated","source":"유럽 쪽은 Natural Earth 1:10m admin-1(v5.1.2) 현대 행정구역 조각을 그 시기 국경에 맞춰 묶고, 조각이 역사 경계와 다른 곳은 선을 그어 나눈 근사. 유럽 밖(시베리아·중앙아시아·극동)은 대략적인 추정. 운영자 검수 필요"},"geometry":{"type":"Polygon","coordinates":[[[23.0905,47.4043],[22.9984,47.4163],[22.9676,47.4305],[22.9688,47.4445],[23.0309,47.4795],[23.0578,47.5261],[23.1168,47.5765],[23.1435,47.577],[23.1717,47.5554],[23.2172,47.5353],[23.268,47.5381],[23.3237,47.5853],[23.3595,47.6426],[23.3609,47.6678],[23.3268,47.6892],[23.2588,47.7019],[23.2395,47.7223],[23.2718,47.7492],[23.3429,47.7489],[23.4145,47.7326],[23.4792,47.743],[23.6207,47.8162],[23.63,47.8381],[23.607,47.8594],[23.5494,47.889],[23.502,47.9342],[23.4855,47.9742],[23.5145,47.999],[23.5632,48.0058],[23.7105,47.9851],[23.7801,47.9875],[23.8766,47.9344],[23.9773,47.9623],[24.0948,47.9379],[24.1312,47.9145],[24.231,47.897],[24.2979,47.9198],[24.3472,47.9209],[24.3862,47.9437],[24.4285,47.9525],[24.4856,47.9432],[24.5698,47.9373],[24.6085,47.9219],[24.6493,47.8952],[24.6615,47.8539],[24.7128,47.8259],[24.7937,47.8045],[24.8207,47.7841],[24.8778,47.7187],[24.9289,47.7139],[24.9424,47.7156],[24.9788,47.6626],[25.0219,47.6322],[25.0323,47.6123],[25.0158,47.5965],[24.9562,47.5823],[25.0461,47.5297],[25.0842,47.4938],[25.0905,47.4715],[25.0726,47.4495],[25.0373,47.4302],[25.0494,47.3999],[25.007,47.3926],[25.004,47.3792],[25.0404,47.3429],[25.0568,47.3153],[25.0292,47.2576],[25.0391,47.2372],[25.0765,47.2283],[25.0632,47.1728],[25.0686,47.103],[25.1589,47.0914],[25.2047,47.0764],[25.2419,47.0663],[25.2826,47.0704],[25.3118,47.123],[25.3725,47.1403],[25.4069,47.1348],[25.5189,47.0824],[25.5521,47.0559],[25.5836,47.0473],[25.6713,47.0579],[25.7371,47.039],[25.7627,47.0125],[25.7918,46.9661],[25.8658,46.9128],[25.8668,46.8837],[25.832,46.8853],[25.8165,46.8592],[25.8282,46.6936],[25.8409,46.6702],[25.889,46.6348],[25.915,46.6356],[25.907,46.6748],[25.9271,46.6819],[26.0088,46.668],[26.012,46.5936],[26.0289,46.5485],[26.0691,46.4986],[26.0699,46.4872],[26.0325,46.4683],[26.0189,46.4268],[26.0387,46.4033],[26.1326,46.3907],[26.1619,46.3731],[26.1682,46.35],[26.1595,46.3125],[26.1823,46.3057],[26.2471,46.3266],[26.2927,46.3197],[26.3002,46.302],[26.2869,46.2762],[26.2799,46.2265],[26.259,46.1881],[26.2516,46.1503],[26.2932,46.1601],[26.325,46.1794],[26.4001,46.1445],[26.4149,46.128],[26.4021,46.0943],[26.4406,46.0748],[26.4681,46.0274],[26.4848,46.0212],[26.4209,45.9505],[26.4048,45.9175],[26.3804,45.8029],[26.395,45.7498],[26.3667,45.6852],[26.3427,45.6553],[26.3286,45.6181],[26.2847,45.6028],[26.2346,45.6256],[26.2156,45.6122],[26.2075,45.5832],[26.1889,45.5745],[26.1005,45.5644],[26.046,45.4823],[25.9989,45.4886],[25.9458,45.5102],[25.9028,45.5006],[25.8913,45.4654],[25.8627,45.4416],[25.8231,45.4455],[25.7904,45.4733],[25.7502,45.4659],[25.6933,45.4794],[25.6278,45.4847],[25.4588,45.4636],[25.4298,45.4523],[25.4027,45.4392],[25.3703,45.3994],[25.3092,45.3885],[25.2759,45.4165],[25.2208,45.5034],[25.0951,45.5696],[24.9839,45.58],[24.8687,45.5739],[24.8388,45.5631],[24.8004,45.595],[24.7719,45.6029],[24.7091,45.5988],[24.5272,45.5618],[24.3218,45.563],[24.1689,45.537],[24.0683,45.4964],[23.9606,45.5122],[23.794,45.508],[23.7526,45.4861],[23.7097,45.4798],[23.6469,45.4505],[23.6261,45.4519],[23.5842,45.4473],[23.5808,45.4323],[23.5999,45.3819],[23.5858,45.3526],[23.5237,45.3379],[23.4304,45.3038],[23.3984,45.3182],[23.3575,45.3215],[23.2441,45.2952],[23.1895,45.2718],[23.0908,45.2794],[23.027,45.2597],[22.9761,45.2748],[22.9334,45.2767],[22.8814,45.2949],[22.6691,45.2405],[22.6771,45.2755],[22.7069,45.3223],[22.6753,45.3739],[22.698,45.413],[22.6784,45.4925],[22.6533,45.5202],[22.5761,45.5671],[22.5424,45.57],[22.5374,45.5973],[22.4834,45.6115],[22.4536,45.6401],[22.4454,45.6629],[22.4616,45.6738],[22.4811,45.7191],[22.5411,45.7613],[22.5298,45.7799],[22.5025,45.774],[22.486,45.786],[22.4494,45.8372],[22.4125,45.8627],[22.3891,45.9247],[22.3549,45.9499],[22.4015,45.9917],[22.4196,46.0253],[22.4072,46.0713],[22.4296,46.1142],[22.4336,46.1761],[22.4702,46.212],[22.502,46.2189],[22.5579,46.2095],[22.6007,46.2109],[22.6403,46.2314],[22.6897,46.3002],[22.7553,46.3338],[22.7067,46.3687],[22.6176,46.3693],[22.5413,46.3806],[22.4507,46.3819],[22.4203,46.3902],[22.3929,46.4269],[22.318,46.4466],[22.2705,46.4749],[22.2094,46.4949],[22.1822,46.524],[22.1455,46.5827],[22.1122,46.601],[22.0668,46.6107],[21.9786,46.6132],[21.9119,46.6376],[21.8799,46.6382],[21.8258,46.6581],[21.492,46.6452],[21.4235,46.6582],[21.4362,46.6737],[21.4836,46.6849],[21.5052,46.7232],[21.4705,46.743],[21.5029,46.8053],[21.5366,46.835],[21.5731,46.8418],[21.5918,46.8607],[21.5944,46.91],[21.6485,46.943],[21.6675,46.9924],[21.6343,47.0194],[21.5668,47.0012],[21.4987,46.9537],[21.4564,46.9542],[21.3868,46.9408],[21.335,46.9583],[21.3439,46.9827],[21.3013,46.9998],[21.2883,47.0158],[21.2914,47.1164],[21.2711,47.1454],[21.2059,47.1673],[21.1181,47.181],[20.9945,47.236],[21.0229,47.286],[21.0279,47.3495],[21.0017,47.4441],[20.9899,47.5288],[20.9766,47.5689],[20.9457,47.5889],[20.8811,47.6017],[20.8426,47.6286],[20.8192,47.6794],[20.8921,47.6843],[20.9422,47.7186],[20.979,47.773],[21.0339,47.7798],[21.0285,47.8163],[21.0584,47.855],[21.0564,47.8905],[21.1062,47.9381],[21.1137,47.9605],[21.1867,47.954],[21.2694,47.9097],[21.3142,47.9217],[21.4761,47.93],[21.5146,47.9455],[21.5461,47.9381],[21.5561,47.9169],[21.5438,47.8636],[21.5397,47.8075],[21.6333,47.7577],[21.6498,47.7424],[21.6987,47.7354],[21.7182,47.7228],[21.8019,47.7064],[21.8409,47.6831],[21.8595,47.6958],[21.8956,47.7449],[21.9299,47.7462],[21.9994,47.7199],[22.0284,47.685],[22.0226,47.6589],[22.0487,47.6415],[22.0951,47.6763],[22.1125,47.6589],[22.1324,47.6011],[22.1542,47.5822],[22.1676,47.5949],[22.225,47.5311],[22.2662,47.5103],[22.3256,47.4461],[22.3602,47.401],[22.4285,47.3997],[22.4723,47.4124],[22.5548,47.3758],[22.5807,47.3214],[22.6236,47.3447],[22.7547,47.3879],[22.8018,47.3928],[22.9119,47.372],[22.9645,47.344],[23.0056,47.3369],[23.051,47.3161],[23.105,47.3554],[23.1103,47.3769],[23.0905,47.4043]]]}},
{"type":"Feature","properties":{"entityId":"transylvania","from":1622,"to":1629,"certainty":"estimated","source":"유럽 쪽은 Natural Earth 1:10m admin-1(v5.1.2) 현대 행정구역 조각을 그 시기 국경에 맞춰 묶고, 조각이 역사 경계와 다른 곳은 선을 그어 나눈 근사. 유럽 밖(시베리아·중앙아시아·극동)은 대략적인 추정. 운영자 검수 필요"},"geometry":{"type":"Polygon","coordinates":[[[24.5698,47.9373],[24.6085,47.9219],[24.6493,47.8952],[24.6615,47.8539],[24.7128,47.8259],[24.7937,47.8045],[24.8207,47.7841],[24.8778,47.7187],[24.9289,47.7139],[24.9424,47.7156],[24.9788,47.6626],[25.0219,47.6322],[25.0323,47.6123],[25.0158,47.5965],[24.9562,47.5823],[25.0461,47.5297],[25.0842,47.4938],[25.0905,47.4715],[25.0726,47.4495],[25.0373,47.4302],[25.0494,47.3999],[25.007,47.3926],[25.004,47.3792],[25.0404,47.3429],[25.0568,47.3153],[25.0292,47.2576],[25.0391,47.2372],[25.0765,47.2283],[25.0632,47.1728],[25.0686,47.103],[25.1589,47.0914],[25.2047,47.0764],[25.2419,47.0663],[25.2826,47.0704],[25.3118,47.123],[25.3725,47.1403],[25.4069,47.1348],[25.5189,47.0824],[25.5521,47.0559],[25.5836,47.0473],[25.6713,47.0579],[25.7371,47.039],[25.7627,47.0125],[25.7918,46.9661],[25.8658,46.9128],[25.8668,46.8837],[25.832,46.8853],[25.8165,46.8592],[25.8282,46.6936],[25.8409,46.6702],[25.889,46.6348],[25.915,46.6356],[25.907,46.6748],[25.9271,46.6819],[26.0088,46.668],[26.012,46.5936],[26.0289,46.5485],[26.0691,46.4986],[26.0699,46.4872],[26.0325,46.4683],[26.0189,46.4268],[26.0387,46.4033],[26.1326,46.3907],[26.1619,46.3731],[26.1682,46.35],[26.1595,46.3125],[26.1823,46.3057],[26.2471,46.3266],[26.2927,46.3197],[26.3002,46.302],[26.2869,46.2762],[26.2799,46.2265],[26.259,46.1881],[26.2516,46.1503],[26.2932,46.1601],[26.325,46.1794],[26.4001,46.1445],[26.4149,46.128],[26.4021,46.0943],[26.4406,46.0748],[26.4681,46.0274],[26.4848,46.0212],[26.4209,45.9505],[26.4048,45.9175],[26.3804,45.8029],[26.395,45.7498],[26.3667,45.6852],[26.3427,45.6553],[26.3286,45.6181],[26.2847,45.6028],[26.2346,45.6256],[26.2156,45.6122],[26.2075,45.5832],[26.1889,45.5745],[26.1005,45.5644],[26.046,45.4823],[25.9989,45.4886],[25.9458,45.5102],[25.9028,45.5006],[25.8913,45.4654],[25.8627,45.4416],[25.8231,45.4455],[25.7904,45.4733],[25.7502,45.4659],[25.6933,45.4794],[25.6278,45.4847],[25.4588,45.4636],[25.4298,45.4523],[25.4027,45.4392],[25.3703,45.3994],[25.3092,45.3885],[25.2759,45.4165],[25.2208,45.5034],[25.0951,45.5696],[24.9839,45.58],[24.8687,45.5739],[24.8388,45.5631],[24.8004,45.595],[24.7719,45.6029],[24.7091,45.5988],[24.5272,45.5618],[24.3218,45.563],[24.1689,45.537],[24.0683,45.4964],[23.9606,45.5122],[23.794,45.508],[23.7526,45.4861],[23.7097,45.4798],[23.6469,45.4505],[23.6261,45.4519],[23.5842,45.4473],[23.5808,45.4323],[23.5999,45.3819],[23.5858,45.3526],[23.5237,45.3379],[23.4304,45.3038],[23.3984,45.3182],[23.3575,45.3215],[23.2441,45.2952],[23.1895,45.2718],[23.0908,45.2794],[23.027,45.2597],[22.9761,45.2748],[22.9334,45.2767],[22.8814,45.2949],[22.6691,45.2405],[22.6771,45.2755],[22.7069,45.3223],[22.6753,45.3739],[22.698,45.413],[22.6784,45.4925],[22.6533,45.5202],[22.5761,45.5671],[22.5424,45.57],[22.5374,45.5973],[22.4834,45.6115],[22.4536,45.6401],[22.4454,45.6629],[22.4616,45.6738],[22.4811,45.7191],[22.5411,45.7613],[22.5298,45.7799],[22.5025,45.774],[22.486,45.786],[22.4494,45.8372],[22.4125,45.8627],[22.3891,45.9247],[22.3549,45.9499],[22.4015,45.9917],[22.4196,46.0253],[22.4072,46.0713],[22.4296,46.1142],[22.4336,46.1761],[22.4702,46.212],[22.502,46.2189],[22.5579,46.2095],[22.6007,46.2109],[22.6403,46.2314],[22.6897,46.3002],[22.7553,46.3338],[22.7067,46.3687],[22.6176,46.3693],[22.5413,46.3806],[22.4507,46.3819],[22.4203,46.3902],[22.3929,46.4269],[22.318,46.4466],[22.2705,46.4749],[22.2094,46.4949],[22.1822,46.524],[22.1455,46.5827],[22.1122,46.601],[22.0668,46.6107],[21.9786,46.6132],[21.9119,46.6376],[21.8799,46.6382],[21.8258,46.6581],[21.492,46.6452],[21.4235,46.6582],[21.4362,46.6737],[21.4836,46.6849],[21.5052,46.7232],[21.4705,46.743],[21.5029,46.8053],[21.5366,46.835],[21.5731,46.8418],[21.5918,46.8607],[21.5944,46.91],[21.6485,46.943],[21.6675,46.9924],[21.6343,47.0194],[21.5668,47.0012],[21.4987,46.9537],[21.4564,46.9542],[21.3868,46.9408],[21.335,46.9583],[21.3439,46.9827],[21.3013,46.9998],[21.2883,47.0158],[21.2914,47.1164],[21.2711,47.1454],[21.2059,47.1673],[21.1181,47.181],[20.9945,47.236],[21.0229,47.286],[21.0279,47.3495],[21.0017,47.4441],[20.9899,47.5288],[20.9766,47.5689],[20.9457,47.5889],[20.8811,47.6017],[20.8426,47.6286],[20.8192,47.6794],[20.7741,47.6723],[20.7186,47.686],[20.6089,47.7011],[20.5748,47.7553],[20.5285,47.7919],[20.4645,47.8682],[20.4484,47.8806],[20.465,47.8992],[20.4609,47.9188],[20.4475,47.9343],[20.4289,47.9486],[20.422,47.9691],[20.4788,48.015],[20.4918,48.0549],[20.4951,48.0779],[20.49,48.1014],[20.4728,48.1134],[20.4184,48.1514],[20.3548,48.095],[20.3208,48.1116],[20.2847,48.11],[20.2561,48.0928],[20.2209,48.0929],[20.1915,48.1162],[20.1611,48.1182],[20.1182,48.1479],[20.0959,48.1411],[20.0383,48.1772],[20.097,48.1984],[20.1345,48.2467],[20.1709,48.244],[20.2291,48.2709],[20.2724,48.2525],[20.3243,48.2799],[20.3702,48.3343],[20.409,48.4137],[20.466,48.4638],[20.4487,48.4723],[20.4021,48.464],[20.336,48.4627],[20.3087,48.4866],[20.3035,48.5095],[20.3476,48.5994],[20.2919,48.6179],[20.2873,48.6443],[20.261,48.6918],[20.1883,48.7274],[20.1813,48.7557],[20.2013,48.7727],[20.1986,48.8158],[20.25,48.8682],[20.2727,48.8728],[20.3116,48.9119],[20.3413,48.9245],[20.2997,48.9449],[20.3424,48.973],[20.428,49.0034],[20.4762,48.9847],[20.5214,49.0034],[20.5793,48.9744],[20.6136,48.97],[20.6455,48.9517],[20.7071,48.9768],[20.7698,48.9698],[20.7682,49.0005],[20.8467,48.9725],[20.8783,48.977],[20.9472,48.9512],[20.9865,48.9553],[20.996,48.9333],[21.0322,48.9037],[21.0907,48.8975],[21.133,48.8999],[21.1747,48.8777],[21.2011,48.8787],[21.2622,48.8636],[21.2428,48.8394],[21.2829,48.8132],[21.3083,48.8133],[21.3075,48.831],[21.3702,48.8392],[21.382,48.8789],[21.4588,48.8727],[21.4801,48.8811],[21.4973,48.8408],[21.5367,48.7938],[21.5995,48.7774],[21.6582,48.7724],[21.6975,48.7601],[21.796,48.7958],[21.7856,48.8953],[21.8233,48.8945],[21.92,48.8738],[21.9929,48.8422],[22.0326,48.8383],[22.1201,48.8424],[22.1189,48.8729],[22.1839,48.9215],[22.2284,48.9151],[22.2606,48.8598],[22.3242,48.8663],[22.3708,48.8582],[22.4118,48.8878],[22.4149,48.9117],[22.449,48.9714],[22.5205,48.9929],[22.5248,49.0329],[22.5396,49.0722],[22.5808,49.0814],[22.6429,49.0432],[22.7553,49.0447],[22.784,49.0214],[22.8553,48.994],[22.865,49.0132],[22.9024,48.9833],[22.892,48.9354],[22.926,48.9041],[22.9612,48.8843],[22.9821,48.859],[23.0117,48.8547],[23.105,48.8713],[23.1376,48.8522],[23.1798,48.7903],[23.2016,48.7771],[23.2576,48.7722],[23.2982,48.7812],[23.3085,48.7502],[23.3505,48.772],[23.378,48.7371],[23.4458,48.7267],[23.4985,48.7312],[23.5329,48.7237],[23.6124,48.7038],[23.6745,48.6545],[23.709,48.643],[23.7715,48.6447],[23.7817,48.6034],[23.8471,48.5628],[23.8949,48.5496],[23.9168,48.5154],[23.9074,48.4887],[23.9427,48.4704],[24.0015,48.5001],[24.0462,48.5051],[24.1138,48.5322],[24.137,48.5275],[24.1407,48.4712],[24.1312,48.4345],[24.1408,48.3799],[24.1777,48.3546],[24.2341,48.3505],[24.2707,48.3572],[24.3054,48.3883],[24.3317,48.3748],[24.3458,48.3402],[24.3916,48.3311],[24.4949,48.2666],[24.5415,48.2128],[24.5216,48.1711],[24.5384,48.1345],[24.6068,48.0886],[24.6393,48.0476],[24.5882,47.9959],[24.5698,47.9373]]]}},
{"type":"Feature","properties":{"entityId":"transylvania","from":1629,"to":1645,"certainty":"estimated","source":"유럽 쪽은 Natural Earth 1:10m admin-1(v5.1.2) 현대 행정구역 조각을 그 시기 국경에 맞춰 묶고, 조각이 역사 경계와 다른 곳은 선을 그어 나눈 근사. 유럽 밖(시베리아·중앙아시아·극동)은 대략적인 추정. 운영자 검수 필요"},"geometry":{"type":"Polygon","coordinates":[[[23.0905,47.4043],[22.9984,47.4163],[22.9676,47.4305],[22.9688,47.4445],[23.0309,47.4795],[23.0578,47.5261],[23.1168,47.5765],[23.1435,47.577],[23.1717,47.5554],[23.2172,47.5353],[23.268,47.5381],[23.3237,47.5853],[23.3595,47.6426],[23.3609,47.6678],[23.3268,47.6892],[23.2588,47.7019],[23.2395,47.7223],[23.2718,47.7492],[23.3429,47.7489],[23.4145,47.7326],[23.4792,47.743],[23.6207,47.8162],[23.63,47.8381],[23.607,47.8594],[23.5494,47.889],[23.502,47.9342],[23.4855,47.9742],[23.5145,47.999],[23.5632,48.0058],[23.7105,47.9851],[23.7801,47.9875],[23.8766,47.9344],[23.9773,47.9623],[24.0948,47.9379],[24.1312,47.9145],[24.231,47.897],[24.2979,47.9198],[24.3472,47.9209],[24.3862,47.9437],[24.4285,47.9525],[24.4856,47.9432],[24.5698,47.9373],[24.6085,47.9219],[24.6493,47.8952],[24.6615,47.8539],[24.7128,47.8259],[24.7937,47.8045],[24.8207,47.7841],[24.8778,47.7187],[24.9289,47.7139],[24.9424,47.7156],[24.9788,47.6626],[25.0219,47.6322],[25.0323,47.6123],[25.0158,47.5965],[24.9562,47.5823],[25.0461,47.5297],[25.0842,47.4938],[25.0905,47.4715],[25.0726,47.4495],[25.0373,47.4302],[25.0494,47.3999],[25.007,47.3926],[25.004,47.3792],[25.0404,47.3429],[25.0568,47.3153],[25.0292,47.2576],[25.0391,47.2372],[25.0765,47.2283],[25.0632,47.1728],[25.0686,47.103],[25.1589,47.0914],[25.2047,47.0764],[25.2419,47.0663],[25.2826,47.0704],[25.3118,47.123],[25.3725,47.1403],[25.4069,47.1348],[25.5189,47.0824],[25.5521,47.0559],[25.5836,47.0473],[25.6713,47.0579],[25.7371,47.039],[25.7627,47.0125],[25.7918,46.9661],[25.8658,46.9128],[25.8668,46.8837],[25.832,46.8853],[25.8165,46.8592],[25.8282,46.6936],[25.8409,46.6702],[25.889,46.6348],[25.915,46.6356],[25.907,46.6748],[25.9271,46.6819],[26.0088,46.668],[26.012,46.5936],[26.0289,46.5485],[26.0691,46.4986],[26.0699,46.4872],[26.0325,46.4683],[26.0189,46.4268],[26.0387,46.4033],[26.1326,46.3907],[26.1619,46.3731],[26.1682,46.35],[26.1595,46.3125],[26.1823,46.3057],[26.2471,46.3266],[26.2927,46.3197],[26.3002,46.302],[26.2869,46.2762],[26.2799,46.2265],[26.259,46.1881],[26.2516,46.1503],[26.2932,46.1601],[26.325,46.1794],[26.4001,46.1445],[26.4149,46.128],[26.4021,46.0943],[26.4406,46.0748],[26.4681,46.0274],[26.4848,46.0212],[26.4209,45.9505],[26.4048,45.9175],[26.3804,45.8029],[26.395,45.7498],[26.3667,45.6852],[26.3427,45.6553],[26.3286,45.6181],[26.2847,45.6028],[26.2346,45.6256],[26.2156,45.6122],[26.2075,45.5832],[26.1889,45.5745],[26.1005,45.5644],[26.046,45.4823],[25.9989,45.4886],[25.9458,45.5102],[25.9028,45.5006],[25.8913,45.4654],[25.8627,45.4416],[25.8231,45.4455],[25.7904,45.4733],[25.7502,45.4659],[25.6933,45.4794],[25.6278,45.4847],[25.4588,45.4636],[25.4298,45.4523],[25.4027,45.4392],[25.3703,45.3994],[25.3092,45.3885],[25.2759,45.4165],[25.2208,45.5034],[25.0951,45.5696],[24.9839,45.58],[24.8687,45.5739],[24.8388,45.5631],[24.8004,45.595],[24.7719,45.6029],[24.7091,45.5988],[24.5272,45.5618],[24.3218,45.563],[24.1689,45.537],[24.0683,45.4964],[23.9606,45.5122],[23.794,45.508],[23.7526,45.4861],[23.7097,45.4798],[23.6469,45.4505],[23.6261,45.4519],[23.5842,45.4473],[23.5808,45.4323],[23.5999,45.3819],[23.5858,45.3526],[23.5237,45.3379],[23.4304,45.3038],[23.3984,45.3182],[23.3575,45.3215],[23.2441,45.2952],[23.1895,45.2718],[23.0908,45.2794],[23.027,45.2597],[22.9761,45.2748],[22.9334,45.2767],[22.8814,45.2949],[22.6691,45.2405],[22.6771,45.2755],[22.7069,45.3223],[22.6753,45.3739],[22.698,45.413],[22.6784,45.4925],[22.6533,45.5202],[22.5761,45.5671],[22.5424,45.57],[22.5374,45.5973],[22.4834,45.6115],[22.4536,45.6401],[22.4454,45.6629],[22.4616,45.6738],[22.4811,45.7191],[22.5411,45.7613],[22.5298,45.7799],[22.5025,45.774],[22.486,45.786],[22.4494,45.8372],[22.4125,45.8627],[22.3891,45.9247],[22.3549,45.9499],[22.4015,45.9917],[22.4196,46.0253],[22.4072,46.0713],[22.4296,46.1142],[22.4336,46.1761],[22.4702,46.212],[22.502,46.2189],[22.5579,46.2095],[22.6007,46.2109],[22.6403,46.2314],[22.6897,46.3002],[22.7553,46.3338],[22.7067,46.3687],[22.6176,46.3693],[22.5413,46.3806],[22.4507,46.3819],[22.4203,46.3902],[22.3929,46.4269],[22.318,46.4466],[22.2705,46.4749],[22.2094,46.4949],[22.1822,46.524],[22.1455,46.5827],[22.1122,46.601],[22.0668,46.6107],[21.9786,46.6132],[21.9119,46.6376],[21.8799,46.6382],[21.8258,46.6581],[21.492,46.6452],[21.4235,46.6582],[21.4362,46.6737],[21.4836,46.6849],[21.5052,46.7232],[21.4705,46.743],[21.5029,46.8053],[21.5366,46.835],[21.5731,46.8418],[21.5918,46.8607],[21.5944,46.91],[21.6485,46.943],[21.6675,46.9924],[21.6343,47.0194],[21.5668,47.0012],[21.4987,46.9537],[21.4564,46.9542],[21.3868,46.9408],[21.335,46.9583],[21.3439,46.9827],[21.3013,46.9998],[21.2883,47.0158],[21.2914,47.1164],[21.2711,47.1454],[21.2059,47.1673],[21.1181,47.181],[20.9945,47.236],[21.0229,47.286],[21.0279,47.3495],[21.0017,47.4441],[20.9899,47.5288],[20.9766,47.5689],[20.9457,47.5889],[20.8811,47.6017],[20.8426,47.6286],[20.8192,47.6794],[20.8921,47.6843],[20.9422,47.7186],[20.979,47.773],[21.0339,47.7798],[21.0285,47.8163],[21.0584,47.855],[21.0564,47.8905],[21.1062,47.9381],[21.1137,47.9605],[21.1867,47.954],[21.2694,47.9097],[21.3142,47.9217],[21.4761,47.93],[21.5146,47.9455],[21.5461,47.9381],[21.5561,47.9169],[21.5438,47.8636],[21.5397,47.8075],[21.6333,47.7577],[21.6498,47.7424],[21.6987,47.7354],[21.7182,47.7228],[21.8019,47.7064],[21.8409,47.6831],[21.8595,47.6958],[21.8956,47.7449],[21.9299,47.7462],[21.9994,47.7199],[22.0284,47.685],[22.0226,47.6589],[22.0487,47.6415],[22.0951,47.6763],[22.1125,47.6589],[22.1324,47.6011],[22.1542,47.5822],[22.1676,47.5949],[22.225,47.5311],[22.2662,47.5103],[22.3256,47.4461],[22.3602,47.401],[22.4285,47.3997],[22.4723,47.4124],[22.5548,47.3758],[22.5807,47.3214],[22.6236,47.3447],[22.7547,47.3879],[22.8018,47.3928],[22.9119,47.372],[22.9645,47.344],[23.0056,47.3369],[23.051,47.3161],[23.105,47.3554],[23.1103,47.3769],[23.0905,47.4043]]]}},
{"type":"Feature","properties":{"entityId":"transylvania","from":1645,"to":1648,"certainty":"estimated","source":"유럽 쪽은 Natural Earth 1:10m admin-1(v5.1.2) 현대 행정구역 조각을 그 시기 국경에 맞춰 묶고, 조각이 역사 경계와 다른 곳은 선을 그어 나눈 근사. 유럽 밖(시베리아·중앙아시아·극동)은 대략적인 추정. 운영자 검수 필요"},"geometry":{"type":"Polygon","coordinates":[[[24.5698,47.9373],[24.6085,47.9219],[24.6493,47.8952],[24.6615,47.8539],[24.7128,47.8259],[24.7937,47.8045],[24.8207,47.7841],[24.8778,47.7187],[24.9289,47.7139],[24.9424,47.7156],[24.9788,47.6626],[25.0219,47.6322],[25.0323,47.6123],[25.0158,47.5965],[24.9562,47.5823],[25.0461,47.5297],[25.0842,47.4938],[25.0905,47.4715],[25.0726,47.4495],[25.0373,47.4302],[25.0494,47.3999],[25.007,47.3926],[25.004,47.3792],[25.0404,47.3429],[25.0568,47.3153],[25.0292,47.2576],[25.0391,47.2372],[25.0765,47.2283],[25.0632,47.1728],[25.0686,47.103],[25.1589,47.0914],[25.2047,47.0764],[25.2419,47.0663],[25.2826,47.0704],[25.3118,47.123],[25.3725,47.1403],[25.4069,47.1348],[25.5189,47.0824],[25.5521,47.0559],[25.5836,47.0473],[25.6713,47.0579],[25.7371,47.039],[25.7627,47.0125],[25.7918,46.9661],[25.8658,46.9128],[25.8668,46.8837],[25.832,46.8853],[25.8165,46.8592],[25.8282,46.6936],[25.8409,46.6702],[25.889,46.6348],[25.915,46.6356],[25.907,46.6748],[25.9271,46.6819],[26.0088,46.668],[26.012,46.5936],[26.0289,46.5485],[26.0691,46.4986],[26.0699,46.4872],[26.0325,46.4683],[26.0189,46.4268],[26.0387,46.4033],[26.1326,46.3907],[26.1619,46.3731],[26.1682,46.35],[26.1595,46.3125],[26.1823,46.3057],[26.2471,46.3266],[26.2927,46.3197],[26.3002,46.302],[26.2869,46.2762],[26.2799,46.2265],[26.259,46.1881],[26.2516,46.1503],[26.2932,46.1601],[26.325,46.1794],[26.4001,46.1445],[26.4149,46.128],[26.4021,46.0943],[26.4406,46.0748],[26.4681,46.0274],[26.4848,46.0212],[26.4209,45.9505],[26.4048,45.9175],[26.3804,45.8029],[26.395,45.7498],[26.3667,45.6852],[26.3427,45.6553],[26.3286,45.6181],[26.2847,45.6028],[26.2346,45.6256],[26.2156,45.6122],[26.2075,45.5832],[26.1889,45.5745],[26.1005,45.5644],[26.046,45.4823],[25.9989,45.4886],[25.9458,45.5102],[25.9028,45.5006],[25.8913,45.4654],[25.8627,45.4416],[25.8231,45.4455],[25.7904,45.4733],[25.7502,45.4659],[25.6933,45.4794],[25.6278,45.4847],[25.4588,45.4636],[25.4298,45.4523],[25.4027,45.4392],[25.3703,45.3994],[25.3092,45.3885],[25.2759,45.4165],[25.2208,45.5034],[25.0951,45.5696],[24.9839,45.58],[24.8687,45.5739],[24.8388,45.5631],[24.8004,45.595],[24.7719,45.6029],[24.7091,45.5988],[24.5272,45.5618],[24.3218,45.563],[24.1689,45.537],[24.0683,45.4964],[23.9606,45.5122],[23.794,45.508],[23.7526,45.4861],[23.7097,45.4798],[23.6469,45.4505],[23.6261,45.4519],[23.5842,45.4473],[23.5808,45.4323],[23.5999,45.3819],[23.5858,45.3526],[23.5237,45.3379],[23.4304,45.3038],[23.3984,45.3182],[23.3575,45.3215],[23.2441,45.2952],[23.1895,45.2718],[23.0908,45.2794],[23.027,45.2597],[22.9761,45.2748],[22.9334,45.2767],[22.8814,45.2949],[22.6691,45.2405],[22.6771,45.2755],[22.7069,45.3223],[22.6753,45.3739],[22.698,45.413],[22.6784,45.4925],[22.6533,45.5202],[22.5761,45.5671],[22.5424,45.57],[22.5374,45.5973],[22.4834,45.6115],[22.4536,45.6401],[22.4454,45.6629],[22.4616,45.6738],[22.4811,45.7191],[22.5411,45.7613],[22.5298,45.7799],[22.5025,45.774],[22.486,45.786],[22.4494,45.8372],[22.4125,45.8627],[22.3891,45.9247],[22.3549,45.9499],[22.4015,45.9917],[22.4196,46.0253],[22.4072,46.0713],[22.4296,46.1142],[22.4336,46.1761],[22.4702,46.212],[22.502,46.2189],[22.5579,46.2095],[22.6007,46.2109],[22.6403,46.2314],[22.6897,46.3002],[22.7553,46.3338],[22.7067,46.3687],[22.6176,46.3693],[22.5413,46.3806],[22.4507,46.3819],[22.4203,46.3902],[22.3929,46.4269],[22.318,46.4466],[22.2705,46.4749],[22.2094,46.4949],[22.1822,46.524],[22.1455,46.5827],[22.1122,46.601],[22.0668,46.6107],[21.9786,46.6132],[21.9119,46.6376],[21.8799,46.6382],[21.8258,46.6581],[21.492,46.6452],[21.4235,46.6582],[21.4362,46.6737],[21.4836,46.6849],[21.5052,46.7232],[21.4705,46.743],[21.5029,46.8053],[21.5366,46.835],[21.5731,46.8418],[21.5918,46.8607],[21.5944,46.91],[21.6485,46.943],[21.6675,46.9924],[21.6343,47.0194],[21.5668,47.0012],[21.4987,46.9537],[21.4564,46.9542],[21.3868,46.9408],[21.335,46.9583],[21.3439,46.9827],[21.3013,46.9998],[21.2883,47.0158],[21.2914,47.1164],[21.2711,47.1454],[21.2059,47.1673],[21.1181,47.181],[20.9945,47.236],[21.0229,47.286],[21.0279,47.3495],[21.0017,47.4441],[20.9899,47.5288],[20.9766,47.5689],[20.9457,47.5889],[20.8811,47.6017],[20.8426,47.6286],[20.8192,47.6794],[20.7741,47.6723],[20.7186,47.686],[20.6089,47.7011],[20.5748,47.7553],[20.5285,47.7919],[20.4645,47.8682],[20.4484,47.8806],[20.465,47.8992],[20.4609,47.9188],[20.4475,47.9343],[20.4289,47.9486],[20.422,47.9691],[20.4788,48.015],[20.4918,48.0549],[20.4951,48.0779],[20.49,48.1014],[20.4728,48.1134],[20.4184,48.1514],[20.3548,48.095],[20.3208,48.1116],[20.2847,48.11],[20.2561,48.0928],[20.2209,48.0929],[20.1915,48.1162],[20.1611,48.1182],[20.1182,48.1479],[20.0959,48.1411],[20.0383,48.1772],[20.097,48.1984],[20.1345,48.2467],[20.1709,48.244],[20.2291,48.2709],[20.2724,48.2525],[20.3243,48.2799],[20.3702,48.3343],[20.409,48.4137],[20.466,48.4638],[20.4487,48.4723],[20.4021,48.464],[20.336,48.4627],[20.3087,48.4866],[20.3035,48.5095],[20.3476,48.5994],[20.2919,48.6179],[20.2873,48.6443],[20.261,48.6918],[20.1883,48.7274],[20.1813,48.7557],[20.2013,48.7727],[20.1986,48.8158],[20.25,48.8682],[20.2727,48.8728],[20.3116,48.9119],[20.3413,48.9245],[20.2997,48.9449],[20.3424,48.973],[20.428,49.0034],[20.4762,48.9847],[20.5214,49.0034],[20.5793,48.9744],[20.6136,48.97],[20.6455,48.9517],[20.7071,48.9768],[20.7698,48.9698],[20.7682,49.0005],[20.8467,48.9725],[20.8783,48.977],[20.9472,48.9512],[20.9865,48.9553],[20.996,48.9333],[21.0322,48.9037],[21.0907,48.8975],[21.133,48.8999],[21.1747,48.8777],[21.2011,48.8787],[21.2622,48.8636],[21.2428,48.8394],[21.2829,48.8132],[21.3083,48.8133],[21.3075,48.831],[21.3702,48.8392],[21.382,48.8789],[21.4588,48.8727],[21.4801,48.8811],[21.4973,48.8408],[21.5367,48.7938],[21.5995,48.7774],[21.6582,48.7724],[21.6975,48.7601],[21.796,48.7958],[21.7856,48.8953],[21.8233,48.8945],[21.92,48.8738],[21.9929,48.8422],[22.0326,48.8383],[22.1201,48.8424],[22.1189,48.8729],[22.1839,48.9215],[22.2284,48.9151],[22.2606,48.8598],[22.3242,48.8663],[22.3708,48.8582],[22.4118,48.8878],[22.4149,48.9117],[22.449,48.9714],[22.5205,48.9929],[22.5248,49.0329],[22.5396,49.0722],[22.5808,49.0814],[22.6429,49.0432],[22.7553,49.0447],[22.784,49.0214],[22.8553,48.994],[22.865,49.0132],[22.9024,48.9833],[22.892,48.9354],[22.926,48.9041],[22.9612,48.8843],[22.9821,48.859],[23.0117,48.8547],[23.105,48.8713],[23.1376,48.8522],[23.1798,48.7903],[23.2016,48.7771],[23.2576,48.7722],[23.2982,48.7812],[23.3085,48.7502],[23.3505,48.772],[23.378,48.7371],[23.4458,48.7267],[23.4985,48.7312],[23.5329,48.7237],[23.6124,48.7038],[23.6745,48.6545],[23.709,48.643],[23.7715,48.6447],[23.7817,48.6034],[23.8471,48.5628],[23.8949,48.5496],[23.9168,48.5154],[23.9074,48.4887],[23.9427,48.4704],[24.0015,48.5001],[24.0462,48.5051],[24.1138,48.5322],[24.137,48.5275],[24.1407,48.4712],[24.1312,48.4345],[24.1408,48.3799],[24.1777,48.3546],[24.2341,48.3505],[24.2707,48.3572],[24.3054,48.3883],[24.3317,48.3748],[24.3458,48.3402],[24.3916,48.3311],[24.4949,48.2666],[24.5415,48.2128],[24.5216,48.1711],[24.5384,48.1345],[24.6068,48.0886],[24.6393,48.0476],[24.5882,47.9959],[24.5698,47.9373]]]}},
{"type":"Feature","properties":{"entityId":"transylvania","from":1648,"to":1660,"certainty":"estimated","source":"유럽 쪽은 Natural Earth 1:10m admin-1(v5.1.2) 현대 행정구역 조각을 그 시기 국경에 맞춰 묶고, 조각이 역사 경계와 다른 곳은 선을 그어 나눈 근사. 유럽 밖(시베리아·중앙아시아·극동)은 대략적인 추정. 운영자 검수 필요"},"geometry":{"type":"Polygon","coordinates":[[[21.4235,46.6582],[21.4362,46.6737],[21.4836,46.6849],[21.5052,46.7232],[21.4705,46.743],[21.5029,46.8053],[21.5366,46.835],[21.5731,46.8418],[21.5918,46.8607],[21.5944,46.91],[21.6485,46.943],[21.6675,46.9924],[21.6343,47.0194],[21.5668,47.0012],[21.4987,46.9537],[21.4564,46.9542],[21.3868,46.9408],[21.335,46.9583],[21.3439,46.9827],[21.3013,46.9998],[21.2883,47.0158],[21.2914,47.1164],[21.2711,47.1454],[21.2059,47.1673],[21.1181,47.181],[20.9945,47.236],[21.0229,47.286],[21.0279,47.3495],[21.0017,47.4441],[20.9899,47.5288],[20.9766,47.5689],[20.9457,47.5889],[20.8811,47.6017],[20.8426,47.6286],[20.8192,47.6794],[20.8921,47.6843],[20.9422,47.7186],[20.979,47.773],[21.0339,47.7798],[21.0285,47.8163],[21.0584,47.855],[21.0564,47.8905],[21.1062,47.9381],[21.1137,47.9605],[21.1378,48.0068],[21.1813,48.0263],[21.2226,48.029],[21.2529,48.0475],[21.2843,48.0263],[21.3733,48.027],[21.4324,48.0506],[21.4427,48.0818],[21.4263,48.1124],[21.4469,48.1579],[21.4761,48.1771],[21.6128,48.1803],[21.6521,48.1678],[21.6902,48.1674],[21.7662,48.1994],[21.7945,48.202],[21.846,48.2324],[21.9092,48.235],[21.9432,48.2478],[22.0053,48.3032],[22.0515,48.3],[22.0792,48.3115],[22.1372,48.3869],[22.1583,48.4022],[22.202,48.4182],[22.2718,48.4035],[22.2568,48.3573],[22.2913,48.3576],[22.3081,48.2937],[22.3571,48.2431],[22.4342,48.2367],[22.4814,48.2426],[22.5558,48.1772],[22.6001,48.1011],[22.6932,48.1018],[22.7457,48.1163],[22.831,48.0724],[22.8616,48.0284],[22.8495,47.9931],[22.8324,47.9789],[22.8776,47.9467],[22.9158,47.9592],[22.9157,47.993],[22.9393,48.0057],[22.9882,47.9864],[23.0203,47.9847],[23.0631,48.0075],[23.099,48.0712],[23.1186,48.0915],[23.1617,48.0959],[23.2314,48.0797],[23.3601,47.9931],[23.396,47.9931],[23.4608,47.9713],[23.4855,47.9742],[23.5145,47.999],[23.5632,48.0058],[23.7105,47.9851],[23.7801,47.9875],[23.8766,47.9344],[23.9773,47.9623],[24.0948,47.9379],[24.1312,47.9145],[24.231,47.897],[24.2979,47.9198],[24.3472,47.9209],[24.3862,47.9437],[24.4285,47.9525],[24.4856,47.9432],[24.5698,47.9373],[24.6085,47.9219],[24.6493,47.8952],[24.6615,47.8539],[24.7128,47.8259],[24.7937,47.8045],[24.8207,47.7841],[24.8778,47.7187],[24.9289,47.7139],[24.9424,47.7156],[24.9788,47.6626],[25.0219,47.6322],[25.0323,47.6123],[25.0158,47.5965],[24.9562,47.5823],[25.0461,47.5297],[25.0842,47.4938],[25.0905,47.4715],[25.0726,47.4495],[25.0373,47.4302],[25.0494,47.3999],[25.007,47.3926],[25.004,47.3792],[25.0404,47.3429],[25.0568,47.3153],[25.0292,47.2576],[25.0391,47.2372],[25.0765,47.2283],[25.0632,47.1728],[25.0686,47.103],[25.1589,47.0914],[25.2047,47.0764],[25.2419,47.0663],[25.2826,47.0704],[25.3118,47.123],[25.3725,47.1403],[25.4069,47.1348],[25.5189,47.0824],[25.5521,47.0559],[25.5836,47.0473],[25.6713,47.0579],[25.7371,47.039],[25.7627,47.0125],[25.7918,46.9661],[25.8658,46.9128],[25.8668,46.8837],[25.832,46.8853],[25.8165,46.8592],[25.8282,46.6936],[25.8409,46.6702],[25.889,46.6348],[25.915,46.6356],[25.907,46.6748],[25.9271,46.6819],[26.0088,46.668],[26.012,46.5936],[26.0289,46.5485],[26.0691,46.4986],[26.0699,46.4872],[26.0325,46.4683],[26.0189,46.4268],[26.0387,46.4033],[26.1326,46.3907],[26.1619,46.3731],[26.1682,46.35],[26.1595,46.3125],[26.1823,46.3057],[26.2471,46.3266],[26.2927,46.3197],[26.3002,46.302],[26.2869,46.2762],[26.2799,46.2265],[26.259,46.1881],[26.2516,46.1503],[26.2932,46.1601],[26.325,46.1794],[26.4001,46.1445],[26.4149,46.128],[26.4021,46.0943],[26.4406,46.0748],[26.4681,46.0274],[26.4848,46.0212],[26.4209,45.9505],[26.4048,45.9175],[26.3804,45.8029],[26.395,45.7498],[26.3667,45.6852],[26.3427,45.6553],[26.3286,45.6181],[26.2847,45.6028],[26.2346,45.6256],[26.2156,45.6122],[26.2075,45.5832],[26.1889,45.5745],[26.1005,45.5644],[26.046,45.4823],[25.9989,45.4886],[25.9458,45.5102],[25.9028,45.5006],[25.8913,45.4654],[25.8627,45.4416],[25.8231,45.4455],[25.7904,45.4733],[25.7502,45.4659],[25.6933,45.4794],[25.6278,45.4847],[25.4588,45.4636],[25.4298,45.4523],[25.4027,45.4392],[25.3703,45.3994],[25.3092,45.3885],[25.2759,45.4165],[25.2208,45.5034],[25.0951,45.5696],[24.9839,45.58],[24.8687,45.5739],[24.8388,45.5631],[24.8004,45.595],[24.7719,45.6029],[24.7091,45.5988],[24.5272,45.5618],[24.3218,45.563],[24.1689,45.537],[24.0683,45.4964],[23.9606,45.5122],[23.794,45.508],[23.7526,45.4861],[23.7097,45.4798],[23.6469,45.4505],[23.6261,45.4519],[23.5842,45.4473],[23.5808,45.4323],[23.5999,45.3819],[23.5858,45.3526],[23.5237,45.3379],[23.4304,45.3038],[23.3984,45.3182],[23.3575,45.3215],[23.2441,45.2952],[23.1895,45.2718],[23.0908,45.2794],[23.027,45.2597],[22.9761,45.2748],[22.9334,45.2767],[22.8814,45.2949],[22.6691,45.2405],[22.6771,45.2755],[22.7069,45.3223],[22.6753,45.3739],[22.698,45.413],[22.6784,45.4925],[22.6533,45.5202],[22.5761,45.5671],[22.5424,45.57],[22.5374,45.5973],[22.4834,45.6115],[22.4536,45.6401],[22.4454,45.6629],[22.4616,45.6738],[22.4811,45.7191],[22.5411,45.7613],[22.5298,45.7799],[22.5025,45.774],[22.486,45.786],[22.4494,45.8372],[22.4125,45.8627],[22.3891,45.9247],[22.3549,45.9499],[22.4015,45.9917],[22.4196,46.0253],[22.4072,46.0713],[22.4296,46.1142],[22.4336,46.1761],[22.4702,46.212],[22.502,46.2189],[22.5579,46.2095],[22.6007,46.2109],[22.6403,46.2314],[22.6897,46.3002],[22.7553,46.3338],[22.7067,46.3687],[22.6176,46.3693],[22.5413,46.3806],[22.4507,46.3819],[22.4203,46.3902],[22.3929,46.4269],[22.318,46.4466],[22.2705,46.4749],[22.2094,46.4949],[22.1822,46.524],[22.1455,46.5827],[22.1122,46.601],[22.0668,46.6107],[21.9786,46.6132],[21.9119,46.6376],[21.8799,46.6382],[21.8258,46.6581],[21.492,46.6452],[21.4235,46.6582]]]}},
{"type":"Feature","properties":{"entityId":"transylvania","from":1660,"to":1664,"certainty":"estimated","source":"유럽 쪽은 Natural Earth 1:10m admin-1(v5.1.2) 현대 행정구역 조각을 그 시기 국경에 맞춰 묶고, 조각이 역사 경계와 다른 곳은 선을 그어 나눈 근사. 유럽 밖(시베리아·중앙아시아·극동)은 대략적인 추정. 운영자 검수 필요"},"geometry":{"type":"Polygon","coordinates":[[[23.0905,47.4043],[22.9984,47.4163],[22.9676,47.4305],[22.9688,47.4445],[23.0309,47.4795],[23.0578,47.5261],[23.1168,47.5765],[23.1435,47.577],[23.1717,47.5554],[23.2172,47.5353],[23.268,47.5381],[23.3237,47.5853],[23.3595,47.6426],[23.3609,47.6678],[23.3268,47.6892],[23.2588,47.7019],[23.2395,47.7223],[23.2718,47.7492],[23.3429,47.7489],[23.4145,47.7326],[23.4792,47.743],[23.6207,47.8162],[23.63,47.8381],[23.607,47.8594],[23.5494,47.889],[23.502,47.9342],[23.4855,47.9742],[23.5145,47.999],[23.5632,48.0058],[23.7105,47.9851],[23.7801,47.9875],[23.8766,47.9344],[23.9773,47.9623],[24.0948,47.9379],[24.1312,47.9145],[24.231,47.897],[24.2979,47.9198],[24.3472,47.9209],[24.3862,47.9437],[24.4285,47.9525],[24.4856,47.9432],[24.5698,47.9373],[24.6085,47.9219],[24.6493,47.8952],[24.6615,47.8539],[24.7128,47.8259],[24.7937,47.8045],[24.8207,47.7841],[24.8778,47.7187],[24.9289,47.7139],[24.9424,47.7156],[24.9788,47.6626],[25.0219,47.6322],[25.0323,47.6123],[25.0158,47.5965],[24.9562,47.5823],[25.0461,47.5297],[25.0842,47.4938],[25.0905,47.4715],[25.0726,47.4495],[25.0373,47.4302],[25.0494,47.3999],[25.007,47.3926],[25.004,47.3792],[25.0404,47.3429],[25.0568,47.3153],[25.0292,47.2576],[25.0391,47.2372],[25.0765,47.2283],[25.0632,47.1728],[25.0686,47.103],[25.1589,47.0914],[25.2047,47.0764],[25.2419,47.0663],[25.2826,47.0704],[25.3118,47.123],[25.3725,47.1403],[25.4069,47.1348],[25.5189,47.0824],[25.5521,47.0559],[25.5836,47.0473],[25.6713,47.0579],[25.7371,47.039],[25.7627,47.0125],[25.7918,46.9661],[25.8658,46.9128],[25.8668,46.8837],[25.832,46.8853],[25.8165,46.8592],[25.8282,46.6936],[25.8409,46.6702],[25.889,46.6348],[25.915,46.6356],[25.907,46.6748],[25.9271,46.6819],[26.0088,46.668],[26.012,46.5936],[26.0289,46.5485],[26.0691,46.4986],[26.0699,46.4872],[26.0325,46.4683],[26.0189,46.4268],[26.0387,46.4033],[26.1326,46.3907],[26.1619,46.3731],[26.1682,46.35],[26.1595,46.3125],[26.1823,46.3057],[26.2471,46.3266],[26.2927,46.3197],[26.3002,46.302],[26.2869,46.2762],[26.2799,46.2265],[26.259,46.1881],[26.2516,46.1503],[26.2932,46.1601],[26.325,46.1794],[26.4001,46.1445],[26.4149,46.128],[26.4021,46.0943],[26.4406,46.0748],[26.4681,46.0274],[26.4848,46.0212],[26.4209,45.9505],[26.4048,45.9175],[26.3804,45.8029],[26.395,45.7498],[26.3667,45.6852],[26.3427,45.6553],[26.3286,45.6181],[26.2847,45.6028],[26.2346,45.6256],[26.2156,45.6122],[26.2075,45.5832],[26.1889,45.5745],[26.1005,45.5644],[26.046,45.4823],[25.9989,45.4886],[25.9458,45.5102],[25.9028,45.5006],[25.8913,45.4654],[25.8627,45.4416],[25.8231,45.4455],[25.7904,45.4733],[25.7502,45.4659],[25.6933,45.4794],[25.6278,45.4847],[25.4588,45.4636],[25.4298,45.4523],[25.4027,45.4392],[25.3703,45.3994],[25.3092,45.3885],[25.2759,45.4165],[25.2208,45.5034],[25.0951,45.5696],[24.9839,45.58],[24.8687,45.5739],[24.8388,45.5631],[24.8004,45.595],[24.7719,45.6029],[24.7091,45.5988],[24.5272,45.5618],[24.3218,45.563],[24.1689,45.537],[24.0683,45.4964],[23.9606,45.5122],[23.794,45.508],[23.7526,45.4861],[23.7097,45.4798],[23.6469,45.4505],[23.6261,45.4519],[23.5842,45.4473],[23.5808,45.4323],[23.5999,45.3819],[23.5858,45.3526],[23.5237,45.3379],[23.4304,45.3038],[23.3984,45.3182],[23.3575,45.3215],[23.2441,45.2952],[23.1895,45.2718],[23.0908,45.2794],[23.027,45.2597],[22.9761,45.2748],[22.9334,45.2767],[22.8814,45.2949],[22.6691,45.2405],[22.6771,45.2755],[22.7069,45.3223],[22.6753,45.3739],[22.698,45.413],[22.6784,45.4925],[22.6533,45.5202],[22.5761,45.5671],[22.5424,45.57],[22.5374,45.5973],[22.4834,45.6115],[22.4536,45.6401],[22.4454,45.6629],[22.4616,45.6738],[22.4811,45.7191],[22.5411,45.7613],[22.5298,45.7799],[22.5025,45.774],[22.486,45.786],[22.4494,45.8372],[22.4125,45.8627],[22.3891,45.9247],[22.3549,45.9499],[22.4015,45.9917],[22.4196,46.0253],[22.4072,46.0713],[22.4296,46.1142],[22.4336,46.1761],[22.4702,46.212],[22.502,46.2189],[22.5579,46.2095],[22.6007,46.2109],[22.6403,46.2314],[22.6897,46.3002],[22.7553,46.3338],[22.7067,46.3687],[22.6176,46.3693],[22.5413,46.3806],[22.4507,46.3819],[22.4203,46.3902],[22.3929,46.4269],[22.318,46.4466],[22.2705,46.4749],[22.2094,46.4949],[22.1822,46.524],[22.1455,46.5827],[22.1122,46.601],[22.0668,46.6107],[21.9786,46.6132],[21.9119,46.6376],[21.8799,46.6382],[21.8258,46.6581],[21.492,46.6452],[21.4235,46.6582],[21.4362,46.6737],[21.4836,46.6849],[21.5052,46.7232],[21.4705,46.743],[21.5029,46.8053],[21.5366,46.835],[21.5731,46.8418],[21.5918,46.8607],[21.5944,46.91],[21.6485,46.943],[21.6675,46.9924],[21.6343,47.0194],[21.5668,47.0012],[21.4987,46.9537],[21.4564,46.9542],[21.3868,46.9408],[21.335,46.9583],[21.3439,46.9827],[21.3013,46.9998],[21.2883,47.0158],[21.2914,47.1164],[21.2711,47.1454],[21.2059,47.1673],[21.1181,47.181],[20.9945,47.236],[21.0229,47.286],[21.0279,47.3495],[21.0017,47.4441],[20.9899,47.5288],[20.9766,47.5689],[20.9457,47.5889],[20.8811,47.6017],[20.8426,47.6286],[20.8192,47.6794],[20.8921,47.6843],[20.9422,47.7186],[20.979,47.773],[21.0339,47.7798],[21.0285,47.8163],[21.0584,47.855],[21.0564,47.8905],[21.1062,47.9381],[21.1137,47.9605],[21.1867,47.954],[21.2694,47.9097],[21.3142,47.9217],[21.4761,47.93],[21.5146,47.9455],[21.5461,47.9381],[21.5561,47.9169],[21.5438,47.8636],[21.5397,47.8075],[21.6333,47.7577],[21.6498,47.7424],[21.6987,47.7354],[21.7182,47.7228],[21.8019,47.7064],[21.8409,47.6831],[21.8595,47.6958],[21.8956,47.7449],[21.9299,47.7462],[21.9994,47.7199],[22.0284,47.685],[22.0226,47.6589],[22.0487,47.6415],[22.0951,47.6763],[22.1125,47.6589],[22.1324,47.6011],[22.1542,47.5822],[22.1676,47.5949],[22.225,47.5311],[22.2662,47.5103],[22.3256,47.4461],[22.3602,47.401],[22.4285,47.3997],[22.4723,47.4124],[22.5548,47.3758],[22.5807,47.3214],[22.6236,47.3447],[22.7547,47.3879],[22.8018,47.3928],[22.9119,47.372],[22.9645,47.344],[23.0056,47.3369],[23.051,47.3161],[23.105,47.3554],[23.1103,47.3769],[23.0905,47.4043]]]}},
{"type":"Feature","properties":{"entityId":"transylvania","from":1664,"to":1699,"certainty":"estimated","source":"유럽 쪽은 Natural Earth 1:10m admin-1(v5.1.2) 현대 행정구역 조각을 그 시기 국경에 맞춰 묶고, 조각이 역사 경계와 다른 곳은 선을 그어 나눈 근사. 유럽 밖(시베리아·중앙아시아·극동)은 대략적인 추정. 운영자 검수 필요"},"geometry":{"type":"Polygon","coordinates":[[[22.7194,46.9794],[22.6639,47.0255],[22.5905,47.0586],[22.5504,47.1137],[22.5072,47.1599],[22.4943,47.1942],[22.5368,47.2324],[22.5807,47.3214],[22.6236,47.3447],[22.7547,47.3879],[22.8018,47.3928],[22.9119,47.372],[22.9645,47.344],[23.0056,47.3369],[23.051,47.3161],[23.105,47.3554],[23.1103,47.3769],[23.0905,47.4043],[22.9984,47.4163],[22.9676,47.4305],[22.9688,47.4445],[23.0309,47.4795],[23.0578,47.5261],[23.1168,47.5765],[23.1435,47.577],[23.1717,47.5554],[23.2172,47.5353],[23.268,47.5381],[23.3237,47.5853],[23.3595,47.6426],[23.3609,47.6678],[23.3268,47.6892],[23.2588,47.7019],[23.2395,47.7223],[23.2718,47.7492],[23.3429,47.7489],[23.4145,47.7326],[23.4792,47.743],[23.6207,47.8162],[23.63,47.8381],[23.607,47.8594],[23.5494,47.889],[23.502,47.9342],[23.4855,47.9742],[23.5145,47.999],[23.5632,48.0058],[23.7105,47.9851],[23.7801,47.9875],[23.8766,47.9344],[23.9773,47.9623],[24.0948,47.9379],[24.1312,47.9145],[24.231,47.897],[24.2979,47.9198],[24.3472,47.9209],[24.3862,47.9437],[24.4285,47.9525],[24.4856,47.9432],[24.5698,47.9373],[24.6085,47.9219],[24.6493,47.8952],[24.6615,47.8539],[24.7128,47.8259],[24.7937,47.8045],[24.8207,47.7841],[24.8778,47.7187],[24.9289,47.7139],[24.9424,47.7156],[24.9788,47.6626],[25.0219,47.6322],[25.0323,47.6123],[25.0158,47.5965],[24.9562,47.5823],[25.0461,47.5297],[25.0842,47.4938],[25.0905,47.4715],[25.0726,47.4495],[25.0373,47.4302],[25.0494,47.3999],[25.007,47.3926],[25.004,47.3792],[25.0404,47.3429],[25.0568,47.3153],[25.0292,47.2576],[25.0391,47.2372],[25.0765,47.2283],[25.0632,47.1728],[25.0686,47.103],[25.1589,47.0914],[25.2047,47.0764],[25.2419,47.0663],[25.2826,47.0704],[25.3118,47.123],[25.3725,47.1403],[25.4069,47.1348],[25.5189,47.0824],[25.5521,47.0559],[25.5836,47.0473],[25.6713,47.0579],[25.7371,47.039],[25.7627,47.0125],[25.7918,46.9661],[25.8658,46.9128],[25.8668,46.8837],[25.832,46.8853],[25.8165,46.8592],[25.8282,46.6936],[25.8409,46.6702],[25.889,46.6348],[25.915,46.6356],[25.907,46.6748],[25.9271,46.6819],[26.0088,46.668],[26.012,46.5936],[26.0289,46.5485],[26.0691,46.4986],[26.0699,46.4872],[26.0325,46.4683],[26.0189,46.4268],[26.0387,46.4033],[26.1326,46.3907],[26.1619,46.3731],[26.1682,46.35],[26.1595,46.3125],[26.1823,46.3057],[26.2471,46.3266],[26.2927,46.3197],[26.3002,46.302],[26.2869,46.2762],[26.2799,46.2265],[26.259,46.1881],[26.2516,46.1503],[26.2932,46.1601],[26.325,46.1794],[26.4001,46.1445],[26.4149,46.128],[26.4021,46.0943],[26.4406,46.0748],[26.4681,46.0274],[26.4848,46.0212],[26.4209,45.9505],[26.4048,45.9175],[26.3804,45.8029],[26.395,45.7498],[26.3667,45.6852],[26.3427,45.6553],[26.3286,45.6181],[26.2847,45.6028],[26.2346,45.6256],[26.2156,45.6122],[26.2075,45.5832],[26.1889,45.5745],[26.1005,45.5644],[26.046,45.4823],[25.9989,45.4886],[25.9458,45.5102],[25.9028,45.5006],[25.8913,45.4654],[25.8627,45.4416],[25.8231,45.4455],[25.7904,45.4733],[25.7502,45.4659],[25.6933,45.4794],[25.6278,45.4847],[25.4588,45.4636],[25.4298,45.4523],[25.4027,45.4392],[25.3703,45.3994],[25.3092,45.3885],[25.2759,45.4165],[25.2208,45.5034],[25.0951,45.5696],[24.9839,45.58],[24.8687,45.5739],[24.8388,45.5631],[24.8004,45.595],[24.7719,45.6029],[24.7091,45.5988],[24.5272,45.5618],[24.3218,45.563],[24.1689,45.537],[24.0683,45.4964],[23.9606,45.5122],[23.794,45.508],[23.7526,45.4861],[23.7097,45.4798],[23.6469,45.4505],[23.6261,45.4519],[23.5842,45.4473],[23.5808,45.4323],[23.5999,45.3819],[23.5858,45.3526],[23.5237,45.3379],[23.4304,45.3038],[23.3984,45.3182],[23.3575,45.3215],[23.2441,45.2952],[23.1895,45.2718],[23.0908,45.2794],[23.027,45.2597],[22.9761,45.2748],[22.9334,45.2767],[22.8814,45.2949],[22.6691,45.2405],[22.6771,45.2755],[22.7069,45.3223],[22.6753,45.3739],[22.698,45.413],[22.6784,45.4925],[22.6533,45.5202],[22.5761,45.5671],[22.5424,45.57],[22.5374,45.5973],[22.4834,45.6115],[22.4536,45.6401],[22.4454,45.6629],[22.4616,45.6738],[22.4811,45.7191],[22.5411,45.7613],[22.5298,45.7799],[22.5025,45.774],[22.486,45.786],[22.4494,45.8372],[22.4125,45.8627],[22.3891,45.9247],[22.3549,45.9499],[22.4015,45.9917],[22.4196,46.0253],[22.4072,46.0713],[22.4296,46.1142],[22.4336,46.1761],[22.4702,46.212],[22.502,46.2189],[22.5579,46.2095],[22.6007,46.2109],[22.6403,46.2314],[22.6897,46.3002],[22.7553,46.3338],[22.7067,46.3687],[22.6881,46.422],[22.6869,46.483],[22.7025,46.5321],[22.7398,46.5654],[22.8028,46.5569],[22.8079,46.6194],[22.7643,46.657],[22.7469,46.7036],[22.7208,46.7389],[22.6688,46.7753],[22.6681,46.7926],[22.6935,46.8123],[22.7303,46.8234],[22.7513,46.8433],[22.7657,46.8844],[22.7477,46.9021],[22.6883,46.9203],[22.7194,46.9794]]]}}
]}
