{"type":"FeatureCollection","features":[
{"type":"Feature","properties":{"entityId":"trebizond","from":1204,"to":1214,"certainty":"estimated","source":"유럽 쪽은 Natural Earth 1:10m admin-1(v5.1.2) 현대 행정구역 조각을 그 시기 국경에 맞춰 묶고, 조각이 역사 경계와 다른 곳은 선을 그어 나눈 근사. 유럽 밖(시베리아·중앙아시아·극동)은 대략적인 추정. 운영자 검수 필요"},"geometry":{"type":"MultiPolygon","coordinates":[[[[31.3248,41.167],[31.3597,41.167],[31.3597,41.1632],[31.3464,41.1507],[31.3846,41.1232],[31.556,41.0595],[31.7991,41.0418],[31.8722,41.0365],[31.9347,41.0241],[32.1494,41.0192],[32.1983,41.0181],[32.284,41.0039],[32.2783,40.9486],[32.3303,40.9328],[32.3769,40.9106],[32.4922,40.8678],[32.5295,40.8152],[32.5262,40.7887],[32.6305,40.8256],[32.7483,40.8974],[32.7962,40.963],[32.8326,40.9792],[32.9295,40.9711],[33.0265,41.0115],[33.0692,41.093],[33.038,41.1289],[32.9858,41.147],[32.9297,41.1533],[32.9103,41.2606],[32.9194,41.2944],[32.9647,41.3411],[33.017,41.3804],[33.1154,41.3954],[33.0871,41.4439],[33.0589,41.5328],[32.9861,41.5732],[32.9131,41.5548],[32.8522,41.5477],[32.818,41.5764],[32.8085,41.6478],[32.873,41.6823],[32.8366,41.7551],[32.8083,41.7995],[32.7985,41.8597],[32.7903,41.8596],[32.7554,41.8591],[32.6792,41.8363],[32.6126,41.8395],[32.5836,41.816],[32.5681,41.8127],[32.5484,41.8157],[32.4685,41.783],[32.3785,41.7534],[32.3772,41.7541],[32.3754,41.7524],[32.3047,41.7291],[32.296,41.7236],[32.2634,41.7202],[32.2434,41.6929],[32.2322,41.6833],[32.1274,41.617],[32.0604,41.5809],[32.0394,41.5756],[32.0012,41.554],[31.9766,41.5433],[31.8716,41.5046],[31.7754,41.4563],[31.597,41.3792],[31.4927,41.3477],[31.471,41.3248],[31.4036,41.3165],[31.3962,41.2955],[31.4196,41.2803],[31.4133,41.2538],[31.3893,41.2191],[31.3464,41.196],[31.3248,41.1843],[31.3248,41.167]]],[[[33.3271,44.5654],[33.5013,44.5011],[33.5176,44.4905],[33.5272,44.4915],[33.6035,44.4634],[33.6298,44.448],[33.6454,44.4251],[33.73,44.398],[33.7653,44.406],[33.786,44.4247],[33.8521,44.4316],[33.8057,44.5273],[33.7771,44.5322],[33.7692,44.5559],[33.7298,44.5539],[33.713,44.5816],[33.7505,44.624],[33.7091,44.6664],[33.6252,44.6614],[33.6114,44.7206],[33.6893,44.7542],[33.6745,44.7916],[33.6173,44.8163],[33.5808,44.8193],[33.5705,44.8525],[33.5573,44.8441],[33.5573,44.8462],[33.5293,44.8462],[33.5293,44.8954],[33.4815,44.8954],[33.4584,44.8462],[33.4353,44.7969],[33.3892,44.6983],[33.3271,44.5658],[33.3273,44.5657],[33.3271,44.5654]]],[[[33.9,44.3683],[33.9354,44.3834],[33.9579,44.383],[34.0658,44.4196],[34.1026,44.4251],[34.1475,44.4499],[34.1668,44.4735],[34.2082,44.4967],[34.2298,44.4999],[34.2452,44.5156],[34.3122,44.5442],[34.3228,44.5435],[34.3361,44.5544],[34.9523,44.8172],[35.0284,44.8093],[35.0376,44.7988],[35.0808,44.7938],[35.1084,44.8249],[35.1299,44.8606],[35.1564,44.8969],[35.1813,44.907],[35.2151,44.9144],[35.2244,44.9245],[35.276,44.9454],[35.344,44.9562],[35.3672,44.9433],[35.3653,44.9596],[35.6,44.997],[35.6,45.12],[35.3,45.08],[35,44.93],[34.7,44.85],[34.3,44.75],[33.9,44.62],[33.9,44.3683]]],[[[34.1404,41.7671],[34.2051,41.7478],[34.2842,41.7453],[34.3443,41.7325],[34.4661,41.7275],[34.5325,41.7132],[34.5879,41.6575],[34.5533,41.5912],[34.4918,41.5523],[34.472,41.5185],[34.4629,41.4798],[34.4798,41.4416],[34.4719,41.3108],[34.4985,41.2859],[34.5575,41.2846],[34.5741,41.2705],[34.641,41.2721],[34.6704,41.2661],[34.7239,41.2293],[34.8373,41.2016],[34.8761,41.233],[34.888,41.2698],[34.9418,41.2999],[34.9345,41.3179],[34.9913,41.3348],[35.0239,41.3588],[35.1024,41.3853],[35.1133,41.3998],[35.1328,41.3771],[35.1406,41.3415],[35.1958,41.311],[35.1944,41.2934],[35.2397,41.2892],[35.2963,41.2583],[35.3399,41.2545],[35.3831,41.2602],[35.4338,41.2833],[35.4851,41.2728],[35.5048,41.2845],[35.4895,41.3735],[35.4709,41.4171],[35.4723,41.4755],[35.456,41.5236],[35.4608,41.5742],[35.5001,41.6416],[35.5166,41.639],[35.5166,41.7309],[35.5431,41.7309],[35.5431,41.7646],[35.5696,41.7646],[35.5696,41.8782],[35.5166,41.8996],[35.3048,41.985],[35.2076,42.0242],[35.1862,42.0425],[35.1604,42.0415],[35.1588,42.0404],[35.1066,42.0397],[35.0453,42.0545],[35.0488,42.0651],[35.0239,42.0925],[34.9481,42.0988],[34.9419,42.0693],[34.9142,42.0371],[34.533,42.0321],[34.3424,42.0295],[34.2471,42.0283],[34.1995,42.0276],[34.1995,41.9619],[34.2161,41.9601],[34.2209,41.9035],[34.1926,41.8451],[34.1422,41.8002],[34.1404,41.7671]]],[[[36.6875,40.836],[36.6989,40.8068],[36.7565,40.792],[36.8118,40.7661],[36.8954,40.7447],[36.9468,40.7203],[37.0134,40.6989],[37.0846,40.6943],[37.1525,40.7019],[37.2197,40.6977],[37.4488,40.5759],[37.5841,40.5694],[37.617,40.5212],[37.6349,40.4612],[37.6901,40.3794],[37.7669,40.3319],[37.8019,40.3357],[37.8614,40.3839],[37.8977,40.4041],[37.9802,40.4013],[38.0016,40.4116],[37.998,40.4688],[38.0084,40.481],[38.0952,40.4922],[38.1583,40.5235],[38.2405,40.2852],[38.2382,40.2286],[38.2748,40.1861],[38.3311,40.1647],[38.3923,40.1283],[38.4542,40.0999],[38.5563,40.1194],[38.661,40.0935],[38.7616,40.0549],[38.8055,40.0525],[38.8925,40.0576],[38.9333,40.0713],[38.989,40.0488],[39.0496,40.0391],[39.1583,39.9901],[39.2331,39.9607],[39.2665,39.9303],[39.327,39.9163],[39.3854,39.8933],[39.447,39.888],[39.5058,39.8926],[39.5647,39.8892],[39.622,39.8938],[39.6764,39.9147],[39.7879,39.9348],[39.8317,39.9709],[39.8691,40.0148],[39.8328,40.0769],[39.8115,40.144],[39.8276,40.2092],[39.86,40.2669],[39.8674,40.4136],[39.834,40.561],[39.8699,40.5749],[39.8633,40.5994],[39.8836,40.6118],[39.9138,40.603],[39.9747,40.5503],[40.0159,40.5327],[40.1017,40.5307],[40.1846,40.5104],[40.2279,40.5112],[40.3267,40.53],[40.4294,40.5295],[40.4894,40.5421],[40.6514,40.6041],[40.7918,40.6291],[40.8219,40.6866],[40.8575,40.698],[40.9016,40.6983],[40.9444,40.709],[41.0509,40.7784],[41.1274,40.8129],[41.2055,40.7792],[41.3293,40.7645],[41.3653,40.7547],[41.3727,40.7221],[41.347,40.6864],[41.3334,40.601],[41.4013,40.5556],[41.4935,40.5818],[41.5788,40.6243],[41.6566,40.6412],[41.7347,40.6236],[41.8208,40.5876],[41.8664,40.6397],[41.868,40.6847],[41.8874,40.7244],[41.9272,40.7551],[41.9526,40.7956],[41.946,40.8385],[41.9589,40.8775],[42.0228,40.911],[41.75,40.95],[41.6,41.1],[41.5,41.3],[41.52,41.48],[41.52,41.5271],[41.51,41.5173],[41.5094,41.5168],[41.5073,41.5159],[41.4566,41.4934],[41.4289,41.4811],[41.2999,41.424],[41.2354,41.3954],[41.2032,41.3812],[41.1709,41.3669],[41.1387,41.3526],[41.0418,41.3097],[40.5257,41.0811],[40.3967,41.024],[40.3725,41.0132],[40.3645,41.0141],[40.3322,41.0174],[40.2677,41.0242],[40.0096,41.0511],[39.5124,41.1029],[39.512,41.1029],[39.4935,41.1004],[39.4929,41.101],[39.4302,41.1125],[39.4118,41.1038],[39.2158,41.0735],[39.1683,41.0797],[39.1483,41.0725],[39.1263,41.0596],[39.0204,41.0433],[38.9275,41.0426],[38.8824,41.0219],[38.8532,41.0174],[38.8403,41.0139],[38.3495,40.9488],[38.3334,40.9532],[38.1962,40.9902],[38.1619,40.9994],[38.1276,41.0087],[38.0589,41.0272],[37.7843,41.1013],[37.7839,41.1226],[37.7346,41.1148],[37.6983,41.1246],[37.6898,41.1404],[37.6751,41.1308],[37.2741,41.239],[37.224,41.2525],[37.1989,41.2593],[37.1739,41.2661],[37.1739,41.2497],[37.1489,41.2497],[37.1489,41.1468],[37.1517,41.1468],[37.0984,41.0866],[37.0423,41.0418],[36.9991,40.9797],[36.9203,40.9458],[36.8807,40.9124],[36.8284,40.8878],[36.746,40.875],[36.7052,40.8625],[36.6875,40.836]]]]}},
{"type":"Feature","properties":{"entityId":"trebizond","from":1214,"to":1242,"certainty":"estimated","source":"유럽 쪽은 Natural Earth 1:10m admin-1(v5.1.2) 현대 행정구역 조각을 그 시기 국경에 맞춰 묶고, 조각이 역사 경계와 다른 곳은 선을 그어 나눈 근사. 유럽 밖(시베리아·중앙아시아·극동)은 대략적인 추정. 운영자 검수 필요"},"geometry":{"type":"MultiPolygon","coordinates":[[[[33.3271,44.5654],[33.5013,44.5011],[33.5176,44.4905],[33.5272,44.4915],[33.6035,44.4634],[33.6298,44.448],[33.6454,44.4251],[33.73,44.398],[33.7653,44.406],[33.786,44.4247],[33.8521,44.4316],[33.8057,44.5273],[33.7771,44.5322],[33.7692,44.5559],[33.7298,44.5539],[33.713,44.5816],[33.7505,44.624],[33.7091,44.6664],[33.6252,44.6614],[33.6114,44.7206],[33.6893,44.7542],[33.6745,44.7916],[33.6173,44.8163],[33.5808,44.8193],[33.5705,44.8525],[33.5573,44.8441],[33.5573,44.8462],[33.5293,44.8462],[33.5293,44.8954],[33.4815,44.8954],[33.4584,44.8462],[33.4353,44.7969],[33.3892,44.6983],[33.3271,44.5658],[33.3273,44.5657],[33.3271,44.5654]]],[[[33.9,44.3683],[33.9354,44.3834],[33.9579,44.383],[34.0658,44.4196],[34.1026,44.4251],[34.1475,44.4499],[34.1668,44.4735],[34.2082,44.4967],[34.2298,44.4999],[34.2452,44.5156],[34.3122,44.5442],[34.3228,44.5435],[34.3361,44.5544],[34.9523,44.8172],[35.0284,44.8093],[35.0376,44.7988],[35.0808,44.7938],[35.1084,44.8249],[35.1299,44.8606],[35.1564,44.8969],[35.1813,44.907],[35.2151,44.9144],[35.2244,44.9245],[35.276,44.9454],[35.344,44.9562],[35.3672,44.9433],[35.3653,44.9596],[35.6,44.997],[35.6,45.12],[35.3,45.08],[35,44.93],[34.7,44.85],[34.3,44.75],[33.9,44.62],[33.9,44.3683]]],[[[36.6875,40.836],[36.6989,40.8068],[36.7565,40.792],[36.8118,40.7661],[36.8954,40.7447],[36.9468,40.7203],[37.0134,40.6989],[37.0846,40.6943],[37.1525,40.7019],[37.2197,40.6977],[37.4488,40.5759],[37.5841,40.5694],[37.617,40.5212],[37.6349,40.4612],[37.6901,40.3794],[37.7669,40.3319],[37.8019,40.3357],[37.8614,40.3839],[37.8977,40.4041],[37.9802,40.4013],[38.0016,40.4116],[37.998,40.4688],[38.0084,40.481],[38.0952,40.4922],[38.1583,40.5235],[38.2405,40.2852],[38.2382,40.2286],[38.2748,40.1861],[38.3311,40.1647],[38.3923,40.1283],[38.4542,40.0999],[38.5563,40.1194],[38.661,40.0935],[38.7616,40.0549],[38.8055,40.0525],[38.8925,40.0576],[38.9333,40.0713],[38.989,40.0488],[39.0496,40.0391],[39.1583,39.9901],[39.2331,39.9607],[39.2665,39.9303],[39.327,39.9163],[39.3854,39.8933],[39.447,39.888],[39.5058,39.8926],[39.5647,39.8892],[39.622,39.8938],[39.6764,39.9147],[39.7879,39.9348],[39.8317,39.9709],[39.8691,40.0148],[39.8328,40.0769],[39.8115,40.144],[39.8276,40.2092],[39.86,40.2669],[39.8674,40.4136],[39.834,40.561],[39.8699,40.5749],[39.8633,40.5994],[39.8836,40.6118],[39.9138,40.603],[39.9747,40.5503],[40.0159,40.5327],[40.1017,40.5307],[40.1846,40.5104],[40.2279,40.5112],[40.3267,40.53],[40.4294,40.5295],[40.4894,40.5421],[40.6514,40.6041],[40.7918,40.6291],[40.8219,40.6866],[40.8575,40.698],[40.9016,40.6983],[40.9444,40.709],[41.0509,40.7784],[41.1274,40.8129],[41.2055,40.7792],[41.3293,40.7645],[41.3653,40.7547],[41.3727,40.7221],[41.347,40.6864],[41.3334,40.601],[41.4013,40.5556],[41.4935,40.5818],[41.5788,40.6243],[41.6566,40.6412],[41.7347,40.6236],[41.8208,40.5876],[41.8664,40.6397],[41.868,40.6847],[41.8874,40.7244],[41.9272,40.7551],[41.9526,40.7956],[41.946,40.8385],[41.9589,40.8775],[42.0228,40.911],[41.75,40.95],[41.6,41.1],[41.5,41.3],[41.52,41.48],[41.52,41.5271],[41.51,41.5173],[41.5094,41.5168],[41.5073,41.5159],[41.4566,41.4934],[41.4289,41.4811],[41.2999,41.424],[41.2354,41.3954],[41.2032,41.3812],[41.1709,41.3669],[41.1387,41.3526],[41.0418,41.3097],[40.5257,41.0811],[40.3967,41.024],[40.3725,41.0132],[40.3645,41.0141],[40.3322,41.0174],[40.2677,41.0242],[40.0096,41.0511],[39.5124,41.1029],[39.512,41.1029],[39.4935,41.1004],[39.4929,41.101],[39.4302,41.1125],[39.4118,41.1038],[39.2158,41.0735],[39.1683,41.0797],[39.1483,41.0725],[39.1263,41.0596],[39.0204,41.0433],[38.9275,41.0426],[38.8824,41.0219],[38.8532,41.0174],[38.8403,41.0139],[38.3495,40.9488],[38.3334,40.9532],[38.1962,40.9902],[38.1619,40.9994],[38.1276,41.0087],[38.0589,41.0272],[37.7843,41.1013],[37.7839,41.1226],[37.7346,41.1148],[37.6983,41.1246],[37.6898,41.1404],[37.6751,41.1308],[37.2741,41.239],[37.224,41.2525],[37.1989,41.2593],[37.1739,41.2661],[37.1739,41.2497],[37.1489,41.2497],[37.1489,41.1468],[37.1517,41.1468],[37.0984,41.0866],[37.0423,41.0418],[36.9991,40.9797],[36.9203,40.9458],[36.8807,40.9124],[36.8284,40.8878],[36.746,40.875],[36.7052,40.8625],[36.6875,40.836]]]]}},
{"type":"Feature","properties":{"entityId":"trebizond","from":1242,"to":1277,"certainty":"estimated","source":"유럽 쪽은 Natural Earth 1:10m admin-1(v5.1.2) 현대 행정구역 조각을 그 시기 국경에 맞춰 묶고, 조각이 역사 경계와 다른 곳은 선을 그어 나눈 근사. 유럽 밖(시베리아·중앙아시아·극동)은 대략적인 추정. 운영자 검수 필요"},"geometry":{"type":"Polygon","coordinates":[[[36.6875,40.836],[36.6989,40.8068],[36.7565,40.792],[36.8118,40.7661],[36.8954,40.7447],[36.9468,40.7203],[37.0134,40.6989],[37.0846,40.6943],[37.1525,40.7019],[37.2197,40.6977],[37.4488,40.5759],[37.5841,40.5694],[37.617,40.5212],[37.6349,40.4612],[37.6901,40.3794],[37.7669,40.3319],[37.8019,40.3357],[37.8614,40.3839],[37.8977,40.4041],[37.9802,40.4013],[38.0016,40.4116],[37.998,40.4688],[38.0084,40.481],[38.0952,40.4922],[38.1583,40.5235],[38.2405,40.2852],[38.2382,40.2286],[38.2748,40.1861],[38.3311,40.1647],[38.3923,40.1283],[38.4542,40.0999],[38.5563,40.1194],[38.661,40.0935],[38.7616,40.0549],[38.8055,40.0525],[38.8925,40.0576],[38.9333,40.0713],[38.989,40.0488],[39.0496,40.0391],[39.1583,39.9901],[39.2331,39.9607],[39.2665,39.9303],[39.327,39.9163],[39.3854,39.8933],[39.447,39.888],[39.5058,39.8926],[39.5647,39.8892],[39.622,39.8938],[39.6764,39.9147],[39.7879,39.9348],[39.8317,39.9709],[39.8691,40.0148],[39.8328,40.0769],[39.8115,40.144],[39.8276,40.2092],[39.86,40.2669],[39.8674,40.4136],[39.834,40.561],[39.8699,40.5749],[39.8633,40.5994],[39.8836,40.6118],[39.9138,40.603],[39.9747,40.5503],[40.0159,40.5327],[40.1017,40.5307],[40.1846,40.5104],[40.2279,40.5112],[40.3267,40.53],[40.4294,40.5295],[40.4894,40.5421],[40.6514,40.6041],[40.7918,40.6291],[40.8219,40.6866],[40.8575,40.698],[40.9016,40.6983],[40.9444,40.709],[41.0509,40.7784],[41.1274,40.8129],[41.2055,40.7792],[41.3293,40.7645],[41.3653,40.7547],[41.3727,40.7221],[41.347,40.6864],[41.3334,40.601],[41.4013,40.5556],[41.4935,40.5818],[41.5788,40.6243],[41.6566,40.6412],[41.7347,40.6236],[41.8208,40.5876],[41.8664,40.6397],[41.868,40.6847],[41.8874,40.7244],[41.9272,40.7551],[41.9526,40.7956],[41.946,40.8385],[41.9589,40.8775],[42.0228,40.911],[41.75,40.95],[41.6,41.1],[41.5,41.3],[41.52,41.48],[41.52,41.5271],[41.51,41.5173],[41.5094,41.5168],[41.5073,41.5159],[41.4566,41.4934],[41.4289,41.4811],[41.2999,41.424],[41.2354,41.3954],[41.2032,41.3812],[41.1709,41.3669],[41.1387,41.3526],[41.0418,41.3097],[40.5257,41.0811],[40.3967,41.024],[40.3725,41.0132],[40.3645,41.0141],[40.3322,41.0174],[40.2677,41.0242],[40.0096,41.0511],[39.5124,41.1029],[39.512,41.1029],[39.4935,41.1004],[39.4929,41.101],[39.4302,41.1125],[39.4118,41.1038],[39.2158,41.0735],[39.1683,41.0797],[39.1483,41.0725],[39.1263,41.0596],[39.0204,41.0433],[38.9275,41.0426],[38.8824,41.0219],[38.8532,41.0174],[38.8403,41.0139],[38.3495,40.9488],[38.3334,40.9532],[38.1962,40.9902],[38.1619,40.9994],[38.1276,41.0087],[38.0589,41.0272],[37.7843,41.1013],[37.7839,41.1226],[37.7346,41.1148],[37.6983,41.1246],[37.6898,41.1404],[37.6751,41.1308],[37.2741,41.239],[37.224,41.2525],[37.1989,41.2593],[37.1739,41.2661],[37.1739,41.2497],[37.1489,41.2497],[37.1489,41.1468],[37.1517,41.1468],[37.0984,41.0866],[37.0423,41.0418],[36.9991,40.9797],[36.9203,40.9458],[36.8807,40.9124],[36.8284,40.8878],[36.746,40.875],[36.7052,40.8625],[36.6875,40.836]]]}},
{"type":"Feature","properties":{"entityId":"trebizond","from":1277,"to":1398,"certainty":"estimated","source":"유럽 쪽은 Natural Earth 1:10m admin-1(v5.1.2) 현대 행정구역 조각을 그 시기 국경에 맞춰 묶고, 조각이 역사 경계와 다른 곳은 선을 그어 나눈 근사. 유럽 밖(시베리아·중앙아시아·극동)은 대략적인 추정. 운영자 검수 필요"},"geometry":{"type":"Polygon","coordinates":[[[38.0627,40.8145],[38.0797,40.786],[38.085,40.7523],[38.0792,40.6511],[38.0633,40.6052],[38.1583,40.5235],[38.2405,40.2852],[38.2382,40.2286],[38.2748,40.1861],[38.3311,40.1647],[38.3923,40.1283],[38.4542,40.0999],[38.5563,40.1194],[38.661,40.0935],[38.7616,40.0549],[38.8055,40.0525],[38.8925,40.0576],[38.9333,40.0713],[38.989,40.0488],[39.0496,40.0391],[39.1583,39.9901],[39.2331,39.9607],[39.2665,39.9303],[39.327,39.9163],[39.3854,39.8933],[39.447,39.888],[39.5058,39.8926],[39.5647,39.8892],[39.622,39.8938],[39.6764,39.9147],[39.7879,39.9348],[39.8317,39.9709],[39.8691,40.0148],[39.8328,40.0769],[39.8115,40.144],[39.8276,40.2092],[39.86,40.2669],[39.8674,40.4136],[39.834,40.561],[39.8699,40.5749],[39.8633,40.5994],[39.8836,40.6118],[39.9138,40.603],[39.9747,40.5503],[40.0159,40.5327],[40.1017,40.5307],[40.1846,40.5104],[40.2279,40.5112],[40.3267,40.53],[40.4294,40.5295],[40.4894,40.5421],[40.6514,40.6041],[40.7918,40.6291],[40.8219,40.6866],[40.8575,40.698],[40.9016,40.6983],[40.9444,40.709],[41.0509,40.7784],[41.1274,40.8129],[41.2055,40.7792],[41.3293,40.7645],[41.3653,40.7547],[41.3727,40.7221],[41.347,40.6864],[41.3334,40.601],[41.4013,40.5556],[41.4935,40.5818],[41.5788,40.6243],[41.6566,40.6412],[41.7347,40.6236],[41.8208,40.5876],[41.8664,40.6397],[41.868,40.6847],[41.8874,40.7244],[41.9272,40.7551],[41.9526,40.7956],[41.946,40.8385],[41.9589,40.8775],[42.0228,40.911],[41.75,40.95],[41.6,41.1],[41.5,41.3],[41.52,41.48],[41.52,41.5271],[41.51,41.5173],[41.5094,41.5168],[41.5073,41.5159],[41.4566,41.4934],[41.4289,41.4811],[41.2999,41.424],[41.2354,41.3954],[41.2032,41.3812],[41.1709,41.3669],[41.1387,41.3526],[41.0418,41.3097],[40.5257,41.0811],[40.3967,41.024],[40.3725,41.0132],[40.3645,41.0141],[40.3322,41.0174],[40.2677,41.0242],[40.0096,41.0511],[39.5124,41.1029],[39.512,41.1029],[39.4935,41.1004],[39.4929,41.101],[39.4302,41.1125],[39.4118,41.1038],[39.2158,41.0735],[39.1683,41.0797],[39.1483,41.0725],[39.1263,41.0596],[39.0204,41.0433],[38.9275,41.0426],[38.8824,41.0219],[38.8532,41.0174],[38.8403,41.0139],[38.3495,40.9488],[38.3334,40.9532],[38.1962,40.9902],[38.1619,40.9994],[38.1276,41.0087],[38.1276,40.9556],[38.1142,40.9582],[38.1153,40.9194],[38.1011,40.8891],[38.0629,40.8463],[38.0627,40.8145]]]}},
{"type":"Feature","properties":{"entityId":"trebizond","from":1398,"to":1461,"certainty":"estimated","source":"유럽 쪽은 Natural Earth 1:10m admin-1(v5.1.2) 현대 행정구역 조각을 그 시기 국경에 맞춰 묶고, 조각이 역사 경계와 다른 곳은 선을 그어 나눈 근사. 유럽 밖(시베리아·중앙아시아·극동)은 대략적인 추정. 운영자 검수 필요"},"geometry":{"type":"Polygon","coordinates":[[[38.8397,40.516],[38.8423,40.4802],[38.8698,40.4542],[38.9879,40.4325],[39.043,40.3936],[39.0655,40.3884],[39.0598,40.3519],[39.0296,40.333],[38.929,40.2905],[38.9071,40.2699],[38.9102,40.2033],[38.9057,40.167],[38.9147,40.1322],[38.9424,40.1051],[38.9333,40.0713],[38.989,40.0488],[39.0496,40.0391],[39.1583,39.9901],[39.2331,39.9607],[39.2665,39.9303],[39.327,39.9163],[39.3854,39.8933],[39.447,39.888],[39.5058,39.8926],[39.5647,39.8892],[39.622,39.8938],[39.6764,39.9147],[39.7879,39.9348],[39.8317,39.9709],[39.8691,40.0148],[39.8328,40.0769],[39.8115,40.144],[39.8276,40.2092],[39.86,40.2669],[39.8674,40.4136],[39.834,40.561],[39.8699,40.5749],[39.8633,40.5994],[39.8836,40.6118],[39.9138,40.603],[39.9747,40.5503],[40.0159,40.5327],[40.1017,40.5307],[40.1846,40.5104],[40.2279,40.5112],[40.3267,40.53],[40.4294,40.5295],[40.4894,40.5421],[40.6514,40.6041],[40.7918,40.6291],[40.8219,40.6866],[40.8575,40.698],[40.9016,40.6983],[40.9444,40.709],[41.0509,40.7784],[41.1274,40.8129],[41.2055,40.7792],[41.3293,40.7645],[41.3653,40.7547],[41.3727,40.7221],[41.347,40.6864],[41.3334,40.601],[41.4013,40.5556],[41.4935,40.5818],[41.5788,40.6243],[41.6566,40.6412],[41.7347,40.6236],[41.8208,40.5876],[41.8664,40.6397],[41.868,40.6847],[41.8874,40.7244],[41.9272,40.7551],[41.9526,40.7956],[41.946,40.8385],[41.9589,40.8775],[42.0228,40.911],[41.75,40.95],[41.6,41.1],[41.5,41.3],[41.52,41.48],[41.52,41.5271],[41.51,41.5173],[41.5094,41.5168],[41.5073,41.5159],[41.4566,41.4934],[41.4289,41.4811],[41.2999,41.424],[41.2354,41.3954],[41.2032,41.3812],[41.1709,41.3669],[41.1387,41.3526],[41.0418,41.3097],[40.5257,41.0811],[40.3967,41.024],[40.3725,41.0132],[40.3645,41.0141],[40.3322,41.0174],[40.2677,41.0242],[40.0096,41.0511],[39.5124,41.1029],[39.512,41.1029],[39.4935,41.1004],[39.4929,41.101],[39.4302,41.1125],[39.4118,41.1038],[39.2158,41.0735],[39.1683,41.0797],[39.1483,41.0725],[39.1201,40.9512],[39.1174,40.9011],[39.126,40.8096],[39.1444,40.7714],[39.0244,40.7605],[39.0124,40.7344],[38.9689,40.721],[38.9077,40.6867],[38.8955,40.6609],[38.9086,40.63],[38.8898,40.6037],[38.8487,40.5685],[38.8397,40.516]]]}}
]}
