{"type":"FeatureCollection","features":[
{"type":"Feature","properties":{"entityId":"trieste-zone-a","from":1947,"to":1954,"certainty":"estimated","source":"유럽 쪽은 Natural Earth 1:10m admin-1(v5.1.2) 현대 행정구역 조각을 그 시기 국경에 맞춰 묶고, 조각이 역사 경계와 다른 곳은 선을 그어 나눈 근사. 유럽 밖(시베리아·중앙아시아·극동)은 대략적인 추정. 운영자 검수 필요"},"geometry":{"type":"Polygon","coordinates":[[[13.6201,45.6492],[13.6201,45.685],[13.6201,45.7208],[13.6201,45.7547],[13.5731,45.7547],[13.5731,45.7886],[13.5833,45.7868],[13.5885,45.8065],[13.6092,45.7986],[13.6436,45.7957],[13.6603,45.792],[13.6999,45.7705],[13.7095,45.7653],[13.7787,45.7434],[13.8584,45.6494],[13.8692,45.6411],[13.8936,45.6338],[13.887,45.6188],[13.8679,45.6022],[13.8478,45.5847],[13.8005,45.5813],[13.7611,45.5962],[13.7118,45.5932],[13.7302,45.6131],[13.757,45.6137],[13.7599,45.6135],[13.772,45.6214],[13.6201,45.6492]]]}}
]}
