{"type":"FeatureCollection","features":[
{"type":"Feature","properties":{"entityId":"turkey","from":1923,"to":1939,"certainty":"estimated","source":"유럽 쪽은 Natural Earth 1:10m admin-1(v5.1.2) 현대 행정구역 조각을 그 시기 국경에 맞춰 묶고, 조각이 역사 경계와 다른 곳은 선을 그어 나눈 근사. 유럽 밖(시베리아·중앙아시아·극동)은 대략적인 추정. 운영자 검수 필요"},"geometry":{"type":"MultiPolygon","coordinates":[[[[25.6633,40.1262],[25.7212,40.1048],[25.766,40.0972],[25.8563,40.1079],[25.9004,40.1227],[25.9678,40.1308],[26.0122,40.1461],[26.0122,40.1666],[25.9729,40.1532],[25.9728,40.1584],[25.9763,40.1785],[25.9762,40.1786],[25.9763,40.1789],[25.9725,40.1828],[25.9719,40.2211],[25.9382,40.2416],[25.9133,40.2413],[25.8947,40.236],[25.8751,40.2344],[25.7983,40.2124],[25.759,40.2067],[25.719,40.1872],[25.6862,40.1608],[25.6633,40.1262]]],[[[26.0222,40.7517],[26.0371,40.7271],[26.0391,40.7241],[26.0491,40.7089],[26.0443,40.6171],[26.0443,40.6167],[26.0588,40.5951],[26.1343,40.483],[26.1531,40.455],[26.172,40.4269],[26.2097,40.3709],[26.2323,40.3372],[26.21,40.3219],[26.2181,40.2969],[26.2531,40.2689],[26.2531,40.2479],[26.2602,40.2031],[26.247,40.1808],[26.2147,40.1461],[26.1902,40.0942],[26.1575,40.0553],[26.1776,40.0507],[26.2306,40.0649],[26.2731,40.0926],[26.328,40.1187],[26.3758,40.1535],[26.3702,40.1593],[26.3992,40.178],[26.3963,40.1728],[26.4035,40.139],[26.3936,40.1094],[26.3923,40.108],[26.3694,40.1029],[26.365,40.0787],[26.3143,40.0244],[26.2262,40.0015],[26.1978,40.0089],[26.1815,39.9898],[26.1811,39.9897],[26.1809,39.9891],[26.1677,39.9736],[26.1526,39.9426],[26.1565,39.9013],[26.1512,39.8823],[26.1364,39.8376],[26.1502,39.8292],[26.151,39.8031],[26.1406,39.7427],[26.1538,39.7207],[26.1556,39.6638],[26.1534,39.6524],[26.1272,39.6103],[26.1107,39.5979],[26.095,39.5486],[26.07,39.4963],[26.0742,39.4745],[26.113,39.4592],[26.1528,39.4592],[26.1717,39.4631],[26.22,39.4265],[26.22,39.4364],[26.2683,39.4364],[26.2683,39.4205],[26.365,39.4205],[26.365,39.4375],[26.4617,39.4375],[26.4617,39.3987],[26.5101,39.3987],[26.5101,39.2619],[26.5584,39.2619],[26.5584,39.2264],[26.599,39.2264],[26.599,39.1967],[26.6396,39.1967],[26.6396,39.1669],[26.6421,39.1669],[26.6421,39.1372],[26.6815,39.1372],[26.6815,39.1074],[26.7208,39.1074],[26.7208,39.0479],[26.8009,38.9874],[26.8017,38.982],[26.561,38.5972],[26.5558,38.6054],[26.5056,38.6527],[26.4656,38.6727],[26.4141,38.6794],[26.3563,38.6617],[26.3486,38.6213],[26.3758,38.5286],[26.4038,38.4875],[26.3879,38.4543],[26.4181,38.4649],[26.4294,38.4409],[26.4151,38.3682],[26.3435,38.37],[26.3431,38.37],[26.3219,38.3339],[26.3143,38.3367],[26.3211,38.3777],[26.3076,38.3579],[26.2941,38.3699],[26.2889,38.3406],[26.3076,38.3231],[26.2859,38.3187],[26.2654,38.2867],[26.2388,38.2958],[26.2346,38.2738],[26.2866,38.2611],[26.3286,38.2351],[26.3344,38.2351],[26.3179,38.2086],[26.3181,38.2085],[26.3179,38.2082],[26.5572,38.0264],[26.6768,37.9356],[26.6768,37.9377],[26.7964,37.9377],[26.7964,37.922],[27.0306,37.922],[27.0306,37.8922],[27.1185,37.8922],[27.1185,37.8324],[27.1477,37.8324],[27.1477,37.8025],[27.173,37.8025],[27.173,37.7753],[27.1445,37.7753],[27.1445,37.7428],[27.1161,37.7428],[27.1161,37.7157],[27.0876,37.7157],[27.0876,37.6892],[27.0591,37.6897],[27.0591,37.7067],[27.0306,37.7066],[27.0048,37.7066],[27.0048,37.6863],[27.0208,37.6742],[27.0115,37.6657],[27.0488,37.6501],[27.0507,37.6497],[27.206,37.3898],[27.2075,37.3764],[27.1908,37.3573],[27.2119,37.3573],[27.2334,37.344],[27.2801,37.266],[27.302,37.2293],[27.3239,37.1927],[27.3579,37.1358],[27.349,37.1301],[27.3218,37.1587],[27.3218,37.1254],[27.3011,37.127],[27.3007,37.127],[27.2998,37.1262],[27.2717,37.1289],[27.2604,37.1103],[27.2828,37.1103],[27.2696,37.0981],[27.2391,37.083],[27.2288,37.0618],[27.2527,36.9783],[27.2632,36.9634],[27.3081,36.9594],[27.3006,36.9731],[27.3327,36.9971],[27.3314,37.0023],[27.3436,37.0146],[27.4059,37.0167],[27.4296,37.0158],[27.5784,36.7671],[27.5614,36.7609],[27.4832,36.754],[27.4588,36.7557],[27.4273,36.7357],[27.4143,36.7093],[27.3558,36.7124],[27.3628,36.6851],[27.4557,36.6629],[27.4727,36.6509],[27.4863,36.6652],[27.5486,36.6834],[27.5556,36.6829],[27.5597,36.6746],[27.603,36.6789],[27.6374,36.6682],[27.6427,36.6595],[27.6431,36.6595],[27.6646,36.6598],[27.6712,36.6578],[27.6716,36.6599],[28.0144,36.6653],[28.0207,36.6336],[28.0211,36.6337],[28.0211,36.6336],[28.0881,36.6426],[28.054,36.6096],[28.0344,36.6025],[27.9592,36.6025],[27.9661,36.5759],[27.9909,36.5598],[28.0138,36.5759],[28.048,36.569],[28.0617,36.5963],[28.0881,36.5891],[28.1115,36.6042],[28.1584,36.6675],[28.7335,36.6764],[28.8293,36.6235],[28.8186,36.6117],[28.8587,36.6013],[28.8614,36.6057],[29.106,36.4706],[29.1242,36.4536],[29.1304,36.4114],[29.0964,36.3909],[29.1447,36.3772],[29.1447,36.3493],[29.2186,36.3288],[29.2231,36.3246],[29.2437,36.3138],[29.2612,36.2936],[29.3223,36.2469],[29.3571,36.2357],[29.3702,36.2522],[29.4187,36.2375],[29.4204,36.2306],[29.4262,36.2353],[29.4725,36.2213],[29.4945,36.211],[29.5215,36.206],[29.5229,36.206],[29.585,36.1872],[29.5835,36.1855],[29.5887,36.1861],[29.6342,36.1723],[29.634,36.1571],[29.6682,36.1438],[29.6724,36.1234],[29.6944,36.1455],[29.6983,36.1433],[29.6986,36.1434],[29.6987,36.1433],[29.7457,36.1515],[29.7617,36.137],[29.7953,36.1452],[29.823,36.1649],[30.3566,36.2576],[30.3859,36.243],[30.3861,36.2431],[30.3863,36.243],[30.4,36.2488],[30.4004,36.2481],[30.3986,36.206],[30.4408,36.2393],[30.4517,36.2618],[30.488,36.2878],[30.4668,36.2878],[30.473,36.2985],[30.4835,36.3107],[30.4838,36.3127],[30.5199,36.3419],[30.4942,36.3493],[30.5016,36.3636],[30.4927,36.3708],[30.5046,36.4478],[30.5088,36.4543],[30.5101,36.4583],[30.5487,36.5115],[30.5698,36.528],[30.5811,36.5752],[30.5724,36.5919],[30.6203,36.6781],[31.6999,36.6443],[32.2814,36.2591],[32.283,36.2506],[32.3187,36.2286],[32.3655,36.178],[32.4196,36.1595],[32.4373,36.1387],[32.5134,36.103],[32.5452,36.0981],[32.5826,36.0888],[32.6707,36.0467],[32.7606,36.0295],[32.8037,36.0272],[32.8655,36.0678],[32.9279,36.0954],[32.9826,36.0976],[33.0877,36.0828],[33.1071,36.1033],[33.3004,36.1318],[33.3084,36.1322],[33.3093,36.1331],[33.3662,36.1415],[33.3865,36.137],[33.4371,36.1519],[33.4425,36.1527],[33.5215,36.144],[33.5219,36.144],[33.5325,36.1463],[33.5442,36.1445],[33.5523,36.1275],[33.5888,36.1588],[33.661,36.1747],[33.6853,36.1432],[33.7053,36.1817],[33.7177,36.1922],[33.7302,36.1976],[33.9451,36.2134],[33.959,36.2136],[33.9593,36.2145],[34.0259,36.2194],[34.7134,36.7948],[34.9056,36.7421],[34.9079,36.7404],[34.9004,36.7199],[34.9333,36.7275],[34.9423,36.7263],[34.9435,36.7256],[35.1174,36.6585],[35.2947,36.5725],[35.348,36.5444],[35.409,36.5769],[35.4717,36.5868],[35.552,36.5647],[35.5524,36.5647],[35.8126,36.6016],[35.8379,36.6052],[35.8631,36.6088],[35.8883,36.6123],[35.8883,36.6539],[35.9135,36.6539],[35.9135,36.6575],[35.9639,36.6575],[35.9639,36.6991],[36.0076,36.6991],[36.0076,36.8108],[35.9677,36.8108],[35.9677,36.8666],[35.9278,36.8666],[35.9278,36.8684],[35.9325,36.873],[35.9164,36.8934],[35.917,36.9348],[35.9993,37.0105],[36.0176,37.02],[36.0616,37.0097],[36.1053,37.0155],[36.188,37.0054],[36.2353,37.0154],[36.2806,37.0043],[36.3136,36.976],[36.3521,36.9566],[36.4519,36.9607],[36.5171,36.909],[36.5969,36.8802],[36.6226,36.8467],[36.6596,36.8272],[36.8437,36.7758],[36.9068,36.7726],[36.9647,36.7538],[37.0106,36.7195],[37.0195,36.6858],[37.0145,36.6423],[37.0531,36.6199],[37.1044,36.651],[37.1561,36.6439],[37.2419,36.6586],[37.4045,36.6345],[37.4461,36.6342],[37.5221,36.6736],[37.5934,36.7105],[37.6541,36.7321],[37.8197,36.7605],[38.026,36.835],[38.123,36.8846],[38.1901,36.9055],[38.2243,36.9084],[38.2899,36.9017],[38.48,36.8557],[38.5294,36.8337],[38.6352,36.744],[38.6641,36.7195],[38.725,36.6939],[38.7954,36.6867],[38.958,36.6929],[39.0322,36.7012],[39.1859,36.6595],[39.2396,36.6613],[39.4417,36.6924],[39.7653,36.7422],[39.9798,36.807],[40.0792,36.8549],[40.1527,36.8704],[40.1901,36.8844],[40.2614,36.9228],[40.3937,36.994],[40.4352,37.0106],[40.5257,37.0259],[40.6595,37.0853],[40.709,37.1005],[40.8964,37.1227],[41.1351,37.0842],[41.2013,37.065],[41.4798,37.0756],[41.8964,37.1543],[42.0092,37.1756],[42.053,37.1966],[42.1283,37.2533],[42.1785,37.3063],[42.2112,37.3249],[42.2232,37.2881],[42.2672,37.2745],[42.292,37.2851],[42.3058,37.2645],[42.3532,37.227],[42.3353,37.1712],[42.3546,37.1524],[42.3572,37.11],[42.4019,37.1141],[42.4591,37.1293],[42.5613,37.1466],[42.577,37.1792],[42.7023,37.3253],[42.7222,37.3589],[42.7716,37.3749],[42.8011,37.3691],[42.8141,37.3468],[42.8967,37.3249],[42.937,37.3202],[43.0052,37.3473],[43.0837,37.3688],[43.132,37.3673],[43.2634,37.3107],[43.3361,37.3202],[43.3625,37.3039],[43.4796,37.2434],[43.5424,37.2523],[43.5689,37.2377],[43.6183,37.227],[43.7208,37.2326],[43.7706,37.2258],[43.8094,37.1997],[43.84,37.2171],[43.8936,37.2249],[43.9538,37.2875],[43.9904,37.3125],[44.069,37.3137],[44.1845,37.2792],[44.2232,37.2541],[44.2485,37.1919],[44.2401,37.158],[44.206,37.1466],[44.1892,37.1292],[44.18,37.0876],[44.2343,36.9837],[44.2848,36.9692],[44.3066,36.9772],[44.3431,37.0424],[44.4281,37.0648],[44.4792,37.092],[44.5394,37.1437],[44.5782,37.1664],[44.6289,37.179],[44.7338,37.1672],[44.7661,37.1419],[44.7723,37.1612],[44.7567,37.1952],[44.7605,37.2332],[44.7985,37.2603],[44.8016,37.2927],[44.779,37.3138],[44.7214,37.3433],[44.698,37.38],[44.6616,37.3757],[44.6382,37.4126],[44.5856,37.4247],[44.5659,37.4472],[44.5793,37.477],[44.5699,37.5144],[44.5874,37.584],[44.5835,37.6011],[44.5409,37.6327],[44.5453,37.663],[44.5882,37.694],[44.5961,37.7164],[44.5594,37.752],[44.5065,37.7793],[44.4505,37.7666],[44.4291,37.7791],[44.4338,37.8011],[44.4044,37.8097],[44.3779,37.8541],[44.3192,37.8769],[44.2544,37.8708],[44.2196,37.8753],[44.205,37.9048],[44.2255,37.9293],[44.2215,37.9688],[44.2454,38.0084],[44.2695,38.03],[44.2959,38.079],[44.3338,38.1009],[44.3271,38.1284],[44.3606,38.1479],[44.3767,38.2015],[44.3724,38.2495],[44.4368,38.2969],[44.4592,38.3224],[44.4511,38.354],[44.4247,38.377],[44.3963,38.3797],[44.3634,38.3646],[44.2895,38.3823],[44.2875,38.4537],[44.3014,38.5112],[44.2922,38.562],[44.297,38.6223],[44.2749,38.6494],[44.2443,38.659],[44.2605,38.6792],[44.2486,38.7218],[44.2798,38.8142],[44.275,38.8436],[44.222,38.8634],[44.1921,38.8908],[44.1746,38.9458],[44.152,38.9646],[44.1392,38.994],[44.1791,39.0349],[44.1699,39.0744],[44.1948,39.1205],[44.1866,39.1451],[44.0777,39.2001],[44.0827,39.2357],[44.0694,39.287],[44.0474,39.3375],[44.0149,39.3741],[44.0614,39.4003],[44.1222,39.4004],[44.2004,39.4095],[44.2695,39.3829],[44.317,39.3853],[44.3687,39.4036],[44.4048,39.4344],[44.4017,39.4713],[44.4168,39.5055],[44.412,39.5445],[44.4186,39.5743],[44.4583,39.6425],[44.4595,39.6985],[44.5657,39.7659],[44.6058,39.7632],[44.6465,39.7195],[44.7063,39.698],[44.807,39.6399],[44.7957,39.6524],[44.7843,39.6902],[44.7746,39.7028],[44.7591,39.7231],[44.6824,39.7972],[44.6477,39.8051],[44.6115,39.8373],[44.5982,39.831],[44.5911,39.8578],[44.5675,39.873],[44.5591,39.8969],[44.5222,39.9335],[44.4643,39.9723],[44.3809,40.0098],[44.3256,40.0347],[44.2553,40.0434],[44.1355,40.0223],[44.1045,40.036],[44.0324,40.0086],[43.9121,40.0243],[43.8028,40.0707],[43.7112,40.0907],[43.6654,40.1102],[43.6525,40.139],[43.7116,40.1565],[43.7214,40.1694],[43.6731,40.2277],[43.6903,40.2404],[43.676,40.266],[43.5942,40.3454],[43.6245,40.4111],[43.6253,40.4202],[43.5636,40.4647],[43.5595,40.4779],[43.5937,40.509],[43.6525,40.5294],[43.6648,40.5741],[43.7072,40.6119],[43.6995,40.6346],[43.7294,40.6771],[43.7241,40.7464],[43.7113,40.7816],[43.6595,40.852],[43.6477,40.9139],[43.6049,40.9633],[43.5654,40.9881],[43.5224,41.0045],[43.4796,41.0091],[43.4605,41.0229],[43.4363,41.0832],[43.4404,41.1066],[43.4518,41.1326],[43.4376,41.1562],[43.3833,41.1872],[43.3226,41.1921],[43.2306,41.1726],[43.2162,41.1805],[43.1922,41.225],[43.172,41.2423],[43.1031,41.2488],[43.1572,41.2697],[43.1854,41.2938],[43.1239,41.3129],[43.0756,41.3449],[43.0021,41.3827],[42.9577,41.437],[42.9261,41.4591],[42.889,41.47],[42.868,41.5002],[42.83,41.4725],[42.7665,41.5043],[42.8027,41.5341],[42.8199,41.5723],[42.8009,41.5792],[42.661,41.5883],[42.5866,41.5791],[42.555,41.5503],[42.5455,41.5096],[42.4838,41.4422],[42.451,41.4314],[42.4379,41.4309],[42.2625,41.4823],[42.1893,41.4817],[42.1584,41.4999],[42.1118,41.4935],[42.0835,41.5001],[42.0196,41.4851],[41.948,41.5056],[41.894,41.4855],[41.8627,41.4518],[41.813,41.4218],[41.761,41.4535],[41.7185,41.4596],[41.7026,41.489],[41.6273,41.4805],[41.5208,41.5142],[41.5325,41.53],[41.5229,41.53],[41.52,41.5271],[41.51,41.5173],[41.5094,41.5168],[41.5073,41.5159],[41.4566,41.4934],[41.4289,41.4811],[41.2999,41.424],[41.2354,41.3954],[41.2032,41.3812],[41.1709,41.3669],[41.1387,41.3526],[41.0418,41.3097],[40.5257,41.0811],[40.3967,41.024],[40.3725,41.0132],[40.3645,41.0141],[40.3322,41.0174],[40.2677,41.0242],[40.0096,41.0511],[39.5124,41.1029],[39.512,41.1029],[39.4935,41.1004],[39.4929,41.101],[39.4302,41.1125],[39.4118,41.1038],[39.2158,41.0735],[39.1683,41.0797],[39.1483,41.0725],[39.1263,41.0596],[39.0204,41.0433],[38.9275,41.0426],[38.8824,41.0219],[38.8532,41.0174],[38.8403,41.0139],[38.3495,40.9488],[38.3334,40.9532],[38.1962,40.9902],[38.1619,40.9994],[38.1276,41.0087],[38.0589,41.0272],[37.7843,41.1013],[37.7839,41.1226],[37.7346,41.1148],[37.6983,41.1246],[37.6898,41.1404],[37.6751,41.1308],[37.2741,41.239],[37.224,41.2525],[37.1989,41.2593],[37.1739,41.2661],[37.1489,41.2728],[37.1238,41.2796],[37.0736,41.2931],[36.9132,41.3364],[36.8731,41.3526],[36.071,41.676],[36.0449,41.7015],[36.0387,41.689],[36.033,41.6914],[35.9779,41.7297],[35.9627,41.7197],[35.9466,41.7262],[35.9568,41.7363],[35.9403,41.7287],[35.7284,41.8142],[35.6225,41.8569],[35.5961,41.8675],[35.5166,41.8996],[35.3048,41.985],[35.2076,42.0242],[35.1862,42.0425],[35.1604,42.0415],[35.1588,42.0404],[35.1066,42.0397],[35.0453,42.0545],[35.0488,42.0651],[35.0239,42.0925],[34.9481,42.0988],[34.9419,42.0693],[34.9142,42.0371],[34.533,42.0321],[34.3424,42.0295],[34.2471,42.0283],[34.1995,42.0276],[34.1518,42.027],[33.5143,42.0185],[33.4818,42.0106],[33.3895,42.0168],[33.3609,42.0207],[33.3245,42.019],[33.2916,42.0062],[33.2839,42.0052],[33.0586,41.93],[33.0081,41.9173],[32.9667,41.8994],[32.9455,41.8923],[32.7903,41.8596],[32.7554,41.8591],[32.6792,41.8363],[32.6126,41.8395],[32.5836,41.816],[32.5681,41.8127],[32.5484,41.8157],[32.4685,41.783],[32.3785,41.7534],[32.3772,41.7541],[32.3754,41.7524],[32.3047,41.7291],[32.296,41.7236],[32.2634,41.7202],[32.2434,41.6929],[32.2322,41.6833],[32.1274,41.617],[32.0604,41.5809],[32.0394,41.5756],[32.0012,41.554],[31.9766,41.5433],[31.8716,41.5046],[31.7754,41.4563],[31.597,41.3792],[31.4927,41.3477],[31.471,41.3248],[31.4036,41.3165],[31.3962,41.2955],[31.4196,41.2803],[31.4133,41.2538],[31.3893,41.2191],[31.3464,41.196],[31.3248,41.1843],[31.2412,41.1393],[31.2362,41.1366],[31.1752,41.1037],[31.059,41.0977],[31.0251,41.096],[30.9704,41.0998],[30.9261,41.1029],[30.8818,41.1059],[30.7047,41.1182],[30.6992,41.1215],[30.5478,41.149],[30.3467,41.1979],[30.3463,41.1979],[30.3424,41.1975],[30.3367,41.2008],[30.2713,41.2112],[30.2424,41.1865],[30.0394,41.1643],[30.0277,41.1651],[29.9204,41.1726],[29.8936,41.1744],[29.8667,41.1763],[29.813,41.18],[29.5476,41.1984],[29.3836,41.2194],[29.2318,41.2407],[29.2062,41.2292],[29.1697,41.2331],[29.1301,41.2119],[29.0975,41.1803],[29.0935,41.1771],[29.0932,41.1761],[29.0691,41.1528],[29.0828,41.1452],[29.0683,41.1024],[29.0625,41.0767],[29.0623,41.0763],[29.0261,41.0383],[29.0076,41.0305],[29.0281,40.9821],[29.0832,40.9597],[29.093,40.9524],[29.0168,40.815],[28.9915,40.7692],[28.8952,40.5955],[28.8781,40.5859],[28.8268,40.5706],[28.7927,40.5533],[28.7742,40.5228],[28.8226,40.5141],[28.8397,40.5041],[28.8415,40.5031],[28.8435,40.5024],[28.8397,40.4955],[28.8255,40.4698],[28.8199,40.4597],[28.8008,40.4592],[28.7618,40.4582],[28.6838,40.4563],[28.5278,40.4523],[28.2159,40.4444],[28.177,40.4434],[28.138,40.4425],[28.06,40.4405],[27.985,40.4386],[28.0168,40.4511],[28.0344,40.4744],[28.0142,40.4912],[27.9699,40.503],[27.8047,40.5228],[27.7894,40.5142],[27.76,40.5371],[27.7332,40.5306],[27.6843,40.5023],[27.7258,40.4614],[27.7502,40.4576],[27.7563,40.4328],[27.589,40.4286],[27.5522,40.4276],[27.5154,40.4267],[27.4417,40.4248],[27.324,40.4219],[27.3034,40.4584],[27.2715,40.4678],[27.2377,40.4557],[27.1451,40.4537],[27.1431,40.4539],[27.126,40.4533],[27.1207,40.4532],[27.1206,40.4531],[27.0964,40.4523],[27.0333,40.4068],[27.0127,40.3959],[26.9204,40.3977],[26.8972,40.4062],[26.863,40.3999],[26.7477,40.4032],[26.9017,40.5028],[26.9481,40.5328],[26.9944,40.5627],[27.0423,40.5937],[27.087,40.6131],[27.1152,40.6137],[27.1777,40.6326],[27.1983,40.6531],[27.2879,40.7036],[27.31,40.7332],[27.4,40.8128],[27.4248,40.8313],[27.4465,40.8617],[27.4519,40.8789],[27.6063,40.9908],[27.6754,41.0019],[27.7819,41.0069],[27.8153,41.0026],[27.8607,40.9785],[27.9413,40.9711],[27.9826,41.0161],[27.9833,41.0164],[28.0974,41.0218],[28.1548,41.0245],[28.1835,41.0258],[28.2121,41.0272],[28.4416,41.0379],[28.4607,41.0329],[28.5125,40.9927],[28.5414,40.9896],[28.5603,41.0123],[28.5608,41.0175],[28.6034,41.009],[28.5952,40.978],[28.6253,40.9684],[28.7453,40.9802],[28.822,40.9616],[28.8499,40.9753],[28.8993,40.9843],[28.9353,41.004],[28.946,41.0061],[28.9819,41.0017],[28.9973,41.0399],[29.0422,41.0664],[29.0706,41.1302],[29.0408,41.1643],[29.0693,41.1747],[29.0999,41.2104],[29.1092,41.2353],[29.0452,41.2564],[29.032,41.2449],[28.9576,41.2579],[28.9895,41.3005],[28.9893,41.3006],[28.9895,41.3009],[28.4778,41.489],[28.3499,41.536],[28.286,41.5595],[28.254,41.5712],[28.222,41.583],[28.165,41.6039],[28.1523,41.6086],[28.1448,41.6174],[28.1,41.6702],[28.0883,41.7082],[28.0324,41.8897],[28.0449,41.8902],[28.0168,41.9726],[27.9659,41.9821],[27.917,41.9779],[27.8522,41.9954],[27.808,41.9935],[27.7898,41.9427],[27.724,41.9676],[27.6871,41.9686],[27.6093,41.9535],[27.5508,41.9242],[27.5464,41.9012],[27.4943,41.9428],[27.4208,41.9737],[27.3748,42.0087],[27.3325,42.0574],[27.2734,42.0917],[27.2382,42.0979],[27.2038,42.0881],[27.1738,42.0571],[27.1161,42.0618],[27.0837,42.0784],[27.0479,42.0829],[27.0226,42.0739],[27.0004,42.0428],[26.9672,42.0285],[26.9389,41.9962],[26.8903,41.9854],[26.8608,41.9879],[26.8379,41.9752],[26.8194,41.9657],[26.7806,41.9834],[26.7367,41.959],[26.6236,41.969],[26.5895,41.9588],[26.5471,41.9269],[26.5598,41.9073],[26.5529,41.8816],[26.5261,41.8242],[26.4784,41.8133],[26.3755,41.8166],[26.3342,41.7895],[26.3163,41.7438],[26.3334,41.713],[26.3774,41.7106],[26.4044,41.6918],[26.4762,41.6757],[26.4644,41.6485],[26.5764,41.591],[26.5955,41.6124],[26.6017,41.5473],[26.6159,41.4685],[26.6322,41.4197],[26.6366,41.3785],[26.6226,41.3404],[26.5911,41.3293],[26.5402,41.3518],[26.4893,41.3109],[26.3951,41.259],[26.3317,41.2541],[26.336,41.2289],[26.3211,41.1876],[26.336,41.1526],[26.3173,41.1223],[26.3395,41.1145],[26.3224,41.0886],[26.3476,41.041],[26.3742,41.0311],[26.3596,41.0024],[26.3359,40.9971],[26.3591,40.9647],[26.2944,40.9267],[26.2907,40.9061],[26.2604,40.9204],[26.2392,40.8857],[26.2262,40.8993],[26.2051,40.8584],[26.212,40.8474],[26.1583,40.8122],[26.1345,40.7671],[26.0816,40.7356],[26.044,40.7385],[26.0402,40.7517],[26.0222,40.7517]]]]}},
{"type":"Feature","properties":{"entityId":"turkey","from":1939,"to":null,"certainty":"estimated","source":"유럽 쪽은 Natural Earth 1:10m admin-1(v5.1.2) 현대 행정구역 조각을 그 시기 국경에 맞춰 묶고, 조각이 역사 경계와 다른 곳은 선을 그어 나눈 근사. 유럽 밖(시베리아·중앙아시아·극동)은 대략적인 추정. 운영자 검수 필요"},"geometry":{"type":"MultiPolygon","coordinates":[[[[25.6633,40.1262],[25.7212,40.1048],[25.766,40.0972],[25.8563,40.1079],[25.9004,40.1227],[25.9678,40.1308],[26.0122,40.1461],[26.0122,40.1666],[25.9729,40.1532],[25.9728,40.1584],[25.9763,40.1785],[25.9762,40.1786],[25.9763,40.1789],[25.9725,40.1828],[25.9719,40.2211],[25.9382,40.2416],[25.9133,40.2413],[25.8947,40.236],[25.8751,40.2344],[25.7983,40.2124],[25.759,40.2067],[25.719,40.1872],[25.6862,40.1608],[25.6633,40.1262]]],[[[26.0222,40.7517],[26.0371,40.7271],[26.0391,40.7241],[26.0491,40.7089],[26.0443,40.6171],[26.0443,40.6167],[26.0588,40.5951],[26.1343,40.483],[26.1531,40.455],[26.172,40.4269],[26.2097,40.3709],[26.2323,40.3372],[26.21,40.3219],[26.2181,40.2969],[26.2531,40.2689],[26.2531,40.2479],[26.2602,40.2031],[26.247,40.1808],[26.2147,40.1461],[26.1902,40.0942],[26.1575,40.0553],[26.1776,40.0507],[26.2306,40.0649],[26.2731,40.0926],[26.328,40.1187],[26.3758,40.1535],[26.3702,40.1593],[26.3992,40.178],[26.3963,40.1728],[26.4035,40.139],[26.3936,40.1094],[26.3923,40.108],[26.3694,40.1029],[26.365,40.0787],[26.3143,40.0244],[26.2262,40.0015],[26.1978,40.0089],[26.1815,39.9898],[26.1811,39.9897],[26.1809,39.9891],[26.1677,39.9736],[26.1526,39.9426],[26.1565,39.9013],[26.1512,39.8823],[26.1364,39.8376],[26.1502,39.8292],[26.151,39.8031],[26.1406,39.7427],[26.1538,39.7207],[26.1556,39.6638],[26.1534,39.6524],[26.1272,39.6103],[26.1107,39.5979],[26.095,39.5486],[26.07,39.4963],[26.0742,39.4745],[26.113,39.4592],[26.1528,39.4592],[26.1717,39.4631],[26.22,39.4265],[26.22,39.4364],[26.2683,39.4364],[26.2683,39.4205],[26.365,39.4205],[26.365,39.4375],[26.4617,39.4375],[26.4617,39.3987],[26.5101,39.3987],[26.5101,39.2619],[26.5584,39.2619],[26.5584,39.2264],[26.599,39.2264],[26.599,39.1967],[26.6396,39.1967],[26.6396,39.1669],[26.6421,39.1669],[26.6421,39.1372],[26.6815,39.1372],[26.6815,39.1074],[26.7208,39.1074],[26.7208,39.0479],[26.8009,38.9874],[26.8017,38.982],[26.561,38.5972],[26.5558,38.6054],[26.5056,38.6527],[26.4656,38.6727],[26.4141,38.6794],[26.3563,38.6617],[26.3486,38.6213],[26.3758,38.5286],[26.4038,38.4875],[26.3879,38.4543],[26.4181,38.4649],[26.4294,38.4409],[26.4151,38.3682],[26.3435,38.37],[26.3431,38.37],[26.3219,38.3339],[26.3143,38.3367],[26.3211,38.3777],[26.3076,38.3579],[26.2941,38.3699],[26.2889,38.3406],[26.3076,38.3231],[26.2859,38.3187],[26.2654,38.2867],[26.2388,38.2958],[26.2346,38.2738],[26.2866,38.2611],[26.3286,38.2351],[26.3344,38.2351],[26.3179,38.2086],[26.3181,38.2085],[26.3179,38.2082],[26.5572,38.0264],[26.6768,37.9356],[26.6768,37.9377],[26.7964,37.9377],[26.7964,37.922],[27.0306,37.922],[27.0306,37.8922],[27.1185,37.8922],[27.1185,37.8324],[27.1477,37.8324],[27.1477,37.8025],[27.173,37.8025],[27.173,37.7753],[27.1445,37.7753],[27.1445,37.7428],[27.1161,37.7428],[27.1161,37.7157],[27.0876,37.7157],[27.0876,37.6892],[27.0591,37.6897],[27.0591,37.7067],[27.0306,37.7066],[27.0048,37.7066],[27.0048,37.6863],[27.0208,37.6742],[27.0115,37.6657],[27.0488,37.6501],[27.0507,37.6497],[27.206,37.3898],[27.2075,37.3764],[27.1908,37.3573],[27.2119,37.3573],[27.2334,37.344],[27.2801,37.266],[27.302,37.2293],[27.3239,37.1927],[27.3579,37.1358],[27.349,37.1301],[27.3218,37.1587],[27.3218,37.1254],[27.3011,37.127],[27.3007,37.127],[27.2998,37.1262],[27.2717,37.1289],[27.2604,37.1103],[27.2828,37.1103],[27.2696,37.0981],[27.2391,37.083],[27.2288,37.0618],[27.2527,36.9783],[27.2632,36.9634],[27.3081,36.9594],[27.3006,36.9731],[27.3327,36.9971],[27.3314,37.0023],[27.3436,37.0146],[27.4059,37.0167],[27.4296,37.0158],[27.5784,36.7671],[27.5614,36.7609],[27.4832,36.754],[27.4588,36.7557],[27.4273,36.7357],[27.4143,36.7093],[27.3558,36.7124],[27.3628,36.6851],[27.4557,36.6629],[27.4727,36.6509],[27.4863,36.6652],[27.5486,36.6834],[27.5556,36.6829],[27.5597,36.6746],[27.603,36.6789],[27.6374,36.6682],[27.6427,36.6595],[27.6431,36.6595],[27.6646,36.6598],[27.6712,36.6578],[27.6716,36.6599],[28.0144,36.6653],[28.0207,36.6336],[28.0211,36.6337],[28.0211,36.6336],[28.0881,36.6426],[28.054,36.6096],[28.0344,36.6025],[27.9592,36.6025],[27.9661,36.5759],[27.9909,36.5598],[28.0138,36.5759],[28.048,36.569],[28.0617,36.5963],[28.0881,36.5891],[28.1115,36.6042],[28.1584,36.6675],[28.7335,36.6764],[28.8293,36.6235],[28.8186,36.6117],[28.8587,36.6013],[28.8614,36.6057],[29.106,36.4706],[29.1242,36.4536],[29.1304,36.4114],[29.0964,36.3909],[29.1447,36.3772],[29.1447,36.3493],[29.2186,36.3288],[29.2231,36.3246],[29.2437,36.3138],[29.2612,36.2936],[29.3223,36.2469],[29.3571,36.2357],[29.3702,36.2522],[29.4187,36.2375],[29.4204,36.2306],[29.4262,36.2353],[29.4725,36.2213],[29.4945,36.211],[29.5215,36.206],[29.5229,36.206],[29.585,36.1872],[29.5835,36.1855],[29.5887,36.1861],[29.6342,36.1723],[29.634,36.1571],[29.6682,36.1438],[29.6724,36.1234],[29.6944,36.1455],[29.6983,36.1433],[29.6986,36.1434],[29.6987,36.1433],[29.7457,36.1515],[29.7617,36.137],[29.7953,36.1452],[29.823,36.1649],[30.3566,36.2576],[30.3859,36.243],[30.3861,36.2431],[30.3863,36.243],[30.4,36.2488],[30.4004,36.2481],[30.3986,36.206],[30.4408,36.2393],[30.4517,36.2618],[30.488,36.2878],[30.4668,36.2878],[30.473,36.2985],[30.4835,36.3107],[30.4838,36.3127],[30.5199,36.3419],[30.4942,36.3493],[30.5016,36.3636],[30.4927,36.3708],[30.5046,36.4478],[30.5088,36.4543],[30.5101,36.4583],[30.5487,36.5115],[30.5698,36.528],[30.5811,36.5752],[30.5724,36.5919],[30.6203,36.6781],[31.6999,36.6443],[32.2814,36.2591],[32.283,36.2506],[32.3187,36.2286],[32.3655,36.178],[32.4196,36.1595],[32.4373,36.1387],[32.5134,36.103],[32.5452,36.0981],[32.5826,36.0888],[32.6707,36.0467],[32.7606,36.0295],[32.8037,36.0272],[32.8655,36.0678],[32.9279,36.0954],[32.9826,36.0976],[33.0877,36.0828],[33.1071,36.1033],[33.3004,36.1318],[33.3084,36.1322],[33.3093,36.1331],[33.3662,36.1415],[33.3865,36.137],[33.4371,36.1519],[33.4425,36.1527],[33.5215,36.144],[33.5219,36.144],[33.5325,36.1463],[33.5442,36.1445],[33.5523,36.1275],[33.5888,36.1588],[33.661,36.1747],[33.6853,36.1432],[33.7053,36.1817],[33.7177,36.1922],[33.7302,36.1976],[33.9451,36.2134],[33.959,36.2136],[33.9593,36.2145],[34.0259,36.2194],[34.7134,36.7948],[34.9056,36.7421],[34.9079,36.7404],[34.9004,36.7199],[34.9333,36.7275],[34.9423,36.7263],[34.9435,36.7256],[35.1174,36.6585],[35.2947,36.5725],[35.348,36.5444],[35.409,36.5769],[35.4717,36.5868],[35.552,36.5647],[35.5524,36.5647],[35.8126,36.6016],[35.8379,36.6052],[35.8631,36.6088],[35.8883,36.6123],[35.9639,36.6231],[36.0144,36.6302],[36.1599,36.6509],[36.0328,36.5246],[36.0308,36.5229],[36.0144,36.51],[35.966,36.4719],[35.9424,36.4643],[35.9187,36.4482],[35.9124,36.4296],[35.8832,36.4066],[35.879,36.4009],[35.8735,36.3977],[35.8676,36.3856],[35.8572,36.3714],[35.8159,36.353],[35.7887,36.3203],[35.7965,36.2898],[35.7824,36.2757],[35.7826,36.2755],[35.7824,36.2753],[35.8986,36.1317],[35.9246,36.0704],[35.9551,35.9985],[35.9268,35.9607],[35.9137,35.9433],[35.894,35.917],[35.8851,35.9058],[35.9015,35.9058],[35.9113,35.9178],[35.9803,35.9269],[35.9928,35.9153],[35.9924,35.8773],[36.0803,35.8542],[36.1385,35.8198],[36.1553,35.8222],[36.1688,35.8521],[36.1749,35.9227],[36.1969,35.9517],[36.229,35.9612],[36.269,35.9587],[36.2775,35.9942],[36.2974,36.0007],[36.3367,35.9882],[36.358,35.994],[36.3555,36.0224],[36.3586,36.167],[36.3758,36.2045],[36.373,36.2276],[36.4119,36.2045],[36.4507,36.1999],[36.4689,36.2224],[36.4986,36.2279],[36.5935,36.2181],[36.6643,36.229],[36.6691,36.2599],[36.6488,36.3057],[36.6207,36.322],[36.5878,36.3248],[36.5943,36.3571],[36.5857,36.387],[36.5527,36.4082],[36.5338,36.4625],[36.5355,36.494],[36.5653,36.5325],[36.5693,36.6201],[36.5947,36.6858],[36.6033,36.747],[36.6433,36.8036],[36.6399,36.8281],[36.6596,36.8272],[36.8437,36.7758],[36.9068,36.7726],[36.9647,36.7538],[37.0106,36.7195],[37.0195,36.6858],[37.0145,36.6423],[37.0531,36.6199],[37.1044,36.651],[37.1561,36.6439],[37.2419,36.6586],[37.4045,36.6345],[37.4461,36.6342],[37.5221,36.6736],[37.5934,36.7105],[37.6541,36.7321],[37.8197,36.7605],[38.026,36.835],[38.123,36.8846],[38.1901,36.9055],[38.2243,36.9084],[38.2899,36.9017],[38.48,36.8557],[38.5294,36.8337],[38.6352,36.744],[38.6641,36.7195],[38.725,36.6939],[38.7954,36.6867],[38.958,36.6929],[39.0322,36.7012],[39.1859,36.6595],[39.2396,36.6613],[39.4417,36.6924],[39.7653,36.7422],[39.9798,36.807],[40.0792,36.8549],[40.1527,36.8704],[40.1901,36.8844],[40.2614,36.9228],[40.3937,36.994],[40.4352,37.0106],[40.5257,37.0259],[40.6595,37.0853],[40.709,37.1005],[40.8964,37.1227],[41.1351,37.0842],[41.2013,37.065],[41.4798,37.0756],[41.8964,37.1543],[42.0092,37.1756],[42.053,37.1966],[42.1283,37.2533],[42.1785,37.3063],[42.2112,37.3249],[42.2232,37.2881],[42.2672,37.2745],[42.292,37.2851],[42.3058,37.2645],[42.3532,37.227],[42.3353,37.1712],[42.3546,37.1524],[42.3572,37.11],[42.4019,37.1141],[42.4591,37.1293],[42.5613,37.1466],[42.577,37.1792],[42.7023,37.3253],[42.7222,37.3589],[42.7716,37.3749],[42.8011,37.3691],[42.8141,37.3468],[42.8967,37.3249],[42.937,37.3202],[43.0052,37.3473],[43.0837,37.3688],[43.132,37.3673],[43.2634,37.3107],[43.3361,37.3202],[43.3625,37.3039],[43.4796,37.2434],[43.5424,37.2523],[43.5689,37.2377],[43.6183,37.227],[43.7208,37.2326],[43.7706,37.2258],[43.8094,37.1997],[43.84,37.2171],[43.8936,37.2249],[43.9538,37.2875],[43.9904,37.3125],[44.069,37.3137],[44.1845,37.2792],[44.2232,37.2541],[44.2485,37.1919],[44.2401,37.158],[44.206,37.1466],[44.1892,37.1292],[44.18,37.0876],[44.2343,36.9837],[44.2848,36.9692],[44.3066,36.9772],[44.3431,37.0424],[44.4281,37.0648],[44.4792,37.092],[44.5394,37.1437],[44.5782,37.1664],[44.6289,37.179],[44.7338,37.1672],[44.7661,37.1419],[44.7723,37.1612],[44.7567,37.1952],[44.7605,37.2332],[44.7985,37.2603],[44.8016,37.2927],[44.779,37.3138],[44.7214,37.3433],[44.698,37.38],[44.6616,37.3757],[44.6382,37.4126],[44.5856,37.4247],[44.5659,37.4472],[44.5793,37.477],[44.5699,37.5144],[44.5874,37.584],[44.5835,37.6011],[44.5409,37.6327],[44.5453,37.663],[44.5882,37.694],[44.5961,37.7164],[44.5594,37.752],[44.5065,37.7793],[44.4505,37.7666],[44.4291,37.7791],[44.4338,37.8011],[44.4044,37.8097],[44.3779,37.8541],[44.3192,37.8769],[44.2544,37.8708],[44.2196,37.8753],[44.205,37.9048],[44.2255,37.9293],[44.2215,37.9688],[44.2454,38.0084],[44.2695,38.03],[44.2959,38.079],[44.3338,38.1009],[44.3271,38.1284],[44.3606,38.1479],[44.3767,38.2015],[44.3724,38.2495],[44.4368,38.2969],[44.4592,38.3224],[44.4511,38.354],[44.4247,38.377],[44.3963,38.3797],[44.3634,38.3646],[44.2895,38.3823],[44.2875,38.4537],[44.3014,38.5112],[44.2922,38.562],[44.297,38.6223],[44.2749,38.6494],[44.2443,38.659],[44.2605,38.6792],[44.2486,38.7218],[44.2798,38.8142],[44.275,38.8436],[44.222,38.8634],[44.1921,38.8908],[44.1746,38.9458],[44.152,38.9646],[44.1392,38.994],[44.1791,39.0349],[44.1699,39.0744],[44.1948,39.1205],[44.1866,39.1451],[44.0777,39.2001],[44.0827,39.2357],[44.0694,39.287],[44.0474,39.3375],[44.0149,39.3741],[44.0614,39.4003],[44.1222,39.4004],[44.2004,39.4095],[44.2695,39.3829],[44.317,39.3853],[44.3687,39.4036],[44.4048,39.4344],[44.4017,39.4713],[44.4168,39.5055],[44.412,39.5445],[44.4186,39.5743],[44.4583,39.6425],[44.4595,39.6985],[44.5657,39.7659],[44.6058,39.7632],[44.6465,39.7195],[44.7063,39.698],[44.807,39.6399],[44.7957,39.6524],[44.7843,39.6902],[44.7746,39.7028],[44.7591,39.7231],[44.6824,39.7972],[44.6477,39.8051],[44.6115,39.8373],[44.5982,39.831],[44.5911,39.8578],[44.5675,39.873],[44.5591,39.8969],[44.5222,39.9335],[44.4643,39.9723],[44.3809,40.0098],[44.3256,40.0347],[44.2553,40.0434],[44.1355,40.0223],[44.1045,40.036],[44.0324,40.0086],[43.9121,40.0243],[43.8028,40.0707],[43.7112,40.0907],[43.6654,40.1102],[43.6525,40.139],[43.7116,40.1565],[43.7214,40.1694],[43.6731,40.2277],[43.6903,40.2404],[43.676,40.266],[43.5942,40.3454],[43.6245,40.4111],[43.6253,40.4202],[43.5636,40.4647],[43.5595,40.4779],[43.5937,40.509],[43.6525,40.5294],[43.6648,40.5741],[43.7072,40.6119],[43.6995,40.6346],[43.7294,40.6771],[43.7241,40.7464],[43.7113,40.7816],[43.6595,40.852],[43.6477,40.9139],[43.6049,40.9633],[43.5654,40.9881],[43.5224,41.0045],[43.4796,41.0091],[43.4605,41.0229],[43.4363,41.0832],[43.4404,41.1066],[43.4518,41.1326],[43.4376,41.1562],[43.3833,41.1872],[43.3226,41.1921],[43.2306,41.1726],[43.2162,41.1805],[43.1922,41.225],[43.172,41.2423],[43.1031,41.2488],[43.1572,41.2697],[43.1854,41.2938],[43.1239,41.3129],[43.0756,41.3449],[43.0021,41.3827],[42.9577,41.437],[42.9261,41.4591],[42.889,41.47],[42.868,41.5002],[42.83,41.4725],[42.7665,41.5043],[42.8027,41.5341],[42.8199,41.5723],[42.8009,41.5792],[42.661,41.5883],[42.5866,41.5791],[42.555,41.5503],[42.5455,41.5096],[42.4838,41.4422],[42.451,41.4314],[42.4379,41.4309],[42.2625,41.4823],[42.1893,41.4817],[42.1584,41.4999],[42.1118,41.4935],[42.0835,41.5001],[42.0196,41.4851],[41.948,41.5056],[41.894,41.4855],[41.8627,41.4518],[41.813,41.4218],[41.761,41.4535],[41.7185,41.4596],[41.7026,41.489],[41.6273,41.4805],[41.5208,41.5142],[41.5325,41.53],[41.5229,41.53],[41.52,41.5271],[41.51,41.5173],[41.5094,41.5168],[41.5073,41.5159],[41.4566,41.4934],[41.4289,41.4811],[41.2999,41.424],[41.2354,41.3954],[41.2032,41.3812],[41.1709,41.3669],[41.1387,41.3526],[41.0418,41.3097],[40.5257,41.0811],[40.3967,41.024],[40.3725,41.0132],[40.3645,41.0141],[40.3322,41.0174],[40.2677,41.0242],[40.0096,41.0511],[39.5124,41.1029],[39.512,41.1029],[39.4935,41.1004],[39.4929,41.101],[39.4302,41.1125],[39.4118,41.1038],[39.2158,41.0735],[39.1683,41.0797],[39.1483,41.0725],[39.1263,41.0596],[39.0204,41.0433],[38.9275,41.0426],[38.8824,41.0219],[38.8532,41.0174],[38.8403,41.0139],[38.3495,40.9488],[38.3334,40.9532],[38.1962,40.9902],[38.1619,40.9994],[38.1276,41.0087],[38.0589,41.0272],[37.7843,41.1013],[37.7839,41.1226],[37.7346,41.1148],[37.6983,41.1246],[37.6898,41.1404],[37.6751,41.1308],[37.2741,41.239],[37.224,41.2525],[37.1989,41.2593],[37.1739,41.2661],[37.1489,41.2728],[37.1238,41.2796],[37.0736,41.2931],[36.9132,41.3364],[36.8731,41.3526],[36.071,41.676],[36.0449,41.7015],[36.0387,41.689],[36.033,41.6914],[35.9779,41.7297],[35.9627,41.7197],[35.9466,41.7262],[35.9568,41.7363],[35.9403,41.7287],[35.7284,41.8142],[35.6225,41.8569],[35.5961,41.8675],[35.5166,41.8996],[35.3048,41.985],[35.2076,42.0242],[35.1862,42.0425],[35.1604,42.0415],[35.1588,42.0404],[35.1066,42.0397],[35.0453,42.0545],[35.0488,42.0651],[35.0239,42.0925],[34.9481,42.0988],[34.9419,42.0693],[34.9142,42.0371],[34.533,42.0321],[34.3424,42.0295],[34.2471,42.0283],[34.1995,42.0276],[34.1518,42.027],[33.5143,42.0185],[33.4818,42.0106],[33.3895,42.0168],[33.3609,42.0207],[33.3245,42.019],[33.2916,42.0062],[33.2839,42.0052],[33.0586,41.93],[33.0081,41.9173],[32.9667,41.8994],[32.9455,41.8923],[32.7903,41.8596],[32.7554,41.8591],[32.6792,41.8363],[32.6126,41.8395],[32.5836,41.816],[32.5681,41.8127],[32.5484,41.8157],[32.4685,41.783],[32.3785,41.7534],[32.3772,41.7541],[32.3754,41.7524],[32.3047,41.7291],[32.296,41.7236],[32.2634,41.7202],[32.2434,41.6929],[32.2322,41.6833],[32.1274,41.617],[32.0604,41.5809],[32.0394,41.5756],[32.0012,41.554],[31.9766,41.5433],[31.8716,41.5046],[31.7754,41.4563],[31.597,41.3792],[31.4927,41.3477],[31.471,41.3248],[31.4036,41.3165],[31.3962,41.2955],[31.4196,41.2803],[31.4133,41.2538],[31.3893,41.2191],[31.3464,41.196],[31.3248,41.1843],[31.2412,41.1393],[31.2362,41.1366],[31.1752,41.1037],[31.059,41.0977],[31.0251,41.096],[30.9704,41.0998],[30.9261,41.1029],[30.8818,41.1059],[30.7047,41.1182],[30.6992,41.1215],[30.5478,41.149],[30.3467,41.1979],[30.3463,41.1979],[30.3424,41.1975],[30.3367,41.2008],[30.2713,41.2112],[30.2424,41.1865],[30.0394,41.1643],[30.0277,41.1651],[29.9204,41.1726],[29.8936,41.1744],[29.8667,41.1763],[29.813,41.18],[29.5476,41.1984],[29.3836,41.2194],[29.2318,41.2407],[29.2062,41.2292],[29.1697,41.2331],[29.1301,41.2119],[29.0975,41.1803],[29.0935,41.1771],[29.0932,41.1761],[29.0691,41.1528],[29.0828,41.1452],[29.0683,41.1024],[29.0625,41.0767],[29.0623,41.0763],[29.0261,41.0383],[29.0076,41.0305],[29.0281,40.9821],[29.0832,40.9597],[29.093,40.9524],[29.0168,40.815],[28.9915,40.7692],[28.8952,40.5955],[28.8781,40.5859],[28.8268,40.5706],[28.7927,40.5533],[28.7742,40.5228],[28.8226,40.5141],[28.8397,40.5041],[28.8415,40.5031],[28.8435,40.5024],[28.8397,40.4955],[28.8255,40.4698],[28.8199,40.4597],[28.8008,40.4592],[28.7618,40.4582],[28.6838,40.4563],[28.5278,40.4523],[28.2159,40.4444],[28.177,40.4434],[28.138,40.4425],[28.06,40.4405],[27.985,40.4386],[28.0168,40.4511],[28.0344,40.4744],[28.0142,40.4912],[27.9699,40.503],[27.8047,40.5228],[27.7894,40.5142],[27.76,40.5371],[27.7332,40.5306],[27.6843,40.5023],[27.7258,40.4614],[27.7502,40.4576],[27.7563,40.4328],[27.589,40.4286],[27.5522,40.4276],[27.5154,40.4267],[27.4417,40.4248],[27.324,40.4219],[27.3034,40.4584],[27.2715,40.4678],[27.2377,40.4557],[27.1451,40.4537],[27.1431,40.4539],[27.126,40.4533],[27.1207,40.4532],[27.1206,40.4531],[27.0964,40.4523],[27.0333,40.4068],[27.0127,40.3959],[26.9204,40.3977],[26.8972,40.4062],[26.863,40.3999],[26.7477,40.4032],[26.9017,40.5028],[26.9481,40.5328],[26.9944,40.5627],[27.0423,40.5937],[27.087,40.6131],[27.1152,40.6137],[27.1777,40.6326],[27.1983,40.6531],[27.2879,40.7036],[27.31,40.7332],[27.4,40.8128],[27.4248,40.8313],[27.4465,40.8617],[27.4519,40.8789],[27.6063,40.9908],[27.6754,41.0019],[27.7819,41.0069],[27.8153,41.0026],[27.8607,40.9785],[27.9413,40.9711],[27.9826,41.0161],[27.9833,41.0164],[28.0974,41.0218],[28.1548,41.0245],[28.1835,41.0258],[28.2121,41.0272],[28.4416,41.0379],[28.4607,41.0329],[28.5125,40.9927],[28.5414,40.9896],[28.5603,41.0123],[28.5608,41.0175],[28.6034,41.009],[28.5952,40.978],[28.6253,40.9684],[28.7453,40.9802],[28.822,40.9616],[28.8499,40.9753],[28.8993,40.9843],[28.9353,41.004],[28.946,41.0061],[28.9819,41.0017],[28.9973,41.0399],[29.0422,41.0664],[29.0706,41.1302],[29.0408,41.1643],[29.0693,41.1747],[29.0999,41.2104],[29.1092,41.2353],[29.0452,41.2564],[29.032,41.2449],[28.9576,41.2579],[28.9895,41.3005],[28.9893,41.3006],[28.9895,41.3009],[28.4778,41.489],[28.3499,41.536],[28.286,41.5595],[28.254,41.5712],[28.222,41.583],[28.165,41.6039],[28.1523,41.6086],[28.1448,41.6174],[28.1,41.6702],[28.0883,41.7082],[28.0324,41.8897],[28.0449,41.8902],[28.0168,41.9726],[27.9659,41.9821],[27.917,41.9779],[27.8522,41.9954],[27.808,41.9935],[27.7898,41.9427],[27.724,41.9676],[27.6871,41.9686],[27.6093,41.9535],[27.5508,41.9242],[27.5464,41.9012],[27.4943,41.9428],[27.4208,41.9737],[27.3748,42.0087],[27.3325,42.0574],[27.2734,42.0917],[27.2382,42.0979],[27.2038,42.0881],[27.1738,42.0571],[27.1161,42.0618],[27.0837,42.0784],[27.0479,42.0829],[27.0226,42.0739],[27.0004,42.0428],[26.9672,42.0285],[26.9389,41.9962],[26.8903,41.9854],[26.8608,41.9879],[26.8379,41.9752],[26.8194,41.9657],[26.7806,41.9834],[26.7367,41.959],[26.6236,41.969],[26.5895,41.9588],[26.5471,41.9269],[26.5598,41.9073],[26.5529,41.8816],[26.5261,41.8242],[26.4784,41.8133],[26.3755,41.8166],[26.3342,41.7895],[26.3163,41.7438],[26.3334,41.713],[26.3774,41.7106],[26.4044,41.6918],[26.4762,41.6757],[26.4644,41.6485],[26.5764,41.591],[26.5955,41.6124],[26.6017,41.5473],[26.6159,41.4685],[26.6322,41.4197],[26.6366,41.3785],[26.6226,41.3404],[26.5911,41.3293],[26.5402,41.3518],[26.4893,41.3109],[26.3951,41.259],[26.3317,41.2541],[26.336,41.2289],[26.3211,41.1876],[26.336,41.1526],[26.3173,41.1223],[26.3395,41.1145],[26.3224,41.0886],[26.3476,41.041],[26.3742,41.0311],[26.3596,41.0024],[26.3359,40.9971],[26.3591,40.9647],[26.2944,40.9267],[26.2907,40.9061],[26.2604,40.9204],[26.2392,40.8857],[26.2262,40.8993],[26.2051,40.8584],[26.212,40.8474],[26.1583,40.8122],[26.1345,40.7671],[26.0816,40.7356],[26.044,40.7385],[26.0402,40.7517],[26.0222,40.7517]]]]}}
]}
