{
 "type": "FeatureCollection",
 "features": [
  {
   "type": "Feature",
   "properties": {
    "entityId": "tuyuhun",
    "from": 329,
    "to": 609,
    "certainty": "estimated",
    "source": "중고등학교 한국사 교과서 시대별 지도의 일반적인 경계를 따른 대략적인 추정. 운영자 검수 필요"
   },
   "geometry": {
    "type": "Polygon",
    "coordinates": [
     [
      [
       89.6,
       36.476
      ],
      [
       90,
       36.5
      ],
      [
       98.5,
       36.5
      ],
      [
       102.5,
       35.5
      ],
      [
       101.5,
       36.8
      ],
      [
       98,
       38.5
      ],
      [
       93,
       39.5
      ],
      [
       92,
       39.2
      ],
      [
       90.8,
       38.7
      ],
      [
       89.8,
       38
      ],
      [
       89.6,
       37.3
      ],
      [
       89.6,
       36.476
      ]
     ]
    ]
   }
  },
  {
   "type": "Feature",
   "properties": {
    "entityId": "tuyuhun",
    "from": 618,
    "to": 663,
    "certainty": "estimated",
    "source": "중고등학교 한국사 교과서 시대별 지도의 일반적인 경계를 따른 대략적인 추정. 운영자 검수 필요"
   },
   "geometry": {
    "type": "Polygon",
    "coordinates": [
     [
      [
       89.6,
       36.476
      ],
      [
       90,
       36.5
      ],
      [
       98.5,
       36.5
      ],
      [
       102.5,
       35.5
      ],
      [
       101.5,
       36.8
      ],
      [
       98,
       38.5
      ],
      [
       93,
       39.5
      ],
      [
       92,
       39.2
      ],
      [
       90.8,
       38.7
      ],
      [
       89.8,
       38
      ],
      [
       89.6,
       37.3
      ],
      [
       89.6,
       36.476
      ]
     ]
    ]
   }
  }
 ]
}
