{"type":"FeatureCollection","features":[
{"type":"Feature","properties":{"entityId":"tylis-kingdom","from":-278,"to":-211,"certainty":"estimated","source":"유럽 쪽은 Natural Earth 1:10m admin-1(v5.1.2) 현대 행정구역 조각을 그 시기 국경에 맞춰 묶고, 조각이 역사 경계와 다른 곳은 선을 그어 나눈 근사. 유럽 밖(시베리아·중앙아시아·극동)은 대략적인 추정. 운영자 검수 필요"},"geometry":{"type":"Polygon","coordinates":[[[26.7163,40.935],[26.7231,40.8537],[26.761,40.791],[26.7864,40.7258],[26.9324,40.7149],[26.9319,40.6358],[26.9635,40.561],[26.9944,40.5686],[26.9944,40.5627],[27.0423,40.5937],[27.087,40.6131],[27.1152,40.6137],[27.1777,40.6326],[27.1983,40.6531],[27.2879,40.7036],[27.31,40.7332],[27.35,40.7686],[27.4,40.8128],[27.4248,40.8313],[27.4465,40.8617],[27.4519,40.8789],[27.6063,40.9908],[27.6754,41.0019],[27.7819,41.0069],[27.8153,41.0026],[27.8607,40.9785],[27.9413,40.9711],[27.9826,41.0161],[27.9833,41.0164],[28.0974,41.0218],[28.1548,41.0245],[28.1835,41.0258],[28.1835,41.0814],[28.1747,41.0808],[28.1505,41.2069],[28.1493,41.213],[28.163,41.2732],[28.193,41.3553],[28.1821,41.421],[28.1762,41.4369],[28.1557,41.4922],[28.203,41.5402],[28.222,41.5267],[28.222,41.5384],[28.254,41.5384],[28.254,41.5712],[28.222,41.583],[28.165,41.6039],[28.1523,41.6086],[28.1448,41.6174],[28.1,41.6702],[28.0883,41.7082],[28.0324,41.8897],[28.0449,41.8902],[28.0168,41.9726],[27.9659,41.9821],[27.917,41.9779],[27.8522,41.9954],[27.808,41.9935],[27.7898,41.9427],[27.7451,41.9596],[27.724,41.9676],[27.6871,41.9686],[27.6093,41.9535],[27.5508,41.9242],[27.5464,41.9012],[27.4943,41.9428],[27.4208,41.9737],[27.3748,42.0087],[27.3325,42.0574],[27.2734,42.0917],[27.2382,42.0979],[27.2038,42.0881],[27.1738,42.0571],[27.1161,42.0618],[27.0837,42.0784],[27.0479,42.0829],[27.0226,42.0739],[27.0004,42.0428],[26.9672,42.0285],[26.9389,41.9962],[26.8903,41.9854],[26.8608,41.9879],[26.8379,41.9752],[26.8632,41.8592],[26.8948,41.7635],[26.9062,41.6669],[26.8844,41.5705],[26.8436,41.5243],[26.8284,41.4523],[26.7802,41.3756],[26.8098,41.3303],[26.8215,41.3124],[26.8293,41.1728],[26.8139,41.1135],[26.765,41.0653],[26.7341,41.0056],[26.7163,40.935]]]}}
]}
