{"type":"FeatureCollection","features":[
{"type":"Feature","properties":{"entityId":"uk","from":1801,"to":1922,"certainty":"estimated","source":"유럽 쪽은 Natural Earth 1:10m admin-1(v5.1.2) 현대 행정구역 조각을 그 시기 국경에 맞춰 묶고, 조각이 역사 경계와 다른 곳은 선을 그어 나눈 근사. 유럽 밖(시베리아·중앙아시아·극동)은 대략적인 추정. 운영자 검수 필요"},"geometry":{"type":"MultiPolygon","coordinates":[[[[-2.0653,57.1005],[-2.1335,57.0406],[-2.1908,56.9595],[-2.1968,56.9405],[-2.1864,56.9145],[-2.2175,56.8756],[-2.2192,56.8703],[-2.3561,56.7338],[-2.3915,56.6986],[-2.4769,56.6134],[-2.6085,56.4823],[-2.6406,56.4503],[-2.6903,56.4007],[-2.74,56.3512],[-2.7418,56.3494],[-2.74,56.3488],[-2.6807,56.3285],[-2.6772,56.3284],[-2.6671,56.3239],[-2.6512,56.3185],[-2.6513,56.3181],[-2.6512,56.3181],[-2.6516,56.317],[-2.5768,56.2839],[-2.6301,56.2485],[-2.6483,56.2287],[-2.7202,56.2163],[-2.7836,56.192],[-2.8307,56.1907],[-2.8557,56.1981],[-2.8952,56.1965],[-2.9785,56.1135],[-3.0002,56.0919],[-3.0507,56.0416],[-3.0759,56.0164],[-3.1012,55.9912],[-3.1188,55.9737],[-3.1012,55.9726],[-3.0708,55.9707],[-3.0404,55.9688],[-2.9971,55.9661],[-2.9796,55.9729],[-2.8628,56.0177],[-2.871,56.0307],[-2.8231,56.0598],[-2.8028,56.0648],[-2.6351,56.0581],[-2.616,56.0532],[-2.5694,56.0245],[-2.5728,56.0193],[-2.5172,56.0042],[-2.5079,56.0102],[-2.4597,55.9885],[-2.438,55.9826],[-2.4144,55.9783],[-2.4041,55.9734],[-2.2322,55.9267],[-2.1468,55.9173],[-2.144,55.913],[-2.086,55.9094],[-2.0517,55.864],[-2.0102,55.8092],[-1.9995,55.795],[-1.9929,55.7902],[-1.9595,55.7661],[-1.8304,55.6727],[-1.7751,55.6432],[-1.7686,55.6419],[-1.7646,55.6376],[-1.7296,55.6189],[-1.7183,55.6116],[-1.6991,55.613],[-1.6308,55.5851],[-1.6347,55.5644],[-1.6172,55.5503],[-1.6308,55.5373],[-1.6029,55.5236],[-1.6113,55.508],[-1.5849,55.4837],[-1.5817,55.4215],[-1.5208,55.2596],[-1.4974,55.2037],[-1.4519,55.0948],[-1.4406,55.0676],[-1.4301,55.0425],[-1.4285,55.0404],[-1.4079,55.0132],[-1.3873,54.986],[-1.3702,54.9755],[-1.3627,54.9648],[-1.3635,54.9545],[-1.3311,54.9116],[-1.3272,54.9065],[-1.2987,54.8688],[-1.2339,54.7831],[-1.2337,54.7829],[-1.2014,54.7402],[-1.1691,54.6975],[-1.1647,54.6917],[-1.1367,54.6547],[-1.1327,54.6494],[-1.1279,54.648],[-0.8917,54.5796],[-0.7879,54.5608],[-0.7788,54.5574],[-0.6939,54.5259],[-0.43,54.4639],[-0.3892,54.3884],[-0.309,54.24],[-0.2368,54.1933],[-0.232,54.1902],[-0.1987,54.1741],[-0.1606,54.1558],[-0.0844,54.119],[-0.0847,54.1188],[-0.0846,54.1188],[-0.0847,54.1187],[-0.0844,54.1186],[-0.086,54.1178],[-0.0755,54.1121],[-0.13,54.0944],[-0.1564,54.0804],[-0.1971,54.0329],[-0.1028,53.8585],[-0.0673,53.8217],[-0.0452,53.8012],[0.1335,53.6426],[0.1493,53.6096],[0.1369,53.5771],[0.1096,53.5629],[0.136,53.6107],[0.1063,53.6221],[0.1172,53.6086],[0.1166,53.6089],[0.1172,53.6082],[0.1165,53.6086],[0.1168,53.6082],[0.0772,53.629],[0.0644,53.6324],[0.0376,53.6395],[0.0159,53.6388],[0.0345,53.6045],[0.0555,53.5656],[0.0765,53.5268],[0.0974,53.488],[0.1519,53.4758],[0.1758,53.4377],[0.2195,53.4195],[0.2449,53.3909],[0.3421,53.2263],[0.3562,53.1885],[0.3566,53.1457],[0.3405,53.1101],[0.355,53.09],[0.4093,53.0146],[0.4094,53.0146],[0.4365,52.977],[0.4637,52.9393],[0.47,52.9305],[0.4822,52.9285],[0.4857,52.9335],[0.5203,52.9553],[0.5696,52.9693],[0.6714,52.9744],[0.6719,52.9744],[0.6847,52.9864],[0.7482,52.9748],[0.7581,52.9744],[0.8357,52.9744],[0.9054,52.9603],[0.9487,52.9541],[1.0011,52.9566],[1.0139,52.9602],[0.9661,52.9744],[1.2747,52.9292],[1.396,52.8914],[1.6442,52.7758],[1.697,52.731],[1.7472,52.6252],[1.7476,52.5328],[1.7712,52.4859],[1.7544,52.4674],[1.7293,52.4156],[1.7279,52.3963],[1.6836,52.3245],[1.6611,52.3016],[1.6472,52.2784],[1.6308,52.2195],[1.6309,52.1998],[1.5823,52.0815],[1.5339,52.0704],[1.4132,51.9937],[1.4117,51.9931],[1.3323,51.9401],[1.3119,51.9564],[1.271,51.9331],[1.2785,51.9279],[1.2599,51.9161],[1.2728,51.9021],[1.2747,51.8722],[1.2866,51.8817],[1.2764,51.8448],[1.2764,51.8444],[1.2722,51.8424],[1.2192,51.8118],[1.1354,51.7817],[1.0733,51.776],[1.2123,51.5964],[1.2184,51.5885],[1.2492,51.5487],[1.3727,51.3891],[1.4238,51.3921],[1.4483,51.3829],[1.4391,51.3501],[1.4187,51.3298],[1.4492,51.2904],[1.449,51.2903],[1.4492,51.29],[1.4107,51.2676],[1.4077,51.246],[1.4131,51.2217],[1.4048,51.1835],[1.3845,51.1517],[1.3572,51.131],[1.2904,51.1165],[1.263,51.1033],[1.2181,51.101],[1.1722,51.0774],[1.133,51.0768],[1.046,51.0476],[0.9776,50.9712],[0.9718,50.9568],[0.9798,50.9182],[0.9452,50.9094],[0.8698,50.9251],[0.8446,50.9304],[0.8331,50.9308],[0.5492,50.7653],[0.5488,50.7653],[0.2929,50.7672],[0.271,50.7474],[0.2141,50.7489],[0.1683,50.7598],[0.1221,50.7608],[0.1076,50.7686],[0.0573,50.769],[0.0322,50.7692],[0.007,50.7694],[-0.0181,50.7696],[-0.0433,50.7698],[-0.0936,50.7702],[-0.1439,50.7705],[-0.169,50.7707],[-0.1942,50.7709],[-0.2193,50.7711],[-0.2445,50.7713],[-0.2949,50.7717],[-0.6974,50.7748],[-0.7327,50.7673],[-0.7415,50.7707],[-0.7724,50.7665],[-0.7731,50.766],[-0.771,50.7369],[-0.8128,50.7348],[-0.8768,50.7608],[-0.9138,50.7548],[-0.9507,50.7489],[-0.9943,50.7418],[-1.0379,50.7347],[-1.0815,50.7277],[-1.1027,50.7242],[-1.0942,50.7126],[-1.0828,50.7133],[-1.0623,50.6928],[-1.0642,50.6907],[-1.0636,50.6904],[-1.0639,50.6903],[-1.0638,50.6902],[-1.0639,50.6902],[-1.0636,50.69],[-1.0656,50.6892],[-1.0753,50.6785],[-1.1142,50.6697],[-1.137,50.6605],[-1.1545,50.6481],[-1.1657,50.6303],[-1.1684,50.6035],[-1.2792,50.5825],[-1.3155,50.5892],[-1.3521,50.6059],[-1.493,50.661],[-1.561,50.6499],[-1.6045,50.6429],[-1.6481,50.6358],[-1.6917,50.6288],[-1.7353,50.6217],[-1.8225,50.6076],[-1.9097,50.5935],[-2.0841,50.5652],[-2.2585,50.537],[-2.4892,50.4996],[-2.4893,50.4996],[-2.4896,50.4996],[-2.6072,50.5489],[-2.7816,50.6221],[-2.8688,50.6587],[-2.9123,50.6769],[-2.9559,50.6952],[-2.9573,50.6958],[-3.1303,50.5731],[-3.133,50.5712],[-3.2188,50.5104],[-3.2617,50.48],[-3.3046,50.4495],[-3.3061,50.4485],[-3.3929,50.3869],[-3.4363,50.3561],[-3.4364,50.3561],[-3.4797,50.3254],[-3.616,50.2287],[-3.6163,50.2287],[-3.6164,50.2287],[-3.6476,50.2325],[-3.6456,50.226],[-3.718,50.2124],[-3.7742,50.223],[-3.789,50.2124],[-3.8263,50.2342],[-3.8562,50.2581],[-4.0106,50.277],[-4.0878,50.2865],[-4.1264,50.2912],[-4.165,50.296],[-4.2422,50.3054],[-4.3194,50.3149],[-4.4737,50.3338],[-4.4954,50.3284],[-4.5716,50.3256],[-5.0568,50.0612],[-5.0565,50.0606],[-5.0981,50.0144],[-5.1465,50.0106],[-5.1761,49.9879],[-5.1912,49.9591],[-5.2143,49.9754],[-5.2433,49.9596],[-5.2435,49.9597],[-5.2437,49.9596],[-5.5482,50.0738],[-5.5784,50.0548],[-5.6674,50.0429],[-5.7051,50.0523],[-5.7156,50.0827],[-5.6988,50.0854],[-5.7092,50.1326],[-5.7082,50.1338],[-5.7765,50.1594],[-5.7762,50.1596],[-5.7763,50.1596],[-5.7762,50.1597],[-5.7765,50.1598],[-4.9295,50.7673],[-4.8908,50.7951],[-4.7946,50.8641],[-4.7465,50.8986],[-4.6984,50.9331],[-4.506,51.0711],[-4.3112,51.2108],[-4.0825,51.2657],[-3.8707,51.3165],[-3.7648,51.3419],[-3.7383,51.3482],[-3.7119,51.3546],[-3.6854,51.3609],[-3.659,51.3672],[-3.606,51.38],[-3.5531,51.3926],[-3.5307,51.398],[-3.5392,51.3985],[-3.5574,51.4051],[-3.5753,51.4204],[-3.5815,51.4257],[-3.6155,51.4468],[-3.6699,51.4526],[-3.7583,51.462],[-3.8025,51.4668],[-3.8467,51.4715],[-3.8909,51.4762],[-3.9352,51.4809],[-4.289,51.5187],[-4.3774,51.5281],[-4.4659,51.5376],[-4.5101,51.5423],[-4.5543,51.547],[-4.6428,51.5564],[-4.9844,51.5929],[-4.9966,51.6099],[-5.0216,51.616],[-5.0458,51.6269],[-5.0512,51.6569],[-5.1005,51.6647],[-5.1134,51.6853],[-5.053,51.6799],[-5.1249,51.7056],[-5.1394,51.7173],[-5.1492,51.7181],[-5.157,51.6976],[-5.1829,51.6893],[-5.1807,51.7064],[-5.2301,51.73],[-5.1768,51.7597],[-5.1681,51.7612],[-5.1681,51.808],[-5.2005,51.8618],[-5.2318,51.8707],[-5.2358,51.871],[-5.2914,51.864],[-5.3026,51.8852],[-5.2889,51.9169],[-5.2342,51.923],[-5.2248,51.9291],[-5.2689,51.9907],[-5.2687,51.9908],[-5.2689,51.9911],[-4.9385,52.0888],[-4.7733,52.1376],[-4.732,52.1498],[-4.6907,52.162],[-4.6081,52.1864],[-4.3012,52.2772],[-4.2215,52.3007],[-4.2994,52.3776],[-4.3012,52.3793],[-4.3781,52.4552],[-4.4166,52.4932],[-4.4551,52.5312],[-4.6081,52.6822],[-4.7224,52.795],[-4.7474,52.7834],[-4.7628,52.7895],[-4.7443,52.8166],[-4.7684,52.8404],[-4.7683,52.8407],[-4.7684,52.8408],[-4.7268,52.9864],[-4.7025,53.0713],[-4.6904,53.1138],[-4.6783,53.1562],[-4.6432,53.2789],[-4.6704,53.2829],[-4.694,53.3096],[-4.6673,53.3239],[-4.6311,53.3213],[-4.5812,53.4958],[-4.5808,53.4958],[-4.3474,53.4815],[-4.1369,53.4686],[-4.0842,53.4653],[-4.0579,53.4637],[-4.0316,53.4621],[-4.0053,53.4605],[-3.979,53.4589],[-3.9264,53.4557],[-3.7159,53.4427],[-3.6632,53.4395],[-3.6369,53.4379],[-3.6106,53.4363],[-3.558,53.4331],[-3.5054,53.4298],[-3.4001,53.4234],[-3.3738,53.4217],[-3.3475,53.4201],[-3.2949,53.4169],[-3.2686,53.4153],[-3.2423,53.4137],[-3.1897,53.4105],[-3.1581,53.4085],[-3.1573,53.4088],[-3.1147,53.4127],[-3.095,53.4172],[-3.0938,53.4176],[-3.0867,53.4211],[-3.0792,53.4514],[-3.0726,53.4779],[-3.066,53.5043],[-3.0966,53.5443],[-3.1019,53.5581],[-3.0995,53.572],[-3.0876,53.5877],[-3.0316,53.6431],[-3.0194,53.6925],[-3.0071,53.742],[-3.0215,53.7458],[-3.0492,53.7695],[-3.0564,53.803],[-3.0449,53.8785],[-3.0566,53.9062],[-3.0407,53.9235],[-3.0176,53.932],[-2.9565,53.9458],[-2.948,53.9801],[-2.9469,53.9846],[-2.948,53.9856],[-3.0121,54.0446],[-3.0441,54.0741],[-3.0762,54.1036],[-3.1,54.1255],[-3.1179,54.1088],[-3.1453,54.1],[-3.1454,54.0638],[-3.1898,54.0979],[-3.241,54.1121],[-3.2331,54.1592],[-3.2484,54.1737],[-3.2391,54.1754],[-3.2716,54.1969],[-3.3068,54.1919],[-3.3285,54.2047],[-3.4074,54.2777],[-3.4055,54.3013],[-3.4112,54.3061],[-3.556,54.4536],[-3.5919,54.4831],[-3.6342,54.5129],[-3.6116,54.5299],[-3.5909,54.5636],[-3.5912,54.5648],[-3.5911,54.5649],[-3.5912,54.5652],[-3.5887,54.5694],[-3.5871,54.574],[-3.6308,54.6142],[-3.7241,54.6277],[-3.768,54.6341],[-3.8119,54.6405],[-3.8558,54.6468],[-3.8997,54.6532],[-4.0753,54.6787],[-4.3505,54.7186],[-4.3481,54.702],[-4.3719,54.6823],[-4.4053,54.6821],[-4.4612,54.7012],[-4.5056,54.7047],[-4.5544,54.7482],[-4.844,54.7902],[-4.8618,54.8104],[-4.8904,54.7713],[-4.9043,54.7187],[-4.896,54.7045],[-4.8673,54.6901],[-4.8721,54.6492],[-4.8591,54.633],[-4.9441,54.6528],[-4.9599,54.6755],[-4.9473,54.7012],[-4.9503,54.7124],[-5.0313,54.7609],[-5.1186,54.8422],[-5.1282,54.8489],[-5.1571,54.8791],[-5.1755,54.9146],[-5.1807,54.9544],[-5.1708,55.0087],[-5.1246,55.0168],[-5.1151,55.0316],[-5.0878,55.0013],[-5.0564,54.9888],[-5.0476,55.0047],[-5.0441,55.0109],[-5.047,55.0151],[-5.0476,55.0221],[-5.0817,55.061],[-5.0815,55.0612],[-5.0817,55.0614],[-4.8581,55.3361],[-4.7303,55.4931],[-4.7182,55.508],[-4.7533,55.5372],[-4.7872,55.5654],[-4.821,55.5936],[-4.8888,55.65],[-4.8951,55.6553],[-4.9353,55.6888],[-4.9755,55.7222],[-4.9797,55.7257],[-5.0216,55.7607],[-5.0298,55.7495],[-5.0113,55.7377],[-5.0288,55.7233],[-5.0503,55.7495],[-5.0736,55.762],[-5.166,55.6806],[-5.16,55.6762],[-5.1322,55.6184],[-5.1065,55.5738],[-5.0942,55.5666],[-5.0919,55.5441],[-5.1022,55.5419],[-5.0989,55.5175],[-5.0708,55.5093],[-5.093,55.5004],[-5.0782,55.4553],[-5.1178,55.4398],[-5.1636,55.4349],[-5.2631,55.4472],[-5.3457,55.4827],[-5.3539,55.5152],[-5.5185,55.3703],[-5.558,55.3319],[-5.5681,55.3266],[-5.5853,55.3115],[-5.5853,55.3118],[-5.5857,55.3115],[-5.5861,55.3173],[-5.5941,55.3131],[-5.64,55.3039],[-5.6691,55.3109],[-5.7545,55.2973],[-5.7829,55.3135],[-5.7947,55.3564],[-5.7914,55.3986],[-5.7605,55.4187],[-5.7513,55.4436],[-5.7114,55.5489],[-5.7218,55.5646],[-5.6733,55.6406],[-5.6809,55.6745],[-5.6265,55.7006],[-5.6116,55.7194],[-5.6154,55.7793],[-5.6467,55.7875],[-5.668,55.811],[-5.6741,55.8458],[-5.632,55.8818],[-5.6276,55.9053],[-5.6809,55.8867],[-5.6964,55.916],[-5.6279,55.976],[-5.6301,56.0108],[-5.6317,56.0059],[-5.6749,55.9777],[-5.6741,55.9556],[-5.6945,55.9345],[-5.7075,55.9426],[-5.6964,55.9822],[-5.6599,56.0233],[-5.6324,56.0467],[-5.6418,56.1943],[-5.6667,56.2225],[-5.6452,56.2487],[-5.6469,56.2746],[-5.6977,56.326],[-5.7231,56.3516],[-5.8087,56.3189],[-5.8482,56.3136],[-5.8801,56.3256],[-5.8725,56.3308],[-6.0131,56.3112],[-6.0375,56.3052],[-6.066,56.2892],[-6.1024,56.2982],[-6.147,56.2839],[-6.2398,56.2839],[-6.2668,56.2635],[-6.3275,56.2772],[-6.3602,56.3036],[-6.3661,56.3222],[-6.3354,56.3446],[-6.2904,56.3454],[-6.2852,56.3414],[-6.1869,56.3567],[-6.1842,56.3644],[-6.2032,56.3803],[-6.1892,56.3978],[-6.1706,56.4034],[-6.1409,56.488],[-6.1446,56.4917],[-6.2427,56.5279],[-6.2885,56.5323],[-6.3382,56.5521],[-6.3151,56.5617],[-6.3201,56.5698],[-6.32,56.57],[-6.3201,56.5702],[-6.3099,56.5911],[-6.3252,56.6061],[-6.2669,56.6181],[-6.2203,56.632],[-6.2203,56.6323],[-6.1907,56.6449],[-6.119,56.6539],[-6.0583,56.6402],[-6.0624,56.6267],[-6.0474,56.6195],[-6.0335,56.6188],[-6.0088,56.5987],[-5.9944,56.5798],[-5.9453,56.5355],[-5.932,56.534],[-5.9008,56.5305],[-5.9,56.5304],[-5.9008,56.5312],[-5.9279,56.5586],[-5.932,56.5628],[-5.974,56.6052],[-6.0034,56.6187],[-6.0076,56.6392],[-6.0587,56.6909],[-6.0986,56.697],[-6.1617,56.6782],[-6.2228,56.6955],[-6.2345,56.7286],[-6.2153,56.7296],[-6.1805,56.7546],[-6.125,56.7579],[-6.1509,56.784],[-6.1508,56.7843],[-6.1509,56.7844],[-6.0264,57.1382],[-6.0326,57.1803],[-6.044,57.161],[-6.0738,57.1318],[-6.1014,57.1352],[-6.1129,57.1883],[-6.1169,57.1893],[-6.1613,57.1826],[-6.1617,57.1826],[-6.1762,57.1828],[-6.1772,57.1812],[-6.3183,57.161],[-6.2839,57.1897],[-6.3152,57.1991],[-6.3456,57.1883],[-6.3798,57.2231],[-6.3607,57.2342],[-6.3633,57.2365],[-6.3691,57.2431],[-6.4082,57.2434],[-6.4555,57.2777],[-6.4822,57.3118],[-6.4417,57.3258],[-6.4425,57.3267],[-6.5656,57.3459],[-6.5806,57.3388],[-6.6725,57.3559],[-6.7148,57.3766],[-6.7241,57.3989],[-6.7413,57.4118],[-6.7502,57.4246],[-6.7732,57.4341],[-6.7838,57.4564],[-6.754,57.4564],[-6.7521,57.4591],[-6.735,57.4724],[-6.7471,57.4879],[-6.7263,57.5114],[-6.7065,57.5109],[-6.684,57.4914],[-6.6439,57.4834],[-6.6228,57.4871],[-6.6313,57.4936],[-6.6114,57.5122],[-6.5836,57.5071],[-6.5829,57.5077],[-6.5829,57.5212],[-6.6,57.5377],[-6.6548,57.5521],[-6.631,57.5768],[-6.6405,57.6073],[-6.6198,57.6072],[-6.5723,57.5825],[-6.5684,57.5711],[-6.3991,57.5996],[-6.4003,57.5998],[-6.3959,57.6135],[-6.4157,57.6458],[-6.3599,57.6681],[-6.338,57.6992],[-6.3109,57.7028],[-6.2605,57.6686],[-6.2327,57.6414],[-6.188,57.6209],[-6.1539,57.5895],[-6.1361,57.4613],[-6.1592,57.4074],[-6.1179,57.3978],[-6.1401,57.3739],[-6.1352,57.3574],[-6.0992,57.3323],[-6.1352,57.3147],[-6.1155,57.3084],[-6.0682,57.3118],[-6.0454,57.3083],[-6.07,57.2853],[-6.0677,57.2837],[-6.0485,57.2816],[-6.0085,57.2868],[-5.9848,57.2745],[-5.9788,57.2738],[-5.9731,57.2901],[-6.0078,57.3036],[-6.0139,57.3175],[-5.9622,57.3211],[-5.8024,57.7757],[-5.8013,57.8004],[-5.8074,57.8439],[-5.7895,57.862],[-5.7368,57.8714],[-5.3854,58.2385],[-5.3929,58.2447],[-5.3759,58.2642],[-5.3643,58.2605],[-5.0097,58.631],[-5.0093,58.631],[-4.2192,58.5523],[-4.1888,58.558],[-4.1638,58.5595],[-4.1606,58.5626],[-4.1174,58.5622],[-4.0784,58.5644],[-4.0488,58.5896],[-4.0278,58.5927],[-4.0038,58.5706],[-3.9865,58.5698],[-3.8612,58.5771],[-3.7375,58.5955],[-3.6984,58.6112],[-3.5976,58.6271],[-3.5426,58.6208],[-3.5381,58.6128],[-3.4544,58.617],[-3.3796,58.6297],[-3.3861,58.6317],[-3.4129,58.6556],[-3.39,58.6718],[-3.3583,58.6755],[-3.3479,58.652],[-3.3099,58.6481],[-3.2041,58.6611],[-3.1534,58.6419],[-3.1487,58.6415],[-3.0529,58.6481],[-3.0191,58.6403],[-3.0231,58.6331],[-3.0044,58.6344],[-3.004,58.6344],[-3.0044,58.634],[-3.004,58.634],[-3.0472,58.5903],[-3.0492,58.5867],[-3.0814,58.555],[-3.1084,58.5159],[-3.1056,58.4841],[-3.0644,58.483],[-3.0533,58.4658],[-3.0771,58.4495],[-3.0863,58.4142],[-3.1298,58.3693],[-3.2205,58.3056],[-3.2623,58.2926],[-3.3002,58.2855],[-3.3818,58.2518],[-3.7839,57.8451],[-3.79,57.8307],[-3.8169,57.8117],[-4.0373,57.5888],[-3.9643,57.593],[-3.9235,57.5908],[-3.8684,57.5997],[-3.7345,57.6344],[-3.6848,57.6544],[-3.6313,57.6611],[-3.6272,57.6622],[-3.6099,57.6658],[-3.6116,57.6681],[-3.6026,57.6674],[-3.5015,57.6886],[-3.4919,57.7131],[-3.4607,57.7097],[-3.4092,57.7233],[-3.2847,57.7204],[-3.2217,57.6981],[-3.1218,57.6809],[-3.0548,57.6899],[-3.0544,57.6899],[-2.9542,57.6895],[-2.9161,57.7028],[-2.8212,57.7028],[-2.758,57.7028],[-2.7331,57.6896],[-2.7237,57.6894],[-2.6589,57.6975],[-2.6073,57.6878],[-2.3167,57.6865],[-2.3134,57.6899],[-2.2743,57.6938],[-2.2475,57.6862],[-2.2064,57.686],[-2.1387,57.6943],[-2.1081,57.705],[-1.9977,57.7028],[-1.9819,57.685],[-1.96,57.6849],[-1.9601,57.6845],[-1.96,57.6845],[-1.9623,57.6774],[-1.9325,57.6824],[-1.9142,57.6647],[-1.8295,57.6135],[-1.8,57.5259],[-1.7611,57.4975],[-1.7784,57.4828],[-1.779,57.4797],[-1.7593,57.4736],[-1.8245,57.4299],[-1.8331,57.4214],[-1.85,57.3944],[-1.9377,57.3497],[-2.0212,57.259],[-2.0464,57.2087],[-2.0608,57.1531],[-2.0709,57.1354],[-2.0524,57.1274],[-2.0493,57.1188],[-2.0653,57.1005]]],[[[-6.2189,55.6165],[-6.2228,55.6055],[-6.2619,55.5838],[-6.3112,55.5832],[-6.3252,55.6055],[-6.3192,55.6282],[-6.2911,55.64],[-6.2698,55.6708],[-6.2904,55.7071],[-6.3252,55.7154],[-6.321,55.7335],[-6.2955,55.7491],[-6.2878,55.7731],[-6.302,55.78],[-6.3341,55.7747],[-6.359,55.7598],[-6.3866,55.7223],[-6.4186,55.7096],[-6.463,55.6745],[-6.5035,55.6813],[-6.4946,55.7032],[-6.4965,55.7105],[-6.4964,55.7106],[-6.4965,55.7109],[-6.4908,55.7226],[-6.4932,55.7392],[-6.4753,55.7543],[-6.4677,55.7699],[-6.4664,55.784],[-6.4822,55.7905],[-6.4648,55.8008],[-6.4641,55.8081],[-6.458,55.8163],[-6.4528,55.8409],[-6.4091,55.8636],[-6.3314,55.89],[-6.3352,55.8689],[-6.3127,55.8568],[-6.3017,55.8623],[-6.297,55.8672],[-6.252,55.8871],[-6.2244,55.9009],[-6.2043,55.9166],[-6.1401,55.9414],[-6.1202,55.9294],[-6.1088,55.8596],[-6.0929,55.8029],[-6.0887,55.7936],[-6.0498,55.7663],[-6.0583,55.7427],[-6.0304,55.7291],[-6.0235,55.6819],[-6.0644,55.6676],[-6.1055,55.6402],[-6.16,55.6267],[-6.1859,55.6267],[-6.2189,55.6165]]],[[[-5.953,55.834],[-5.9621,55.8048],[-5.9875,55.7946],[-6.0266,55.7961],[-6.0624,55.8095],[-6.0781,55.8349],[-6.0869,55.883],[-6.0752,55.916],[-5.9974,55.9517],[-5.9654,55.9553],[-5.9148,55.9742],[-5.9807,55.9699],[-5.9956,55.986],[-5.9833,56.0089],[-5.9421,56.0419],[-5.9385,56.046],[-5.9349,56.0476],[-5.9244,56.056],[-5.9021,56.0622],[-5.8318,56.0935],[-5.7976,56.1126],[-5.7159,56.1531],[-5.6945,56.1474],[-5.6893,56.1118],[-5.7402,56.0765],[-5.7802,56.0207],[-5.8645,55.9267],[-5.8863,55.8867],[-5.8968,55.8889],[-5.9118,55.8795],[-5.953,55.834]]],[[[-6.6175,56.6293],[-6.5914,56.6518],[-6.5736,56.6588],[-6.5685,56.6622],[-6.5621,56.6633],[-6.5058,56.6854],[-6.4623,56.6912],[-6.4592,56.6781],[-6.4897,56.6402],[-6.5273,56.6265],[-6.5641,56.5987],[-6.6163,56.5752],[-6.6689,56.5778],[-6.6779,56.5583],[-6.7019,56.5856],[-6.6648,56.5975],[-6.6175,56.6293]]],[[[-5.8577,54.6687],[-5.834,54.6551],[-5.823,54.6585],[-5.8053,54.6641],[-5.7883,54.6664],[-5.7695,54.6746],[-5.748,54.6804],[-5.7324,54.677],[-5.7207,54.6717],[-5.684,54.6697],[-5.5747,54.6801],[-5.565,54.6723],[-5.5366,54.6575],[-5.5144,54.5979],[-5.5026,54.5835],[-5.4789,54.5695],[-5.4686,54.5163],[-5.4371,54.4879],[-5.4338,54.461],[-5.4643,54.4252],[-5.4574,54.4087],[-5.4612,54.3921],[-5.4891,54.3696],[-5.4748,54.3586],[-5.502,54.3397],[-5.5277,54.3453],[-5.5471,54.3791],[-5.559,54.3826],[-5.5766,54.4028],[-5.5717,54.4256],[-5.5487,54.4428],[-5.5437,54.4578],[-5.5473,54.4881],[-5.5677,54.5127],[-5.6145,54.537],[-5.6664,54.5479],[-5.6696,54.5437],[-5.6623,54.5232],[-5.637,54.522],[-5.6256,54.5163],[-5.6572,54.5088],[-5.6543,54.5005],[-5.64,54.4958],[-5.6446,54.4721],[-5.6385,54.4636],[-5.6256,54.4411],[-5.6565,54.388],[-5.6573,54.3811],[-5.6342,54.3732],[-5.6221,54.3767],[-5.5797,54.3837],[-5.5591,54.3708],[-5.5565,54.3707],[-5.5567,54.3703],[-5.5565,54.3703],[-5.5569,54.3694],[-5.5505,54.3654],[-5.5407,54.3273],[-5.553,54.2985],[-5.6126,54.2556],[-5.6331,54.2556],[-5.64,54.2351],[-5.6558,54.2297],[-5.6788,54.2462],[-5.7005,54.2473],[-5.7077,54.2453],[-5.8265,54.2349],[-5.8553,54.2002],[-5.8699,54.1697],[-5.8832,54.1208],[-5.912,54.0913],[-5.9538,54.0787],[-5.9847,54.0593],[-6.0405,54.0364],[-6.0665,54.0352],[-6.0776,54.021],[-6.1112,53.978],[-6.1148,53.9734],[-6.1972,53.8678],[-6.1928,53.8485],[-6.1779,53.7845],[-6.1705,53.7525],[-6.1631,53.7204],[-6.1556,53.6884],[-6.1482,53.6563],[-6.1333,53.5922],[-6.0924,53.5771],[-6.0773,53.5546],[-6.0749,53.5397],[-6.0985,53.5097],[-6.11,53.4915],[-6.0872,53.3932],[-6.0691,53.3925],[-6.0509,53.3854],[-6.062,53.3674],[-6.0825,53.373],[-6.0781,53.354],[-6.072,53.3278],[-6.0645,53.2953],[-6.057,53.2628],[-6.0494,53.2303],[-6.0419,53.1978],[-6.0317,53.1539],[-6.0318,53.1538],[-6.0317,53.1535],[-6.0492,53.1328],[-6.0304,53.111],[-6.0394,53.0404],[-6.0402,53.0382],[-6.0356,52.9964],[-5.9966,52.9649],[-6.0283,52.9302],[-6.0281,52.9281],[-6.0281,52.928],[-6.0281,52.9277],[-6.0687,52.8689],[-6.0644,52.8646],[-6.0823,52.8542],[-6.1289,52.8079],[-6.1535,52.7648],[-6.151,52.7416],[-6.1808,52.7065],[-6.1973,52.6638],[-6.2078,52.5929],[-6.2065,52.5885],[-6.2091,52.5458],[-6.2829,52.4671],[-6.2864,52.4652],[-6.3449,52.4017],[-6.3656,52.3884],[-6.3661,52.3444],[-6.39,52.3588],[-6.4211,52.3593],[-6.4633,52.3445],[-6.3982,52.2995],[-6.373,52.3227],[-6.3898,52.2956],[-6.3855,52.2907],[-6.3233,52.2476],[-6.3236,52.2475],[-6.3235,52.2474],[-6.3236,52.2474],[-6.3233,52.2472],[-6.3266,52.2459],[-6.3183,52.2408],[-6.347,52.1973],[-6.3699,52.18],[-6.3995,52.1855],[-6.381,52.2076],[-6.4001,52.2109],[-6.4256,52.1938],[-6.4691,52.1936],[-6.4664,52.1989],[-6.548,52.1897],[-6.5972,52.1796],[-6.6403,52.2022],[-6.6981,52.2125],[-6.7783,52.2107],[-6.781,52.2105],[-6.8227,52.1931],[-6.8248,52.1793],[-6.8971,52.152],[-6.9321,52.1247],[-6.9398,52.1432],[-6.9039,52.1623],[-6.9049,52.1653],[-6.9141,52.1691],[-6.9394,52.2093],[-6.9766,52.1969],[-6.98,52.1859],[-6.9551,52.1862],[-7.0172,52.1384],[-7.106,52.1309],[-7.0969,52.1401],[-7.1421,52.1419],[-7.5896,51.993],[-7.5899,51.9912],[-7.6354,51.9768],[-7.6376,51.977],[-7.7211,51.9492],[-7.7233,51.9446],[-7.7325,51.9454],[-7.78,51.9296],[-7.8274,51.9138],[-7.8748,51.898],[-7.8856,51.8944],[-7.8806,51.892],[-7.8915,51.8819],[-7.9498,51.8689],[-7.9541,51.8653],[-8.0188,51.8405],[-8.0041,51.8299],[-8.1342,51.8048],[-8.156,51.8044],[-8.2927,51.7589],[-8.3071,51.7541],[-8.3457,51.7247],[-8.41,51.7098],[-8.4355,51.6927],[-8.4546,51.7051],[-8.4704,51.6998],[-8.469,51.6841],[-8.4853,51.6948],[-8.5045,51.6884],[-8.5211,51.6784],[-8.5392,51.6484],[-8.5317,51.6108],[-8.5587,51.638],[-8.5891,51.6459],[-8.6382,51.6374],[-8.6911,51.6408],[-8.7353,51.6361],[-8.7362,51.6355],[-8.7266,51.6313],[-8.69,51.6313],[-8.6825,51.6108],[-8.6998,51.5972],[-8.6962,51.5766],[-8.7428,51.5756],[-8.7651,51.5903],[-8.8014,51.5926],[-8.8145,51.584],[-8.8729,51.5735],[-8.888,51.5556],[-8.9332,51.5353],[-8.971,51.5558],[-9.201,51.5145],[-9.2238,51.4873],[-9.2648,51.4873],[-9.2699,51.5021],[-9.2969,51.4972],[-9.2972,51.4972],[-9.3492,51.474],[-9.3814,51.4736],[-9.3467,51.5009],[-9.3769,51.4946],[-9.3629,51.5106],[-9.3765,51.5151],[-9.4018,51.5009],[-9.4139,51.5111],[-9.4101,51.5221],[-9.4627,51.5285],[-9.5345,51.5215],[-9.5515,51.5174],[-9.5563,51.5081],[-9.6284,51.4941],[-9.6324,51.4979],[-9.7132,51.4784],[-9.7035,51.4736],[-9.7718,51.4531],[-9.769,51.4643],[-9.8202,51.4457],[-9.8134,51.4736],[-9.8262,51.4822],[-9.8373,51.4833],[-9.8371,51.4835],[-9.8369,51.4837],[-9.8373,51.4837],[-9.8337,51.4871],[-9.8339,51.4873],[-9.8333,51.4875],[-9.7549,51.562],[-9.785,51.5525],[-9.8475,51.5494],[-9.7864,51.5735],[-9.7703,51.5922],[-9.7312,51.6009],[-9.5619,51.6581],[-9.5535,51.6602],[-9.5421,51.6643],[-9.5245,51.6812],[-9.5815,51.6882],[-9.8981,51.6465],[-9.9314,51.6356],[-9.9419,51.6213],[-10.0047,51.6085],[-10.0288,51.5965],[-10.0701,51.6039],[-10.1084,51.6009],[-10.1164,51.6002],[-10.1561,51.5828],[-10.1433,51.6136],[-10.1014,51.6225],[-10.0744,51.6521],[-10.0881,51.6716],[-10.0323,51.6758],[-9.9691,51.7086],[-9.9978,51.7138],[-9.9494,51.747],[-9.8885,51.7616],[-9.9012,51.7429],[-9.8581,51.7636],[-9.8544,51.7753],[-9.8294,51.7728],[-9.8071,51.779],[-9.8134,51.7821],[-9.789,51.7997],[-9.8593,51.8071],[-9.8749,51.8026],[-9.8729,51.8086],[-9.8971,51.8112],[-9.9622,51.7975],[-10.0168,51.7746],[-10.0377,51.7815],[-10.0419,51.7807],[-10.0845,51.7559],[-10.1356,51.7412],[-10.1297,51.7543],[-10.2244,51.7821],[-10.2125,51.7844],[-10.2405,51.8115],[-10.3103,51.803],[-10.3411,51.7883],[-10.3411,51.7993],[-10.3413,51.7993],[-10.365,51.8449],[-10.3889,51.8462],[-10.3819,51.8777],[-10.3627,51.8872],[-10.3474,51.8911],[-10.3337,51.9011],[-10.3616,51.892],[-10.426,51.8823],[-10.412,51.9041],[-10.3517,51.9311],[-10.3127,51.9255],[-10.3092,51.9192],[-10.278,51.9421],[-10.288,51.9519],[-10.3069,51.9596],[-10.2585,51.9739],[-10.2662,51.9885],[-10.2174,51.9989],[-10.1282,52.0285],[-10.0887,52.0337],[-10.0425,52.0445],[-9.9875,52.0641],[-9.9711,52.0899],[-9.9605,52.0738],[-9.9453,52.0792],[-9.913,52.1182],[-9.9113,52.1228],[-9.9499,52.1343],[-9.9438,52.1247],[-9.9547,52.1088],[-9.9703,52.1317],[-9.9929,52.1348],[-10.0784,52.1318],[-10.1624,52.1187],[-10.1863,52.1094],[-10.2119,52.1271],[-10.2272,52.1265],[-10.2421,52.1198],[-10.2516,52.1257],[-10.3032,52.1289],[-10.2721,52.1117],[-10.3449,52.1247],[-10.4153,52.0997],[-10.4608,52.103],[-10.4782,52.152],[-10.4509,52.1657],[-10.4613,52.18],[-10.4093,52.1998],[-10.4167,52.1862],[-10.3826,52.1721],[-10.3689,52.1902],[-10.3666,52.2282],[-10.3205,52.2346],[-10.2758,52.2681],[-10.1719,52.2868],[-10.157,52.2791],[-10.1325,52.2823],[-10.1323,52.2823],[-10.1321,52.2823],[-10.0601,52.2754],[-10.0439,52.2717],[-10.036,52.2904],[-10.0598,52.3096],[-10.0248,52.3101],[-10.0119,52.2643],[-9.9917,52.2597],[-9.9378,52.2372],[-9.8534,52.2443],[-9.8372,52.2543],[-9.821,52.247],[-9.7731,52.251],[-9.7896,52.2607],[-9.7992,52.2613],[-9.8596,52.2847],[-9.8374,52.2886],[-9.8409,52.2906],[-9.8412,52.2929],[-9.8619,52.3035],[-9.843,52.3068],[-9.8517,52.3757],[-9.8763,52.3883],[-9.9037,52.3915],[-9.9499,52.4121],[-9.9159,52.4256],[-9.8627,52.4278],[-9.8373,52.442],[-9.7617,52.4663],[-9.6785,52.5187],[-9.6719,52.5529],[-9.6179,52.5772],[-9.577,52.5704],[-9.4975,52.5704],[-9.4879,52.5674],[-9.4533,52.57],[-9.4384,52.5771],[-9.3914,52.576],[-9.359,52.6179],[-9.3837,52.6131],[-9.4345,52.612],[-9.4755,52.6196],[-9.4907,52.6341],[-9.5249,52.637],[-9.5304,52.6455],[-9.5599,52.6533],[-9.5656,52.6515],[-9.5528,52.6393],[-9.6284,52.6176],[-9.6509,52.6135],[-9.6971,52.6001],[-9.7069,52.5802],[-9.7575,52.572],[-9.9363,52.5567],[-9.9082,52.5706],[-9.9161,52.5701],[-9.916,52.5701],[-9.9165,52.5701],[-9.916,52.5703],[-9.9163,52.5703],[-9.9158,52.5705],[-9.9161,52.5705],[-9.916,52.5705],[-9.9165,52.5705],[-9.7401,52.6486],[-9.6235,52.7175],[-9.6284,52.7274],[-9.5807,52.7434],[-9.5798,52.7433],[-9.5169,52.7805],[-9.4911,52.8027],[-9.4913,52.8032],[-9.4896,52.804],[-9.4665,52.8239],[-9.4288,52.8621],[-9.4275,52.8778],[-9.3948,52.8969],[-9.4161,52.9277],[-9.4325,52.9344],[-9.4514,52.9346],[-9.4777,52.9403],[-9.4525,52.9569],[-9.4188,52.9883],[-9.3416,53.077],[-9.3199,53.0911],[-9.2975,53.1172],[-9.3088,53.1391],[-9.3233,53.1674],[-9.3379,53.1958],[-9.3401,53.2],[-9.3607,53.2401],[-9.3715,53.2396],[-9.4342,53.2367],[-9.4479,53.2319],[-9.5117,53.2283],[-9.5447,53.2485],[-9.5565,53.2523],[-9.5787,53.2692],[-9.5852,53.2504],[-9.6123,53.2362],[-9.6284,53.2556],[-9.6091,53.2763],[-9.6173,53.3215],[-9.6031,53.323],[-9.6033,53.3235],[-9.6249,53.3339],[-9.7001,53.3339],[-9.7307,53.3273],[-9.7431,53.3144],[-9.8067,53.3016],[-9.8429,53.3233],[-9.8866,53.3172],[-9.8979,53.3279],[-9.8872,53.3592],[-9.8413,53.3679],[-9.8065,53.3873],[-9.7946,53.3948],[-9.8549,53.4017],[-9.8754,53.3952],[-9.8755,53.4041],[-9.8983,53.4068],[-9.9177,53.4048],[-9.9224,53.3892],[-9.9614,53.3796],[-10.0257,53.3854],[-10.0431,53.4034],[-10.0804,53.4098],[-10.1276,53.4099],[-10.1418,53.4195],[-10.1765,53.4127],[-10.157,53.4396],[-10.1213,53.4474],[-10.0928,53.4455],[-10.0653,53.4684],[-10.0871,53.4815],[-10.0558,53.4763],[-10.0536,53.4782],[-10.0645,53.4845],[-10.0694,53.4848],[-10.1282,53.5089],[-10.1527,53.5436],[-10.1935,53.538],[-10.1803,53.5555],[-10.1156,53.5504],[-10.1087,53.5527],[-10.1151,53.5703],[-10.0675,53.5664],[-10.0605,53.5687],[-10.0602,53.5687],[-10.0601,53.5687],[-10.0028,53.5617],[-9.9799,53.5671],[-10.0468,53.5993],[-10.0087,53.6044],[-9.9307,53.5998],[-9.8544,53.6181],[-9.8229,53.6064],[-9.7562,53.6021],[-9.7234,53.605],[-9.7402,53.6085],[-9.7838,53.6063],[-9.8273,53.6162],[-9.9084,53.6461],[-9.9227,53.6907],[-9.9167,53.7121],[-9.9057,53.7285],[-9.8995,53.7438],[-9.9084,53.7621],[-9.8989,53.7661],[-9.861,53.7702],[-9.8339,53.7764],[-9.7995,53.7803],[-9.7834,53.7871],[-9.7562,53.7778],[-9.7437,53.7822],[-9.6457,53.7956],[-9.6897,53.8813],[-9.6895,53.8814],[-9.6897,53.8817],[-9.6814,53.8864],[-9.747,53.8912],[-9.8179,53.8793],[-9.8566,53.8663],[-9.9108,53.8587],[-9.9438,53.8794],[-9.9314,53.8852],[-9.9252,53.913],[-9.9084,53.9204],[-9.9116,53.934],[-9.9084,53.9471],[-9.9159,53.9471],[-9.9159,53.9538],[-9.8825,53.9591],[-9.8566,54.0023],[-9.8777,54.0019],[-9.8844,54.0117],[-9.8989,54.0253],[-9.9023,54.0402],[-9.8977,54.0551],[-9.8734,54.0622],[-9.8619,54.0712],[-9.8759,54.0749],[-9.8761,54.0806],[-9.8548,54.0909],[-9.8549,54.0915],[-9.8573,54.0937],[-9.8983,54.0838],[-9.9174,54.0697],[-9.9455,54.0662],[-9.9707,54.0786],[-9.991,54.1047],[-9.9715,54.1042],[-9.9401,54.1097],[-9.9445,54.1361],[-9.9511,54.1413],[-9.9569,54.1531],[-9.9531,54.152],[-9.9701,54.1757],[-9.9773,54.1805],[-9.972,54.1783],[-9.9776,54.1862],[-10.0394,54.1695],[-10.0394,54.1668],[-10.0499,54.1666],[-10.0871,54.1566],[-10.0871,54.1531],[-10.0741,54.1502],[-10.0692,54.1443],[-10.0666,54.1252],[-10.0752,54.1249],[-10.0946,54.1184],[-10.0815,54.113],[-10.0691,54.1037],[-10.0669,54.0949],[-10.084,54.0911],[-10.1026,54.0918],[-10.1174,54.0959],[-10.1266,54.106],[-10.1282,54.1252],[-10.1222,54.137],[-10.0996,54.1655],[-10.0946,54.177],[-10.0912,54.195],[-10.0905,54.1955],[-10.0893,54.2162],[-10.0845,54.2224],[-10.0911,54.2225],[-10.1038,54.2262],[-10.1151,54.2351],[-10.0961,54.2352],[-10.087,54.2443],[-10.0735,54.2692],[-10.0625,54.2751],[-10.0183,54.2903],[-10.0076,54.3035],[-9.9919,54.3007],[-9.9847,54.2835],[-9.9545,54.272],[-9.9368,54.2707],[-9.9227,54.2766],[-9.9121,54.2683],[-9.8921,54.2683],[-9.8885,54.2692],[-9.8874,54.2683],[-9.8616,54.2683],[-9.859,54.2706],[-9.8439,54.2766],[-9.8221,54.2729],[-9.8177,54.271],[-9.7992,54.2766],[-9.7992,54.2835],[-9.78,54.2863],[-9.7713,54.2852],[-9.7669,54.2865],[-9.7768,54.29],[-9.8292,54.2969],[-9.8401,54.3071],[-9.846,54.3214],[-9.844,54.3288],[-9.7855,54.3381],[-9.7643,54.3349],[-9.7263,54.3208],[-9.7069,54.3176],[-9.5354,54.3102],[-9.5055,54.3164],[-9.4857,54.3159],[-9.4656,54.3048],[-9.3679,54.3014],[-9.3626,54.3027],[-9.3342,54.3183],[-9.322,54.3171],[-9.261,54.2997],[-9.2528,54.281],[-9.2477,54.2766],[-9.2196,54.2806],[-9.211,54.2756],[-9.2095,54.2676],[-9.2176,54.2556],[-9.2176,54.2487],[-9.1959,54.2425],[-9.1959,54.2361],[-9.1459,54.2094],[-9.1029,54.2249],[-9.0787,54.2451],[-9.0513,54.2895],[-9.0175,54.2919],[-8.9851,54.2874],[-8.7691,54.4118],[-8.661,54.4741],[-8.607,54.5051],[-8.58,54.5207],[-8.553,54.5362],[-8.526,54.5518],[-8.4989,54.5674],[-8.4449,54.5985],[-8.4185,54.6137],[-8.4449,54.6112],[-8.4577,54.6099],[-8.4615,54.6029],[-8.4699,54.6126],[-8.5275,54.626],[-8.5535,54.6226],[-8.564,54.6088],[-8.5969,54.6193],[-8.6726,54.6195],[-8.6914,54.6413],[-8.7742,54.6599],[-8.7955,54.6984],[-8.7552,54.7058],[-8.7333,54.7326],[-8.6366,54.7685],[-8.6154,54.7682],[-8.5377,54.7839],[-8.5269,54.8099],[-8.5218,54.812],[-8.5544,54.8275],[-8.5249,54.8315],[-8.4907,54.852],[-8.471,54.8405],[-8.4586,54.8412],[-8.3837,54.8871],[-8.4326,54.9016],[-8.4634,54.9408],[-8.4184,54.9346],[-8.4009,54.9392],[-8.4117,54.964],[-8.4116,54.9642],[-8.4117,54.9644],[-8.4114,54.9654],[-8.4566,54.9954],[-8.4377,55.0098],[-8.415,55.0029],[-8.4032,55.0307],[-8.374,55.0364],[-8.3545,55.0605],[-8.3393,55.049],[-8.3253,55.0564],[-8.3137,55.0843],[-8.3204,55.1049],[-8.2785,55.1605],[-8.2297,55.1513],[-8.1434,55.1601],[-8.1413,55.1605],[-8.1414,55.1603],[-8.1381,55.1606],[-8.019,55.1916],[-7.9996,55.2196],[-7.9502,55.2103],[-7.981,55.1935],[-7.9579,55.1918],[-7.8552,55.1976],[-7.8661,55.2149],[-7.7987,55.2561],[-7.7912,55.2487],[-7.8142,55.2019],[-7.8133,55.1999],[-7.8033,55.2005],[-7.8032,55.2005],[-7.8029,55.2005],[-7.7494,55.1867],[-7.7502,55.1899],[-7.7917,55.206],[-7.7609,55.2561],[-7.7251,55.2527],[-7.6735,55.2739],[-7.644,55.2728],[-7.6114,55.2414],[-7.6178,55.2141],[-7.6123,55.2011],[-7.5727,55.181],[-7.5525,55.1447],[-7.5317,55.1345],[-7.498,55.1361],[-7.5009,55.1446],[-7.5333,55.1932],[-7.5332,55.1935],[-7.5333,55.1936],[-7.5333,55.1937],[-7.5414,55.1981],[-7.5494,55.2252],[-7.5271,55.2368],[-7.5136,55.2744],[-7.5243,55.2903],[-7.4786,55.2839],[-7.4691,55.3039],[-7.4086,55.2876],[-7.4039,55.2881],[-7.3678,55.3106],[-7.3275,55.3085],[-7.318,55.2978],[-7.3033,55.2995],[-7.3155,55.3109],[-7.3207,55.3133],[-7.3507,55.3352],[-7.3516,55.3448],[-7.3677,55.3598],[-7.3673,55.3598],[-7.3675,55.36],[-7.3677,55.3602],[-7.3585,55.361],[-7.4002,55.3803],[-7.3844,55.3864],[-7.2473,55.3572],[-7.1954,55.3386],[-7.1599,55.3074],[-7.1549,55.3047],[-7.0706,55.2718],[-7.0419,55.2689],[-6.9757,55.2487],[-6.9535,55.2543],[-6.9428,55.2186],[-7.0225,55.1996],[-7.0577,55.1776],[-7.1131,55.1584],[-7.1252,55.1542],[-7.1131,55.1548],[-7.0772,55.1565],[-7.0413,55.1582],[-7.0054,55.16],[-6.9694,55.1617],[-6.9626,55.1946],[-6.9467,55.1954],[-6.9182,55.1858],[-6.8889,55.1884],[-6.8887,55.1884],[-6.8885,55.1884],[-6.8239,55.1814],[-6.6981,55.1936],[-6.6857,55.1962],[-6.6405,55.2083],[-6.6251,55.2089],[-6.5452,55.2257],[-6.5198,55.2407],[-6.4759,55.2487],[-6.4482,55.2409],[-6.3894,55.2419],[-6.3782,55.2462],[-6.3529,55.2426],[-6.3268,55.2341],[-6.2333,55.2179],[-6.18,55.2179],[-6.16,55.2219],[-6.1352,55.2179],[-6.1289,55.2179],[-6.1273,55.2166],[-6.101,55.2124],[-6.0472,55.1785],[-6.0371,55.1679],[-6.0384,55.1474],[-6.0353,55.145],[-5.9986,55.0616],[-5.981,55.0557],[-5.9683,55.0439],[-5.9702,55.0258],[-5.9735,55.0191],[-5.9188,54.9646],[-5.9066,54.958],[-5.8863,54.9408],[-5.8756,54.9217],[-5.8697,54.9158],[-5.7829,54.8604],[-5.7817,54.8617],[-5.7516,54.8569],[-5.7206,54.841],[-5.702,54.8247],[-5.6898,54.7931],[-5.6921,54.7705],[-5.6926,54.7652],[-5.7069,54.743],[-5.7293,54.7285],[-5.7589,54.7199],[-5.7981,54.7131],[-5.8697,54.6882],[-5.8715,54.6873],[-5.8779,54.6823],[-5.8794,54.6811],[-5.8577,54.6687]]],[[[-7.4427,56.9616],[-7.4453,56.9471],[-7.4766,56.9419],[-7.5568,56.9531],[-7.5449,56.9723],[-7.5441,56.9726],[-7.544,56.9728],[-7.5441,56.973],[-7.5233,57.0064],[-7.5243,57.0102],[-7.4571,57.0316],[-7.4492,57.0586],[-7.4144,57.0449],[-7.435,57.0238],[-7.394,57.0102],[-7.382,56.9875],[-7.4045,56.9784],[-7.4177,56.9656],[-7.4427,56.9616]]],[[[-7.249,57.1322],[-7.2159,57.1138],[-7.2391,57.1005],[-7.3217,57.1099],[-7.353,57.0996],[-7.3907,57.1291],[-7.4167,57.1816],[-7.4157,57.1974],[-7.4197,57.2189],[-7.4554,57.2367],[-7.435,57.2519],[-7.41,57.296],[-7.4076,57.2979],[-7.4073,57.2993],[-7.4096,57.3512],[-7.4281,57.3876],[-7.353,57.408],[-7.2636,57.3739],[-7.2665,57.3718],[-7.2656,57.3597],[-7.2226,57.3398],[-7.2504,57.3319],[-7.2639,57.3367],[-7.2632,57.3276],[-7.2438,57.3255],[-7.2003,57.291],[-7.2332,57.2743],[-7.2566,57.2368],[-7.249,57.1322]]],[[[-7.129,57.5903],[-7.106,57.593],[-7.15,57.5617],[-7.1568,57.5613],[-7.1681,57.5496],[-7.1339,57.5384],[-7.1575,57.5111],[-7.2875,57.5088],[-7.3185,57.517],[-7.3376,57.5391],[-7.4472,57.5773],[-7.4709,57.5672],[-7.5448,57.593],[-7.5222,57.6084],[-7.5109,57.6217],[-7.5009,57.6361],[-7.4961,57.639],[-7.4766,57.6619],[-7.4553,57.6555],[-7.4422,57.6567],[-7.4397,57.657],[-7.4396,57.657],[-7.3871,57.6619],[-7.4115,57.6498],[-7.3927,57.6449],[-7.3724,57.6505],[-7.3121,57.6885],[-7.3325,57.6619],[-7.332,57.6618],[-7.3245,57.6639],[-7.3242,57.6639],[-7.3241,57.6639],[-7.2704,57.657],[-7.2701,57.6572],[-7.2773,57.6619],[-7.2091,57.686],[-7.1817,57.6885],[-7.1654,57.6699],[-7.1714,57.6661],[-7.146,57.6535],[-7.1294,57.6529],[-7.0926,57.6521],[-7.0651,57.634],[-7.0992,57.6073],[-7.1085,57.6117],[-7.129,57.5903]]],[[[-7.0467,57.8283],[-6.9623,57.8688],[-6.9556,57.8687],[-6.9466,57.8859],[-6.9626,57.8947],[-6.9116,57.9106],[-6.8944,57.9106],[-6.8655,57.9211],[-6.8658,57.9213],[-6.8579,57.9255],[-6.8637,57.9326],[-6.8738,57.9356],[-6.8971,57.9356],[-6.9521,57.9567],[-7.0363,57.9606],[-7.1128,57.9902],[-7.0582,58.025],[-7.0294,58.029],[-7.0036,58.0421],[-7.0287,58.0384],[-7.0582,58.0386],[-7.0519,58.0585],[-7.0375,58.0694],[-7.0401,58.0715],[-7.0452,58.0725],[-7.0756,58.0622],[-7.1265,58.124],[-7.1128,58.1553],[-7.093,58.1684],[-7.1128,58.182],[-7.0841,58.1842],[-7.0489,58.1998],[-7.0539,58.2014],[-7.0561,58.2257],[-7.0309,58.2447],[-6.9773,58.2274],[-6.9073,58.2168],[-6.9371,58.211],[-6.937,58.2109],[-6.885,58.1831],[-6.8729,58.1854],[-6.8695,58.1894],[-6.7985,58.2024],[-6.7769,58.194],[-6.7269,58.1899],[-6.7245,58.1956],[-6.7429,58.2031],[-6.7526,58.2248],[-6.7838,58.2304],[-6.8118,58.2646],[-6.7912,58.2714],[-6.8186,58.2851],[-6.7443,58.3201],[-6.7413,58.3219],[-6.7393,58.3225],[-6.737,58.3236],[-6.7156,58.3397],[-6.6636,58.3457],[-6.5433,58.3826],[-6.3277,58.4744],[-6.2674,58.512],[-6.2231,58.4992],[-6.1669,58.4195],[-6.1924,58.4091],[-6.1952,58.404],[-6.1973,58.3631],[-6.1992,58.3605],[-6.1675,58.3465],[-6.228,58.3219],[-6.3076,58.2154],[-6.2432,58.223],[-6.1948,58.2509],[-6.1611,58.259],[-6.16,58.2168],[-6.2153,58.1894],[-6.2474,58.1855],[-6.2936,58.1994],[-6.3209,58.1975],[-6.3269,58.1895],[-6.3737,58.1843],[-6.3787,58.1797],[-6.3661,58.1621],[-6.373,58.1411],[-6.4412,58.1274],[-6.4747,58.1052],[-6.5146,58.1066],[-6.5507,58.0934],[-6.5511,58.0932],[-6.5514,58.0931],[-6.5526,58.0927],[-6.4688,58.0927],[-6.394,58.1018],[-6.3661,58.0585],[-6.3895,58.0412],[-6.3524,58.0386],[-6.4009,58.0073],[-6.4245,58.0039],[-6.4524,58.0065],[-6.4882,57.988],[-6.4555,57.9765],[-6.5076,57.936],[-6.5511,57.9431],[-6.5375,57.9213],[-6.5784,57.9172],[-6.5989,57.9353],[-6.6185,57.9294],[-6.6125,57.9213],[-6.6397,57.9231],[-6.6761,57.9122],[-6.6678,57.9083],[-6.661,57.8803],[-6.7136,57.8874],[-6.7539,57.8573],[-6.7367,57.8394],[-6.7556,57.8265],[-6.8061,57.8146],[-6.8364,57.8267],[-6.8484,57.8267],[-6.8391,57.8127],[-6.8875,57.7848],[-6.8733,57.778],[-6.9551,57.7438],[-6.9808,57.7351],[-7.1019,57.8115],[-7.1251,57.8369],[-7.0886,57.8334],[-7.0801,57.8145],[-7.0467,57.8283]]],[[[-6.2626,57.0102],[-6.2432,57.0102],[-6.2567,56.9738],[-6.3036,56.944],[-6.3598,56.9473],[-6.372,56.9653],[-6.3849,56.9709],[-6.3916,56.9776],[-6.4555,57.004],[-6.4316,57.0176],[-6.4317,57.0177],[-6.4314,57.0178],[-6.4317,57.0181],[-6.4293,57.0188],[-6.3642,57.0557],[-6.3252,57.0586],[-6.251,57.0266],[-6.2652,57.0143],[-6.2626,57.0102]]],[[[-2.9214,58.7694],[-2.911,58.7487],[-2.9399,58.7307],[-2.9878,58.7574],[-2.9818,58.7639],[-3.0339,58.8201],[-3.0356,58.8201],[-3.0356,58.8219],[-3.0368,58.8232],[-3.0365,58.8232],[-3.0368,58.8236],[-3.0356,58.8237],[-3.0356,58.8263],[-2.953,58.84],[-2.8837,58.8322],[-2.9001,58.8203],[-2.914,58.7989],[-2.9214,58.7694]]],[[[-3.3914,58.8701],[-3.4302,58.8748],[-3.4163,58.9083],[-3.3494,58.9285],[-3.2796,58.9067],[-3.2704,58.9052],[-3.2687,58.9033],[-3.2461,58.8962],[-3.1932,58.8536],[-3.2074,58.84],[-3.1727,58.8201],[-3.214,58.8145],[-3.2128,58.8132],[-3.1741,58.8045],[-3.1601,58.808],[-3.1317,58.8065],[-3.1563,58.7868],[-3.2059,58.779],[-3.2993,58.7791],[-3.3209,58.8088],[-3.368,58.8388],[-3.3914,58.8701]]],[[[-3.0716,58.93],[-3.0703,58.9287],[-3.0792,58.9291],[-3.1062,58.9258],[-3.118,58.9157],[-3.1426,58.9212],[-3.1496,58.9206],[-3.166,58.9186],[-3.1662,58.9186],[-3.1664,58.9186],[-3.1682,58.9189],[-3.2028,58.9159],[-3.2279,58.9287],[-3.2353,58.9726],[-3.2312,58.9774],[-3.2312,58.9898],[-3.2419,59.0001],[-3.2609,58.9899],[-3.257,58.9783],[-3.2894,58.9504],[-3.3232,58.9572],[-3.3533,58.9828],[-3.3667,59.0161],[-3.3498,59.0434],[-3.3464,59.0649],[-3.3458,59.066],[-3.3502,59.098],[-3.3238,59.1274],[-3.2793,59.1435],[-3.2311,59.1484],[-3.1562,59.1422],[-3.1232,59.1248],[-3.121,59.1241],[-3.0845,59.128],[-3.0492,59.1081],[-3.0627,59.1037],[-3.0508,59.0996],[-3.034,59.0879],[-2.9945,59.0733],[-2.9945,59.0597],[-3.0241,59.0535],[-3.058,59.0298],[-3.0686,59.0058],[-3.0333,59.0058],[-3.012,59.0174],[-2.9849,59.0042],[-2.9681,59.001],[-2.9331,59.0113],[-2.8837,58.9849],[-2.8437,58.9829],[-2.8312,58.9877],[-2.7902,58.9923],[-2.7819,58.9739],[-2.7921,58.9696],[-2.7746,58.9612],[-2.7277,58.9709],[-2.7076,58.959],[-2.7065,58.9324],[-2.785,58.9107],[-2.808,58.888],[-2.8393,58.8826],[-2.915,58.8991],[-2.9372,58.9132],[-2.9447,58.9211],[-2.9935,58.9395],[-3.0716,58.93]]],[[[-2.7599,59.1777],[-2.7589,59.1642],[-2.7345,59.1484],[-2.7814,59.1414],[-2.8002,59.1664],[-2.8168,59.1617],[-2.8169,59.1618],[-2.8172,59.1617],[-2.8532,59.1825],[-2.8604,59.2468],[-2.8627,59.2474],[-2.8854,59.2304],[-2.8749,59.2507],[-2.9648,59.2745],[-2.9792,59.2795],[-2.9824,59.2699],[-3.0151,59.2749],[-3.0492,59.3198],[-3.0771,59.3341],[-3.0435,59.3341],[-2.9913,59.3446],[-2.9652,59.3609],[-2.9464,59.3496],[-2.9541,59.337],[-2.86,59.2888],[-2.8132,59.2402],[-2.7918,59.2366],[-2.7919,59.237],[-2.78,59.2346],[-2.7304,59.2263],[-2.7196,59.2194],[-2.7197,59.2191],[-2.7196,59.219],[-2.7304,59.186],[-2.7599,59.1777]]],[[[-2.4922,59.2501],[-2.5148,59.2304],[-2.5232,59.24],[-2.5504,59.2311],[-2.566,59.2309],[-2.5768,59.2242],[-2.5744,59.2307],[-2.6268,59.2299],[-2.6619,59.2071],[-2.688,59.218],[-2.6611,59.2294],[-2.662,59.2294],[-2.6624,59.2294],[-2.662,59.2298],[-2.6624,59.2298],[-2.6076,59.2859],[-2.6116,59.293],[-2.5472,59.3057],[-2.5394,59.3037],[-2.5364,59.3044],[-2.5361,59.3044],[-2.536,59.3044],[-2.438,59.2992],[-2.411,59.319],[-2.3925,59.2855],[-2.4181,59.283],[-2.428,59.2711],[-2.4922,59.2501]]],[[[-1.0887,60.3239],[-1.0753,60.321],[-1.0929,60.3125],[-1.1055,60.2784],[-1.0898,60.2725],[-1.1117,60.2617],[-1.132,60.2068],[-1.1459,60.1878],[-1.144,60.1876],[-1.1541,60.1749],[-1.1553,60.169],[-1.1238,60.1558],[-1.1517,60.1496],[-1.1605,60.1426],[-1.1644,60.1234],[-1.1788,60.113],[-1.1868,60.0737],[-1.1647,60.0602],[-1.1852,60.0383],[-1.194,60.0387],[-1.2,60.0091],[-1.1926,59.9975],[-1.2012,59.9864],[-1.2197,59.9909],[-1.2436,59.9707],[-1.2485,59.9603],[-1.2746,59.8821],[-1.2746,59.8542],[-1.2948,59.8804],[-1.2976,59.8787],[-1.2978,59.8788],[-1.298,59.8787],[-1.3178,59.89],[-1.3479,59.892],[-1.376,59.9086],[-1.364,59.9373],[-1.339,59.9491],[-1.3332,59.962],[-1.3497,59.9709],[-1.3266,59.9768],[-1.3243,59.9818],[-1.3287,59.9955],[-1.3045,60.026],[-1.3012,60.0335],[-1.2893,60.0706],[-1.2765,60.115],[-1.2908,60.1529],[-1.3232,60.1877],[-1.408,60.1894],[-1.4136,60.177],[-1.4305,60.1848],[-1.431,60.1847],[-1.4554,60.1562],[-1.4943,60.1701],[-1.5273,60.1929],[-1.5095,60.2099],[-1.4982,60.2118],[-1.4996,60.2224],[-1.5106,60.2277],[-1.5133,60.2217],[-1.5368,60.2109],[-1.5482,60.2297],[-1.6151,60.2157],[-1.6697,60.2396],[-1.6902,60.2851],[-1.6574,60.3062],[-1.6029,60.3135],[-1.5766,60.299],[-1.5752,60.2992],[-1.5749,60.2992],[-1.5748,60.2992],[-1.5617,60.298],[-1.5558,60.3066],[-1.521,60.2998],[-1.5284,60.3135],[-1.4814,60.3165],[-1.4676,60.3085],[-1.4673,60.302],[-1.4585,60.305],[-1.4596,60.3066],[-1.446,60.321],[-1.4097,60.3216],[-1.3738,60.3338],[-1.427,60.4292],[-1.439,60.4308],[-1.4418,60.4557],[-1.4492,60.4689],[-1.4668,60.471],[-1.4801,60.4575],[-1.4991,60.4691],[-1.4931,60.4742],[-1.55,60.4811],[-1.5578,60.4861],[-1.572,60.4768],[-1.6094,60.4833],[-1.5862,60.5121],[-1.5615,60.5107],[-1.5484,60.5394],[-1.514,60.5578],[-1.4948,60.534],[-1.4593,60.5625],[-1.458,60.5639],[-1.4571,60.5642],[-1.4157,60.5975],[-1.4187,60.6083],[-1.3669,60.6123],[-1.3599,60.6098],[-1.3247,60.6089],[-1.3262,60.6112],[-1.3014,60.6431],[-1.2935,60.5932],[-1.3014,60.5648],[-1.306,60.5606],[-1.3084,60.5369],[-1.289,60.4746],[-1.272,60.4843],[-1.2663,60.4748],[-1.2368,60.4849],[-1.2367,60.4848],[-1.2364,60.4849],[-1.2355,60.4841],[-1.2175,60.498],[-1.1863,60.4822],[-1.1517,60.4308],[-1.1737,60.4313],[-1.1572,60.4172],[-1.118,60.4172],[-1.1109,60.4202],[-1.1034,60.4308],[-1.1006,60.4246],[-1.0836,60.432],[-1.0727,60.4445],[-1.0344,60.4506],[-1.0487,60.4333],[-1.0565,60.4287],[-1.0672,60.3821],[-1.0887,60.3239]]],[[[-0.9948,60.6735],[-0.9797,60.6567],[-0.9935,60.6356],[-1.0315,60.6557],[-1.0456,60.6547],[-1.048,60.6488],[-1.0139,60.6151],[-1.0379,60.6041],[-1.0356,60.5958],[-1.0207,60.5941],[-1.0111,60.5777],[-1.0348,60.5587],[-1.0348,60.5404],[-1.0207,60.5155],[-1.0317,60.5007],[-1.0656,60.5027],[-1.0672,60.5019],[-1.0673,60.502],[-1.0676,60.5019],[-1.0685,60.5028],[-1.1077,60.5051],[-1.097,60.4923],[-1.1539,60.5084],[-1.1678,60.5305],[-1.18,60.6247],[-1.1714,60.646],[-1.1381,60.6492],[-1.1384,60.6473],[-1.1226,60.6729],[-1.1204,60.6969],[-1.0921,60.7353],[-1.0718,60.7202],[-1.0674,60.72],[-1.0576,60.7297],[-0.9935,60.7311],[-1.0005,60.7055],[-0.9994,60.7032],[-0.9872,60.6977],[-0.992,60.6872],[-0.9916,60.6863],[-0.9917,60.686],[-0.9916,60.6859],[-0.9948,60.6735]]],[[[-0.9291,60.7882],[-0.9388,60.8001],[-0.9189,60.8081],[-0.9164,60.8113],[-0.9051,60.8136],[-0.9042,60.814],[-0.8815,60.845],[-0.8603,60.8376],[-0.8603,60.8129],[-0.8675,60.8069],[-0.8658,60.8062],[-0.8439,60.8194],[-0.8318,60.8403],[-0.7828,60.8382],[-0.7607,60.8001],[-0.7813,60.7908],[-0.8034,60.7535],[-0.8017,60.7448],[-0.8119,60.7392],[-0.826,60.7154],[-0.826,60.6898],[-0.8219,60.685],[-0.8462,60.676],[-0.9047,60.684],[-0.9662,60.6902],[-0.9662,60.725],[-0.9432,60.726],[-0.9525,60.7523],[-0.9358,60.756],[-0.9291,60.7882]]],[[[-2.5496,49.5042],[-2.5382,49.5098],[-2.5182,49.5155],[-2.5017,49.5067],[-2.5058,49.498],[-2.5127,49.4903],[-2.5245,49.4688],[-2.5267,49.4585],[-2.5341,49.4362],[-2.5456,49.4301],[-2.5468,49.4279],[-2.5472,49.428],[-2.5472,49.4279],[-2.549,49.4283],[-2.5521,49.4267],[-2.5731,49.4309],[-2.6693,49.4309],[-2.6735,49.4335],[-2.663,49.4438],[-2.6518,49.4452],[-2.6566,49.4594],[-2.6503,49.4637],[-2.6464,49.464],[-2.648,49.4678],[-2.6479,49.4679],[-2.648,49.4682],[-2.5825,49.4922],[-2.5802,49.4936],[-2.5736,49.4954],[-2.5496,49.5042]]],[[[-10.1326,53.9654],[-10.1628,53.9614],[-10.1902,53.9635],[-10.2395,53.9747],[-10.2659,53.975],[-10.2659,53.9818],[-10.2579,53.982],[-10.1917,54.0126],[-10.1896,54.016],[-10.1875,54.0145],[-10.1829,54.0166],[-10.1826,54.0165],[-10.1825,54.0166],[-10.1626,54.0118],[-10.1561,54.016],[-10.1442,54.0074],[-10.1393,54.0062],[-10.1063,54.0058],[-10.0837,54.0161],[-10.0632,54.0228],[-9.9759,54.0211],[-9.9569,54.016],[-9.9363,53.9892],[-9.9569,53.9892],[-9.9563,53.9874],[-9.9557,53.9871],[-9.9555,53.9847],[-9.9543,53.9811],[-9.9549,53.9793],[-9.9527,53.9567],[-9.9405,53.9599],[-9.9227,53.9538],[-9.9227,53.9471],[-9.9307,53.9393],[-9.9374,53.9235],[-9.9402,53.906],[-9.9363,53.8925],[-9.958,53.8806],[-9.9768,53.8869],[-9.9958,53.901],[-10.0183,53.9129],[-10.0448,53.9121],[-10.0555,53.9137],[-10.0598,53.9235],[-10.0547,53.9489],[-10.0641,53.9589],[-10.1326,53.9654]]],[[[-4.6434,54.0659],[-4.6564,54.0638],[-4.6907,54.0788],[-4.6963,54.0804],[-4.7264,54.0758],[-4.7662,54.0592],[-4.7902,54.0638],[-4.7778,54.0721],[-4.7864,54.0735],[-4.7861,54.0739],[-4.7864,54.0739],[-4.7706,54.0919],[-4.7709,54.0968],[-4.7537,54.1111],[-4.7468,54.119],[-4.7278,54.1619],[-4.7277,54.1726],[-4.7103,54.2206],[-4.7007,54.2233],[-4.7,54.2249],[-4.6137,54.2666],[-4.6136,54.2666],[-4.5815,54.3008],[-4.5546,54.3392],[-4.531,54.3661],[-4.4954,54.3859],[-4.442,54.4044],[-4.3678,54.419],[-4.3513,54.4138],[-4.3702,54.3765],[-4.3521,54.3201],[-4.3247,54.3102],[-4.3119,54.2872],[-4.3483,54.2595],[-4.3656,54.2351],[-4.3937,54.2242],[-4.3974,54.2161],[-4.3908,54.1947],[-4.4126,54.1801],[-4.4252,54.1761],[-4.4749,54.1448],[-4.4746,54.1408],[-4.4926,54.1337],[-4.6106,54.0594],[-4.6121,54.057],[-4.6128,54.058],[-4.6132,54.0578],[-4.6135,54.0579],[-4.6136,54.0578],[-4.6434,54.0659]]],[[[-2.0158,49.2196],[-2.0083,49.2125],[-2.014,49.2072],[-2.0104,49.1818],[-2.0105,49.1818],[-2.0104,49.1814],[-2.0237,49.1777],[-2.0245,49.1713],[-2.0354,49.1744],[-2.0536,49.1693],[-2.0537,49.1694],[-2.054,49.1693],[-2.0734,49.1786],[-2.08,49.1787],[-2.097,49.1837],[-2.1013,49.1866],[-2.1626,49.1866],[-2.1687,49.1783],[-2.1772,49.1802],[-2.1826,49.1841],[-2.2372,49.1762],[-2.2372,49.1763],[-2.2376,49.1762],[-2.2375,49.1766],[-2.2376,49.1766],[-2.2296,49.2165],[-2.2332,49.2285],[-2.242,49.248],[-2.2411,49.2602],[-2.2294,49.263],[-2.2209,49.2605],[-2.2196,49.2669],[-2.2192,49.2669],[-2.1618,49.2618],[-2.1517,49.267],[-2.1438,49.2619],[-2.122,49.2583],[-2.1218,49.2582],[-2.1059,49.2568],[-2.1039,49.2582],[-2.0827,49.2602],[-2.0679,49.2507],[-2.0207,49.2353],[-2.021,49.2333],[-2.0176,49.2321],[-2.0158,49.2196]]]]}},
{"type":"Feature","properties":{"entityId":"uk","from":1922,"to":null,"certainty":"estimated","source":"유럽 쪽은 Natural Earth 1:10m admin-1(v5.1.2) 현대 행정구역 조각을 그 시기 국경에 맞춰 묶고, 조각이 역사 경계와 다른 곳은 선을 그어 나눈 근사. 유럽 밖(시베리아·중앙아시아·극동)은 대략적인 추정. 운영자 검수 필요"},"geometry":{"type":"MultiPolygon","coordinates":[[[[-2.0653,57.1005],[-2.1335,57.0406],[-2.1908,56.9595],[-2.1968,56.9405],[-2.1864,56.9145],[-2.2175,56.8756],[-2.2192,56.8703],[-2.3561,56.7338],[-2.3915,56.6986],[-2.4769,56.6134],[-2.6085,56.4823],[-2.6406,56.4503],[-2.6903,56.4007],[-2.74,56.3512],[-2.7418,56.3494],[-2.74,56.3488],[-2.6807,56.3285],[-2.6772,56.3284],[-2.6671,56.3239],[-2.6512,56.3185],[-2.6513,56.3181],[-2.6512,56.3181],[-2.6516,56.317],[-2.5768,56.2839],[-2.6301,56.2485],[-2.6483,56.2287],[-2.7202,56.2163],[-2.7836,56.192],[-2.8307,56.1907],[-2.8557,56.1981],[-2.8952,56.1965],[-2.9785,56.1135],[-3.0002,56.0919],[-3.0507,56.0416],[-3.0759,56.0164],[-3.1012,55.9912],[-3.1188,55.9737],[-3.1012,55.9726],[-3.0708,55.9707],[-3.0404,55.9688],[-2.9971,55.9661],[-2.9796,55.9729],[-2.8628,56.0177],[-2.871,56.0307],[-2.8231,56.0598],[-2.8028,56.0648],[-2.6351,56.0581],[-2.616,56.0532],[-2.5694,56.0245],[-2.5728,56.0193],[-2.5172,56.0042],[-2.5079,56.0102],[-2.4597,55.9885],[-2.438,55.9826],[-2.4144,55.9783],[-2.4041,55.9734],[-2.2322,55.9267],[-2.1468,55.9173],[-2.144,55.913],[-2.086,55.9094],[-2.0517,55.864],[-2.0102,55.8092],[-1.9995,55.795],[-1.9929,55.7902],[-1.9595,55.7661],[-1.8304,55.6727],[-1.7751,55.6432],[-1.7686,55.6419],[-1.7646,55.6376],[-1.7296,55.6189],[-1.7183,55.6116],[-1.6991,55.613],[-1.6308,55.5851],[-1.6347,55.5644],[-1.6172,55.5503],[-1.6308,55.5373],[-1.6029,55.5236],[-1.6113,55.508],[-1.5849,55.4837],[-1.5817,55.4215],[-1.5208,55.2596],[-1.4974,55.2037],[-1.4519,55.0948],[-1.4406,55.0676],[-1.4301,55.0425],[-1.4285,55.0404],[-1.4079,55.0132],[-1.3873,54.986],[-1.3702,54.9755],[-1.3627,54.9648],[-1.3635,54.9545],[-1.3311,54.9116],[-1.3272,54.9065],[-1.2987,54.8688],[-1.2339,54.7831],[-1.2337,54.7829],[-1.2014,54.7402],[-1.1691,54.6975],[-1.1647,54.6917],[-1.1367,54.6547],[-1.1327,54.6494],[-1.1279,54.648],[-0.8917,54.5796],[-0.7879,54.5608],[-0.7788,54.5574],[-0.6939,54.5259],[-0.43,54.4639],[-0.3892,54.3884],[-0.309,54.24],[-0.2368,54.1933],[-0.232,54.1902],[-0.1987,54.1741],[-0.1606,54.1558],[-0.0844,54.119],[-0.0847,54.1188],[-0.0846,54.1188],[-0.0847,54.1187],[-0.0844,54.1186],[-0.086,54.1178],[-0.0755,54.1121],[-0.13,54.0944],[-0.1564,54.0804],[-0.1971,54.0329],[-0.1028,53.8585],[-0.0673,53.8217],[-0.0452,53.8012],[0.1335,53.6426],[0.1493,53.6096],[0.1369,53.5771],[0.1096,53.5629],[0.136,53.6107],[0.1063,53.6221],[0.1172,53.6086],[0.1166,53.6089],[0.1172,53.6082],[0.1165,53.6086],[0.1168,53.6082],[0.0772,53.629],[0.0644,53.6324],[0.0376,53.6395],[0.0159,53.6388],[0.0345,53.6045],[0.0555,53.5656],[0.0765,53.5268],[0.0974,53.488],[0.1519,53.4758],[0.1758,53.4377],[0.2195,53.4195],[0.2449,53.3909],[0.3421,53.2263],[0.3562,53.1885],[0.3566,53.1457],[0.3405,53.1101],[0.355,53.09],[0.4093,53.0146],[0.4094,53.0146],[0.4365,52.977],[0.4637,52.9393],[0.47,52.9305],[0.4822,52.9285],[0.4857,52.9335],[0.5203,52.9553],[0.5696,52.9693],[0.6714,52.9744],[0.6719,52.9744],[0.6847,52.9864],[0.7482,52.9748],[0.7581,52.9744],[0.8357,52.9744],[0.9054,52.9603],[0.9487,52.9541],[1.0011,52.9566],[1.0139,52.9602],[0.9661,52.9744],[1.2747,52.9292],[1.396,52.8914],[1.6442,52.7758],[1.697,52.731],[1.7472,52.6252],[1.7476,52.5328],[1.7712,52.4859],[1.7544,52.4674],[1.7293,52.4156],[1.7279,52.3963],[1.6836,52.3245],[1.6611,52.3016],[1.6472,52.2784],[1.6308,52.2195],[1.6309,52.1998],[1.5823,52.0815],[1.5339,52.0704],[1.4132,51.9937],[1.4117,51.9931],[1.3323,51.9401],[1.3119,51.9564],[1.271,51.9331],[1.2785,51.9279],[1.2599,51.9161],[1.2728,51.9021],[1.2747,51.8722],[1.2866,51.8817],[1.2764,51.8448],[1.2764,51.8444],[1.2722,51.8424],[1.2192,51.8118],[1.1354,51.7817],[1.0733,51.776],[1.2123,51.5964],[1.2184,51.5885],[1.2492,51.5487],[1.3727,51.3891],[1.4238,51.3921],[1.4483,51.3829],[1.4391,51.3501],[1.4187,51.3298],[1.4492,51.2904],[1.449,51.2903],[1.4492,51.29],[1.4107,51.2676],[1.4077,51.246],[1.4131,51.2217],[1.4048,51.1835],[1.3845,51.1517],[1.3572,51.131],[1.2904,51.1165],[1.263,51.1033],[1.2181,51.101],[1.1722,51.0774],[1.133,51.0768],[1.046,51.0476],[0.9776,50.9712],[0.9718,50.9568],[0.9798,50.9182],[0.9452,50.9094],[0.8698,50.9251],[0.8446,50.9304],[0.8331,50.9308],[0.5492,50.7653],[0.5488,50.7653],[0.2929,50.7672],[0.271,50.7474],[0.2141,50.7489],[0.1683,50.7598],[0.1221,50.7608],[0.1076,50.7686],[0.0573,50.769],[0.0322,50.7692],[0.007,50.7694],[-0.0181,50.7696],[-0.0433,50.7698],[-0.0936,50.7702],[-0.1439,50.7705],[-0.169,50.7707],[-0.1942,50.7709],[-0.2193,50.7711],[-0.2445,50.7713],[-0.2949,50.7717],[-0.6974,50.7748],[-0.7327,50.7673],[-0.7415,50.7707],[-0.7724,50.7665],[-0.7731,50.766],[-0.771,50.7369],[-0.8128,50.7348],[-0.8768,50.7608],[-0.9138,50.7548],[-0.9507,50.7489],[-0.9943,50.7418],[-1.0379,50.7347],[-1.0815,50.7277],[-1.1027,50.7242],[-1.0942,50.7126],[-1.0828,50.7133],[-1.0623,50.6928],[-1.0642,50.6907],[-1.0636,50.6904],[-1.0639,50.6903],[-1.0638,50.6902],[-1.0639,50.6902],[-1.0636,50.69],[-1.0656,50.6892],[-1.0753,50.6785],[-1.1142,50.6697],[-1.137,50.6605],[-1.1545,50.6481],[-1.1657,50.6303],[-1.1684,50.6035],[-1.2792,50.5825],[-1.3155,50.5892],[-1.3521,50.6059],[-1.493,50.661],[-1.561,50.6499],[-1.6045,50.6429],[-1.6481,50.6358],[-1.6917,50.6288],[-1.7353,50.6217],[-1.8225,50.6076],[-1.9097,50.5935],[-2.0841,50.5652],[-2.2585,50.537],[-2.4892,50.4996],[-2.4893,50.4996],[-2.4896,50.4996],[-2.6072,50.5489],[-2.7816,50.6221],[-2.8688,50.6587],[-2.9123,50.6769],[-2.9559,50.6952],[-2.9573,50.6958],[-3.1303,50.5731],[-3.133,50.5712],[-3.2188,50.5104],[-3.2617,50.48],[-3.3046,50.4495],[-3.3061,50.4485],[-3.3929,50.3869],[-3.4363,50.3561],[-3.4364,50.3561],[-3.4797,50.3254],[-3.616,50.2287],[-3.6163,50.2287],[-3.6164,50.2287],[-3.6476,50.2325],[-3.6456,50.226],[-3.718,50.2124],[-3.7742,50.223],[-3.789,50.2124],[-3.8263,50.2342],[-3.8562,50.2581],[-4.0106,50.277],[-4.0878,50.2865],[-4.1264,50.2912],[-4.165,50.296],[-4.2422,50.3054],[-4.3194,50.3149],[-4.4737,50.3338],[-4.4954,50.3284],[-4.5716,50.3256],[-5.0568,50.0612],[-5.0565,50.0606],[-5.0981,50.0144],[-5.1465,50.0106],[-5.1761,49.9879],[-5.1912,49.9591],[-5.2143,49.9754],[-5.2433,49.9596],[-5.2435,49.9597],[-5.2437,49.9596],[-5.5482,50.0738],[-5.5784,50.0548],[-5.6674,50.0429],[-5.7051,50.0523],[-5.7156,50.0827],[-5.6988,50.0854],[-5.7092,50.1326],[-5.7082,50.1338],[-5.7765,50.1594],[-5.7762,50.1596],[-5.7763,50.1596],[-5.7762,50.1597],[-5.7765,50.1598],[-4.9295,50.7673],[-4.8908,50.7951],[-4.7946,50.8641],[-4.7465,50.8986],[-4.6984,50.9331],[-4.506,51.0711],[-4.3112,51.2108],[-4.0825,51.2657],[-3.8707,51.3165],[-3.7648,51.3419],[-3.7383,51.3482],[-3.7119,51.3546],[-3.6854,51.3609],[-3.659,51.3672],[-3.606,51.38],[-3.5531,51.3926],[-3.5307,51.398],[-3.5392,51.3985],[-3.5574,51.4051],[-3.5753,51.4204],[-3.5815,51.4257],[-3.6155,51.4468],[-3.6699,51.4526],[-3.7583,51.462],[-3.8025,51.4668],[-3.8467,51.4715],[-3.8909,51.4762],[-3.9352,51.4809],[-4.289,51.5187],[-4.3774,51.5281],[-4.4659,51.5376],[-4.5101,51.5423],[-4.5543,51.547],[-4.6428,51.5564],[-4.9844,51.5929],[-4.9966,51.6099],[-5.0216,51.616],[-5.0458,51.6269],[-5.0512,51.6569],[-5.1005,51.6647],[-5.1134,51.6853],[-5.053,51.6799],[-5.1249,51.7056],[-5.1394,51.7173],[-5.1492,51.7181],[-5.157,51.6976],[-5.1829,51.6893],[-5.1807,51.7064],[-5.2301,51.73],[-5.1768,51.7597],[-5.1681,51.7612],[-5.1681,51.808],[-5.2005,51.8618],[-5.2318,51.8707],[-5.2358,51.871],[-5.2914,51.864],[-5.3026,51.8852],[-5.2889,51.9169],[-5.2342,51.923],[-5.2248,51.9291],[-5.2689,51.9907],[-5.2687,51.9908],[-5.2689,51.9911],[-4.9385,52.0888],[-4.7733,52.1376],[-4.732,52.1498],[-4.6907,52.162],[-4.6081,52.1864],[-4.3012,52.2772],[-4.2215,52.3007],[-4.2994,52.3776],[-4.3012,52.3793],[-4.3781,52.4552],[-4.4166,52.4932],[-4.4551,52.5312],[-4.6081,52.6822],[-4.7224,52.795],[-4.7474,52.7834],[-4.7628,52.7895],[-4.7443,52.8166],[-4.7684,52.8404],[-4.7683,52.8407],[-4.7684,52.8408],[-4.7268,52.9864],[-4.7025,53.0713],[-4.6904,53.1138],[-4.6783,53.1562],[-4.6432,53.2789],[-4.6704,53.2829],[-4.694,53.3096],[-4.6673,53.3239],[-4.6311,53.3213],[-4.5812,53.4958],[-4.5808,53.4958],[-4.3474,53.4815],[-4.1369,53.4686],[-4.0842,53.4653],[-4.0579,53.4637],[-4.0316,53.4621],[-4.0053,53.4605],[-3.979,53.4589],[-3.9264,53.4557],[-3.7159,53.4427],[-3.6632,53.4395],[-3.6369,53.4379],[-3.6106,53.4363],[-3.558,53.4331],[-3.5054,53.4298],[-3.4001,53.4234],[-3.3738,53.4217],[-3.3475,53.4201],[-3.2949,53.4169],[-3.2686,53.4153],[-3.2423,53.4137],[-3.1897,53.4105],[-3.1581,53.4085],[-3.1573,53.4088],[-3.1147,53.4127],[-3.095,53.4172],[-3.0938,53.4176],[-3.0867,53.4211],[-3.0792,53.4514],[-3.0726,53.4779],[-3.066,53.5043],[-3.0966,53.5443],[-3.1019,53.5581],[-3.0995,53.572],[-3.0876,53.5877],[-3.0316,53.6431],[-3.0194,53.6925],[-3.0071,53.742],[-3.0215,53.7458],[-3.0492,53.7695],[-3.0564,53.803],[-3.0449,53.8785],[-3.0566,53.9062],[-3.0407,53.9235],[-3.0176,53.932],[-2.9565,53.9458],[-2.948,53.9801],[-2.9469,53.9846],[-2.948,53.9856],[-3.0121,54.0446],[-3.0441,54.0741],[-3.0762,54.1036],[-3.1,54.1255],[-3.1179,54.1088],[-3.1453,54.1],[-3.1454,54.0638],[-3.1898,54.0979],[-3.241,54.1121],[-3.2331,54.1592],[-3.2484,54.1737],[-3.2391,54.1754],[-3.2716,54.1969],[-3.3068,54.1919],[-3.3285,54.2047],[-3.4074,54.2777],[-3.4055,54.3013],[-3.4112,54.3061],[-3.556,54.4536],[-3.5919,54.4831],[-3.6342,54.5129],[-3.6116,54.5299],[-3.5909,54.5636],[-3.5912,54.5648],[-3.5911,54.5649],[-3.5912,54.5652],[-3.5887,54.5694],[-3.5871,54.574],[-3.6308,54.6142],[-3.7241,54.6277],[-3.768,54.6341],[-3.8119,54.6405],[-3.8558,54.6468],[-3.8997,54.6532],[-4.0753,54.6787],[-4.3505,54.7186],[-4.3481,54.702],[-4.3719,54.6823],[-4.4053,54.6821],[-4.4612,54.7012],[-4.5056,54.7047],[-4.5544,54.7482],[-4.844,54.7902],[-4.8618,54.8104],[-4.8904,54.7713],[-4.9043,54.7187],[-4.896,54.7045],[-4.8673,54.6901],[-4.8721,54.6492],[-4.8591,54.633],[-4.9441,54.6528],[-4.9599,54.6755],[-4.9473,54.7012],[-4.9503,54.7124],[-5.0313,54.7609],[-5.1186,54.8422],[-5.1282,54.8489],[-5.1571,54.8791],[-5.1755,54.9146],[-5.1807,54.9544],[-5.1708,55.0087],[-5.1246,55.0168],[-5.1151,55.0316],[-5.0878,55.0013],[-5.0564,54.9888],[-5.0476,55.0047],[-5.0441,55.0109],[-5.047,55.0151],[-5.0476,55.0221],[-5.0817,55.061],[-5.0815,55.0612],[-5.0817,55.0614],[-4.8581,55.3361],[-4.7303,55.4931],[-4.7182,55.508],[-4.7533,55.5372],[-4.7872,55.5654],[-4.821,55.5936],[-4.8888,55.65],[-4.8951,55.6553],[-4.9353,55.6888],[-4.9755,55.7222],[-4.9797,55.7257],[-5.0216,55.7607],[-5.0298,55.7495],[-5.0113,55.7377],[-5.0288,55.7233],[-5.0503,55.7495],[-5.0736,55.762],[-5.166,55.6806],[-5.16,55.6762],[-5.1322,55.6184],[-5.1065,55.5738],[-5.0942,55.5666],[-5.0919,55.5441],[-5.1022,55.5419],[-5.0989,55.5175],[-5.0708,55.5093],[-5.093,55.5004],[-5.0782,55.4553],[-5.1178,55.4398],[-5.1636,55.4349],[-5.2631,55.4472],[-5.3457,55.4827],[-5.3539,55.5152],[-5.5185,55.3703],[-5.558,55.3319],[-5.5681,55.3266],[-5.5853,55.3115],[-5.5853,55.3118],[-5.5857,55.3115],[-5.5861,55.3173],[-5.5941,55.3131],[-5.64,55.3039],[-5.6691,55.3109],[-5.7545,55.2973],[-5.7829,55.3135],[-5.7947,55.3564],[-5.7914,55.3986],[-5.7605,55.4187],[-5.7513,55.4436],[-5.7114,55.5489],[-5.7218,55.5646],[-5.6733,55.6406],[-5.6809,55.6745],[-5.6265,55.7006],[-5.6116,55.7194],[-5.6154,55.7793],[-5.6467,55.7875],[-5.668,55.811],[-5.6741,55.8458],[-5.632,55.8818],[-5.6276,55.9053],[-5.6809,55.8867],[-5.6964,55.916],[-5.6279,55.976],[-5.6301,56.0108],[-5.6317,56.0059],[-5.6749,55.9777],[-5.6741,55.9556],[-5.6945,55.9345],[-5.7075,55.9426],[-5.6964,55.9822],[-5.6599,56.0233],[-5.6324,56.0467],[-5.6418,56.1943],[-5.6667,56.2225],[-5.6452,56.2487],[-5.6469,56.2746],[-5.6977,56.326],[-5.7231,56.3516],[-5.8087,56.3189],[-5.8482,56.3136],[-5.8801,56.3256],[-5.8725,56.3308],[-6.0131,56.3112],[-6.0375,56.3052],[-6.066,56.2892],[-6.1024,56.2982],[-6.147,56.2839],[-6.2398,56.2839],[-6.2668,56.2635],[-6.3275,56.2772],[-6.3602,56.3036],[-6.3661,56.3222],[-6.3354,56.3446],[-6.2904,56.3454],[-6.2852,56.3414],[-6.1869,56.3567],[-6.1842,56.3644],[-6.2032,56.3803],[-6.1892,56.3978],[-6.1706,56.4034],[-6.1409,56.488],[-6.1446,56.4917],[-6.2427,56.5279],[-6.2885,56.5323],[-6.3382,56.5521],[-6.3151,56.5617],[-6.3201,56.5698],[-6.32,56.57],[-6.3201,56.5702],[-6.3099,56.5911],[-6.3252,56.6061],[-6.2669,56.6181],[-6.2203,56.632],[-6.2203,56.6323],[-6.1907,56.6449],[-6.119,56.6539],[-6.0583,56.6402],[-6.0624,56.6267],[-6.0474,56.6195],[-6.0335,56.6188],[-6.0088,56.5987],[-5.9944,56.5798],[-5.9453,56.5355],[-5.932,56.534],[-5.9008,56.5305],[-5.9,56.5304],[-5.9008,56.5312],[-5.9279,56.5586],[-5.932,56.5628],[-5.974,56.6052],[-6.0034,56.6187],[-6.0076,56.6392],[-6.0587,56.6909],[-6.0986,56.697],[-6.1617,56.6782],[-6.2228,56.6955],[-6.2345,56.7286],[-6.2153,56.7296],[-6.1805,56.7546],[-6.125,56.7579],[-6.1509,56.784],[-6.1508,56.7843],[-6.1509,56.7844],[-6.0264,57.1382],[-6.0326,57.1803],[-6.044,57.161],[-6.0738,57.1318],[-6.1014,57.1352],[-6.1129,57.1883],[-6.1169,57.1893],[-6.1613,57.1826],[-6.1617,57.1826],[-6.1762,57.1828],[-6.1772,57.1812],[-6.3183,57.161],[-6.2839,57.1897],[-6.3152,57.1991],[-6.3456,57.1883],[-6.3798,57.2231],[-6.3607,57.2342],[-6.3633,57.2365],[-6.3691,57.2431],[-6.4082,57.2434],[-6.4555,57.2777],[-6.4822,57.3118],[-6.4417,57.3258],[-6.4425,57.3267],[-6.5656,57.3459],[-6.5806,57.3388],[-6.6725,57.3559],[-6.7148,57.3766],[-6.7241,57.3989],[-6.7413,57.4118],[-6.7502,57.4246],[-6.7732,57.4341],[-6.7838,57.4564],[-6.754,57.4564],[-6.7521,57.4591],[-6.735,57.4724],[-6.7471,57.4879],[-6.7263,57.5114],[-6.7065,57.5109],[-6.684,57.4914],[-6.6439,57.4834],[-6.6228,57.4871],[-6.6313,57.4936],[-6.6114,57.5122],[-6.5836,57.5071],[-6.5829,57.5077],[-6.5829,57.5212],[-6.6,57.5377],[-6.6548,57.5521],[-6.631,57.5768],[-6.6405,57.6073],[-6.6198,57.6072],[-6.5723,57.5825],[-6.5684,57.5711],[-6.3991,57.5996],[-6.4003,57.5998],[-6.3959,57.6135],[-6.4157,57.6458],[-6.3599,57.6681],[-6.338,57.6992],[-6.3109,57.7028],[-6.2605,57.6686],[-6.2327,57.6414],[-6.188,57.6209],[-6.1539,57.5895],[-6.1361,57.4613],[-6.1592,57.4074],[-6.1179,57.3978],[-6.1401,57.3739],[-6.1352,57.3574],[-6.0992,57.3323],[-6.1352,57.3147],[-6.1155,57.3084],[-6.0682,57.3118],[-6.0454,57.3083],[-6.07,57.2853],[-6.0677,57.2837],[-6.0485,57.2816],[-6.0085,57.2868],[-5.9848,57.2745],[-5.9788,57.2738],[-5.9731,57.2901],[-6.0078,57.3036],[-6.0139,57.3175],[-5.9622,57.3211],[-5.8024,57.7757],[-5.8013,57.8004],[-5.8074,57.8439],[-5.7895,57.862],[-5.7368,57.8714],[-5.3854,58.2385],[-5.3929,58.2447],[-5.3759,58.2642],[-5.3643,58.2605],[-5.0097,58.631],[-5.0093,58.631],[-4.2192,58.5523],[-4.1888,58.558],[-4.1638,58.5595],[-4.1606,58.5626],[-4.1174,58.5622],[-4.0784,58.5644],[-4.0488,58.5896],[-4.0278,58.5927],[-4.0038,58.5706],[-3.9865,58.5698],[-3.8612,58.5771],[-3.7375,58.5955],[-3.6984,58.6112],[-3.5976,58.6271],[-3.5426,58.6208],[-3.5381,58.6128],[-3.4544,58.617],[-3.3796,58.6297],[-3.3861,58.6317],[-3.4129,58.6556],[-3.39,58.6718],[-3.3583,58.6755],[-3.3479,58.652],[-3.3099,58.6481],[-3.2041,58.6611],[-3.1534,58.6419],[-3.1487,58.6415],[-3.0529,58.6481],[-3.0191,58.6403],[-3.0231,58.6331],[-3.0044,58.6344],[-3.004,58.6344],[-3.0044,58.634],[-3.004,58.634],[-3.0472,58.5903],[-3.0492,58.5867],[-3.0814,58.555],[-3.1084,58.5159],[-3.1056,58.4841],[-3.0644,58.483],[-3.0533,58.4658],[-3.0771,58.4495],[-3.0863,58.4142],[-3.1298,58.3693],[-3.2205,58.3056],[-3.2623,58.2926],[-3.3002,58.2855],[-3.3818,58.2518],[-3.7839,57.8451],[-3.79,57.8307],[-3.8169,57.8117],[-4.0373,57.5888],[-3.9643,57.593],[-3.9235,57.5908],[-3.8684,57.5997],[-3.7345,57.6344],[-3.6848,57.6544],[-3.6313,57.6611],[-3.6272,57.6622],[-3.6099,57.6658],[-3.6116,57.6681],[-3.6026,57.6674],[-3.5015,57.6886],[-3.4919,57.7131],[-3.4607,57.7097],[-3.4092,57.7233],[-3.2847,57.7204],[-3.2217,57.6981],[-3.1218,57.6809],[-3.0548,57.6899],[-3.0544,57.6899],[-2.9542,57.6895],[-2.9161,57.7028],[-2.8212,57.7028],[-2.758,57.7028],[-2.7331,57.6896],[-2.7237,57.6894],[-2.6589,57.6975],[-2.6073,57.6878],[-2.3167,57.6865],[-2.3134,57.6899],[-2.2743,57.6938],[-2.2475,57.6862],[-2.2064,57.686],[-2.1387,57.6943],[-2.1081,57.705],[-1.9977,57.7028],[-1.9819,57.685],[-1.96,57.6849],[-1.9601,57.6845],[-1.96,57.6845],[-1.9623,57.6774],[-1.9325,57.6824],[-1.9142,57.6647],[-1.8295,57.6135],[-1.8,57.5259],[-1.7611,57.4975],[-1.7784,57.4828],[-1.779,57.4797],[-1.7593,57.4736],[-1.8245,57.4299],[-1.8331,57.4214],[-1.85,57.3944],[-1.9377,57.3497],[-2.0212,57.259],[-2.0464,57.2087],[-2.0608,57.1531],[-2.0709,57.1354],[-2.0524,57.1274],[-2.0493,57.1188],[-2.0653,57.1005]]],[[[-6.2189,55.6165],[-6.2228,55.6055],[-6.2619,55.5838],[-6.3112,55.5832],[-6.3252,55.6055],[-6.3192,55.6282],[-6.2911,55.64],[-6.2698,55.6708],[-6.2904,55.7071],[-6.3252,55.7154],[-6.321,55.7335],[-6.2955,55.7491],[-6.2878,55.7731],[-6.302,55.78],[-6.3341,55.7747],[-6.359,55.7598],[-6.3866,55.7223],[-6.4186,55.7096],[-6.463,55.6745],[-6.5035,55.6813],[-6.4946,55.7032],[-6.4965,55.7105],[-6.4964,55.7106],[-6.4965,55.7109],[-6.4908,55.7226],[-6.4932,55.7392],[-6.4753,55.7543],[-6.4677,55.7699],[-6.4664,55.784],[-6.4822,55.7905],[-6.4648,55.8008],[-6.4641,55.8081],[-6.458,55.8163],[-6.4528,55.8409],[-6.4091,55.8636],[-6.3314,55.89],[-6.3352,55.8689],[-6.3127,55.8568],[-6.3017,55.8623],[-6.297,55.8672],[-6.252,55.8871],[-6.2244,55.9009],[-6.2043,55.9166],[-6.1401,55.9414],[-6.1202,55.9294],[-6.1088,55.8596],[-6.0929,55.8029],[-6.0887,55.7936],[-6.0498,55.7663],[-6.0583,55.7427],[-6.0304,55.7291],[-6.0235,55.6819],[-6.0644,55.6676],[-6.1055,55.6402],[-6.16,55.6267],[-6.1859,55.6267],[-6.2189,55.6165]]],[[[-5.953,55.834],[-5.9621,55.8048],[-5.9875,55.7946],[-6.0266,55.7961],[-6.0624,55.8095],[-6.0781,55.8349],[-6.0869,55.883],[-6.0752,55.916],[-5.9974,55.9517],[-5.9654,55.9553],[-5.9148,55.9742],[-5.9807,55.9699],[-5.9956,55.986],[-5.9833,56.0089],[-5.9421,56.0419],[-5.9385,56.046],[-5.9349,56.0476],[-5.9244,56.056],[-5.9021,56.0622],[-5.8318,56.0935],[-5.7976,56.1126],[-5.7159,56.1531],[-5.6945,56.1474],[-5.6893,56.1118],[-5.7402,56.0765],[-5.7802,56.0207],[-5.8645,55.9267],[-5.8863,55.8867],[-5.8968,55.8889],[-5.9118,55.8795],[-5.953,55.834]]],[[[-6.6175,56.6293],[-6.5914,56.6518],[-6.5736,56.6588],[-6.5685,56.6622],[-6.5621,56.6633],[-6.5058,56.6854],[-6.4623,56.6912],[-6.4592,56.6781],[-6.4897,56.6402],[-6.5273,56.6265],[-6.5641,56.5987],[-6.6163,56.5752],[-6.6689,56.5778],[-6.6779,56.5583],[-6.7019,56.5856],[-6.6648,56.5975],[-6.6175,56.6293]]],[[[-5.8577,54.6687],[-5.834,54.6551],[-5.823,54.6585],[-5.8053,54.6641],[-5.7883,54.6664],[-5.7695,54.6746],[-5.748,54.6804],[-5.7324,54.677],[-5.7207,54.6717],[-5.684,54.6697],[-5.5747,54.6801],[-5.565,54.6723],[-5.5366,54.6575],[-5.5144,54.5979],[-5.5026,54.5835],[-5.4789,54.5695],[-5.4686,54.5163],[-5.4371,54.4879],[-5.4338,54.461],[-5.4643,54.4252],[-5.4574,54.4087],[-5.4612,54.3921],[-5.4891,54.3696],[-5.4748,54.3586],[-5.502,54.3397],[-5.5277,54.3453],[-5.5471,54.3791],[-5.559,54.3826],[-5.5766,54.4028],[-5.5717,54.4256],[-5.5487,54.4428],[-5.5437,54.4578],[-5.5473,54.4881],[-5.5677,54.5127],[-5.6145,54.537],[-5.6664,54.5479],[-5.6696,54.5437],[-5.6623,54.5232],[-5.637,54.522],[-5.6256,54.5163],[-5.6572,54.5088],[-5.6543,54.5005],[-5.64,54.4958],[-5.6446,54.4721],[-5.6385,54.4636],[-5.6256,54.4411],[-5.6565,54.388],[-5.6573,54.3811],[-5.6342,54.3732],[-5.6221,54.3767],[-5.5797,54.3837],[-5.5591,54.3708],[-5.5565,54.3707],[-5.5567,54.3703],[-5.5565,54.3703],[-5.5569,54.3694],[-5.5505,54.3654],[-5.5407,54.3273],[-5.553,54.2985],[-5.6126,54.2556],[-5.6331,54.2556],[-5.64,54.2351],[-5.6558,54.2297],[-5.6788,54.2462],[-5.7005,54.2473],[-5.7077,54.2453],[-5.8265,54.2349],[-5.8553,54.2002],[-5.8699,54.1697],[-5.8832,54.1208],[-5.912,54.0913],[-5.9538,54.0787],[-5.9847,54.0593],[-6.0405,54.0364],[-6.0665,54.0352],[-6.0776,54.021],[-6.1056,54.021],[-6.1112,54.021],[-6.1216,54.021],[-6.1265,54.0302],[-6.1447,54.0332],[-6.1447,54.0612],[-6.1837,54.0612],[-6.1837,54.0732],[-6.2228,54.0732],[-6.2228,54.0984],[-6.2637,54.1047],[-6.2699,54.0979],[-6.2846,54.1052],[-6.3271,54.0979],[-6.3548,54.1107],[-6.3681,54.0973],[-6.3775,54.0633],[-6.4339,54.0553],[-6.4509,54.0684],[-6.4785,54.0677],[-6.564,54.049],[-6.6052,54.0445],[-6.6306,54.0418],[-6.6725,54.0684],[-6.6571,54.0919],[-6.6664,54.1148],[-6.6346,54.1501],[-6.6484,54.1737],[-6.684,54.1944],[-6.7065,54.1989],[-6.7448,54.1842],[-6.7878,54.203],[-6.8239,54.2324],[-6.8377,54.2605],[-6.8822,54.2773],[-6.8647,54.2827],[-6.8584,54.3073],[-6.87,54.326],[-6.8797,54.3416],[-6.906,54.349],[-6.922,54.3727],[-6.9841,54.4031],[-7.0178,54.4132],[-7.0493,54.4115],[-7.0785,54.3947],[-7.127,54.3498],[-7.1599,54.3352],[-7.1895,54.3357],[-7.1846,54.3166],[-7.209,54.2934],[-7.1755,54.2837],[-7.1815,54.2698],[-7.1459,54.2521],[-7.1533,54.2242],[-7.2295,54.2075],[-7.2611,54.1809],[-7.2635,54.141],[-7.2974,54.1259],[-7.2955,54.1651],[-7.3332,54.1427],[-7.3165,54.1143],[-7.3947,54.1219],[-7.4147,54.1457],[-7.4396,54.1469],[-7.5023,54.1251],[-7.609,54.1399],[-7.6327,54.1685],[-7.7048,54.2004],[-7.837,54.2043],[-7.8697,54.2269],[-7.8736,54.2711],[-7.895,54.2936],[-7.9421,54.2989],[-7.968,54.3122],[-8.0022,54.3579],[-8.0313,54.358],[-8.0799,54.3802],[-8.156,54.4391],[-8.1685,54.4635],[-8.097,54.4786],[-8.0559,54.4976],[-8.0022,54.5434],[-7.8871,54.5321],[-7.8488,54.5409],[-7.7493,54.5962],[-7.708,54.6048],[-7.7106,54.6243],[-7.7536,54.6145],[-7.815,54.6395],[-7.838,54.6312],[-7.8643,54.6491],[-7.9066,54.6613],[-7.9071,54.6867],[-7.9297,54.6967],[-7.8801,54.711],[-7.8459,54.731],[-7.7705,54.706],[-7.7366,54.7075],[-7.6497,54.7449],[-7.6154,54.7393],[-7.5431,54.7417],[-7.5517,54.7547],[-7.5434,54.7931],[-7.4708,54.8453],[-7.4447,54.8845],[-7.449,54.9203],[-7.4158,54.9444],[-7.4074,54.9594],[-7.4131,54.985],[-7.4053,55.0036],[-7.377,55.0289],[-7.355,55.0409],[-7.2912,55.0466],[-7.2665,55.0652],[-7.2471,55.0693],[-7.2567,55.0507],[-7.2208,55.055],[-7.2208,55.0913],[-7.1849,55.0913],[-7.1849,55.0756],[-7.149,55.0756],[-7.149,55.1027],[-7.1131,55.1027],[-7.1131,55.0996],[-7.0772,55.0996],[-7.0772,55.1281],[-7.0772,55.1289],[-7.0413,55.1289],[-7.0413,55.1348],[-7.0413,55.1582],[-7.0054,55.16],[-6.9694,55.1617],[-6.9626,55.1946],[-6.9467,55.1954],[-6.9182,55.1858],[-6.8889,55.1884],[-6.8887,55.1884],[-6.8885,55.1884],[-6.8239,55.1814],[-6.6981,55.1936],[-6.6857,55.1962],[-6.6405,55.2083],[-6.6251,55.2089],[-6.5452,55.2257],[-6.5198,55.2407],[-6.4759,55.2487],[-6.4482,55.2409],[-6.3894,55.2419],[-6.3782,55.2462],[-6.3529,55.2426],[-6.3268,55.2341],[-6.2333,55.2179],[-6.18,55.2179],[-6.16,55.2219],[-6.1352,55.2179],[-6.1289,55.2179],[-6.1273,55.2166],[-6.101,55.2124],[-6.0472,55.1785],[-6.0371,55.1679],[-6.0384,55.1474],[-6.0353,55.145],[-5.9986,55.0616],[-5.981,55.0557],[-5.9683,55.0439],[-5.9702,55.0258],[-5.9735,55.0191],[-5.9188,54.9646],[-5.9066,54.958],[-5.8863,54.9408],[-5.8756,54.9217],[-5.8697,54.9158],[-5.7829,54.8604],[-5.7817,54.8617],[-5.7516,54.8569],[-5.7206,54.841],[-5.702,54.8247],[-5.6898,54.7931],[-5.6921,54.7705],[-5.6926,54.7652],[-5.7069,54.743],[-5.7293,54.7285],[-5.7589,54.7199],[-5.7981,54.7131],[-5.8697,54.6882],[-5.8715,54.6873],[-5.8779,54.6823],[-5.8794,54.6811],[-5.8577,54.6687]]],[[[-7.4427,56.9616],[-7.4453,56.9471],[-7.4766,56.9419],[-7.5568,56.9531],[-7.5449,56.9723],[-7.5441,56.9726],[-7.544,56.9728],[-7.5441,56.973],[-7.5233,57.0064],[-7.5243,57.0102],[-7.4571,57.0316],[-7.4492,57.0586],[-7.4144,57.0449],[-7.435,57.0238],[-7.394,57.0102],[-7.382,56.9875],[-7.4045,56.9784],[-7.4177,56.9656],[-7.4427,56.9616]]],[[[-7.249,57.1322],[-7.2159,57.1138],[-7.2391,57.1005],[-7.3217,57.1099],[-7.353,57.0996],[-7.3907,57.1291],[-7.4167,57.1816],[-7.4157,57.1974],[-7.4197,57.2189],[-7.4554,57.2367],[-7.435,57.2519],[-7.41,57.296],[-7.4076,57.2979],[-7.4073,57.2993],[-7.4096,57.3512],[-7.4281,57.3876],[-7.353,57.408],[-7.2636,57.3739],[-7.2665,57.3718],[-7.2656,57.3597],[-7.2226,57.3398],[-7.2504,57.3319],[-7.2639,57.3367],[-7.2632,57.3276],[-7.2438,57.3255],[-7.2003,57.291],[-7.2332,57.2743],[-7.2566,57.2368],[-7.249,57.1322]]],[[[-7.129,57.5903],[-7.106,57.593],[-7.15,57.5617],[-7.1568,57.5613],[-7.1681,57.5496],[-7.1339,57.5384],[-7.1575,57.5111],[-7.2875,57.5088],[-7.3185,57.517],[-7.3376,57.5391],[-7.4472,57.5773],[-7.4709,57.5672],[-7.5448,57.593],[-7.5222,57.6084],[-7.5109,57.6217],[-7.5009,57.6361],[-7.4961,57.639],[-7.4766,57.6619],[-7.4553,57.6555],[-7.4422,57.6567],[-7.4397,57.657],[-7.4396,57.657],[-7.3871,57.6619],[-7.4115,57.6498],[-7.3927,57.6449],[-7.3724,57.6505],[-7.3121,57.6885],[-7.3325,57.6619],[-7.332,57.6618],[-7.3245,57.6639],[-7.3242,57.6639],[-7.3241,57.6639],[-7.2704,57.657],[-7.2701,57.6572],[-7.2773,57.6619],[-7.2091,57.686],[-7.1817,57.6885],[-7.1654,57.6699],[-7.1714,57.6661],[-7.146,57.6535],[-7.1294,57.6529],[-7.0926,57.6521],[-7.0651,57.634],[-7.0992,57.6073],[-7.1085,57.6117],[-7.129,57.5903]]],[[[-7.0467,57.8283],[-6.9623,57.8688],[-6.9556,57.8687],[-6.9466,57.8859],[-6.9626,57.8947],[-6.9116,57.9106],[-6.8944,57.9106],[-6.8655,57.9211],[-6.8658,57.9213],[-6.8579,57.9255],[-6.8637,57.9326],[-6.8738,57.9356],[-6.8971,57.9356],[-6.9521,57.9567],[-7.0363,57.9606],[-7.1128,57.9902],[-7.0582,58.025],[-7.0294,58.029],[-7.0036,58.0421],[-7.0287,58.0384],[-7.0582,58.0386],[-7.0519,58.0585],[-7.0375,58.0694],[-7.0401,58.0715],[-7.0452,58.0725],[-7.0756,58.0622],[-7.1265,58.124],[-7.1128,58.1553],[-7.093,58.1684],[-7.1128,58.182],[-7.0841,58.1842],[-7.0489,58.1998],[-7.0539,58.2014],[-7.0561,58.2257],[-7.0309,58.2447],[-6.9773,58.2274],[-6.9073,58.2168],[-6.9371,58.211],[-6.937,58.2109],[-6.885,58.1831],[-6.8729,58.1854],[-6.8695,58.1894],[-6.7985,58.2024],[-6.7769,58.194],[-6.7269,58.1899],[-6.7245,58.1956],[-6.7429,58.2031],[-6.7526,58.2248],[-6.7838,58.2304],[-6.8118,58.2646],[-6.7912,58.2714],[-6.8186,58.2851],[-6.7443,58.3201],[-6.7413,58.3219],[-6.7393,58.3225],[-6.737,58.3236],[-6.7156,58.3397],[-6.6636,58.3457],[-6.5433,58.3826],[-6.3277,58.4744],[-6.2674,58.512],[-6.2231,58.4992],[-6.1669,58.4195],[-6.1924,58.4091],[-6.1952,58.404],[-6.1973,58.3631],[-6.1992,58.3605],[-6.1675,58.3465],[-6.228,58.3219],[-6.3076,58.2154],[-6.2432,58.223],[-6.1948,58.2509],[-6.1611,58.259],[-6.16,58.2168],[-6.2153,58.1894],[-6.2474,58.1855],[-6.2936,58.1994],[-6.3209,58.1975],[-6.3269,58.1895],[-6.3737,58.1843],[-6.3787,58.1797],[-6.3661,58.1621],[-6.373,58.1411],[-6.4412,58.1274],[-6.4747,58.1052],[-6.5146,58.1066],[-6.5507,58.0934],[-6.5511,58.0932],[-6.5514,58.0931],[-6.5526,58.0927],[-6.4688,58.0927],[-6.394,58.1018],[-6.3661,58.0585],[-6.3895,58.0412],[-6.3524,58.0386],[-6.4009,58.0073],[-6.4245,58.0039],[-6.4524,58.0065],[-6.4882,57.988],[-6.4555,57.9765],[-6.5076,57.936],[-6.5511,57.9431],[-6.5375,57.9213],[-6.5784,57.9172],[-6.5989,57.9353],[-6.6185,57.9294],[-6.6125,57.9213],[-6.6397,57.9231],[-6.6761,57.9122],[-6.6678,57.9083],[-6.661,57.8803],[-6.7136,57.8874],[-6.7539,57.8573],[-6.7367,57.8394],[-6.7556,57.8265],[-6.8061,57.8146],[-6.8364,57.8267],[-6.8484,57.8267],[-6.8391,57.8127],[-6.8875,57.7848],[-6.8733,57.778],[-6.9551,57.7438],[-6.9808,57.7351],[-7.1019,57.8115],[-7.1251,57.8369],[-7.0886,57.8334],[-7.0801,57.8145],[-7.0467,57.8283]]],[[[-6.2626,57.0102],[-6.2432,57.0102],[-6.2567,56.9738],[-6.3036,56.944],[-6.3598,56.9473],[-6.372,56.9653],[-6.3849,56.9709],[-6.3916,56.9776],[-6.4555,57.004],[-6.4316,57.0176],[-6.4317,57.0177],[-6.4314,57.0178],[-6.4317,57.0181],[-6.4293,57.0188],[-6.3642,57.0557],[-6.3252,57.0586],[-6.251,57.0266],[-6.2652,57.0143],[-6.2626,57.0102]]],[[[-2.9214,58.7694],[-2.911,58.7487],[-2.9399,58.7307],[-2.9878,58.7574],[-2.9818,58.7639],[-3.0339,58.8201],[-3.0356,58.8201],[-3.0356,58.8219],[-3.0368,58.8232],[-3.0365,58.8232],[-3.0368,58.8236],[-3.0356,58.8237],[-3.0356,58.8263],[-2.953,58.84],[-2.8837,58.8322],[-2.9001,58.8203],[-2.914,58.7989],[-2.9214,58.7694]]],[[[-3.3914,58.8701],[-3.4302,58.8748],[-3.4163,58.9083],[-3.3494,58.9285],[-3.2796,58.9067],[-3.2704,58.9052],[-3.2687,58.9033],[-3.2461,58.8962],[-3.1932,58.8536],[-3.2074,58.84],[-3.1727,58.8201],[-3.214,58.8145],[-3.2128,58.8132],[-3.1741,58.8045],[-3.1601,58.808],[-3.1317,58.8065],[-3.1563,58.7868],[-3.2059,58.779],[-3.2993,58.7791],[-3.3209,58.8088],[-3.368,58.8388],[-3.3914,58.8701]]],[[[-3.0716,58.93],[-3.0703,58.9287],[-3.0792,58.9291],[-3.1062,58.9258],[-3.118,58.9157],[-3.1426,58.9212],[-3.1496,58.9206],[-3.166,58.9186],[-3.1662,58.9186],[-3.1664,58.9186],[-3.1682,58.9189],[-3.2028,58.9159],[-3.2279,58.9287],[-3.2353,58.9726],[-3.2312,58.9774],[-3.2312,58.9898],[-3.2419,59.0001],[-3.2609,58.9899],[-3.257,58.9783],[-3.2894,58.9504],[-3.3232,58.9572],[-3.3533,58.9828],[-3.3667,59.0161],[-3.3498,59.0434],[-3.3464,59.0649],[-3.3458,59.066],[-3.3502,59.098],[-3.3238,59.1274],[-3.2793,59.1435],[-3.2311,59.1484],[-3.1562,59.1422],[-3.1232,59.1248],[-3.121,59.1241],[-3.0845,59.128],[-3.0492,59.1081],[-3.0627,59.1037],[-3.0508,59.0996],[-3.034,59.0879],[-2.9945,59.0733],[-2.9945,59.0597],[-3.0241,59.0535],[-3.058,59.0298],[-3.0686,59.0058],[-3.0333,59.0058],[-3.012,59.0174],[-2.9849,59.0042],[-2.9681,59.001],[-2.9331,59.0113],[-2.8837,58.9849],[-2.8437,58.9829],[-2.8312,58.9877],[-2.7902,58.9923],[-2.7819,58.9739],[-2.7921,58.9696],[-2.7746,58.9612],[-2.7277,58.9709],[-2.7076,58.959],[-2.7065,58.9324],[-2.785,58.9107],[-2.808,58.888],[-2.8393,58.8826],[-2.915,58.8991],[-2.9372,58.9132],[-2.9447,58.9211],[-2.9935,58.9395],[-3.0716,58.93]]],[[[-2.7599,59.1777],[-2.7589,59.1642],[-2.7345,59.1484],[-2.7814,59.1414],[-2.8002,59.1664],[-2.8168,59.1617],[-2.8169,59.1618],[-2.8172,59.1617],[-2.8532,59.1825],[-2.8604,59.2468],[-2.8627,59.2474],[-2.8854,59.2304],[-2.8749,59.2507],[-2.9648,59.2745],[-2.9792,59.2795],[-2.9824,59.2699],[-3.0151,59.2749],[-3.0492,59.3198],[-3.0771,59.3341],[-3.0435,59.3341],[-2.9913,59.3446],[-2.9652,59.3609],[-2.9464,59.3496],[-2.9541,59.337],[-2.86,59.2888],[-2.8132,59.2402],[-2.7918,59.2366],[-2.7919,59.237],[-2.78,59.2346],[-2.7304,59.2263],[-2.7196,59.2194],[-2.7197,59.2191],[-2.7196,59.219],[-2.7304,59.186],[-2.7599,59.1777]]],[[[-2.4922,59.2501],[-2.5148,59.2304],[-2.5232,59.24],[-2.5504,59.2311],[-2.566,59.2309],[-2.5768,59.2242],[-2.5744,59.2307],[-2.6268,59.2299],[-2.6619,59.2071],[-2.688,59.218],[-2.6611,59.2294],[-2.662,59.2294],[-2.6624,59.2294],[-2.662,59.2298],[-2.6624,59.2298],[-2.6076,59.2859],[-2.6116,59.293],[-2.5472,59.3057],[-2.5394,59.3037],[-2.5364,59.3044],[-2.5361,59.3044],[-2.536,59.3044],[-2.438,59.2992],[-2.411,59.319],[-2.3925,59.2855],[-2.4181,59.283],[-2.428,59.2711],[-2.4922,59.2501]]],[[[-1.0887,60.3239],[-1.0753,60.321],[-1.0929,60.3125],[-1.1055,60.2784],[-1.0898,60.2725],[-1.1117,60.2617],[-1.132,60.2068],[-1.1459,60.1878],[-1.144,60.1876],[-1.1541,60.1749],[-1.1553,60.169],[-1.1238,60.1558],[-1.1517,60.1496],[-1.1605,60.1426],[-1.1644,60.1234],[-1.1788,60.113],[-1.1868,60.0737],[-1.1647,60.0602],[-1.1852,60.0383],[-1.194,60.0387],[-1.2,60.0091],[-1.1926,59.9975],[-1.2012,59.9864],[-1.2197,59.9909],[-1.2436,59.9707],[-1.2485,59.9603],[-1.2746,59.8821],[-1.2746,59.8542],[-1.2948,59.8804],[-1.2976,59.8787],[-1.2978,59.8788],[-1.298,59.8787],[-1.3178,59.89],[-1.3479,59.892],[-1.376,59.9086],[-1.364,59.9373],[-1.339,59.9491],[-1.3332,59.962],[-1.3497,59.9709],[-1.3266,59.9768],[-1.3243,59.9818],[-1.3287,59.9955],[-1.3045,60.026],[-1.3012,60.0335],[-1.2893,60.0706],[-1.2765,60.115],[-1.2908,60.1529],[-1.3232,60.1877],[-1.408,60.1894],[-1.4136,60.177],[-1.4305,60.1848],[-1.431,60.1847],[-1.4554,60.1562],[-1.4943,60.1701],[-1.5273,60.1929],[-1.5095,60.2099],[-1.4982,60.2118],[-1.4996,60.2224],[-1.5106,60.2277],[-1.5133,60.2217],[-1.5368,60.2109],[-1.5482,60.2297],[-1.6151,60.2157],[-1.6697,60.2396],[-1.6902,60.2851],[-1.6574,60.3062],[-1.6029,60.3135],[-1.5766,60.299],[-1.5752,60.2992],[-1.5749,60.2992],[-1.5748,60.2992],[-1.5617,60.298],[-1.5558,60.3066],[-1.521,60.2998],[-1.5284,60.3135],[-1.4814,60.3165],[-1.4676,60.3085],[-1.4673,60.302],[-1.4585,60.305],[-1.4596,60.3066],[-1.446,60.321],[-1.4097,60.3216],[-1.3738,60.3338],[-1.427,60.4292],[-1.439,60.4308],[-1.4418,60.4557],[-1.4492,60.4689],[-1.4668,60.471],[-1.4801,60.4575],[-1.4991,60.4691],[-1.4931,60.4742],[-1.55,60.4811],[-1.5578,60.4861],[-1.572,60.4768],[-1.6094,60.4833],[-1.5862,60.5121],[-1.5615,60.5107],[-1.5484,60.5394],[-1.514,60.5578],[-1.4948,60.534],[-1.4593,60.5625],[-1.458,60.5639],[-1.4571,60.5642],[-1.4157,60.5975],[-1.4187,60.6083],[-1.3669,60.6123],[-1.3599,60.6098],[-1.3247,60.6089],[-1.3262,60.6112],[-1.3014,60.6431],[-1.2935,60.5932],[-1.3014,60.5648],[-1.306,60.5606],[-1.3084,60.5369],[-1.289,60.4746],[-1.272,60.4843],[-1.2663,60.4748],[-1.2368,60.4849],[-1.2367,60.4848],[-1.2364,60.4849],[-1.2355,60.4841],[-1.2175,60.498],[-1.1863,60.4822],[-1.1517,60.4308],[-1.1737,60.4313],[-1.1572,60.4172],[-1.118,60.4172],[-1.1109,60.4202],[-1.1034,60.4308],[-1.1006,60.4246],[-1.0836,60.432],[-1.0727,60.4445],[-1.0344,60.4506],[-1.0487,60.4333],[-1.0565,60.4287],[-1.0672,60.3821],[-1.0887,60.3239]]],[[[-0.9948,60.6735],[-0.9797,60.6567],[-0.9935,60.6356],[-1.0315,60.6557],[-1.0456,60.6547],[-1.048,60.6488],[-1.0139,60.6151],[-1.0379,60.6041],[-1.0356,60.5958],[-1.0207,60.5941],[-1.0111,60.5777],[-1.0348,60.5587],[-1.0348,60.5404],[-1.0207,60.5155],[-1.0317,60.5007],[-1.0656,60.5027],[-1.0672,60.5019],[-1.0673,60.502],[-1.0676,60.5019],[-1.0685,60.5028],[-1.1077,60.5051],[-1.097,60.4923],[-1.1539,60.5084],[-1.1678,60.5305],[-1.18,60.6247],[-1.1714,60.646],[-1.1381,60.6492],[-1.1384,60.6473],[-1.1226,60.6729],[-1.1204,60.6969],[-1.0921,60.7353],[-1.0718,60.7202],[-1.0674,60.72],[-1.0576,60.7297],[-0.9935,60.7311],[-1.0005,60.7055],[-0.9994,60.7032],[-0.9872,60.6977],[-0.992,60.6872],[-0.9916,60.6863],[-0.9917,60.686],[-0.9916,60.6859],[-0.9948,60.6735]]],[[[-0.9291,60.7882],[-0.9388,60.8001],[-0.9189,60.8081],[-0.9164,60.8113],[-0.9051,60.8136],[-0.9042,60.814],[-0.8815,60.845],[-0.8603,60.8376],[-0.8603,60.8129],[-0.8675,60.8069],[-0.8658,60.8062],[-0.8439,60.8194],[-0.8318,60.8403],[-0.7828,60.8382],[-0.7607,60.8001],[-0.7813,60.7908],[-0.8034,60.7535],[-0.8017,60.7448],[-0.8119,60.7392],[-0.826,60.7154],[-0.826,60.6898],[-0.8219,60.685],[-0.8462,60.676],[-0.9047,60.684],[-0.9662,60.6902],[-0.9662,60.725],[-0.9432,60.726],[-0.9525,60.7523],[-0.9358,60.756],[-0.9291,60.7882]]],[[[-2.5496,49.5042],[-2.5382,49.5098],[-2.5182,49.5155],[-2.5017,49.5067],[-2.5058,49.498],[-2.5127,49.4903],[-2.5245,49.4688],[-2.5267,49.4585],[-2.5341,49.4362],[-2.5456,49.4301],[-2.5468,49.4279],[-2.5472,49.428],[-2.5472,49.4279],[-2.549,49.4283],[-2.5521,49.4267],[-2.5731,49.4309],[-2.6693,49.4309],[-2.6735,49.4335],[-2.663,49.4438],[-2.6518,49.4452],[-2.6566,49.4594],[-2.6503,49.4637],[-2.6464,49.464],[-2.648,49.4678],[-2.6479,49.4679],[-2.648,49.4682],[-2.5825,49.4922],[-2.5802,49.4936],[-2.5736,49.4954],[-2.5496,49.5042]]],[[[-4.6434,54.0659],[-4.6564,54.0638],[-4.6907,54.0788],[-4.6963,54.0804],[-4.7264,54.0758],[-4.7662,54.0592],[-4.7902,54.0638],[-4.7778,54.0721],[-4.7864,54.0735],[-4.7861,54.0739],[-4.7864,54.0739],[-4.7706,54.0919],[-4.7709,54.0968],[-4.7537,54.1111],[-4.7468,54.119],[-4.7278,54.1619],[-4.7277,54.1726],[-4.7103,54.2206],[-4.7007,54.2233],[-4.7,54.2249],[-4.6137,54.2666],[-4.6136,54.2666],[-4.5815,54.3008],[-4.5546,54.3392],[-4.531,54.3661],[-4.4954,54.3859],[-4.442,54.4044],[-4.3678,54.419],[-4.3513,54.4138],[-4.3702,54.3765],[-4.3521,54.3201],[-4.3247,54.3102],[-4.3119,54.2872],[-4.3483,54.2595],[-4.3656,54.2351],[-4.3937,54.2242],[-4.3974,54.2161],[-4.3908,54.1947],[-4.4126,54.1801],[-4.4252,54.1761],[-4.4749,54.1448],[-4.4746,54.1408],[-4.4926,54.1337],[-4.6106,54.0594],[-4.6121,54.057],[-4.6128,54.058],[-4.6132,54.0578],[-4.6135,54.0579],[-4.6136,54.0578],[-4.6434,54.0659]]],[[[-2.0158,49.2196],[-2.0083,49.2125],[-2.014,49.2072],[-2.0104,49.1818],[-2.0105,49.1818],[-2.0104,49.1814],[-2.0237,49.1777],[-2.0245,49.1713],[-2.0354,49.1744],[-2.0536,49.1693],[-2.0537,49.1694],[-2.054,49.1693],[-2.0734,49.1786],[-2.08,49.1787],[-2.097,49.1837],[-2.1013,49.1866],[-2.1626,49.1866],[-2.1687,49.1783],[-2.1772,49.1802],[-2.1826,49.1841],[-2.2372,49.1762],[-2.2372,49.1763],[-2.2376,49.1762],[-2.2375,49.1766],[-2.2376,49.1766],[-2.2296,49.2165],[-2.2332,49.2285],[-2.242,49.248],[-2.2411,49.2602],[-2.2294,49.263],[-2.2209,49.2605],[-2.2196,49.2669],[-2.2192,49.2669],[-2.1618,49.2618],[-2.1517,49.267],[-2.1438,49.2619],[-2.122,49.2583],[-2.1218,49.2582],[-2.1059,49.2568],[-2.1039,49.2582],[-2.0827,49.2602],[-2.0679,49.2507],[-2.0207,49.2353],[-2.021,49.2333],[-2.0176,49.2321],[-2.0158,49.2196]]]]}}
]}
