{"type":"FeatureCollection","features":[
{"type":"Feature","properties":{"entityId":"ukraine","from":1992,"to":2014,"certainty":"estimated","source":"유럽 쪽은 Natural Earth 1:10m admin-1(v5.1.2) 현대 행정구역 조각을 그 시기 국경에 맞춰 묶고, 조각이 역사 경계와 다른 곳은 선을 그어 나눈 근사. 유럽 밖(시베리아·중앙아시아·극동)은 대략적인 추정. 운영자 검수 필요"},"geometry":{"type":"MultiPolygon","coordinates":[[[[22.1328,48.4048],[22.1583,48.4022],[22.202,48.4182],[22.2718,48.4035],[22.2568,48.3573],[22.2913,48.3576],[22.3081,48.2937],[22.3571,48.2431],[22.4342,48.2367],[22.4814,48.2426],[22.5558,48.1772],[22.6001,48.1011],[22.6932,48.1018],[22.7457,48.1163],[22.831,48.0724],[22.8616,48.0284],[22.8495,47.9931],[22.8324,47.9789],[22.8776,47.9467],[22.9158,47.9592],[22.9157,47.993],[22.9393,48.0057],[22.9882,47.9864],[23.0203,47.9847],[23.0631,48.0075],[23.099,48.0712],[23.1186,48.0915],[23.1617,48.0959],[23.2314,48.0797],[23.3601,47.9931],[23.396,47.9931],[23.4608,47.9713],[23.4855,47.9742],[23.5145,47.999],[23.5632,48.0058],[23.7105,47.9851],[23.7801,47.9875],[23.8766,47.9344],[23.9773,47.9623],[24.0948,47.9379],[24.1312,47.9145],[24.231,47.897],[24.2979,47.9198],[24.3472,47.9209],[24.3862,47.9437],[24.4285,47.9525],[24.4856,47.9432],[24.5698,47.9373],[24.6085,47.9219],[24.6493,47.8952],[24.6615,47.8539],[24.7128,47.8259],[24.7937,47.8045],[24.8207,47.7841],[24.8778,47.7187],[24.9289,47.7139],[24.9424,47.7156],[25.0174,47.7246],[25.0799,47.7429],[25.1219,47.7703],[25.219,47.8785],[25.2617,47.8986],[25.7525,47.9346],[25.8184,47.9526],[25.9181,47.9682],[25.9657,47.9649],[26.0293,47.9778],[26.1025,47.9783],[26.1731,47.9931],[26.2048,48.0374],[26.2553,48.0723],[26.287,48.1247],[26.3035,48.212],[26.3303,48.2085],[26.3974,48.2262],[26.4447,48.2277],[26.5874,48.2494],[26.6179,48.259],[26.6361,48.2949],[26.6691,48.3088],[26.6798,48.3302],[26.6994,48.3251],[26.7359,48.2918],[26.7546,48.2861],[26.7857,48.2941],[26.7894,48.3259],[26.7775,48.3662],[26.7881,48.376],[26.8169,48.3717],[26.8428,48.3937],[26.876,48.384],[26.9432,48.3513],[26.9906,48.3624],[27.0331,48.3602],[27.0263,48.3971],[27.1758,48.3618],[27.2086,48.3606],[27.2519,48.3783],[27.306,48.4237],[27.3422,48.4361],[27.3898,48.415],[27.4202,48.4171],[27.4809,48.4514],[27.5038,48.4724],[27.5571,48.4744],[27.583,48.486],[27.6048,48.4841],[27.6069,48.4578],[27.627,48.4513],[27.7518,48.452],[27.7853,48.4416],[27.8499,48.4096],[27.8854,48.3784],[27.9264,48.3394],[28.0032,48.3259],[28.0559,48.3215],[28.0928,48.3021],[28.0983,48.2841],[28.0787,48.2449],[28.1311,48.2396],[28.1785,48.2589],[28.1999,48.2117],[28.2403,48.2116],[28.2945,48.2365],[28.3406,48.2401],[28.3682,48.2306],[28.3634,48.191],[28.3222,48.1632],[28.3174,48.1354],[28.3496,48.1297],[28.3886,48.1686],[28.4116,48.1707],[28.4369,48.1499],[28.419,48.1222],[28.4474,48.0828],[28.49,48.0655],[28.4998,48.1089],[28.5193,48.1491],[28.5736,48.155],[28.6656,48.1293],[28.7351,48.1287],[28.7712,48.1245],[28.7993,48.1118],[28.8276,48.057],[28.8325,48.0248],[28.8621,48.0005],[28.8826,47.9768],[28.9361,47.9422],[28.9808,47.9264],[29.0172,47.9311],[29.061,47.9698],[29.0927,47.9802],[29.124,47.976],[29.148,47.9554],[29.1646,47.9056],[29.1866,47.8836],[29.236,47.8707],[29.2328,47.8571],[29.1867,47.8182],[29.1778,47.7897],[29.222,47.7748],[29.2386,47.756],[29.197,47.7175],[29.1924,47.6509],[29.1821,47.6132],[29.1305,47.5596],[29.1174,47.5333],[29.1372,47.484],[29.1639,47.4394],[29.1821,47.4299],[29.2019,47.4466],[29.2326,47.4463],[29.2507,47.4254],[29.2814,47.4115],[29.3008,47.3782],[29.3458,47.3658],[29.3589,47.3527],[29.3709,47.3044],[29.4096,47.2798],[29.4417,47.2821],[29.4592,47.2935],[29.4809,47.3383],[29.521,47.3389],[29.5566,47.324],[29.5793,47.2836],[29.5802,47.2605],[29.5687,47.2431],[29.544,47.2343],[29.5404,47.2125],[29.5506,47.1602],[29.5448,47.1356],[29.5304,47.1237],[29.4809,47.1175],[29.4809,47.1052],[29.5115,47.066],[29.531,47.066],[29.5514,47.0902],[29.5702,47.0914],[29.5949,47.0746],[29.603,47.0458],[29.5725,47.0118],[29.5606,46.9613],[29.5675,46.9347],[29.5985,46.9354],[29.6319,46.9144],[29.6962,46.9047],[29.7541,46.858],[29.8436,46.8541],[29.8722,46.8377],[29.8849,46.8127],[29.9174,46.814],[29.9307,46.8031],[29.9318,46.7724],[29.9511,46.7431],[29.9444,46.6625],[29.9319,46.6324],[29.9497,46.5789],[29.9381,46.5573],[29.8988,46.5531],[29.9161,46.5188],[29.9602,46.5059],[29.9706,46.4917],[29.9949,46.4985],[30.0217,46.4707],[30.0141,46.462],[30.077,46.4228],[30.1316,46.4228],[30.0811,46.3742],[30.0373,46.3689],[29.9187,46.3737],[29.8847,46.3642],[29.8478,46.3415],[29.8082,46.3547],[29.8003,46.3984],[29.7796,46.4211],[29.7141,46.4712],[29.7029,46.4283],[29.6544,46.4227],[29.6455,46.3756],[29.6156,46.3618],[29.583,46.3697],[29.5414,46.413],[29.4809,46.4252],[29.4753,46.4476],[29.4882,46.4694],[29.4567,46.4844],[29.4182,46.4625],[29.3747,46.4162],[29.3621,46.4159],[29.3208,46.4687],[29.2891,46.4516],[29.2833,46.3974],[29.2592,46.3944],[29.2007,46.3571],[29.1834,46.3776],[29.2056,46.4061],[29.2068,46.5025],[29.1831,46.538],[29.1627,46.5381],[29.0559,46.4987],[29.0203,46.4895],[28.9458,46.4548],[28.9254,46.4328],[28.9192,46.4047],[28.9273,46.368],[28.9449,46.3207],[28.9458,46.305],[28.9329,46.2726],[28.9335,46.259],[28.9841,46.2212],[29.0098,46.2044],[29.0154,46.1826],[28.9808,46.1321],[28.9464,46.1051],[28.9412,46.0647],[28.9589,46.021],[28.9569,46.0014],[28.932,45.9932],[28.7576,45.9612],[28.7292,45.9386],[28.7284,45.922],[28.7464,45.8706],[28.7383,45.8376],[28.6698,45.812],[28.6698,45.7773],[28.6436,45.7665],[28.5767,45.7619],[28.5635,45.7355],[28.5614,45.7166],[28.5042,45.6937],[28.474,45.6579],[28.5113,45.635],[28.5231,45.5932],[28.5369,45.5798],[28.5037,45.5661],[28.5065,45.5206],[28.4809,45.502],[28.4168,45.5038],[28.3419,45.5176],[28.2704,45.5215],[28.2173,45.4933],[28.1995,45.4618],[28.2151,45.4504],[28.2669,45.4405],[28.2864,45.4217],[28.2812,45.4018],[28.3302,45.3229],[28.4052,45.2951],[28.4942,45.2789],[28.577,45.2481],[28.7101,45.227],[28.7787,45.2311],[28.8027,45.2442],[28.7673,45.2578],[28.7615,45.2818],[28.7902,45.2921],[28.7897,45.3214],[28.8163,45.3261],[28.8809,45.3062],[28.9299,45.2791],[28.9528,45.2851],[28.9665,45.3199],[29.0182,45.3309],[29.0695,45.3608],[29.1743,45.389],[29.2282,45.4237],[29.2818,45.4223],[29.3221,45.4438],[29.3537,45.4359],[29.4306,45.4304],[29.5697,45.395],[29.6503,45.3461],[29.6671,45.3119],[29.6723,45.2729],[29.659,45.2159],[29.6954,45.2213],[29.7088,45.2233],[29.7562,45.3212],[29.7502,45.3858],[29.73,45.4126],[29.7378,45.4201],[29.7559,45.4279],[29.7541,45.4356],[30.1793,45.842],[30.2049,45.8559],[30.2614,45.8955],[30.3025,45.9338],[30.4302,46.0375],[30.4942,46.0805],[30.5035,46.0976],[30.5123,46.1052],[30.6234,46.2298],[30.6535,46.2596],[30.6824,46.2995],[30.6865,46.32],[30.6851,46.3209],[30.7072,46.3484],[30.7145,46.348],[30.7725,46.3964],[30.7982,46.4464],[30.7821,46.4572],[30.7728,46.4773],[30.7967,46.5514],[30.8294,46.5584],[30.867,46.5558],[30.9062,46.5747],[30.9482,46.5837],[30.9592,46.5834],[30.9669,46.5877],[31.1098,46.6181],[31.1484,46.6236],[31.2563,46.6163],[31.3377,46.6013],[31.4286,46.6376],[31.4737,46.6796],[31.5118,46.6847],[31.481,46.6464],[31.493,46.6287],[31.5789,46.6173],[31.5972,46.6432],[31.6265,46.647],[31.6567,46.6416],[31.6871,46.639],[31.6988,46.575],[31.7024,46.5552],[31.5643,46.5552],[31.5301,46.575],[31.5083,46.5876],[31.517,46.575],[31.5244,46.5642],[31.6414,46.4821],[31.6636,46.4721],[31.6865,46.4299],[31.6903,46.4786],[31.6933,46.4804],[31.7143,46.4715],[31.7177,46.4713],[31.7282,46.4138],[31.7362,46.3703],[31.7431,46.3325],[31.7787,46.3267],[31.7725,46.3027],[31.8192,46.2806],[31.8823,46.2791],[31.8828,46.2851],[31.9268,46.2875],[31.9626,46.2788],[31.9684,46.2757],[32.0181,46.2575],[32.0336,46.2617],[32.0347,46.2614],[32.0838,46.2394],[32.1154,46.2145],[32.1698,46.201],[32.2461,46.1669],[32.2625,46.1282],[32.3025,46.1167],[32.5034,46.0761],[32.5437,46.0805],[32.575,46.0973],[32.7982,46.1312],[32.8043,46.1309],[32.8446,46.1214],[32.9131,46.1152],[33.0111,46.1269],[33.2983,46.0803],[33.394,46.0044],[33.4034,45.9969],[33.449,45.9608],[33.4945,45.9247],[33.5018,45.9189],[33.5476,45.8825],[33.4945,45.8532],[33.4911,45.8513],[33.4822,45.8545],[33.41,45.8266],[33.3864,45.8067],[33.2803,45.7654],[33.217,45.7581],[33.1692,45.7844],[33.1592,45.7685],[33.181,45.7552],[33.1798,45.7539],[33.1435,45.7497],[33.0247,45.6911],[32.9368,45.6625],[32.8682,45.6301],[32.8361,45.5981],[32.8267,45.5935],[32.7986,45.5769],[32.7629,45.5644],[32.7578,45.5646],[32.7509,45.5602],[32.6323,45.5188],[32.6263,45.5124],[32.5252,45.4582],[32.4951,45.4355],[32.4816,45.4089],[32.4971,45.3751],[32.4523,45.3275],[32.4526,45.3274],[32.4523,45.3271],[33.036,45.1709],[33.3278,45.0929],[33.4737,45.0538],[33.5465,45.0343],[33.5403,45.021],[33.4815,44.8954],[33.4584,44.8462],[33.4353,44.7969],[33.3892,44.6983],[33.3271,44.5658],[33.3273,44.5657],[33.3271,44.5654],[33.5013,44.5011],[33.5176,44.4905],[33.5272,44.4915],[33.6035,44.4634],[33.6298,44.448],[33.6454,44.4251],[33.73,44.398],[33.7869,44.3956],[33.8815,44.3606],[33.8817,44.3607],[33.8819,44.3606],[33.9354,44.3834],[33.9579,44.383],[34.0658,44.4196],[34.1026,44.4251],[34.1475,44.4499],[34.1668,44.4735],[34.2082,44.4967],[34.2298,44.4999],[34.2452,44.5156],[34.3122,44.5442],[34.3228,44.5435],[34.3361,44.5544],[34.9523,44.8172],[35.0284,44.8093],[35.0376,44.7988],[35.0808,44.7938],[35.1084,44.8249],[35.1299,44.8606],[35.1564,44.8969],[35.1813,44.907],[35.2151,44.9144],[35.2244,44.9245],[35.276,44.9454],[35.344,44.9562],[35.3672,44.9433],[35.3653,44.9596],[35.8133,45.031],[35.8278,44.9992],[35.848,44.9924],[35.9168,45.0014],[35.9934,44.998],[36.0235,45.026],[36.0563,45.0306],[36.1194,45.0287],[36.136,45.0214],[36.2246,45.0075],[36.2443,45.011],[36.2541,45.0314],[36.3196,45.0472],[36.3678,45.0488],[36.4401,45.0675],[36.4553,45.0916],[36.4171,45.1263],[36.4272,45.1539],[36.4524,45.232],[36.5136,45.3032],[36.5436,45.3474],[36.5452,45.3474],[36.5749,45.3361],[36.6309,45.3406],[36.6384,45.3513],[36.6135,45.4089],[36.5833,45.4274],[36.533,45.4089],[36.5088,45.4284],[36.5316,45.4693],[36.5314,45.4693],[36.5316,45.4697],[36.5312,45.4697],[36.3053,45.4566],[36.3074,45.4609],[36.284,45.4766],[36.2525,45.4615],[36.1375,45.4621],[36.1003,45.4447],[35.8478,45.43],[35.8577,45.4694],[35.8171,45.4641],[35.7991,45.4272],[35.5092,45.4104],[35.3052,45.5105],[35.1136,45.6046],[35.1054,45.6134],[35.0232,45.7011],[35.0135,45.7159],[35.0131,45.7205],[35.0106,45.7473],[35.0081,45.774],[35.0032,45.8275],[34.965,46.2404],[35.0308,46.2518],[35.075,46.2711],[35.1051,46.2951],[35.1678,46.361],[35.1724,46.3643],[35.2637,46.4038],[35.2686,46.3982],[35.2586,46.3734],[35.2676,46.3511],[35.2911,46.3439],[35.2892,46.3139],[35.2793,46.282],[35.2784,46.2792],[35.2563,46.2623],[35.2305,46.2425],[35.2172,46.2323],[35.2171,46.2322],[35.0881,46.1512],[35.0444,46.1419],[35.0518,46.1284],[35.0389,46.1203],[34.9854,46.0875],[35,46.0736],[35.0623,46.0986],[35.0965,46.1042],[35.1618,46.1282],[35.2095,46.1699],[35.2146,46.1768],[35.2572,46.2042],[35.2661,46.2151],[35.2919,46.2468],[35.3176,46.2784],[35.4003,46.3801],[35.4455,46.406],[35.4481,46.408],[35.5709,46.4783],[35.6287,46.4985],[35.6613,46.5193],[35.7071,46.5563],[35.8181,46.6198],[35.8336,46.6259],[35.9654,46.6536],[36.0741,46.6597],[36.1928,46.6451],[36.1932,46.6451],[36.2237,46.65],[36.2676,46.6256],[36.2783,46.6074],[36.2844,46.6364],[36.3035,46.6592],[36.3233,46.6736],[36.7584,46.6981],[36.7931,46.7149],[36.794,46.7145],[36.7941,46.7146],[36.7944,46.7145],[36.7974,46.717],[36.8011,46.7188],[36.7903,46.6713],[36.7693,46.6374],[36.8123,46.6806],[36.8296,46.7319],[36.8304,46.733],[36.9451,46.7887],[37.0024,46.8165],[37.0598,46.8444],[37.1172,46.8722],[37.1745,46.9001],[37.2024,46.9136],[37.2192,46.9177],[37.2893,46.9167],[37.3174,46.9008],[37.313,46.8756],[37.3352,46.8825],[37.3779,46.9339],[37.4335,46.9879],[37.4838,47.0274],[37.8418,47.0638],[38.0234,47.0822],[38.0262,47.0816],[38.0292,47.0828],[38.0606,47.086],[38.1088,47.0838],[38.1301,47.0747],[38.1081,47.0264],[38.1423,47.0377],[38.1982,47.087],[38.2166,47.1033],[38.2014,47.1307],[38.2035,47.1923],[38.2225,47.2152],[38.2847,47.2411],[38.2982,47.256],[38.2919,47.287],[38.201,47.2906],[38.1887,47.301],[38.2034,47.3346],[38.258,47.3932],[38.2636,47.4217],[38.2603,47.4929],[38.2934,47.5628],[38.319,47.5913],[38.3529,47.6071],[38.5622,47.6266],[38.6064,47.6451],[38.6434,47.6735],[38.6779,47.6852],[38.7345,47.6771],[38.771,47.7808],[38.7962,47.8199],[38.8309,47.8482],[38.8772,47.8612],[39.0362,47.857],[39.0929,47.8321],[39.1332,47.8295],[39.1736,47.8371],[39.3197,47.846],[39.3916,47.8226],[39.4571,47.8313],[39.5094,47.8228],[39.6006,47.8295],[39.7008,47.8115],[39.7338,47.816],[39.7591,47.8329],[39.7829,47.8866],[39.7798,47.9225],[39.7944,47.9713],[39.7599,48.015],[39.7788,48.0292],[39.843,48.0364],[39.829,48.0768],[39.8431,48.1198],[39.8937,48.183],[39.9605,48.2221],[39.9907,48.2537],[39.9932,48.2732],[39.9574,48.2934],[39.8848,48.279],[39.8159,48.3082],[39.8841,48.3464],[39.9241,48.3761],[39.8421,48.4991],[39.8695,48.5099],[39.8551,48.5561],[39.8092,48.5838],[39.6919,48.5936],[39.6901,48.5937],[39.6317,48.5869],[39.7029,48.7466],[39.7363,48.7615],[39.7794,48.8077],[39.8242,48.8156],[39.935,48.7867],[39.9753,48.7897],[40.0196,48.8131],[40.0528,48.8497],[40.0538,48.8692],[40.0089,48.8878],[39.9504,48.8528],[39.8965,48.8799],[39.8619,48.8764],[39.7587,48.8954],[39.726,48.937],[39.674,48.9701],[39.6811,49.0203],[39.6983,49.0284],[39.7489,49.0262],[39.8315,49.0453],[39.8913,49.0418],[39.9187,49.0478],[39.9309,49.1006],[39.9796,49.1419],[40.0384,49.1685],[40.0909,49.2173],[40.1417,49.2458],[40.1427,49.2819],[40.1595,49.3336],[40.1014,49.3855],[40.0409,49.4555],[40.0349,49.4871],[40.0543,49.5198],[40.1107,49.5453],[40.1307,49.5798],[40.1185,49.5885],[40.0177,49.6079],[39.974,49.6026],[39.9147,49.563],[39.8594,49.5456],[39.8015,49.5422],[39.7292,49.5808],[39.6533,49.5998],[39.6229,49.6135],[39.5974,49.648],[39.5704,49.7133],[39.5575,49.724],[39.4991,49.7281],[39.4436,49.7495],[39.3277,49.7263],[39.2609,49.7445],[39.238,49.7651],[39.181,49.8595],[39.1558,49.8736],[39.1171,49.8644],[39.0683,49.8211],[39.0323,49.8073],[38.9374,49.8035],[38.8522,49.8658],[38.7478,49.8854],[38.6873,49.9138],[38.6643,49.9627],[38.6195,49.9508],[38.5702,49.9566],[38.4975,49.9482],[38.4201,49.9718],[38.3763,49.9749],[38.3442,49.9921],[38.3141,50.0495],[38.2999,50.0605],[38.1739,50.0602],[38.1641,50.0304],[38.1713,49.9841],[38.1662,49.9406],[38.119,49.9192],[38.0665,49.9272],[38.0229,49.9091],[38.0004,49.8998],[37.9953,49.9213],[37.9466,49.9782],[37.9159,50.0033],[37.8428,50.0391],[37.7634,50.0626],[37.7276,50.0787],[37.6318,50.1741],[37.5971,50.1969],[37.5886,50.2146],[37.6016,50.249],[37.5992,50.2909],[37.5682,50.3125],[37.48,50.34],[37.4353,50.4249],[37.4152,50.4319],[37.3148,50.423],[37.2852,50.4153],[37.197,50.3624],[37.0517,50.3353],[36.9801,50.3421],[36.9141,50.3391],[36.8486,50.3237],[36.6826,50.2607],[36.6358,50.214],[36.5944,50.2044],[36.5495,50.2122],[36.5317,50.2288],[36.5364,50.2675],[36.4527,50.2936],[36.388,50.3064],[36.3395,50.2815],[36.292,50.274],[36.269,50.2814],[36.1693,50.3837],[36.1408,50.3929],[36.1332,50.4116],[36.1058,50.4211],[35.9319,50.4302],[35.8374,50.4232],[35.8054,50.4122],[35.7744,50.3869],[35.7377,50.3816],[35.6922,50.3442],[35.6316,50.345],[35.5702,50.3765],[35.5547,50.4333],[35.5227,50.4595],[35.4464,50.476],[35.4253,50.5005],[35.3777,50.6218],[35.3916,50.6464],[35.4689,50.6685],[35.4454,50.6875],[35.4471,50.7343],[35.4385,50.7624],[35.3791,50.7972],[35.3777,50.8337],[35.3414,50.8765],[35.3417,50.9159],[35.2936,50.9376],[35.2822,50.9611],[35.2781,50.9927],[35.3326,50.9999],[35.3551,51.0256],[35.3464,51.0366],[35.2743,51.0488],[35.2065,51.0389],[35.1726,51.0406],[35.1436,51.0585],[35.1238,51.0913],[35.0992,51.1832],[35.0594,51.2123],[34.9994,51.2021],[34.9618,51.2153],[34.8175,51.1747],[34.7481,51.1647],[34.6749,51.1677],[34.6428,51.1806],[34.6224,51.2248],[34.5782,51.2367],[34.5135,51.2296],[34.409,51.2531],[34.337,51.2511],[34.2818,51.2264],[34.186,51.2489],[34.2439,51.2741],[34.2836,51.3012],[34.3087,51.3346],[34.3002,51.3684],[34.2803,51.3613],[34.2305,51.3677],[34.1819,51.4023],[34.2196,51.4273],[34.2121,51.455],[34.2237,51.5148],[34.2024,51.5462],[34.1603,51.5761],[34.1401,51.6212],[34.0795,51.6431],[34.0891,51.6666],[34.128,51.6807],[34.2982,51.7061],[34.3763,51.7086],[34.4142,51.7365],[34.4127,51.7777],[34.3711,51.8268],[34.2767,51.8812],[34.2342,51.8783],[34.231,51.8945],[34.1462,51.9516],[34.0962,51.9518],[34.1011,51.9925],[34.0682,52.031],[34.0567,52.1058],[34.0739,52.1283],[34.0557,52.1703],[34.0219,52.1979],[33.9578,52.2247],[33.9007,52.2859],[33.8391,52.3139],[33.8041,52.3546],[33.7336,52.361],[33.6879,52.3558],[33.6002,52.3308],[33.5317,52.2888],[33.493,52.3031],[33.4994,52.341],[33.4805,52.3578],[33.4373,52.3392],[33.4006,52.3443],[33.359,52.3576],[33.2943,52.3573],[33.1965,52.3689],[33.1666,52.3601],[33.128,52.3327],[33.0704,52.3042],[33.0301,52.3036],[32.9269,52.2469],[32.8908,52.2423],[32.8442,52.2623],[32.7254,52.2521],[32.5284,52.3162],[32.4806,52.3071],[32.3943,52.3268],[32.3536,52.3216],[32.3395,52.2872],[32.367,52.2472],[32.3282,52.2192],[32.3067,52.1412],[32.2777,52.1027],[32.2333,52.0809],[32.0956,52.0407],[32.0169,52.0498],[31.9806,52.0476],[31.9272,52.0311],[31.892,52.0362],[31.8821,52.0864],[31.8258,52.1041],[31.7643,52.1006],[31.6499,52.0968],[31.4749,52.1178],[31.3831,52.1175],[31.3044,52.0975],[31.2524,52.0445],[31.2049,52.0439],[31.1348,52.0767],[31.0963,52.0796],[30.9593,52.0747],[30.9188,52.0592],[30.9113,52.0226],[30.9405,52.0201],[30.9412,51.9938],[30.9028,52],[30.858,51.9576],[30.8031,51.9391],[30.8106,51.9184],[30.7795,51.8979],[30.7497,51.8996],[30.7345,51.8737],[30.714,51.867],[30.662,51.8194],[30.6706,51.7905],[30.6182,51.7613],[30.6462,51.7545],[30.6306,51.7156],[30.6138,51.7029],[30.5703,51.6999],[30.5703,51.6515],[30.5566,51.6236],[30.5151,51.6037],[30.5431,51.5826],[30.5226,51.5689],[30.5341,51.5533],[30.584,51.5423],[30.5629,51.5218],[30.6182,51.4597],[30.586,51.4518],[30.5879,51.4274],[30.6226,51.4121],[30.6456,51.3675],[30.6383,51.3359],[30.5799,51.3037],[30.5566,51.2673],[30.5547,51.2425],[30.5396,51.2352],[30.5081,51.2577],[30.465,51.2619],[30.4281,51.2918],[30.3838,51.2939],[30.3551,51.3053],[30.3199,51.3416],[30.329,51.3886],[30.3074,51.4096],[30.2569,51.4251],[30.2054,51.4665],[30.1486,51.4844],[30.0087,51.4821],[29.9251,51.4579],[29.8863,51.4648],[29.8466,51.4329],[29.8286,51.43],[29.7379,51.4395],[29.7,51.4837],[29.6608,51.4931],[29.618,51.4856],[29.5682,51.4496],[29.5055,51.4375],[29.4663,51.3851],[29.4027,51.3961],[29.3533,51.3771],[29.3199,51.3656],[29.297,51.3737],[29.2649,51.4329],[29.221,51.467],[29.2265,51.5191],[29.1815,51.567],[29.1604,51.6033],[29.1239,51.625],[29.0837,51.6312],[29.0436,51.6262],[29,51.5824],[28.9546,51.5633],[28.8636,51.5589],[28.7999,51.5326],[28.7522,51.4837],[28.7516,51.4287],[28.7288,51.4013],[28.704,51.4426],[28.6636,51.434],[28.6309,51.4636],[28.6039,51.5535],[28.4884,51.572],[28.4353,51.5661],[28.3469,51.5252],[28.3339,51.5284],[28.3109,51.5745],[28.2494,51.6131],[28.2451,51.6406],[28.21,51.652],[28.1662,51.6331],[28.1142,51.5756],[28.0708,51.5576],[27.9732,51.5578],[27.9361,51.567],[27.8756,51.608],[27.8542,51.6153],[27.8125,51.602],[27.7932,51.565],[27.7971,51.5306],[27.7873,51.5109],[27.7406,51.4714],[27.7143,51.4637],[27.6661,51.4902],[27.7052,51.5684],[27.6768,51.5948],[27.6206,51.5959],[27.5124,51.6231],[27.4773,51.6237],[27.431,51.5984],[27.3884,51.5907],[27.3291,51.597],[27.2675,51.5875],[27.254,51.5954],[27.2775,51.6511],[27.2036,51.6551],[27.1811,51.6834],[27.1779,51.7471],[27.11,51.7624],[27.0216,51.7645],[26.9208,51.7425],[26.8548,51.7493],[26.6657,51.8014],[26.4456,51.8056],[26.4192,51.8209],[26.4078,51.8506],[26.1753,51.8567],[26.1454,51.8648],[26.0808,51.9007],[25.9811,51.9035],[25.7679,51.9285],[25.6835,51.918],[25.5474,51.9194],[25.352,51.9215],[25.1833,51.9498],[25.0927,51.9398],[25.0027,51.9105],[24.7218,51.8823],[24.6398,51.8921],[24.3908,51.88],[24.3479,51.8612],[24.2961,51.8081],[24.2723,51.7429],[24.2441,51.7182],[24.1308,51.6698],[23.9813,51.586],[23.9413,51.5819],[23.8849,51.6199],[23.7497,51.6445],[23.7262,51.6449],[23.629,51.629],[23.5944,51.605],[23.6263,51.5409],[23.6241,51.5159],[23.6062,51.5174],[23.6148,51.4972],[23.6628,51.4802],[23.6487,51.454],[23.6976,51.4044],[23.6789,51.3941],[23.6839,51.3703],[23.634,51.3393],[23.6352,51.3047],[23.6873,51.2924],[23.7427,51.2163],[23.7652,51.199],[23.816,51.1788],[23.8747,51.1361],[23.8545,51.1215],[23.9042,51.0627],[23.9117,51.0068],[23.9551,50.9836],[23.9793,50.9375],[24.0469,50.898],[24.1302,50.8689],[24.1309,50.8391],[24.0469,50.8291],[24.0205,50.8386],[23.9699,50.8252],[23.9576,50.808],[23.9743,50.7762],[24.0259,50.767],[24.0128,50.7433],[24.0269,50.728],[24.081,50.713],[24.0749,50.6902],[24.1082,50.6303],[24.0853,50.6044],[24.0954,50.5569],[24.1077,50.5408],[24.075,50.5143],[24.0107,50.4928],[24.0032,50.4377],[23.9813,50.4048],[23.9287,50.3908],[23.7475,50.3894],[23.6957,50.3768],[23.6587,50.327],[23.5653,50.2578],[23.4364,50.1935],[23.2079,50.034],[23.1778,50.004],[23.1015,49.9571],[22.993,49.8544],[22.9512,49.8266],[22.9244,49.7854],[22.8882,49.7697],[22.8266,49.6974],[22.7773,49.6805],[22.7417,49.6337],[22.6658,49.5674],[22.6409,49.5288],[22.6669,49.4784],[22.6796,49.4189],[22.7142,49.3906],[22.7242,49.3671],[22.7378,49.2754],[22.7029,49.195],[22.6817,49.1612],[22.7057,49.1688],[22.7488,49.1456],[22.7781,49.1203],[22.8534,49.0848],[22.8475,49.0337],[22.865,49.0132],[22.8553,48.994],[22.784,49.0214],[22.7553,49.0447],[22.6429,49.0432],[22.5808,49.0814],[22.5396,49.0722],[22.5248,49.0329],[22.5205,48.9929],[22.449,48.9714],[22.4149,48.9117],[22.4118,48.8878],[22.3708,48.8582],[22.3623,48.8443],[22.3657,48.7944],[22.3308,48.7564],[22.3225,48.7003],[22.2943,48.6676],[22.2555,48.6568],[22.219,48.6209],[22.1537,48.5859],[22.1367,48.5493],[22.1483,48.5088],[22.1338,48.4768],[22.1328,48.4048]]],[[[31.5044,46.3734],[31.522,46.3132],[31.5268,46.3077],[31.5271,46.3066],[31.5631,46.258],[31.6999,46.2146],[32.0095,46.1677],[32.1499,46.1538],[32.1498,46.1539],[32.1503,46.1538],[32.1496,46.154],[32.1501,46.154],[32.1494,46.1542],[32.1499,46.1542],[32.1498,46.1543],[32.1503,46.1542],[32.1354,46.1597],[32.1531,46.156],[32.0937,46.1751],[32.0135,46.2046],[31.6391,46.2723],[31.5851,46.3035],[31.5273,46.3566],[31.522,46.3685],[31.5111,46.3715],[31.5095,46.373],[31.5096,46.3725],[31.5091,46.373],[31.5092,46.3725],[31.5091,46.3726],[31.5093,46.372],[31.5044,46.3734]]]]}},
{"type":"Feature","properties":{"entityId":"ukraine","from":2014,"to":2022,"certainty":"estimated","source":"유럽 쪽은 Natural Earth 1:10m admin-1(v5.1.2) 현대 행정구역 조각을 그 시기 국경에 맞춰 묶고, 조각이 역사 경계와 다른 곳은 선을 그어 나눈 근사. 유럽 밖(시베리아·중앙아시아·극동)은 대략적인 추정. 운영자 검수 필요"},"geometry":{"type":"MultiPolygon","coordinates":[[[[22.1328,48.4048],[22.1583,48.4022],[22.202,48.4182],[22.2718,48.4035],[22.2568,48.3573],[22.2913,48.3576],[22.3081,48.2937],[22.3571,48.2431],[22.4342,48.2367],[22.4814,48.2426],[22.5558,48.1772],[22.6001,48.1011],[22.6932,48.1018],[22.7457,48.1163],[22.831,48.0724],[22.8616,48.0284],[22.8495,47.9931],[22.8324,47.9789],[22.8776,47.9467],[22.9158,47.9592],[22.9157,47.993],[22.9393,48.0057],[22.9882,47.9864],[23.0203,47.9847],[23.0631,48.0075],[23.099,48.0712],[23.1186,48.0915],[23.1617,48.0959],[23.2314,48.0797],[23.3601,47.9931],[23.396,47.9931],[23.4608,47.9713],[23.4855,47.9742],[23.5145,47.999],[23.5632,48.0058],[23.7105,47.9851],[23.7801,47.9875],[23.8766,47.9344],[23.9773,47.9623],[24.0948,47.9379],[24.1312,47.9145],[24.231,47.897],[24.2979,47.9198],[24.3472,47.9209],[24.3862,47.9437],[24.4285,47.9525],[24.4856,47.9432],[24.5698,47.9373],[24.6085,47.9219],[24.6493,47.8952],[24.6615,47.8539],[24.7128,47.8259],[24.7937,47.8045],[24.8207,47.7841],[24.8778,47.7187],[24.9289,47.7139],[24.9424,47.7156],[25.0174,47.7246],[25.0799,47.7429],[25.1219,47.7703],[25.219,47.8785],[25.2617,47.8986],[25.7525,47.9346],[25.8184,47.9526],[25.9181,47.9682],[25.9657,47.9649],[26.0293,47.9778],[26.1025,47.9783],[26.1731,47.9931],[26.2048,48.0374],[26.2553,48.0723],[26.287,48.1247],[26.3035,48.212],[26.3303,48.2085],[26.3974,48.2262],[26.4447,48.2277],[26.5874,48.2494],[26.6179,48.259],[26.6361,48.2949],[26.6691,48.3088],[26.6798,48.3302],[26.6994,48.3251],[26.7359,48.2918],[26.7546,48.2861],[26.7857,48.2941],[26.7894,48.3259],[26.7775,48.3662],[26.7881,48.376],[26.8169,48.3717],[26.8428,48.3937],[26.876,48.384],[26.9432,48.3513],[26.9906,48.3624],[27.0331,48.3602],[27.0263,48.3971],[27.1758,48.3618],[27.2086,48.3606],[27.2519,48.3783],[27.306,48.4237],[27.3422,48.4361],[27.3898,48.415],[27.4202,48.4171],[27.4809,48.4514],[27.5038,48.4724],[27.5571,48.4744],[27.583,48.486],[27.6048,48.4841],[27.6069,48.4578],[27.627,48.4513],[27.7518,48.452],[27.7853,48.4416],[27.8499,48.4096],[27.8854,48.3784],[27.9264,48.3394],[28.0032,48.3259],[28.0559,48.3215],[28.0928,48.3021],[28.0983,48.2841],[28.0787,48.2449],[28.1311,48.2396],[28.1785,48.2589],[28.1999,48.2117],[28.2403,48.2116],[28.2945,48.2365],[28.3406,48.2401],[28.3682,48.2306],[28.3634,48.191],[28.3222,48.1632],[28.3174,48.1354],[28.3496,48.1297],[28.3886,48.1686],[28.4116,48.1707],[28.4369,48.1499],[28.419,48.1222],[28.4474,48.0828],[28.49,48.0655],[28.4998,48.1089],[28.5193,48.1491],[28.5736,48.155],[28.6656,48.1293],[28.7351,48.1287],[28.7712,48.1245],[28.7993,48.1118],[28.8276,48.057],[28.8325,48.0248],[28.8621,48.0005],[28.8826,47.9768],[28.9361,47.9422],[28.9808,47.9264],[29.0172,47.9311],[29.061,47.9698],[29.0927,47.9802],[29.124,47.976],[29.148,47.9554],[29.1646,47.9056],[29.1866,47.8836],[29.236,47.8707],[29.2328,47.8571],[29.1867,47.8182],[29.1778,47.7897],[29.222,47.7748],[29.2386,47.756],[29.197,47.7175],[29.1924,47.6509],[29.1821,47.6132],[29.1305,47.5596],[29.1174,47.5333],[29.1372,47.484],[29.1639,47.4394],[29.1821,47.4299],[29.2019,47.4466],[29.2326,47.4463],[29.2507,47.4254],[29.2814,47.4115],[29.3008,47.3782],[29.3458,47.3658],[29.3589,47.3527],[29.3709,47.3044],[29.4096,47.2798],[29.4417,47.2821],[29.4592,47.2935],[29.4809,47.3383],[29.521,47.3389],[29.5566,47.324],[29.5793,47.2836],[29.5802,47.2605],[29.5687,47.2431],[29.544,47.2343],[29.5404,47.2125],[29.5506,47.1602],[29.5448,47.1356],[29.5304,47.1237],[29.4809,47.1175],[29.4809,47.1052],[29.5115,47.066],[29.531,47.066],[29.5514,47.0902],[29.5702,47.0914],[29.5949,47.0746],[29.603,47.0458],[29.5725,47.0118],[29.5606,46.9613],[29.5675,46.9347],[29.5985,46.9354],[29.6319,46.9144],[29.6962,46.9047],[29.7541,46.858],[29.8436,46.8541],[29.8722,46.8377],[29.8849,46.8127],[29.9174,46.814],[29.9307,46.8031],[29.9318,46.7724],[29.9511,46.7431],[29.9444,46.6625],[29.9319,46.6324],[29.9497,46.5789],[29.9381,46.5573],[29.8988,46.5531],[29.9161,46.5188],[29.9602,46.5059],[29.9706,46.4917],[29.9949,46.4985],[30.0217,46.4707],[30.0141,46.462],[30.077,46.4228],[30.1316,46.4228],[30.0811,46.3742],[30.0373,46.3689],[29.9187,46.3737],[29.8847,46.3642],[29.8478,46.3415],[29.8082,46.3547],[29.8003,46.3984],[29.7796,46.4211],[29.7141,46.4712],[29.7029,46.4283],[29.6544,46.4227],[29.6455,46.3756],[29.6156,46.3618],[29.583,46.3697],[29.5414,46.413],[29.4809,46.4252],[29.4753,46.4476],[29.4882,46.4694],[29.4567,46.4844],[29.4182,46.4625],[29.3747,46.4162],[29.3621,46.4159],[29.3208,46.4687],[29.2891,46.4516],[29.2833,46.3974],[29.2592,46.3944],[29.2007,46.3571],[29.1834,46.3776],[29.2056,46.4061],[29.2068,46.5025],[29.1831,46.538],[29.1627,46.5381],[29.0559,46.4987],[29.0203,46.4895],[28.9458,46.4548],[28.9254,46.4328],[28.9192,46.4047],[28.9273,46.368],[28.9449,46.3207],[28.9458,46.305],[28.9329,46.2726],[28.9335,46.259],[28.9841,46.2212],[29.0098,46.2044],[29.0154,46.1826],[28.9808,46.1321],[28.9464,46.1051],[28.9412,46.0647],[28.9589,46.021],[28.9569,46.0014],[28.932,45.9932],[28.7576,45.9612],[28.7292,45.9386],[28.7284,45.922],[28.7464,45.8706],[28.7383,45.8376],[28.6698,45.812],[28.6698,45.7773],[28.6436,45.7665],[28.5767,45.7619],[28.5635,45.7355],[28.5614,45.7166],[28.5042,45.6937],[28.474,45.6579],[28.5113,45.635],[28.5231,45.5932],[28.5369,45.5798],[28.5037,45.5661],[28.5065,45.5206],[28.4809,45.502],[28.4168,45.5038],[28.3419,45.5176],[28.2704,45.5215],[28.2173,45.4933],[28.1995,45.4618],[28.2151,45.4504],[28.2669,45.4405],[28.2864,45.4217],[28.2812,45.4018],[28.3302,45.3229],[28.4052,45.2951],[28.4942,45.2789],[28.577,45.2481],[28.7101,45.227],[28.7787,45.2311],[28.8027,45.2442],[28.7673,45.2578],[28.7615,45.2818],[28.7902,45.2921],[28.7897,45.3214],[28.8163,45.3261],[28.8809,45.3062],[28.9299,45.2791],[28.9528,45.2851],[28.9665,45.3199],[29.0182,45.3309],[29.0695,45.3608],[29.1743,45.389],[29.2282,45.4237],[29.2818,45.4223],[29.3221,45.4438],[29.3537,45.4359],[29.4306,45.4304],[29.5697,45.395],[29.6503,45.3461],[29.6671,45.3119],[29.6723,45.2729],[29.659,45.2159],[29.6954,45.2213],[29.7088,45.2233],[29.7562,45.3212],[29.7502,45.3858],[29.73,45.4126],[29.7378,45.4201],[29.7559,45.4279],[29.7541,45.4356],[30.1793,45.842],[30.2049,45.8559],[30.2614,45.8955],[30.3025,45.9338],[30.4302,46.0375],[30.4942,46.0805],[30.5035,46.0976],[30.5123,46.1052],[30.6234,46.2298],[30.6535,46.2596],[30.6824,46.2995],[30.6865,46.32],[30.6851,46.3209],[30.7072,46.3484],[30.7145,46.348],[30.7725,46.3964],[30.7982,46.4464],[30.7821,46.4572],[30.7728,46.4773],[30.7967,46.5514],[30.8294,46.5584],[30.867,46.5558],[30.9062,46.5747],[30.9482,46.5837],[30.9592,46.5834],[30.9669,46.5877],[31.1098,46.6181],[31.1484,46.6236],[31.2563,46.6163],[31.3377,46.6013],[31.4286,46.6376],[31.4737,46.6796],[31.5118,46.6847],[31.481,46.6464],[31.493,46.6287],[31.5789,46.6173],[31.5972,46.6432],[31.6265,46.647],[31.6567,46.6416],[31.6871,46.639],[31.6988,46.575],[31.7024,46.5552],[31.5643,46.5552],[31.5301,46.575],[31.5083,46.5876],[31.517,46.575],[31.5244,46.5642],[31.6414,46.4821],[31.6636,46.4721],[31.6865,46.4299],[31.6903,46.4786],[31.6933,46.4804],[31.7143,46.4715],[31.7177,46.4713],[31.7282,46.4138],[31.7362,46.3703],[31.7431,46.3325],[31.7787,46.3267],[31.7725,46.3027],[31.8192,46.2806],[31.8823,46.2791],[31.8828,46.2851],[31.9268,46.2875],[31.9626,46.2788],[31.9684,46.2757],[32.0181,46.2575],[32.0336,46.2617],[32.0347,46.2614],[32.0838,46.2394],[32.1154,46.2145],[32.1698,46.201],[32.2461,46.1669],[32.2625,46.1282],[32.3025,46.1167],[32.5034,46.0761],[32.5437,46.0805],[32.575,46.0973],[32.7982,46.1312],[32.8043,46.1309],[32.8446,46.1214],[32.9131,46.1152],[33.0111,46.1269],[33.2983,46.0803],[33.394,46.0044],[33.4034,45.9969],[33.449,45.9608],[33.4945,45.9608],[33.4945,45.9579],[33.54,45.9579],[33.54,45.9969],[33.5855,45.9969],[33.5855,46.1187],[33.632,46.1187],[33.6285,46.1249],[33.6604,46.1482],[33.6715,46.173],[33.6616,46.2102],[33.6703,46.2181],[33.7157,46.1957],[33.7552,46.1934],[33.8019,46.2027],[33.8462,46.1957],[34.0259,46.1164],[34.1052,46.0954],[34.1612,46.0907],[34.2009,46.1],[34.2359,46.0977],[34.3013,46.0697],[34.3339,46.0697],[34.3619,46.0557],[34.4109,45.988],[34.4646,45.9553],[34.5043,45.9507],[34.53,45.981],[34.5696,45.9763],[34.642,45.981],[34.6886,45.974],[34.7633,45.932],[34.7843,45.8993],[34.789,45.8037],[34.81,45.785],[34.8707,45.7733],[34.9523,45.722],[35.0019,45.729],[35.008,45.7205],[35.0131,45.7205],[35.0106,45.7473],[35.0081,45.774],[35.0032,45.8275],[34.965,46.2404],[35.0308,46.2518],[35.075,46.2711],[35.1051,46.2951],[35.1678,46.361],[35.1724,46.3643],[35.2637,46.4038],[35.2686,46.3982],[35.2586,46.3734],[35.2676,46.3511],[35.2911,46.3439],[35.2892,46.3139],[35.2793,46.282],[35.2784,46.2792],[35.2563,46.2623],[35.2305,46.2425],[35.2172,46.2323],[35.2171,46.2322],[35.0881,46.1512],[35.0444,46.1419],[35.0518,46.1284],[35.0389,46.1203],[34.9854,46.0875],[35,46.0736],[35.0623,46.0986],[35.0965,46.1042],[35.1618,46.1282],[35.2095,46.1699],[35.2146,46.1768],[35.2572,46.2042],[35.2661,46.2151],[35.2919,46.2468],[35.3176,46.2784],[35.4003,46.3801],[35.4455,46.406],[35.4481,46.408],[35.5709,46.4783],[35.6287,46.4985],[35.6613,46.5193],[35.7071,46.5563],[35.8181,46.6198],[35.8336,46.6259],[35.9654,46.6536],[36.0741,46.6597],[36.1928,46.6451],[36.1932,46.6451],[36.2237,46.65],[36.2676,46.6256],[36.2783,46.6074],[36.2844,46.6364],[36.3035,46.6592],[36.3233,46.6736],[36.7584,46.6981],[36.7931,46.7149],[36.794,46.7145],[36.7941,46.7146],[36.7944,46.7145],[36.7974,46.717],[36.8011,46.7188],[36.7903,46.6713],[36.7693,46.6374],[36.8123,46.6806],[36.8296,46.7319],[36.8304,46.733],[36.9451,46.7887],[37.0024,46.8165],[37.0598,46.8444],[37.1172,46.8722],[37.1745,46.9001],[37.2024,46.9136],[37.2192,46.9177],[37.2893,46.9167],[37.3174,46.9008],[37.313,46.8756],[37.3352,46.8825],[37.3779,46.9339],[37.4335,46.9879],[37.4838,47.0274],[37.8418,47.0638],[37.86,47.2],[37.88,47.35],[37.87,47.5],[37.76,47.6],[37.64,47.71],[37.62,47.79],[37.56,47.87],[37.56,47.96],[37.63,48.01],[37.73,48.06],[37.82,48.14],[37.88,48.24],[37.93,48.33],[38.05,48.37],[38.2,48.38],[38.33,48.4],[38.395,48.4355],[38.44,48.46],[38.46,48.52],[38.48,48.62],[38.58,48.67],[38.7,48.68],[38.85,48.67],[39.05,48.71],[39.25,48.7],[39.42,48.65],[39.58,48.61],[39.635,48.585],[39.6919,48.5936],[39.6901,48.5937],[39.6317,48.5869],[39.7029,48.7466],[39.7363,48.7615],[39.7794,48.8077],[39.8242,48.8156],[39.935,48.7867],[39.9753,48.7897],[40.0196,48.8131],[40.0528,48.8497],[40.0538,48.8692],[40.0089,48.8878],[39.9504,48.8528],[39.8965,48.8799],[39.8619,48.8764],[39.7587,48.8954],[39.726,48.937],[39.674,48.9701],[39.6811,49.0203],[39.6983,49.0284],[39.7489,49.0262],[39.8315,49.0453],[39.8913,49.0418],[39.9187,49.0478],[39.9309,49.1006],[39.9796,49.1419],[40.0384,49.1685],[40.0909,49.2173],[40.1417,49.2458],[40.1427,49.2819],[40.1595,49.3336],[40.1014,49.3855],[40.0409,49.4555],[40.0349,49.4871],[40.0543,49.5198],[40.1107,49.5453],[40.1307,49.5798],[40.1185,49.5885],[40.0177,49.6079],[39.974,49.6026],[39.9147,49.563],[39.8594,49.5456],[39.8015,49.5422],[39.7292,49.5808],[39.6533,49.5998],[39.6229,49.6135],[39.5974,49.648],[39.5704,49.7133],[39.5575,49.724],[39.4991,49.7281],[39.4436,49.7495],[39.3277,49.7263],[39.2609,49.7445],[39.238,49.7651],[39.181,49.8595],[39.1558,49.8736],[39.1171,49.8644],[39.0683,49.8211],[39.0323,49.8073],[38.9374,49.8035],[38.8522,49.8658],[38.7478,49.8854],[38.6873,49.9138],[38.6643,49.9627],[38.6195,49.9508],[38.5702,49.9566],[38.4975,49.9482],[38.4201,49.9718],[38.3763,49.9749],[38.3442,49.9921],[38.3141,50.0495],[38.2999,50.0605],[38.1739,50.0602],[38.1641,50.0304],[38.1713,49.9841],[38.1662,49.9406],[38.119,49.9192],[38.0665,49.9272],[38.0229,49.9091],[38.0004,49.8998],[37.9953,49.9213],[37.9466,49.9782],[37.9159,50.0033],[37.8428,50.0391],[37.7634,50.0626],[37.7276,50.0787],[37.6318,50.1741],[37.5971,50.1969],[37.5886,50.2146],[37.6016,50.249],[37.5992,50.2909],[37.5682,50.3125],[37.48,50.34],[37.4353,50.4249],[37.4152,50.4319],[37.3148,50.423],[37.2852,50.4153],[37.197,50.3624],[37.0517,50.3353],[36.9801,50.3421],[36.9141,50.3391],[36.8486,50.3237],[36.6826,50.2607],[36.6358,50.214],[36.5944,50.2044],[36.5495,50.2122],[36.5317,50.2288],[36.5364,50.2675],[36.4527,50.2936],[36.388,50.3064],[36.3395,50.2815],[36.292,50.274],[36.269,50.2814],[36.1693,50.3837],[36.1408,50.3929],[36.1332,50.4116],[36.1058,50.4211],[35.9319,50.4302],[35.8374,50.4232],[35.8054,50.4122],[35.7744,50.3869],[35.7377,50.3816],[35.6922,50.3442],[35.6316,50.345],[35.5702,50.3765],[35.5547,50.4333],[35.5227,50.4595],[35.4464,50.476],[35.4253,50.5005],[35.3777,50.6218],[35.3916,50.6464],[35.4689,50.6685],[35.4454,50.6875],[35.4471,50.7343],[35.4385,50.7624],[35.3791,50.7972],[35.3777,50.8337],[35.3414,50.8765],[35.3417,50.9159],[35.2936,50.9376],[35.2822,50.9611],[35.2781,50.9927],[35.3326,50.9999],[35.3551,51.0256],[35.3464,51.0366],[35.2743,51.0488],[35.2065,51.0389],[35.1726,51.0406],[35.1436,51.0585],[35.1238,51.0913],[35.0992,51.1832],[35.0594,51.2123],[34.9994,51.2021],[34.9618,51.2153],[34.8175,51.1747],[34.7481,51.1647],[34.6749,51.1677],[34.6428,51.1806],[34.6224,51.2248],[34.5782,51.2367],[34.5135,51.2296],[34.409,51.2531],[34.337,51.2511],[34.2818,51.2264],[34.186,51.2489],[34.2439,51.2741],[34.2836,51.3012],[34.3087,51.3346],[34.3002,51.3684],[34.2803,51.3613],[34.2305,51.3677],[34.1819,51.4023],[34.2196,51.4273],[34.2121,51.455],[34.2237,51.5148],[34.2024,51.5462],[34.1603,51.5761],[34.1401,51.6212],[34.0795,51.6431],[34.0891,51.6666],[34.128,51.6807],[34.2982,51.7061],[34.3763,51.7086],[34.4142,51.7365],[34.4127,51.7777],[34.3711,51.8268],[34.2767,51.8812],[34.2342,51.8783],[34.231,51.8945],[34.1462,51.9516],[34.0962,51.9518],[34.1011,51.9925],[34.0682,52.031],[34.0567,52.1058],[34.0739,52.1283],[34.0557,52.1703],[34.0219,52.1979],[33.9578,52.2247],[33.9007,52.2859],[33.8391,52.3139],[33.8041,52.3546],[33.7336,52.361],[33.6879,52.3558],[33.6002,52.3308],[33.5317,52.2888],[33.493,52.3031],[33.4994,52.341],[33.4805,52.3578],[33.4373,52.3392],[33.4006,52.3443],[33.359,52.3576],[33.2943,52.3573],[33.1965,52.3689],[33.1666,52.3601],[33.128,52.3327],[33.0704,52.3042],[33.0301,52.3036],[32.9269,52.2469],[32.8908,52.2423],[32.8442,52.2623],[32.7254,52.2521],[32.5284,52.3162],[32.4806,52.3071],[32.3943,52.3268],[32.3536,52.3216],[32.3395,52.2872],[32.367,52.2472],[32.3282,52.2192],[32.3067,52.1412],[32.2777,52.1027],[32.2333,52.0809],[32.0956,52.0407],[32.0169,52.0498],[31.9806,52.0476],[31.9272,52.0311],[31.892,52.0362],[31.8821,52.0864],[31.8258,52.1041],[31.7643,52.1006],[31.6499,52.0968],[31.4749,52.1178],[31.3831,52.1175],[31.3044,52.0975],[31.2524,52.0445],[31.2049,52.0439],[31.1348,52.0767],[31.0963,52.0796],[30.9593,52.0747],[30.9188,52.0592],[30.9113,52.0226],[30.9405,52.0201],[30.9412,51.9938],[30.9028,52],[30.858,51.9576],[30.8031,51.9391],[30.8106,51.9184],[30.7795,51.8979],[30.7497,51.8996],[30.7345,51.8737],[30.714,51.867],[30.662,51.8194],[30.6706,51.7905],[30.6182,51.7613],[30.6462,51.7545],[30.6306,51.7156],[30.6138,51.7029],[30.5703,51.6999],[30.5703,51.6515],[30.5566,51.6236],[30.5151,51.6037],[30.5431,51.5826],[30.5226,51.5689],[30.5341,51.5533],[30.584,51.5423],[30.5629,51.5218],[30.6182,51.4597],[30.586,51.4518],[30.5879,51.4274],[30.6226,51.4121],[30.6456,51.3675],[30.6383,51.3359],[30.5799,51.3037],[30.5566,51.2673],[30.5547,51.2425],[30.5396,51.2352],[30.5081,51.2577],[30.465,51.2619],[30.4281,51.2918],[30.3838,51.2939],[30.3551,51.3053],[30.3199,51.3416],[30.329,51.3886],[30.3074,51.4096],[30.2569,51.4251],[30.2054,51.4665],[30.1486,51.4844],[30.0087,51.4821],[29.9251,51.4579],[29.8863,51.4648],[29.8466,51.4329],[29.8286,51.43],[29.7379,51.4395],[29.7,51.4837],[29.6608,51.4931],[29.618,51.4856],[29.5682,51.4496],[29.5055,51.4375],[29.4663,51.3851],[29.4027,51.3961],[29.3533,51.3771],[29.3199,51.3656],[29.297,51.3737],[29.2649,51.4329],[29.221,51.467],[29.2265,51.5191],[29.1815,51.567],[29.1604,51.6033],[29.1239,51.625],[29.0837,51.6312],[29.0436,51.6262],[29,51.5824],[28.9546,51.5633],[28.8636,51.5589],[28.7999,51.5326],[28.7522,51.4837],[28.7516,51.4287],[28.7288,51.4013],[28.704,51.4426],[28.6636,51.434],[28.6309,51.4636],[28.6039,51.5535],[28.4884,51.572],[28.4353,51.5661],[28.3469,51.5252],[28.3339,51.5284],[28.3109,51.5745],[28.2494,51.6131],[28.2451,51.6406],[28.21,51.652],[28.1662,51.6331],[28.1142,51.5756],[28.0708,51.5576],[27.9732,51.5578],[27.9361,51.567],[27.8756,51.608],[27.8542,51.6153],[27.8125,51.602],[27.7932,51.565],[27.7971,51.5306],[27.7873,51.5109],[27.7406,51.4714],[27.7143,51.4637],[27.6661,51.4902],[27.7052,51.5684],[27.6768,51.5948],[27.6206,51.5959],[27.5124,51.6231],[27.4773,51.6237],[27.431,51.5984],[27.3884,51.5907],[27.3291,51.597],[27.2675,51.5875],[27.254,51.5954],[27.2775,51.6511],[27.2036,51.6551],[27.1811,51.6834],[27.1779,51.7471],[27.11,51.7624],[27.0216,51.7645],[26.9208,51.7425],[26.8548,51.7493],[26.6657,51.8014],[26.4456,51.8056],[26.4192,51.8209],[26.4078,51.8506],[26.1753,51.8567],[26.1454,51.8648],[26.0808,51.9007],[25.9811,51.9035],[25.7679,51.9285],[25.6835,51.918],[25.5474,51.9194],[25.352,51.9215],[25.1833,51.9498],[25.0927,51.9398],[25.0027,51.9105],[24.7218,51.8823],[24.6398,51.8921],[24.3908,51.88],[24.3479,51.8612],[24.2961,51.8081],[24.2723,51.7429],[24.2441,51.7182],[24.1308,51.6698],[23.9813,51.586],[23.9413,51.5819],[23.8849,51.6199],[23.7497,51.6445],[23.7262,51.6449],[23.629,51.629],[23.5944,51.605],[23.6263,51.5409],[23.6241,51.5159],[23.6062,51.5174],[23.6148,51.4972],[23.6628,51.4802],[23.6487,51.454],[23.6976,51.4044],[23.6789,51.3941],[23.6839,51.3703],[23.634,51.3393],[23.6352,51.3047],[23.6873,51.2924],[23.7427,51.2163],[23.7652,51.199],[23.816,51.1788],[23.8747,51.1361],[23.8545,51.1215],[23.9042,51.0627],[23.9117,51.0068],[23.9551,50.9836],[23.9793,50.9375],[24.0469,50.898],[24.1302,50.8689],[24.1309,50.8391],[24.0469,50.8291],[24.0205,50.8386],[23.9699,50.8252],[23.9576,50.808],[23.9743,50.7762],[24.0259,50.767],[24.0128,50.7433],[24.0269,50.728],[24.081,50.713],[24.0749,50.6902],[24.1082,50.6303],[24.0853,50.6044],[24.0954,50.5569],[24.1077,50.5408],[24.075,50.5143],[24.0107,50.4928],[24.0032,50.4377],[23.9813,50.4048],[23.9287,50.3908],[23.7475,50.3894],[23.6957,50.3768],[23.6587,50.327],[23.5653,50.2578],[23.4364,50.1935],[23.2079,50.034],[23.1778,50.004],[23.1015,49.9571],[22.993,49.8544],[22.9512,49.8266],[22.9244,49.7854],[22.8882,49.7697],[22.8266,49.6974],[22.7773,49.6805],[22.7417,49.6337],[22.6658,49.5674],[22.6409,49.5288],[22.6669,49.4784],[22.6796,49.4189],[22.7142,49.3906],[22.7242,49.3671],[22.7378,49.2754],[22.7029,49.195],[22.6817,49.1612],[22.7057,49.1688],[22.7488,49.1456],[22.7781,49.1203],[22.8534,49.0848],[22.8475,49.0337],[22.865,49.0132],[22.8553,48.994],[22.784,49.0214],[22.7553,49.0447],[22.6429,49.0432],[22.5808,49.0814],[22.5396,49.0722],[22.5248,49.0329],[22.5205,48.9929],[22.449,48.9714],[22.4149,48.9117],[22.4118,48.8878],[22.3708,48.8582],[22.3623,48.8443],[22.3657,48.7944],[22.3308,48.7564],[22.3225,48.7003],[22.2943,48.6676],[22.2555,48.6568],[22.219,48.6209],[22.1537,48.5859],[22.1367,48.5493],[22.1483,48.5088],[22.1338,48.4768],[22.1328,48.4048]]],[[[31.5044,46.3734],[31.522,46.3132],[31.5268,46.3077],[31.5271,46.3066],[31.5631,46.258],[31.6999,46.2146],[32.0095,46.1677],[32.1499,46.1538],[32.1498,46.1539],[32.1503,46.1538],[32.1496,46.154],[32.1501,46.154],[32.1494,46.1542],[32.1499,46.1542],[32.1498,46.1543],[32.1503,46.1542],[32.1354,46.1597],[32.1531,46.156],[32.0937,46.1751],[32.0135,46.2046],[31.6391,46.2723],[31.5851,46.3035],[31.5273,46.3566],[31.522,46.3685],[31.5111,46.3715],[31.5095,46.373],[31.5096,46.3725],[31.5091,46.373],[31.5092,46.3725],[31.5091,46.3726],[31.5093,46.372],[31.5044,46.3734]]]]}},
{"type":"Feature","properties":{"entityId":"ukraine","from":2022,"to":null,"certainty":"estimated","source":"유럽 쪽은 Natural Earth 1:10m admin-1(v5.1.2) 현대 행정구역 조각을 그 시기 국경에 맞춰 묶고, 조각이 역사 경계와 다른 곳은 선을 그어 나눈 근사. 유럽 밖(시베리아·중앙아시아·극동)은 대략적인 추정. 운영자 검수 필요"},"geometry":{"type":"MultiPolygon","coordinates":[[[[22.1328,48.4048],[22.1583,48.4022],[22.202,48.4182],[22.2718,48.4035],[22.2568,48.3573],[22.2913,48.3576],[22.3081,48.2937],[22.3571,48.2431],[22.4342,48.2367],[22.4814,48.2426],[22.5558,48.1772],[22.6001,48.1011],[22.6932,48.1018],[22.7457,48.1163],[22.831,48.0724],[22.8616,48.0284],[22.8495,47.9931],[22.8324,47.9789],[22.8776,47.9467],[22.9158,47.9592],[22.9157,47.993],[22.9393,48.0057],[22.9882,47.9864],[23.0203,47.9847],[23.0631,48.0075],[23.099,48.0712],[23.1186,48.0915],[23.1617,48.0959],[23.2314,48.0797],[23.3601,47.9931],[23.396,47.9931],[23.4608,47.9713],[23.4855,47.9742],[23.5145,47.999],[23.5632,48.0058],[23.7105,47.9851],[23.7801,47.9875],[23.8766,47.9344],[23.9773,47.9623],[24.0948,47.9379],[24.1312,47.9145],[24.231,47.897],[24.2979,47.9198],[24.3472,47.9209],[24.3862,47.9437],[24.4285,47.9525],[24.4856,47.9432],[24.5698,47.9373],[24.6085,47.9219],[24.6493,47.8952],[24.6615,47.8539],[24.7128,47.8259],[24.7937,47.8045],[24.8207,47.7841],[24.8778,47.7187],[24.9289,47.7139],[24.9424,47.7156],[25.0174,47.7246],[25.0799,47.7429],[25.1219,47.7703],[25.219,47.8785],[25.2617,47.8986],[25.7525,47.9346],[25.8184,47.9526],[25.9181,47.9682],[25.9657,47.9649],[26.0293,47.9778],[26.1025,47.9783],[26.1731,47.9931],[26.2048,48.0374],[26.2553,48.0723],[26.287,48.1247],[26.3035,48.212],[26.3303,48.2085],[26.3974,48.2262],[26.4447,48.2277],[26.5874,48.2494],[26.6179,48.259],[26.6361,48.2949],[26.6691,48.3088],[26.6798,48.3302],[26.6994,48.3251],[26.7359,48.2918],[26.7546,48.2861],[26.7857,48.2941],[26.7894,48.3259],[26.7775,48.3662],[26.7881,48.376],[26.8169,48.3717],[26.8428,48.3937],[26.876,48.384],[26.9432,48.3513],[26.9906,48.3624],[27.0331,48.3602],[27.0263,48.3971],[27.1758,48.3618],[27.2086,48.3606],[27.2519,48.3783],[27.306,48.4237],[27.3422,48.4361],[27.3898,48.415],[27.4202,48.4171],[27.4809,48.4514],[27.5038,48.4724],[27.5571,48.4744],[27.583,48.486],[27.6048,48.4841],[27.6069,48.4578],[27.627,48.4513],[27.7518,48.452],[27.7853,48.4416],[27.8499,48.4096],[27.8854,48.3784],[27.9264,48.3394],[28.0032,48.3259],[28.0559,48.3215],[28.0928,48.3021],[28.0983,48.2841],[28.0787,48.2449],[28.1311,48.2396],[28.1785,48.2589],[28.1999,48.2117],[28.2403,48.2116],[28.2945,48.2365],[28.3406,48.2401],[28.3682,48.2306],[28.3634,48.191],[28.3222,48.1632],[28.3174,48.1354],[28.3496,48.1297],[28.3886,48.1686],[28.4116,48.1707],[28.4369,48.1499],[28.419,48.1222],[28.4474,48.0828],[28.49,48.0655],[28.4998,48.1089],[28.5193,48.1491],[28.5736,48.155],[28.6656,48.1293],[28.7351,48.1287],[28.7712,48.1245],[28.7993,48.1118],[28.8276,48.057],[28.8325,48.0248],[28.8621,48.0005],[28.8826,47.9768],[28.9361,47.9422],[28.9808,47.9264],[29.0172,47.9311],[29.061,47.9698],[29.0927,47.9802],[29.124,47.976],[29.148,47.9554],[29.1646,47.9056],[29.1866,47.8836],[29.236,47.8707],[29.2328,47.8571],[29.1867,47.8182],[29.1778,47.7897],[29.222,47.7748],[29.2386,47.756],[29.197,47.7175],[29.1924,47.6509],[29.1821,47.6132],[29.1305,47.5596],[29.1174,47.5333],[29.1372,47.484],[29.1639,47.4394],[29.1821,47.4299],[29.2019,47.4466],[29.2326,47.4463],[29.2507,47.4254],[29.2814,47.4115],[29.3008,47.3782],[29.3458,47.3658],[29.3589,47.3527],[29.3709,47.3044],[29.4096,47.2798],[29.4417,47.2821],[29.4592,47.2935],[29.4809,47.3383],[29.521,47.3389],[29.5566,47.324],[29.5793,47.2836],[29.5802,47.2605],[29.5687,47.2431],[29.544,47.2343],[29.5404,47.2125],[29.5506,47.1602],[29.5448,47.1356],[29.5304,47.1237],[29.4809,47.1175],[29.4809,47.1052],[29.5115,47.066],[29.531,47.066],[29.5514,47.0902],[29.5702,47.0914],[29.5949,47.0746],[29.603,47.0458],[29.5725,47.0118],[29.5606,46.9613],[29.5675,46.9347],[29.5985,46.9354],[29.6319,46.9144],[29.6962,46.9047],[29.7541,46.858],[29.8436,46.8541],[29.8722,46.8377],[29.8849,46.8127],[29.9174,46.814],[29.9307,46.8031],[29.9318,46.7724],[29.9511,46.7431],[29.9444,46.6625],[29.9319,46.6324],[29.9497,46.5789],[29.9381,46.5573],[29.8988,46.5531],[29.9161,46.5188],[29.9602,46.5059],[29.9706,46.4917],[29.9949,46.4985],[30.0217,46.4707],[30.0141,46.462],[30.077,46.4228],[30.1316,46.4228],[30.0811,46.3742],[30.0373,46.3689],[29.9187,46.3737],[29.8847,46.3642],[29.8478,46.3415],[29.8082,46.3547],[29.8003,46.3984],[29.7796,46.4211],[29.7141,46.4712],[29.7029,46.4283],[29.6544,46.4227],[29.6455,46.3756],[29.6156,46.3618],[29.583,46.3697],[29.5414,46.413],[29.4809,46.4252],[29.4753,46.4476],[29.4882,46.4694],[29.4567,46.4844],[29.4182,46.4625],[29.3747,46.4162],[29.3621,46.4159],[29.3208,46.4687],[29.2891,46.4516],[29.2833,46.3974],[29.2592,46.3944],[29.2007,46.3571],[29.1834,46.3776],[29.2056,46.4061],[29.2068,46.5025],[29.1831,46.538],[29.1627,46.5381],[29.0559,46.4987],[29.0203,46.4895],[28.9458,46.4548],[28.9254,46.4328],[28.9192,46.4047],[28.9273,46.368],[28.9449,46.3207],[28.9458,46.305],[28.9329,46.2726],[28.9335,46.259],[28.9841,46.2212],[29.0098,46.2044],[29.0154,46.1826],[28.9808,46.1321],[28.9464,46.1051],[28.9412,46.0647],[28.9589,46.021],[28.9569,46.0014],[28.932,45.9932],[28.7576,45.9612],[28.7292,45.9386],[28.7284,45.922],[28.7464,45.8706],[28.7383,45.8376],[28.6698,45.812],[28.6698,45.7773],[28.6436,45.7665],[28.5767,45.7619],[28.5635,45.7355],[28.5614,45.7166],[28.5042,45.6937],[28.474,45.6579],[28.5113,45.635],[28.5231,45.5932],[28.5369,45.5798],[28.5037,45.5661],[28.5065,45.5206],[28.4809,45.502],[28.4168,45.5038],[28.3419,45.5176],[28.2704,45.5215],[28.2173,45.4933],[28.1995,45.4618],[28.2151,45.4504],[28.2669,45.4405],[28.2864,45.4217],[28.2812,45.4018],[28.3302,45.3229],[28.4052,45.2951],[28.4942,45.2789],[28.577,45.2481],[28.7101,45.227],[28.7787,45.2311],[28.8027,45.2442],[28.7673,45.2578],[28.7615,45.2818],[28.7902,45.2921],[28.7897,45.3214],[28.8163,45.3261],[28.8809,45.3062],[28.9299,45.2791],[28.9528,45.2851],[28.9665,45.3199],[29.0182,45.3309],[29.0695,45.3608],[29.1743,45.389],[29.2282,45.4237],[29.2818,45.4223],[29.3221,45.4438],[29.3537,45.4359],[29.4306,45.4304],[29.5697,45.395],[29.6503,45.3461],[29.6671,45.3119],[29.6723,45.2729],[29.659,45.2159],[29.6954,45.2213],[29.7088,45.2233],[29.7562,45.3212],[29.7502,45.3858],[29.73,45.4126],[29.7378,45.4201],[29.7559,45.4279],[29.7541,45.4356],[30.1793,45.842],[30.2049,45.8559],[30.2614,45.8955],[30.3025,45.9338],[30.4302,46.0375],[30.4942,46.0805],[30.5035,46.0976],[30.5123,46.1052],[30.6234,46.2298],[30.6535,46.2596],[30.6824,46.2995],[30.6865,46.32],[30.6851,46.3209],[30.7072,46.3484],[30.7145,46.348],[30.7725,46.3964],[30.7982,46.4464],[30.7821,46.4572],[30.7728,46.4773],[30.7967,46.5514],[30.8294,46.5584],[30.867,46.5558],[30.9062,46.5747],[30.9482,46.5837],[30.9592,46.5834],[30.9669,46.5877],[31.1098,46.6181],[31.1484,46.6236],[31.2563,46.6163],[31.3377,46.6013],[31.4286,46.6376],[31.4737,46.6796],[31.5118,46.6847],[31.481,46.6464],[31.493,46.6287],[31.5789,46.6173],[31.5972,46.6432],[31.6265,46.647],[31.6567,46.6416],[31.6871,46.639],[31.6988,46.575],[31.9022,46.575],[31.9022,46.5627],[31.873,46.5627],[31.9,46.56],[32.15,46.545],[32.35,46.52],[32.5,46.57],[32.65,46.615],[32.78,46.64],[32.95,46.69],[33.3,46.76],[33.42,46.8],[33.55,46.92],[33.75,47.12],[33.95,47.3],[34.15,47.44],[34.2139,47.4605],[34.3805,47.5138],[34.4459,47.5229],[34.5838,47.5672],[34.4641,47.5287],[34.62,47.55],[34.6795,47.5536],[34.6446,47.5636],[34.7299,47.5392],[34.8326,47.5259],[34.8983,47.5232],[34.9161,47.5309],[34.9298,47.5708],[34.9291,47.5687],[34.95,47.57],[35.12,47.62],[35.27,47.57],[35.42,47.56],[35.62,47.52],[35.82,47.53],[35.97,47.6],[36.12,47.66],[36.22,47.76],[36.2905,47.8148],[36.3079,47.8138],[36.3612,47.8399],[36.392,47.8257],[36.5761,47.8442],[36.5695,47.8674],[36.5368,47.8801],[36.5344,47.905],[36.5846,47.9181],[36.6339,47.9217],[36.6162,47.9543],[36.5766,47.9707],[36.5713,48],[36.5806,48.0732],[36.5792,48.062],[36.6354,48.0852],[36.6032,48.082],[36.6651,48.0881],[36.7237,48.0756],[36.7506,48.0526],[36.8294,48.0321],[36.8926,48.0676],[36.8767,48.1249],[36.8719,48.1674],[36.9272,48.2015],[36.9056,48.2944],[36.9139,48.2585],[36.96,48.3],[37.08,48.37],[37.22,48.42],[37.36,48.42],[37.52,48.44],[37.66,48.48],[37.82,48.62],[37.88,48.7],[37.96,48.8],[37.95,48.9],[37.86,48.97],[37.88,49.03],[37.9832,49.1332],[37.9812,49.1322],[37.8953,49.1563],[37.8835,49.1684],[37.8982,49.1889],[37.9336,49.1996],[37.895,49.2081],[37.8473,49.2318],[37.8982,49.2583],[37.9261,49.2839],[37.9187,49.307],[37.8851,49.3131],[37.8871,49.3833],[37.8636,49.4172],[37.8759,49.4425],[37.9051,49.4497],[37.9257,49.4959],[37.9632,49.5201],[37.9532,49.551],[37.9632,49.5665],[37.9445,49.5968],[37.9983,49.652],[38.0011,49.7084],[37.9882,49.7219],[37.9507,49.7145],[37.9422,49.7305],[37.9739,49.7532],[38.0048,49.7505],[38.0435,49.7907],[38.0016,49.8122],[38.0053,49.8265],[38.0647,49.8373],[38.079,49.8491],[38.0435,49.8694],[38.0229,49.9091],[38.0004,49.8998],[37.9953,49.9213],[37.9466,49.9782],[37.9159,50.0033],[37.8428,50.0391],[37.7634,50.0626],[37.7276,50.0787],[37.6318,50.1741],[37.5971,50.1969],[37.5886,50.2146],[37.6016,50.249],[37.5992,50.2909],[37.5682,50.3125],[37.48,50.34],[37.4353,50.4249],[37.4152,50.4319],[37.3148,50.423],[37.2852,50.4153],[37.197,50.3624],[37.0517,50.3353],[36.9801,50.3421],[36.9141,50.3391],[36.8486,50.3237],[36.6826,50.2607],[36.6358,50.214],[36.5944,50.2044],[36.5495,50.2122],[36.5317,50.2288],[36.5364,50.2675],[36.4527,50.2936],[36.388,50.3064],[36.3395,50.2815],[36.292,50.274],[36.269,50.2814],[36.1693,50.3837],[36.1408,50.3929],[36.1332,50.4116],[36.1058,50.4211],[35.9319,50.4302],[35.8374,50.4232],[35.8054,50.4122],[35.7744,50.3869],[35.7377,50.3816],[35.6922,50.3442],[35.6316,50.345],[35.5702,50.3765],[35.5547,50.4333],[35.5227,50.4595],[35.4464,50.476],[35.4253,50.5005],[35.3777,50.6218],[35.3916,50.6464],[35.4689,50.6685],[35.4454,50.6875],[35.4471,50.7343],[35.4385,50.7624],[35.3791,50.7972],[35.3777,50.8337],[35.3414,50.8765],[35.3417,50.9159],[35.2936,50.9376],[35.2822,50.9611],[35.2781,50.9927],[35.3326,50.9999],[35.3551,51.0256],[35.3464,51.0366],[35.2743,51.0488],[35.2065,51.0389],[35.1726,51.0406],[35.1436,51.0585],[35.1238,51.0913],[35.0992,51.1832],[35.0594,51.2123],[34.9994,51.2021],[34.9618,51.2153],[34.8175,51.1747],[34.7481,51.1647],[34.6749,51.1677],[34.6428,51.1806],[34.6224,51.2248],[34.5782,51.2367],[34.5135,51.2296],[34.409,51.2531],[34.337,51.2511],[34.2818,51.2264],[34.186,51.2489],[34.2439,51.2741],[34.2836,51.3012],[34.3087,51.3346],[34.3002,51.3684],[34.2803,51.3613],[34.2305,51.3677],[34.1819,51.4023],[34.2196,51.4273],[34.2121,51.455],[34.2237,51.5148],[34.2024,51.5462],[34.1603,51.5761],[34.1401,51.6212],[34.0795,51.6431],[34.0891,51.6666],[34.128,51.6807],[34.2982,51.7061],[34.3763,51.7086],[34.4142,51.7365],[34.4127,51.7777],[34.3711,51.8268],[34.2767,51.8812],[34.2342,51.8783],[34.231,51.8945],[34.1462,51.9516],[34.0962,51.9518],[34.1011,51.9925],[34.0682,52.031],[34.0567,52.1058],[34.0739,52.1283],[34.0557,52.1703],[34.0219,52.1979],[33.9578,52.2247],[33.9007,52.2859],[33.8391,52.3139],[33.8041,52.3546],[33.7336,52.361],[33.6879,52.3558],[33.6002,52.3308],[33.5317,52.2888],[33.493,52.3031],[33.4994,52.341],[33.4805,52.3578],[33.4373,52.3392],[33.4006,52.3443],[33.359,52.3576],[33.2943,52.3573],[33.1965,52.3689],[33.1666,52.3601],[33.128,52.3327],[33.0704,52.3042],[33.0301,52.3036],[32.9269,52.2469],[32.8908,52.2423],[32.8442,52.2623],[32.7254,52.2521],[32.5284,52.3162],[32.4806,52.3071],[32.3943,52.3268],[32.3536,52.3216],[32.3395,52.2872],[32.367,52.2472],[32.3282,52.2192],[32.3067,52.1412],[32.2777,52.1027],[32.2333,52.0809],[32.0956,52.0407],[32.0169,52.0498],[31.9806,52.0476],[31.9272,52.0311],[31.892,52.0362],[31.8821,52.0864],[31.8258,52.1041],[31.7643,52.1006],[31.6499,52.0968],[31.4749,52.1178],[31.3831,52.1175],[31.3044,52.0975],[31.2524,52.0445],[31.2049,52.0439],[31.1348,52.0767],[31.0963,52.0796],[30.9593,52.0747],[30.9188,52.0592],[30.9113,52.0226],[30.9405,52.0201],[30.9412,51.9938],[30.9028,52],[30.858,51.9576],[30.8031,51.9391],[30.8106,51.9184],[30.7795,51.8979],[30.7497,51.8996],[30.7345,51.8737],[30.714,51.867],[30.662,51.8194],[30.6706,51.7905],[30.6182,51.7613],[30.6462,51.7545],[30.6306,51.7156],[30.6138,51.7029],[30.5703,51.6999],[30.5703,51.6515],[30.5566,51.6236],[30.5151,51.6037],[30.5431,51.5826],[30.5226,51.5689],[30.5341,51.5533],[30.584,51.5423],[30.5629,51.5218],[30.6182,51.4597],[30.586,51.4518],[30.5879,51.4274],[30.6226,51.4121],[30.6456,51.3675],[30.6383,51.3359],[30.5799,51.3037],[30.5566,51.2673],[30.5547,51.2425],[30.5396,51.2352],[30.5081,51.2577],[30.465,51.2619],[30.4281,51.2918],[30.3838,51.2939],[30.3551,51.3053],[30.3199,51.3416],[30.329,51.3886],[30.3074,51.4096],[30.2569,51.4251],[30.2054,51.4665],[30.1486,51.4844],[30.0087,51.4821],[29.9251,51.4579],[29.8863,51.4648],[29.8466,51.4329],[29.8286,51.43],[29.7379,51.4395],[29.7,51.4837],[29.6608,51.4931],[29.618,51.4856],[29.5682,51.4496],[29.5055,51.4375],[29.4663,51.3851],[29.4027,51.3961],[29.3533,51.3771],[29.3199,51.3656],[29.297,51.3737],[29.2649,51.4329],[29.221,51.467],[29.2265,51.5191],[29.1815,51.567],[29.1604,51.6033],[29.1239,51.625],[29.0837,51.6312],[29.0436,51.6262],[29,51.5824],[28.9546,51.5633],[28.8636,51.5589],[28.7999,51.5326],[28.7522,51.4837],[28.7516,51.4287],[28.7288,51.4013],[28.704,51.4426],[28.6636,51.434],[28.6309,51.4636],[28.6039,51.5535],[28.4884,51.572],[28.4353,51.5661],[28.3469,51.5252],[28.3339,51.5284],[28.3109,51.5745],[28.2494,51.6131],[28.2451,51.6406],[28.21,51.652],[28.1662,51.6331],[28.1142,51.5756],[28.0708,51.5576],[27.9732,51.5578],[27.9361,51.567],[27.8756,51.608],[27.8542,51.6153],[27.8125,51.602],[27.7932,51.565],[27.7971,51.5306],[27.7873,51.5109],[27.7406,51.4714],[27.7143,51.4637],[27.6661,51.4902],[27.7052,51.5684],[27.6768,51.5948],[27.6206,51.5959],[27.5124,51.6231],[27.4773,51.6237],[27.431,51.5984],[27.3884,51.5907],[27.3291,51.597],[27.2675,51.5875],[27.254,51.5954],[27.2775,51.6511],[27.2036,51.6551],[27.1811,51.6834],[27.1779,51.7471],[27.11,51.7624],[27.0216,51.7645],[26.9208,51.7425],[26.8548,51.7493],[26.6657,51.8014],[26.4456,51.8056],[26.4192,51.8209],[26.4078,51.8506],[26.1753,51.8567],[26.1454,51.8648],[26.0808,51.9007],[25.9811,51.9035],[25.7679,51.9285],[25.6835,51.918],[25.5474,51.9194],[25.352,51.9215],[25.1833,51.9498],[25.0927,51.9398],[25.0027,51.9105],[24.7218,51.8823],[24.6398,51.8921],[24.3908,51.88],[24.3479,51.8612],[24.2961,51.8081],[24.2723,51.7429],[24.2441,51.7182],[24.1308,51.6698],[23.9813,51.586],[23.9413,51.5819],[23.8849,51.6199],[23.7497,51.6445],[23.7262,51.6449],[23.629,51.629],[23.5944,51.605],[23.6263,51.5409],[23.6241,51.5159],[23.6062,51.5174],[23.6148,51.4972],[23.6628,51.4802],[23.6487,51.454],[23.6976,51.4044],[23.6789,51.3941],[23.6839,51.3703],[23.634,51.3393],[23.6352,51.3047],[23.6873,51.2924],[23.7427,51.2163],[23.7652,51.199],[23.816,51.1788],[23.8747,51.1361],[23.8545,51.1215],[23.9042,51.0627],[23.9117,51.0068],[23.9551,50.9836],[23.9793,50.9375],[24.0469,50.898],[24.1302,50.8689],[24.1309,50.8391],[24.0469,50.8291],[24.0205,50.8386],[23.9699,50.8252],[23.9576,50.808],[23.9743,50.7762],[24.0259,50.767],[24.0128,50.7433],[24.0269,50.728],[24.081,50.713],[24.0749,50.6902],[24.1082,50.6303],[24.0853,50.6044],[24.0954,50.5569],[24.1077,50.5408],[24.075,50.5143],[24.0107,50.4928],[24.0032,50.4377],[23.9813,50.4048],[23.9287,50.3908],[23.7475,50.3894],[23.6957,50.3768],[23.6587,50.327],[23.5653,50.2578],[23.4364,50.1935],[23.2079,50.034],[23.1778,50.004],[23.1015,49.9571],[22.993,49.8544],[22.9512,49.8266],[22.9244,49.7854],[22.8882,49.7697],[22.8266,49.6974],[22.7773,49.6805],[22.7417,49.6337],[22.6658,49.5674],[22.6409,49.5288],[22.6669,49.4784],[22.6796,49.4189],[22.7142,49.3906],[22.7242,49.3671],[22.7378,49.2754],[22.7029,49.195],[22.6817,49.1612],[22.7057,49.1688],[22.7488,49.1456],[22.7781,49.1203],[22.8534,49.0848],[22.8475,49.0337],[22.865,49.0132],[22.8553,48.994],[22.784,49.0214],[22.7553,49.0447],[22.6429,49.0432],[22.5808,49.0814],[22.5396,49.0722],[22.5248,49.0329],[22.5205,48.9929],[22.449,48.9714],[22.4149,48.9117],[22.4118,48.8878],[22.3708,48.8582],[22.3623,48.8443],[22.3657,48.7944],[22.3308,48.7564],[22.3225,48.7003],[22.2943,48.6676],[22.2555,48.6568],[22.219,48.6209],[22.1537,48.5859],[22.1367,48.5493],[22.1483,48.5088],[22.1338,48.4768],[22.1328,48.4048]]],[[[31.5083,46.5876],[31.517,46.575],[31.5301,46.575],[31.5083,46.5876]]]]}}
]}
