{"type":"FeatureCollection","features":[
{"type":"Feature","properties":{"entityId":"umayyad-caliphate","from":711,"to":713,"certainty":"estimated","source":"유럽 쪽은 Natural Earth 1:10m admin-1(v5.1.2) 현대 행정구역 조각을 그 시기 국경에 맞춰 묶고, 조각이 역사 경계와 다른 곳은 선을 그어 나눈 근사. 유럽 밖(시베리아·중앙아시아·극동)은 대략적인 추정. 운영자 검수 필요"},"geometry":{"type":"MultiPolygon","coordinates":[[[[-5.3255,36.0078],[-5.3742,36.0078],[-5.423,36.0078],[-5.423,35.9832],[-5.4718,35.9832],[-5.4718,35.963],[-5.5206,35.9713],[-5.8665,36.0299],[-6.2373,36.3667],[-6.3631,36.6213],[-6.3947,36.6369],[-6.407,36.6767],[-6.4315,36.7146],[-6.4333,36.7512],[-6.4291,36.7549],[-6.4429,36.7828],[-6.4567,36.8108],[-6.4241,36.8108],[-6.4241,36.8066],[-6.3939,36.8066],[-6.3637,36.8066],[-6.3637,36.8151],[-6.3474,36.8197],[-6.3467,36.8199],[-6.35,36.8551],[-6.3524,36.8803],[-6.3502,36.8844],[-6.3391,36.9047],[-6.3158,36.9136],[-6.2836,36.9259],[-6.2792,36.9246],[-6.2792,36.9057],[-6.237,36.9031],[-6.2316,36.9028],[-6.1577,36.886],[-6.1052,36.8575],[-5.9731,36.8441],[-5.9415,36.852],[-5.891,36.8421],[-5.8662,36.897],[-5.8064,36.9206],[-5.717,36.9196],[-5.6926,36.9527],[-5.6691,36.9652],[-5.6422,36.9585],[-5.5869,36.9224],[-5.5657,36.9208],[-5.5237,36.9386],[-5.4932,36.9881],[-5.489,37.0397],[-5.4452,37.0427],[-5.4262,37.0251],[-5.4478,36.977],[-5.4467,36.9585],[-5.4242,36.951],[-5.315,37.0164],[-5.2962,37.0129],[-5.2504,36.9567],[-5.219,36.9496],[-5.1766,36.9708],[-5.1422,37.0037],[-4.9166,37.113],[-4.9021,37.1342],[-4.9569,37.1668],[-4.9208,37.1796],[-4.8783,37.166],[-4.8399,37.1918],[-4.7963,37.1585],[-4.7381,37.1812],[-4.7184,37.2146],[-4.7356,37.2449],[-4.7198,37.2597],[-4.6532,37.2559],[-4.6707,37.2991],[-4.6772,37.3408],[-4.7106,37.3616],[-4.7634,37.3288],[-4.7838,37.3304],[-4.8221,37.3582],[-4.8499,37.4107],[-4.8849,37.4381],[-4.8875,37.4626],[-4.9083,37.4948],[-4.9439,37.5202],[-4.928,37.5837],[-4.9552,37.6184],[-4.9555,37.648],[-4.9821,37.6902],[-5.0266,37.7105],[-5.105,37.6909],[-5.1231,37.6694],[-5.1525,37.6619],[-5.1911,37.6696],[-5.2768,37.6245],[-5.3444,37.61],[-5.3801,37.6118],[-5.401,37.631],[-5.414,37.6739],[-5.39,37.6976],[-5.3111,37.6979],[-5.3097,37.7734],[-5.3347,37.7861],[-5.3496,37.8306],[-5.3932,37.8576],[-5.4134,37.8851],[-5.4218,37.9407],[-5.4786,37.9813],[-5.4961,38.0428],[-5.5818,38.1156],[-5.581,38.1351],[-5.5382,38.1624],[-5.5197,38.2089],[-5.5213,38.2668],[-5.5503,38.3208],[-5.5671,38.3363],[-5.561,38.3773],[-5.5758,38.3943],[-5.5694,38.4253],[-5.5493,38.4408],[-5.4808,38.4692],[-5.4649,38.4891],[-5.4196,38.5158],[-5.4003,38.5491],[-5.3624,38.5839],[-5.3068,38.5855],[-5.2881,38.6125],[-5.2101,38.659],[-5.1808,38.666],[-5.1594,38.7179],[-5.0799,38.7194],[-5.0366,38.7284],[-4.9979,38.7358],[-4.9717,38.7692],[-4.9475,38.8394],[-4.9129,38.8823],[-4.8508,38.8867],[-4.8363,38.9285],[-4.8466,38.946],[-4.9138,38.9597],[-4.9443,39.0097],[-4.9541,39.0456],[-4.9378,39.0531],[-4.8773,39.0326],[-4.8347,39.0476],[-4.8402,39.0686],[-4.864,39.0816],[-4.8674,39.1061],[-4.847,39.1655],[-4.8068,39.1988],[-4.7273,39.1965],[-4.6584,39.1739],[-4.7106,39.2253],[-4.7536,39.2974],[-4.7568,39.3165],[-4.7109,39.3441],[-4.6779,39.4176],[-4.6927,39.4498],[-4.753,39.4182],[-4.767,39.4046],[-4.8801,39.3669],[-4.9444,39.3919],[-4.9714,39.4097],[-5.0392,39.4781],[-5.0792,39.4928],[-5.1594,39.5639],[-5.1964,39.5877],[-5.1976,39.5996],[-5.1518,39.663],[-5.1417,39.7203],[-5.1654,39.7472],[-5.1681,39.7929],[-5.2087,39.7927],[-5.2603,39.7523],[-5.3081,39.7583],[-5.3169,39.7719],[-5.3078,39.8269],[-5.2893,39.8617],[-5.3302,39.8889],[-5.3862,39.881],[-5.391,39.9204],[-5.3741,39.9948],[-5.3704,40.0683],[-5.3576,40.1053],[-5.328,40.1159],[-5.2303,40.1065],[-5.1906,40.0894],[-5.1412,40.0948],[-5.0579,40.1486],[-5.0145,40.1509],[-5.0079,40.1225],[-4.9886,40.114],[-4.9224,40.1403],[-4.9035,40.174],[-4.8432,40.2066],[-4.815,40.2298],[-4.8008,40.2657],[-4.7,40.2756],[-4.6841,40.2171],[-4.6394,40.1971],[-4.5719,40.212],[-4.5298,40.2967],[-4.5376,40.3341],[-4.525,40.339],[-4.4964,40.3165],[-4.4576,40.3262],[-4.4403,40.3502],[-4.4315,40.3893],[-4.4073,40.4085],[-4.3749,40.4047],[-4.3248,40.4133],[-4.3287,40.4326],[-4.3152,40.4693],[-4.319,40.544],[-4.2845,40.5841],[-4.2903,40.6216],[-4.2421,40.6028],[-4.1844,40.6164],[-4.1713,40.6299],[-4.1613,40.6873],[-4.0901,40.7691],[-4.0598,40.7841],[-4.0187,40.7794],[-3.9841,40.7887],[-3.9529,40.8652],[-3.9531,40.8943],[-3.9348,40.9262],[-3.8919,40.9648],[-3.8057,40.9873],[-3.7871,40.9968],[-3.7528,41.043],[-3.6849,41.0847],[-3.6239,41.1394],[-3.5922,41.1541],[-3.5458,41.1618],[-3.5196,41.1622],[-3.4421,41.2065],[-3.4113,41.2136],[-3.4065,41.244],[-3.4169,41.2641],[-3.3398,41.2536],[-3.2492,41.2666],[-3.1988,41.3012],[-3.0838,41.2808],[-2.9823,41.2872],[-2.944,41.2991],[-2.9097,41.3221],[-2.8796,41.3146],[-2.8639,41.2787],[-2.8441,41.2679],[-2.7813,41.261],[-2.7281,41.2728],[-2.7092,41.2525],[-2.6395,41.2349],[-2.586,41.2155],[-2.61,41.1917],[-2.5848,41.1794],[-2.5863,41.1496],[-2.5321,41.1572],[-2.5056,41.1247],[-2.4814,41.1138],[-2.4676,41.0861],[-2.4092,41.065],[-2.3645,41.0807],[-2.3269,41.0652],[-2.2884,41.0675],[-2.237,41.089],[-2.1776,41.0907],[-2.129,41.1165],[-2.0729,41.0789],[-2.0573,41.085],[-2.0532,41.1504],[-1.9719,41.1699],[-1.9449,41.1644],[-1.8169,41.097],[-1.7673,41.065],[-1.7328,41.026],[-1.6219,40.9468],[-1.6102,40.9277],[-1.6141,40.8867],[-1.601,40.8587],[-1.5446,40.8174],[-1.5388,40.7768],[-1.557,40.7252],[-1.5397,40.6944],[-1.5374,40.663],[-1.5552,40.6142],[-1.5512,40.5951],[-1.5867,40.5706],[-1.6711,40.5893],[-1.6986,40.5424],[-1.6998,40.4933],[-1.75,40.4592],[-1.8083,40.402],[-1.8564,40.4288],[-1.8916,40.533],[-1.9299,40.5927],[-1.9555,40.5991],[-1.9828,40.5872],[-2.0311,40.5994],[-2.0857,40.6411],[-2.157,40.6588],[-2.1773,40.6286],[-2.2119,40.6234],[-2.2742,40.6462],[-2.2914,40.6333],[-2.2929,40.5948],[-2.3309,40.5733],[-2.389,40.6108],[-2.4078,40.6064],[-2.4161,40.5801],[-2.3901,40.5502],[-2.3979,40.5287],[-2.4321,40.5356],[-2.488,40.513],[-2.5278,40.5441],[-2.5454,40.5372],[-2.5287,40.4989],[-2.535,40.4698],[-2.5081,40.4511],[-2.5128,40.4197],[-2.5753,40.4479],[-2.6269,40.4531],[-2.6795,40.4332],[-2.7229,40.3973],[-2.7699,40.4213],[-2.8077,40.4069],[-2.8154,40.3254],[-2.801,40.2665],[-2.8163,40.2099],[-2.8662,40.1979],[-2.8852,40.1727],[-2.9128,40.1576],[-2.947,40.1698],[-2.9981,40.2092],[-3.0198,40.1931],[-3.0143,40.1553],[-3.0637,40.1684],[-3.0728,40.1576],[-3.0857,40.1457],[-3.063,40.0981],[-3.0938,40.0726],[-3.1635,40.0662],[-3.1701,40.0483],[-3.1426,39.9851],[-3.0966,39.9868],[-3.097,39.9333],[-3.1251,39.8781],[-3.0963,39.8691],[-3.0596,39.8376],[-3.0407,39.7875],[-3.0153,39.7645],[-2.9995,39.7219],[-2.9082,39.6423],[-2.9254,39.6018],[-2.9312,39.4714],[-2.9072,39.4302],[-2.8698,39.3904],[-2.8966,39.3667],[-2.8825,39.351],[-2.8307,39.3551],[-2.7891,39.3976],[-2.7421,39.318],[-2.7222,39.2686],[-2.8427,39.1344],[-2.8098,39.0845],[-2.8074,39.0538],[-2.8798,38.9455],[-2.8706,38.9121],[-2.7995,38.9079],[-2.7624,38.8808],[-2.7492,38.8113],[-2.7318,38.7901],[-2.6818,38.7771],[-2.6507,38.7422],[-2.6453,38.7074],[-2.6793,38.6355],[-2.7285,38.6246],[-2.751,38.6055],[-2.7655,38.5737],[-2.7469,38.5469],[-2.756,38.5331],[-2.6752,38.5002],[-2.6428,38.5093],[-2.5738,38.502],[-2.574,38.4346],[-2.5572,38.4145],[-2.4887,38.3987],[-2.4711,38.2982],[-2.4401,38.2828],[-2.4303,38.2588],[-2.4489,38.2223],[-2.4448,38.1882],[-2.5474,38.0806],[-2.4658,38.0494],[-2.3612,38.0243],[-2.3385,38.0265],[-2.3242,38.0624],[-2.2505,38.1363],[-2.2119,38.1959],[-2.1828,38.2179],[-2.1274,38.2352],[-2.0591,38.2904],[-2.0234,38.299],[-1.9848,38.2793],[-1.9262,38.291],[-1.8858,38.3062],[-1.7957,38.3539],[-1.7928,38.3651],[-1.7505,38.3803],[-1.7027,38.3736],[-1.6831,38.3624],[-1.6819,38.3316],[-1.6267,38.3114],[-1.5673,38.3262],[-1.4947,38.3731],[-1.4779,38.4037],[-1.4857,38.4837],[-1.502,38.5349],[-1.4851,38.5629],[-1.4543,38.5897],[-1.4503,38.6277],[-1.4336,38.6558],[-1.3858,38.6969],[-1.3635,38.7013],[-1.3342,38.6867],[-1.2782,38.7116],[-1.2334,38.7421],[-1.1742,38.7541],[-1.1143,38.7347],[-1.1053,38.7075],[-1.0221,38.6545],[-1.0054,38.5903],[-1.0057,38.5646],[-1.024,38.4834],[-1.0821,38.4311],[-1.084,38.3746],[-1.0767,38.3497],[-1.0119,38.3348],[-0.9836,38.3109],[-0.9692,38.2708],[-0.9832,38.203],[-1.0228,38.1463],[-1.0329,38.1169],[-1.02,38.0685],[-0.9822,38.0264],[-0.9167,37.9336],[-0.8387,37.868],[-0.7797,37.8429],[-0.7606,37.8459],[-0.7606,37.8322],[-0.7313,37.8322],[-0.7313,37.8315],[-0.701,37.8315],[-0.6707,37.8315],[-0.6404,37.8315],[-0.6193,37.8315],[-0.6286,37.8036],[-0.6471,37.7478],[-0.682,37.6429],[-0.7072,37.6362],[-0.7053,37.6195],[-0.7279,37.6034],[-0.764,37.5996],[-0.7673,37.5985],[-0.772,37.5953],[-0.8224,37.5797],[-0.8272,37.5793],[-0.8364,37.5764],[-0.8661,37.5764],[-0.8757,37.5757],[-0.9252,37.5559],[-0.9582,37.5699],[-1.4029,37.4525],[-1.438,37.4432],[-1.4768,37.4011],[-1.5293,37.3441],[-1.5555,37.3156],[-1.5817,37.2871],[-1.6098,37.2566],[-1.8477,36.9983],[-2.1472,36.673],[-2.7373,36.6667],[-2.9597,36.6643],[-3.0709,36.6632],[-3.0987,36.6629],[-3.1265,36.6626],[-3.1821,36.662],[-3.4144,36.6595],[-3.4145,36.6595],[-3.4148,36.6595],[-3.6269,36.6636],[-3.7381,36.6658],[-3.7659,36.6663],[-3.7937,36.6669],[-3.8215,36.6674],[-3.8493,36.668],[-4.0717,36.6723],[-4.3684,36.6781],[-4.5165,36.5945],[-4.5248,36.5807],[-4.5448,36.5785],[-4.6069,36.5434],[-4.615,36.5306],[-4.6592,36.5076],[-4.678,36.5033],[-4.9948,36.3244],[-5.0993,36.221],[-5.0997,36.2207],[-5.1286,36.1921],[-5.1304,36.1903],[-5.1791,36.1421],[-5.2279,36.0939],[-5.228,36.0938],[-5.2767,36.0456],[-5.3255,35.9973],[-5.3255,36.0078]]],[[[-4.2763,40.6927],[-4.2584,40.6616],[-4.3219,40.6579],[-4.3185,40.6824],[-4.2763,40.6927]]]]}},
{"type":"Feature","properties":{"entityId":"umayyad-caliphate","from":713,"to":714,"certainty":"estimated","source":"유럽 쪽은 Natural Earth 1:10m admin-1(v5.1.2) 현대 행정구역 조각을 그 시기 국경에 맞춰 묶고, 조각이 역사 경계와 다른 곳은 선을 그어 나눈 근사. 유럽 밖(시베리아·중앙아시아·극동)은 대략적인 추정. 운영자 검수 필요"},"geometry":{"type":"MultiPolygon","coordinates":[[[[-9.5277,38.738],[-9.5061,38.704],[-9.4247,38.5761],[-9.4122,38.5564],[-9.3953,38.5298],[-9.3443,38.4497],[-9.2865,38.3588],[-9.2108,38.343],[-9.0095,38.301],[-8.8401,38.2657],[-8.8203,38.1359],[-8.8771,37.9661],[-8.8948,37.9525],[-8.8668,37.9387],[-8.8221,37.8713],[-8.8214,37.868],[-8.8141,37.8326],[-8.8067,37.7972],[-8.817,37.7403],[-8.8087,37.7229],[-8.7946,37.7258],[-8.8002,37.6944],[-8.8265,37.6006],[-8.8184,37.5873],[-8.8157,37.4671],[-8.815,37.4371],[-8.8149,37.4308],[-8.825,37.407],[-8.8503,37.347],[-8.8828,37.3099],[-8.8739,37.2912],[-8.9075,37.2117],[-8.9227,37.1997],[-8.9185,37.1859],[-8.9265,37.1669],[-8.9752,37.0765],[-8.9856,37.0634],[-8.9896,37.0499],[-8.9985,37.0333],[-8.9983,37.0332],[-8.9985,37.0329],[-8.9949,37.0319],[-8.9979,37.0215],[-8.9829,37.0266],[-8.946,37.0079],[-8.8789,37.0472],[-8.8643,37.0424],[-8.8977,36.8698],[-8.8976,36.8698],[-8.8977,36.8694],[-8.8973,36.8695],[-8.8973,36.8694],[-8.3827,36.9794],[-7.8573,36.8389],[-7.8572,36.839],[-7.8569,36.8389],[-7.5462,37.0385],[-7.4617,37.0928],[-7.4538,37.0978],[-7.3772,37.0851],[-7.3349,37.078],[-7.2927,37.0709],[-7.2083,37.0569],[-6.8705,37.0004],[-6.5326,36.944],[-6.5217,36.9422],[-6.4844,36.8668],[-6.4567,36.8108],[-6.4429,36.7828],[-6.4291,36.7549],[-6.4333,36.7512],[-6.4315,36.7146],[-6.407,36.6767],[-6.3947,36.6369],[-6.3631,36.6213],[-6.2373,36.3667],[-5.8665,36.0299],[-5.5206,35.9713],[-5.4718,35.963],[-5.4718,35.9832],[-5.423,35.9832],[-5.423,36.0078],[-5.3255,36.0078],[-5.3255,35.9973],[-5.2767,36.0456],[-5.228,36.0938],[-5.2279,36.0939],[-5.1791,36.1421],[-5.1304,36.1903],[-5.1286,36.1921],[-5.0997,36.2207],[-5.0993,36.221],[-4.9948,36.3244],[-4.678,36.5033],[-4.6592,36.5076],[-4.615,36.5306],[-4.6069,36.5434],[-4.5448,36.5785],[-4.5248,36.5807],[-4.5165,36.5945],[-4.3684,36.6781],[-4.0717,36.6723],[-3.8493,36.668],[-3.8215,36.6674],[-3.7937,36.6669],[-3.7659,36.6663],[-3.7381,36.6658],[-3.6269,36.6636],[-3.4148,36.6595],[-3.4144,36.6595],[-3.1821,36.662],[-3.0709,36.6632],[-2.9597,36.6643],[-2.7373,36.6667],[-2.1472,36.673],[-1.8477,36.9983],[-1.6098,37.2566],[-1.5817,37.2871],[-1.5293,37.3441],[-1.4768,37.4011],[-1.438,37.4432],[-1.4029,37.4525],[-0.9582,37.5699],[-0.9252,37.5559],[-0.8757,37.5757],[-0.8661,37.5764],[-0.8364,37.5764],[-0.8272,37.5793],[-0.8224,37.5797],[-0.772,37.5953],[-0.7673,37.5985],[-0.764,37.5996],[-0.7279,37.6034],[-0.7053,37.6195],[-0.7072,37.6362],[-0.682,37.6429],[-0.6471,37.7478],[-0.6286,37.8036],[-0.61,37.8594],[-0.5359,38.0825],[-0.466,38.2928],[-0.1606,38.5289],[-0.1317,38.5353],[-0.0902,38.5353],[-0.06,38.5527],[-0.0563,38.5828],[-0.052,38.5848],[0.0237,38.6297],[0.0604,38.6348],[0.083,38.661],[0.1257,38.6855],[0.145,38.6863],[0.1626,38.7135],[0.1921,38.7304],[0.2277,38.7346],[0.2179,38.7681],[0.1786,38.7915],[0.1744,38.7979],[0.1853,38.8035],[0.154,38.831],[0.111,38.8499],[0.06,38.8583],[0.023,38.871],[0.0188,38.8725],[0.0052,38.8925],[-0.014,38.9208],[-0.0298,38.944],[-0.088,39.0296],[-0.1695,39.1495],[-0.2787,39.3102],[-0.2169,39.4408],[-0.148,39.5865],[-0.1136,39.6593],[-0.0963,39.6957],[-0.0791,39.7321],[0.0587,40.0234],[0.0662,40.0319],[0.117,40.0563],[0.1445,40.0788],[0.1728,40.122],[0.2485,40.1993],[0.2647,40.2098],[0.2988,40.2468],[0.3506,40.2849],[0.4203,40.3883],[0.4461,40.4084],[0.4513,40.4288],[0.4654,40.4469],[0.4977,40.4759],[0.5442,40.5178],[0.5193,40.5178],[0.5238,40.5262],[0.4561,40.5492],[0.4369,40.5774],[0.3875,40.6037],[0.2931,40.6321],[0.2762,40.6543],[0.2877,40.6838],[0.2438,40.703],[0.2193,40.7305],[0.173,40.7309],[0.0815,40.7164],[0.045,40.6962],[0.0182,40.7261],[-0.0745,40.7308],[-0.1658,40.7799],[-0.1948,40.776],[-0.2234,40.7453],[-0.2341,40.6948],[-0.313,40.6629],[-0.3458,40.6739],[-0.3773,40.6602],[-0.3746,40.6182],[-0.3251,40.6042],[-0.2944,40.6058],[-0.2967,40.5079],[-0.2806,40.4999],[-0.2774,40.4718],[-0.3237,40.457],[-0.3355,40.4278],[-0.2891,40.3892],[-0.2921,40.3655],[-0.3317,40.3457],[-0.3909,40.2956],[-0.3914,40.2639],[-0.4423,40.2378],[-0.5011,40.2303],[-0.5442,40.2401],[-0.5523,40.2003],[-0.5832,40.1348],[-0.6134,40.1139],[-0.6143,40.0717],[-0.6839,40.0444],[-0.7467,40.0414],[-0.7662,40.0094],[-0.8244,39.9815],[-0.8391,39.9458],[-0.8238,39.9063],[-0.7913,39.8775],[-0.847,39.8553],[-0.8781,39.8522],[-0.9024,39.8654],[-0.9121,39.9064],[-0.9048,39.9346],[-0.9231,39.956],[-1.0003,39.9792],[-1.0535,39.9788],[-1.1294,39.964],[-1.1455,39.9723],[-1.1627,40.0115],[-1.0917,40.0346],[-1.08,40.0658],[-1.1511,40.1101],[-1.2347,40.123],[-1.2715,40.1627],[-1.2946,40.2016],[-1.3142,40.1953],[-1.3245,40.1493],[-1.3641,40.1396],[-1.4485,40.1498],[-1.4444,40.1967],[-1.5551,40.2054],[-1.6601,40.283],[-1.7,40.2948],[-1.7136,40.2877],[-1.7206,40.3354],[-1.7793,40.3922],[-1.8083,40.402],[-1.75,40.4592],[-1.6998,40.4933],[-1.6986,40.5424],[-1.6711,40.5893],[-1.5867,40.5706],[-1.5512,40.5951],[-1.5552,40.6142],[-1.5374,40.663],[-1.5397,40.6944],[-1.557,40.7252],[-1.5388,40.7768],[-1.5446,40.8174],[-1.601,40.8587],[-1.6141,40.8867],[-1.6102,40.9277],[-1.6219,40.9468],[-1.7328,41.026],[-1.7673,41.065],[-1.8169,41.097],[-1.9449,41.1644],[-1.9719,41.1699],[-2.0532,41.1504],[-2.0573,41.085],[-2.0729,41.0789],[-2.129,41.1165],[-2.1776,41.0907],[-2.237,41.089],[-2.2884,41.0675],[-2.3269,41.0652],[-2.3645,41.0807],[-2.4092,41.065],[-2.4676,41.0861],[-2.4814,41.1138],[-2.5056,41.1247],[-2.5321,41.1572],[-2.5863,41.1496],[-2.5848,41.1794],[-2.61,41.1917],[-2.586,41.2155],[-2.6395,41.2349],[-2.7092,41.2525],[-2.7281,41.2728],[-2.7813,41.261],[-2.8441,41.2679],[-2.8639,41.2787],[-2.8796,41.3146],[-2.9097,41.3221],[-2.944,41.2991],[-2.9823,41.2872],[-3.0838,41.2808],[-3.1988,41.3012],[-3.2492,41.2666],[-3.3398,41.2536],[-3.4169,41.2641],[-3.4065,41.244],[-3.4113,41.2136],[-3.4421,41.2065],[-3.5196,41.1622],[-3.5458,41.1618],[-3.5922,41.1541],[-3.6239,41.1394],[-3.6849,41.0847],[-3.7528,41.043],[-3.7871,40.9968],[-3.8057,40.9873],[-3.8919,40.9648],[-3.9348,40.9262],[-3.9531,40.8943],[-3.9529,40.8652],[-3.9841,40.7887],[-4.0187,40.7794],[-4.0598,40.7841],[-4.0901,40.7691],[-4.1613,40.6873],[-4.1713,40.6299],[-4.1844,40.6164],[-4.2421,40.6028],[-4.2903,40.6216],[-4.2845,40.5841],[-4.319,40.544],[-4.3152,40.4693],[-4.3287,40.4326],[-4.3248,40.4133],[-4.3749,40.4047],[-4.4073,40.4085],[-4.4315,40.3893],[-4.4403,40.3502],[-4.4576,40.3262],[-4.4964,40.3165],[-4.525,40.339],[-4.5376,40.3341],[-4.5298,40.2967],[-4.5719,40.212],[-4.6394,40.1971],[-4.6841,40.2171],[-4.7,40.2756],[-4.8008,40.2657],[-4.815,40.2298],[-4.8432,40.2066],[-4.9035,40.174],[-4.9224,40.1403],[-4.9886,40.114],[-5.0079,40.1225],[-5.0145,40.1509],[-5.0579,40.1486],[-5.1412,40.0948],[-5.1906,40.0894],[-5.2303,40.1065],[-5.328,40.1159],[-5.3615,40.1648],[-5.3647,40.2097],[-5.3546,40.2552],[-5.4236,40.2431],[-5.4781,40.2042],[-5.5398,40.1974],[-5.6038,40.2194],[-5.627,40.244],[-5.6869,40.2815],[-5.7277,40.294],[-5.7624,40.2844],[-5.7918,40.296],[-5.7816,40.3234],[-5.8133,40.3408],[-5.8818,40.3175],[-5.9037,40.2843],[-5.9255,40.2815],[-5.9876,40.3032],[-6.023,40.3278],[-6.0963,40.3576],[-6.0691,40.3963],[-6.2067,40.4776],[-6.2462,40.4753],[-6.2802,40.456],[-6.3231,40.4463],[-6.3627,40.4104],[-6.4213,40.3934],[-6.4423,40.3759],[-6.5155,40.3524],[-6.558,40.3216],[-6.5561,40.2871],[-6.5851,40.272],[-6.655,40.262],[-6.6886,40.2497],[-6.7176,40.2589],[-6.7588,40.2448],[-6.8147,40.2444],[-6.8745,40.2792],[-6.8964,40.2555],[-6.9421,40.255],[-6.9975,40.2856],[-7.0754,40.2863],[-7.1103,40.3193],[-7.1538,40.28],[-7.2016,40.28],[-7.2466,40.2673],[-7.3203,40.2854],[-7.2798,40.3505],[-7.2712,40.4098],[-7.3261,40.4098],[-7.3477,40.3906],[-7.3909,40.3828],[-7.4535,40.4134],[-7.5039,40.3766],[-7.5267,40.3376],[-7.5769,40.3192],[-7.6019,40.3268],[-7.6432,40.2867],[-7.7339,40.2442],[-7.7821,40.232],[-7.8069,40.185],[-7.7965,40.1657],[-7.7419,40.1283],[-7.7401,40.0945],[-7.7687,40.0775],[-7.806,40.0775],[-7.8072,40.0407],[-7.8449,40.0582],[-7.8949,40.0469],[-7.9173,40.0045],[-7.9444,40.0031],[-7.9695,39.9817],[-8.0257,39.9754],[-8.0322,39.9609],[-8.0715,39.9567],[-8.1263,39.9212],[-8.1284,39.944],[-8.108,39.9653],[-8.1494,40.017],[-8.1455,40.0624],[-8.1746,40.0863],[-8.2052,40.0551],[-8.2351,40.064],[-8.2931,40.016],[-8.271,39.9848],[-8.2877,39.9708],[-8.314,39.9751],[-8.3491,39.9445],[-8.4048,39.9343],[-8.3853,39.9566],[-8.4127,40.0103],[-8.4509,40.0121],[-8.51,39.9782],[-8.5355,39.956],[-8.5538,40.0201],[-8.5948,40.0209],[-8.629,39.9963],[-8.6772,40.0281],[-8.7689,40.0373],[-8.8154,40.0211],[-8.8476,40.0262],[-8.9025,40.0474],[-8.8929,40.0691],[-8.9931,40.0691],[-8.9997,40.0322],[-9.0489,39.7556],[-9.0693,39.737],[-9.3934,39.4419],[-9.4485,39.3917],[-9.4603,39.2943],[-9.4693,39.2205],[-9.4782,39.1467],[-9.514,38.8516],[-9.5277,38.7384],[-9.5277,38.738]]],[[[-4.3219,40.6579],[-4.2584,40.6616],[-4.2763,40.6927],[-4.3185,40.6824],[-4.3219,40.6579]]]]}},
{"type":"Feature","properties":{"entityId":"umayyad-caliphate","from":714,"to":718,"certainty":"estimated","source":"유럽 쪽은 Natural Earth 1:10m admin-1(v5.1.2) 현대 행정구역 조각을 그 시기 국경에 맞춰 묶고, 조각이 역사 경계와 다른 곳은 선을 그어 나눈 근사. 유럽 밖(시베리아·중앙아시아·극동)은 대략적인 추정. 운영자 검수 필요"},"geometry":{"type":"MultiPolygon","coordinates":[[[[-9.5277,38.738],[-9.5061,38.704],[-9.4247,38.5761],[-9.4122,38.5564],[-9.3953,38.5298],[-9.3443,38.4497],[-9.2865,38.3588],[-9.2108,38.343],[-9.0095,38.301],[-8.8401,38.2657],[-8.8203,38.1359],[-8.8771,37.9661],[-8.8948,37.9525],[-8.8668,37.9387],[-8.8221,37.8713],[-8.8214,37.868],[-8.8141,37.8326],[-8.8067,37.7972],[-8.817,37.7403],[-8.8087,37.7229],[-8.7946,37.7258],[-8.8002,37.6944],[-8.8265,37.6006],[-8.8184,37.5873],[-8.8157,37.4671],[-8.815,37.4371],[-8.8149,37.4308],[-8.825,37.407],[-8.8503,37.347],[-8.8828,37.3099],[-8.8739,37.2912],[-8.9075,37.2117],[-8.9227,37.1997],[-8.9185,37.1859],[-8.9265,37.1669],[-8.9752,37.0765],[-8.9856,37.0634],[-8.9896,37.0499],[-8.9985,37.0333],[-8.9983,37.0332],[-8.9985,37.0329],[-8.9949,37.0319],[-8.9979,37.0215],[-8.9829,37.0266],[-8.946,37.0079],[-8.8789,37.0472],[-8.8643,37.0424],[-8.8977,36.8698],[-8.8976,36.8698],[-8.8977,36.8694],[-8.8973,36.8695],[-8.8973,36.8694],[-8.3827,36.9794],[-7.8573,36.8389],[-7.8572,36.839],[-7.8569,36.8389],[-7.5462,37.0385],[-7.4617,37.0928],[-7.4538,37.0978],[-7.3772,37.0851],[-7.3349,37.078],[-7.2927,37.0709],[-7.2083,37.0569],[-6.8705,37.0004],[-6.5326,36.944],[-6.5217,36.9422],[-6.4844,36.8668],[-6.4567,36.8108],[-6.4429,36.7828],[-6.4291,36.7549],[-6.4333,36.7512],[-6.4315,36.7146],[-6.407,36.6767],[-6.3947,36.6369],[-6.3631,36.6213],[-6.2373,36.3667],[-5.8665,36.0299],[-5.5206,35.9713],[-5.4718,35.963],[-5.4718,35.9832],[-5.423,35.9832],[-5.423,36.0078],[-5.3255,36.0078],[-5.3255,35.9973],[-5.2767,36.0456],[-5.228,36.0938],[-5.2279,36.0939],[-5.1791,36.1421],[-5.1304,36.1903],[-5.1286,36.1921],[-5.0997,36.2207],[-5.0993,36.221],[-4.9948,36.3244],[-4.678,36.5033],[-4.6592,36.5076],[-4.615,36.5306],[-4.6069,36.5434],[-4.5448,36.5785],[-4.5248,36.5807],[-4.5165,36.5945],[-4.3684,36.6781],[-4.0717,36.6723],[-3.8493,36.668],[-3.8215,36.6674],[-3.7937,36.6669],[-3.7659,36.6663],[-3.7381,36.6658],[-3.6269,36.6636],[-3.4148,36.6595],[-3.4144,36.6595],[-3.1821,36.662],[-3.0709,36.6632],[-2.9597,36.6643],[-2.7373,36.6667],[-2.1472,36.673],[-1.8477,36.9983],[-1.6098,37.2566],[-1.5817,37.2871],[-1.5293,37.3441],[-1.4768,37.4011],[-1.438,37.4432],[-1.4029,37.4525],[-0.9582,37.5699],[-0.9252,37.5559],[-0.8757,37.5757],[-0.8661,37.5764],[-0.8364,37.5764],[-0.8272,37.5793],[-0.8224,37.5797],[-0.772,37.5953],[-0.7673,37.5985],[-0.764,37.5996],[-0.7279,37.6034],[-0.7053,37.6195],[-0.7072,37.6362],[-0.682,37.6429],[-0.6471,37.7478],[-0.6286,37.8036],[-0.61,37.8594],[-0.5359,38.0825],[-0.466,38.2928],[-0.1606,38.5289],[-0.1317,38.5353],[-0.0902,38.5353],[-0.06,38.5527],[-0.0563,38.5828],[-0.052,38.5848],[0.0237,38.6297],[0.0604,38.6348],[0.083,38.661],[0.1257,38.6855],[0.145,38.6863],[0.1626,38.7135],[0.1921,38.7304],[0.2277,38.7346],[0.2179,38.7681],[0.1786,38.7915],[0.1744,38.7979],[0.1853,38.8035],[0.154,38.831],[0.111,38.8499],[0.06,38.8583],[0.023,38.871],[0.0188,38.8725],[0.0052,38.8925],[-0.014,38.9208],[-0.0298,38.944],[-0.088,39.0296],[-0.1695,39.1495],[-0.2787,39.3102],[-0.2169,39.4408],[-0.148,39.5865],[-0.1136,39.6593],[-0.0963,39.6957],[-0.0791,39.7321],[0.0587,40.0234],[0.0662,40.0319],[0.117,40.0563],[0.1445,40.0788],[0.1728,40.122],[0.2485,40.1993],[0.2647,40.2098],[0.2988,40.2468],[0.3506,40.2849],[0.4203,40.3883],[0.4461,40.4084],[0.4513,40.4288],[0.4654,40.4469],[0.4977,40.4759],[0.5442,40.5178],[0.5193,40.5178],[0.5238,40.5262],[0.4561,40.5492],[0.4369,40.5774],[0.3875,40.6037],[0.2931,40.6321],[0.2762,40.6543],[0.2877,40.6838],[0.2438,40.703],[0.2193,40.7305],[0.173,40.7309],[0.1727,40.7471],[0.2274,40.7717],[0.2719,40.8292],[0.2496,40.8886],[0.2897,40.9825],[0.2742,41.0189],[0.2278,41.0432],[0.2165,41.0706],[0.2089,41.1196],[0.2997,41.1649],[0.3211,41.2139],[0.3604,41.2328],[0.3524,41.2792],[0.3773,41.3214],[0.3517,41.3625],[0.3273,41.3701],[0.3383,41.4059],[0.3485,41.4721],[0.4004,41.4965],[0.4412,41.5461],[0.424,41.5929],[0.3652,41.5983],[0.3481,41.6152],[0.3285,41.6774],[0.406,41.753],[0.4542,41.7625],[0.4966,41.8088],[0.5422,41.8267],[0.5976,41.8744],[0.5896,41.9186],[0.5672,41.9327],[0.5762,41.9513],[0.6425,41.9923],[0.6843,42.09],[0.7031,42.1203],[0.7035,42.1679],[0.7194,42.2268],[0.7417,42.264],[0.7457,42.3],[0.7511,42.348],[0.7464,42.3905],[0.7329,42.4269],[0.7151,42.4431],[0.7014,42.4843],[0.7303,42.5007],[0.7306,42.5197],[0.7615,42.5693],[0.7655,42.6099],[0.7084,42.6342],[0.6756,42.6887],[0.6634,42.6962],[0.6436,42.6845],[0.6082,42.688],[0.4835,42.6853],[0.4669,42.6904],[0.3893,42.6851],[0.3542,42.7175],[0.336,42.7127],[0.2902,42.6703],[0.2754,42.6687],[0.2384,42.7104],[0.1692,42.7265],[0.1342,42.7152],[0.0728,42.7085],[-0.0043,42.6875],[-0.0389,42.6851],[-0.119,42.7169],[-0.1636,42.778],[-0.1614,42.7953],[-0.2084,42.7839],[-0.2351,42.7862],[-0.247,42.8048],[-0.3051,42.8308],[-0.3228,42.8425],[-0.4239,42.7907],[-0.4545,42.7889],[-0.5084,42.8075],[-0.5339,42.808],[-0.5356,42.7842],[-0.5787,42.7773],[-0.5829,42.7958],[-0.6095,42.8114],[-0.6483,42.8498],[-0.7004,42.8764],[-0.7301,42.8775],[-0.7459,42.8939],[-0.745,42.9187],[-0.7597,42.9465],[-0.7864,42.9533],[-0.8635,42.9431],[-0.9432,42.9479],[-0.9815,42.957],[-1.0285,42.9867],[-1.0797,42.9934],[-1.1124,43.0083],[-1.1499,43.0057],[-1.2169,43.0393],[-1.2749,43.0468],[-1.3106,43.0695],[-1.3086,43.1136],[-1.3483,43.0931],[-1.3576,43.0468],[-1.3831,43.0292],[-1.435,43.0357],[-1.4753,43.0601],[-1.4878,43.0818],[-1.4258,43.1353],[-1.3997,43.2067],[-1.4035,43.2433],[-1.4322,43.265],[-1.4664,43.2608],[-1.5081,43.2768],[-1.559,43.2841],[-1.5876,43.2516],[-1.639,43.2557],[-1.645,43.2924],[-1.6739,43.3042],[-1.7497,43.2948],[-1.7913,43.2774],[-1.8211,43.2386],[-1.8893,43.2116],[-1.9085,43.2183],[-1.9187,43.1922],[-1.9125,43.1351],[-1.9267,43.1144],[-2.0146,43.067],[-2.0406,43.0276],[-2.0427,42.9945],[-2.0947,42.9755],[-2.1329,42.9469],[-2.2141,42.9496],[-2.253,42.9001],[-2.2423,42.8392],[-2.2744,42.791],[-2.2849,42.7447],[-2.3207,42.721],[-2.312,42.6829],[-2.2927,42.6631],[-2.3284,42.643],[-2.3659,42.6379],[-2.4087,42.6602],[-2.4927,42.6093],[-2.4814,42.5859],[-2.4501,42.576],[-2.4213,42.5988],[-2.4059,42.5961],[-2.394,42.565],[-2.4061,42.4971],[-2.462,42.5073],[-2.5015,42.5377],[-2.5288,42.5172],[-2.5835,42.4967],[-2.5851,42.512],[-2.6179,42.5077],[-2.6847,42.5378],[-2.6856,42.5818],[-2.6994,42.5977],[-2.7474,42.6187],[-2.7697,42.6088],[-2.78,42.5856],[-2.8268,42.5902],[-2.8373,42.6441],[-2.8525,42.6654],[-2.9687,42.7378],[-3.0635,42.7853],[-3.1196,42.7687],[-3.1512,42.8176],[-3.1125,42.8683],[-3.1302,42.8886],[-3.1591,42.8646],[-3.2027,42.8551],[-3.2174,42.8297],[-3.2759,42.8747],[-3.2791,42.8872],[-3.2332,42.9382],[-3.1883,42.9467],[-3.1512,42.9343],[-3.141,42.9161],[-3.0847,42.9055],[-3.0292,42.9102],[-2.9875,42.9263],[-2.9834,42.951],[-3.0123,42.9585],[-3.0394,42.987],[-2.9993,42.9895],[-2.9874,43.0089],[-3.0367,43.0497],[-3.0553,43.0431],[-3.0735,43.014],[-3.1216,43.0136],[-3.1651,43.0267],[-3.1485,43.0504],[-3.1418,43.1041],[-3.1726,43.1314],[-3.1418,43.1651],[-3.1515,43.1814],[-3.2297,43.187],[-3.2785,43.1973],[-3.3624,43.1579],[-3.4238,43.1406],[-3.4409,43.1881],[-3.4416,43.2333],[-3.4309,43.2435],[-3.3229,43.3001],[-3.2352,43.2991],[-3.2035,43.2923],[-3.1602,43.3078],[-3.1495,43.3244],[-3.1506,43.3602],[-3.1541,43.362],[-3.1541,43.4012],[-3.1106,43.4012],[-3.1106,43.4474],[-3.1541,43.4483],[-3.4221,43.4536],[-3.433,43.46],[-3.4366,43.4705],[-3.4552,43.4728],[-3.5224,43.512],[-3.5512,43.5144],[-3.5544,43.5169],[-3.5794,43.5183],[-3.5841,43.5172],[-3.6052,43.519],[-3.6056,43.519],[-3.7746,43.4773],[-3.7748,43.4774],[-3.7692,43.4792],[-3.8267,43.497],[-3.8457,43.4913],[-3.8896,43.4999],[-3.89,43.4999],[-4.016,43.4634],[-4.3112,43.4148],[-4.324,43.4149],[-4.4259,43.4157],[-4.4436,43.4185],[-4.8024,43.4761],[-5.4125,43.574],[-5.4129,43.574],[-5.5477,43.5733],[-5.6645,43.5832],[-5.7591,43.6154],[-5.7823,43.637],[-5.8522,43.663],[-5.8629,43.6426],[-5.8724,43.6405],[-5.9074,43.6368],[-5.9074,43.6328],[-6.0788,43.5953],[-6.2225,43.604],[-6.2229,43.604],[-6.4747,43.5797],[-6.6185,43.5919],[-6.6189,43.5919],[-6.6301,43.5917],[-6.888,43.5869],[-6.9914,43.6022],[-7.0365,43.6089],[-7.0817,43.6156],[-7.1721,43.6289],[-7.3428,43.6542],[-7.3527,43.6615],[-7.3671,43.6801],[-7.3846,43.6849],[-7.3997,43.696],[-7.5041,43.7394],[-7.5045,43.7394],[-7.5942,43.7273],[-7.6353,43.7424],[-7.641,43.7527],[-7.652,43.7485],[-7.6781,43.758],[-7.6683,43.7725],[-7.6855,43.7934],[-7.6957,43.7749],[-7.7264,43.755],[-7.7444,43.7481],[-7.7738,43.7426],[-7.8007,43.7267],[-7.8097,43.7232],[-7.859,43.7305],[-7.8808,43.7633],[-7.9086,43.7663],[-7.9381,43.7422],[-7.9793,43.7483],[-7.9797,43.7483],[-8.0557,43.7096],[-8.0593,43.7094],[-8.0603,43.7072],[-8.8024,43.329],[-8.8086,43.3295],[-8.817,43.3358],[-8.8412,43.3389],[-8.8538,43.3334],[-8.8721,43.3349],[-8.8725,43.3349],[-8.9228,43.3032],[-8.9305,43.2998],[-8.988,43.283],[-8.9736,43.2711],[-9.0237,43.2395],[-9.0957,43.2152],[-9.1287,43.1986],[-9.1379,43.2015],[-9.1701,43.1887],[-9.2176,43.1553],[-9.2084,43.1379],[-9.1919,43.1417],[-9.1978,43.1276],[-9.3945,43.0273],[-9.3942,43.027],[-9.3945,43.0269],[-9.2757,42.9009],[-9.2684,42.8913],[-9.2677,42.8925],[-9.0432,42.6545],[-9.0657,42.6203],[-9.0709,42.5961],[-9.0334,42.5781],[-9.0264,42.5431],[-9.0115,42.5307],[-8.9873,42.5469],[-8.9879,42.5379],[-8.9905,42.5018],[-8.993,42.4656],[-8.9982,42.3933],[-9.0191,42.0982],[-9.0296,41.9506],[-9.0345,41.8814],[-9.0345,41.881],[-9.034,41.8769],[-9.0246,41.8031],[-9.0057,41.6555],[-8.9916,41.5448],[-8.9913,41.5425],[-8.9719,41.5079],[-8.9511,41.471],[-8.9304,41.4341],[-8.8889,41.3603],[-8.8061,41.2128],[-8.7897,41.1837],[-8.7837,41.0652],[-8.7761,40.9176],[-8.7681,40.7609],[-8.8162,40.6225],[-8.8419,40.5487],[-8.8675,40.4749],[-8.9188,40.3273],[-8.9701,40.1798],[-8.9769,40.1601],[-8.9865,40.106],[-8.9997,40.0322],[-9.0489,39.7556],[-9.0693,39.737],[-9.3934,39.4419],[-9.4485,39.3917],[-9.4603,39.2943],[-9.4693,39.2205],[-9.4782,39.1467],[-9.514,38.8516],[-9.5277,38.7384],[-9.5277,38.738]]],[[[-3.3042,43.2607],[-3.2992,43.2169],[-3.2674,43.2274],[-3.2861,43.2564],[-3.3042,43.2607]]],[[[-2.8681,42.7514],[-2.8653,42.7363],[-2.8141,42.7029],[-2.7524,42.6818],[-2.6844,42.6703],[-2.6341,42.6548],[-2.5569,42.6534],[-2.5382,42.6434],[-2.5129,42.6534],[-2.5258,42.6895],[-2.5595,42.6735],[-2.6008,42.7044],[-2.5619,42.7391],[-2.5561,42.7564],[-2.6081,42.7766],[-2.6389,42.7742],[-2.7528,42.797],[-2.8166,42.794],[-2.8681,42.7514]]]]}},
{"type":"Feature","properties":{"entityId":"umayyad-caliphate","from":718,"to":720,"certainty":"estimated","source":"유럽 쪽은 Natural Earth 1:10m admin-1(v5.1.2) 현대 행정구역 조각을 그 시기 국경에 맞춰 묶고, 조각이 역사 경계와 다른 곳은 선을 그어 나눈 근사. 유럽 밖(시베리아·중앙아시아·극동)은 대략적인 추정. 운영자 검수 필요"},"geometry":{"type":"MultiPolygon","coordinates":[[[[-9.5277,38.738],[-9.5061,38.704],[-9.4247,38.5761],[-9.4122,38.5564],[-9.3953,38.5298],[-9.3443,38.4497],[-9.2865,38.3588],[-9.2108,38.343],[-9.0095,38.301],[-8.8401,38.2657],[-8.8203,38.1359],[-8.8771,37.9661],[-8.8948,37.9525],[-8.8668,37.9387],[-8.8221,37.8713],[-8.8214,37.868],[-8.8141,37.8326],[-8.8067,37.7972],[-8.817,37.7403],[-8.8087,37.7229],[-8.7946,37.7258],[-8.8002,37.6944],[-8.8265,37.6006],[-8.8184,37.5873],[-8.8157,37.4671],[-8.815,37.4371],[-8.8149,37.4308],[-8.825,37.407],[-8.8503,37.347],[-8.8828,37.3099],[-8.8739,37.2912],[-8.9075,37.2117],[-8.9227,37.1997],[-8.9185,37.1859],[-8.9265,37.1669],[-8.9752,37.0765],[-8.9856,37.0634],[-8.9896,37.0499],[-8.9985,37.0333],[-8.9983,37.0332],[-8.9985,37.0329],[-8.9949,37.0319],[-8.9979,37.0215],[-8.9829,37.0266],[-8.946,37.0079],[-8.8789,37.0472],[-8.8643,37.0424],[-8.8977,36.8698],[-8.8976,36.8698],[-8.8977,36.8694],[-8.8973,36.8695],[-8.8973,36.8694],[-8.3827,36.9794],[-7.8573,36.8389],[-7.8572,36.839],[-7.8569,36.8389],[-7.5462,37.0385],[-7.4617,37.0928],[-7.4538,37.0978],[-7.3772,37.0851],[-7.3349,37.078],[-7.2927,37.0709],[-7.2083,37.0569],[-6.8705,37.0004],[-6.5326,36.944],[-6.5217,36.9422],[-6.4844,36.8668],[-6.4567,36.8108],[-6.4429,36.7828],[-6.4291,36.7549],[-6.4333,36.7512],[-6.4315,36.7146],[-6.407,36.6767],[-6.3947,36.6369],[-6.3631,36.6213],[-6.2373,36.3667],[-5.8665,36.0299],[-5.5206,35.9713],[-5.4718,35.963],[-5.4718,35.9832],[-5.423,35.9832],[-5.423,36.0078],[-5.3255,36.0078],[-5.3255,35.9973],[-5.2767,36.0456],[-5.228,36.0938],[-5.2279,36.0939],[-5.1791,36.1421],[-5.1304,36.1903],[-5.1286,36.1921],[-5.0997,36.2207],[-5.0993,36.221],[-4.9948,36.3244],[-4.678,36.5033],[-4.6592,36.5076],[-4.615,36.5306],[-4.6069,36.5434],[-4.5448,36.5785],[-4.5248,36.5807],[-4.5165,36.5945],[-4.3684,36.6781],[-4.0717,36.6723],[-3.8493,36.668],[-3.8215,36.6674],[-3.7937,36.6669],[-3.7659,36.6663],[-3.7381,36.6658],[-3.6269,36.6636],[-3.4148,36.6595],[-3.4144,36.6595],[-3.1821,36.662],[-3.0709,36.6632],[-2.9597,36.6643],[-2.7373,36.6667],[-2.1472,36.673],[-1.8477,36.9983],[-1.6098,37.2566],[-1.5817,37.2871],[-1.5293,37.3441],[-1.4768,37.4011],[-1.438,37.4432],[-1.4029,37.4525],[-0.9582,37.5699],[-0.9252,37.5559],[-0.8757,37.5757],[-0.8661,37.5764],[-0.8364,37.5764],[-0.8272,37.5793],[-0.8224,37.5797],[-0.772,37.5953],[-0.7673,37.5985],[-0.764,37.5996],[-0.7279,37.6034],[-0.7053,37.6195],[-0.7072,37.6362],[-0.682,37.6429],[-0.6471,37.7478],[-0.6286,37.8036],[-0.61,37.8594],[-0.5359,38.0825],[-0.466,38.2928],[-0.1606,38.5289],[-0.1317,38.5353],[-0.0902,38.5353],[-0.06,38.5527],[-0.0563,38.5828],[-0.052,38.5848],[0.0237,38.6297],[0.0604,38.6348],[0.083,38.661],[0.1257,38.6855],[0.145,38.6863],[0.1626,38.7135],[0.1921,38.7304],[0.2277,38.7346],[0.2179,38.7681],[0.1786,38.7915],[0.1744,38.7979],[0.1853,38.8035],[0.154,38.831],[0.111,38.8499],[0.06,38.8583],[0.023,38.871],[0.0188,38.8725],[0.0052,38.8925],[-0.014,38.9208],[-0.0298,38.944],[-0.088,39.0296],[-0.1695,39.1495],[-0.2787,39.3102],[-0.2169,39.4408],[-0.148,39.5865],[-0.1136,39.6593],[-0.0963,39.6957],[-0.0791,39.7321],[0.0587,40.0234],[0.0662,40.0319],[0.117,40.0563],[0.1445,40.0788],[0.1728,40.122],[0.2485,40.1993],[0.2647,40.2098],[0.2988,40.2468],[0.3506,40.2849],[0.4203,40.3883],[0.4461,40.4084],[0.4513,40.4288],[0.4654,40.4469],[0.4977,40.4759],[0.5442,40.5178],[0.5553,40.5277],[0.5913,40.5601],[0.6024,40.5701],[0.6159,40.5535],[0.6771,40.5652],[0.707,40.5834],[0.7564,40.6422],[0.7624,40.6463],[0.8167,40.6683],[0.8483,40.6754],[0.8546,40.6837],[0.8588,40.6854],[0.8912,40.7219],[0.891,40.7221],[0.8912,40.7223],[0.7976,40.8039],[0.7582,40.813],[0.7705,40.8589],[0.7926,40.8762],[0.8156,40.892],[1.0133,41.0477],[1.149,41.0701],[1.1836,41.0626],[1.196,41.0779],[1.5509,41.1364],[1.5953,41.1438],[1.6841,41.1584],[1.7284,41.1657],[1.9058,41.195],[2.0936,41.226],[2.6155,41.5927],[2.6519,41.6053],[2.7785,41.6456],[2.792,41.669],[2.8511,41.6972],[2.933,41.7125],[2.9509,41.7343],[3.0403,41.7869],[3.0691,41.7991],[3.0735,41.8119],[3.1272,41.8469],[3.1502,41.8454],[3.1949,41.8883],[3.2099,41.9115],[3.2492,41.944],[3.2492,41.9444],[3.2384,42.0833],[3.224,42.1111],[3.1736,42.1354],[3.1521,42.163],[3.1658,42.2526],[3.2101,42.2397],[3.263,42.2399],[3.287,42.2629],[3.2993,42.2869],[3.3068,42.2895],[3.3067,42.2899],[3.3068,42.2899],[3.3044,42.297],[3.3177,42.323],[3.2933,42.3303],[3.2888,42.3437],[3.2384,42.368],[3.2253,42.4006],[3.2132,42.4305],[3.2108,42.4358],[3.1801,42.4358],[3.181,42.4315],[3.1117,42.425],[3.0656,42.432],[3.0296,42.4657],[2.9831,42.4693],[2.9661,42.461],[2.9337,42.4702],[2.9008,42.4513],[2.8508,42.4484],[2.7886,42.412],[2.7285,42.414],[2.6904,42.4062],[2.6403,42.3728],[2.6622,42.339],[2.6134,42.341],[2.5481,42.3522],[2.5253,42.3259],[2.4649,42.3406],[2.4225,42.3837],[2.3755,42.3893],[2.2774,42.4286],[2.1842,42.4118],[2.137,42.4162],[2.104,42.3848],[2.0517,42.3524],[1.9957,42.3487],[1.9637,42.3672],[1.9275,42.4369],[1.8698,42.4468],[1.7927,42.4817],[1.7122,42.4937],[1.707,42.5028],[1.7106,42.5277],[1.7171,42.5399],[1.7217,42.5485],[1.74,42.5616],[1.7651,42.5634],[1.7611,42.5676],[1.7527,42.5767],[1.7294,42.582],[1.7133,42.5895],[1.722,42.6099],[1.6083,42.6181],[1.5973,42.6219],[1.5431,42.6494],[1.5278,42.6485],[1.4984,42.6402],[1.4668,42.6415],[1.4514,42.6021],[1.4293,42.5954],[1.398,42.6436],[1.3611,42.6867],[1.3191,42.7134],[1.1959,42.7136],[1.1625,42.7057],[1.1343,42.716],[1.1067,42.7596],[1.0682,42.7761],[0.9829,42.7804],[0.9587,42.7937],[0.9211,42.7844],[0.8561,42.8128],[0.8129,42.8316],[0.7763,42.8325],[0.7243,42.8453],[0.6563,42.8384],[0.6537,42.8027],[0.6335,42.7448],[0.6665,42.7148],[0.6634,42.6962],[0.6436,42.6845],[0.6082,42.688],[0.4835,42.6853],[0.4669,42.6904],[0.3893,42.6851],[0.3542,42.7175],[0.336,42.7127],[0.2902,42.6703],[0.2754,42.6687],[0.2384,42.7104],[0.1692,42.7265],[0.1342,42.7152],[0.0728,42.7085],[-0.0043,42.6875],[-0.0389,42.6851],[-0.119,42.7169],[-0.1636,42.778],[-0.1614,42.7953],[-0.2084,42.7839],[-0.2351,42.7862],[-0.247,42.8048],[-0.3051,42.8308],[-0.3228,42.8425],[-0.4239,42.7907],[-0.4545,42.7889],[-0.5084,42.8075],[-0.5339,42.808],[-0.5356,42.7842],[-0.5787,42.7773],[-0.5829,42.7958],[-0.6095,42.8114],[-0.6483,42.8498],[-0.7004,42.8764],[-0.7301,42.8775],[-0.7459,42.8939],[-0.745,42.9187],[-0.7597,42.9465],[-0.7864,42.9533],[-0.8635,42.9431],[-0.9432,42.9479],[-0.9815,42.957],[-1.0285,42.9867],[-1.0797,42.9934],[-1.1124,43.0083],[-1.1499,43.0057],[-1.2169,43.0393],[-1.2749,43.0468],[-1.3106,43.0695],[-1.3086,43.1136],[-1.3483,43.0931],[-1.3576,43.0468],[-1.3831,43.0292],[-1.435,43.0357],[-1.4753,43.0601],[-1.4878,43.0818],[-1.4258,43.1353],[-1.3997,43.2067],[-1.4035,43.2433],[-1.4322,43.265],[-1.4664,43.2608],[-1.5081,43.2768],[-1.559,43.2841],[-1.5876,43.2516],[-1.639,43.2557],[-1.645,43.2924],[-1.6739,43.3042],[-1.7497,43.2948],[-1.7913,43.2774],[-1.8211,43.2386],[-1.8893,43.2116],[-1.9085,43.2183],[-1.9187,43.1922],[-1.9125,43.1351],[-1.9267,43.1144],[-2.0146,43.067],[-2.0406,43.0276],[-2.0427,42.9945],[-2.0947,42.9755],[-2.1329,42.9469],[-2.2141,42.9496],[-2.253,42.9001],[-2.2423,42.8392],[-2.2744,42.791],[-2.2849,42.7447],[-2.3207,42.721],[-2.312,42.6829],[-2.2927,42.6631],[-2.3284,42.643],[-2.3659,42.6379],[-2.4087,42.6602],[-2.4927,42.6093],[-2.4814,42.5859],[-2.4501,42.576],[-2.4213,42.5988],[-2.4059,42.5961],[-2.394,42.565],[-2.4061,42.4971],[-2.462,42.5073],[-2.5015,42.5377],[-2.5288,42.5172],[-2.5835,42.4967],[-2.5851,42.512],[-2.6179,42.5077],[-2.6847,42.5378],[-2.6856,42.5818],[-2.6994,42.5977],[-2.7474,42.6187],[-2.7697,42.6088],[-2.78,42.5856],[-2.8268,42.5902],[-2.8373,42.6441],[-2.8525,42.6654],[-2.9687,42.7378],[-3.0635,42.7853],[-3.1196,42.7687],[-3.1512,42.8176],[-3.1125,42.8683],[-3.1302,42.8886],[-3.1591,42.8646],[-3.2027,42.8551],[-3.2174,42.8297],[-3.2759,42.8747],[-3.2791,42.8872],[-3.2332,42.9382],[-3.1883,42.9467],[-3.1512,42.9343],[-3.141,42.9161],[-3.0847,42.9055],[-3.0292,42.9102],[-2.9875,42.9263],[-2.9834,42.951],[-3.0123,42.9585],[-3.0394,42.987],[-2.9993,42.9895],[-2.9874,43.0089],[-3.0367,43.0497],[-3.0553,43.0431],[-3.0735,43.014],[-3.1216,43.0136],[-3.1651,43.0267],[-3.1485,43.0504],[-3.1418,43.1041],[-3.1726,43.1314],[-3.1418,43.1651],[-3.1515,43.1814],[-3.2297,43.187],[-3.2785,43.1973],[-3.3624,43.1579],[-3.4238,43.1406],[-3.4409,43.1881],[-3.4416,43.2333],[-3.4309,43.2435],[-3.3229,43.3001],[-3.2352,43.2991],[-3.2035,43.2923],[-3.1602,43.3078],[-3.1495,43.3244],[-3.1506,43.3602],[-3.1541,43.362],[-3.1541,43.4012],[-3.1106,43.4012],[-3.1106,43.4474],[-3.1541,43.4483],[-3.4221,43.4536],[-3.433,43.46],[-3.4366,43.4705],[-3.4552,43.4728],[-3.5224,43.512],[-3.5512,43.5144],[-3.5544,43.5169],[-3.5794,43.5183],[-3.5841,43.5172],[-3.6052,43.519],[-3.6056,43.519],[-3.7746,43.4773],[-3.7748,43.4774],[-3.7692,43.4792],[-3.8267,43.497],[-3.8457,43.4913],[-3.8896,43.4999],[-3.89,43.4999],[-4.016,43.4634],[-4.3112,43.4148],[-4.324,43.4149],[-4.4259,43.4157],[-4.4436,43.4185],[-4.5034,43.4281],[-4.5034,43.3966],[-4.5138,43.4028],[-4.5133,43.3844],[-4.5373,43.3483],[-4.5187,43.306],[-4.5235,43.2879],[-4.5512,43.2792],[-4.5926,43.2982],[-4.6432,43.2722],[-4.7157,43.2647],[-4.7279,43.2078],[-4.7427,43.1921],[-4.8319,43.1887],[-4.8594,43.2234],[-4.9085,43.2373],[-5.0083,43.1929],[-5.0721,43.1725],[-5.0955,43.1283],[-5.1181,43.1086],[-5.1595,43.1132],[-5.212,43.094],[-5.3075,43.0855],[-5.361,43.0915],[-5.3828,43.0853],[-5.3899,43.0638],[-5.4188,43.0519],[-5.4734,43.0511],[-5.4908,43.0286],[-5.541,43.0218],[-5.6371,43.038],[-5.6652,43.0483],[-5.73,43.0406],[-5.7699,42.9816],[-5.8048,42.9706],[-5.8448,42.9717],[-5.889,42.9856],[-5.9547,43.0176],[-5.9878,43.0623],[-6.0168,43.0573],[-6.0791,43.0651],[-6.1024,43.0348],[-6.1355,43.0271],[-6.1997,43.041],[-6.2344,43.0144],[-6.3649,43.0514],[-6.3928,43.0422],[-6.4147,43.0049],[-6.4812,42.9824],[-6.4441,42.964],[-6.449,42.9511],[-6.5016,42.9297],[-6.5621,42.9167],[-6.6357,42.9273],[-6.7194,42.9202],[-6.7709,42.8941],[-6.7953,42.9109],[-6.8283,42.9148],[-6.8369,42.9627],[-6.8689,42.9887],[-6.9137,42.9947],[-6.9452,43.0246],[-6.9664,42.9943],[-6.9885,43.0193],[-6.9634,43.0426],[-6.9452,43.0767],[-6.869,43.0953],[-6.8315,43.1202],[-6.8322,43.1399],[-6.8663,43.1753],[-6.8985,43.1491],[-6.9434,43.1326],[-6.9709,43.1517],[-6.9656,43.195],[-7.051,43.2373],[-7.0713,43.2977],[-7.1216,43.3368],[-7.126,43.3727],[-7.1669,43.3862],[-7.1609,43.4291],[-7.1127,43.4293],[-7.0469,43.4837],[-7.0383,43.4792],[-7.0277,43.5133],[-7.0432,43.5133],[-7.0309,43.5332],[-7.0319,43.5474],[-7.0323,43.553],[-7.0365,43.5544],[-7.0365,43.6089],[-7.0817,43.6156],[-7.1721,43.6289],[-7.3428,43.6542],[-7.3527,43.6615],[-7.3671,43.6801],[-7.3846,43.6849],[-7.3997,43.696],[-7.5041,43.7394],[-7.5045,43.7394],[-7.5942,43.7273],[-7.6353,43.7424],[-7.641,43.7527],[-7.652,43.7485],[-7.6781,43.758],[-7.6683,43.7725],[-7.6855,43.7934],[-7.6957,43.7749],[-7.7264,43.755],[-7.7444,43.7481],[-7.7738,43.7426],[-7.8007,43.7267],[-7.8097,43.7232],[-7.859,43.7305],[-7.8808,43.7633],[-7.9086,43.7663],[-7.9381,43.7422],[-7.9793,43.7483],[-7.9797,43.7483],[-8.0557,43.7096],[-8.0593,43.7094],[-8.0603,43.7072],[-8.8024,43.329],[-8.8086,43.3295],[-8.817,43.3358],[-8.8412,43.3389],[-8.8538,43.3334],[-8.8721,43.3349],[-8.8725,43.3349],[-8.9228,43.3032],[-8.9305,43.2998],[-8.988,43.283],[-8.9736,43.2711],[-9.0237,43.2395],[-9.0957,43.2152],[-9.1287,43.1986],[-9.1379,43.2015],[-9.1701,43.1887],[-9.2176,43.1553],[-9.2084,43.1379],[-9.1919,43.1417],[-9.1978,43.1276],[-9.3945,43.0273],[-9.3942,43.027],[-9.3945,43.0269],[-9.2757,42.9009],[-9.2684,42.8913],[-9.2677,42.8925],[-9.0432,42.6545],[-9.0657,42.6203],[-9.0709,42.5961],[-9.0334,42.5781],[-9.0264,42.5431],[-9.0115,42.5307],[-8.9873,42.5469],[-8.9879,42.5379],[-8.9905,42.5018],[-8.993,42.4656],[-8.9982,42.3933],[-9.0191,42.0982],[-9.0296,41.9506],[-9.0345,41.8814],[-9.0345,41.881],[-9.034,41.8769],[-9.0246,41.8031],[-9.0057,41.6555],[-8.9916,41.5448],[-8.9913,41.5425],[-8.9719,41.5079],[-8.9511,41.471],[-8.9304,41.4341],[-8.8889,41.3603],[-8.8061,41.2128],[-8.7897,41.1837],[-8.7837,41.0652],[-8.7761,40.9176],[-8.7681,40.7609],[-8.8162,40.6225],[-8.8419,40.5487],[-8.8675,40.4749],[-8.9188,40.3273],[-8.9701,40.1798],[-8.9769,40.1601],[-8.9865,40.106],[-8.9997,40.0322],[-9.0489,39.7556],[-9.0693,39.737],[-9.3934,39.4419],[-9.4485,39.3917],[-9.4603,39.2943],[-9.4693,39.2205],[-9.4782,39.1467],[-9.514,38.8516],[-9.5277,38.7384],[-9.5277,38.738]]],[[[-3.3042,43.2607],[-3.2992,43.2169],[-3.2674,43.2274],[-3.2861,43.2564],[-3.3042,43.2607]]],[[[-2.8681,42.7514],[-2.8653,42.7363],[-2.8141,42.7029],[-2.7524,42.6818],[-2.6844,42.6703],[-2.6341,42.6548],[-2.5569,42.6534],[-2.5382,42.6434],[-2.5129,42.6534],[-2.5258,42.6895],[-2.5595,42.6735],[-2.6008,42.7044],[-2.5619,42.7391],[-2.5561,42.7564],[-2.6081,42.7766],[-2.6389,42.7742],[-2.7528,42.797],[-2.8166,42.794],[-2.8681,42.7514]]],[[[1.9456,42.4638],[1.9606,42.4437],[1.9995,42.4439],[1.968,42.4857],[1.9456,42.4638]]]]}},
{"type":"Feature","properties":{"entityId":"umayyad-caliphate","from":720,"to":741,"certainty":"estimated","source":"유럽 쪽은 Natural Earth 1:10m admin-1(v5.1.2) 현대 행정구역 조각을 그 시기 국경에 맞춰 묶고, 조각이 역사 경계와 다른 곳은 선을 그어 나눈 근사. 유럽 밖(시베리아·중앙아시아·극동)은 대략적인 추정. 운영자 검수 필요"},"geometry":{"type":"MultiPolygon","coordinates":[[[[-9.5277,38.738],[-9.5061,38.704],[-9.4247,38.5761],[-9.4122,38.5564],[-9.3953,38.5298],[-9.3443,38.4497],[-9.2865,38.3588],[-9.2108,38.343],[-9.0095,38.301],[-8.8401,38.2657],[-8.8203,38.1359],[-8.8771,37.9661],[-8.8948,37.9525],[-8.8668,37.9387],[-8.8221,37.8713],[-8.8214,37.868],[-8.8141,37.8326],[-8.8067,37.7972],[-8.817,37.7403],[-8.8087,37.7229],[-8.7946,37.7258],[-8.8002,37.6944],[-8.8265,37.6006],[-8.8184,37.5873],[-8.8157,37.4671],[-8.815,37.4371],[-8.8149,37.4308],[-8.825,37.407],[-8.8503,37.347],[-8.8828,37.3099],[-8.8739,37.2912],[-8.9075,37.2117],[-8.9227,37.1997],[-8.9185,37.1859],[-8.9265,37.1669],[-8.9752,37.0765],[-8.9856,37.0634],[-8.9896,37.0499],[-8.9985,37.0333],[-8.9983,37.0332],[-8.9985,37.0329],[-8.9949,37.0319],[-8.9979,37.0215],[-8.9829,37.0266],[-8.946,37.0079],[-8.8789,37.0472],[-8.8643,37.0424],[-8.8977,36.8698],[-8.8976,36.8698],[-8.8977,36.8694],[-8.8973,36.8695],[-8.8973,36.8694],[-8.3827,36.9794],[-7.8573,36.8389],[-7.8572,36.839],[-7.8569,36.8389],[-7.5462,37.0385],[-7.4617,37.0928],[-7.4538,37.0978],[-7.3772,37.0851],[-7.3349,37.078],[-7.2927,37.0709],[-7.2083,37.0569],[-6.8705,37.0004],[-6.5326,36.944],[-6.5217,36.9422],[-6.4844,36.8668],[-6.4567,36.8108],[-6.4429,36.7828],[-6.4291,36.7549],[-6.4333,36.7512],[-6.4315,36.7146],[-6.407,36.6767],[-6.3947,36.6369],[-6.3631,36.6213],[-6.2373,36.3667],[-5.8665,36.0299],[-5.5206,35.9713],[-5.4718,35.963],[-5.4718,35.9832],[-5.423,35.9832],[-5.423,36.0078],[-5.3255,36.0078],[-5.3255,35.9973],[-5.2767,36.0456],[-5.228,36.0938],[-5.2279,36.0939],[-5.1791,36.1421],[-5.1304,36.1903],[-5.1286,36.1921],[-5.0997,36.2207],[-5.0993,36.221],[-4.9948,36.3244],[-4.678,36.5033],[-4.6592,36.5076],[-4.615,36.5306],[-4.6069,36.5434],[-4.5448,36.5785],[-4.5248,36.5807],[-4.5165,36.5945],[-4.3684,36.6781],[-4.0717,36.6723],[-3.8493,36.668],[-3.8215,36.6674],[-3.7937,36.6669],[-3.7659,36.6663],[-3.7381,36.6658],[-3.6269,36.6636],[-3.4148,36.6595],[-3.4144,36.6595],[-3.1821,36.662],[-3.0709,36.6632],[-2.9597,36.6643],[-2.7373,36.6667],[-2.1472,36.673],[-1.8477,36.9983],[-1.6098,37.2566],[-1.5817,37.2871],[-1.5293,37.3441],[-1.4768,37.4011],[-1.438,37.4432],[-1.4029,37.4525],[-0.9582,37.5699],[-0.9252,37.5559],[-0.8757,37.5757],[-0.8661,37.5764],[-0.8364,37.5764],[-0.8272,37.5793],[-0.8224,37.5797],[-0.772,37.5953],[-0.7673,37.5985],[-0.764,37.5996],[-0.7279,37.6034],[-0.7053,37.6195],[-0.7072,37.6362],[-0.682,37.6429],[-0.6471,37.7478],[-0.6286,37.8036],[-0.61,37.8594],[-0.5359,38.0825],[-0.466,38.2928],[-0.1606,38.5289],[-0.1317,38.5353],[-0.0902,38.5353],[-0.06,38.5527],[-0.0563,38.5828],[-0.052,38.5848],[0.0237,38.6297],[0.0604,38.6348],[0.083,38.661],[0.1257,38.6855],[0.145,38.6863],[0.1626,38.7135],[0.1921,38.7304],[0.2277,38.7346],[0.2179,38.7681],[0.1786,38.7915],[0.1744,38.7979],[0.1853,38.8035],[0.154,38.831],[0.111,38.8499],[0.06,38.8583],[0.023,38.871],[0.0188,38.8725],[0.0052,38.8925],[-0.014,38.9208],[-0.0298,38.944],[-0.088,39.0296],[-0.1695,39.1495],[-0.2787,39.3102],[-0.2169,39.4408],[-0.148,39.5865],[-0.1136,39.6593],[-0.0963,39.6957],[-0.0791,39.7321],[0.0587,40.0234],[0.0662,40.0319],[0.117,40.0563],[0.1445,40.0788],[0.1728,40.122],[0.2485,40.1993],[0.2647,40.2098],[0.2988,40.2468],[0.3506,40.2849],[0.4203,40.3883],[0.4461,40.4084],[0.4513,40.4288],[0.4654,40.4469],[0.4977,40.4759],[0.5442,40.5178],[0.5553,40.5277],[0.5913,40.5601],[0.6024,40.5701],[0.6159,40.5535],[0.6771,40.5652],[0.707,40.5834],[0.7564,40.6422],[0.7624,40.6463],[0.8167,40.6683],[0.8483,40.6754],[0.8546,40.6837],[0.8588,40.6854],[0.8912,40.7219],[0.891,40.7221],[0.8912,40.7223],[0.7976,40.8039],[0.7582,40.813],[0.7705,40.8589],[0.7926,40.8762],[0.8156,40.892],[1.0133,41.0477],[1.149,41.0701],[1.1836,41.0626],[1.196,41.0779],[1.5509,41.1364],[1.5953,41.1438],[1.6841,41.1584],[1.7284,41.1657],[1.9058,41.195],[2.0936,41.226],[2.6155,41.5927],[2.6519,41.6053],[2.7785,41.6456],[2.792,41.669],[2.8511,41.6972],[2.933,41.7125],[2.9509,41.7343],[3.0403,41.7869],[3.0691,41.7991],[3.0735,41.8119],[3.1272,41.8469],[3.1502,41.8454],[3.1949,41.8883],[3.2099,41.9115],[3.2492,41.944],[3.2492,41.9444],[3.2384,42.0833],[3.224,42.1111],[3.1736,42.1354],[3.1521,42.163],[3.1658,42.2526],[3.2101,42.2397],[3.263,42.2399],[3.287,42.2629],[3.2993,42.2869],[3.3068,42.2895],[3.3067,42.2899],[3.3068,42.2899],[3.3044,42.297],[3.3177,42.323],[3.2933,42.3303],[3.2888,42.3437],[3.2384,42.368],[3.2253,42.4006],[3.2132,42.4305],[3.2108,42.4358],[3.1988,42.4617],[3.1911,42.471],[3.0908,42.5919],[3.087,42.6117],[3.0604,42.7524],[3.0502,42.806],[3.0535,42.8228],[3.0602,42.858],[3.0669,42.8931],[3.0789,42.9558],[3.1628,43.0811],[3.1703,43.0896],[3.1721,43.09],[3.1851,43.0929],[3.2652,43.1108],[3.3053,43.1198],[3.3453,43.1287],[3.4254,43.1466],[3.8117,43.233],[3.9569,43.2654],[4.0052,43.2762],[4.102,43.2978],[4.1503,43.3086],[4.1987,43.3194],[4.1987,43.4626],[4.2059,43.4599],[4.2313,43.4715],[4.2476,43.501],[4.3371,43.5321],[4.4004,43.5622],[4.413,43.5819],[4.4483,43.5873],[4.4599,43.6178],[4.4296,43.6248],[4.4516,43.6666],[4.4995,43.7063],[4.5415,43.7129],[4.6049,43.696],[4.6169,43.741],[4.6464,43.7949],[4.6409,43.8706],[4.7267,43.9172],[4.7728,43.9328],[4.8064,43.9529],[4.822,43.9758],[4.8209,44.0004],[4.8475,44.0022],[4.8444,44.0221],[4.7779,44.0843],[4.7295,44.0859],[4.719,44.1247],[4.7213,44.1902],[4.6881,44.2194],[4.6856,44.2403],[4.6578,44.2817],[4.5852,44.3007],[4.5506,44.3271],[4.5208,44.3368],[4.4656,44.336],[4.4451,44.3011],[4.4074,44.2927],[4.3967,44.3283],[4.3731,44.3397],[4.3338,44.3307],[4.2511,44.2818],[4.229,44.2853],[4.1408,44.3216],[4.1306,44.3317],[4.0443,44.3311],[4.0361,44.3756],[4.0497,44.4035],[4.0218,44.4395],[3.994,44.4579],[3.9592,44.4138],[3.8948,44.3902],[3.9265,44.3507],[3.9366,44.3067],[3.9624,44.2621],[3.9576,44.2248],[3.9204,44.1664],[3.8758,44.1314],[3.791,44.136],[3.6904,44.1802],[3.6427,44.1769],[3.6366,44.1273],[3.6163,44.1168],[3.5179,44.1134],[3.4803,44.1218],[3.3767,44.1683],[3.3266,44.1332],[3.3159,44.0987],[3.2868,44.0863],[3.3065,44.0691],[3.3322,44.0719],[3.3595,44.0551],[3.3945,44.0503],[3.4469,44.0144],[3.4424,44.0002],[3.3569,43.9386],[3.342,43.9039],[3.3218,43.8911],[3.2744,43.8876],[3.2375,43.8641],[3.2323,43.8391],[3.1894,43.8131],[3.0881,43.8228],[3.0529,43.8101],[3.0612,43.7661],[3.0562,43.7156],[3.025,43.6904],[2.9902,43.7007],[2.9345,43.6937],[2.8856,43.6529],[2.7756,43.6179],[2.6743,43.6399],[2.6414,43.6331],[2.622,43.5978],[2.6212,43.5652],[2.6605,43.5215],[2.6503,43.4991],[2.6567,43.4608],[2.6059,43.4306],[2.5675,43.4228],[2.4617,43.43],[2.3672,43.4248],[2.2615,43.4423],[2.2291,43.4271],[2.232,43.4026],[2.2172,43.3842],[2.1672,43.401],[2.0902,43.3922],[2.0634,43.3986],[2.0317,43.4226],[1.9506,43.4142],[1.8938,43.3936],[1.8498,43.4234],[1.8047,43.3734],[1.8112,43.3439],[1.7949,43.3335],[1.7423,43.3278],[1.7254,43.3162],[1.7026,43.2667],[1.6965,43.2439],[1.7191,43.1834],[1.7749,43.1522],[1.8407,43.137],[1.8806,43.1203],[1.9249,43.1167],[1.9454,43.1038],[1.9603,43.0691],[1.9436,43.0513],[1.9774,43.0151],[1.9895,42.9605],[1.9479,42.9478],[1.9416,42.9351],[1.969,42.9196],[1.9852,42.8791],[1.9772,42.8637],[1.8869,42.8443],[1.8655,42.8159],[1.9139,42.7834],[1.9127,42.7566],[1.9561,42.7346],[1.9919,42.7314],[2.0556,42.7443],[2.0862,42.7381],[2.1166,42.7071],[2.1577,42.6914],[2.1661,42.6638],[2.154,42.6564],[2.0983,42.6639],[2.0056,42.6561],[1.9628,42.6218],[1.9588,42.5944],[1.9383,42.5718],[1.8728,42.579],[1.7611,42.5676],[1.7527,42.5767],[1.7294,42.582],[1.7133,42.5895],[1.722,42.6099],[1.6083,42.6181],[1.5973,42.6219],[1.5431,42.6494],[1.5278,42.6485],[1.4984,42.6402],[1.4668,42.6415],[1.4514,42.6021],[1.4293,42.5954],[1.398,42.6436],[1.3611,42.6867],[1.3191,42.7134],[1.1959,42.7136],[1.1625,42.7057],[1.1343,42.716],[1.1067,42.7596],[1.0682,42.7761],[0.9829,42.7804],[0.9587,42.7937],[0.9211,42.7844],[0.8561,42.8128],[0.8129,42.8316],[0.7763,42.8325],[0.7243,42.8453],[0.6563,42.8384],[0.6537,42.8027],[0.6335,42.7448],[0.6665,42.7148],[0.6634,42.6962],[0.6436,42.6845],[0.6082,42.688],[0.4835,42.6853],[0.4669,42.6904],[0.3893,42.6851],[0.3542,42.7175],[0.336,42.7127],[0.2902,42.6703],[0.2754,42.6687],[0.2384,42.7104],[0.1692,42.7265],[0.1342,42.7152],[0.0728,42.7085],[-0.0043,42.6875],[-0.0389,42.6851],[-0.119,42.7169],[-0.1636,42.778],[-0.1614,42.7953],[-0.2084,42.7839],[-0.2351,42.7862],[-0.247,42.8048],[-0.3051,42.8308],[-0.3228,42.8425],[-0.4239,42.7907],[-0.4545,42.7889],[-0.5084,42.8075],[-0.5339,42.808],[-0.5356,42.7842],[-0.5787,42.7773],[-0.5829,42.7958],[-0.6095,42.8114],[-0.6483,42.8498],[-0.7004,42.8764],[-0.7301,42.8775],[-0.7459,42.8939],[-0.745,42.9187],[-0.7597,42.9465],[-0.7864,42.9533],[-0.8635,42.9431],[-0.9432,42.9479],[-0.9815,42.957],[-1.0285,42.9867],[-1.0797,42.9934],[-1.1124,43.0083],[-1.1499,43.0057],[-1.2169,43.0393],[-1.2749,43.0468],[-1.3106,43.0695],[-1.3086,43.1136],[-1.3483,43.0931],[-1.3576,43.0468],[-1.3831,43.0292],[-1.435,43.0357],[-1.4753,43.0601],[-1.4878,43.0818],[-1.4258,43.1353],[-1.3997,43.2067],[-1.4035,43.2433],[-1.4322,43.265],[-1.4664,43.2608],[-1.5081,43.2768],[-1.559,43.2841],[-1.5876,43.2516],[-1.639,43.2557],[-1.645,43.2924],[-1.6739,43.3042],[-1.7497,43.2948],[-1.7913,43.2774],[-1.8211,43.2386],[-1.8893,43.2116],[-1.9085,43.2183],[-1.9187,43.1922],[-1.9125,43.1351],[-1.9267,43.1144],[-2.0146,43.067],[-2.0406,43.0276],[-2.0427,42.9945],[-2.0947,42.9755],[-2.1329,42.9469],[-2.2141,42.9496],[-2.253,42.9001],[-2.2423,42.8392],[-2.2744,42.791],[-2.2849,42.7447],[-2.3207,42.721],[-2.312,42.6829],[-2.2927,42.6631],[-2.3284,42.643],[-2.3659,42.6379],[-2.4087,42.6602],[-2.4927,42.6093],[-2.4814,42.5859],[-2.4501,42.576],[-2.4213,42.5988],[-2.4059,42.5961],[-2.394,42.565],[-2.4061,42.4971],[-2.462,42.5073],[-2.5015,42.5377],[-2.5288,42.5172],[-2.5835,42.4967],[-2.5851,42.512],[-2.6179,42.5077],[-2.6847,42.5378],[-2.6856,42.5818],[-2.6994,42.5977],[-2.7474,42.6187],[-2.7697,42.6088],[-2.78,42.5856],[-2.8268,42.5902],[-2.8373,42.6441],[-2.8525,42.6654],[-2.9687,42.7378],[-3.0635,42.7853],[-3.1196,42.7687],[-3.1512,42.8176],[-3.1125,42.8683],[-3.1302,42.8886],[-3.1591,42.8646],[-3.2027,42.8551],[-3.2174,42.8297],[-3.2759,42.8747],[-3.2791,42.8872],[-3.2332,42.9382],[-3.1883,42.9467],[-3.1512,42.9343],[-3.141,42.9161],[-3.0847,42.9055],[-3.0292,42.9102],[-2.9875,42.9263],[-2.9834,42.951],[-3.0123,42.9585],[-3.0394,42.987],[-2.9993,42.9895],[-2.9874,43.0089],[-3.0367,43.0497],[-3.0553,43.0431],[-3.0735,43.014],[-3.1216,43.0136],[-3.1651,43.0267],[-3.1485,43.0504],[-3.1418,43.1041],[-3.1726,43.1314],[-3.1418,43.1651],[-3.1515,43.1814],[-3.2297,43.187],[-3.2785,43.1973],[-3.3624,43.1579],[-3.4238,43.1406],[-3.4409,43.1881],[-3.4416,43.2333],[-3.4309,43.2435],[-3.3229,43.3001],[-3.2352,43.2991],[-3.2035,43.2923],[-3.1602,43.3078],[-3.1495,43.3244],[-3.1506,43.3602],[-3.1541,43.362],[-3.1541,43.4012],[-3.1106,43.4012],[-3.1106,43.4474],[-3.1541,43.4483],[-3.4221,43.4536],[-3.433,43.46],[-3.4366,43.4705],[-3.4552,43.4728],[-3.5224,43.512],[-3.5512,43.5144],[-3.5544,43.5169],[-3.5794,43.5183],[-3.5841,43.5172],[-3.6052,43.519],[-3.6056,43.519],[-3.7746,43.4773],[-3.7748,43.4774],[-3.7692,43.4792],[-3.8267,43.497],[-3.8457,43.4913],[-3.8896,43.4999],[-3.89,43.4999],[-4.016,43.4634],[-4.3112,43.4148],[-4.324,43.4149],[-4.4259,43.4157],[-4.4436,43.4185],[-4.5034,43.4281],[-4.5034,43.3966],[-4.5138,43.4028],[-4.5133,43.3844],[-4.5373,43.3483],[-4.5187,43.306],[-4.5235,43.2879],[-4.5512,43.2792],[-4.5926,43.2982],[-4.6432,43.2722],[-4.7157,43.2647],[-4.7279,43.2078],[-4.7427,43.1921],[-4.8319,43.1887],[-4.8594,43.2234],[-4.9085,43.2373],[-5.0083,43.1929],[-5.0721,43.1725],[-5.0955,43.1283],[-5.1181,43.1086],[-5.1595,43.1132],[-5.212,43.094],[-5.3075,43.0855],[-5.361,43.0915],[-5.3828,43.0853],[-5.3899,43.0638],[-5.4188,43.0519],[-5.4734,43.0511],[-5.4908,43.0286],[-5.541,43.0218],[-5.6371,43.038],[-5.6652,43.0483],[-5.73,43.0406],[-5.7699,42.9816],[-5.8048,42.9706],[-5.8448,42.9717],[-5.889,42.9856],[-5.9547,43.0176],[-5.9878,43.0623],[-6.0168,43.0573],[-6.0791,43.0651],[-6.1024,43.0348],[-6.1355,43.0271],[-6.1997,43.041],[-6.2344,43.0144],[-6.3649,43.0514],[-6.3928,43.0422],[-6.4147,43.0049],[-6.4812,42.9824],[-6.4441,42.964],[-6.449,42.9511],[-6.5016,42.9297],[-6.5621,42.9167],[-6.6357,42.9273],[-6.7194,42.9202],[-6.7709,42.8941],[-6.7953,42.9109],[-6.8283,42.9148],[-6.8369,42.9627],[-6.8689,42.9887],[-6.9137,42.9947],[-6.9452,43.0246],[-6.9664,42.9943],[-6.9885,43.0193],[-6.9634,43.0426],[-6.9452,43.0767],[-6.869,43.0953],[-6.8315,43.1202],[-6.8322,43.1399],[-6.8663,43.1753],[-6.8985,43.1491],[-6.9434,43.1326],[-6.9709,43.1517],[-6.9656,43.195],[-7.051,43.2373],[-7.0713,43.2977],[-7.1216,43.3368],[-7.126,43.3727],[-7.1669,43.3862],[-7.1609,43.4291],[-7.1127,43.4293],[-7.0469,43.4837],[-7.0383,43.4792],[-7.0277,43.5133],[-7.0432,43.5133],[-7.0309,43.5332],[-7.0319,43.5474],[-7.0323,43.553],[-7.0365,43.5544],[-7.0365,43.6089],[-7.0817,43.6156],[-7.1721,43.6289],[-7.3428,43.6542],[-7.3527,43.6615],[-7.3671,43.6801],[-7.3846,43.6849],[-7.3997,43.696],[-7.5041,43.7394],[-7.5045,43.7394],[-7.5942,43.7273],[-7.6353,43.7424],[-7.641,43.7527],[-7.652,43.7485],[-7.6781,43.758],[-7.6683,43.7725],[-7.6855,43.7934],[-7.6957,43.7749],[-7.7264,43.755],[-7.7444,43.7481],[-7.7738,43.7426],[-7.8007,43.7267],[-7.8097,43.7232],[-7.859,43.7305],[-7.8808,43.7633],[-7.9086,43.7663],[-7.9381,43.7422],[-7.9793,43.7483],[-7.9797,43.7483],[-8.0557,43.7096],[-8.0593,43.7094],[-8.0603,43.7072],[-8.8024,43.329],[-8.8086,43.3295],[-8.817,43.3358],[-8.8412,43.3389],[-8.8538,43.3334],[-8.8721,43.3349],[-8.8725,43.3349],[-8.9228,43.3032],[-8.9305,43.2998],[-8.988,43.283],[-8.9736,43.2711],[-9.0237,43.2395],[-9.0957,43.2152],[-9.1287,43.1986],[-9.1379,43.2015],[-9.1701,43.1887],[-9.2176,43.1553],[-9.2084,43.1379],[-9.1919,43.1417],[-9.1978,43.1276],[-9.3945,43.0273],[-9.3942,43.027],[-9.3945,43.0269],[-9.2757,42.9009],[-9.2684,42.8913],[-9.2677,42.8925],[-9.0432,42.6545],[-9.0657,42.6203],[-9.0709,42.5961],[-9.0334,42.5781],[-9.0264,42.5431],[-9.0115,42.5307],[-8.9873,42.5469],[-8.9879,42.5379],[-8.9905,42.5018],[-8.993,42.4656],[-8.9982,42.3933],[-9.0191,42.0982],[-9.0296,41.9506],[-9.0345,41.8814],[-9.0345,41.881],[-9.034,41.8769],[-9.0246,41.8031],[-9.0057,41.6555],[-8.9916,41.5448],[-8.9913,41.5425],[-8.9719,41.5079],[-8.9511,41.471],[-8.9304,41.4341],[-8.8889,41.3603],[-8.8061,41.2128],[-8.7897,41.1837],[-8.7837,41.0652],[-8.7761,40.9176],[-8.7681,40.7609],[-8.8162,40.6225],[-8.8419,40.5487],[-8.8675,40.4749],[-8.9188,40.3273],[-8.9701,40.1798],[-8.9769,40.1601],[-8.9865,40.106],[-8.9997,40.0322],[-9.0489,39.7556],[-9.0693,39.737],[-9.3934,39.4419],[-9.4485,39.3917],[-9.4603,39.2943],[-9.4693,39.2205],[-9.4782,39.1467],[-9.514,38.8516],[-9.5277,38.7384],[-9.5277,38.738]]],[[[-3.3042,43.2607],[-3.2992,43.2169],[-3.2674,43.2274],[-3.2861,43.2564],[-3.3042,43.2607]]],[[[-2.8681,42.7514],[-2.8653,42.7363],[-2.8141,42.7029],[-2.7524,42.6818],[-2.6844,42.6703],[-2.6341,42.6548],[-2.5569,42.6534],[-2.5382,42.6434],[-2.5129,42.6534],[-2.5258,42.6895],[-2.5595,42.6735],[-2.6008,42.7044],[-2.5619,42.7391],[-2.5561,42.7564],[-2.6081,42.7766],[-2.6389,42.7742],[-2.7528,42.797],[-2.8166,42.794],[-2.8681,42.7514]]]]}},
{"type":"Feature","properties":{"entityId":"umayyad-caliphate","from":741,"to":752,"certainty":"estimated","source":"유럽 쪽은 Natural Earth 1:10m admin-1(v5.1.2) 현대 행정구역 조각을 그 시기 국경에 맞춰 묶고, 조각이 역사 경계와 다른 곳은 선을 그어 나눈 근사. 유럽 밖(시베리아·중앙아시아·극동)은 대략적인 추정. 운영자 검수 필요"},"geometry":{"type":"Polygon","coordinates":[[[-9.5277,38.738],[-9.5061,38.704],[-9.4247,38.5761],[-9.4122,38.5564],[-9.3953,38.5298],[-9.3443,38.4497],[-9.2865,38.3588],[-9.2108,38.343],[-9.0095,38.301],[-8.8401,38.2657],[-8.8203,38.1359],[-8.8771,37.9661],[-8.8948,37.9525],[-8.8668,37.9387],[-8.8221,37.8713],[-8.8214,37.868],[-8.8141,37.8326],[-8.8067,37.7972],[-8.817,37.7403],[-8.8087,37.7229],[-8.7946,37.7258],[-8.8002,37.6944],[-8.8265,37.6006],[-8.8184,37.5873],[-8.8157,37.4671],[-8.815,37.4371],[-8.8149,37.4308],[-8.825,37.407],[-8.8503,37.347],[-8.8828,37.3099],[-8.8739,37.2912],[-8.9075,37.2117],[-8.9227,37.1997],[-8.9185,37.1859],[-8.9265,37.1669],[-8.9752,37.0765],[-8.9856,37.0634],[-8.9896,37.0499],[-8.9985,37.0333],[-8.9983,37.0332],[-8.9985,37.0329],[-8.9949,37.0319],[-8.9979,37.0215],[-8.9829,37.0266],[-8.946,37.0079],[-8.8789,37.0472],[-8.8643,37.0424],[-8.8977,36.8698],[-8.8976,36.8698],[-8.8977,36.8694],[-8.8973,36.8695],[-8.8973,36.8694],[-8.3827,36.9794],[-7.8573,36.8389],[-7.8572,36.839],[-7.8569,36.8389],[-7.5462,37.0385],[-7.4617,37.0928],[-7.4538,37.0978],[-7.3772,37.0851],[-7.3349,37.078],[-7.2927,37.0709],[-7.2083,37.0569],[-6.8705,37.0004],[-6.5326,36.944],[-6.5217,36.9422],[-6.4844,36.8668],[-6.4567,36.8108],[-6.4429,36.7828],[-6.4291,36.7549],[-6.4333,36.7512],[-6.4315,36.7146],[-6.407,36.6767],[-6.3947,36.6369],[-6.3631,36.6213],[-6.2373,36.3667],[-5.8665,36.0299],[-5.5206,35.9713],[-5.4718,35.963],[-5.4718,35.9832],[-5.423,35.9832],[-5.423,36.0078],[-5.3255,36.0078],[-5.3255,35.9973],[-5.2767,36.0456],[-5.228,36.0938],[-5.2279,36.0939],[-5.1791,36.1421],[-5.1304,36.1903],[-5.1286,36.1921],[-5.0997,36.2207],[-5.0993,36.221],[-4.9948,36.3244],[-4.678,36.5033],[-4.6592,36.5076],[-4.615,36.5306],[-4.6069,36.5434],[-4.5448,36.5785],[-4.5248,36.5807],[-4.5165,36.5945],[-4.3684,36.6781],[-4.0717,36.6723],[-3.8493,36.668],[-3.8215,36.6674],[-3.7937,36.6669],[-3.7659,36.6663],[-3.7381,36.6658],[-3.6269,36.6636],[-3.4148,36.6595],[-3.4144,36.6595],[-3.1821,36.662],[-3.0709,36.6632],[-2.9597,36.6643],[-2.7373,36.6667],[-2.1472,36.673],[-1.8477,36.9983],[-1.6098,37.2566],[-1.5817,37.2871],[-1.5293,37.3441],[-1.4768,37.4011],[-1.438,37.4432],[-1.4029,37.4525],[-0.9582,37.5699],[-0.9252,37.5559],[-0.8757,37.5757],[-0.8661,37.5764],[-0.8364,37.5764],[-0.8272,37.5793],[-0.8224,37.5797],[-0.772,37.5953],[-0.7673,37.5985],[-0.764,37.5996],[-0.7279,37.6034],[-0.7053,37.6195],[-0.7072,37.6362],[-0.682,37.6429],[-0.6471,37.7478],[-0.6286,37.8036],[-0.61,37.8594],[-0.5359,38.0825],[-0.466,38.2928],[-0.1606,38.5289],[-0.1317,38.5353],[-0.0902,38.5353],[-0.06,38.5527],[-0.0563,38.5828],[-0.052,38.5848],[0.0237,38.6297],[0.0604,38.6348],[0.083,38.661],[0.1257,38.6855],[0.145,38.6863],[0.1626,38.7135],[0.1921,38.7304],[0.2277,38.7346],[0.2179,38.7681],[0.1786,38.7915],[0.1744,38.7979],[0.1853,38.8035],[0.154,38.831],[0.111,38.8499],[0.06,38.8583],[0.023,38.871],[0.0188,38.8725],[0.0052,38.8925],[-0.014,38.9208],[-0.0298,38.944],[-0.088,39.0296],[-0.1695,39.1495],[-0.2787,39.3102],[-0.2169,39.4408],[-0.148,39.5865],[-0.1136,39.6593],[-0.0963,39.6957],[-0.0791,39.7321],[0.0587,40.0234],[0.0662,40.0319],[0.117,40.0563],[0.1445,40.0788],[0.1728,40.122],[0.2485,40.1993],[0.2647,40.2098],[0.2988,40.2468],[0.3506,40.2849],[0.4203,40.3883],[0.4461,40.4084],[0.4513,40.4288],[0.4654,40.4469],[0.4977,40.4759],[0.5442,40.5178],[0.5553,40.5277],[0.5913,40.5601],[0.6024,40.5701],[0.6159,40.5535],[0.6771,40.5652],[0.707,40.5834],[0.7564,40.6422],[0.7624,40.6463],[0.8167,40.6683],[0.8483,40.6754],[0.8546,40.6837],[0.8588,40.6854],[0.8912,40.7219],[0.891,40.7221],[0.8912,40.7223],[0.7976,40.8039],[0.7582,40.813],[0.7705,40.8589],[0.7926,40.8762],[0.8156,40.892],[1.0133,41.0477],[1.149,41.0701],[1.1836,41.0626],[1.196,41.0779],[1.5509,41.1364],[1.5953,41.1438],[1.6841,41.1584],[1.7284,41.1657],[1.9058,41.195],[2.0936,41.226],[2.6155,41.5927],[2.6519,41.6053],[2.7785,41.6456],[2.792,41.669],[2.8511,41.6972],[2.933,41.7125],[2.9509,41.7343],[3.0403,41.7869],[3.0691,41.7991],[3.0735,41.8119],[3.1272,41.8469],[3.1502,41.8454],[3.1949,41.8883],[3.2099,41.9115],[3.2492,41.944],[3.2492,41.9444],[3.2384,42.0833],[3.224,42.1111],[3.1736,42.1354],[3.1521,42.163],[3.1658,42.2526],[3.2101,42.2397],[3.263,42.2399],[3.287,42.2629],[3.2993,42.2869],[3.3068,42.2895],[3.3067,42.2899],[3.3068,42.2899],[3.3044,42.297],[3.3177,42.323],[3.2933,42.3303],[3.2888,42.3437],[3.2384,42.368],[3.2253,42.4006],[3.2132,42.4305],[3.2108,42.4358],[3.1988,42.4617],[3.1911,42.471],[3.0908,42.5919],[3.087,42.6117],[3.0604,42.7524],[3.0502,42.806],[3.0535,42.8228],[3.0602,42.858],[3.0669,42.8931],[3.0789,42.9558],[3.1628,43.0811],[3.1703,43.0896],[3.1721,43.09],[3.1851,43.0929],[3.2652,43.1108],[3.3053,43.1198],[3.3453,43.1287],[3.4254,43.1466],[3.8117,43.233],[3.9569,43.2654],[4.0052,43.2762],[4.102,43.2978],[4.1503,43.3086],[4.1987,43.3194],[4.1987,43.4626],[4.2059,43.4599],[4.2313,43.4715],[4.2476,43.501],[4.3371,43.5321],[4.4004,43.5622],[4.413,43.5819],[4.4483,43.5873],[4.4599,43.6178],[4.4296,43.6248],[4.4516,43.6666],[4.4995,43.7063],[4.5415,43.7129],[4.6049,43.696],[4.6169,43.741],[4.6464,43.7949],[4.6409,43.8706],[4.7267,43.9172],[4.7728,43.9328],[4.8064,43.9529],[4.822,43.9758],[4.8209,44.0004],[4.8475,44.0022],[4.8444,44.0221],[4.7779,44.0843],[4.7295,44.0859],[4.719,44.1247],[4.7213,44.1902],[4.6881,44.2194],[4.6856,44.2403],[4.6578,44.2817],[4.5852,44.3007],[4.5506,44.3271],[4.5208,44.3368],[4.4656,44.336],[4.4451,44.3011],[4.4074,44.2927],[4.3967,44.3283],[4.3731,44.3397],[4.3338,44.3307],[4.2511,44.2818],[4.229,44.2853],[4.1408,44.3216],[4.1306,44.3317],[4.0443,44.3311],[4.0361,44.3756],[4.0497,44.4035],[4.0218,44.4395],[3.994,44.4579],[3.9592,44.4138],[3.8948,44.3902],[3.9265,44.3507],[3.9366,44.3067],[3.9624,44.2621],[3.9576,44.2248],[3.9204,44.1664],[3.8758,44.1314],[3.791,44.136],[3.6904,44.1802],[3.6427,44.1769],[3.6366,44.1273],[3.6163,44.1168],[3.5179,44.1134],[3.4803,44.1218],[3.3767,44.1683],[3.3266,44.1332],[3.3159,44.0987],[3.2868,44.0863],[3.3065,44.0691],[3.3322,44.0719],[3.3595,44.0551],[3.3945,44.0503],[3.4469,44.0144],[3.4424,44.0002],[3.3569,43.9386],[3.342,43.9039],[3.3218,43.8911],[3.2744,43.8876],[3.2375,43.8641],[3.2323,43.8391],[3.1894,43.8131],[3.0881,43.8228],[3.0529,43.8101],[3.0612,43.7661],[3.0562,43.7156],[3.025,43.6904],[2.9902,43.7007],[2.9345,43.6937],[2.8856,43.6529],[2.7756,43.6179],[2.6743,43.6399],[2.6414,43.6331],[2.622,43.5978],[2.6212,43.5652],[2.6605,43.5215],[2.6503,43.4991],[2.6567,43.4608],[2.6059,43.4306],[2.5675,43.4228],[2.4617,43.43],[2.3672,43.4248],[2.2615,43.4423],[2.2291,43.4271],[2.232,43.4026],[2.2172,43.3842],[2.1672,43.401],[2.0902,43.3922],[2.0634,43.3986],[2.0317,43.4226],[1.9506,43.4142],[1.8938,43.3936],[1.8498,43.4234],[1.8047,43.3734],[1.8112,43.3439],[1.7949,43.3335],[1.7423,43.3278],[1.7254,43.3162],[1.7026,43.2667],[1.6965,43.2439],[1.7191,43.1834],[1.7749,43.1522],[1.8407,43.137],[1.8806,43.1203],[1.9249,43.1167],[1.9454,43.1038],[1.9603,43.0691],[1.9436,43.0513],[1.9774,43.0151],[1.9895,42.9605],[1.9479,42.9478],[1.9416,42.9351],[1.969,42.9196],[1.9852,42.8791],[1.9772,42.8637],[1.8869,42.8443],[1.8655,42.8159],[1.9139,42.7834],[1.9127,42.7566],[1.9561,42.7346],[1.9919,42.7314],[2.0556,42.7443],[2.0862,42.7381],[2.1166,42.7071],[2.1577,42.6914],[2.1661,42.6638],[2.154,42.6564],[2.0983,42.6639],[2.0056,42.6561],[1.9628,42.6218],[1.9588,42.5944],[1.9383,42.5718],[1.8728,42.579],[1.7611,42.5676],[1.7527,42.5767],[1.7294,42.582],[1.7133,42.5895],[1.722,42.6099],[1.6083,42.6181],[1.5973,42.6219],[1.5431,42.6494],[1.5278,42.6485],[1.4984,42.6402],[1.4668,42.6415],[1.4514,42.6021],[1.4293,42.5954],[1.398,42.6436],[1.3611,42.6867],[1.3191,42.7134],[1.1959,42.7136],[1.1625,42.7057],[1.1343,42.716],[1.1067,42.7596],[1.0682,42.7761],[0.9829,42.7804],[0.9587,42.7937],[0.9211,42.7844],[0.8561,42.8128],[0.8129,42.8316],[0.7763,42.8325],[0.7243,42.8453],[0.6563,42.8384],[0.6537,42.8027],[0.6335,42.7448],[0.6665,42.7148],[0.6634,42.6962],[0.6436,42.6845],[0.6082,42.688],[0.4835,42.6853],[0.4669,42.6904],[0.3893,42.6851],[0.3542,42.7175],[0.336,42.7127],[0.2902,42.6703],[0.2754,42.6687],[0.2384,42.7104],[0.1692,42.7265],[0.1342,42.7152],[0.0728,42.7085],[-0.0043,42.6875],[-0.0389,42.6851],[-0.119,42.7169],[-0.1636,42.778],[-0.1614,42.7953],[-0.2084,42.7839],[-0.2351,42.7862],[-0.247,42.8048],[-0.3051,42.8308],[-0.3228,42.8425],[-0.4239,42.7907],[-0.4545,42.7889],[-0.5084,42.8075],[-0.5339,42.808],[-0.5356,42.7842],[-0.5787,42.7773],[-0.5829,42.7958],[-0.6095,42.8114],[-0.6483,42.8498],[-0.7004,42.8764],[-0.7301,42.8775],[-0.7459,42.8939],[-0.745,42.9187],[-0.7597,42.9465],[-0.7864,42.9533],[-0.8635,42.9431],[-0.9432,42.9479],[-0.9815,42.957],[-1.0285,42.9867],[-1.0797,42.9934],[-1.1124,43.0083],[-1.1499,43.0057],[-1.2169,43.0393],[-1.2749,43.0468],[-1.3106,43.0695],[-1.3086,43.1136],[-1.3483,43.0931],[-1.3576,43.0468],[-1.3831,43.0292],[-1.435,43.0357],[-1.4753,43.0601],[-1.4878,43.0818],[-1.4258,43.1353],[-1.3997,43.2067],[-1.4035,43.2433],[-1.4322,43.265],[-1.4664,43.2608],[-1.5081,43.2768],[-1.559,43.2841],[-1.5876,43.2516],[-1.639,43.2557],[-1.645,43.2924],[-1.6739,43.3042],[-1.7497,43.2948],[-1.7913,43.2774],[-1.8211,43.2386],[-1.8893,43.2116],[-1.9085,43.2183],[-1.9187,43.1922],[-1.9125,43.1351],[-1.9267,43.1144],[-2.0146,43.067],[-2.0406,43.0276],[-2.0427,42.9945],[-2.0947,42.9755],[-2.1329,42.9469],[-2.2141,42.9496],[-2.253,42.9001],[-2.2423,42.8392],[-2.2744,42.791],[-2.2849,42.7447],[-2.3207,42.721],[-2.312,42.6829],[-2.2927,42.6631],[-2.3284,42.643],[-2.3659,42.6379],[-2.4087,42.6602],[-2.4927,42.6093],[-2.4814,42.5859],[-2.4501,42.576],[-2.4213,42.5988],[-2.4059,42.5961],[-2.394,42.565],[-2.4061,42.4971],[-2.462,42.5073],[-2.5015,42.5377],[-2.5288,42.5172],[-2.5835,42.4967],[-2.5851,42.512],[-2.6179,42.5077],[-2.6847,42.5378],[-2.6856,42.5818],[-2.6994,42.5977],[-2.7474,42.6187],[-2.7697,42.6088],[-2.78,42.5856],[-2.8268,42.5902],[-2.8373,42.6441],[-2.9067,42.6263],[-3.0142,42.6409],[-3.0569,42.6373],[-3.0758,42.6257],[-3.0605,42.5994],[-3.1139,42.5484],[-3.1107,42.5368],[-3.07,42.5291],[-3.0832,42.4915],[-3.0492,42.4523],[-3.0582,42.4259],[-3.056,42.3803],[-3.0784,42.3555],[-3.1079,42.349],[-3.0879,42.27],[-3.1022,42.2178],[-3.1204,42.1963],[-3.0778,42.1377],[-3.0552,42.1253],[-3.0263,42.088],[-3.0108,42.0821],[-2.9342,42.0827],[-2.9102,42.0234],[-2.9323,42.0181],[-2.9643,41.9625],[-2.9738,41.9308],[-3.0026,41.9217],[-3.0168,41.8868],[-3.0754,41.8832],[-3.1714,41.7929],[-3.1948,41.8269],[-3.2287,41.8404],[-3.253,41.8637],[-3.2864,41.8552],[-3.2779,41.7714],[-3.321,41.7454],[-3.3543,41.7373],[-3.3585,41.6934],[-3.3935,41.6907],[-3.4597,41.5894],[-3.5277,41.6075],[-3.5417,41.5778],[-3.5729,41.5654],[-3.6233,41.5736],[-3.6728,41.5592],[-3.7296,41.505],[-3.7291,41.4577],[-3.7699,41.4601],[-3.786,41.5021],[-3.8358,41.4999],[-3.889,41.5471],[-3.9806,41.5832],[-3.9915,41.5402],[-4.0149,41.5139],[-4.1338,41.48],[-4.1663,41.4775],[-4.2524,41.452],[-4.3242,41.451],[-4.365,41.4388],[-4.4075,41.4419],[-4.4865,41.4089],[-4.5149,41.4096],[-4.4961,41.364],[-4.4956,41.3411],[-4.4714,41.2916],[-4.5342,41.3194],[-4.5575,41.3025],[-4.597,41.3207],[-4.607,41.298],[-4.5791,41.2788],[-4.6508,41.2216],[-4.6505,41.1999],[-4.7015,41.155],[-4.7941,41.136],[-4.8367,41.104],[-4.8853,41.106],[-4.9747,41.1553],[-5.0187,41.1584],[-5.0599,41.1385],[-5.0937,41.1439],[-5.1251,41.132],[-5.1515,41.0833],[-5.1472,41.0502],[-5.1111,41.0349],[-5.0958,41.0017],[-5.104,40.9738],[-5.1275,40.9542],[-5.1114,40.9148],[-5.1625,40.8681],[-5.1615,40.8185],[-5.1796,40.7929],[-5.2175,40.7724],[-5.2439,40.74],[-5.363,40.6744],[-5.3855,40.6197],[-5.4474,40.5865],[-5.5173,40.5829],[-5.5118,40.5483],[-5.4365,40.5478],[-5.4596,40.4797],[-5.4784,40.4601],[-5.5154,40.4557],[-5.5091,40.4286],[-5.5346,40.4184],[-5.5733,40.4481],[-5.5752,40.4668],[-5.617,40.4677],[-5.6877,40.4246],[-5.6927,40.4046],[-5.6747,40.3714],[-5.6804,40.3474],[-5.7277,40.294],[-5.7624,40.2844],[-5.7918,40.296],[-5.7816,40.3234],[-5.8133,40.3408],[-5.8818,40.3175],[-5.9037,40.2843],[-5.9255,40.2815],[-5.9876,40.3032],[-6.023,40.3278],[-6.0963,40.3576],[-6.0691,40.3963],[-6.2067,40.4776],[-6.2462,40.4753],[-6.2802,40.456],[-6.3231,40.4463],[-6.3627,40.4104],[-6.4213,40.3934],[-6.4423,40.3759],[-6.5155,40.3524],[-6.558,40.3216],[-6.5561,40.2871],[-6.5851,40.272],[-6.655,40.262],[-6.6886,40.2497],[-6.7176,40.2589],[-6.7588,40.2448],[-6.8147,40.2444],[-6.8745,40.2792],[-6.8639,40.301],[-6.812,40.3323],[-6.7944,40.3564],[-6.8281,40.3806],[-6.8513,40.4095],[-6.8571,40.4421],[-6.8153,40.5025],[-6.8181,40.5319],[-6.8484,40.5648],[-6.8445,40.5978],[-6.8143,40.6472],[-6.8162,40.6772],[-6.837,40.7433],[-6.8367,40.8402],[-6.8203,40.8442],[-6.8212,40.8701],[-6.847,40.8789],[-6.8852,40.9489],[-6.9306,40.9921],[-6.9425,41.016],[-6.9274,41.0481],[-6.9871,41.0527],[-7.0753,41.0867],[-7.099,41.124],[-7.0927,41.1491],[-7.1263,41.1643],[-7.1126,41.1922],[-7.1701,41.1576],[-7.2225,41.1643],[-7.3007,41.1593],[-7.3597,41.1661],[-7.4022,41.2075],[-7.4323,41.216],[-7.5502,41.1828],[-7.5968,41.1778],[-7.6586,41.1801],[-7.7021,41.1594],[-7.7379,41.1526],[-7.774,41.1571],[-7.8097,41.1819],[-7.8433,41.1844],[-7.896,41.1591],[-7.9402,41.138],[-8.0621,41.1059],[-8.1902,41.1091],[-8.2902,41.0834],[-8.2978,41.0696],[-8.3462,41.044],[-8.3923,41.0397],[-8.3863,41.0162],[-8.4157,41.0226],[-8.4481,41.0555],[-8.4768,41.0212],[-8.4946,41.0166],[-8.5261,41.0322],[-8.5855,41.0151],[-8.6019,41.0231],[-8.6552,41.0167],[-8.6569,41.0283],[-8.7818,41.0283],[-8.7761,40.9176],[-8.7681,40.7609],[-8.8162,40.6225],[-8.8419,40.5487],[-8.8675,40.4749],[-8.9188,40.3273],[-8.9701,40.1798],[-8.9769,40.1601],[-8.9865,40.106],[-8.9997,40.0322],[-9.0489,39.7556],[-9.0693,39.737],[-9.3934,39.4419],[-9.4485,39.3917],[-9.4603,39.2943],[-9.4693,39.2205],[-9.4782,39.1467],[-9.514,38.8516],[-9.5277,38.7384],[-9.5277,38.738]]]}},
{"type":"Feature","properties":{"entityId":"umayyad-caliphate","from":752,"to":756,"certainty":"estimated","source":"유럽 쪽은 Natural Earth 1:10m admin-1(v5.1.2) 현대 행정구역 조각을 그 시기 국경에 맞춰 묶고, 조각이 역사 경계와 다른 곳은 선을 그어 나눈 근사. 유럽 밖(시베리아·중앙아시아·극동)은 대략적인 추정. 운영자 검수 필요"},"geometry":{"type":"Polygon","coordinates":[[[-9.5277,38.738],[-9.5061,38.704],[-9.4247,38.5761],[-9.4122,38.5564],[-9.3953,38.5298],[-9.3443,38.4497],[-9.2865,38.3588],[-9.2108,38.343],[-9.0095,38.301],[-8.8401,38.2657],[-8.8203,38.1359],[-8.8771,37.9661],[-8.8948,37.9525],[-8.8668,37.9387],[-8.8221,37.8713],[-8.8214,37.868],[-8.8141,37.8326],[-8.8067,37.7972],[-8.817,37.7403],[-8.8087,37.7229],[-8.7946,37.7258],[-8.8002,37.6944],[-8.8265,37.6006],[-8.8184,37.5873],[-8.8157,37.4671],[-8.815,37.4371],[-8.8149,37.4308],[-8.825,37.407],[-8.8503,37.347],[-8.8828,37.3099],[-8.8739,37.2912],[-8.9075,37.2117],[-8.9227,37.1997],[-8.9185,37.1859],[-8.9265,37.1669],[-8.9752,37.0765],[-8.9856,37.0634],[-8.9896,37.0499],[-8.9985,37.0333],[-8.9983,37.0332],[-8.9985,37.0329],[-8.9949,37.0319],[-8.9979,37.0215],[-8.9829,37.0266],[-8.946,37.0079],[-8.8789,37.0472],[-8.8643,37.0424],[-8.8977,36.8698],[-8.8976,36.8698],[-8.8977,36.8694],[-8.8973,36.8695],[-8.8973,36.8694],[-8.3827,36.9794],[-7.8573,36.8389],[-7.8572,36.839],[-7.8569,36.8389],[-7.5462,37.0385],[-7.4617,37.0928],[-7.4538,37.0978],[-7.3772,37.0851],[-7.3349,37.078],[-7.2927,37.0709],[-7.2083,37.0569],[-6.8705,37.0004],[-6.5326,36.944],[-6.5217,36.9422],[-6.4844,36.8668],[-6.4567,36.8108],[-6.4429,36.7828],[-6.4291,36.7549],[-6.4333,36.7512],[-6.4315,36.7146],[-6.407,36.6767],[-6.3947,36.6369],[-6.3631,36.6213],[-6.2373,36.3667],[-5.8665,36.0299],[-5.5206,35.9713],[-5.4718,35.963],[-5.4718,35.9832],[-5.423,35.9832],[-5.423,36.0078],[-5.3255,36.0078],[-5.3255,35.9973],[-5.2767,36.0456],[-5.228,36.0938],[-5.2279,36.0939],[-5.1791,36.1421],[-5.1304,36.1903],[-5.1286,36.1921],[-5.0997,36.2207],[-5.0993,36.221],[-4.9948,36.3244],[-4.678,36.5033],[-4.6592,36.5076],[-4.615,36.5306],[-4.6069,36.5434],[-4.5448,36.5785],[-4.5248,36.5807],[-4.5165,36.5945],[-4.3684,36.6781],[-4.0717,36.6723],[-3.8493,36.668],[-3.8215,36.6674],[-3.7937,36.6669],[-3.7659,36.6663],[-3.7381,36.6658],[-3.6269,36.6636],[-3.4148,36.6595],[-3.4144,36.6595],[-3.1821,36.662],[-3.0709,36.6632],[-2.9597,36.6643],[-2.7373,36.6667],[-2.1472,36.673],[-1.8477,36.9983],[-1.6098,37.2566],[-1.5817,37.2871],[-1.5293,37.3441],[-1.4768,37.4011],[-1.438,37.4432],[-1.4029,37.4525],[-0.9582,37.5699],[-0.9252,37.5559],[-0.8757,37.5757],[-0.8661,37.5764],[-0.8364,37.5764],[-0.8272,37.5793],[-0.8224,37.5797],[-0.772,37.5953],[-0.7673,37.5985],[-0.764,37.5996],[-0.7279,37.6034],[-0.7053,37.6195],[-0.7072,37.6362],[-0.682,37.6429],[-0.6471,37.7478],[-0.6286,37.8036],[-0.61,37.8594],[-0.5359,38.0825],[-0.466,38.2928],[-0.1606,38.5289],[-0.1317,38.5353],[-0.0902,38.5353],[-0.06,38.5527],[-0.0563,38.5828],[-0.052,38.5848],[0.0237,38.6297],[0.0604,38.6348],[0.083,38.661],[0.1257,38.6855],[0.145,38.6863],[0.1626,38.7135],[0.1921,38.7304],[0.2277,38.7346],[0.2179,38.7681],[0.1786,38.7915],[0.1744,38.7979],[0.1853,38.8035],[0.154,38.831],[0.111,38.8499],[0.06,38.8583],[0.023,38.871],[0.0188,38.8725],[0.0052,38.8925],[-0.014,38.9208],[-0.0298,38.944],[-0.088,39.0296],[-0.1695,39.1495],[-0.2787,39.3102],[-0.2169,39.4408],[-0.148,39.5865],[-0.1136,39.6593],[-0.0963,39.6957],[-0.0791,39.7321],[0.0587,40.0234],[0.0662,40.0319],[0.117,40.0563],[0.1445,40.0788],[0.1728,40.122],[0.2485,40.1993],[0.2647,40.2098],[0.2988,40.2468],[0.3506,40.2849],[0.4203,40.3883],[0.4461,40.4084],[0.4513,40.4288],[0.4654,40.4469],[0.4977,40.4759],[0.5442,40.5178],[0.5553,40.5277],[0.5913,40.5601],[0.6024,40.5701],[0.6159,40.5535],[0.6771,40.5652],[0.707,40.5834],[0.7564,40.6422],[0.7624,40.6463],[0.8167,40.6683],[0.8483,40.6754],[0.8546,40.6837],[0.8588,40.6854],[0.8912,40.7219],[0.891,40.7221],[0.8912,40.7223],[0.7976,40.8039],[0.7582,40.813],[0.7705,40.8589],[0.7926,40.8762],[0.8156,40.892],[1.0133,41.0477],[1.149,41.0701],[1.1836,41.0626],[1.196,41.0779],[1.5509,41.1364],[1.5953,41.1438],[1.6841,41.1584],[1.7284,41.1657],[1.9058,41.195],[2.0936,41.226],[2.6155,41.5927],[2.6519,41.6053],[2.7785,41.6456],[2.792,41.669],[2.8511,41.6972],[2.933,41.7125],[2.9509,41.7343],[3.0403,41.7869],[3.0691,41.7991],[3.0735,41.8119],[3.1272,41.8469],[3.1502,41.8454],[3.1949,41.8883],[3.2099,41.9115],[3.2492,41.944],[3.2492,41.9444],[3.2384,42.0833],[3.224,42.1111],[3.1736,42.1354],[3.1521,42.163],[3.1658,42.2526],[3.2101,42.2397],[3.263,42.2399],[3.287,42.2629],[3.2993,42.2869],[3.3068,42.2895],[3.3067,42.2899],[3.3068,42.2899],[3.3044,42.297],[3.3177,42.323],[3.2933,42.3303],[3.2888,42.3437],[3.2384,42.368],[3.2253,42.4006],[3.2132,42.4305],[3.2108,42.4358],[3.1988,42.4617],[3.1911,42.471],[3.0908,42.5919],[3.087,42.6117],[3.0604,42.7524],[3.0502,42.806],[3.0535,42.8228],[3.0602,42.858],[3.0669,42.8931],[3.0789,42.9558],[3.1628,43.0811],[3.1703,43.0896],[3.1721,43.09],[3.1851,43.0929],[3.2652,43.1108],[3.3053,43.1198],[3.3053,43.1548],[3.2652,43.1548],[3.2652,43.1971],[3.2252,43.1971],[3.2252,43.2036],[3.2443,43.2194],[3.1895,43.2461],[3.1096,43.2536],[3.0619,43.2764],[3.011,43.2826],[3.0044,43.3197],[2.949,43.3129],[2.9216,43.3227],[2.8811,43.3812],[2.856,43.3841],[2.8395,43.3162],[2.7556,43.258],[2.7111,43.2751],[2.6877,43.3231],[2.6634,43.2984],[2.6381,43.2956],[2.5831,43.3246],[2.5585,43.3472],[2.5552,43.369],[2.593,43.4116],[2.5675,43.4228],[2.4617,43.43],[2.3672,43.4248],[2.2615,43.4423],[2.2291,43.4271],[2.232,43.4026],[2.2172,43.3842],[2.1672,43.401],[2.0902,43.3922],[2.0634,43.3986],[2.0317,43.4226],[1.9506,43.4142],[1.8938,43.3936],[1.8498,43.4234],[1.8047,43.3734],[1.8112,43.3439],[1.7949,43.3335],[1.7423,43.3278],[1.7254,43.3162],[1.7026,43.2667],[1.6965,43.2439],[1.7191,43.1834],[1.7749,43.1522],[1.8407,43.137],[1.8806,43.1203],[1.9249,43.1167],[1.9454,43.1038],[1.9603,43.0691],[1.9436,43.0513],[1.9774,43.0151],[1.9895,42.9605],[1.9479,42.9478],[1.9416,42.9351],[1.969,42.9196],[1.9852,42.8791],[1.9772,42.8637],[1.8869,42.8443],[1.8655,42.8159],[1.9139,42.7834],[1.9127,42.7566],[1.9561,42.7346],[1.9919,42.7314],[2.0556,42.7443],[2.0862,42.7381],[2.1166,42.7071],[2.1577,42.6914],[2.1661,42.6638],[2.154,42.6564],[2.0983,42.6639],[2.0056,42.6561],[1.9628,42.6218],[1.9588,42.5944],[1.9383,42.5718],[1.8728,42.579],[1.7611,42.5676],[1.7527,42.5767],[1.7294,42.582],[1.7133,42.5895],[1.722,42.6099],[1.6083,42.6181],[1.5973,42.6219],[1.5431,42.6494],[1.5278,42.6485],[1.4984,42.6402],[1.4668,42.6415],[1.4514,42.6021],[1.4293,42.5954],[1.398,42.6436],[1.3611,42.6867],[1.3191,42.7134],[1.1959,42.7136],[1.1625,42.7057],[1.1343,42.716],[1.1067,42.7596],[1.0682,42.7761],[0.9829,42.7804],[0.9587,42.7937],[0.9211,42.7844],[0.8561,42.8128],[0.8129,42.8316],[0.7763,42.8325],[0.7243,42.8453],[0.6563,42.8384],[0.6537,42.8027],[0.6335,42.7448],[0.6665,42.7148],[0.6634,42.6962],[0.6436,42.6845],[0.6082,42.688],[0.4835,42.6853],[0.4669,42.6904],[0.3893,42.6851],[0.3542,42.7175],[0.336,42.7127],[0.2902,42.6703],[0.2754,42.6687],[0.2384,42.7104],[0.1692,42.7265],[0.1342,42.7152],[0.0728,42.7085],[-0.0043,42.6875],[-0.0389,42.6851],[-0.119,42.7169],[-0.1636,42.778],[-0.1614,42.7953],[-0.2084,42.7839],[-0.2351,42.7862],[-0.247,42.8048],[-0.3051,42.8308],[-0.3228,42.8425],[-0.4239,42.7907],[-0.4545,42.7889],[-0.5084,42.8075],[-0.5339,42.808],[-0.5356,42.7842],[-0.5787,42.7773],[-0.5829,42.7958],[-0.6095,42.8114],[-0.6483,42.8498],[-0.7004,42.8764],[-0.7301,42.8775],[-0.7459,42.8939],[-0.745,42.9187],[-0.7597,42.9465],[-0.7864,42.9533],[-0.8635,42.9431],[-0.9432,42.9479],[-0.9815,42.957],[-1.0285,42.9867],[-1.0797,42.9934],[-1.1124,43.0083],[-1.1499,43.0057],[-1.2169,43.0393],[-1.2749,43.0468],[-1.3106,43.0695],[-1.3086,43.1136],[-1.3483,43.0931],[-1.3576,43.0468],[-1.3831,43.0292],[-1.435,43.0357],[-1.4753,43.0601],[-1.4878,43.0818],[-1.4258,43.1353],[-1.3997,43.2067],[-1.4035,43.2433],[-1.4322,43.265],[-1.4664,43.2608],[-1.5081,43.2768],[-1.559,43.2841],[-1.5876,43.2516],[-1.639,43.2557],[-1.645,43.2924],[-1.6739,43.3042],[-1.7497,43.2948],[-1.7913,43.2774],[-1.8211,43.2386],[-1.8893,43.2116],[-1.9085,43.2183],[-1.9187,43.1922],[-1.9125,43.1351],[-1.9267,43.1144],[-2.0146,43.067],[-2.0406,43.0276],[-2.0427,42.9945],[-2.0947,42.9755],[-2.1329,42.9469],[-2.2141,42.9496],[-2.253,42.9001],[-2.2423,42.8392],[-2.2744,42.791],[-2.2849,42.7447],[-2.3207,42.721],[-2.312,42.6829],[-2.2927,42.6631],[-2.3284,42.643],[-2.3659,42.6379],[-2.4087,42.6602],[-2.4927,42.6093],[-2.4814,42.5859],[-2.4501,42.576],[-2.4213,42.5988],[-2.4059,42.5961],[-2.394,42.565],[-2.4061,42.4971],[-2.462,42.5073],[-2.5015,42.5377],[-2.5288,42.5172],[-2.5835,42.4967],[-2.5851,42.512],[-2.6179,42.5077],[-2.6847,42.5378],[-2.6856,42.5818],[-2.6994,42.5977],[-2.7474,42.6187],[-2.7697,42.6088],[-2.78,42.5856],[-2.8268,42.5902],[-2.8373,42.6441],[-2.9067,42.6263],[-3.0142,42.6409],[-3.0569,42.6373],[-3.0758,42.6257],[-3.0605,42.5994],[-3.1139,42.5484],[-3.1107,42.5368],[-3.07,42.5291],[-3.0832,42.4915],[-3.0492,42.4523],[-3.0582,42.4259],[-3.056,42.3803],[-3.0784,42.3555],[-3.1079,42.349],[-3.0879,42.27],[-3.1022,42.2178],[-3.1204,42.1963],[-3.0778,42.1377],[-3.0552,42.1253],[-3.0263,42.088],[-3.0108,42.0821],[-2.9342,42.0827],[-2.9102,42.0234],[-2.9323,42.0181],[-2.9643,41.9625],[-2.9738,41.9308],[-3.0026,41.9217],[-3.0168,41.8868],[-3.0754,41.8832],[-3.1714,41.7929],[-3.1948,41.8269],[-3.2287,41.8404],[-3.253,41.8637],[-3.2864,41.8552],[-3.2779,41.7714],[-3.321,41.7454],[-3.3543,41.7373],[-3.3585,41.6934],[-3.3935,41.6907],[-3.4597,41.5894],[-3.5277,41.6075],[-3.5417,41.5778],[-3.5729,41.5654],[-3.6233,41.5736],[-3.6728,41.5592],[-3.7296,41.505],[-3.7291,41.4577],[-3.7699,41.4601],[-3.786,41.5021],[-3.8358,41.4999],[-3.889,41.5471],[-3.9806,41.5832],[-3.9915,41.5402],[-4.0149,41.5139],[-4.1338,41.48],[-4.1663,41.4775],[-4.2524,41.452],[-4.3242,41.451],[-4.365,41.4388],[-4.4075,41.4419],[-4.4865,41.4089],[-4.5149,41.4096],[-4.4961,41.364],[-4.4956,41.3411],[-4.4714,41.2916],[-4.5342,41.3194],[-4.5575,41.3025],[-4.597,41.3207],[-4.607,41.298],[-4.5791,41.2788],[-4.6508,41.2216],[-4.6505,41.1999],[-4.7015,41.155],[-4.7941,41.136],[-4.8367,41.104],[-4.8853,41.106],[-4.9747,41.1553],[-5.0187,41.1584],[-5.0599,41.1385],[-5.0937,41.1439],[-5.1251,41.132],[-5.1515,41.0833],[-5.1472,41.0502],[-5.1111,41.0349],[-5.0958,41.0017],[-5.104,40.9738],[-5.1275,40.9542],[-5.1114,40.9148],[-5.1625,40.8681],[-5.1615,40.8185],[-5.1796,40.7929],[-5.2175,40.7724],[-5.2439,40.74],[-5.363,40.6744],[-5.3855,40.6197],[-5.4474,40.5865],[-5.5173,40.5829],[-5.5118,40.5483],[-5.4365,40.5478],[-5.4596,40.4797],[-5.4784,40.4601],[-5.5154,40.4557],[-5.5091,40.4286],[-5.5346,40.4184],[-5.5733,40.4481],[-5.5752,40.4668],[-5.617,40.4677],[-5.6877,40.4246],[-5.6927,40.4046],[-5.6747,40.3714],[-5.6804,40.3474],[-5.7277,40.294],[-5.7624,40.2844],[-5.7918,40.296],[-5.7816,40.3234],[-5.8133,40.3408],[-5.8818,40.3175],[-5.9037,40.2843],[-5.9255,40.2815],[-5.9876,40.3032],[-6.023,40.3278],[-6.0963,40.3576],[-6.0691,40.3963],[-6.2067,40.4776],[-6.2462,40.4753],[-6.2802,40.456],[-6.3231,40.4463],[-6.3627,40.4104],[-6.4213,40.3934],[-6.4423,40.3759],[-6.5155,40.3524],[-6.558,40.3216],[-6.5561,40.2871],[-6.5851,40.272],[-6.655,40.262],[-6.6886,40.2497],[-6.7176,40.2589],[-6.7588,40.2448],[-6.8147,40.2444],[-6.8745,40.2792],[-6.8639,40.301],[-6.812,40.3323],[-6.7944,40.3564],[-6.8281,40.3806],[-6.8513,40.4095],[-6.8571,40.4421],[-6.8153,40.5025],[-6.8181,40.5319],[-6.8484,40.5648],[-6.8445,40.5978],[-6.8143,40.6472],[-6.8162,40.6772],[-6.837,40.7433],[-6.8367,40.8402],[-6.8203,40.8442],[-6.8212,40.8701],[-6.847,40.8789],[-6.8852,40.9489],[-6.9306,40.9921],[-6.9425,41.016],[-6.9274,41.0481],[-6.9871,41.0527],[-7.0753,41.0867],[-7.099,41.124],[-7.0927,41.1491],[-7.1263,41.1643],[-7.1126,41.1922],[-7.1701,41.1576],[-7.2225,41.1643],[-7.3007,41.1593],[-7.3597,41.1661],[-7.4022,41.2075],[-7.4323,41.216],[-7.5502,41.1828],[-7.5968,41.1778],[-7.6586,41.1801],[-7.7021,41.1594],[-7.7379,41.1526],[-7.774,41.1571],[-7.8097,41.1819],[-7.8433,41.1844],[-7.896,41.1591],[-7.9402,41.138],[-8.0621,41.1059],[-8.1902,41.1091],[-8.2902,41.0834],[-8.2978,41.0696],[-8.3462,41.044],[-8.3923,41.0397],[-8.3863,41.0162],[-8.4157,41.0226],[-8.4481,41.0555],[-8.4768,41.0212],[-8.4946,41.0166],[-8.5261,41.0322],[-8.5855,41.0151],[-8.6019,41.0231],[-8.6552,41.0167],[-8.6569,41.0283],[-8.7818,41.0283],[-8.7761,40.9176],[-8.7681,40.7609],[-8.8162,40.6225],[-8.8419,40.5487],[-8.8675,40.4749],[-8.9188,40.3273],[-8.9701,40.1798],[-8.9769,40.1601],[-8.9865,40.106],[-8.9997,40.0322],[-9.0489,39.7556],[-9.0693,39.737],[-9.3934,39.4419],[-9.4485,39.3917],[-9.4603,39.2943],[-9.4693,39.2205],[-9.4782,39.1467],[-9.514,38.8516],[-9.5277,38.7384],[-9.5277,38.738]]]}}
]}
