{
 "type": "FeatureCollection",
 "features": [
  {
   "type": "Feature",
   "properties": {
    "entityId": "usa",
    "from": 1848,
    "to": 1867,
    "certainty": "estimated",
    "source": "중고등학교 한국사 교과서 시대별 지도의 일반적인 경계를 따른 대략적인 추정. 운영자 검수 필요"
   },
   "geometry": {
    "type": "Polygon",
    "coordinates": [
     [
      [
       -126,
       48.6
      ],
      [
       -123.3,
       49
      ],
      [
       -95.2,
       49
      ],
      [
       -89.5,
       48
      ],
      [
       -84.5,
       46.5
      ],
      [
       -82.5,
       45.3
      ],
      [
       -82.4,
       43
      ],
      [
       -79,
       43.4
      ],
      [
       -76.5,
       44.2
      ],
      [
       -74.7,
       45
      ],
      [
       -71.5,
       45
      ],
      [
       -69.2,
       47.4
      ],
      [
       -67.8,
       47.1
      ],
      [
       -66.9,
       44.8
      ],
      [
       -65,
       43
      ],
      [
       -74,
       36
      ],
      [
       -79.5,
       26
      ],
      [
       -80.5,
       24
      ],
      [
       -83.5,
       24
      ],
      [
       -90,
       28
      ],
      [
       -97.2,
       25.9
      ],
      [
       -99.5,
       27.5
      ],
      [
       -101.4,
       29.8
      ],
      [
       -103,
       29
      ],
      [
       -104.5,
       29.6
      ],
      [
       -106.5,
       31.8
      ],
      [
       -108.2,
       31.8
      ],
      [
       -108.2,
       31.3
      ],
      [
       -111,
       31.3
      ],
      [
       -114.8,
       32.5
      ],
      [
       -117.1,
       32.5
      ],
      [
       -121,
       32
      ],
      [
       -126,
       40
      ],
      [
       -126,
       48.6
      ]
     ]
    ]
   }
  },
  {
   "type": "Feature",
   "properties": {
    "entityId": "usa",
    "from": 1867,
    "to": 1877,
    "certainty": "estimated",
    "source": "중고등학교 한국사 교과서 시대별 지도의 일반적인 경계를 따른 대략적인 추정. 운영자 검수 필요"
   },
   "geometry": {
    "type": "MultiPolygon",
    "coordinates": [
     [
      [
       [
        -169.5,
        51.5
       ],
       [
        -150,
        55
       ],
       [
        -130,
        54.7
       ],
       [
        -130,
        56.1
       ],
       [
        -133,
        58.5
       ],
       [
        -137.5,
        59.2
       ],
       [
        -141,
        60.3
       ],
       [
        -141,
        71
       ],
       [
        -169.5,
        71
       ],
       [
        -169.5,
        51.5
       ]
      ]
     ],
     [
      [
       [
        -126,
        40
       ],
       [
        -121,
        32
       ],
       [
        -117.1,
        32.5
       ],
       [
        -114.8,
        32.5
       ],
       [
        -111,
        31.3
       ],
       [
        -108.2,
        31.3
       ],
       [
        -108.2,
        31.8
       ],
       [
        -106.5,
        31.8
       ],
       [
        -104.5,
        29.6
       ],
       [
        -103,
        29
       ],
       [
        -101.4,
        29.8
       ],
       [
        -99.5,
        27.5
       ],
       [
        -97.2,
        25.9
       ],
       [
        -90,
        28
       ],
       [
        -83.5,
        24
       ],
       [
        -80.5,
        24
       ],
       [
        -79.5,
        26
       ],
       [
        -74,
        36
       ],
       [
        -65,
        43
       ],
       [
        -66.9,
        44.8
       ],
       [
        -67.8,
        47.1
       ],
       [
        -69.2,
        47.4
       ],
       [
        -71.5,
        45
       ],
       [
        -74.7,
        45
       ],
       [
        -76.5,
        44.2
       ],
       [
        -79,
        43.4
       ],
       [
        -82.4,
        43
       ],
       [
        -82.5,
        45.3
       ],
       [
        -84.5,
        46.5
       ],
       [
        -89.5,
        48
       ],
       [
        -95.2,
        49
       ],
       [
        -123.3,
        49
       ],
       [
        -126,
        48.6
       ],
       [
        -126,
        40
       ]
      ]
     ]
    ]
   }
  }
 ]
}
