{"type":"FeatureCollection","features":[
{"type":"Feature","properties":{"entityId":"usamgik","from":1946,"to":1948,"certainty":"estimated","source":"중고등학교 한국사 교과서 시대별 지도의 일반적인 경계를 따른 대략적인 추정. 운영자 검수 필요"},"geometry":{"type":"MultiPolygon","coordinates":[[[[124.35,38],[124.4,37.6],[125.3,37.4],[125.95,36.7],[125.8,36.5],[125.5,35],[125.8,34.2],[126.8,34],[127.8,34.4],[128.1,34.4],[128.5,34.5],[129.4,35],[129.8,35.8],[131,36.4],[131,37.6909],[130,37.6],[129.7,37],[129.2,38],[124.35,38]]],[[[125.9,32.9],[127.2,32.9],[127.2,33.7],[125.9,33.7],[125.9,32.9]]]]}}
]}
