{"type":"FeatureCollection","features":[
{"type":"Feature","properties":{"entityId":"venice","from":1789,"to":1797,"certainty":"estimated","source":"유럽 쪽은 Natural Earth 1:10m admin-1(v5.1.2) 현대 행정구역 조각을 그 시기 국경에 맞춰 묶고, 조각이 역사 경계와 다른 곳은 선을 그어 나눈 근사. 유럽 밖(시베리아·중앙아시아·극동)은 대략적인 추정. 운영자 검수 필요"},"geometry":{"type":"MultiPolygon","coordinates":[[[[9.4478,45.7499],[9.4558,45.6999],[9.4828,45.6718],[9.4964,45.6453],[9.5271,45.6044],[9.5339,45.5588],[9.5103,45.512],[9.5649,45.4582],[9.5886,45.4701],[9.6234,45.4643],[9.6745,45.4368],[9.7141,45.4823],[9.7649,45.4474],[9.7681,45.431],[9.8073,45.425],[9.8188,45.4555],[9.8915,45.4267],[9.8855,45.3705],[9.9015,45.3507],[10.0083,45.2954],[10.0775,45.2783],[10.1102,45.2594],[10.2214,45.2319],[10.2532,45.2552],[10.3091,45.218],[10.3178,45.2047],[10.3614,45.2154],[10.3583,45.2389],[10.3969,45.2539],[10.4022,45.2784],[10.4352,45.3159],[10.4632,45.3286],[10.4682,45.3561],[10.4548,45.3891],[10.4807,45.4113],[10.5059,45.409],[10.5625,45.3822],[10.6161,45.382],[10.6618,45.419],[10.7024,45.4228],[10.7052,45.3738],[10.7179,45.3674],[10.6975,45.3203],[10.7402,45.316],[10.7611,45.2937],[10.7868,45.309],[10.8357,45.2809],[10.8486,45.2631],[10.9459,45.2097],[11.0038,45.1837],[11.0128,45.152],[11.054,45.1472],[11.0483,45.1226],[11.0908,45.0993],[11.1549,45.1193],[11.2103,45.1043],[11.1929,45.0939],[11.1957,45.0634],[11.2728,45.0596],[11.2727,45.0338],[11.3051,45.013],[11.3889,44.9736],[11.419,44.9669],[11.4215,44.9499],[11.4319,44.9377],[11.4885,44.9435],[11.5534,44.9292],[11.6063,44.8988],[11.6403,44.8983],[11.6775,44.9224],[11.7357,44.9385],[11.7564,44.9612],[11.7973,44.9776],[11.8696,44.9854],[11.9305,44.9785],[11.9907,44.9839],[12.0872,44.9705],[12.1157,44.959],[12.1351,44.9368],[12.1699,44.9372],[12.2233,44.9261],[12.272,44.9364],[12.2948,44.9274],[12.2845,44.9087],[12.2904,44.8716],[12.3435,44.8401],[12.3452,44.8238],[12.3934,44.7935],[12.4238,44.8203],[12.4392,44.8294],[12.4446,44.8205],[12.4741,44.8458],[12.4929,44.8782],[12.4952,44.8946],[12.4977,44.8987],[12.5061,44.9219],[12.5127,44.9223],[12.5339,44.97],[12.5168,44.9876],[12.4861,44.9912],[12.4861,44.9887],[12.4203,45.0249],[12.4103,45.0322],[12.4134,45.0429],[12.3805,45.0596],[12.3601,45.0915],[12.3536,45.1516],[12.3497,45.1868],[12.3459,45.2219],[12.3382,45.2922],[12.3308,45.3607],[12.3541,45.3925],[12.4126,45.418],[12.4309,45.4157],[12.419,45.4208],[12.5473,45.4768],[12.5936,45.4915],[12.6117,45.4962],[12.66,45.5126],[12.7605,45.5445],[12.7784,45.5527],[12.7808,45.5535],[12.8839,45.601],[12.9045,45.6104],[13.0276,45.6359],[13.0606,45.6367],[13.0956,45.6523],[13.103,45.669],[13.1497,45.7038],[13.1188,45.696],[13.1205,45.6972],[13.1488,45.7354],[13.2505,45.7168],[13.2958,45.7085],[13.341,45.7003],[13.341,45.717],[13.3862,45.717],[13.3862,45.7324],[13.4226,45.7241],[13.4324,45.7534],[13.4324,45.7788],[13.4036,45.8894],[13.4079,45.9175],[13.4375,45.9665],[13.4649,45.9899],[13.4618,46.0064],[13.4823,46.0184],[13.4928,46.0325],[13.4903,46.0389],[13.4823,46.0448],[13.5051,46.066],[13.5226,46.0753],[13.6164,46.125],[13.645,46.1617],[13.6411,46.1714],[13.6274,46.1817],[13.5845,46.1813],[13.559,46.1841],[13.529,46.2048],[13.5102,46.214],[13.4823,46.2179],[13.4683,46.2234],[13.4228,46.2286],[13.4374,46.2109],[13.4101,46.208],[13.3981,46.2305],[13.3847,46.2433],[13.3786,46.2684],[13.3653,46.2903],[13.3956,46.3067],[13.4232,46.3448],[13.4341,46.3539],[13.4597,46.359],[13.4837,46.3712],[13.53,46.3883],[13.5757,46.4267],[13.6002,46.4426],[13.6588,46.4451],[13.6775,46.4521],[13.6859,46.464],[13.6899,46.4933],[13.701,46.5197],[13.6703,46.5187],[13.5492,46.5458],[13.5068,46.5469],[13.478,46.5636],[13.417,46.5605],[13.3733,46.5658],[13.2714,46.5508],[13.2311,46.5522],[13.1465,46.585],[13.0645,46.598],[12.8304,46.6096],[12.7485,46.641],[12.6974,46.6405],[12.6714,46.6525],[12.6202,46.6565],[12.562,46.6512],[12.4999,46.6721],[12.4696,46.6758],[12.3992,46.6397],[12.3825,46.6181],[12.3407,46.6282],[12.3024,46.6146],[12.2531,46.6109],[12.214,46.5961],[12.1779,46.6348],[12.1386,46.6443],[12.0991,46.6678],[12.0803,46.6499],[12.0712,46.6131],[12.022,46.5394],[11.8519,46.5142],[11.8322,46.504],[11.8342,46.4838],[11.8808,46.4714],[11.8957,46.4548],[11.8667,46.4324],[11.8504,46.3845],[11.8029,46.3662],[11.8039,46.3453],[11.8499,46.3045],[11.8535,46.2737],[11.8876,46.2727],[11.9274,46.2506],[11.9204,46.2228],[11.9694,46.1963],[11.8965,46.1327],[11.7998,46.1057],[11.7121,46.1011],[11.699,46.0871],[11.7047,46.0534],[11.6845,46.0303],[11.6848,45.9843],[11.6538,45.9754],[11.5993,45.9794],[11.5788,46.0062],[11.541,46.016],[11.4861,46.0099],[11.4406,45.9876],[11.3926,45.9811],[11.383,45.9448],[11.359,45.9229],[11.3147,45.9394],[11.2787,45.919],[11.2581,45.8839],[11.2005,45.8109],[11.1825,45.7784],[11.1849,45.7547],[11.1307,45.6996],[11.0636,45.7126],[11.0067,45.7129],[10.9791,45.6918],[10.9318,45.6819],[10.9027,45.7083],[10.8703,45.7221],[10.8787,45.7614],[10.9002,45.7841],[10.8846,45.8169],[10.8449,45.8341],[10.8124,45.845],[10.7674,45.8416],[10.7286,45.8488],[10.6874,45.8453],[10.6653,45.8115],[10.621,45.8088],[10.5792,45.7947],[10.5562,45.8072],[10.559,45.8244],[10.5229,45.8413],[10.5072,45.8775],[10.5195,45.9167],[10.4956,45.9693],[10.4591,45.985],[10.4686,46.0118],[10.4908,46.0269],[10.5152,46.082],[10.5586,46.118],[10.5673,46.1935],[10.5902,46.2334],[10.5777,46.3127],[10.5279,46.3426],[10.5096,46.3365],[10.4712,46.3546],[10.4459,46.3481],[10.367,46.2931],[10.3179,46.2774],[10.291,46.2213],[10.1785,46.173],[10.1538,46.1348],[10.1781,46.0764],[10.1695,46.057],[10.1098,46.0536],[10.0943,46.0652],[10.0969,46.0909],[9.9272,46.0626],[9.8718,46.044],[9.7496,46.0625],[9.6259,46.0515],[9.5792,46.022],[9.5269,46.0114],[9.4915,46.0116],[9.5027,45.9701],[9.5401,45.9456],[9.5163,45.9022],[9.5134,45.8826],[9.4666,45.8494],[9.4808,45.8183],[9.5187,45.784],[9.4562,45.7608],[9.4478,45.7499]]],[[[13.5046,45.4839],[13.5208,45.4573],[13.5134,45.4362],[13.5549,45.3611],[13.5413,45.3461],[13.5618,45.3264],[13.5703,45.3253],[13.5766,45.3069],[13.5755,45.3065],[13.5774,45.3046],[13.5915,45.264],[13.5882,45.2596],[13.5942,45.2208],[13.5823,45.1966],[13.5994,45.1713],[13.6006,45.1373],[13.6197,45.1387],[13.6238,45.1232],[13.6126,45.1179],[13.6369,45.0936],[13.6232,45.0731],[13.6813,45.0464],[13.7328,44.9949],[13.7493,44.9825],[13.8073,44.9079],[13.8049,44.8854],[13.8237,44.8868],[13.8339,44.8736],[13.8338,44.8734],[13.7993,44.8646],[13.8491,44.8472],[13.8491,44.8266],[13.897,44.8131],[13.9032,44.7724],[13.918,44.7783],[13.8911,44.8314],[13.9013,44.8292],[13.9017,44.8292],[13.9039,44.8294],[13.9363,44.8199],[13.9517,44.8024],[13.9519,44.8026],[13.9521,44.8024],[13.9597,44.813],[13.9639,44.8118],[14,44.8131],[13.9727,44.8266],[13.9727,44.8314],[14.0288,44.9105],[14.0421,44.9265],[14.0828,44.9839],[14.0689,44.9495],[14.1133,44.9775],[14.1399,44.9713],[14.1637,44.9958],[14.1662,45.0189],[14.1551,45.0678],[14.1745,45.0896],[14.1931,45.1056],[14.1916,45.1088],[14.2077,45.1268],[14.2092,45.1264],[14.2347,45.1546],[14.2026,45.1716],[14.1946,45.275],[14.2105,45.3278],[14.1995,45.3756],[14.2036,45.4039],[14.1389,45.4343],[14.1173,45.473],[14.1167,45.473],[14.0929,45.4739],[14.0667,45.4803],[14.014,45.508],[13.9875,45.5119],[13.9838,45.5195],[13.9522,45.546],[13.9104,45.552],[13.8946,45.5598],[13.88,45.5725],[13.8679,45.6022],[13.8478,45.5847],[13.8005,45.5813],[13.7611,45.5962],[13.7118,45.5932],[13.7196,45.5872],[13.6474,45.5418],[13.6109,45.538],[13.5896,45.5358],[13.5686,45.5393],[13.5728,45.53],[13.5786,45.5234],[13.5857,45.5197],[13.5773,45.5171],[13.5479,45.5005],[13.5071,45.5119],[13.5046,45.4839]]],[[[14.8496,44.1756],[14.8701,44.1408],[14.9044,44.1145],[15.0421,43.9914],[15.0428,43.9904],[15.1066,43.9254],[15.1365,43.903],[15.1386,43.9079],[15.1508,43.9108],[15.1844,43.9016],[15.1955,43.8952],[15.1985,43.8977],[15.201,43.897],[15.201,43.8971],[15.2014,43.897],[15.2029,43.9013],[15.2168,43.9128],[15.1764,43.9334],[15.0266,44.0571],[15.0227,44.0722],[14.9906,44.0868],[14.9529,44.1179],[14.9403,44.1252],[14.9391,44.1271],[14.9102,44.1428],[14.8665,44.1682],[14.8667,44.1678],[14.8661,44.1682],[14.8665,44.1676],[14.8661,44.1678],[14.8671,44.1661],[14.8496,44.1756]]],[[[15.0625,44.1619],[15.0655,44.1573],[15.0646,44.1578],[15.0648,44.1575],[15.0642,44.1578],[15.0645,44.1572],[15.0642,44.1574],[15.075,44.1383],[15.0821,44.1314],[15.0871,44.1237],[15.1218,44.0922],[15.1891,44.0478],[15.2061,44.049],[15.2431,44.0297],[15.2544,44.0179],[15.2471,44.0467],[15.2303,44.0621],[15.2302,44.0623],[15.2298,44.0625],[15.2258,44.0662],[15.0625,44.1619]]],[[[15.1104,44.2644],[15.1219,44.2564],[15.1218,44.2564],[15.1573,44.2098],[15.1445,44.1955],[15.2127,44.1483],[15.2129,44.131],[15.2783,44.0856],[15.3195,44.0452],[15.3581,44.0257],[15.4661,43.9217],[15.492,43.9158],[15.4998,43.9092],[15.5387,43.8847],[15.5469,43.8766],[15.5741,43.8595],[15.5853,43.8554],[15.6415,43.8201],[15.6174,43.8255],[15.633,43.8105],[15.6821,43.7972],[15.7063,43.7634],[15.7242,43.7625],[15.9201,43.5905],[15.9595,43.5382],[15.9681,43.5403],[15.981,43.5257],[15.9735,43.5031],[16.0128,43.504],[16.0396,43.4908],[16.0924,43.4823],[16.441,43.3687],[16.4286,43.3436],[16.4214,43.3176],[16.4215,43.3176],[16.4214,43.3172],[16.4898,43.2859],[16.4996,43.2847],[16.5007,43.2842],[16.564,43.2701],[16.6283,43.2637],[16.7547,43.2665],[16.9169,43.2136],[16.929,43.2097],[17.0302,43.1468],[16.9169,43.1565],[16.8869,43.1591],[16.8644,43.1689],[16.8484,43.1624],[16.7113,43.1741],[16.6943,43.1793],[16.6745,43.1969],[16.6595,43.216],[16.6038,43.2235],[16.5955,43.2205],[16.5719,43.2232],[16.5628,43.229],[16.5205,43.229],[16.5207,43.2288],[16.3746,43.2134],[16.375,43.2132],[16.3748,43.2132],[16.3751,43.2131],[16.3746,43.213],[16.3973,43.2021],[16.3804,43.202],[16.3716,43.1955],[16.4452,43.1708],[16.5393,43.148],[16.551,43.1436],[16.6806,43.1228],[16.9169,43.1191],[17.0788,43.1165],[17.1231,43.089],[17.1489,43.0729],[17.1747,43.0569],[17.2262,43.0249],[17.2274,43.0241],[17.2258,43.0242],[17.221,43.0259],[17.2094,43.0259],[17.1587,43.031],[17.15,43.0303],[17.15,43.025],[17.4,43],[17.5,42.96],[17.62,42.97],[17.6523,43.0055],[17.6284,43.0466],[17.598,43.0729],[17.5874,43.0821],[17.4509,43.1482],[17.4268,43.1657],[17.4002,43.216],[17.3287,43.2604],[17.2899,43.3034],[17.2676,43.3533],[17.2864,43.4374],[17.2705,43.4632],[17.2395,43.4784],[17.1428,43.4893],[17.0623,43.5277],[16.8238,43.7073],[16.7126,43.7715],[16.6982,43.7881],[16.6786,43.8407],[16.6374,43.8684],[16.6048,43.9011],[16.5558,43.9375],[16.5274,43.9679],[16.4835,44.0025],[16.4396,44.014],[16.404,44.0588],[16.3672,44.0581],[16.3269,44.0824],[16.2755,44.1574],[16.2158,44.2082],[16.1876,44.2824],[16.2056,44.3505],[16.1713,44.3771],[16.1388,44.3854],[16.1599,44.4007],[16.1529,44.4351],[16.1165,44.5215],[16.0837,44.5349],[16.0473,44.5233],[16.0061,44.541],[16.0447,44.5894],[16.0283,44.6247],[15.969,44.6392],[15.9374,44.689],[15.9131,44.6845],[15.8956,44.7186],[15.8763,44.7248],[15.8564,44.7036],[15.8057,44.6967],[15.7593,44.7342],[15.7173,44.7865],[15.7306,44.817],[15.7687,44.8273],[15.7734,44.845],[15.7343,44.9021],[15.7341,44.9344],[15.7114,44.9297],[15.6561,44.9476],[15.6103,44.9298],[15.5525,44.9491],[15.5345,44.9328],[15.5668,44.8786],[15.5595,44.8591],[15.5272,44.839],[15.5472,44.8205],[15.602,44.7967],[15.5941,44.7836],[15.5331,44.755],[15.4828,44.752],[15.4763,44.7296],[15.5167,44.7047],[15.5357,44.6481],[15.5558,44.6309],[15.5628,44.5817],[15.6231,44.5413],[15.6535,44.495],[15.5911,44.4572],[15.634,44.4217],[15.616,44.3793],[15.5891,44.3566],[15.5537,44.3471],[15.546,44.3305],[15.4941,44.3688],[15.4178,44.3742],[15.3515,44.4118],[15.3281,44.4117],[15.2938,44.3648],[15.308,44.3544],[15.3562,44.3378],[15.3771,44.3186],[15.3307,44.3014],[15.3086,44.3093],[15.2612,44.3326],[15.3027,44.2991],[15.2883,44.2897],[15.2838,44.2897],[15.2448,44.2772],[15.1981,44.3017],[15.2078,44.2728],[15.2073,44.2724],[15.183,44.2724],[15.1653,44.2679],[15.1576,44.2803],[15.1104,44.2644]]],[[[15.2612,44.0111],[15.3027,43.9664],[15.3066,43.9642],[15.309,43.9612],[15.3579,43.9259],[15.3587,43.9194],[15.4071,43.8961],[15.4461,43.8875],[15.4387,43.8988],[15.439,43.8987],[15.4385,43.8992],[15.439,43.8991],[15.4372,43.9011],[15.4188,43.9291],[15.4058,43.9354],[15.3883,43.9545],[15.384,43.9702],[15.3719,43.9724],[15.3706,43.9738],[15.323,43.991],[15.2964,44.0056],[15.2724,44.0093],[15.2698,44.0103],[15.27,44.0101],[15.2694,44.0103],[15.2697,44.0098],[15.2694,44.0099],[15.2695,44.0098],[15.2612,44.0111]]],[[[18.4364,42.5108],[18.4371,42.4934],[18.4443,42.4779],[18.4677,42.4534],[18.4929,42.4424],[18.4964,42.4163],[18.5103,42.4053],[18.5197,42.4332],[18.5476,42.4291],[18.5452,42.4236],[18.553,42.4136],[18.5781,42.4004],[18.5706,42.393],[18.5949,42.3837],[18.6167,42.3681],[18.6384,42.3703],[18.6532,42.3663],[18.6535,42.3674],[18.7141,42.3377],[18.7145,42.3253],[18.7295,42.3116],[18.7625,42.2912],[18.7786,42.2715],[18.7887,42.276],[18.8136,42.2891],[18.8256,42.2832],[18.8314,42.2775],[18.8332,42.2795],[18.8946,42.2495],[18.9001,42.2449],[18.9017,42.2375],[18.9133,42.2222],[18.9465,42.2038],[18.9811,42.1637],[18.9919,42.1637],[18.9816,42.1671],[18.9714,42.1833],[19.0009,42.2085],[18.9959,42.2216],[18.9457,42.2653],[18.9286,42.2892],[18.9225,42.3021],[18.9142,42.3201],[18.8846,42.3395],[18.8529,42.3442],[18.8296,42.3518],[18.7971,42.36],[18.7936,42.3542],[18.7791,42.3793],[18.7619,42.4253],[18.7788,42.38],[18.785,42.38],[18.785,42.45],[18.7705,42.45],[18.7721,42.4767],[18.7605,42.5074],[18.698,42.5405],[18.684,42.5765],[18.6663,42.5936],[18.6483,42.6293],[18.6013,42.6244],[18.5428,42.6264],[18.5384,42.6183],[18.5068,42.5985],[18.4867,42.5898],[18.4959,42.5709],[18.4818,42.5637],[18.459,42.5697],[18.4374,42.5592],[18.442,42.543],[18.4364,42.5108]]],[[[19.6265,39.7482],[19.647,39.7427],[19.647,39.7254],[19.6525,39.7206],[19.6532,39.7147],[19.6571,39.7167],[19.6735,39.7024],[19.6743,39.6935],[19.6897,39.6741],[19.7068,39.6735],[19.7298,39.6535],[19.7485,39.62],[19.7961,39.596],[19.809,39.5848],[19.845,39.526],[19.8477,39.5097],[19.8656,39.4686],[19.8842,39.4622],[19.8846,39.4615],[19.9216,39.4408],[19.9118,39.4303],[19.9465,39.4269],[19.9746,39.4112],[19.9839,39.4086],[19.9993,39.3994],[20.0324,39.395],[20.1057,39.3647],[20.1179,39.371],[20.0921,39.4335],[20.0741,39.449],[20.0307,39.4425],[20.029,39.4428],[19.957,39.4706],[19.9282,39.5053],[19.9245,39.5192],[19.9119,39.5834],[19.9038,39.5978],[19.903,39.6008],[19.903,39.6041],[19.9235,39.6035],[19.9275,39.6253],[19.8765,39.6422],[19.8538,39.6614],[19.8587,39.6662],[19.8508,39.6753],[19.8634,39.6924],[19.9236,39.7374],[19.9338,39.7412],[19.9352,39.7461],[19.9354,39.7462],[19.9353,39.7464],[19.9353,39.7466],[19.9354,39.7466],[19.9354,39.7467],[19.948,39.7904],[19.8928,39.8034],[19.8518,39.8245],[19.8389,39.8192],[19.8382,39.8195],[19.8378,39.8195],[19.7082,39.7987],[19.7047,39.7969],[19.6769,39.7952],[19.6474,39.7677],[19.647,39.7675],[19.647,39.7673],[19.6265,39.7482]]],[[[20.339,38.2002],[20.3454,38.1821],[20.374,38.169],[20.3801,38.1518],[20.4253,38.1753],[20.436,38.2125],[20.4347,38.2201],[20.4536,38.234],[20.4714,38.2185],[20.5001,38.1839],[20.499,38.1777],[20.4688,38.1928],[20.5098,38.1108],[20.5215,38.1065],[20.5218,38.1057],[20.5253,38.1051],[20.565,38.0903],[20.5693,38.0972],[20.603,38.1183],[20.607,38.1188],[20.6882,38.0933],[20.7336,38.0624],[20.7947,38.0661],[20.8078,38.0996],[20.7977,38.1313],[20.7885,38.1414],[20.7886,38.1422],[20.7886,38.1426],[20.761,38.1733],[20.7513,38.1968],[20.7194,38.2196],[20.7044,38.2362],[20.6817,38.2821],[20.6517,38.2599],[20.6266,38.2676],[20.6198,38.3223],[20.6262,38.3284],[20.6258,38.3518],[20.6124,38.382],[20.6122,38.3839],[20.6091,38.3896],[20.5718,38.4739],[20.5629,38.4739],[20.5618,38.4759],[20.5616,38.4756],[20.5614,38.4759],[20.5603,38.4739],[20.5378,38.4739],[20.5378,38.4261],[20.5472,38.3976],[20.547,38.3943],[20.5182,38.3318],[20.4825,38.318],[20.4358,38.3561],[20.4356,38.3559],[20.4354,38.3561],[20.4334,38.3545],[20.4273,38.3633],[20.4067,38.3436],[20.3999,38.3641],[20.3922,38.3013],[20.3778,38.2726],[20.3538,38.2532],[20.3567,38.2305],[20.3526,38.2224],[20.3526,38.2218],[20.339,38.2002]]],[[[20.5449,38.5947],[20.5513,38.5695],[20.5665,38.591],[20.5834,38.6022],[20.6156,38.6057],[20.6478,38.6005],[20.6482,38.6005],[20.6679,38.6048],[20.6817,38.6042],[20.6871,38.609],[20.6878,38.6091],[20.6908,38.6122],[20.7207,38.6384],[20.7225,38.7073],[20.718,38.6999],[20.7184,38.7181],[20.7289,38.7306],[20.7292,38.7716],[20.7293,38.7817],[20.7266,38.7913],[20.7184,38.8207],[20.7351,38.8207],[20.7351,38.8501],[20.709,38.8501],[20.709,38.8795],[20.683,38.8795],[20.683,38.8885],[20.657,38.8885],[20.657,38.9382],[20.5789,38.9382],[20.6049,38.9094],[20.631,38.8805],[20.6686,38.8389],[20.6393,38.8204],[20.6334,38.8179],[20.6296,38.8124],[20.6026,38.7817],[20.5623,38.6912],[20.5449,38.5947]]],[[[20.6145,38.4671],[20.6336,38.4518],[20.6442,38.424],[20.6476,38.4057],[20.6673,38.3715],[20.6935,38.3434],[20.709,38.3192],[20.7094,38.3193],[20.7094,38.3192],[20.715,38.3203],[20.7194,38.3156],[20.7637,38.3231],[20.758,38.3292],[20.7598,38.3296],[20.7596,38.33],[20.7598,38.33],[20.739,38.3651],[20.7376,38.3715],[20.7575,38.3715],[20.7205,38.3897],[20.713,38.3995],[20.7022,38.4255],[20.7022,38.4329],[20.709,38.4466],[20.7022,38.4486],[20.7022,38.4516],[20.6734,38.4759],[20.6699,38.4771],[20.6741,38.485],[20.6545,38.5019],[20.6427,38.4839],[20.6226,38.4811],[20.6227,38.4807],[20.6226,38.4807],[20.6265,38.4705],[20.6145,38.4671]]],[[[20.619,37.854],[20.6195,37.8529],[20.6195,37.8228],[20.6424,37.8111],[20.6524,37.8016],[20.7035,37.745],[20.7044,37.7383],[20.7772,37.6863],[20.8151,37.6515],[20.8469,37.6533],[20.8447,37.6845],[20.9091,37.7311],[20.9228,37.7289],[20.9689,37.7154],[20.9963,37.6993],[20.9935,37.7083],[20.9938,37.7082],[20.9934,37.7086],[20.9934,37.7087],[20.9938,37.7086],[20.9933,37.7091],[20.9868,37.7299],[20.9513,37.7482],[20.8967,37.799],[20.886,37.814],[20.8501,37.8364],[20.8405,37.8395],[20.839,37.8405],[20.8357,37.841],[20.8088,37.8496],[20.7961,37.8471],[20.76,37.8526],[20.7596,37.8528],[20.7291,37.8869],[20.709,37.9252],[20.6919,37.9284],[20.6914,37.929],[20.6912,37.9288],[20.691,37.929],[20.6907,37.9287],[20.6857,37.9296],[20.66,37.9105],[20.6195,37.8644],[20.6195,37.8549],[20.619,37.8544],[20.6191,37.8541],[20.619,37.854]]],[[[20.7624,38.7325],[20.7871,38.7032],[20.8044,38.6827],[20.8384,38.6424],[20.8707,38.6042],[20.8701,38.6035],[20.8706,38.5825],[20.8823,38.5905],[20.9008,38.5685],[20.9031,38.5658],[20.8939,38.5565],[20.9066,38.5617],[20.9478,38.5129],[20.9478,38.5685],[20.9891,38.5685],[20.9891,38.6055],[20.9624,38.6055],[20.9624,38.6424],[20.9691,38.6424],[20.9691,38.6727],[20.9431,38.6729],[20.9431,38.67],[20.8911,38.67],[20.8911,38.6827],[20.8131,38.6827],[20.8131,38.723],[20.7871,38.723],[20.7871,38.7325],[20.7624,38.7325]]]]}}
]}
