{"type":"FeatureCollection","features":[
{"type":"Feature","properties":{"entityId":"vidin-tsardom","from":1356,"to":1365,"certainty":"estimated","source":"유럽 쪽은 Natural Earth 1:10m admin-1(v5.1.2) 현대 행정구역 조각을 그 시기 국경에 맞춰 묶고, 조각이 역사 경계와 다른 곳은 선을 그어 나눈 근사. 유럽 밖(시베리아·중앙아시아·극동)은 대략적인 추정. 운영자 검수 필요"},"geometry":{"type":"Polygon","coordinates":[[[23.3989,43.1629],[23.3627,43.1337],[23.3181,43.1208],[23.2861,43.1292],[23.2203,43.1112],[23.1273,43.1172],[23.1011,43.1318],[23.0289,43.1949],[22.9829,43.1873],[22.9814,43.199],[22.9155,43.2122],[22.8838,43.2306],[22.8332,43.2746],[22.8045,43.329],[22.7243,43.3861],[22.6589,43.4013],[22.6224,43.3678],[22.5776,43.3407],[22.5807,43.3268],[22.5246,43.3354],[22.4899,43.3669],[22.445,43.3447],[22.3373,43.3824],[22.3515,43.4242],[22.3371,43.4434],[22.3035,43.4585],[22.2748,43.4388],[22.212,43.4685],[22.1661,43.4609],[22.0722,43.4928],[22.0565,43.4892],[22.0223,43.5198],[22.0232,43.5354],[21.9773,43.57],[21.9551,43.571],[21.9537,43.5465],[21.9866,43.5256],[21.9127,43.5136],[21.8835,43.5376],[21.8658,43.5691],[21.8118,43.5778],[21.7752,43.5755],[21.7049,43.6418],[21.6882,43.6704],[21.6838,43.7026],[21.699,43.7198],[21.6756,43.7428],[21.7039,43.7563],[21.646,43.8029],[21.6895,43.8477],[21.6698,43.8668],[21.6804,43.8911],[21.724,43.9032],[21.7241,43.9246],[21.7767,43.9743],[21.7724,43.9918],[21.7901,44.0361],[21.8178,44.0656],[21.8546,44.0688],[21.903,44.0946],[21.9409,44.0959],[21.9608,44.1101],[21.9443,44.1411],[21.957,44.1533],[21.9581,44.1952],[21.9461,44.2279],[21.9142,44.2095],[21.8961,44.2228],[21.8944,44.2749],[21.8511,44.3031],[21.8157,44.2981],[21.8134,44.3254],[21.7964,44.3409],[21.7997,44.3638],[21.8269,44.3979],[21.8558,44.3967],[21.8847,44.4258],[21.9125,44.4257],[21.9247,44.4418],[21.9182,44.4673],[21.9348,44.4948],[21.9298,44.5144],[21.9534,44.5226],[21.9702,44.5462],[22.0362,44.5895],[22.0452,44.5692],[22.0763,44.5507],[22.1043,44.5096],[22.1482,44.5009],[22.1851,44.5151],[22.3197,44.6853],[22.3807,44.7005],[22.4261,44.7337],[22.4837,44.724],[22.5533,44.6692],[22.6212,44.6374],[22.7001,44.6306],[22.7652,44.5828],[22.7417,44.5519],[22.7001,44.5418],[22.6212,44.5692],[22.5656,44.5554],[22.5567,44.5215],[22.5355,44.5075],[22.4841,44.4998],[22.477,44.464],[22.501,44.4419],[22.5051,44.4041],[22.5494,44.349],[22.5828,44.3284],[22.6815,44.3053],[22.6895,44.2917],[22.6916,44.2284],[22.9064,44.1229],[23.0083,44.1004],[23.031,44.0931],[23.0401,44.0623],[23.023,44.0316],[22.9881,44.0177],[22.9058,44.004],[22.8859,43.9945],[22.8505,43.897],[22.8634,43.8554],[22.9196,43.8342],[23.0526,43.8428],[23.1318,43.8479],[23.2345,43.8773],[23.3252,43.8866],[23.4847,43.8806],[23.5927,43.8374],[23.6209,43.834],[23.7208,43.8458],[23.7999,43.8185],[24.1496,43.7547],[24.3367,43.7593],[24.329,43.7112],[24.2875,43.6652],[24.2315,43.645],[24.1995,43.6474],[24.1202,43.589],[24.1514,43.5224],[24.1787,43.4914],[24.2249,43.4845],[24.2432,43.4375],[24.2281,43.3431],[24.1807,43.3249],[24.1119,43.3277],[24.0819,43.3081],[24.0524,43.3158],[23.9786,43.2946],[23.9507,43.2452],[23.9594,43.2316],[24.0268,43.2117],[24.0349,43.1733],[24.0163,43.1108],[23.9738,43.1221],[23.9584,43.1145],[23.9775,43.0599],[23.9356,43.0278],[23.9023,43.0428],[23.8035,43.0561],[23.766,43.0679],[23.7167,43.0346],[23.6654,43.0283],[23.6344,43.053],[23.5526,43.0092],[23.4936,43.0706],[23.4352,43.1082],[23.4346,43.1281],[23.4698,43.1369],[23.4314,43.162],[23.3989,43.1629]]]}},
{"type":"Feature","properties":{"entityId":"vidin-tsardom","from":1369,"to":1384,"certainty":"estimated","source":"유럽 쪽은 Natural Earth 1:10m admin-1(v5.1.2) 현대 행정구역 조각을 그 시기 국경에 맞춰 묶고, 조각이 역사 경계와 다른 곳은 선을 그어 나눈 근사. 유럽 밖(시베리아·중앙아시아·극동)은 대략적인 추정. 운영자 검수 필요"},"geometry":{"type":"Polygon","coordinates":[[[23.3989,43.1629],[23.3627,43.1337],[23.3181,43.1208],[23.2861,43.1292],[23.2203,43.1112],[23.1273,43.1172],[23.1011,43.1318],[23.0289,43.1949],[22.9829,43.1873],[22.9814,43.199],[22.9155,43.2122],[22.8838,43.2306],[22.8332,43.2746],[22.8045,43.329],[22.7243,43.3861],[22.6589,43.4013],[22.6224,43.3678],[22.5776,43.3407],[22.5807,43.3268],[22.5246,43.3354],[22.4899,43.3669],[22.445,43.3447],[22.3373,43.3824],[22.3515,43.4242],[22.3371,43.4434],[22.3035,43.4585],[22.2748,43.4388],[22.212,43.4685],[22.1661,43.4609],[22.0722,43.4928],[22.0565,43.4892],[22.0223,43.5198],[22.0232,43.5354],[21.9773,43.57],[21.9551,43.571],[21.9537,43.5465],[21.9866,43.5256],[21.9127,43.5136],[21.8835,43.5376],[21.8658,43.5691],[21.8118,43.5778],[21.7752,43.5755],[21.7049,43.6418],[21.6882,43.6704],[21.6838,43.7026],[21.699,43.7198],[21.6756,43.7428],[21.7039,43.7563],[21.646,43.8029],[21.6895,43.8477],[21.6698,43.8668],[21.6804,43.8911],[21.724,43.9032],[21.7241,43.9246],[21.7767,43.9743],[21.7724,43.9918],[21.7901,44.0361],[21.8178,44.0656],[21.8546,44.0688],[21.903,44.0946],[21.9409,44.0959],[21.9608,44.1101],[21.9443,44.1411],[21.957,44.1533],[21.9581,44.1952],[21.9461,44.2279],[21.9142,44.2095],[21.8961,44.2228],[21.8944,44.2749],[21.8511,44.3031],[21.8157,44.2981],[21.8134,44.3254],[21.7964,44.3409],[21.7997,44.3638],[21.8269,44.3979],[21.8558,44.3967],[21.8847,44.4258],[21.9125,44.4257],[21.9247,44.4418],[21.9182,44.4673],[21.9348,44.4948],[21.9298,44.5144],[21.9534,44.5226],[21.9702,44.5462],[22.0362,44.5895],[22.0452,44.5692],[22.0763,44.5507],[22.1043,44.5096],[22.1482,44.5009],[22.1851,44.5151],[22.3197,44.6853],[22.3807,44.7005],[22.4261,44.7337],[22.4837,44.724],[22.5533,44.6692],[22.6212,44.6374],[22.7001,44.6306],[22.7652,44.5828],[22.7417,44.5519],[22.7001,44.5418],[22.6212,44.5692],[22.5656,44.5554],[22.5567,44.5215],[22.5355,44.5075],[22.4841,44.4998],[22.477,44.464],[22.501,44.4419],[22.5051,44.4041],[22.5494,44.349],[22.5828,44.3284],[22.6815,44.3053],[22.6895,44.2917],[22.6916,44.2284],[22.9064,44.1229],[23.0083,44.1004],[23.031,44.0931],[23.0401,44.0623],[23.023,44.0316],[22.9881,44.0177],[22.9058,44.004],[22.8859,43.9945],[22.8505,43.897],[22.8634,43.8554],[22.9196,43.8342],[23.0526,43.8428],[23.1318,43.8479],[23.2345,43.8773],[23.3252,43.8866],[23.4847,43.8806],[23.5927,43.8374],[23.6209,43.834],[23.7208,43.8458],[23.7999,43.8185],[24.1496,43.7547],[24.3367,43.7593],[24.329,43.7112],[24.2875,43.6652],[24.2315,43.645],[24.1995,43.6474],[24.1202,43.589],[24.1514,43.5224],[24.1787,43.4914],[24.2249,43.4845],[24.2432,43.4375],[24.2281,43.3431],[24.1807,43.3249],[24.1119,43.3277],[24.0819,43.3081],[24.0524,43.3158],[23.9786,43.2946],[23.9507,43.2452],[23.9594,43.2316],[24.0268,43.2117],[24.0349,43.1733],[24.0163,43.1108],[23.9738,43.1221],[23.9584,43.1145],[23.9775,43.0599],[23.9356,43.0278],[23.9023,43.0428],[23.8035,43.0561],[23.766,43.0679],[23.7167,43.0346],[23.6654,43.0283],[23.6344,43.053],[23.5526,43.0092],[23.4936,43.0706],[23.4352,43.1082],[23.4346,43.1281],[23.4698,43.1369],[23.4314,43.162],[23.3989,43.1629]]]}},
{"type":"Feature","properties":{"entityId":"vidin-tsardom","from":1384,"to":1396,"certainty":"estimated","source":"유럽 쪽은 Natural Earth 1:10m admin-1(v5.1.2) 현대 행정구역 조각을 그 시기 국경에 맞춰 묶고, 조각이 역사 경계와 다른 곳은 선을 그어 나눈 근사. 유럽 밖(시베리아·중앙아시아·극동)은 대략적인 추정. 운영자 검수 필요"},"geometry":{"type":"Polygon","coordinates":[[[23.3989,43.1629],[23.3627,43.1337],[23.3181,43.1208],[23.2861,43.1292],[23.2203,43.1112],[23.1273,43.1172],[23.1011,43.1318],[23.0289,43.1949],[22.9829,43.1873],[22.9814,43.199],[22.9155,43.2122],[22.8838,43.2306],[22.8332,43.2746],[22.8045,43.329],[22.7243,43.3861],[22.6589,43.4013],[22.6224,43.3678],[22.5776,43.3407],[22.5807,43.3268],[22.5246,43.3354],[22.4899,43.3669],[22.445,43.3447],[22.3373,43.3824],[22.3515,43.4242],[22.3371,43.4434],[22.3035,43.4585],[22.2748,43.4388],[22.212,43.4685],[22.1661,43.4609],[22.0722,43.4928],[22.0565,43.4892],[22.0223,43.5198],[22.0232,43.5354],[21.9773,43.57],[21.9551,43.571],[21.9537,43.5465],[21.9866,43.5256],[21.9127,43.5136],[21.8835,43.5376],[21.8658,43.5691],[21.8118,43.5778],[21.7752,43.5755],[21.7049,43.6418],[21.6882,43.6704],[21.6838,43.7026],[21.699,43.7198],[21.6756,43.7428],[21.7039,43.7563],[21.646,43.8029],[21.6895,43.8477],[21.6698,43.8668],[21.6804,43.8911],[21.724,43.9032],[21.7241,43.9246],[21.7767,43.9743],[21.7724,43.9918],[21.8996,43.986],[21.9533,43.9478],[21.9979,43.9365],[22.0346,43.9513],[22.0612,43.9015],[22.1217,43.8756],[22.1325,43.8977],[22.1588,43.906],[22.1672,43.942],[22.2132,44.0051],[22.2387,44.0162],[22.24,44.0419],[22.2158,44.0731],[22.2166,44.0961],[22.1914,44.1155],[22.2327,44.1686],[22.2778,44.138],[22.3412,44.1302],[22.3918,44.1408],[22.4323,44.1154],[22.4692,44.1085],[22.4828,44.09],[22.4487,44.0567],[22.4659,44.0176],[22.5037,44.0199],[22.5342,44.0572],[22.593,44.0639],[22.6047,44.0794],[22.5991,44.1303],[22.6062,44.1746],[22.6488,44.214],[22.6916,44.2284],[22.9064,44.1229],[23.0083,44.1004],[23.031,44.0931],[23.0401,44.0623],[23.023,44.0316],[22.9881,44.0177],[22.9058,44.004],[22.8859,43.9945],[22.8505,43.897],[22.8634,43.8554],[22.9196,43.8342],[23.0526,43.8428],[23.1318,43.8479],[23.2345,43.8773],[23.3252,43.8866],[23.4847,43.8806],[23.5927,43.8374],[23.6209,43.834],[23.7208,43.8458],[23.7999,43.8185],[24.1496,43.7547],[24.3367,43.7593],[24.329,43.7112],[24.2875,43.6652],[24.2315,43.645],[24.1995,43.6474],[24.1202,43.589],[24.1514,43.5224],[24.1787,43.4914],[24.2249,43.4845],[24.2432,43.4375],[24.2281,43.3431],[24.1807,43.3249],[24.1119,43.3277],[24.0819,43.3081],[24.0524,43.3158],[23.9786,43.2946],[23.9507,43.2452],[23.9594,43.2316],[24.0268,43.2117],[24.0349,43.1733],[24.0163,43.1108],[23.9738,43.1221],[23.9584,43.1145],[23.9775,43.0599],[23.9356,43.0278],[23.9023,43.0428],[23.8035,43.0561],[23.766,43.0679],[23.7167,43.0346],[23.6654,43.0283],[23.6344,43.053],[23.5526,43.0092],[23.4936,43.0706],[23.4352,43.1082],[23.4346,43.1281],[23.4698,43.1369],[23.4314,43.162],[23.3989,43.1629]]]}}
]}
