{
 "type": "FeatureCollection",
 "features": [
  {
   "type": "Feature",
   "properties": {
    "entityId": "western-wei",
    "from": 535,
    "to": 557,
    "certainty": "estimated",
    "source": "중고등학교 한국사 교과서 시대별 지도의 일반적인 경계를 따른 대략적인 추정. 운영자 검수 필요"
   },
   "geometry": {
    "type": "Polygon",
    "coordinates": [
     [
      [
       93,
       39.5
      ],
      [
       98,
       38.5
      ],
      [
       101.5,
       36.8
      ],
      [
       102.5,
       35.5
      ],
      [
       102.2,
       33
      ],
      [
       111,
       33
      ],
      [
       111,
       41
      ],
      [
       108.5,
       41.3
      ],
      [
       106.5,
       40.5
      ],
      [
       104.5,
       39
      ],
      [
       102.5,
       38
      ],
      [
       100,
       39.2
      ],
      [
       98,
       40.1
      ],
      [
       95,
       40.6
      ],
      [
       93,
       41
      ],
      [
       93,
       39.5
      ]
     ]
    ]
   }
  }
 ]
}
