{"type":"FeatureCollection","features":[
{"type":"Feature","properties":{"entityId":"west-germany","from":1949,"to":1957,"certainty":"estimated","source":"유럽 쪽은 Natural Earth 1:10m admin-1(v5.1.2) 현대 행정구역 조각을 그 시기 국경에 맞춰 묶고, 조각이 역사 경계와 다른 곳은 선을 그어 나눈 근사. 유럽 밖(시베리아·중앙아시아·극동)은 대략적인 추정. 운영자 검수 필요"},"geometry":{"type":"MultiPolygon","coordinates":[[[[5.8525,51.0428],[5.8736,50.9906],[5.8746,50.9654],[5.9277,50.9777],[6.0037,50.9737],[5.9999,50.9294],[6.0637,50.9075],[6.0631,50.8709],[6.0456,50.8442],[6.0005,50.8304],[6.0036,50.8126],[5.973,50.7818],[5.9949,50.7499],[6.0076,50.7169],[6.0248,50.7076],[6.081,50.7135],[6.1611,50.6422],[6.1478,50.6368],[6.18,50.6155],[6.2491,50.6144],[6.2329,50.5871],[6.1791,50.562],[6.1607,50.5436],[6.1708,50.518],[6.1992,50.4904],[6.2556,50.4946],[6.3369,50.481],[6.3233,50.466],[6.3512,50.4336],[6.3377,50.3681],[6.3734,50.3231],[6.362,50.307],[6.2995,50.3089],[6.2694,50.2865],[6.2534,50.2568],[6.1896,50.2427],[6.1468,50.214],[6.1651,50.1819],[6.1232,50.1649],[6.1175,50.1205],[6.0964,50.0486],[6.1138,50.0364],[6.1172,50.0044],[6.1619,49.9425],[6.1727,49.9562],[6.2227,49.8871],[6.2868,49.861],[6.2956,49.8486],[6.3026,49.8349],[6.3344,49.8402],[6.3801,49.8156],[6.4145,49.8055],[6.4625,49.8055],[6.5001,49.7945],[6.4863,49.7427],[6.4997,49.7122],[6.4917,49.7008],[6.4182,49.6699],[6.4027,49.6558],[6.4179,49.6391],[6.3976,49.6139],[6.3715,49.593],[6.3508,49.5666],[6.3488,49.5253],[6.49,49.5338],[6.6051,49.5302],[6.6698,49.5494],[6.7123,49.5503],[6.8597,49.5945],[6.9364,49.6272],[6.9711,49.6187],[6.9988,49.6295],[7.072,49.6035],[7.1328,49.602],[7.2191,49.5635],[7.2675,49.5785],[7.3085,49.4854],[7.2461,49.4461],[7.2523,49.431],[7.3012,49.3848],[7.3852,49.3697],[7.3873,49.3368],[7.3567,49.3127],[7.3167,49.2519],[7.2869,49.2308],[7.2947,49.2052],[7.3491,49.1687],[7.3716,49.1662],[7.4105,49.1689],[7.4148,49.1578],[7.4761,49.1515],[7.471,49.1283],[7.5209,49.0837],[7.6086,49.062],[7.6449,49.0363],[7.6851,49.0428],[7.7269,49.0357],[7.7737,49.0481],[7.8569,49.0323],[7.9319,49.0348],[8.0904,48.9792],[8.1887,48.9657],[8.1999,48.9583],[8.1481,48.9037],[8.1027,48.8213],[8.0842,48.8041],[8.0273,48.78],[8.023,48.7651],[7.9701,48.7573],[7.9592,48.7214],[7.8806,48.6677],[7.8524,48.6587],[7.8103,48.615],[7.8017,48.5476],[7.8135,48.5195],[7.7765,48.4982],[7.7383,48.4066],[7.752,48.3553],[7.737,48.3267],[7.7025,48.3112],[7.6935,48.2699],[7.6766,48.2384],[7.6134,48.1792],[7.582,48.1214],[7.5726,48.095],[7.5757,48.0537],[7.6189,48.0027],[7.6211,47.9714],[7.5849,47.9404],[7.5808,47.9108],[7.5579,47.8785],[7.562,47.8392],[7.5429,47.8294],[7.5259,47.7832],[7.5378,47.7318],[7.5119,47.7073],[7.5218,47.6704],[7.5501,47.6524],[7.5903,47.6079],[7.586,47.5846],[7.637,47.595],[7.6597,47.5966],[7.6465,47.5715],[7.6359,47.5646],[7.6123,47.5647],[7.6097,47.5647],[7.6469,47.5514],[7.6834,47.5443],[7.7273,47.5504],[7.7856,47.5632],[7.8197,47.5953],[7.8982,47.5878],[7.9122,47.5606],[8.0423,47.5606],[8.0872,47.5674],[8.1221,47.5921],[8.179,47.6158],[8.2511,47.622],[8.2886,47.6158],[8.3063,47.5922],[8.3541,47.581],[8.4211,47.5811],[8.4489,47.5843],[8.4618,47.6061],[8.5224,47.6219],[8.5517,47.5969],[8.5607,47.5894],[8.5763,47.595],[8.5803,47.639],[8.6016,47.6326],[8.5936,47.6582],[8.5682,47.6629],[8.5197,47.6574],[8.4761,47.6404],[8.4583,47.6399],[8.412,47.661],[8.3913,47.6655],[8.3977,47.6763],[8.391,47.6921],[8.4019,47.7071],[8.4379,47.7232],[8.4501,47.7505],[8.4636,47.7639],[8.5365,47.7741],[8.5516,47.7793],[8.5423,47.795],[8.5582,47.8012],[8.6016,47.7946],[8.6076,47.7623],[8.6298,47.7628],[8.635,47.7846],[8.657,47.7881],[8.6819,47.7587],[8.7131,47.7574],[8.7198,47.7473],[8.7004,47.7235],[8.7171,47.6946],[8.7699,47.6951],[8.7617,47.7013],[8.7707,47.7209],[8.7976,47.72],[8.8302,47.7072],[8.8561,47.6907],[8.8377,47.6878],[8.8519,47.6713],[8.9062,47.6518],[8.9818,47.6622],[9.0166,47.6789],[9.1281,47.6704],[9.1834,47.6704],[9.1969,47.6561],[9.2732,47.6501],[9.5475,47.5345],[9.5541,47.5327],[9.6126,47.5219],[9.6767,47.5226],[9.704,47.5314],[9.7527,47.5821],[9.7821,47.5884],[9.808,47.5763],[9.8131,47.5418],[9.9188,47.5322],[9.9459,47.5408],[9.9487,47.5242],[9.97,47.5016],[9.9936,47.4766],[10.0226,47.488],[10.0806,47.4274],[10.0532,47.4049],[10.0732,47.3655],[10.1257,47.3627],[10.1909,47.3792],[10.2086,47.3545],[10.1859,47.295],[10.1554,47.2729],[10.175,47.2724],[10.2394,47.2777],[10.3059,47.3022],[10.3434,47.3308],[10.3657,47.3611],[10.4116,47.381],[10.452,47.4388],[10.4422,47.4814],[10.4196,47.493],[10.431,47.5422],[10.4142,47.573],[10.4536,47.5811],[10.4535,47.5462],[10.4825,47.5329],[10.5251,47.5285],[10.5837,47.5625],[10.6079,47.5623],[10.7399,47.5285],[10.7522,47.5154],[10.7903,47.5161],[10.8586,47.5307],[10.8922,47.5149],[10.8516,47.4931],[10.9099,47.469],[10.9598,47.4325],[10.9553,47.4096],[10.9795,47.3905],[11.0837,47.3895],[11.1686,47.4243],[11.2152,47.423],[11.213,47.3958],[11.2588,47.4007],[11.3056,47.4354],[11.3839,47.4449],[11.3886,47.4622],[11.3655,47.4693],[11.4126,47.5061],[11.4826,47.5026],[11.5512,47.5137],[11.5694,47.5274],[11.5891,47.5704],[11.6205,47.5897],[11.6826,47.5834],[11.764,47.5831],[11.8203,47.5753],[11.852,47.5992],[11.9359,47.6107],[12.1656,47.604],[12.2021,47.6298],[12.2023,47.6778],[12.1766,47.7058],[12.2422,47.732],[12.2233,47.6959],[12.2387,47.6789],[12.2937,47.69],[12.3515,47.6817],[12.4241,47.6916],[12.4528,47.6498],[12.4966,47.6289],[12.5634,47.6418],[12.5984,47.6629],[12.6531,47.6751],[12.762,47.6669],[12.7517,47.6494],[12.8132,47.6118],[12.7859,47.6027],[12.7737,47.5795],[12.7789,47.5548],[12.8284,47.5373],[12.8826,47.4986],[12.9425,47.4705],[12.9697,47.4757],[13.0019,47.466],[13.0373,47.493],[13.0281,47.5416],[13.0383,47.584],[13.072,47.6224],[13.0748,47.6467],[13.0446,47.6966],[13.0044,47.7146],[12.964,47.7054],[12.9083,47.7124],[12.892,47.7235],[12.9172,47.7502],[12.9267,47.7774],[12.9912,47.8471],[12.965,47.872],[12.9311,47.9249],[12.862,47.9626],[12.8482,47.9824],[12.8306,48.0155],[12.7602,48.0649],[12.737,48.1],[12.745,48.1206],[12.8221,48.1607],[12.8776,48.202],[12.933,48.2093],[13.0328,48.2636],[13.1364,48.2911],[13.2742,48.3071],[13.3078,48.3196],[13.4056,48.3766],[13.4382,48.441],[13.4364,48.4692],[13.4564,48.5067],[13.4401,48.561],[13.4546,48.5734],[13.5207,48.5846],[13.6244,48.5654],[13.6734,48.5355],[13.7165,48.5217],[13.7339,48.5598],[13.766,48.5638],[13.8024,48.6117],[13.8009,48.6752],[13.8169,48.6956],[13.7859,48.7248],[13.8157,48.7664],[13.7962,48.7798],[13.7247,48.8673],[13.6544,48.8822],[13.6218,48.9091],[13.6087,48.9462],[13.5905,48.9448],[13.5224,48.9693],[13.5021,48.9661],[13.4823,48.9376],[13.4273,48.96],[13.3842,48.993],[13.3724,49.0385],[13.2995,49.0936],[13.2673,49.1056],[13.2068,49.1075],[13.1785,49.1183],[13.1495,49.1548],[13.0558,49.2382],[13.0113,49.2678],[12.9998,49.2949],[12.9229,49.3327],[12.8847,49.3396],[12.8754,49.3239],[12.7978,49.3278],[12.7621,49.3432],[12.7293,49.3911],[12.6435,49.4295],[12.6272,49.4602],[12.623,49.5098],[12.5937,49.515],[12.5623,49.5508],[12.5536,49.5847],[12.502,49.6197],[12.4964,49.67],[12.4196,49.7002],[12.3836,49.7429],[12.3954,49.7579],[12.4527,49.7797],[12.4625,49.8312],[12.4825,49.8272],[12.5129,49.8702],[12.5241,49.905],[12.4627,49.9313],[12.4682,49.9702],[12.2469,50.045],[12.2325,50.0805],[12.1879,50.1028],[12.1792,50.118],[12.1827,50.1707],[12.1393,50.211],[12.0796,50.2427],[12.1091,50.2638],[12.1073,50.2909],[12.0761,50.3152],[12.1013,50.314],[12.0937,50.3226],[12.0399,50.3288],[11.986,50.3516],[11.9812,50.3853],[11.9405,50.4145],[11.9053,50.4152],[11.8288,50.3911],[11.7967,50.4135],[11.6212,50.3868],[11.5698,50.3946],[11.5317,50.3784],[11.4847,50.3995],[11.482,50.4223],[11.4212,50.443],[11.4206,50.4857],[11.4387,50.4972],[11.4271,50.5131],[11.3467,50.5187],[11.3163,50.4925],[11.2486,50.4726],[11.2626,50.4277],[11.259,50.4032],[11.2803,50.3586],[11.259,50.3173],[11.2553,50.2749],[11.2075,50.2851],[11.1923,50.2716],[11.1354,50.3093],[11.1549,50.3235],[11.1158,50.3638],[11.0497,50.3477],[10.9976,50.3636],[10.9879,50.3499],[10.9434,50.3873],[10.8934,50.3829],[10.8773,50.3943],[10.7889,50.3863],[10.7546,50.3566],[10.7263,50.3608],[10.715,50.3219],[10.7691,50.2927],[10.8021,50.2902],[10.8379,50.2717],[10.8402,50.2421],[10.7985,50.2482],[10.7316,50.2423],[10.7266,50.2104],[10.6622,50.2245],[10.6171,50.2244],[10.5938,50.2712],[10.5924,50.3229],[10.5524,50.3588],[10.4998,50.3535],[10.4495,50.3991],[10.4054,50.3959],[10.3994,50.4229],[10.3373,50.4639],[10.3187,50.4924],[10.238,50.5101],[10.2204,50.5337],[10.1884,50.5492],[10.1393,50.5459],[10.1261,50.5629],[10.055,50.5165],[10.0569,50.5544],[10.0459,50.6055],[10.076,50.622],[10.0737,50.6452],[10.0521,50.6696],[9.9976,50.6762],[9.9509,50.6627],[9.9604,50.6396],[9.9433,50.6271],[9.8795,50.6371],[9.8882,50.6759],[9.9132,50.6927],[9.9355,50.751],[9.9207,50.7638],[9.9449,50.7745],[9.9494,50.8152],[10.0187,50.8317],[10.0232,50.8544],[10.056,50.8826],[10.0327,50.9088],[10.0062,50.921],[9.9742,50.9061],[9.9559,50.9419],[10.0414,50.9409],[10.0431,50.9616],[10.0236,50.9821],[10.0511,51.007],[10.1232,51.008],[10.143,50.9938],[10.1879,50.9957],[10.2087,51.0209],[10.1932,51.0448],[10.1424,51.0552],[10.1691,51.1155],[10.126,51.1361],[10.1736,51.1448],[10.1964,51.1159],[10.2303,51.1843],[10.1728,51.2061],[10.0813,51.2232],[10.0536,51.2517],[10.0491,51.2766],[9.984,51.2858],[9.947,51.3039],[9.9235,51.3603],[9.9492,51.3818],[10.0457,51.4321],[10.0661,51.4209],[10.0847,51.4311],[10.1497,51.4318],[10.1947,51.4794],[10.2396,51.4721],[10.2945,51.4935],[10.3064,51.5106],[10.3646,51.5424],[10.3749,51.5857],[10.4217,51.5919],[10.4788,51.5747],[10.5142,51.5563],[10.562,51.5574],[10.6104,51.5726],[10.6453,51.5611],[10.6542,51.5782],[10.6292,51.601],[10.6489,51.6197],[10.6976,51.6374],[10.669,51.6699],[10.6641,51.7072],[10.6192,51.7585],[10.5853,51.7779],[10.5802,51.8449],[10.6399,51.8836],[10.6382,51.9068],[10.613,51.9245],[10.6181,51.9434],[10.6446,51.9587],[10.5902,51.9762],[10.5705,52.0012],[10.6216,52.0105],[10.6525,52.0426],[10.7175,52.0502],[10.8503,52.0503],[10.9684,52.0646],[10.9693,52.0835],[10.9477,52.097],[11.0382,52.1317],[11.0543,52.1684],[11.0193,52.1869],[11.0374,52.2115],[11.0829,52.2251],[11.0829,52.2471],[11.0636,52.2437],[11.0141,52.2897],[11.0337,52.3065],[10.9993,52.3425],[11.0638,52.3538],[11.073,52.3722],[11.0107,52.4035],[10.9391,52.4621],[10.9501,52.4925],[11.0017,52.4981],[10.9491,52.5537],[10.9465,52.5836],[10.9743,52.6083],[10.9572,52.6225],[10.9198,52.6195],[10.8849,52.6514],[10.8369,52.7103],[10.801,52.7225],[10.7938,52.7479],[10.7594,52.7817],[10.762,52.8384],[10.7954,52.8463],[10.8855,52.8472],[10.9607,52.8651],[10.9893,52.8821],[11.0147,52.9119],[11.0508,52.9123],[11.1066,52.9006],[11.1653,52.9033],[11.2136,52.8978],[11.2643,52.8775],[11.3129,52.8838],[11.4124,52.9064],[11.4704,52.9401],[11.502,52.9442],[11.4963,52.9694],[11.5068,53.0011],[11.5619,53.01],[11.5813,53.0429],[11.4907,53.0607],[11.4609,53.0794],[11.4169,53.0809],[11.3656,53.064],[11.3276,53.0724],[11.2741,53.1175],[11.2558,53.1362],[11.2397,53.142],[11.2247,53.153],[11.2014,53.1405],[11.1943,53.1409],[11.1645,53.1709],[11.1434,53.1727],[11.1093,53.1558],[11.0894,53.1442],[11.0681,53.1555],[11.0401,53.1664],[10.9302,53.2285],[10.8393,53.2601],[10.8073,53.2756],[10.7868,53.2934],[10.7751,53.3002],[10.7558,53.3029],[10.7394,53.3085],[10.7346,53.3217],[10.7316,53.352],[10.7097,53.3683],[10.6755,53.3737],[10.6012,53.3718],[10.6222,53.391],[10.6272,53.4015],[10.6272,53.4137],[10.6354,53.4452],[10.6408,53.451],[10.6611,53.4582],[10.6863,53.4568],[10.6945,53.4601],[10.7017,53.4755],[10.7082,53.4794],[10.7257,53.4811],[10.7602,53.4882],[10.8049,53.5094],[10.8204,53.5148],[10.8239,53.5313],[10.8324,53.5441],[10.8297,53.5701],[10.8414,53.5719],[10.8578,53.5682],[10.9036,53.5723],[10.9115,53.5714],[10.929,53.5485],[10.9381,53.5525],[10.9544,53.5661],[10.9423,53.5697],[10.953,53.5737],[10.9527,53.5844],[10.9406,53.6114],[10.9398,53.6287],[10.956,53.6391],[10.955,53.6555],[10.9465,53.6649],[10.9456,53.6771],[10.9381,53.6847],[10.9146,53.6968],[10.8789,53.702],[10.8655,53.6999],[10.8466,53.7085],[10.8059,53.7412],[10.7781,53.7458],[10.7609,53.7467],[10.7584,53.7519],[10.7674,53.7746],[10.771,53.7933],[10.7615,53.8225],[10.753,53.8341],[10.7513,53.8431],[10.7633,53.8651],[10.7726,53.8699],[10.8123,53.8827],[10.8613,53.9098],[10.8852,53.9191],[10.9073,53.9155],[10.9067,53.9053],[10.9129,53.9021],[10.9453,53.9052],[10.9605,53.9129],[10.9203,53.9205],[10.9042,53.9313],[10.906,53.9612],[10.9222,53.9614],[10.9222,54.0474],[10.9401,54.0474],[10.9427,54.1336],[10.9505,54.1395],[11.0666,54.1839],[11.0945,54.2251],[11.0871,54.2709],[11.0945,54.2835],[11.0774,54.3422],[11.1355,54.3859],[11.1042,54.3929],[11.0339,54.3676],[11.0188,54.3859],[10.9353,54.3795],[10.913,54.3726],[10.0275,54.577],[10.0376,54.6191],[10.0335,54.6729],[10.0204,54.675],[9.9925,54.7012],[10.0182,54.7012],[9.9841,54.7285],[9.9705,54.7626],[9.9312,54.7829],[9.9304,54.8027],[9.9291,54.837],[9.8482,54.837],[9.8482,54.8217],[9.7792,54.8217],[9.7792,54.8386],[9.7458,54.8386],[9.7459,54.836],[9.7447,54.836],[9.7196,54.8358],[9.7168,54.8386],[9.7102,54.8386],[9.7102,54.8125],[9.693,54.818],[9.6762,54.8185],[9.6421,54.8196],[9.6421,54.8478],[9.608,54.8478],[9.608,54.8761],[9.5739,54.8761],[9.5739,54.8695],[9.5057,54.8695],[9.5057,54.8445],[9.4716,54.8445],[9.4716,54.8185],[9.4375,54.8104],[9.385,54.8194],[9.332,54.8032],[9.2264,54.8059],[9.2115,54.8418],[9.1948,54.8504],[8.9827,54.8793],[8.9041,54.8979],[8.8242,54.9059],[8.7328,54.8891],[8.6608,54.8963],[8.6533,54.8746],[8.6533,54.8931],[8.6545,54.8936],[8.6533,54.8936],[8.6533,54.9274],[8.6159,54.9274],[8.6159,54.9269],[8.5784,54.9269],[8.5784,54.9623],[8.5412,54.9623],[8.5412,55.0532],[8.4943,55.0532],[8.4943,55.0687],[8.4839,55.0676],[8.4799,55.0733],[8.4455,55.0733],[8.4617,55.0512],[8.4511,55.0545],[8.4513,55.0547],[8.4501,55.0548],[8.4158,55.0653],[8.4058,55.0581],[8.4045,55.0582],[8.4041,55.0582],[8.4021,55.0554],[8.3737,55.035],[8.298,54.9125],[8.2969,54.91],[8.2961,54.9089],[8.296,54.9081],[8.2886,54.8913],[8.277,54.7828],[8.2907,54.7453],[8.2983,54.7769],[8.2982,54.7782],[8.3073,54.787],[8.3469,54.8477],[8.5349,54.8605],[8.5437,54.7548],[8.5434,54.7548],[8.5089,54.7613],[8.5085,54.7613],[8.4689,54.7578],[8.4481,54.75],[8.4368,54.7485],[8.4301,54.7432],[8.4185,54.7388],[8.4098,54.727],[8.3945,54.7148],[8.4246,54.704],[8.4545,54.6915],[8.5481,54.688],[8.5485,54.688],[8.5491,54.6884],[8.5733,54.3958],[8.6065,54.3409],[8.5999,54.3381],[8.6027,54.3121],[8.6417,54.2826],[8.7715,54.0675],[8.7999,54.0204],[8.7835,54.0084],[8.7613,53.9923],[8.7235,53.9648],[8.6857,53.9372],[8.6101,53.8822],[8.6071,53.8815],[8.5733,53.8577],[8.5715,53.8542],[8.4434,53.7609],[8.3152,53.6676],[8.1614,53.5557],[8.1498,53.5602],[8.1244,53.5836],[8.1276,53.5908],[8.1074,53.5992],[8.0253,53.6747],[8.0314,53.7081],[7.9599,53.7204],[7.9365,53.748],[7.9361,53.748],[7.4711,53.7178],[7.2267,53.702],[7.1009,53.6938],[6.9823,53.5647],[6.954,53.5339],[6.9256,53.503],[6.9212,53.4982],[6.9212,53.4722],[6.9518,53.4722],[6.9518,53.4413],[6.9494,53.4413],[6.9494,53.3487],[6.9823,53.3487],[6.9823,53.3345],[7.0434,53.3345],[7.0434,53.303],[7.044,53.3028],[7.1045,53.3028],[7.1045,53.293],[7.1656,53.293],[7.1656,53.2903],[7.1962,53.2903],[7.1962,53.246],[7.1946,53.245],[7.1985,53.2006],[7.1727,53.1258],[7.1851,53.1054],[7.1944,53.0338],[7.1836,52.9661],[7.1619,52.9326],[7.0799,52.8544],[7.0722,52.8413],[7.0533,52.7906],[7.044,52.6826],[7.0367,52.6474],[7.0185,52.626],[6.9677,52.6367],[6.9184,52.6322],[6.8654,52.642],[6.7705,52.641],[6.7191,52.6268],[6.7018,52.6191],[6.711,52.5766],[6.7438,52.5597],[6.6717,52.5417],[6.684,52.526],[6.6951,52.4756],[6.7412,52.4537],[6.8203,52.4468],[6.9002,52.4319],[6.9515,52.4375],[6.9733,52.4514],[7.0342,52.3908],[7.0482,52.3651],[7.0398,52.3286],[7.0125,52.2849],[7.0266,52.2386],[6.9819,52.214],[6.9477,52.1828],[6.8848,52.1603],[6.8307,52.1129],[6.7716,52.1088],[6.7329,52.092],[6.7114,52.0673],[6.6799,52.0605],[6.675,52.0348],[6.7782,52.0013],[6.804,51.9844],[6.8107,51.9606],[6.7898,51.9511],[6.7438,51.9083],[6.7167,51.8993],[6.6282,51.8975],[6.5286,51.8764],[6.4794,51.853],[6.4425,51.8484],[6.3785,51.8601],[6.3825,51.8276],[6.345,51.8211],[6.342,51.8367],[6.2874,51.8462],[6.2564,51.8668],[6.2252,51.8625],[6.127,51.8967],[6.093,51.8853],[6.1561,51.8421],[6.084,51.8537],[6.0433,51.8469],[5.9889,51.8275],[5.9481,51.823],[5.928,51.8067],[5.9641,51.7766],[5.9461,51.7463],[5.9393,51.7319],[5.9783,51.7298],[6.022,51.7095],[6.0086,51.6812],[6.0315,51.663],[6.0992,51.6445],[6.0865,51.5955],[6.1933,51.5093],[6.2053,51.4584],[6.1927,51.399],[6.2078,51.3877],[6.1936,51.3445],[6.1478,51.3182],[6.0965,51.2588],[6.0652,51.2316],[6.0537,51.1894],[6.0843,51.1627],[6.1341,51.1842],[6.1571,51.1793],[6.1263,51.1646],[6.1473,51.1523],[6.1324,51.1398],[6.0754,51.1204],[5.9829,51.0747],[5.9503,51.0395],[5.9196,51.0297],[5.8805,51.0521],[5.8525,51.0428]]],[[[6.6437,53.5787],[6.6441,53.5787],[6.6739,53.5799],[6.6771,53.5756],[6.7346,53.5752],[6.7293,53.582],[6.7341,53.5822],[6.7576,53.5971],[6.7981,53.6044],[6.7879,53.6163],[6.8025,53.6256],[6.802,53.6256],[6.8023,53.6258],[6.8022,53.6258],[6.8025,53.626],[6.7553,53.626],[6.6689,53.6051],[6.6641,53.6001],[6.6595,53.5991],[6.6611,53.597],[6.6437,53.5791],[6.6441,53.5791],[6.6437,53.5787]]],[[[11.0057,54.4685],[11.0325,54.4473],[11.0581,54.4553],[11.0739,54.4539],[11.1064,54.4314],[11.1126,54.4152],[11.179,54.4142],[11.1805,54.4161],[11.2802,54.4172],[11.3142,54.4138],[11.2556,54.4787],[11.2448,54.4866],[11.2341,54.5009],[11.2213,54.5038],[11.2066,54.5145],[11.1213,54.536],[11.0907,54.533],[11.0865,54.5339],[11.0864,54.5338],[11.0861,54.5339],[11.0815,54.5321],[11.0729,54.5312],[11.0571,54.5222],[11.0429,54.5165],[11.0405,54.5128],[11.0337,54.5089],[11.0057,54.4685]]]]}},
{"type":"Feature","properties":{"entityId":"west-germany","from":1957,"to":1990,"certainty":"estimated","source":"유럽 쪽은 Natural Earth 1:10m admin-1(v5.1.2) 현대 행정구역 조각을 그 시기 국경에 맞춰 묶고, 조각이 역사 경계와 다른 곳은 선을 그어 나눈 근사. 유럽 밖(시베리아·중앙아시아·극동)은 대략적인 추정. 운영자 검수 필요"},"geometry":{"type":"MultiPolygon","coordinates":[[[[5.8525,51.0428],[5.8736,50.9906],[5.8746,50.9654],[5.9277,50.9777],[6.0037,50.9737],[5.9999,50.9294],[6.0637,50.9075],[6.0631,50.8709],[6.0456,50.8442],[6.0005,50.8304],[6.0036,50.8126],[5.973,50.7818],[5.9949,50.7499],[6.0076,50.7169],[6.0248,50.7076],[6.081,50.7135],[6.1611,50.6422],[6.1478,50.6368],[6.18,50.6155],[6.2491,50.6144],[6.2329,50.5871],[6.1791,50.562],[6.1607,50.5436],[6.1708,50.518],[6.1992,50.4904],[6.2556,50.4946],[6.3369,50.481],[6.3233,50.466],[6.3512,50.4336],[6.3377,50.3681],[6.3734,50.3231],[6.362,50.307],[6.2995,50.3089],[6.2694,50.2865],[6.2534,50.2568],[6.1896,50.2427],[6.1468,50.214],[6.1651,50.1819],[6.1232,50.1649],[6.1175,50.1205],[6.0964,50.0486],[6.1138,50.0364],[6.1172,50.0044],[6.1619,49.9425],[6.1727,49.9562],[6.2227,49.8871],[6.2868,49.861],[6.2956,49.8486],[6.3026,49.8349],[6.3344,49.8402],[6.3801,49.8156],[6.4145,49.8055],[6.4625,49.8055],[6.5001,49.7945],[6.4863,49.7427],[6.4997,49.7122],[6.4917,49.7008],[6.4182,49.6699],[6.4027,49.6558],[6.4179,49.6391],[6.3976,49.6139],[6.3715,49.593],[6.3508,49.5666],[6.3488,49.5253],[6.3423,49.493],[6.3453,49.4553],[6.4027,49.4655],[6.4945,49.4355],[6.5257,49.3955],[6.5743,49.3618],[6.5501,49.338],[6.5732,49.3131],[6.6397,49.2712],[6.6638,49.2439],[6.6806,49.2075],[6.7025,49.2136],[6.701,49.1729],[6.7256,49.1556],[6.7701,49.1553],[6.8091,49.1458],[6.839,49.1628],[6.8277,49.1956],[6.8435,49.2111],[6.9254,49.2056],[6.9879,49.1824],[7.0095,49.1817],[7.009,49.1464],[7.0205,49.119],[7.0425,49.1076],[7.0732,49.1203],[7.0853,49.1415],[7.155,49.1144],[7.2412,49.1139],[7.2681,49.1056],[7.2971,49.1281],[7.3265,49.1318],[7.3716,49.1662],[7.4105,49.1689],[7.4148,49.1578],[7.4761,49.1515],[7.471,49.1283],[7.5209,49.0837],[7.6086,49.062],[7.6449,49.0363],[7.6851,49.0428],[7.7269,49.0357],[7.7737,49.0481],[7.8569,49.0323],[7.9319,49.0348],[8.0904,48.9792],[8.1887,48.9657],[8.1999,48.9583],[8.1481,48.9037],[8.1027,48.8213],[8.0842,48.8041],[8.0273,48.78],[8.023,48.7651],[7.9701,48.7573],[7.9592,48.7214],[7.8806,48.6677],[7.8524,48.6587],[7.8103,48.615],[7.8017,48.5476],[7.8135,48.5195],[7.7765,48.4982],[7.7383,48.4066],[7.752,48.3553],[7.737,48.3267],[7.7025,48.3112],[7.6935,48.2699],[7.6766,48.2384],[7.6134,48.1792],[7.582,48.1214],[7.5726,48.095],[7.5757,48.0537],[7.6189,48.0027],[7.6211,47.9714],[7.5849,47.9404],[7.5808,47.9108],[7.5579,47.8785],[7.562,47.8392],[7.5429,47.8294],[7.5259,47.7832],[7.5378,47.7318],[7.5119,47.7073],[7.5218,47.6704],[7.5501,47.6524],[7.5903,47.6079],[7.586,47.5846],[7.637,47.595],[7.6597,47.5966],[7.6465,47.5715],[7.6359,47.5646],[7.6123,47.5647],[7.6097,47.5647],[7.6469,47.5514],[7.6834,47.5443],[7.7273,47.5504],[7.7856,47.5632],[7.8197,47.5953],[7.8982,47.5878],[7.9122,47.5606],[8.0423,47.5606],[8.0872,47.5674],[8.1221,47.5921],[8.179,47.6158],[8.2511,47.622],[8.2886,47.6158],[8.3063,47.5922],[8.3541,47.581],[8.4211,47.5811],[8.4489,47.5843],[8.4618,47.6061],[8.5224,47.6219],[8.5517,47.5969],[8.5607,47.5894],[8.5763,47.595],[8.5803,47.639],[8.6016,47.6326],[8.5936,47.6582],[8.5682,47.6629],[8.5197,47.6574],[8.4761,47.6404],[8.4583,47.6399],[8.412,47.661],[8.3913,47.6655],[8.3977,47.6763],[8.391,47.6921],[8.4019,47.7071],[8.4379,47.7232],[8.4501,47.7505],[8.4636,47.7639],[8.5365,47.7741],[8.5516,47.7793],[8.5423,47.795],[8.5582,47.8012],[8.6016,47.7946],[8.6076,47.7623],[8.6298,47.7628],[8.635,47.7846],[8.657,47.7881],[8.6819,47.7587],[8.7131,47.7574],[8.7198,47.7473],[8.7004,47.7235],[8.7171,47.6946],[8.7699,47.6951],[8.7617,47.7013],[8.7707,47.7209],[8.7976,47.72],[8.8302,47.7072],[8.8561,47.6907],[8.8377,47.6878],[8.8519,47.6713],[8.9062,47.6518],[8.9818,47.6622],[9.0166,47.6789],[9.1281,47.6704],[9.1834,47.6704],[9.1969,47.6561],[9.2732,47.6501],[9.5475,47.5345],[9.5541,47.5327],[9.6126,47.5219],[9.6767,47.5226],[9.704,47.5314],[9.7527,47.5821],[9.7821,47.5884],[9.808,47.5763],[9.8131,47.5418],[9.9188,47.5322],[9.9459,47.5408],[9.9487,47.5242],[9.97,47.5016],[9.9936,47.4766],[10.0226,47.488],[10.0806,47.4274],[10.0532,47.4049],[10.0732,47.3655],[10.1257,47.3627],[10.1909,47.3792],[10.2086,47.3545],[10.1859,47.295],[10.1554,47.2729],[10.175,47.2724],[10.2394,47.2777],[10.3059,47.3022],[10.3434,47.3308],[10.3657,47.3611],[10.4116,47.381],[10.452,47.4388],[10.4422,47.4814],[10.4196,47.493],[10.431,47.5422],[10.4142,47.573],[10.4536,47.5811],[10.4535,47.5462],[10.4825,47.5329],[10.5251,47.5285],[10.5837,47.5625],[10.6079,47.5623],[10.7399,47.5285],[10.7522,47.5154],[10.7903,47.5161],[10.8586,47.5307],[10.8922,47.5149],[10.8516,47.4931],[10.9099,47.469],[10.9598,47.4325],[10.9553,47.4096],[10.9795,47.3905],[11.0837,47.3895],[11.1686,47.4243],[11.2152,47.423],[11.213,47.3958],[11.2588,47.4007],[11.3056,47.4354],[11.3839,47.4449],[11.3886,47.4622],[11.3655,47.4693],[11.4126,47.5061],[11.4826,47.5026],[11.5512,47.5137],[11.5694,47.5274],[11.5891,47.5704],[11.6205,47.5897],[11.6826,47.5834],[11.764,47.5831],[11.8203,47.5753],[11.852,47.5992],[11.9359,47.6107],[12.1656,47.604],[12.2021,47.6298],[12.2023,47.6778],[12.1766,47.7058],[12.2422,47.732],[12.2233,47.6959],[12.2387,47.6789],[12.2937,47.69],[12.3515,47.6817],[12.4241,47.6916],[12.4528,47.6498],[12.4966,47.6289],[12.5634,47.6418],[12.5984,47.6629],[12.6531,47.6751],[12.762,47.6669],[12.7517,47.6494],[12.8132,47.6118],[12.7859,47.6027],[12.7737,47.5795],[12.7789,47.5548],[12.8284,47.5373],[12.8826,47.4986],[12.9425,47.4705],[12.9697,47.4757],[13.0019,47.466],[13.0373,47.493],[13.0281,47.5416],[13.0383,47.584],[13.072,47.6224],[13.0748,47.6467],[13.0446,47.6966],[13.0044,47.7146],[12.964,47.7054],[12.9083,47.7124],[12.892,47.7235],[12.9172,47.7502],[12.9267,47.7774],[12.9912,47.8471],[12.965,47.872],[12.9311,47.9249],[12.862,47.9626],[12.8482,47.9824],[12.8306,48.0155],[12.7602,48.0649],[12.737,48.1],[12.745,48.1206],[12.8221,48.1607],[12.8776,48.202],[12.933,48.2093],[13.0328,48.2636],[13.1364,48.2911],[13.2742,48.3071],[13.3078,48.3196],[13.4056,48.3766],[13.4382,48.441],[13.4364,48.4692],[13.4564,48.5067],[13.4401,48.561],[13.4546,48.5734],[13.5207,48.5846],[13.6244,48.5654],[13.6734,48.5355],[13.7165,48.5217],[13.7339,48.5598],[13.766,48.5638],[13.8024,48.6117],[13.8009,48.6752],[13.8169,48.6956],[13.7859,48.7248],[13.8157,48.7664],[13.7962,48.7798],[13.7247,48.8673],[13.6544,48.8822],[13.6218,48.9091],[13.6087,48.9462],[13.5905,48.9448],[13.5224,48.9693],[13.5021,48.9661],[13.4823,48.9376],[13.4273,48.96],[13.3842,48.993],[13.3724,49.0385],[13.2995,49.0936],[13.2673,49.1056],[13.2068,49.1075],[13.1785,49.1183],[13.1495,49.1548],[13.0558,49.2382],[13.0113,49.2678],[12.9998,49.2949],[12.9229,49.3327],[12.8847,49.3396],[12.8754,49.3239],[12.7978,49.3278],[12.7621,49.3432],[12.7293,49.3911],[12.6435,49.4295],[12.6272,49.4602],[12.623,49.5098],[12.5937,49.515],[12.5623,49.5508],[12.5536,49.5847],[12.502,49.6197],[12.4964,49.67],[12.4196,49.7002],[12.3836,49.7429],[12.3954,49.7579],[12.4527,49.7797],[12.4625,49.8312],[12.4825,49.8272],[12.5129,49.8702],[12.5241,49.905],[12.4627,49.9313],[12.4682,49.9702],[12.2469,50.045],[12.2325,50.0805],[12.1879,50.1028],[12.1792,50.118],[12.1827,50.1707],[12.1393,50.211],[12.0796,50.2427],[12.1091,50.2638],[12.1073,50.2909],[12.0761,50.3152],[12.1013,50.314],[12.0937,50.3226],[12.0399,50.3288],[11.986,50.3516],[11.9812,50.3853],[11.9405,50.4145],[11.9053,50.4152],[11.8288,50.3911],[11.7967,50.4135],[11.6212,50.3868],[11.5698,50.3946],[11.5317,50.3784],[11.4847,50.3995],[11.482,50.4223],[11.4212,50.443],[11.4206,50.4857],[11.4387,50.4972],[11.4271,50.5131],[11.3467,50.5187],[11.3163,50.4925],[11.2486,50.4726],[11.2626,50.4277],[11.259,50.4032],[11.2803,50.3586],[11.259,50.3173],[11.2553,50.2749],[11.2075,50.2851],[11.1923,50.2716],[11.1354,50.3093],[11.1549,50.3235],[11.1158,50.3638],[11.0497,50.3477],[10.9976,50.3636],[10.9879,50.3499],[10.9434,50.3873],[10.8934,50.3829],[10.8773,50.3943],[10.7889,50.3863],[10.7546,50.3566],[10.7263,50.3608],[10.715,50.3219],[10.7691,50.2927],[10.8021,50.2902],[10.8379,50.2717],[10.8402,50.2421],[10.7985,50.2482],[10.7316,50.2423],[10.7266,50.2104],[10.6622,50.2245],[10.6171,50.2244],[10.5938,50.2712],[10.5924,50.3229],[10.5524,50.3588],[10.4998,50.3535],[10.4495,50.3991],[10.4054,50.3959],[10.3994,50.4229],[10.3373,50.4639],[10.3187,50.4924],[10.238,50.5101],[10.2204,50.5337],[10.1884,50.5492],[10.1393,50.5459],[10.1261,50.5629],[10.055,50.5165],[10.0569,50.5544],[10.0459,50.6055],[10.076,50.622],[10.0737,50.6452],[10.0521,50.6696],[9.9976,50.6762],[9.9509,50.6627],[9.9604,50.6396],[9.9433,50.6271],[9.8795,50.6371],[9.8882,50.6759],[9.9132,50.6927],[9.9355,50.751],[9.9207,50.7638],[9.9449,50.7745],[9.9494,50.8152],[10.0187,50.8317],[10.0232,50.8544],[10.056,50.8826],[10.0327,50.9088],[10.0062,50.921],[9.9742,50.9061],[9.9559,50.9419],[10.0414,50.9409],[10.0431,50.9616],[10.0236,50.9821],[10.0511,51.007],[10.1232,51.008],[10.143,50.9938],[10.1879,50.9957],[10.2087,51.0209],[10.1932,51.0448],[10.1424,51.0552],[10.1691,51.1155],[10.126,51.1361],[10.1736,51.1448],[10.1964,51.1159],[10.2303,51.1843],[10.1728,51.2061],[10.0813,51.2232],[10.0536,51.2517],[10.0491,51.2766],[9.984,51.2858],[9.947,51.3039],[9.9235,51.3603],[9.9492,51.3818],[10.0457,51.4321],[10.0661,51.4209],[10.0847,51.4311],[10.1497,51.4318],[10.1947,51.4794],[10.2396,51.4721],[10.2945,51.4935],[10.3064,51.5106],[10.3646,51.5424],[10.3749,51.5857],[10.4217,51.5919],[10.4788,51.5747],[10.5142,51.5563],[10.562,51.5574],[10.6104,51.5726],[10.6453,51.5611],[10.6542,51.5782],[10.6292,51.601],[10.6489,51.6197],[10.6976,51.6374],[10.669,51.6699],[10.6641,51.7072],[10.6192,51.7585],[10.5853,51.7779],[10.5802,51.8449],[10.6399,51.8836],[10.6382,51.9068],[10.613,51.9245],[10.6181,51.9434],[10.6446,51.9587],[10.5902,51.9762],[10.5705,52.0012],[10.6216,52.0105],[10.6525,52.0426],[10.7175,52.0502],[10.8503,52.0503],[10.9684,52.0646],[10.9693,52.0835],[10.9477,52.097],[11.0382,52.1317],[11.0543,52.1684],[11.0193,52.1869],[11.0374,52.2115],[11.0829,52.2251],[11.0829,52.2471],[11.0636,52.2437],[11.0141,52.2897],[11.0337,52.3065],[10.9993,52.3425],[11.0638,52.3538],[11.073,52.3722],[11.0107,52.4035],[10.9391,52.4621],[10.9501,52.4925],[11.0017,52.4981],[10.9491,52.5537],[10.9465,52.5836],[10.9743,52.6083],[10.9572,52.6225],[10.9198,52.6195],[10.8849,52.6514],[10.8369,52.7103],[10.801,52.7225],[10.7938,52.7479],[10.7594,52.7817],[10.762,52.8384],[10.7954,52.8463],[10.8855,52.8472],[10.9607,52.8651],[10.9893,52.8821],[11.0147,52.9119],[11.0508,52.9123],[11.1066,52.9006],[11.1653,52.9033],[11.2136,52.8978],[11.2643,52.8775],[11.3129,52.8838],[11.4124,52.9064],[11.4704,52.9401],[11.502,52.9442],[11.4963,52.9694],[11.5068,53.0011],[11.5619,53.01],[11.5813,53.0429],[11.4907,53.0607],[11.4609,53.0794],[11.4169,53.0809],[11.3656,53.064],[11.3276,53.0724],[11.2741,53.1175],[11.2558,53.1362],[11.2397,53.142],[11.2247,53.153],[11.2014,53.1405],[11.1943,53.1409],[11.1645,53.1709],[11.1434,53.1727],[11.1093,53.1558],[11.0894,53.1442],[11.0681,53.1555],[11.0401,53.1664],[10.9302,53.2285],[10.8393,53.2601],[10.8073,53.2756],[10.7868,53.2934],[10.7751,53.3002],[10.7558,53.3029],[10.7394,53.3085],[10.7346,53.3217],[10.7316,53.352],[10.7097,53.3683],[10.6755,53.3737],[10.6012,53.3718],[10.6222,53.391],[10.6272,53.4015],[10.6272,53.4137],[10.6354,53.4452],[10.6408,53.451],[10.6611,53.4582],[10.6863,53.4568],[10.6945,53.4601],[10.7017,53.4755],[10.7082,53.4794],[10.7257,53.4811],[10.7602,53.4882],[10.8049,53.5094],[10.8204,53.5148],[10.8239,53.5313],[10.8324,53.5441],[10.8297,53.5701],[10.8414,53.5719],[10.8578,53.5682],[10.9036,53.5723],[10.9115,53.5714],[10.929,53.5485],[10.9381,53.5525],[10.9544,53.5661],[10.9423,53.5697],[10.953,53.5737],[10.9527,53.5844],[10.9406,53.6114],[10.9398,53.6287],[10.956,53.6391],[10.955,53.6555],[10.9465,53.6649],[10.9456,53.6771],[10.9381,53.6847],[10.9146,53.6968],[10.8789,53.702],[10.8655,53.6999],[10.8466,53.7085],[10.8059,53.7412],[10.7781,53.7458],[10.7609,53.7467],[10.7584,53.7519],[10.7674,53.7746],[10.771,53.7933],[10.7615,53.8225],[10.753,53.8341],[10.7513,53.8431],[10.7633,53.8651],[10.7726,53.8699],[10.8123,53.8827],[10.8613,53.9098],[10.8852,53.9191],[10.9073,53.9155],[10.9067,53.9053],[10.9129,53.9021],[10.9453,53.9052],[10.9605,53.9129],[10.9203,53.9205],[10.9042,53.9313],[10.906,53.9612],[10.9222,53.9614],[10.9222,54.0474],[10.9401,54.0474],[10.9427,54.1336],[10.9505,54.1395],[11.0666,54.1839],[11.0945,54.2251],[11.0871,54.2709],[11.0945,54.2835],[11.0774,54.3422],[11.1355,54.3859],[11.1042,54.3929],[11.0339,54.3676],[11.0188,54.3859],[10.9353,54.3795],[10.913,54.3726],[10.0275,54.577],[10.0376,54.6191],[10.0335,54.6729],[10.0204,54.675],[9.9925,54.7012],[10.0182,54.7012],[9.9841,54.7285],[9.9705,54.7626],[9.9312,54.7829],[9.9304,54.8027],[9.9291,54.837],[9.8482,54.837],[9.8482,54.8217],[9.7792,54.8217],[9.7792,54.8386],[9.7458,54.8386],[9.7459,54.836],[9.7447,54.836],[9.7196,54.8358],[9.7168,54.8386],[9.7102,54.8386],[9.7102,54.8125],[9.693,54.818],[9.6762,54.8185],[9.6421,54.8196],[9.6421,54.8478],[9.608,54.8478],[9.608,54.8761],[9.5739,54.8761],[9.5739,54.8695],[9.5057,54.8695],[9.5057,54.8445],[9.4716,54.8445],[9.4716,54.8185],[9.4375,54.8104],[9.385,54.8194],[9.332,54.8032],[9.2264,54.8059],[9.2115,54.8418],[9.1948,54.8504],[8.9827,54.8793],[8.9041,54.8979],[8.8242,54.9059],[8.7328,54.8891],[8.6608,54.8963],[8.6533,54.8746],[8.6533,54.8931],[8.6545,54.8936],[8.6533,54.8936],[8.6533,54.9274],[8.6159,54.9274],[8.6159,54.9269],[8.5784,54.9269],[8.5784,54.9623],[8.5412,54.9623],[8.5412,55.0532],[8.4943,55.0532],[8.4943,55.0687],[8.4839,55.0676],[8.4799,55.0733],[8.4455,55.0733],[8.4617,55.0512],[8.4511,55.0545],[8.4513,55.0547],[8.4501,55.0548],[8.4158,55.0653],[8.4058,55.0581],[8.4045,55.0582],[8.4041,55.0582],[8.4021,55.0554],[8.3737,55.035],[8.298,54.9125],[8.2969,54.91],[8.2961,54.9089],[8.296,54.9081],[8.2886,54.8913],[8.277,54.7828],[8.2907,54.7453],[8.2983,54.7769],[8.2982,54.7782],[8.3073,54.787],[8.3469,54.8477],[8.5349,54.8605],[8.5437,54.7548],[8.5434,54.7548],[8.5089,54.7613],[8.5085,54.7613],[8.4689,54.7578],[8.4481,54.75],[8.4368,54.7485],[8.4301,54.7432],[8.4185,54.7388],[8.4098,54.727],[8.3945,54.7148],[8.4246,54.704],[8.4545,54.6915],[8.5481,54.688],[8.5485,54.688],[8.5491,54.6884],[8.5733,54.3958],[8.6065,54.3409],[8.5999,54.3381],[8.6027,54.3121],[8.6417,54.2826],[8.7715,54.0675],[8.7999,54.0204],[8.7835,54.0084],[8.7613,53.9923],[8.7235,53.9648],[8.6857,53.9372],[8.6101,53.8822],[8.6071,53.8815],[8.5733,53.8577],[8.5715,53.8542],[8.4434,53.7609],[8.3152,53.6676],[8.1614,53.5557],[8.1498,53.5602],[8.1244,53.5836],[8.1276,53.5908],[8.1074,53.5992],[8.0253,53.6747],[8.0314,53.7081],[7.9599,53.7204],[7.9365,53.748],[7.9361,53.748],[7.4711,53.7178],[7.2267,53.702],[7.1009,53.6938],[6.9823,53.5647],[6.954,53.5339],[6.9256,53.503],[6.9212,53.4982],[6.9212,53.4722],[6.9518,53.4722],[6.9518,53.4413],[6.9494,53.4413],[6.9494,53.3487],[6.9823,53.3487],[6.9823,53.3345],[7.0434,53.3345],[7.0434,53.303],[7.044,53.3028],[7.1045,53.3028],[7.1045,53.293],[7.1656,53.293],[7.1656,53.2903],[7.1962,53.2903],[7.1962,53.246],[7.1946,53.245],[7.1985,53.2006],[7.1727,53.1258],[7.1851,53.1054],[7.1944,53.0338],[7.1836,52.9661],[7.1619,52.9326],[7.0799,52.8544],[7.0722,52.8413],[7.0533,52.7906],[7.044,52.6826],[7.0367,52.6474],[7.0185,52.626],[6.9677,52.6367],[6.9184,52.6322],[6.8654,52.642],[6.7705,52.641],[6.7191,52.6268],[6.7018,52.6191],[6.711,52.5766],[6.7438,52.5597],[6.6717,52.5417],[6.684,52.526],[6.6951,52.4756],[6.7412,52.4537],[6.8203,52.4468],[6.9002,52.4319],[6.9515,52.4375],[6.9733,52.4514],[7.0342,52.3908],[7.0482,52.3651],[7.0398,52.3286],[7.0125,52.2849],[7.0266,52.2386],[6.9819,52.214],[6.9477,52.1828],[6.8848,52.1603],[6.8307,52.1129],[6.7716,52.1088],[6.7329,52.092],[6.7114,52.0673],[6.6799,52.0605],[6.675,52.0348],[6.7782,52.0013],[6.804,51.9844],[6.8107,51.9606],[6.7898,51.9511],[6.7438,51.9083],[6.7167,51.8993],[6.6282,51.8975],[6.5286,51.8764],[6.4794,51.853],[6.4425,51.8484],[6.3785,51.8601],[6.3825,51.8276],[6.345,51.8211],[6.342,51.8367],[6.2874,51.8462],[6.2564,51.8668],[6.2252,51.8625],[6.127,51.8967],[6.093,51.8853],[6.1561,51.8421],[6.084,51.8537],[6.0433,51.8469],[5.9889,51.8275],[5.9481,51.823],[5.928,51.8067],[5.9641,51.7766],[5.9461,51.7463],[5.9393,51.7319],[5.9783,51.7298],[6.022,51.7095],[6.0086,51.6812],[6.0315,51.663],[6.0992,51.6445],[6.0865,51.5955],[6.1933,51.5093],[6.2053,51.4584],[6.1927,51.399],[6.2078,51.3877],[6.1936,51.3445],[6.1478,51.3182],[6.0965,51.2588],[6.0652,51.2316],[6.0537,51.1894],[6.0843,51.1627],[6.1341,51.1842],[6.1571,51.1793],[6.1263,51.1646],[6.1473,51.1523],[6.1324,51.1398],[6.0754,51.1204],[5.9829,51.0747],[5.9503,51.0395],[5.9196,51.0297],[5.8805,51.0521],[5.8525,51.0428]]],[[[6.6437,53.5787],[6.6441,53.5787],[6.6739,53.5799],[6.6771,53.5756],[6.7346,53.5752],[6.7293,53.582],[6.7341,53.5822],[6.7576,53.5971],[6.7981,53.6044],[6.7879,53.6163],[6.8025,53.6256],[6.802,53.6256],[6.8023,53.6258],[6.8022,53.6258],[6.8025,53.626],[6.7553,53.626],[6.6689,53.6051],[6.6641,53.6001],[6.6595,53.5991],[6.6611,53.597],[6.6437,53.5791],[6.6441,53.5791],[6.6437,53.5787]]],[[[11.0057,54.4685],[11.0325,54.4473],[11.0581,54.4553],[11.0739,54.4539],[11.1064,54.4314],[11.1126,54.4152],[11.179,54.4142],[11.1805,54.4161],[11.2802,54.4172],[11.3142,54.4138],[11.2556,54.4787],[11.2448,54.4866],[11.2341,54.5009],[11.2213,54.5038],[11.2066,54.5145],[11.1213,54.536],[11.0907,54.533],[11.0865,54.5339],[11.0864,54.5338],[11.0861,54.5339],[11.0815,54.5321],[11.0729,54.5312],[11.0571,54.5222],[11.0429,54.5165],[11.0405,54.5128],[11.0337,54.5089],[11.0057,54.4685]]]]}}
]}
