{
 "type": "FeatureCollection",
 "features": [
  {
   "type": "Feature",
   "properties": {
    "entityId": "wuhuan",
    "from": -205,
    "to": 207,
    "certainty": "estimated",
    "source": "중고등학교 한국사 교과서 시대별 지도의 일반적인 경계를 따른 대략적인 추정. 운영자 검수 필요"
   },
   "geometry": {
    "type": "MultiPolygon",
    "coordinates": [
     [
      [
       [
        118.5,
        41.5
       ],
       [
        121,
        42
       ],
       [
        122.3,
        41.5667
       ],
       [
        122.3,
        43.3
       ],
       [
        118.5,
        43.3
       ],
       [
        118.5,
        41.5
       ]
      ]
     ],
     [
      [
       [
        120.5,
        39.5
       ],
       [
        120.9167,
        38.5
       ],
       [
        121,
        38.5
       ],
       [
        120.9,
        39.2
       ],
       [
        121.9,
        40.5
       ],
       [
        120.5,
        39.5
       ]
      ]
     ],
     [
      [
       [
        121,
        38.5
       ],
       [
        122.3,
        38.5
       ],
       [
        122.3,
        38.5867
       ],
       [
        121,
        38.5
       ]
      ]
     ]
    ]
   }
  }
 ]
}
