{
 "type": "FeatureCollection",
 "features": [
  {
   "type": "Feature",
   "properties": {
    "entityId": "xixia",
    "from": 1038,
    "to": 1227,
    "certainty": "estimated",
    "source": "중고등학교 한국사 교과서 시대별 지도의 일반적인 경계를 따른 대략적인 추정. 운영자 검수 필요"
   },
   "geometry": {
    "type": "Polygon",
    "coordinates": [
     [
      [
       92.66,
       39.57
      ],
      [
       93,
       39.5
      ],
      [
       98,
       38.5
      ],
      [
       101.5,
       36.8
      ],
      [
       101.8846,
       36.3
      ],
      [
       111,
       36.3
      ],
      [
       111,
       41
      ],
      [
       108.5,
       41.3
      ],
      [
       106.5,
       40.5
      ],
      [
       104.5,
       39
      ],
      [
       101,
       42.5
      ],
      [
       100.1,
       42.67
      ],
      [
       99.47,
       42.57
      ],
      [
       98.25,
       42.68
      ],
      [
       97.2,
       42.79
      ],
      [
       96.4,
       42.72
      ],
      [
       96.1,
       42.6
      ],
      [
       95.98,
       42.44
      ],
      [
       96.04,
       42.32
      ],
      [
       96.18,
       42.22
      ],
      [
       96.08,
       42.15
      ],
      [
       96.14,
       42.02
      ],
      [
       95.95,
       41.88
      ],
      [
       95.6,
       41.8
      ],
      [
       95.36,
       41.67
      ],
      [
       95.3,
       41.56
      ],
      [
       95.13,
       41.77
      ],
      [
       94.86,
       41.67
      ],
      [
       94.77,
       41.57
      ],
      [
       94.53,
       41.5
      ],
      [
       94.01,
       41.11
      ],
      [
       93.81,
       40.84
      ],
      [
       93.82,
       40.79
      ],
      [
       93.76,
       40.66
      ],
      [
       92.93,
       40.57
      ],
      [
       92.91,
       40.31
      ],
      [
       92.8,
       40.15
      ],
      [
       92.7,
       39.71
      ],
      [
       92.66,
       39.57
      ]
     ]
    ]
   }
  }
 ]
}
