{"type":"FeatureCollection","features":[
{"type":"Feature","properties":{"entityId":"yan-state","from":-399,"to":-281,"certainty":"estimated","source":"중고등학교 한국사 교과서 시대별 지도의 일반적인 경계를 따른 대략적인 추정. 운영자 검수 필요"},"geometry":{"type":"Polygon","coordinates":[[[113.5,36],[119.8,36],[119.8,41.76],[118.5,41.5],[116,41.2],[113.5,41],[113.5,36]]]}},
{"type":"Feature","properties":{"entityId":"yan-state","from":-281,"to":-221,"certainty":"estimated","source":"중고등학교 한국사 교과서 시대별 지도의 일반적인 경계를 따른 대략적인 추정. 운영자 검수 필요"},"geometry":{"type":"Polygon","coordinates":[[[113.5,36],[122.6,36],[122.6,37.42],[121,38.3],[120.5,39.5],[121.9,40.5],[120.9,39.2],[121,38.5],[122.5,38.6],[123,39],[124,39.6],[124.4,40],[125,40.8],[125,41.8],[124.3,42.6],[123.7,43.2],[122.9,42.2],[122.5,41.5],[121,42],[118.5,41.5],[116,41.2],[113.5,41],[113.5,36]]]}}
]}
