{"type":"FeatureCollection","features":[
{"type":"Feature","properties":{"entityId":"yemaek","from":-700,"to":-281,"certainty":"estimated","source":"중고등학교 한국사 교과서 시대별 지도의 일반적인 경계를 따른 대략적인 추정. 운영자 검수 필요"},"geometry":{"type":"Polygon","coordinates":[[[124.5,43.2278],[125,43.2],[126.6,42.7],[127.3,41.9],[127.2238,41.5697],[127.5,41.55],[127.5,45.5],[124.5,45.5],[124.5,43.2278]]]}},
{"type":"Feature","properties":{"entityId":"yemaek","from":-281,"to":-199,"certainty":"estimated","source":"중고등학교 한국사 교과서 시대별 지도의 일반적인 경계를 따른 대략적인 추정. 운영자 검수 필요"},"geometry":{"type":"Polygon","coordinates":[[[124.3,42.6],[125,41.8],[125,40.8],[124.4,40],[125.3,40.6],[126,41],[126.8,41.6],[127.5,41.55],[127.5,45.5],[124.5,45.5],[124.5,42.3714],[124.3,42.6]]]}},
{"type":"Feature","properties":{"entityId":"yemaek","from":-199,"to":-74,"certainty":"estimated","source":"중고등학교 한국사 교과서 시대별 지도의 일반적인 경계를 따른 대략적인 추정. 운영자 검수 필요"},"geometry":{"type":"Polygon","coordinates":[[[124.3,42.6],[125,41.8],[125,40.8],[124.4,40],[125.3,40.6],[126,41],[126.8,41.6],[127.5,41.55],[127.5,43.4111],[127,43.3],[125,43],[124.5,43.0769],[124.5,42.3714],[124.3,42.6]]]}},
{"type":"Feature","properties":{"entityId":"yemaek","from":-74,"to":-36,"certainty":"estimated","source":"중고등학교 한국사 교과서 시대별 지도의 일반적인 경계를 따른 대략적인 추정. 운영자 검수 필요"},"geometry":{"type":"Polygon","coordinates":[[[124.4,40],[125.3,40.6],[126,41],[126.8,41.6],[127.5,41.55],[127.5,43.4111],[127,43.3],[125,43],[124.5,43.0769],[124.5,42.3833],[124.9,42.45],[125.3,42.25],[125.25,41.85],[125.2,41.5],[125,41.4833],[125,40.8],[124.4,40]]]}},
{"type":"Feature","properties":{"entityId":"yemaek","from":-36,"to":56,"certainty":"estimated","source":"중고등학교 한국사 교과서 시대별 지도의 일반적인 경계를 따른 대략적인 추정. 운영자 검수 필요"},"geometry":{"type":"Polygon","coordinates":[[[124.5,42.3833],[124.9,42.45],[125.3,42.25],[125.2867,42.1433],[125.8,42.4],[126.8,42.3],[127,41.6],[127,41.586],[126.8,41.6],[127.5,41.55],[127.5,43.4111],[127,43.3],[125,43],[124.5,43.0769],[124.5,42.3833]]]}}
]}
