{
 "type": "FeatureCollection",
 "features": [
  {
   "type": "Feature",
   "properties": {
    "entityId": "yeongsan-disputed",
    "from": 369,
    "to": 498,
    "certainty": "disputed",
    "source": "중고등학교 한국사 교과서 시대별 지도의 일반적인 경계를 따른 대략적인 추정. 운영자 검수 필요"
   },
   "geometry": {
    "type": "Polygon",
    "coordinates": [
     [
      [
       124.5,
       33.9697
      ],
      [
       126.8,
       33.9
      ],
      [
       127.15,
       34.075
      ],
      [
       127.15,
       35.4
      ],
      [
       124.5,
       35.4
      ],
      [
       124.5,
       33.9697
      ]
     ]
    ]
   }
  }
 ]
}
