{
 "type": "FeatureCollection",
 "features": [
  {
   "type": "Feature",
   "properties": {
    "entityId": "yuan",
    "from": 1271,
    "to": 1279,
    "certainty": "estimated",
    "source": "중고등학교 한국사 교과서 시대별 지도의 일반적인 경계를 따른 대략적인 추정. 운영자 검수 필요"
   },
   "geometry": {
    "type": "Polygon",
    "coordinates": [
     [
      [
       87.5,
       49.2
      ],
      [
       88.2,
       48.5
      ],
      [
       88.8,
       48.12
      ],
      [
       89.6,
       47.92
      ],
      [
       90.3,
       47.65
      ],
      [
       90.95,
       46.75
      ],
      [
       90.9,
       45.95
      ],
      [
       90.67,
       45.6
      ],
      [
       91.2,
       45.15
      ],
      [
       92.9,
       45.02
      ],
      [
       93.66,
       44.9
      ],
      [
       95.05,
       44.26
      ],
      [
       95.47,
       43.99
      ],
      [
       95.86,
       43.28
      ],
      [
       96.4,
       42.72
      ],
      [
       96.1,
       42.6
      ],
      [
       95.98,
       42.44
      ],
      [
       96.04,
       42.32
      ],
      [
       96.18,
       42.22
      ],
      [
       96.08,
       42.15
      ],
      [
       96.14,
       42.02
      ],
      [
       95.95,
       41.88
      ],
      [
       95.6,
       41.8
      ],
      [
       95.36,
       41.67
      ],
      [
       95.3,
       41.56
      ],
      [
       95.13,
       41.77
      ],
      [
       94.86,
       41.67
      ],
      [
       94.77,
       41.57
      ],
      [
       94.53,
       41.5
      ],
      [
       94.01,
       41.11
      ],
      [
       93.81,
       40.84
      ],
      [
       93.82,
       40.79
      ],
      [
       93.76,
       40.66
      ],
      [
       92.93,
       40.57
      ],
      [
       92.91,
       40.31
      ],
      [
       92.8,
       40.15
      ],
      [
       92.7,
       39.71
      ],
      [
       92.66,
       39.57
      ],
      [
       92.64,
       39.51
      ],
      [
       92.52,
       39.37
      ],
      [
       92.34,
       39.24
      ],
      [
       92.35,
       39.07
      ],
      [
       92.4,
       39.02
      ],
      [
       92.26,
       39
      ],
      [
       91.11,
       38.71
      ],
      [
       90.8,
       38.7
      ],
      [
       89.8,
       38
      ],
      [
       89.6,
       37.3
      ],
      [
       89.6,
       36.476
      ],
      [
       90,
       36.5
      ],
      [
       98.5,
       36.5
      ],
      [
       102.5,
       35.5
      ],
      [
       102.2,
       33
      ],
      [
       122.5833,
       33
      ],
      [
       122.5,
       33.5
      ],
      [
       123,
       37.2
      ],
      [
       121,
       38.3
      ],
      [
       120.5,
       39.5
      ],
      [
       121.9,
       40.5
      ],
      [
       120.9,
       39.2
      ],
      [
       121,
       38.5
      ],
      [
       122.5,
       38.6
      ],
      [
       123,
       39
      ],
      [
       123.3846,
       39.2308
      ],
      [
       123.2,
       39
      ],
      [
       123.34,
       38.3
      ],
      [
       124.3125,
       38.3
      ],
      [
       124.3018,
       38.3855
      ],
      [
       124.2,
       38.4
      ],
      [
       124,
       39.6
      ],
      [
       124.4,
       40
      ],
      [
       125.4,
       40.35
      ],
      [
       126.3,
       40.2
      ],
      [
       127,
       39.95
      ],
      [
       127.4,
       39.8
      ],
      [
       127.8,
       39.7
      ],
      [
       127.9,
       39.6
      ],
      [
       127.8774,
       39.5323
      ],
      [
       127.9976,
       39.2718
      ],
      [
       128.5,
       39.2
      ],
      [
       129.025,
       38.3
      ],
      [
       130.8057,
       38.3
      ],
      [
       131.5,
       41
      ],
      [
       131,
       42.1
      ],
      [
       131.1569,
       41.7548
      ],
      [
       131.8,
       42.2
      ],
      [
       132.5,
       42.4
      ],
      [
       135,
       43.3
      ],
      [
       137,
       44.5
      ],
      [
       141.5,
       44.5
      ],
      [
       141.5,
       48.5
      ],
      [
       118.5,
       48.5
      ],
      [
       118.5,
       47.375
      ],
      [
       117.8,
       47.9
      ],
      [
       116.7,
       49.85
      ],
      [
       114,
       50.2
      ],
      [
       108,
       50.5
      ],
      [
       102,
       51.5
      ],
      [
       95,
       51
      ],
      [
       90,
       50
      ],
      [
       87.5,
       49.2
      ]
     ]
    ]
   }
  },
  {
   "type": "Feature",
   "properties": {
    "entityId": "yuan",
    "from": 1279,
    "to": 1290,
    "certainty": "estimated",
    "source": "중고등학교 한국사 교과서 시대별 지도의 일반적인 경계를 따른 대략적인 추정. 운영자 검수 필요"
   },
   "geometry": {
    "type": "Polygon",
    "coordinates": [
     [
      [
       78.5,
       32.5
      ],
      [
       81,
       30.2
      ],
      [
       85,
       28.3
      ],
      [
       88.5,
       27.5
      ],
      [
       92,
       27.8
      ],
      [
       96,
       28.3
      ],
      [
       98.5,
       28.2
      ],
      [
       99.5,
       27
      ],
      [
       100.5,
       25
      ],
      [
       102.5,
       23.5
      ],
      [
       104,
       22.8
      ],
      [
       104.2,
       21.5
      ],
      [
       105,
       20
      ],
      [
       106.2,
       19.5
      ],
      [
       108.3,
       18
      ],
      [
       109.5,
       17.9
      ],
      [
       111.3,
       19.5
      ],
      [
       113.5,
       21.5
      ],
      [
       116.5,
       22.5
      ],
      [
       118.5,
       24
      ],
      [
       120.2,
       25.3
      ],
      [
       122.3,
       28
      ],
      [
       123,
       30.5
      ],
      [
       122.5,
       33.5
      ],
      [
       123,
       37.2
      ],
      [
       121,
       38.3
      ],
      [
       120.5,
       39.5
      ],
      [
       121.9,
       40.5
      ],
      [
       120.9,
       39.2
      ],
      [
       121,
       38.5
      ],
      [
       122.5,
       38.6
      ],
      [
       123,
       39
      ],
      [
       123.3846,
       39.2308
      ],
      [
       123.2,
       39
      ],
      [
       123.34,
       38.3
      ],
      [
       124.3125,
       38.3
      ],
      [
       124.3018,
       38.3855
      ],
      [
       124.2,
       38.4
      ],
      [
       124,
       39.6
      ],
      [
       124.4,
       40
      ],
      [
       125.4,
       40.35
      ],
      [
       126.3,
       40.2
      ],
      [
       127,
       39.95
      ],
      [
       127.4,
       39.8
      ],
      [
       127.8,
       39.7
      ],
      [
       127.9,
       39.6
      ],
      [
       127.8774,
       39.5323
      ],
      [
       127.9976,
       39.2718
      ],
      [
       128.5,
       39.2
      ],
      [
       129.025,
       38.3
      ],
      [
       130.8057,
       38.3
      ],
      [
       131.5,
       41
      ],
      [
       131,
       42.1
      ],
      [
       131.1569,
       41.7548
      ],
      [
       131.8,
       42.2
      ],
      [
       132.5,
       42.4
      ],
      [
       135,
       43.3
      ],
      [
       137,
       44.5
      ],
      [
       141.5,
       44.5
      ],
      [
       141.5,
       48.5
      ],
      [
       118.5,
       48.5
      ],
      [
       118.5,
       47.375
      ],
      [
       117.8,
       47.9
      ],
      [
       116.7,
       49.85
      ],
      [
       114,
       50.2
      ],
      [
       108,
       50.5
      ],
      [
       102,
       51.5
      ],
      [
       95,
       51
      ],
      [
       90,
       50
      ],
      [
       87.5,
       49.2
      ],
      [
       88.2,
       48.5
      ],
      [
       88.8,
       48.12
      ],
      [
       89.6,
       47.92
      ],
      [
       90.3,
       47.65
      ],
      [
       90.95,
       46.75
      ],
      [
       90.9,
       45.95
      ],
      [
       90.67,
       45.6
      ],
      [
       91.2,
       45.15
      ],
      [
       92.9,
       45.02
      ],
      [
       93.66,
       44.9
      ],
      [
       95.05,
       44.26
      ],
      [
       95.47,
       43.99
      ],
      [
       95.86,
       43.28
      ],
      [
       96.4,
       42.72
      ],
      [
       96.1,
       42.6
      ],
      [
       95.98,
       42.44
      ],
      [
       96.04,
       42.32
      ],
      [
       96.18,
       42.22
      ],
      [
       96.08,
       42.15
      ],
      [
       96.14,
       42.02
      ],
      [
       95.95,
       41.88
      ],
      [
       95.6,
       41.8
      ],
      [
       95.36,
       41.67
      ],
      [
       95.3,
       41.56
      ],
      [
       95.13,
       41.77
      ],
      [
       94.86,
       41.67
      ],
      [
       94.77,
       41.57
      ],
      [
       94.53,
       41.5
      ],
      [
       94.01,
       41.11
      ],
      [
       93.81,
       40.84
      ],
      [
       93.82,
       40.79
      ],
      [
       93.76,
       40.66
      ],
      [
       92.93,
       40.57
      ],
      [
       92.91,
       40.31
      ],
      [
       92.8,
       40.15
      ],
      [
       92.7,
       39.71
      ],
      [
       92.66,
       39.57
      ],
      [
       92.64,
       39.51
      ],
      [
       92.52,
       39.37
      ],
      [
       92.34,
       39.24
      ],
      [
       92.35,
       39.07
      ],
      [
       92.4,
       39.02
      ],
      [
       92.26,
       39
      ],
      [
       91.11,
       38.71
      ],
      [
       90.8,
       38.7
      ],
      [
       89.8,
       38
      ],
      [
       89.6,
       37.3
      ],
      [
       89.6,
       36.476
      ],
      [
       85,
       36.2
      ],
      [
       79.5,
       35.5
      ],
      [
       78.5,
       32.5
      ]
     ]
    ]
   }
  },
  {
   "type": "Feature",
   "properties": {
    "entityId": "yuan",
    "from": 1290,
    "to": 1356,
    "certainty": "estimated",
    "source": "중고등학교 한국사 교과서 시대별 지도의 일반적인 경계를 따른 대략적인 추정. 운영자 검수 필요"
   },
   "geometry": {
    "type": "Polygon",
    "coordinates": [
     [
      [
       78.5,
       32.5
      ],
      [
       81,
       30.2
      ],
      [
       85,
       28.3
      ],
      [
       88.5,
       27.5
      ],
      [
       92,
       27.8
      ],
      [
       96,
       28.3
      ],
      [
       98.5,
       28.2
      ],
      [
       99.5,
       27
      ],
      [
       100.5,
       25
      ],
      [
       102.5,
       23.5
      ],
      [
       104,
       22.8
      ],
      [
       104.2,
       21.5
      ],
      [
       105,
       20
      ],
      [
       106.2,
       19.5
      ],
      [
       108.3,
       18
      ],
      [
       109.5,
       17.9
      ],
      [
       111.3,
       19.5
      ],
      [
       113.5,
       21.5
      ],
      [
       116.5,
       22.5
      ],
      [
       118.5,
       24
      ],
      [
       120.2,
       25.3
      ],
      [
       122.3,
       28
      ],
      [
       123,
       30.5
      ],
      [
       122.5,
       33.5
      ],
      [
       123,
       37.2
      ],
      [
       121,
       38.3
      ],
      [
       120.5,
       39.5
      ],
      [
       121.9,
       40.5
      ],
      [
       120.9,
       39.2
      ],
      [
       121,
       38.5
      ],
      [
       122.5,
       38.6
      ],
      [
       123,
       39
      ],
      [
       123.3846,
       39.2308
      ],
      [
       123.2,
       39
      ],
      [
       123.34,
       38.3
      ],
      [
       124.3125,
       38.3
      ],
      [
       124.3,
       38.4
      ],
      [
       124.6,
       38.6
      ],
      [
       124.5,
       39
      ],
      [
       124.9,
       39.4
      ],
      [
       124,
       39.6
      ],
      [
       124.4,
       40
      ],
      [
       125.4,
       40.35
      ],
      [
       126.3,
       40.2
      ],
      [
       127,
       39.95
      ],
      [
       127.4,
       39.8
      ],
      [
       127.8,
       39.7
      ],
      [
       127.9,
       39.6
      ],
      [
       127.8774,
       39.5323
      ],
      [
       127.9976,
       39.2718
      ],
      [
       128.5,
       39.2
      ],
      [
       129.025,
       38.3
      ],
      [
       130.8057,
       38.3
      ],
      [
       131.5,
       41
      ],
      [
       131,
       42.1
      ],
      [
       131.1569,
       41.7548
      ],
      [
       131.8,
       42.2
      ],
      [
       132.5,
       42.4
      ],
      [
       135,
       43.3
      ],
      [
       137,
       44.5
      ],
      [
       141.5,
       44.5
      ],
      [
       141.5,
       48.5
      ],
      [
       118.5,
       48.5
      ],
      [
       118.5,
       47.375
      ],
      [
       117.8,
       47.9
      ],
      [
       116.7,
       49.85
      ],
      [
       114,
       50.2
      ],
      [
       108,
       50.5
      ],
      [
       102,
       51.5
      ],
      [
       95,
       51
      ],
      [
       90,
       50
      ],
      [
       87.5,
       49.2
      ],
      [
       88.2,
       48.5
      ],
      [
       88.8,
       48.12
      ],
      [
       89.6,
       47.92
      ],
      [
       90.3,
       47.65
      ],
      [
       90.95,
       46.75
      ],
      [
       90.9,
       45.95
      ],
      [
       90.67,
       45.6
      ],
      [
       91.2,
       45.15
      ],
      [
       92.9,
       45.02
      ],
      [
       93.66,
       44.9
      ],
      [
       95.05,
       44.26
      ],
      [
       95.47,
       43.99
      ],
      [
       95.86,
       43.28
      ],
      [
       96.4,
       42.72
      ],
      [
       96.1,
       42.6
      ],
      [
       95.98,
       42.44
      ],
      [
       96.04,
       42.32
      ],
      [
       96.18,
       42.22
      ],
      [
       96.08,
       42.15
      ],
      [
       96.14,
       42.02
      ],
      [
       95.95,
       41.88
      ],
      [
       95.6,
       41.8
      ],
      [
       95.36,
       41.67
      ],
      [
       95.3,
       41.56
      ],
      [
       95.13,
       41.77
      ],
      [
       94.86,
       41.67
      ],
      [
       94.77,
       41.57
      ],
      [
       94.53,
       41.5
      ],
      [
       94.01,
       41.11
      ],
      [
       93.81,
       40.84
      ],
      [
       93.82,
       40.79
      ],
      [
       93.76,
       40.66
      ],
      [
       92.93,
       40.57
      ],
      [
       92.91,
       40.31
      ],
      [
       92.8,
       40.15
      ],
      [
       92.7,
       39.71
      ],
      [
       92.66,
       39.57
      ],
      [
       92.64,
       39.51
      ],
      [
       92.52,
       39.37
      ],
      [
       92.34,
       39.24
      ],
      [
       92.35,
       39.07
      ],
      [
       92.4,
       39.02
      ],
      [
       92.26,
       39
      ],
      [
       91.11,
       38.71
      ],
      [
       90.8,
       38.7
      ],
      [
       89.8,
       38
      ],
      [
       89.6,
       37.3
      ],
      [
       89.6,
       36.476
      ],
      [
       85,
       36.2
      ],
      [
       79.5,
       35.5
      ],
      [
       78.5,
       32.5
      ]
     ]
    ]
   }
  },
  {
   "type": "Feature",
   "properties": {
    "entityId": "yuan",
    "from": 1356,
    "to": 1368,
    "certainty": "estimated",
    "source": "중고등학교 한국사 교과서 시대별 지도의 일반적인 경계를 따른 대략적인 추정. 운영자 검수 필요"
   },
   "geometry": {
    "type": "Polygon",
    "coordinates": [
     [
      [
       78.5,
       32.5
      ],
      [
       81,
       30.2
      ],
      [
       85,
       28.3
      ],
      [
       88.5,
       27.5
      ],
      [
       92,
       27.8
      ],
      [
       96,
       28.3
      ],
      [
       98.5,
       28.2
      ],
      [
       99.5,
       27
      ],
      [
       100.5,
       25
      ],
      [
       102.5,
       23.5
      ],
      [
       104,
       22.8
      ],
      [
       104.2,
       21.5
      ],
      [
       105,
       20
      ],
      [
       106.2,
       19.5
      ],
      [
       108.3,
       18
      ],
      [
       109.5,
       17.9
      ],
      [
       111.3,
       19.5
      ],
      [
       113.5,
       21.5
      ],
      [
       116.5,
       22.5
      ],
      [
       118.5,
       24
      ],
      [
       120.2,
       25.3
      ],
      [
       122.3,
       28
      ],
      [
       123,
       30.5
      ],
      [
       122.5,
       33.5
      ],
      [
       123,
       37.2
      ],
      [
       121,
       38.3
      ],
      [
       120.5,
       39.5
      ],
      [
       121.9,
       40.5
      ],
      [
       120.9,
       39.2
      ],
      [
       121,
       38.5
      ],
      [
       122.5,
       38.6
      ],
      [
       123,
       39
      ],
      [
       123.3846,
       39.2308
      ],
      [
       123.2,
       39
      ],
      [
       123.34,
       38.3
      ],
      [
       124.3125,
       38.3
      ],
      [
       124.3,
       38.4
      ],
      [
       124.6,
       38.6
      ],
      [
       124.5,
       39
      ],
      [
       124.9,
       39.4
      ],
      [
       124,
       39.6
      ],
      [
       124.4,
       40
      ],
      [
       125.5,
       40.6
      ],
      [
       126.5,
       40.9
      ],
      [
       127.3,
       40.8
      ],
      [
       128.2,
       40.6
      ],
      [
       129.2,
       40
      ],
      [
       127.8,
       39.7
      ],
      [
       127.9,
       39.6
      ],
      [
       127.8,
       39.3
      ],
      [
       128.5,
       39.2
      ],
      [
       129.025,
       38.3
      ],
      [
       130.8057,
       38.3
      ],
      [
       131.5,
       41
      ],
      [
       131,
       42.1
      ],
      [
       131.1569,
       41.7548
      ],
      [
       131.8,
       42.2
      ],
      [
       132.5,
       42.4
      ],
      [
       135,
       43.3
      ],
      [
       137,
       44.5
      ],
      [
       141.5,
       44.5
      ],
      [
       141.5,
       48.5
      ],
      [
       118.5,
       48.5
      ],
      [
       118.5,
       47.375
      ],
      [
       117.8,
       47.9
      ],
      [
       116.7,
       49.85
      ],
      [
       114,
       50.2
      ],
      [
       108,
       50.5
      ],
      [
       102,
       51.5
      ],
      [
       95,
       51
      ],
      [
       90,
       50
      ],
      [
       87.5,
       49.2
      ],
      [
       88.2,
       48.5
      ],
      [
       88.8,
       48.12
      ],
      [
       89.6,
       47.92
      ],
      [
       90.3,
       47.65
      ],
      [
       90.95,
       46.75
      ],
      [
       90.9,
       45.95
      ],
      [
       90.67,
       45.6
      ],
      [
       91.2,
       45.15
      ],
      [
       92.9,
       45.02
      ],
      [
       93.66,
       44.9
      ],
      [
       95.05,
       44.26
      ],
      [
       95.47,
       43.99
      ],
      [
       95.86,
       43.28
      ],
      [
       96.4,
       42.72
      ],
      [
       96.1,
       42.6
      ],
      [
       95.98,
       42.44
      ],
      [
       96.04,
       42.32
      ],
      [
       96.18,
       42.22
      ],
      [
       96.08,
       42.15
      ],
      [
       96.14,
       42.02
      ],
      [
       95.95,
       41.88
      ],
      [
       95.6,
       41.8
      ],
      [
       95.36,
       41.67
      ],
      [
       95.3,
       41.56
      ],
      [
       95.13,
       41.77
      ],
      [
       94.86,
       41.67
      ],
      [
       94.77,
       41.57
      ],
      [
       94.53,
       41.5
      ],
      [
       94.01,
       41.11
      ],
      [
       93.81,
       40.84
      ],
      [
       93.82,
       40.79
      ],
      [
       93.76,
       40.66
      ],
      [
       92.93,
       40.57
      ],
      [
       92.91,
       40.31
      ],
      [
       92.8,
       40.15
      ],
      [
       92.7,
       39.71
      ],
      [
       92.66,
       39.57
      ],
      [
       92.64,
       39.51
      ],
      [
       92.52,
       39.37
      ],
      [
       92.34,
       39.24
      ],
      [
       92.35,
       39.07
      ],
      [
       92.4,
       39.02
      ],
      [
       92.26,
       39
      ],
      [
       91.11,
       38.71
      ],
      [
       90.8,
       38.7
      ],
      [
       89.8,
       38
      ],
      [
       89.6,
       37.3
      ],
      [
       89.6,
       36.476
      ],
      [
       85,
       36.2
      ],
      [
       79.5,
       35.5
      ],
      [
       78.5,
       32.5
      ]
     ]
    ]
   }
  }
 ]
}
