{"type":"FeatureCollection","features":[{"type":"Feature","properties":{"note":"일본군 점령 지역 (교과서 전황도 수준 추정)"},"geometry":{"type":"Polygon","coordinates":[[[125.2,39.3],[126,39.25],[126.8,39.4],[127,40.2],[127.6,41],[128.3,41.6],[129.3,42.2],[130,42.9],[131,42.5],[131.2,42],[130,40.5],[128.5,39.3],[129,38.2],[129.6,37],[129.7,36],[129.7,35.2],[129.3,34.8],[128.3,34.7],[128.2,35.2],[128.1,35.6],[127.6,35.95],[127.4,36.15],[127.6,36.4],[127.2,36.8],[126.8,36.9],[126.4,37],[126,37.4],[125.3,37.6],[124.5,38],[124.6,38.8],[125,39.1],[125.2,39.3]]]}}]}
