{"type":"FeatureCollection","features":[{"type":"Feature","properties":{"note":"청군이 장악한 지역 (교과서 전황도 수준 추정)"},"geometry":{"type":"Polygon","coordinates":[[[124.3,40.45],[124.95,40.35],[125.55,39.75],[126,39.1],[126.35,38.45],[126.8,38],[127.25,37.65],[127.1,37.42],[126.8,37.5],[126.35,37.88],[125.85,38.3],[125.5,39],[125.15,39.6],[124.55,40.02],[124.3,40.1],[124.3,40.45]]]}},{"type":"Feature","properties":{"note":"청군이 장악한 지역 (교과서 전황도 수준 추정)"},"geometry":{"type":"Polygon","coordinates":[[[126.65,37.95],[127.55,37.95],[127.65,37.3],[127.25,37.1],[126.75,37.25],[126.65,37.95]]]}},{"type":"Feature","properties":{"note":"청군이 장악한 지역 (교과서 전황도 수준 추정)"},"geometry":{"type":"Polygon","coordinates":[[[126.33,37.58],[126.62,37.58],[126.62,37.83],[126.33,37.83],[126.33,37.58]]]}}]}
